ASUS43 KLOT 220110
RWRIL 

ILLINOIS REGIONAL WEATHER ROUNDUP
NATIONAL WEATHER SERVICE CHICAGO/ROMEOVILLE IL
800 PM CDT FRI OCT 21 2022

NOTE: "FAIR" INDICATES FEW OR NO CLOUDS BELOW 12,000 FEET WITH NO
SIGNIFICANT WEATHER AND/OR OBSTRUCTIONS TO VISIBILITY.

* THESE STATIONS ARE NOT UNDER NWS QUALITY CONTROL. THEY ALSO MAY NOT
  REPORT WEATHER SUCH AS PRECIPITATION OR FOG.

ILZ001-002-007-009-015-016-024-220200-
NORTHWEST ILLINOIS
  
CITY           SKY/WX    TMP DP  RH WIND       PRES   REMARKS
MOLINE         CLEAR     70  38  31 S9        29.66R                  
STERLING*      CLEAR     67  39  35 VRB3      29.69R                  
SAVANNA*       CLEAR     57  37  47 S6        29.66R                  
$$

ILZ003-004-008-010-011-017-018-220200-
NORTH CENTRAL ILLINOIS
  
CITY           SKY/WX    TMP DP  RH WIND       PRES   REMARKS
ROCKFORD       CLEAR     64  40  41 S9        29.69R                  
FREEPORT*      CLEAR     63  43  49 S13       29.69R                  
ROCHELLE*      CLEAR     53  42  65 S7        29.71R                  
DE KALB*       CLEAR     55  41  60 S9        29.72R                  
PERU*          CLEAR     63  40  41 S12       29.71R                  
$$

ILZ005-006-012>014-019>023-220200-
NORTHEAST ILLINOIS
  
CITY           SKY/WX    TMP DP  RH WIND       PRES   REMARKS
CHICAGO-OHARE  CLEAR     70  38  31 S12G24    29.71R                  
CHICAGO-MIDWAY CLEAR     71  38  29 S15G25    29.73R                  
AURORA         CLEAR     61  40  45 S8        29.72R                  
JOLIET*        CLEAR     69  40  35 S10       29.74R                  
WAUKEGAN       CLEAR     68  39  34 SW17G28   29.68R                  
DUPAGE AIRPORT CLEAR     65  39  38 S13       29.72R                  
KANKAKEE*      CLEAR     64  37  36 S12G18    29.78S                  
WHEELING       CLEAR     69  39  33 S14       29.72R                  
MORRIS*        CLEAR     65  41  40 S10       29.73R                  
ROMEOVILLE*    CLEAR     68  39  34 S15       29.75R                  
LANSING*       CLEAR     65  40  40 S12       29.76R                  
$$

LMZ740>746-220200-
SOUTHERN LAKE MICHIGAN
  
STATION/POSITION SKY/WX   TEMP    WIND        PRES    VSBY  WAVE
                          AIR SEA DIR/SP/G                  HT/PER
                          (F)     (DEG/KT/KT) (MB)    (MI)  (FT/S)
S. MID LAKE BUOY           54 48  190/ 12/ 12 1005.9R         3/ 4
WINTHROP HARBOR            62 53  200/ 10/ 14   N/A           2/ 4
WAUKEGAN HARBOR            62 52              1005.8R         1/ 4
WILMETTE BUOY              65 53  200/ 14/ 19 1003.6R         2/ 3
CHICAGO BUOY               64 53  220/ 16/ 19 1006.9R         2/ 3
HARRISON CRIB              71     210/ 27/ 29   N/A
NORTHERLY ISL              70     200/ 16/ 17   N/A
CALUMET HARBOR                    190/  9/ 13 1006.3
BURNS HARBOR               69     180/ 10/ 14 1007.8R
MICHIGAN CITY              69                 1006.2R
MICH CITY BUOY             65                   N/A           2/ 3
ST. JOSEPH BUOY            64 56  170/ 14/ 17 1007.3R         2/ 3
$$

ILZ025>027-034>036-040-047-049-050-058-095>099-220200-
WEST-CENTRAL ILLINOIS
  
CITY           SKY/WX    TMP DP  RH WIND       PRES   REMARKS
QUINCY         PTCLDY    70  35  27 S10       29.70R                  
GALESBURG*     CLEAR     65  41  41 SE6       29.70R                  
MACOMB*        CLEAR     64  36  35 S12       29.71S                  
JACKSONVILLE*  CLEAR     67  37  32 S12       29.75R                  
PITTSFIELD*    PTCLDY    62  38  41 S7        29.75R                  
$$

ILZ028>032-037-038-041>044-048-051>054-059>061-220200-
CENTRAL ILLINOIS
  
CITY           SKY/WX    TMP DP  RH WIND       PRES   REMARKS
PONTIAC        CLEAR     64  44  49 S14       29.75S                  
BLOOMINGTON    CLEAR     61  39  44 S16       29.78R                  
DECATUR        CLEAR     63  40  42 S12       29.81R                  
PEORIA         CLEAR     68  38  33 S12       29.72R                  
LACON*         CLEAR     70  44  39 S12       29.70R                  
LINCOLN*       CLEAR     66  41  40 S14       29.76S                  
SPRINGFIELD    CLEAR     68  39  34 S14G28    29.76S                  
TAYLORVILLE    CLEAR     65  39  39 S12       29.80S                  
$$

ILZ033-039-045-046-055>057-062-063-220200-
EAST-CENTRAL ILLINOIS
  
CITY           SKY/WX    TMP DP  RH WIND       PRES   REMARKS
CHAMPAIGN      CLEAR     64  37  36 S16       29.82R                  
DANVILLE*      CLEAR     65  37  35 S10G16    29.84R                  
RANTOUL*       CLEAR     63  37  37 S9        29.81R                  
MATTOON        CLEAR     64  37  36 S10       29.84R                  
PARIS*         CLEAR     57  39  50 S12       29.86S                  
$$

ILZ079-100>102-220200-
SOUTHWEST ILLINOIS
  
CITY           SKY/WX    TMP DP  RH WIND       PRES   REMARKS
ALTON          CLEAR     64  39  39 S13       29.80R                  
BELLEVILLE     CLEAR     63  41  45 S6        29.81R                  
CAHOKIA*       CLEAR     66  39  37 S8        29.80R                  
SPARTA*        CLEAR     68  46  44 S8        29.86R                  
$$

ILZ064>066-069>071-074>076-080>082-084>086-088>090-092>094-220200-
SOUTH-CENTRAL ILLINOIS
  
CITY           SKY/WX    TMP DP  RH WIND       PRES   REMARKS
CARBONDALE     CLEAR     60  44  55 S5        29.88R                  
CAIRO*         CLEAR     66  47  50 CALM      29.89R                  
EFFINGHAM*     CLEAR     63  37  39 SE7       29.87S                  
MARION         CLEAR     63  45  51 S3        29.89R                  
MT. VERNON     CLEAR     64  41  42 S3        29.87R                  
SALEM*         CLEAR     66  38  35 S5        29.86R                  
METROPOLIS*    CLEAR     61  45  55 CALM      29.91R                  
$$

ILZ067-068-072-073-078-083-087-091-220200-
SOUTHEAST ILLINOIS
  
CITY           SKY/WX    TMP DP  RH WIND       PRES   REMARKS
LAWRENCEVILLE  CLEAR     55  32  41 S9        29.89R                  
FLORA*         CLEAR     57  37  47 S8        29.87S                  
FAIRFIELD*     CLEAR     62  36  38 S5        29.87R                  
HARRISBURG*    CLEAR     60  45  58 CALM      29.89R                  
ROBINSON*      CLEAR     58  35  41 S6        29.89R                  
CARMI*         CLEAR     57  37  47 S7        29.89S                  
$$

ABBREVIATIONS USED IN REMARKS
   TC - TEMPERATURE IN CELSIUS
  WCI - WIND CHILL INDEX
   HX - HEAT INDEX
  VSB - VISIBILITY
$$

  
