ASUS45 KREV 220110
RWRNV 
NEVADA REGIONAL WEATHER ROUNDUP
NATIONAL WEATHER SERVICE RENO NV
600 PM PDT FRI OCT 21 2022

NOTE: "FAIR" INDICATES FEW OR NO CLOUDS BELOW 12,000 FEET WITH NO
SIGNIFICANT WEATHER AND/OR OBSTRUCTIONS TO VISIBILITY.

NVZ001-003-004-220200-
WESTERN NEVADA
  
CITY           SKY/WX    TMP DP  RH WIND       PRES   REMARKS
RENO           MOCLDY    72  23  16 W17G32    29.85F                  
CARSON CITY    FAIR      70  21  16 SW8G24    29.90F                  
MINDEN         FAIR      68  19  15 SW16G30   29.90F                  
SLIDE MTN        N/A     45  27  49 NW29        N/A                   
PYRAMID LAKE     N/A     77 N/A N/A W5          N/A                   
FALLON           N/A    N/A N/A N/A MISG      29.80S                  
LOVELOCK       PTCLDY    74  23  15 W15       29.77F                  
$$

NVZ002-CAZ072-073-220200-
NORTHERN AND CENTRAL SIERRA
  
CITY           SKY/WX    TMP DP  RH WIND       PRES   REMARKS
S. LAKE TAHOE  PTCLDY    60  25  26 VRB7G20   30.00F                  
TRUCKEE        CLEAR     63  25  23 S13G18    29.98F                  
BLUE CANYON    PTCLDY    61  33  35 S8        29.99F                  
SUSANVILLE     FAIR       5 -31  17 W18G24    29.83S WCI -15          
MAMMOTH LAKES  FAIR      57  21  24 W9        30.07S                  
BRIDGEPORT       N/A     63  23  22 W12         N/A                   
$$

NVZ030-031-036-220200-
NORTHERN NEVADA
  
CITY           SKY/WX    TMP DP  RH WIND       PRES   REMARKS
ELKO           LGT RAIN  67  17  14 SW15G24   29.78F                  
WINNEMUCCA       N/A     72  21  14 SW14      29.75F                  
BATTLE MOUNTAI PTCLDY    70  19  14 SW10      29.78F                  
WENDOVER       CLEAR     72  13  10 W10       29.72F                  
$$

NVZ035-037-220200-
CENTRAL NEVADA
  
CITY           SKY/WX    TMP DP  RH WIND       PRES   REMARKS
ELY            CLEAR     59  13  16 S10       29.91F                  
EUREKA           N/A     64  11  12 W9        29.88F                  
$$

NVZ013-014-220200-
SOUTH CENTRAL NEVADA
  
CITY           SKY/WX    TMP DP  RH WIND       PRES   REMARKS
TONOPAH        CLEAR     67  18  15 W6        29.92F                  
$$

NVZ017-020-022-220200-
SOUTHERN NEVADA
  
CITY           SKY/WX    TMP DP  RH WIND       PRES   REMARKS
LAS VEGAS      PTCLDY    83  31  15 S8        29.79F                  
N. LAS VEGAS   CLEAR     84  30  14 S8        29.77F                  
NELLIS AFB     CLEAR     82  36  19 SE8       29.74F                  
HENDERSON      CLEAR     81  37  20 S13       29.82F                  
MERCURY        CLEAR     76  24  14 SW10      29.84F                  
$$
  
