ASUS45 KTFX 231810
RWRMT 
Montana Regional Weather Roundup
National Weather Service Great Falls MT
1200 PM MDT SUN OCT 23 2022

NOTE: "FAIR" indicates few or no clouds below 12,000 feet with no
significant weather and/or obstructions to visibility.

MTZ001>007-043-231900-
West of the divide
  
CITY           SKY/WX    TMP DP  RH WIND       PRES   REMARKS
Kalispell      MOSUNNY   43  33  68 N9        29.91R                  
Missoula       CLOUDY    41  34  76 NW10      29.91R                  
Butte          LGT SNOW  31  27  85 NW9       29.79R FOG     WCI  23  
Anaconda         N/A     34  27  75 NW7G17    29.82  WCI  28          
Deer Lodge       N/A     37  27  65 NW16G22   29.84  WCI  28          
Hamilton         N/A     37  34  87 CALM      29.91R                  
Libby            N/A     39  39 100 CALM      29.97                   
Mullan Pass    HAZE      31  26  82 CALM      29.89R VSB 1/4          
Plains           N/A     43  10  26 CALM      29.97R                  
$$

MTZ008-052>055-231900-
Southwest Montana
  
CITY           SKY/WX    TMP DP  RH WIND       PRES   REMARKS
Bozeman        LGT SNOW  32  31  96 W7        29.79R VSB 1   WCI  26  
Dillon         CLOUDY    31  29  92 S6        29.77R WCI  25          
Ennis            N/A     30  28  93 NW5       29.80R WCI  25          
Twin Bridges   LGT SNOW  34  28  80 NE6       29.81R WCI  29          
$$

MTZ009-010-012-014-046-048-049-054-231900-
East Slopes and Central Montana
  
CITY           SKY/WX    TMP DP  RH WIND       PRES   REMARKS
Cut Bank       LGT SNOW  32  30  92 N28G38    29.85R FOG     WCI  18  
Great Falls    LGT SNOW  32  31  96 N20G26    29.80R FOG     WCI  20  
Helena         LGT SNOW  36  30  79 NW14G20   29.82R WCI  27          
Malmstrom AFB  LGT SNOW  32  32  99 N15       29.80  WCI  22          
Augusta        LGT SNOW  31  30  99 N31       29.80R VSB 5/8 WCI  15  
Fairfield      LGT SNOW  32  30  90 SW26      29.78R VSB 3/4 WCI  19  
Power          LGT SNOW  31  30  97 NW29      29.76R WCI  16          
Raynesford     LGT SNOW  31  31  99 NW12      29.75R WCI  22          
Ulm            LGT SNOW  33  33 100 NW17      29.78R WCI  21          
$$

MTZ011-013-016-021-045-047-050-051-231900-
North Central Montana
  
CITY           SKY/WX    TMP DP  RH WIND       PRES   REMARKS
Havre          CLOUDY    36  33  89 N16G26    29.74R WCI  26          
Lewistown      SNOW      31  29  92 W15G24    29.67R VSB 1/2 WCI  20  
Chinook          N/A     36  36 100 N9        29.74  WCI  29          
Denton         LGT SNOW  32  31  96 NW21G26   29.68R WCI  20          
Fort Benton      N/A     34  34 100 W10G17    29.79  WCI  26          
Geyser         FLURRIES  33  29  83 N5        29.71R WCI  29          
Grass Range    LGTSLEET  34  32  92 W22       29.57R WCI  22          
Judith Gap     LGT SNOW  31  30  96 N31       29.62R VSB 1   WCI  16  
N Bar Ranch    FAIR      32  28  86 NW24G33   29.61R HAZE    WCI  19  
Roy            LGT SNOW  33  32  95 NW22      29.60R WCI  21          
Stanford       LGT SNOW  31  30  93 NW29G35   29.68R WCI  17          
$$

MTZ017>020-022>027-061-062-231900-
Northeast Montana
  
CITY           SKY/WX    TMP DP  RH WIND       PRES   REMARKS
Glasgow        RAIN      36  33  89 NE15      29.56R FOG     WCI  27  
Culbertson     CLOUDY    41  41 100 NE18      29.49F                  
Glendive       CLOUDY    44  42  93 N12       29.45R                  
Jordan           N/A     40  38  93 NW17      29.53R WCI  31          
Malta          SUNNY     36  36 100 N13       29.62R FOG     WCI  27  
Plentywood     CLOUDY    37  36  93 NE22      29.56F WCI  27          
Sidney         CLOUDY    44  41  89 NE13      29.46F                  
Wolf Point     LGT RAIN  41  39  93 NE16G26   29.53R                  
$$

MTZ028>42-056>058-231900-
Southcentral and southeast Montana
  
CITY           SKY/WX    TMP DP  RH WIND       PRES   REMARKS
Baker          CLOUDY    45  39  79 NE6       29.41R                  
Big Timber       N/A     36  28  75 W30G40    29.67R WCI  22          
Billings       CLOUDY    40  30  67 NW17G31   29.63R WCI  31          
Forsyth          N/A     34  34 100 W13       29.55  WCI  25          
Hardin           N/A    N/A N/A N/A MISG        N/A                   
Harlowton      LGT RAIN  36  30  78 NW13G23   29.63R WCI  27          
Laurel           N/A     41  28  60 W21G30    29.64                   
Livingston     LGT SNOW  34  29  82 SW20      29.72R VSB 1   WCI  23  
Miles City     RAIN      42  41  96 NW10      29.47F FOG              
Roundup          N/A     39  27  60 MISG      29.55R                  
$$

Regional Reports...Dakotas/MN
  
CITY           SKY/WX    TMP DP  RH WIND       PRES   REMARKS
Williston      CLOUDY    40  37  89 NE21G30   29.48F WCI  30          
Minot          CLOUDY    48  41  76 NE20G26   29.46F                  
Dickinson      PTSUNNY   46  39  76 NE14      29.35R                  
Beach          CLOUDY    43  41  93 NE14      29.43S                  
Bowman         CLOUDY    45  41  87 NE17      29.33F                  
Crosby         CLOUDY    41  37  87 NE21      29.57S                  
Glen Ullin     FAIR      52  37  58 NE18      29.32F                  
Hettinger      PTSUNNY   52  39  61 N10       29.30F                  
Tioga          CLOUDY    39  41 100 NE22G30   29.49F WCI  29          
Watford City   CLOUDY    45  45 100 NE16G22   29.45F                  
Bismarck       PTSUNNY   55  40  56 NE20G26   29.32F                  
Grand Forks    MOSUNNY   63  45  51 E8        29.47F                  
Fargo          SUNNY     72  52  49 E15G22    29.42F                  
Buffalo SD       N/A     47  38  71 NW16      29.33R                  
Rapid City     PTSUNNY   51  37  58 N33G49    29.25S                  
Intl Falls     SUNNY     71  50  47 E8        29.63F                  
Duluth         PTSUNNY   64  50  60 E14       29.68F                  
Minneapolis    SUNNY     74  54  49 SE16G39   29.56F                  
$$

Regional Reports...WY/CO/ID/WA/OR
  
CITY           SKY/WX    TMP DP  RH WIND       PRES   REMARKS
Buffalo WY     LGT SNOW  35  32  88 NW26G39   29.50R FOG     WCI  22  
Cody           CLOUDY    35  30  82 NE12      29.62R WCI  27          
Gillette       FLURRIES  34  50 100 MISG      29.47R                  
Powell         LGT SNOW  32  28  86 NW29G37   29.59R WCI  18          
Sheridan       MIX PCPN  37  33  85 NW23G37   29.57R WCI  26          
Yellowstone La   N/A     26  20  77 MISG      29.67R                  
Boise          MOSUNNY   45  31  58 NW16G26   29.96R                  
Couer d'Alene  MOSUNNY   42  36  79 SW6       30.00R                  
Idaho Falls    PTSUNNY   41  23  48 N3        29.77R                  
Salmon         CLOUDY    40  23  50 SE5       29.87R                  
Spokane        MOSUNNY   42  35  76 VRB3      30.00R                  
Seattle        CLOUDY    47  44  90 SW5       30.14R                  
Portland       PTSUNNY   53  44  71 CALM      30.16R                  
$$

Other Reports
  
CITY           SKY/WX    TMP DP  RH WIND       PRES   REMARKS
Atlanta        MOSUNNY   73  39  29 CALM      30.21F                  
Anchorage      PTCLDY    28  21  75 VRB3      29.88R                  
Chicago        MOSUNNY   76  55  48 S21G30    29.87F                  
Fairbanks      FOG       29  27  92 CALM      30.00R VSB 1/4          
Houston        PTSUNNY   84  59  42 S17G31    29.94F                  
Las Vegas NV   MOSUNNY   61  14  16 NW18G26   29.86R                  
Phoenix AZ     PTSUNNY   72  47  40 W14       29.77R                  
Salt Lake City PTSUNNY   43  31  62 NW15      29.78R                  
San Diego      PTSUNNY   68  47  46 S9        29.89S                  
San Francisco  SUNNY     61  41  47 CALM      30.02S                  
Washington Dul CLOUDY    63  52  67 N10       30.22F                  
$$

Regional Reports...Alberta
  
CITY           SKY/WX    TMP DP  RH WIND       PRES   REMARKS
Calgary        CLOUDY    34  28  80 NW10      30.00S WCI  26          
Cardston         N/A     30  30 100 N17G23      N/A  WCI  18          
Crowsnest Pass   N/A     32  28  86 E5          N/A  WCI  27          
Del Bonita       N/A     30  28  93 NW24        N/A  WCI  16          
Fort McMurray  CLOUDY    36  32  87 VRB2      30.07R                  
High Level     PTSUNNY   27  25  93 SE9       30.07F WCI  17          
Lethbridge     LGT SNOW  34  32  93 N16G23    29.94R FOG     WCI  23  
Medicine Hat   LGT SNOW  32  32 100 N20       29.89R VSB 3/4 WCI  20  
Milk River       N/A     32  30  93 N25         N/A  WCI  19          
Pincher Creek  CLOUDY    32  28  86 N18G24    29.98R WCI  20          
Raymond          N/A     32  32 100 N16         N/A  WCI  21          
Waterton Gate    N/A     30  28  93 N9          N/A  WCI  22          
Fort Smith NWT PTSUNNY   28  18  64 VRB3      30.13S                  
$$

Regional Reports...Saskatchewan
  
CITY           SKY/WX    TMP DP  RH WIND       PRES   REMARKS
Assiniboia       N/A     30  30 100 NE28G33     N/A  WCI  16          
Coronach         N/A     34  32  93 N20G30      N/A  WCI  22          
Cypress Hills    N/A     27  27 100 N12G24      N/A  WCI  16          
Estevan        CLOUDY    41  37  87 NE17G25   29.58F                  
Moose Jaw        N/A     32  32 100 N26G33      N/A  WCI  18          
Prince Albert  CLOUDY    39  25  56 NE10      30.05S WCI  32          
Regina         LGT SNOW  32  30  93 NE28G37   29.74S WCI  18          
Rockglen         N/A     30  28  93 NE15G26     N/A  WCI  19          
Saskatoon      LGT SNOW  34  30  86 NE14      29.99R WCI  24          
Swift Current  LGT SNOW  30  28  93 NE30G36   29.76R VSB 1   WCI  15  
Uranium City     N/A     30  25  80 E2          N/A                   
Val Marie        N/A     32  30  93 NE26G32     N/A  WCI  18          
$$
  
