ASUS45 KTFX 232110
RWRMT 
Montana Regional Weather Roundup
National Weather Service Great Falls MT
300 PM MDT SUN OCT 23 2022

NOTE: "FAIR" indicates few or no clouds below 12,000 feet with no
significant weather and/or obstructions to visibility.

MTZ001>007-043-232200-
West of the divide
  
CITY           SKY/WX    TMP DP  RH WIND       PRES   REMARKS
Kalispell      CLOUDY    48  29  47 VRB7      29.96R                  
Missoula       CLOUDY    46  34  62 VRB6      29.96R                  
Butte          CLOUDY    34  26  72 NW16G23   29.84R WCI  24          
Anaconda         N/A     37  27  65 NW8       29.86  WCI  31          
Deer Lodge       N/A     37  27  65 NW21G28   29.89  WCI  27          
Hamilton         N/A     39  34  81 NE7       29.96R WCI  34          
Libby            N/A     48  32  53 CALM      29.99                   
Mullan Pass    FOG       30  26  85 NW5       29.96  VSB 1/4 WCI  25  
$$

MTZ008-052>055-232200-
Southwest Montana
  
CITY           SKY/WX    TMP DP  RH WIND       PRES   REMARKS
Bozeman        LGT SNOW  33  31  92 W8        29.83R VSB 1   WCI  26  
Dillon         LGT SNOW  30  30 100 S9        29.83R FOG     WCI  22  
Ennis            N/A     30  28  93 N17       29.84R WCI  18          
Twin Bridges   FAIR      36  30  80 SW5       29.85R WCI  32          
$$

MTZ009-010-012-014-046-048-049-054-232200-
East Slopes and Central Montana
  
CITY           SKY/WX    TMP DP  RH WIND       PRES   REMARKS
Cut Bank       CLOUDY    32  31  96 N24G33    29.93R WCI  19          
Great Falls    LGT SNOW  32  31  96 N22G31    29.87R FOG     WCI  19  
Helena         LGT SNOW  36  30  79 NW17      29.87R WCI  26          
Malmstrom AFB  LGT SNOW  32  31  98 N18       29.86R WCI  20          
Augusta        LGT SNOW  31  31  99 N29G37    29.87R WCI  17          
Fairfield      LGT SNOW  32  30  90 W28       29.85R WCI  19          
Power          LGT SNOW  31  30  97 NW25      29.84R WCI  17          
Raynesford     LGT SNOW  31  31  99 NW18      29.80R WCI  19          
Ulm            LGT SNOW  33  33  99 N17       29.84R WCI  22          
$$

MTZ011-013-016-021-045-047-050-051-232200-
North Central Montana
  
CITY           SKY/WX    TMP DP  RH WIND       PRES   REMARKS
Havre          LGT SNOW  34  32  92 N21G29    29.82R WCI  22          
Lewistown      LGT SNOW  30  29  96 NW15G36   29.72R VSB 3/4 WCI  19  
Chinook          N/A     34  34 100 N16G22    29.82  WCI  23          
Denton         LGT SNOW  32  31  96 NW28G33   29.73R WCI  18          
Geyser         FLURRIES  32  28  83 NW12      29.76R WCI  23          
Grass Range    FLURRIES  34  33  94 W22G28    29.63R WCI  22          
Judith Gap     LGT SNOW  30  29  97 N36G41    29.66R VSB 3/4 WCI  14  
N Bar Ranch    FOG       32  28  86 NW24G35   29.66R VSB 1   WCI  19  
Roy            LGT SNOW  33  32  95 NW25G33   29.64R WCI  20          
Stanford       FLURRIES  31  29  93 NW29      29.74R WCI  16          
$$

MTZ017>020-022>027-061-062-232200-
Northeast Montana
  
CITY           SKY/WX    TMP DP  RH WIND       PRES   REMARKS
Glasgow        LGT SNOW  34  32  92 NW9       29.60R FOG     WCI  27  
Culbertson     CLOUDY    41  41 100 NE18G25   29.49R                  
Glendive       LGT RAIN  41  41 100 N14       29.47R FOG              
Jordan           N/A     36  34  92 NW17      29.58R WCI  26          
Malta          FOG       32  32 100 N22G31    29.67R VSB 1/4 WCI  19  
Plentywood     CLOUDY    37  36  93 NE25      29.54S FOG     WCI  26  
Sidney         CLOUDY    41  39  93 N16       29.48S                  
Wolf Point     LGT RAIN  41  38  89 NE17      29.55R                  
$$

MTZ028>42-056>058-232200-
Southcentral and southeast Montana
  
CITY           SKY/WX    TMP DP  RH WIND       PRES   REMARKS
Baker          CLOUDY    43  39  86 NW17      29.42R FOG              
Big Timber     SUNNY     37  25  60 W25G36    29.71R WCI  26          
Billings       CLOUDY    39  33  79 NW17G25   29.66R WCI  30          
Forsyth          N/A     37  37 100 W22G30    29.57  WCI  27          
Hardin           N/A    N/A N/A N/A MISG        N/A                   
Harlowton      CLOUDY    37  29  72 N21       29.67R WCI  26          
Laurel           N/A     39  34  81 W18G28    29.68  WCI  30          
Livingston     HVY SNOW  32  30  92 NW8       29.77  VSB 1/4 WCI  25  
Miles City     LGT RAIN  38  36  92 NW20      29.52R WCI  28          
$$

Regional Reports...Dakotas/MN
  
CITY           SKY/WX    TMP DP  RH WIND       PRES   REMARKS
Williston      CLOUDY    40  37  89 NE25G31   29.47S WCI  29          
Minot          CLOUDY    53  41  63 N15G26    29.39F                  
Dickinson      CLOUDY    49  40  71 N16G23    29.34R                  
Beach          CLOUDY    43  43 100 N13       29.43R                  
Bowman         CLOUDY    43  43 100 N20       29.36R                  
Crosby         CLOUDY    41  37  87 NE16      29.53S                  
Glen Ullin     CLOUDY    55  39  54 NE15      29.30S                  
Hettinger      CLOUDY    51  40  65 N14G24    29.33R                  
Tioga          CLOUDY    41  41 100 NE24      29.47S                  
Watford City   CLOUDY    45  43  93 N13       29.44S                  
Bismarck       PTSUNNY   65  46  50 E16       29.27S                  
Grand Forks    MOSUNNY   77  53  43 E17G28    29.36F                  
Fargo          MOSUNNY   75  52  44 SE18G36   29.32F                  
Buffalo SD       N/A     46  38  73 NW26G33   29.34R                  
Rapid City     PTSUNNY   48  36  63 N37G48    29.33R                  
Intl Falls     MOSUNNY   73  51  46 SE21G30   29.57F                  
Duluth         MOSUNNY   66  51  58 E17G26    29.62F                  
Minneapolis    MOSUNNY   77  54  44 SE28G45   29.49F                  
$$

Regional Reports...WY/CO/ID/WA/OR
  
CITY           SKY/WX    TMP DP  RH WIND       PRES   REMARKS
Buffalo WY     CLOUDY    37  28  70 NW31G54   29.50R WCI  24          
Cody           PTSUNNY   39  25  57 N15       29.63R WCI  31          
Gillette       CLOUDY    35  32  88 MISG      29.51R                  
Powell         FAIR      37  21  52 NW26G40   29.61R WCI  26          
Sheridan       CLOUDY    39  32  76 NW29G38   29.59R WCI  27          
Yellowstone La   N/A     27  18  69 VRB7G18   29.71R WCI  19          
Boise          PTSUNNY   49  29  46 NW16      29.98R                  
Couer d'Alene  PTSUNNY   49  34  56 SW8       30.04R                  
Idaho Falls    CLOUDY    39  24  55 W9G21     29.82R WCI  33          
Salmon         CLOUDY    42  23  46 N8G20     29.91R                  
Spokane        MOSUNNY   48  33  56 VRB6      30.04R                  
Seattle        PTSUNNY   52  42  69 W7        30.17R                  
Portland       PTSUNNY   59  42  53 CALM      30.19R                  
$$

Other Reports
  
CITY           SKY/WX    TMP DP  RH WIND       PRES   REMARKS
Atlanta        MOSUNNY   74  36  25 SE3       30.15F                  
Anchorage      MOSUNNY   33  22  63 N6        29.90S WCI  28          
Boston         LGT RAIN  56  48  74 NE8       30.33R                  
Chicago        MOSUNNY   78  54  43 S21G41    29.82F                  
Fairbanks      LGT SNOW  30  28  92 CALM      30.02R VSB 1            
Houston        PTSUNNY   85  61  44 S18G33    29.87F                  
Las Vegas NV   MOSUNNY   64  14  14 N25G33    29.84F                  
Phoenix AZ     MOSUNNY   77  43  29 W14G28    29.71F                  
Salt Lake City PTSUNNY   45  28  51 NW17      29.84R                  
San Diego      MOSUNNY   69  48  47 S8        29.87F                  
San Francisco  SUNNY     65  42  43 W18       29.99F                  
Washington Dul CLOUDY    66  51  58 N13       30.19F                  
$$

Regional Reports...Alberta
  
CITY           SKY/WX    TMP DP  RH WIND       PRES   REMARKS
Calgary        PTSUNNY   34  28  80 NE5       30.01S WCI  30          
Cardston         N/A     32  30  93 NW13G22     N/A  WCI  22          
Crowsnest Pass   N/A     34  28  80 SE6         N/A  WCI  29          
Del Bonita       N/A     30  30 100 NW22        N/A  WCI  17          
Fort McMurray  CLOUDY    39  32  75 E3        30.05F                  
High Level     CLOUDY    28  25  86 SE10      30.02F WCI  19          
Lethbridge     FLURRIES  34  34 100 N13G18    29.99R WCI  25          
Medicine Hat   LGT SNOW  34  32  93 N14G20    29.95R WCI  24          
Milk River       N/A     32  32 100 N23         N/A  WCI  19          
Pincher Creek  MIX PCPN  32  30  93 W5        30.02R WCI  27          
Raymond          N/A     34  34 100 N13         N/A  WCI  25          
Waterton Gate    N/A     30  28  93 N7          N/A  WCI  23          
Fort Smith NWT PTSUNNY   30  21  69 NE3       30.09F                  
$$

Regional Reports...Saskatchewan
  
CITY           SKY/WX    TMP DP  RH WIND       PRES   REMARKS
Assiniboia       N/A     30  30 100 NE25G31     N/A  WCI  16          
Coronach         N/A     32  32 100 N18G28      N/A  WCI  20          
Cypress Hills    N/A     27  25  93 N12G20      N/A  WCI  16          
Estevan        CLOUDY    41  37  87 NE21G30   29.53R                  
Moose Jaw        N/A     32  32 100 NE20G28     N/A  WCI  20          
Prince Albert  CLOUDY    39  23  52 E17G26    30.05S WCI  30          
Regina         CLOUDY    34  30  86 NE33G44   29.67F WCI  19          
Rockglen         N/A     30  28  93 NE6         N/A  WCI  24          
Saskatoon      CLOUDY    36  30  80 NE17G29   29.97F WCI  25          
Swift Current  SNOW      30  28  93 NE26G32   29.79R VSB 3/8 WCI  16  
Uranium City     N/A     34  23  64 SE5         N/A  WCI  30          
Val Marie        N/A     30  30 100 NE26G33     N/A  WCI  16          
$$
  
