ASUS45 KGGW 231710
RWRGGW
HOURLY REGIONAL WEATHER ROUNDUP FOR NORTHEAST MONTANA
NATIONAL WEATHER SERVICE GLASGOW MONTANA
1100 AM MDT SUN OCT 23 2022

NOTE: "FAIR" INDICATES FEW OR NO CLOUDS BELOW 12,000 FEET WITH NO
SIGNIFICANT WEATHER AND/OR OBSTRUCTIONS TO VISISBILITY.

NORTHEAST MONTANA

  
CITY           SKY/WX    TMP DP  RH WIND       PRES   REMARKS
GLASGOW        LGT RAIN  40  37  89 NE16      29.52F                  
WOLF POINT     LGT RAIN  41  39  93 NE16      29.52S                  
JORDAN           N/A     43  41  93 NW9       29.51R                  
SIDNEY         CLOUDY    44  41  89 NE13      29.48R                  
GLENDIVE       CLOUDY    44  42  93 NE13      29.44F                  
MALTA            N/A     35  35 100 NE12G20     N/A                   

FORT PECK REPORTS

  
CITY           SKY/WX    TMP DP  RH WIND       PRES   REMARKS
FORT PECK        N/A     40  40 100 NE14        N/A                   
THE PINES        N/A     42  39  89 NE12        N/A                   

SOUTHEAST MONTANA

  
CITY           SKY/WX    TMP DP  RH WIND       PRES   REMARKS
BILLINGS       CLOUDY    39  29  67 NW15G28   29.61R                  
MILES CITY     RAIN      43  41  93 W9        29.47R FOG              
BAKER          CLOUDY    44  39  82 NE7       29.40S                  
LIVINGSTON     LGT SNOW  34  29  82 W18       29.69R                  

CENTRAL MONTANA

  
CITY           SKY/WX    TMP DP  RH WIND       PRES   REMARKS
HAVRE          CLOUDY    35  33  92 N16G25    29.72R                  
LEWISTOWN      LGT SNOW  31  29  92 W13G23    29.65R VSB 3/4          
GREAT FALLS    LGT SNOW  32  31  96 N22G31    29.76R FOG              
CUT BANK       LGT SNOW  31  30  96 NW28G38   29.84R VSB 3/4          
HELENA         CLOUDY    36  31  82 W7        29.79R                  
BUTTE          LGT SNOW  30  26  85 NW12      29.77R FOG              
BOZEMAN        CLOUDY    32  31  96 CALM      29.76R                  

WESTERN MONTANA

  
CITY           SKY/WX    TMP DP  RH WIND       PRES   REMARKS
MISSOULA       CLOUDY    39  35  86 NW10      29.89R                  
KALISPELL      NOT AVBL                                               

NORTH DAKOTA

  
CITY           SKY/WX    TMP DP  RH WIND       PRES   REMARKS
WILLISTON      CLOUDY    40  37  89 NE20G29   29.49F                  
DICKINSON      CLOUDY    44  39  82 NE16G24   29.36F                  
MINOT          CLOUDY    46  40  79 NE21G29   29.50F                  
BISMARCK       CLOUDY    53  39  59 E18G28    29.36F                  

SOUTHERN SASKATCHEWAN

  
CITY           SKY/WX    TMP DP  RH WIND       PRES   REMARKS
REGINA         LGT SNOW  32  30  93 NE22G32   29.74S                  
ESTEVAN        CLOUDY    41  37  87 E20       29.60R                  
SWIFT CURRENT  SNOW      30  30 100 NE29G36   29.74R VSB 1/2          

  
