ASUS45 KGGW 231815
RWRGGW
HOURLY REGIONAL WEATHER ROUNDUP FOR NORTHEAST MONTANA
NATIONAL WEATHER SERVICE GLASGOW MONTANA
1200 PM MDT SUN OCT 23 2022

NOTE: "FAIR" INDICATES FEW OR NO CLOUDS BELOW 12,000 FEET WITH NO
SIGNIFICANT WEATHER AND/OR OBSTRUCTIONS TO VISISBILITY.

NORTHEAST MONTANA

  
CITY           SKY/WX    TMP DP  RH WIND       PRES   REMARKS
GLASGOW        LGT SNOW  35  33  92 NE12      29.57R FOG              
6HR MIN TEMP:  36; 6HR MAX TEMP:  43; 6HR PCP:  0.18;                

WOLF POINT     LGT RAIN  41  39  93 NE16G26   29.53R                  
JORDAN           N/A     40  38  93 NW17      29.53R                  
SIDNEY         CLOUDY    44  41  89 NE13      29.46F                  
GLENDIVE       CLOUDY    44  42  93 N12       29.45R                  
MALTA            N/A     34  34 100 NE10G20     N/A                   

FORT PECK REPORTS

  
CITY           SKY/WX    TMP DP  RH WIND       PRES   REMARKS
FORT PECK        N/A     40  40 100 N12G20      N/A                   
THE PINES        N/A     40  37  89 N10         N/A                   

SOUTHEAST MONTANA

  
CITY           SKY/WX    TMP DP  RH WIND       PRES   REMARKS
BILLINGS       CLOUDY    40  30  67 NW17G31   29.63R                  
MILES CITY     RAIN      42  41  96 NW10      29.47F FOG              
BAKER          CLOUDY    45  39  79 NE6       29.41R                  
LIVINGSTON     LGT SNOW  34  29  82 W10       29.73R VSB 1            

CENTRAL MONTANA

  
CITY           SKY/WX    TMP DP  RH WIND       PRES   REMARKS
HAVRE          CLOUDY    36  33  89 N16G26    29.74R                  
LEWISTOWN      LGT SNOW  31  29  92 W18G28    29.68R VSB 3/4          
GREAT FALLS    LGT SNOW  32  31  96 N20G26    29.81R FOG              
CUT BANK       LGT SNOW  32  30  92 N28G38    29.85R FOG              
HELENA         LGT SNOW  36  30  79 NW14G20   29.82R                  
BUTTE          LGT SNOW  31  27  85 NW9       29.79R FOG              
BOZEMAN        LGT SNOW  32  31  96 W7        29.79R VSB 1            

WESTERN MONTANA

  
CITY           SKY/WX    TMP DP  RH WIND       PRES   REMARKS
MISSOULA       CLOUDY    41  34  76 NW10      29.91R                  
KALISPELL      NOT AVBL                                               

NORTH DAKOTA

  
CITY           SKY/WX    TMP DP  RH WIND       PRES   REMARKS
WILLISTON      CLOUDY    40  37  89 NE21G30   29.48F                  
DICKINSON      PTSUNNY   46  39  76 NE14      29.35R                  
MINOT          CLOUDY    48  41  76 NE20G26   29.46F                  
BISMARCK       CLOUDY    55  40  56 NE20G26   29.32F                  

SOUTHERN SASKATCHEWAN

  
CITY           SKY/WX    TMP DP  RH WIND       PRES   REMARKS
REGINA         LGT SNOW  32  30  93 NE28G37   29.74S                  
ESTEVAN        CLOUDY    41  37  87 NE17G25   29.58F                  
SWIFT CURRENT  LGT SNOW  30  28  93 NE30G36   29.76R VSB 1            

  
