ASUS45 KTFX 231910
RWRMT 
Montana Regional Weather Roundup
National Weather Service Great Falls MT
100 PM MDT SUN OCT 23 2022

NOTE: "FAIR" indicates few or no clouds below 12,000 feet with no
significant weather and/or obstructions to visibility.

MTZ001>007-043-232000-
West of the divide
  
CITY           SKY/WX    TMP DP  RH WIND       PRES   REMARKS
Kalispell      MOSUNNY   46  29  51 N12       29.93R                  
Missoula       CLOUDY    42  34  73 NW9       29.93R                  
Butte          LGT SNOW  31  27  85 NW9G21    29.81R FOG     WCI  23  
Anaconda         N/A     36  27  69 W15       29.83  WCI  26          
Deer Lodge       N/A     37  27  65 NW24G30   29.85  WCI  26          
Hamilton       MOCLDY    39  34  81 NE3       29.93R                  
Libby            N/A     43  39  87 CALM      29.98                   
Mullan Pass    HAZE      31  26  82 VRB3      29.91R VSB 3/4          
Plains           N/A     45   0  15 CALM      29.98R                  
Thompson Falls   N/A     45  37  76 CALM      30.03R                  
$$

MTZ008-052>055-232000-
Southwest Montana
  
CITY           SKY/WX    TMP DP  RH WIND       PRES   REMARKS
Bozeman        LGT SNOW  32  31  96 W6        29.81R VSB 1   WCI  26  
Dillon         CLOUDY    33  28  81 SW6       29.79R WCI  28          
Ennis            N/A     30  28  93 NW7       29.82R WCI  23          
Twin Bridges   LGT SNOW  34  30  86 CALM      29.82R                  
$$

MTZ009-010-012-014-046-048-049-054-232000-
East Slopes and Central Montana
  
CITY           SKY/WX    TMP DP  RH WIND       PRES   REMARKS
Cut Bank       LGT SNOW  32  31  96 N28       29.89R FOG     WCI  18  
Great Falls    LGT SNOW  32  31  96 N18G30    29.82R FOG     WCI  20  
Helena         LGT SNOW  36  31  82 NW13      29.84R WCI  27          
Malmstrom AFB  LGT SNOW  32  32  99 N14       29.82  WCI  22          
Augusta        LGT SNOW  31  31  99 N32G38    29.83R VSB 5/8 WCI  15  
Fairfield      LGT SNOW  32  30  90 W25       29.81R VSB 1   WCI  19  
Power          MIX PCPN  31  30  96 N26G36    29.79R WCI  17          
Raynesford     LGT SNOW  31  31  99 NW14      29.77R WCI  21          
Ulm            LGT SNOW  33  33 100 NW15      29.80R WCI  22          
$$

MTZ011-013-016-021-045-047-050-051-232000-
North Central Montana
  
CITY           SKY/WX    TMP DP  RH WIND       PRES   REMARKS
Havre          LGT SNOW  35  33  92 N14       29.77R WCI  26          
Lewistown      LGT SNOW  31  29  92 W16G30    29.69R VSB 3/4 WCI  20  
Chinook          N/A     36  36 100 N9        29.77  WCI  29          
Denton         LGT SNOW  33  31  95 NW25      29.70R WCI  19          
Geyser         LGT RAIN  33  29  84 NW10      29.73R WCI  25          
Grass Range    CLOUDY    35  32  90 W21       29.59R WCI  23          
Judith Gap     LGT SNOW  31  30  97 N31G37    29.63R VSB 3/4 WCI  15  
N Bar Ranch    FAIR      32  28  86 NW24G31   29.62S HAZE    WCI  19  
Roy            LGT SNOW  33  32  95 NW23      29.61R WCI  21          
Stanford       LGT SNOW  32  30  93 NW29G35   29.70R WCI  18          
$$

MTZ017>020-022>027-061-062-232000-
Northeast Montana
  
CITY           SKY/WX    TMP DP  RH WIND       PRES   REMARKS
Glasgow        LGT SNOW  34  32  92 NW6       29.58R FOG     WCI  29  
Culbertson     CLOUDY    41  41 100 NE20      29.49S                  
Glendive       CLOUDY    43  42  97 N13       29.46R FOG              
Jordan           N/A     38  35  89 NW16      29.56R WCI  29          
Malta            N/A     34  34 100 N16G23    29.63R FOG     WCI  23  
Plentywood     CLOUDY    39  36  87 NE24      29.54F WCI  28          
Sidney         CLOUDY    43  40  89 N13       29.47R                  
Wolf Point     LGT RAIN  41  39  93 NE20G29   29.53S                  
$$

MTZ028>42-056>058-232000-
Southcentral and southeast Montana
  
CITY           SKY/WX    TMP DP  RH WIND       PRES   REMARKS
Baker          CLOUDY    44  39  82 NW12      29.41S                  
Big Timber     SUNNY     36  27  69 W29       29.68S WCI  23          
Billings       CLOUDY    39  31  72 NW22      29.64R WCI  29          
Forsyth          N/A     34  34 100 W15G23    29.55  WCI  24          
Hardin           N/A    N/A N/A N/A MISG        N/A                   
Harlowton      LGT RAIN  36  30  79 N15       29.64R WCI  26          
Laurel           N/A     39  36  87 W15G21    29.66  WCI  31          
Livingston     LGT SNOW  33  30  88 W9        29.74R VSB 3/4 WCI  25  
Miles City     RAIN      41  39  93 NW22G28   29.48R FOG              
Roundup          N/A     39  27  60 NW18      29.56R WCI  30          
$$

Regional Reports...Dakotas/MN
  
CITY           SKY/WX    TMP DP  RH WIND       PRES   REMARKS
Williston      CLOUDY    40  37  89 NE20G26   29.48S WCI  30          
Minot          CLOUDY    49  41  74 NE22G29   29.43F                  
Dickinson      CLOUDY    49  40  71 N14G23    29.32F                  
Beach          CLOUDY    43  43 100 NE7       29.44R                  
Bowman         CLOUDY    45  41  87 NW16G22   29.36S                  
Crosby         CLOUDY    41  37  87 NE24G32   29.54F                  
Glen Ullin     FAIR      54  37  54 NE15      29.29F                  
Hettinger      PTSUNNY   52  39  61 N9        29.32R                  
Tioga          CLOUDY    41  41 100 NE21      29.47F                  
Watford City   CLOUDY    45  45 100 NE12G24   29.44S                  
Bismarck       CLOUDY    58  42  55 E14       29.29F                  
Grand Forks    MOSUNNY   69  48  47 E12G18    29.42F                  
Fargo          SUNNY     73  52  47 E20G31    29.36F                  
Buffalo SD       N/A     46  38  73 NW18G29   29.31F                  
Rapid City     PTSUNNY   52  38  58 N32G51    29.24F                  
Intl Falls     SUNNY     74  51  44 SE14G22   29.60F                  
Duluth         MOSUNNY   66  50  56 E15       29.65F                  
Minneapolis    MOSUNNY   75  54  47 SE23G41   29.52F                  
$$

Regional Reports...WY/CO/ID/WA/OR
  
CITY           SKY/WX    TMP DP  RH WIND       PRES   REMARKS
Buffalo WY     CLOUDY    37  32  82 N36G48    29.48F WCI  23          
Cody           CLOUDY    37  30  75 N10       29.62S WCI  30          
Gillette       CLOUDY    35  32  88 MISG      29.47S                  
Powell         LGT SNOW  34  28  80 NW26G32   29.59S WCI  21          
Sheridan       CLOUDY    38  34  85 NW23G36   29.57S WCI  27          
Yellowstone La   N/A     25  20  81 MISG      29.68R                  
Boise          MOSUNNY   48  31  51 NW15      29.98R                  
Couer d'Alene  MOSUNNY   45  35  68 NW3       30.02R                  
Idaho Falls    PTSUNNY   42  23  46 VRB6      29.78R                  
Salmon         CLOUDY    41  25  53 S8        29.88R                  
Spokane        MOSUNNY   43  34  70 CALM      30.02R                  
Seattle        PTSUNNY   49  43  80 SW8       30.16R                  
Portland       PTSUNNY   54  45  71 S6        30.18R                  
$$

Other Reports
  
CITY           SKY/WX    TMP DP  RH WIND       PRES   REMARKS
Atlanta        MOSUNNY   72  37  28 VRB5      30.17F                  
Anchorage      MOSUNNY   30  22  72 CALM      29.89R                  
Boston         CLOUDY    58  51  78 NE10      30.33F                  
Chicago        MOSUNNY   78  55  44 S22G38    29.85F                  
Fairbanks      SNOW      30  27  88 CALM      30.01R VSB 1/4          
Houston        PTSUNNY   85  58  39 S18G29    29.91F                  
Las Vegas NV   MOSUNNY   63  13  14 N20G31    29.86S                  
Phoenix AZ     PTSUNNY   73  46  38 W12       29.76F                  
Salt Lake City PTSUNNY   41  32  70 N16G25    29.80R                  
San Diego      PTSUNNY   67  47  48 S9        29.89S                  
San Francisco  SUNNY     64  42  44 N14       30.01F                  
Washington Dul PTSUNNY   65  52  62 N12       30.21F                  
$$

Regional Reports...Alberta
  
CITY           SKY/WX    TMP DP  RH WIND       PRES   REMARKS
Calgary        FLURRIES  34  30  86 N7        30.01R WCI  28          
Cardston         N/A     32  30  93 N16         N/A  WCI  21          
Crowsnest Pass   N/A     34  28  80 SE3         N/A                   
Del Bonita       N/A     30  30 100 NW24        N/A  WCI  16          
Fort McMurray  CLOUDY    37  32  81 VRB2      30.07S                  
High Level     PTSUNNY   27  25  93 SE10      30.06F WCI  17          
Lethbridge     FLURRIES  34  32  93 N18       29.96R WCI  23          
Medicine Hat   LGT SNOW  34  32  93 N17G23    29.90R WCI  23          
Milk River       N/A     34  30  86 N24         N/A  WCI  21          
Onefour          N/A     32  30  93 N20         N/A  WCI  20          
Pincher Creek  CLOUDY    32  28  86 N14       30.00R WCI  22          
Raymond          N/A     34  34 100 N15         N/A  WCI  24          
Waterton Gate    N/A     30  28  93 N8          N/A  WCI  23          
Fort Smith NWT PTSUNNY   30  18  59 E5        30.12F WCI  25          
$$

Regional Reports...Saskatchewan
  
CITY           SKY/WX    TMP DP  RH WIND       PRES   REMARKS
Assiniboia       N/A     30  28  93 NE28G33     N/A  WCI  16          
Coronach         N/A     34  32  93 N17G25      N/A  WCI  23          
Cypress Hills    N/A     27  25  93 N12G23      N/A  WCI  16          
Estevan        CLOUDY    41  37  87 NE21G31   29.54F                  
Moose Jaw        N/A     32  34 100 NE25G32     N/A  WCI  19          
Prince Albert  CLOUDY    41  23  48 NE15      30.06R                  
Regina         FLURRIES  32  30  93 NE31G38   29.72S WCI  17          
Rockglen         N/A     30  28  93 N15G23      N/A  WCI  19          
Saskatoon      LGT SNOW  34  32  93 NE14G20   29.98F WCI  24          
Swift Current  LGT SNOW  30  28  93 NE25G35   29.76S VSB 3/4 WCI  16  
Uranium City     N/A     32  25  74 S3          N/A                   
Val Marie        N/A     32  30  93 NE25G33     N/A  WCI  19          
$$
  
