ASUS45 KGGW 231910
RWRGGW
HOURLY REGIONAL WEATHER ROUNDUP FOR NORTHEAST MONTANA
NATIONAL WEATHER SERVICE GLASGOW MONTANA
100 PM MDT SUN OCT 23 2022

NOTE: "FAIR" INDICATES FEW OR NO CLOUDS BELOW 12,000 FEET WITH NO
SIGNIFICANT WEATHER AND/OR OBSTRUCTIONS TO VISISBILITY.

NORTHEAST MONTANA

  
CITY           SKY/WX    TMP DP  RH WIND       PRES   REMARKS
GLASGOW        LGT SNOW  34  32  92 NW6       29.58R FOG              
WOLF POINT     LGT RAIN  41  39  93 NE20G29   29.53S                  
JORDAN           N/A     38  35  89 NW16      29.56R                  
SIDNEY         CLOUDY    43  40  89 N13       29.47R                  
GLENDIVE       CLOUDY    43  42  97 N13       29.46R FOG              
MALTA            N/A     32  32 100 NE8G16      N/A                   

FORT PECK REPORTS

  
CITY           SKY/WX    TMP DP  RH WIND       PRES   REMARKS
FORT PECK        N/A     39  38  96 N12G21      N/A                   
THE PINES        N/A     37  34  89 NE8         N/A                   

SOUTHEAST MONTANA

  
CITY           SKY/WX    TMP DP  RH WIND       PRES   REMARKS
BILLINGS       CLOUDY    39  31  72 NW22      29.64R                  
MILES CITY     RAIN      41  39  93 NW22G28   29.48R FOG              
BAKER          CLOUDY    44  39  82 NW12      29.41S                  
LIVINGSTON     LGT SNOW  33  30  88 W9        29.74R VSB 3/4          

CENTRAL MONTANA

  
CITY           SKY/WX    TMP DP  RH WIND       PRES   REMARKS
HAVRE          LGT SNOW  35  33  92 N14       29.77R                  
LEWISTOWN      LGT SNOW  31  29  92 W16G30    29.69R VSB 3/4          
GREAT FALLS    LGT SNOW  32  31  96 N18G30    29.82R FOG              
CUT BANK       LGT SNOW  32  31  96 N28       29.89R FOG              
HELENA         LGT SNOW  36  31  82 NW13      29.84R                  
BUTTE          LGT SNOW  31  27  85 NW9G21    29.81R FOG              
BOZEMAN        LGT SNOW  32  31  96 W6        29.81R VSB 1            

WESTERN MONTANA

  
CITY           SKY/WX    TMP DP  RH WIND       PRES   REMARKS
MISSOULA       CLOUDY    42  34  73 NW9       29.93R                  
KALISPELL      NOT AVBL                                               

NORTH DAKOTA

  
CITY           SKY/WX    TMP DP  RH WIND       PRES   REMARKS
WILLISTON      CLOUDY    40  37  89 NE20G26   29.48S                  
DICKINSON      CLOUDY    49  40  71 N14G23    29.32F                  
MINOT          CLOUDY    49  41  74 NE22G29   29.43F                  
BISMARCK       CLOUDY    58  42  55 E14       29.29F                  

SOUTHERN SASKATCHEWAN

  
CITY           SKY/WX    TMP DP  RH WIND       PRES   REMARKS
REGINA         FLURRIES  32  30  93 NE31G38   29.72S                  
ESTEVAN        CLOUDY    41  37  87 NE21G31   29.54F                  
SWIFT CURRENT  LGT SNOW  30  28  93 NE25G35   29.76S VSB 3/4          

  
