ASUS45 KTFX 231710
RWRMT 
Montana Regional Weather Roundup
National Weather Service Great Falls MT
1100 AM MDT SUN OCT 23 2022

NOTE: "FAIR" indicates few or no clouds below 12,000 feet with no
significant weather and/or obstructions to visibility.

MTZ001>007-043-231800-
West of the divide
  
CITY           SKY/WX    TMP DP  RH WIND       PRES   REMARKS
Kalispell      MOSUNNY   40  35  83 N3        29.89R                  
Missoula       CLOUDY    39  35  86 NW10      29.89R WCI  32          
Butte          LGT SNOW  30  26  85 NW12      29.77R FOG     WCI  20  
Anaconda         N/A     34  25  69 W10       29.80  WCI  26          
Deer Lodge       N/A     36  27  69 NW14G23   29.83  WCI  27          
Hamilton       PTSUNNY   36  34  93 N3        29.89R                  
Libby            N/A     37  37 100 CALM      29.96                   
Mullan Pass    HVY SNOW  31  26  82 CALM      29.87R VSB<1/4          
$$

MTZ008-052>055-231800-
Southwest Montana
  
CITY           SKY/WX    TMP DP  RH WIND       PRES   REMARKS
Bozeman        CLOUDY    32  31  96 CALM      29.76R                  
Dillon         CLOUDY    31  28  89 S6        29.76R WCI  25          
Ennis          LGT SNOW  30  28  93 N8        29.78R WCI  23          
Twin Bridges   LGT SNOW  32  30  93 CALM      29.79R                  
$$

MTZ009-010-012-014-046-048-049-054-231800-
East Slopes and Central Montana
  
CITY           SKY/WX    TMP DP  RH WIND       PRES   REMARKS
Cut Bank       LGT SNOW  31  30  96 NW28G38   29.84R VSB 3/4 WCI  17  
Great Falls    LGT SNOW  32  31  96 N22G31    29.76R FOG     WCI  19  
Helena         CLOUDY    36  31  82 W7        29.79R WCI  30          
Malmstrom AFB  LGT SNOW  32  32  99 N14       29.75R WCI  22          
Augusta        LGT SNOW  31  30  99 N30       29.77R VSB 3/4 WCI  16  
Fairfield      LGT SNOW  32  29  90 W29       29.75R VSB 1   WCI  18  
Power          LGT SNOW  31  30  97 NW29G35   29.73R WCI  16          
Raynesford     LGT SNOW  31  31  99 NW13      29.71R WCI  22          
Ulm            LGT SNOW  32  32 100 N20       29.73R WCI  20          
$$

MTZ011-013-016-021-045-047-050-051-231800-
North Central Montana
  
CITY           SKY/WX    TMP DP  RH WIND       PRES   REMARKS
Havre          CLOUDY    35  33  92 N16G25    29.72R WCI  25          
Lewistown      LGT SNOW  31  29  92 W13G23    29.65R VSB 3/4 WCI  21  
Chinook          N/A     36  36 100 N7        29.71  WCI  30          
Denton         LGT SNOW  32  31  96 NW24G30   29.64R WCI  19          
Fort Benton      N/A     34  34 100 W12       29.76  WCI  25          
Geyser         FLURRIES  33  29  82 N6        29.67R WCI  28          
Grass Range    CLOUDY    34  32  95 W24       29.55R WCI  21          
Judith Gap     LGT SNOW  31  29  94 N29G36    29.60R WCI  16          
N Bar Ranch    FAIR      32  27  80 NW18G35   29.59R WCI  20          
Roy            LGT SNOW  33  31  94 NW23G29   29.57R WCI  20          
Stanford       LGT SNOW  31  29  92 NW30G37   29.64R WCI  17          
$$

MTZ017>020-022>027-061-062-231800-
Northeast Montana
  
CITY           SKY/WX    TMP DP  RH WIND       PRES   REMARKS
Glasgow        LGT RAIN  40  37  89 NE16      29.52F WCI  31          
Culbertson     CLOUDY    43  41  93 NE15G22   29.50R                  
Glendive       CLOUDY    44  42  93 NE13      29.44F                  
Jordan           N/A     43  41  93 NW9       29.51R                  
Malta          CLOUDY    36  36 100 N15G23    29.59R FOG     WCI  26  
Plentywood     CLOUDY    37  36  93 NE16G25   29.57S WCI  28          
Sidney         CLOUDY    44  41  89 NE13      29.48R                  
Wolf Point     LGT RAIN  41  39  93 NE16      29.52S                  
$$

MTZ028>42-056>058-231800-
Southcentral and southeast Montana
  
CITY           SKY/WX    TMP DP  RH WIND       PRES   REMARKS
Baker          CLOUDY    44  39  82 NE7       29.40S                  
Big Timber     MOSUNNY   34  28  80 W30G39    29.65R WCI  20          
Billings       CLOUDY    39  29  67 NW15G28   29.61R WCI  31          
Forsyth          N/A     37  37 100 W16G25    29.53  WCI  28          
Hardin           N/A    N/A N/A N/A MISG        N/A                   
Harlowton      LGTSLEET  36  28  72 NW17G31   29.61R WCI  26          
Laurel           N/A     39  32  75 W17G23    29.62  WCI  30          
Livingston     LGT SNOW  34  29  82 W18       29.69R WCI  23          
Miles City     RAIN      43  41  93 W9        29.47R FOG              
$$

Regional Reports...Dakotas/MN
  
CITY           SKY/WX    TMP DP  RH WIND       PRES   REMARKS
Williston      CLOUDY    40  37  89 NE20G29   29.49F WCI  30          
Minot          CLOUDY    46  40  79 NE21G29   29.50F                  
Dickinson      CLOUDY    44  39  82 NE16G24   29.36F                  
Beach          CLOUDY    43  41  93 NE14      29.42F                  
Bowman         CLOUDY    45  41  87 NE12      29.36R                  
Crosby         CLOUDY    41  37  87 E20G28    29.57F                  
Glen Ullin     FAIR      48  37  66 NE16      29.35F                  
Hettinger      MOSUNNY   48  38  68 NE14G22   29.32F                  
Tioga          CLOUDY    39  39 100 NE23      29.52F WCI  29          
Watford City   CLOUDY    43  43 100 E12G18    29.48S                  
Bismarck       CLOUDY    53  39  59 E18G28    29.36F                  
Grand Forks    MOSUNNY   56  43  61 NE9       29.50F                  
Fargo          SUNNY     67  50  54 E16       29.44F                  
Buffalo SD       N/A     46  37  71 N13       29.30F                  
Rapid City     PTSUNNY   51  37  58 N31G41    29.25F                  
Intl Falls     SUNNY     66  49  54 SE7       29.65R                  
Duluth         PTSUNNY   59  49  69 E13       29.70S                  
Minneapolis    SUNNY     71  53  52 SE18G33   29.59F                  
$$

Regional Reports...WY/CO/ID/WA/OR
  
CITY           SKY/WX    TMP DP  RH WIND       PRES   REMARKS
Buffalo WY     MIX PCPN  35  32  88 N31G41    29.47S WCI  22          
Cody           LGT RAIN  35  30  82 N8        29.61R WCI  29          
Gillette       LGT SNOW  33  32  96 MISG      29.46S VSB 1            
Powell         LGT SNOW  32  28  86 N23G29    29.57R WCI  19          
Sheridan       MIX PCPN  36  33  89 NW25G36   29.55R WCI  24          
Yellowstone La   N/A     25  19  78 VRB5      29.66R WCI  19          
Boise          SUNNY     42  32  67 NW13      29.95R                  
Couer d'Alene  CLOUDY    39  35  86 SW5       29.99R                  
Idaho Falls    CLOUDY    37  26  64 CALM      29.76R                  
Salmon         CLOUDY    39  26  59 NE9       29.85R WCI  33          
Spokane        PTSUNNY   38  33  82 S5        29.98R WCI  34          
Seattle        PTSUNNY   45  43  93 S5        30.12R                  
Portland       PTSUNNY   51  45  79 SE7       30.14R                  
$$

Other Reports
  
CITY           SKY/WX    TMP DP  RH WIND       PRES   REMARKS
Atlanta        PTSUNNY   69  38  32 CALM      30.23F                  
Anchorage      MOCLDY    28  21  75 N7        29.87R WCI  21          
Boston         CLOUDY    57  50  77 NE8       30.35F                  
Chicago        MOSUNNY   73  54  51 S21G32    29.90F                  
Fairbanks      FOG       30  28  92 CALM      29.99S VSB 1/4          
Houston        PTSUNNY   84  59  42 S20G32    29.96F                  
Las Vegas NV   MOSUNNY   59  17  19 NW17G29   29.84R                  
Phoenix AZ     MOSUNNY   72  47  40 W14G24    29.76S                  
Salt Lake City PTSUNNY   42  32  67 NW20      29.76R                  
San Diego      PTSUNNY   65  50  58 SW5       29.89S                  
San Francisco  SUNNY     59  43  55 N3        30.02R                  
Washington Dul CLOUDY    62  51  67 N7        30.25F                  
$$

Regional Reports...Alberta
  
CITY           SKY/WX    TMP DP  RH WIND       PRES   REMARKS
Calgary        LGT SNOW  32  30  93 NW9       29.99R FOG     WCI  24  
Cardston         N/A     30  30 100 NW17G24     N/A  WCI  18          
Crowsnest Pass   N/A     30  28  93 CALM        N/A                   
Del Bonita       N/A     28  28 100 NW24        N/A  WCI  14          
Fort McMurray  CLOUDY    34  30  86 E5        30.06R WCI  30          
High Level     PTSUNNY   27  27 100 SE8       30.08S WCI  18          
Lethbridge     LGT SNOW  34  32  93 N15       29.92  FOG     WCI  24  
Medicine Hat   LGT SNOW  32  32 100 N17       29.86R VSB 3/4 WCI  21  
Milk River       N/A     30  30 100 N26G33      N/A  WCI  16          
Onefour          N/A     32  30  93 N21G26      N/A  WCI  20          
Pincher Creek  CLOUDY    32  28  86 N20       29.95R WCI  20          
Raymond          N/A     34  34 100 N16         N/A  WCI  23          
Waterton Gate    N/A     30  28  93 N8          N/A  WCI  23          
Fort Smith NWT PTSUNNY   28  19  69 VRB2      30.13S                  
$$

Regional Reports...Saskatchewan
  
CITY           SKY/WX    TMP DP  RH WIND       PRES   REMARKS
Assiniboia       N/A     32  30  93 NE25G32     N/A  WCI  19          
Coronach         N/A     34  32  93 N14G22      N/A  WCI  24          
Cypress Hills    N/A     28  27  93 N10G22      N/A  WCI  19          
Estevan        CLOUDY    41  37  87 E20       29.60R                  
Moose Jaw        N/A     32  32 100 NE18        N/A  WCI  20          
Prince Albert  CLOUDY    37  23  56 NE13      30.05R WCI  29          
Regina         LGT SNOW  32  30  93 NE22G32   29.74S WCI  19          
Rockglen         N/A     30  30 100 NE14G25     N/A  WCI  20          
Saskatoon      CLOUDY    36  25  64 NE14      29.98R WCI  27          
Swift Current  SNOW      30  30 100 NE29G36   29.74R VSB 1/2 WCI  15  
Uranium City     N/A     30  25  80 E5          N/A  WCI  25          
Val Marie        N/A     32  30  93 NE23G29     N/A  WCI  19          
$$
  
