ASUS44 KLZK 220201
RWRLZK

WEATHER ROUNDUP FOR ARKANSAS
NATIONAL WEATHER SERVICE LITTLE ROCK AR
900 PM CDT FRI OCT 21 2022

NOTE: "FAIR" INDICATES FEW OR NO CLOUDS BELOW 12,000 FEET WITH NO
SIGNIFICANT WEATHER AND/OR OBSTRUCTIONS TO VISIBILITY.

ARZ001-010-029-103-220300-
NORTHWEST ARKANSAS
  
CITY           SKY/WX    TMP DP  RH WIND       PRES   REMARKS
FAYETTEVILLE   CLEAR     60  44  55 VRB3      29.83R                  
FORT SMITH     CLEAR     67  46  47 CALM      29.82R                  
HARRISON       PTCLDY    66  42  41 S9        29.85R                  
BENTONVILLE    PTCLDY    66  42  41 S8        29.82S                  
ROGERS         PTCLDY    66  42  41 MISG      29.82S                  
SILOAM SPGS    CLEAR     69  43  38 S12       29.81S                  
HIGHFILL       PTCLDY    61  43  51 S10       29.81R                  
SPRINGDALE     CLEAR     68  46  45 S6        29.83R                  
$$

ARZ004-005-016-220300-
NORTH CENTRAL ARKANSAS
  
CITY           SKY/WX    TMP DP  RH WIND       PRES   REMARKS
BATESVILLE     CLEAR     71  48  43 S8G16     29.88S                  
FLIPPIN        CLEAR     68  46  45 VRB3      29.85R                  
MTN HOME       CLEAR     64  42  44 S6        29.84R                  
$$

ARZ140-141-220300-
WEST CENTRAL ARKANSAS
  
CITY           SKY/WX    TMP DP  RH WIND       PRES   REMARKS
MENA             N/A     68  47  46 VRB5      29.89R                  
MOUNT IDA      CLEAR     64  44  48 CALM      29.86R                  
$$

ARZ009-017-025-026-028-220300-
NORTHEAST ARKANSAS
  
CITY           SKY/WX    TMP DP  RH WIND       PRES   REMARKS
JONESBORO      CLEAR     59  49  69 CALM      29.90R                  
NEWPORT        CLEAR     58  49  72 S8        29.89R                  
WALNUT RIDGE   CLEAR     59  48  67 S7        29.88R                  
BLYTHEVILLE    CLEAR     65  50  58 S8        29.89S                  
$$

ARZ032-043-044-220300-
LITTLE ROCK METRO AREA
  
CITY           SKY/WX    TMP DP  RH WIND       PRES   REMARKS
LITTLE ROCK    CLEAR     63  48  58 S9        29.89R                  
JACKSONVILLE   CLEAR     56  50  81 CALM      29.87R                  
CONWAY         MOCLDY    66  48  52 CALM      29.86S                  
$$

ARZ033-042-122-123-220300-
REMAINDER OF CENTRAL ARKANSAS
  
CITY           SKY/WX    TMP DP  RH WIND       PRES   REMARKS
SEARCY         CLEAR     59  50  72 SW5       29.90R                  
HOT SPRINGS    CLEAR     71  46  40 SE6       29.89R                  
RUSSELLVILLE   CLEAR     61  47  59 CALM      29.85R                  
CLINTON        FAIR      54  48  82 CALM      29.88S                  
$$

ARZ036-220300-
EAST ARKANSAS
  
CITY           SKY/WX    TMP DP  RH WIND       PRES   REMARKS
WEST MEMPHIS   CLEAR     64  51  62 S8        29.90R                  
$$

ARZ050-053-066-070-072-073-220300-
SOUTHWEST ARKANSAS
  
CITY           SKY/WX    TMP DP  RH WIND       PRES   REMARKS
ARKADELPHIA    FAIR      58  50  75 CALM      29.90R                  
CAMDEN         CLEAR     61  57  88 CALM      29.90R                  
TEXARKANA      CLEAR     74  51  44 S9        29.88R                  
MAGNOLIA       CLEAR     63  55  77 CALM      29.90R                  
EL DORADO      CLEAR     62  56  80 SE5       29.92R                  
DE QUEEN       CLEAR     59  51  75 CALM      29.86R                  
$$

ARZ056-057-069-220300-
SOUTHEAST ARKANSAS
  
CITY           SKY/WX    TMP DP  RH WIND       PRES   REMARKS
PINE BLUFF     CLEAR     64  46  52 CALM      29.91R                  
STUTTGART      CLEAR     68  48  48 S8        29.91R                  
MONTICELLO     CLEAR     71  53  52 S8        29.92R                  

$$


  
