FTUS80 KWBC 232018
TAF
TAF AMD KRDM 232013Z 2320/2418 35008G17KT P6SM SCT050
     FM240100 VRB04KT P6SM SCT080 BKN120
     FM241200 16007KT P6SM BKN060 OVC090
      TEMPO 2414/2418 -RA OVC050=
