FTUS80 KWBC 232142 AAA
TAF AMD
KEGE 232141Z 2322/2418 25010KT 5SM -SHRASN BKN020 OVC040
      TEMPO 2322/2324 1SM RASN BR FEW050 BKN070
     FM240300 24006KT P6SM VCSH BKN035
     FM240600 VRB04KT P6SM OVC050=
KMCI 232139Z 2322/2418 18023G34KT P6SM VCTS SCT080CB BKN150
      TEMPO 2322/2323 20028G40KT -TSRA
     FM232300 19026G42KT P6SM SCT100
     FM240800 20016G28KT P6SM OVC050
     FM241500 25008KT P6SM -SHRA OVC025=
