FTUS80 KWBC 231733
TAF
KAND 231732Z 2318/2418 15004KT P6SM FEW250
     FM232300 VRB02KT P6SM FEW250
     FM241500 24003KT P6SM FEW250=
KART 231732Z 2318/2418 VRB04KT P6SM SCT250
     FM232300 VRB03KT P6SM BKN250=
KASE 231730Z 2318/2418 35008KT 5SM -SHSN BR BKN010 OVC030
      TEMPO 2318/2321 1/2SM SN BKN005
     FM240000 33007KT 4SM -SHSN BR SCT015 BKN025
     FM240600 VRB04KT P6SM VCSH OVC025=
KAUW 231731Z 2318/2418 14014G22KT P6SM SKC
     FM232200 15016G24KT P6SM BKN080
     FM240200 16014KT P6SM -SHRA OVC045 WS020/19045KT
      TEMPO 2404/2408 16014G25KT 3SM SHRA
     FM241200 17015G28KT P6SM OVC040 WS020/20045KT
     FM241700 18016G28KT P6SM -SHRA OVC028=
KAVL 231732Z 2318/2418 33004KT P6SM FEW250
     FM232100 13004KT P6SM FEW250
     FM240000 VRB02KT P6SM FEW250
     FM241500 34003KT P6SM FEW250=
KBUF 231732Z 2318/2418 07006KT P6SM FEW250
     FM232300 10004KT P6SM SCT250
     FM240400 15005KT P6SM FEW250
     FM240800 VRB04KT P6SM SKC=
KBUR 231732Z 2318/2418 32006KT P6SM SKC
     FM232000 18008KT P6SM SKC
     FM240200 13007KT P6SM SKC
     FM240600 VRB03KT P6SM SKC
     FM241500 36006KT P6SM SKC=
KCHA 231730Z 2318/2418 17004KT P6SM FEW250
     FM240000 00000KT P6SM FEW250=
KCLT 231732Z 2318/2424 35005KT P6SM SKC
     FM232300 36003KT P6SM SKC
     FM241800 24003KT P6SM FEW250=
