FTUS80 KWBC 231733 RRB
TAF
KEAT 231729Z 2318/2418 28004KT P6SM SKC
     FM232000 VRB05KT P6SM FEW200
     FM240000 VRB04KT P6SM BKN150 OVC200
     FM240400 31006KT P6SM SCT040 OVC070
     FM241100 29007KT P6SM -RA BKN040=
KEGE 231730Z 2318/2418 22008KT P6SM VCSH BKN050
     FM232100 25010KT 5SM -SHRASN BKN020 OVC040
     FM240300 24006KT P6SM VCSH BKN035
     FM240600 VRB04KT P6SM OVC050=
KGEG 231729Z 2318/2418 VRB04KT P6SM SCT030 BKN035
     FM232200 22007KT P6SM SCT080 BKN150
     FM240400 18009KT P6SM FEW080 BKN120
     FM240900 17012KT P6SM SCT040 OVC080
     FM241400 19012KT 4SM -RA BR OVC030=
KGJT 231730Z 2318/2418 31008KT P6SM -SHRA BKN015 OVC025
     FM232000 30010KT 5SM -RA BR OVC015
     FM240000 35007KT P6SM VCSH SCT025 OVC050
     FM240600 05005KT P6SM BKN050=
KGMU 231732Z 2318/2418 14003KT P6SM FEW250
     FM232300 VRB02KT P6SM FEW250
     FM241500 24003KT P6SM FEW250=
KGRB 231731Z 2318/2418 15015G22KT P6SM SKC
     FM232100 15015G25KT P6SM SCT110
     FM232300 15014G25KT P6SM BKN080 WS020/18045KT
     FM240500 16013KT P6SM -SHRA SCT040 BKN080 WS020/20045KT
      TEMPO 2406/2410 16013G25KT 3SM SHRA BKN040
     FM241300 17015G27KT P6SM OVC080 WS018/20045KT=
KGSP 231732Z 2318/2418 13003KT P6SM FEW250
     FM232300 00000KT P6SM FEW250
     FM241500 24003KT P6SM FEW250=
