FTUS80 KWBC 231903 AAA
TAF AMD
KCNY 231901Z 2319/2418 21010G20KT P6SM VCSH SCT050 BKN090
     FM240000 28007KT P6SM SCT050 BKN100=
KDLS 231901Z 2319/2418 30012G25KT P6SM SKC
     FM232200 31010KT P6SM SCT250
     FM240300 30008KT P6SM BKN250
     FM241100 VRB04KT P6SM BKN050 OVC100
      TEMPO 2414/2418 -RA OVC040=
