FTUS80 KWBC 231827 AAA
TAF AMD
KDIK 231824Z 2318/2418 02014G24KT P6SM OVC012
     FM232300 36012KT P6SM VCSH OVC012
     FM240200 32020G30KT 3SM -RA BR OVC008
     FM241000 30027G38KT 2SM -SN BR OVC010=
KMOT 231825Z 2318/2418 04015G25KT P6SM OVC011
     FM232000 03015G25KT P6SM OVC020
     FM240000 02016G26KT P6SM VCSH OVC020
     FM240300 36018G27KT 6SM -RA BR OVC010
     FM240800 33020G30KT 4SM -RA BR OVC007
     FM241400 31025G35KT 2SM -RASNPL BR OVC007=
