FTUS80 KWBC 232127
TAF
TAF AMD KRDM 232112Z 2321/2418 05006KT P6SM BKN070
     FM240100 VRB04KT P6SM SCT080 BKN120
     FM241200 16007KT P6SM BKN060 OVC090
      TEMPO 2414/2418 -RA OVC050=
TAF AMD TJPS 232112Z 2321/2418 16012G18KT P6SM VCTS SCT035CB
      SCT060
      TEMPO 2321/2323 VRB08KT 4SM SHRA SCT020 BKN035
     FM232300 10008KT P6SM FEW035 SCT060
     FM240200 00000KT P6SM FEW035
     FM241400 16010KT P6SM FEW030 SCT060=
