FTUS80 KWBC 231848 AAA
TAF AMD
KEKO 231847Z 2319/2418 33018G26KT P6SM VCSH SCT045 BKN060
      TEMPO 2320/2324 5SM -SHSN BR SCT020 BKN035
     FM240200 VRB05KT P6SM SCT060 BKN180
     FM241700 23007KT P6SM SCT050 BKN100=
