FTUS80 KWBC 231721 RRC
TAF
KCMX 231720Z 2318/2418 15013G27KT P6SM FEW250
     FM240000 13011G23KT P6SM FEW250 WS020/17055KT
     FM240600 14010G24KT P6SM -SHRA BKN060 WS020/19050KT
     FM241100 16012G28KT P6SM -SHRA BKN035 WS020/19050KT
     FM241300 17015G29KT P6SM BKN015 WS020/19045KT
     FM241500 17016G30KT P6SM BKN035 WS020/19050KT=
KCNM 231720Z 2318/2418 20022G30KT P6SM FEW120 SCT250
     FM240600 24016G25KT P6SM BKN100=
KCOS 231720Z 2318/2418 23030G42KT P6SM SCT250
     FM232000 30020G30KT P6SM SCT200
     FM240300 33015G25KT P6SM SCT200
     FM240600 35012KT P6SM SCT250=
KCOT 231720Z 2318/2418 15015G25KT P6SM BKN040
     FM240900 17011KT P6SM VCSH OVC012=
KCOU 231720Z 2318/2418 18016G26KT P6SM VCSH SCT120
     FM231900 18016G26KT P6SM VCSH SCT120
     FM240200 18015KT P6SM BKN250
     FM241500 18015G25KT P6SM OVC040=
KCPS 231720Z 2318/2418 18016G26KT P6SM SCT030
     FM240200 17010G20KT P6SM BKN250
     FM240800 16009KT P6SM BKN250
     FM241500 18011G21KT P6SM BKN250=
KCRP 231720Z 2318/2418 15020G30KT P6SM SCT030
     FM240300 17015KT P6SM BKN020 OVC250=
KCRW 231720Z 2318/2418 VRB04KT P6SM SKC=
KCSV 231720Z 2318/2418 17006KT P6SM SKC=
KCYS 231720Z 2318/2418 32015G30KT P6SM VCSH BKN100
     FM232000 33020G30KT 3SM -SHRA SCT020 OVC040
      TEMPO 2321/2324 2SM -SHRASN SCT008 OVC020
     FM240100 32015G25KT P6SM BKN100=
KDAN 231720Z 2318/2418 VRB05KT P6SM SCT045 BKN250=
