FTUS80 KWBC 231909 AAA
TAF AMD
KGJT 231907Z 2319/2418 32010KT 5SM -RA BKN015 OVC025
      TEMPO 2319/2321 3SM -RASN
     FM240000 35007KT P6SM VCSH SCT025 OVC050
     FM240600 05005KT P6SM BKN050=
