FTUS80 KWBC 231742 RRK
TAF
KSGU 231739Z 2318/2418 26012KT P6SM BKN060 BKN080
     FM232100 32010KT P6SM SCT250
     FM240000 02020G30KT P6SM FEW250
     FM240300 19010KT P6SM FEW250=
KSHV 231739Z 2318/2418 17016G25KT P6SM SCT040 SCT250
     FM240100 17011G18KT P6SM FEW045 SCT250
     FM240600 16009KT P6SM BKN025
     FM241500 15013G22KT P6SM BKN040=
KSLC 231739Z 2318/2424 30012KT P6SM VCSH SCT020 BKN030 OVC040
     FM232300 29012KT P6SM VCSH SCT020 BKN040 OVC060
     FM240100 17005KT P6SM SCT040 OVC060
     FM241700 34007KT P6SM FEW150=
KSPS 231741Z 2318/2418 19022G30KT P6SM SCT120 BKN250
     FM240500 17014G24KT P6SM BKN040 OVC120 PROB30 2408/2412 SHRA
      OVC040
     FM241200 22012G18KT 3SM +SHRA BR OVC015 PROB30 2412/2417 2SM
      TSRA BR OVC010CB
     FM241700 32011G18KT 5SM SHRA BR BKN017 OVC020=
KSWO 231741Z 2318/2418 18022G32KT P6SM SCT120 BKN250
     FM240400 18016G26KT P6SM BKN040 OVC120 WS020/20060KT PROB30
      2406/2412 SHRA OVC040
     FM241200 28007G12KT 4SM SHRA BR OVC013 PROB30 2415/2416 2SM
      TSRA BR OVC008CB
     FM241600 32011G17KT 3SM SHRA BR OVC009 PROB30 2416/2418 1SM
      TSRA BR OVC004CB=
KTCS 231740Z 2318/2418 22020G30KT P6SM SCT110 BKN250
     FM240300 24020G30KT P6SM OVC100
     FM240800 24025G35KT P6SM -RA OVC050
     FM241700 35018G23KT P6SM VCSH BKN050 BKN100=
KTLH 231740Z 2318/2418 06004KT P6SM SKC
     FM241000 VRB02KT 4SM BR SKC
     FM241400 07005KT P6SM SCT250=
