FTSA41 KWBC 231639
TAF
TAF SKBG 231630Z 2318/2418 32008KT 9999 SCT015 SCT070
      TEMPO 2321/2324 TSRA SCT015CB
      BECMG 2400/2402 VRB02KT PROB40
      TEMPO 2403/2407 2000 TSRA BKN008CB PROB40
      TEMPO 2410/2412 4000 DZ BCFG BKN007 TX25/2318Z TN18/2410Z=
TAF SKPE 231630Z 2318/2418 27006KT 9999 SCT07TCU
      TEMPO 2321/2401 5000 TSRA SCT015CB BKN080
      BECMG 2401/2402 SCT015
      TEMPO 2407/2410 DZ SCT010 SCT080
      TEMPO 2410/2414 4000 BCFG BKN010 TX27/2320Z TN18/2411Z=
TAF SKSM 231630Z 2318/2418 24006KT 9999 SCT017 BKN070
      TEMPO 2318/2321 RA SCT017TCU
      TEMPO 2322/2402 TSRA SCT017CB
      TEMPO 2409/2412 RA BKN010 TX33/2319Z TN23/2409Z=
TAF SMJP 231600Z 2318/2418 11006KT 9999 SCT030 TX35/2319Z
      TN24/2409Z=
