FTCA35 KWBC 231624
TAF
TAF MNPC 231610Z 2318/2418 05006KT 7000 HZ/VCRA BKN016
      TEMPO 2321/2403 6000 RA/-TSRA FEW016CB BKN016
      BECMG 2404/2406 03010KT=
