FTUS80 KWBC 231739 RRD
TAF
KMKT 231736Z 2318/2418 15022G30KT P6SM FEW240
     FM240200 16021G36KT P6SM BKN100 WS020/17055KT PROB30
      2403/2406
      4SM -TSRA BR BKN050CB
     FM240600 18021G37KT P6SM SCT100 WS020/18050KT
     FM241000 21018G27KT P6SM BKN080=
KMRY 231737Z 2318/2418 VRB05KT P6SM SKC
     FM232000 31011G19KT P6SM SKC
     FM240300 VRB04KT P6SM SKC
     FM241500 10006KT P6SM FEW250=
KMSO 231735Z 2318/2418 32009KT P6SM VCSH OVC035
     FM240100 32005KT P6SM BKN050
     FM241000 VRB02KT 5SM BR SCT010 OVC050=
KMSP 231736Z 2318/2424 14016G30KT P6SM FEW250
     FM240300 16015G35KT P6SM BKN080 WS020/18050KT PROB30
      2403/2407
      3SM TSRA BR BKN040CB
     FM240900 18017G34KT P6SM BKN060 WS020/19050KT
     FM241300 20016G28KT P6SM BKN070
     FM242300 24012G19KT P6SM BKN100=
KOAJ 231736Z 2318/2418 35009KT P6SM BKN025
     FM241300 35006KT P6SM SCT025 AMD LTD TO CLD VIS AND WIND=
KOAK 231737Z 2318/2424 32014G20KT P6SM SKC
     FM240300 33006KT P6SM FEW250
     FM240600 VRB04KT P6SM SKC
     FM242100 29007KT P6SM FEW250=
KPDK 231738Z 2318/2418 01004KT P6SM SCT250
     FM240000 00000KT P6SM SCT200
     FM241500 11005KT P6SM SCT200=
KPGA 231735Z 2318/2418 27013G23KT P6SM SCT060
     FM240200 30008G15KT P6SM FEW070
     FM240800 VRB05KT P6SM FEW070=
KPGV 231736Z 2318/2418 35010KT P6SM OVC015
     FM240100 34006KT P6SM BKN015
     FM241400 35006KT P6SM SCT015 AMD LTD TO CLD VIS AND WIND=
