FTUS80 KWBC 231954 AAA
TAF AMD
PAFA 231953Z 2320/2424 VRB03KT 1 1/2SM -SN BR BKN004 BKN030 OVC060
      TEMPO 2321/2324 1/2SM FZFG BKN003
     FM240000 VRB03KT 3SM BR BKN007 OVC015
     FM240600 VRB03KT 1/2SM FZFG OVC005
     FM241700 VRB03KT P6SM SCT007 BKN100=
