FTUS80 KWBC 231721 RRI
TAF
KMSS 231720Z 2318/2418 00000KT P6SM FEW250
     FM241100 VRB04KT P6SM BKN070=
KMVN 231720Z 2318/2418 18018G27KT P6SM BKN040
     FM240000 18008KT P6SM SCT250
     FM241400 18012G23KT P6SM SCT250=
KORD 231720Z 2318/2424 17020G33KT P6SM SCT100
     FM240100 17017G26KT P6SM SCT050 BKN100
      TEMPO 2404/2408 -SHRA BKN050
     FM241500 19018G29KT P6SM BKN100=
KPAH 231720Z 2318/2418 19012G23KT P6SM BKN070
     FM240000 17008KT P6SM SCT250
     FM241400 18011G20KT P6SM SCT250=
KPBG 231720Z 2318/2418 VRB04KT P6SM FEW250
     FM241500 VRB03KT P6SM BKN018
     FM241700 VRB03KT P6SM SCT022=
KPBI 231720Z 2318/2418 01012KT P6SM SCT040
     FM240100 VRB05KT P6SM SCT040
     FM241500 06008KT P6SM SCT040=
KPDT 231720Z 2318/2418 26007KT P6SM BKN070 BKN100
     FM240300 16007KT P6SM SCT100 BKN200
     FM240900 16006KT P6SM BKN080 OVC120
     FM241300 21008G15KT P6SM BKN060 OVC090
      TEMPO 2414/2418 -RA OVC050=
KPEQ 231720Z 2318/2418 23014G20KT P6SM SCT250
     FM240100 20006KT P6SM SCT100
     FM240800 28010KT P6SM BKN100=
KPIR 231720Z 2318/2418 13017G25KT P6SM BKN200
     FM232200 25014G21KT P6SM BKN250
     FM240000 28015G25KT P6SM VCSH BKN250
     FM240700 28020G31KT P6SM VCSH BKN027=
KPKB 231720Z 2318/2418 VRB04KT P6SM SKC=
