FTUS80 KWBC 232112 AAA
TAF AMD
KCOS 232109Z 2321/2418 20030G45KT P6SM SCT200
     FM240300 33015G25KT P6SM SCT200
     FM240600 35012KT P6SM SCT250=
KGTF 232111Z 2321/2418 34014G25KT 6SM -SN SCT008 BKN015
      TEMPO 2321/2323 1SM -SN BR BKN008
     FM232300 33013G23KT P6SM VCSH SCT010 BKN015
     FM240300 28009KT P6SM SCT015 BKN035
     FM240600 23009KT P6SM SCT025 BKN050=
KRWL 232109Z 2321/2418 25012KT P6SM VCSH SCT008 OVC035
      TEMPO 2321/2323 2SM -SHSN BR BKN010 OVC020
     FM232300 29012KT P6SM OVC050=
KSLN 232110Z 2321/2418 18029G45KT 4SM BLDU BKN120
      TEMPO 2321/2401 2SM BLDU BKN030
     FM240200 18026G42KT P6SM BKN120 WS020/20060KT
     FM240500 18020G30KT P6SM BKN120 WS020/20060KT
     FM241000 33014KT P6SM BKN120=
