FTUS80 KWBC 231742
TAF
KABE 231739Z 2318/2418 05007KT P6SM OVC060
     FM240300 03005KT P6SM VCSH SCT015 OVC020
     FM240400 03005KT P6SM VCSH SCT008 OVC015
     FM240900 VRB04KT P6SM VCSH SCT004 OVC008
     FM241200 VRB04KT 5SM -DZ BR BKN008=
KABY 231740Z 2318/2418 07004KT P6SM SKC
     FM241300 07004KT P6SM SCT250=
KACK 231740Z 2318/2418 04016G24KT P6SM -RA OVC035
     FM231900 04016G24KT 3SM -RA BR OVC010
     FM232000 05017G24KT 2SM -RA BR OVC008
     FM232300 05014G21KT 1 1/2SM -RA BR OVC003
     FM241600 13009KT 3SM BR VCSH OVC015=
KACY 231739Z 2318/2418 03013G24KT 3SM -RA BR OVC008
     FM232000 02012G22KT 3SM -RA BR OVC008
     FM232200 02011G21KT 3SM -RA BR OVC003
     FM240400 02007KT 3SM -RADZ BR OVC003
     FM240700 36006KT 2SM -DZ BR BKN003=
KBAF 231740Z 2318/2418 02005KT P6SM BKN150
     FM240000 01007KT P6SM VCSH OVC030
     FM240300 01007KT 5SM BR VCSH OVC015
     FM240600 01007KT 5SM BR VCSH OVC008
     FM241000 36006KT 2SM -SHRA BR OVC008=
KBCE 231739Z 2318/2418 30015G25KT 1SM -SN BR BKN015 OVC035
     FM232100 30012G22KT P6SM VCSH OVC035
     FM240000 30012G22KT P6SM BKN060=
KBDL 231740Z 2318/2424 01006KT P6SM OVC130
     FM240000 01008KT 5SM -RA BR OVC020
     FM240500 01008KT 5SM BR VCSH OVC008
     FM241200 36006KT 1 1/2SM -SHRA BR OVC008
     FM242300 01004KT 4SM BR VCSH OVC008=
