FTUS80 KWBC 231739 RRH
TAF
PAOM 231737Z 2318/2418 16015KT 6SM -SHRA BR BKN010 OVC015
     FM232000 16013KT 2SM -SHRA BR BKN007 OVC015
     FM240000 18011KT 5SM -SHRA BR SCT010 OVC015
     FM240400 22008KT 6SM -SHSN BR SCT007 OVC015
     FM241200 25006KT P6SM VCSH SCT007 OVC015=
PAOR 231737Z 2318/2418 30005KT 6SM -SHSN BR SCT015 OVC040
     FM232100 31005KT P6SM VCSH SCT025 OVC050
     FM240200 32004KT P6SM BKN015 BKN025
     FM241000 32002KT P6SM BKN007 OVC015=
PAOT 231737Z 2318/2418 21012KT P6SM VCSH BKN018
     FM232300 14015G22KT 4SM -SHSN BR OVC015
     FM240000 13020KT 5SM -SHSN BR OVC015
     FM240800 13016KT 4SM -SHSN BR SCT010 OVC015
     FM241200 13016KT 2SM -SHSN BR BKN010 OVC015=
PASC 231737Z 2318/2418 09017KT 6SM BR BKN005 OVC011
     FM232100 11017KT 2SM BR BKN007 OVC015
     FM240400 10018KT 4SM BR BKN007 OVC015=
PATA 231737Z 2318/2418 VRB03KT P6SM VCFG BKN009 OVC018
     FM232200 VRB03KT P6SM BKN015 OVC025
     FM240900 07003KT P6SM SCT007 OVC015
     FM241600 07006KT P6SM SCT015 BKN050 BKN100=
PAUN 231737Z 2318/2418 07011KT P6SM VCSH OVC050
     FM232200 12015KT 6SM -SHSN BR SCT025 OVC050
     FM240300 10014KT 6SM -SHSN BR BKN025 OVC040
     FM241000 10008KT 6SM -SHSN BR BKN025 OVC040
     FM241500 13007KT 6SM -SHSN BR SCT015 OVC025=
TAF PHJR 231735Z 2318/2418 04004KT P6SM VCSH SCT050
     FM232000 07010G17KT P6SM SCT030 SCT050
     FM240500 VRB04KT P6SM FEW030 FEW040=
