FTUS80 KWBC 231854 AAA
TAF AMD
KMLC 231851Z 2319/2418 18018G30KT P6SM SCT040 BKN250
     FM240300 17015G22KT P6SM SCT100 BKN250
     FM240600 17014G21KT P6SM SCT035 OVC060 PROB30 2408/2412 4SM
      -SHRA BR BKN035
     FM241200 17012G20KT 4SM -SHRA SCT008 OVC025 PROB30 2414/2418
      2SM -TSRA BKN008CB=
