FTUS80 KWBC 232045 AAA
TAF AMD
KALS 232042Z 2321/2418 25030G40KT P6SM SCT002 BKN100
      TEMPO 2321/2324 6SM BLDU
     FM240200 25012G22KT P6SM BKN150
     FM240400 23012KT P6SM BKN250
     FM240600 33005KT P6SM BKN100=
KCLE 232042Z 2321/2424 17008KT P6SM SCT250
     FM240600 15008KT P6SM SKC=
KCOS 232042Z 2321/2418 20020G30KT P6SM SCT200
     FM240300 33015G25KT P6SM SCT200
     FM240600 35012KT P6SM SCT250=
KFNT 232042Z 2321/2418 18012G18KT P6SM FEW070 SCT200
     FM232300 14006KT P6SM SKC
     FM241200 17007KT P6SM FEW150 SCT250=
KMBS 232041Z 2321/2418 18012G18KT P6SM FEW080 SCT200
     FM232300 14006KT P6SM SKC
     FM241200 17007KT P6SM FEW150 SCT250=
