FTUS80 KWBC 232003 AAA
TAF AMD
KBTM 232001Z 2320/2418 32010KT P6SM VCSH FEW018 BKN045 OVC060
     FM232100 31010G18KT 5SM -SN OVC035
     FM240100 33008KT P6SM VCSH BKN050
     FM240600 30003KT P6SM SCT010 SCT050=
KCLT 232000Z 2320/2424 35005KT P6SM SKC
     FM232300 36003KT P6SM SKC
     FM241800 24003KT P6SM FEW250=
PASC 232002Z 2320/2418 09012KT 6SM BR SCT005 OVC035
     FM240000 11017KT 4SM BR SCT007 OVC015
     FM240400 10018KT 4SM BR BKN007 OVC015=
