FTUS80 KWBC 232127 AAA
TAF AMD
PAKT 232126Z 2321/2418 14030G40KT 3SM -RA BR OVC015 WS020/14055KT
     FM240000 14025G40KT 3SM RA BR OVC015 WS020/14035KT
     FM240600 14012KT 4SM -RA BR BKN015 OVC025
     FM241200 31012KT 6SM -SHRA BR OVC020=
