FTUS80 KWBC 232115 AAA
TAF AMD
KABQ 232112Z 2321/2418 27026G36KT P6SM VCSH FEW040 SCT090
     FM240200 29012G22KT P6SM VCSH SCT040 BKN090
     FM240600 31011KT P6SM SCT050 BKN090
     FM241600 32016G32KT P6SM SCT090=
KHUT 232114Z 2321/2418 18032G45KT 4SM BLDU SCT025 BKN120
     FM240300 18025G40KT P6SM BKN120 WS020/20060KT
     FM240600 20020G30KT P6SM BKN120 WS020/21060KT
     FM241100 33013KT P6SM VCSH SCT030 BKN060=
KRDM 232112Z 2321/2418 05006KT P6SM BKN070
     FM240100 VRB04KT P6SM SCT080 BKN120
     FM241200 16007KT P6SM BKN060 OVC090
      TEMPO 2414/2418 -RA OVC050=
KRSL 232111Z 2321/2418 20030G45KT 4SM BLDU SCT030 SCT100
      TEMPO 2321/2401 1 1/2SM BLDU SCT015 BKN030
     FM240200 20026G40KT P6SM SCT100
     FM240700 32015G25KT P6SM BKN100=
TJPS 232112Z 2321/2418 16012G18KT P6SM VCTS SCT035CB SCT060
      TEMPO 2321/2323 VRB08KT 4SM SHRA SCT020 BKN035
     FM232300 10008KT P6SM FEW035 SCT060
     FM240200 00000KT P6SM FEW035
     FM241400 16010KT P6SM FEW030 SCT060=
