FTUS80 KWBC 231742 RRB
TAF
KBZN 231739Z 2318/2424 31009KT 6SM -SN BR BKN030
      TEMPO 2318/2321 2SM -SN SCT015 BKN025
     FM232100 31011G22KT 6SM -SHSN SCT025 BKN035
      TEMPO 2321/2323 4SM -SN BR SCT015 BKN025
     FM240400 30009KT P6SM SCT025 BKN050
     FM241500 22007KT P6SM BKN150=
KCDC 231739Z 2318/2418 33010KT 1SM -SN BR SCT010 BKN020 OVC050
     FM232100 02010KT P6SM OVC010=
KCID 231741Z 2318/2418 16020G32KT P6SM SCT200
     FM240000 17017G27KT P6SM OVC150 WS014/20045KT
     FM241500 18014G22KT P6SM OVC060=
KCLM 231740Z 2318/2418 24003KT P6SM BKN250
     FM232100 07004KT P6SM SCT050 OVC250
     FM240500 23005KT P6SM -RA OVC045
     FM240800 23003KT P6SM -RA OVC019=
KCSM 231741Z 2318/2418 19024G35KT P6SM SCT100 BKN250
     FM240600 20016G24KT 4SM -TSRA BR OVC040CB PROB30 2406/2412
      2SM
      TSRA BR OVC025CB
     FM241300 33011G17KT 6SM SHRA BR OVC024 PROB30 2413/2417
      4SM
      TSRA BR OVC015CB
     FM241700 34012G18KT P6SM BKN017 OVC022 PROB30 2417/2418
      5SM
      -SHRA OVC017=
KCTB 231739Z 2318/2418 35023G32KT 1SM -SN BKN007
     FM232000 35019G27KT 6SM -SHSN SCT007 BKN015
      TEMPO 2320/2324 1SM -SN BR BKN007
     FM240300 31008KT P6SM SCT025
     FM240600 23009KT P6SM FEW250=
KDBQ 231741Z 2318/2418 16020G30KT P6SM SKC
     FM240000 16019G27KT P6SM BKN180 WS013/20045KT
     FM241600 19015G26KT P6SM BKN080
     FM241700 19015G24KT P6SM OVC050=
