FTUS80 KWBC 231927 AAA
TAF AMD
KFOE 231925Z 2319/2418 18026G42KT P6SM -TSRA SCT100CB
     FM232000 18026G42KT P6SM SCT150
     FM240700 19021G33KT P6SM BKN100 WS015/21050KT
     FM241200 24013KT P6SM -SHRA OVC040=
KLAX 231926Z 2319/2424 VRB04KT P6SM FEW028 SCT060
     FM232000 26014KT P6SM SKC
     FM240100 27008KT P6SM SKC
     FM240500 VRB03KT P6SM SKC
     FM241100 07005KT P6SM SKC
     FM242000 26012KT P6SM SKC=
KRIW 231925Z 2319/2418 01012G18KT P6SM VCSH BKN025 OVC050
     FM241000 18007KT P6SM SCT025 BKN070
     FM241600 29012G18KT P6SM SCT150=
