FTUS80 KWBC 231736 CCA
TAF COR
KLBT 231732Z 2318/2418 36009G15KT P6SM SKC
     FM232100 36007KT P6SM SKC
     FM240000 00000KT P6SM SKC
     FM241400 36005KT P6SM SKC AMD NOT SKED=
