FTUS80 KWBC 231721 RRK
TAF
KRWL 231720Z 2318/2418 25012KT P6SM VCSH SCT008 OVC035
      TEMPO 2318/2321 2SM -SHSN BR OVC020
     FM232300 29012KT P6SM OVC050=
KSAV 231720Z 2318/2418 02008KT P6SM FEW050
     FM240000 00000KT P6SM FEW250
     FM241300 02005KT P6SM SKC=
KSAW 231720Z 2318/2418 17012G26KT P6SM SKC
     FM232100 17012G30KT P6SM SKC WS020/17045KT
     FM240000 17013G28KT P6SM SKC WS020/18050KT
     FM240700 17014G30KT P6SM SHRA BKN045 WS020/19050KT
     FM240900 18013G29KT P6SM VCSH BKN030 WS020/20050KT
     FM241100 17014G32KT P6SM VCSH BKN017 WS020/19055KT=
KSBM 231720Z 2318/2418 16016G25KT P6SM FEW230
     FM240400 17014G24KT P6SM VCSH BKN100 WS020/19045KT
     FM240600 17013G22KT 6SM -SHRA BR VCTS BKN090CB WS020/20040KT
     FM241100 17013G21KT P6SM BKN100 WS020/20040KT
     FM241600 18016G26KT P6SM BKN110=
KSBN 231720Z 2318/2418 17014G26KT P6SM SCT050
     FM232300 16010KT P6SM BKN100 WS020/20045KT
     FM241400 18012G22KT P6SM SCT250=
KSDF 231720Z 2318/2424 18014G19KT P6SM SKC
     FM240000 16006KT P6SM FEW250
     FM241600 18010G16KT P6SM BKN250=
KSGF 231720Z 2318/2418 19025G35KT P6SM SCT120
     FM240600 17020G30KT P6SM OVC120
     FM241200 17015G25KT P6SM VCSH SCT015 OVC050=
KSJT 231720Z 2318/2418 18022G32KT P6SM FEW250
     FM240700 19016G27KT P6SM VCSH SCT025 BKN050 WS020/21045KT
      TEMPO 2411/2415 VRB20G35KT 3SM -TSRA BKN025CB
     FM241500 24014G24KT P6SM SCT250=
