FTUS80 KWBC 232012 AAA
TAF AMD
KACK 232011Z 2320/2418 03015G23KT 4SM -RA BR BKN005 OVC030
     FM232300 05014G21KT 1 1/2SM -RA BR OVC005
     FM241600 13009KT 3SM BR VCSH OVC015=
KBOS 232009Z 2320/2424 04009KT P6SM -RA FEW020 OVC070
     FM232300 03010G17KT 6SM -RA BR BKN020 OVC040
     FM240300 03012KT 3SM -RA BR OVC008
     FM240900 03009KT 2SM BR VCSH OVC003
     FM242200 05004KT 4SM BR VCSH OVC008=
KMIV 232010Z 2320/2418 03009KT 3SM -RA BR BKN009 OVC015
     FM240300 02007KT 3SM -DZ BR OVC005
     FM241000 36006KT 2SM -DZ BR OVC003
     FM241600 35005KT P6SM BKN003=
