FTUS80 KWBC 231742 RRF
TAF
KLAW 231741Z 2318/2418 18018G28KT P6SM SCT120 BKN250
     FM240500 18014G22KT P6SM BKN040 OVC100 WS012/19030KT PROB30
      2407/2411 4SM -TSRA BR OVC040CB
     FM241100 22012G18KT 3SM +SHRA BR OVC013 PROB30 2411/2417 2SM
      TSRA BR OVC008CB
     FM241700 32011G18KT 5SM SHRA BR BKN012 OVC020=
KLFK 231739Z 2318/2418 17013G22KT P6SM BKN050
     FM240100 16010KT P6SM SCT045 BKN250
     FM240600 15008KT P6SM BKN025
     FM241500 16013G22KT P6SM BKN035=
KLGU 231739Z 2318/2418 35009KT P6SM SCT040 BKN050 BKN070
     FM240400 VRB04KT P6SM SCT050 OVC070=
KLIT 231741Z 2318/2418 19014G22KT P6SM SCT040 SCT250
      TEMPO 2318/2320 BKN035
     FM240100 17009G16KT P6SM BKN250
     FM241000 16008KT P6SM SCT025 BKN050
     FM241400 17010G18KT P6SM BKN030 BKN060=
KLMT 231740Z 2318/2418 33006KT P6SM BKN035
     FM232000 32010KT P6SM SCT040
     FM240200 34004KT P6SM SKC
     FM241100 VRB03KT P6SM BKN100=
KLWT 231739Z 2318/2418 27012G21KT 1SM -SN BR OVC005
     FM232200 31012G22KT 3SM -SN BR SCT005 BKN015
      TEMPO 2322/2402 1SM -SN BR OVC005
     FM240600 31015G27KT P6SM OVC008
     FM241100 28009KT P6SM SCT015 BKN035
     FM241600 24011G16KT 6SM BR SCT050 BKN150=
KMFR 231740Z 2318/2418 VRB03KT P6SM SCT050
     FM232200 32006KT P6SM SCT050
     FM240100 VRB03KT P6SM SCT100
     FM241000 VRB03KT P6SM SCT070 OVC100
     FM241400 VRB03KT P6SM BKN040 OVC060=
