FTUS80 KWBC 232106 AAA
TAF AMD
KEWR 232104Z 2321/2424 03011KT P6SM -RA BKN040
      TEMPO 2322/2324 6SM -RA SCT015 BKN030
     FM240000 03011KT 6SM -RA BR BKN020
     FM240200 03009KT 5SM -RA BR SCT008 BKN015
     FM240400 03008KT 3SM -RA BR OVC008
     FM241400 02008KT 5SM -RA BR SCT008 BKN011 OVC025
     FM241900 03006KT 6SM BR VCSH OVC015=
KILG 232103Z 2321/2418 05009KT 3SM -RA BR OVC025
     FM240000 02009KT 5SM -RADZ BR SCT008 OVC020
     FM240900 35005KT 3SM -DZ BR BKN003
     FM241600 36005KT P6SM BKN250=
KJFK 232104Z 2321/2424 03012KT P6SM -RA BKN060 OVC100
      TEMPO 2321/2323 6SM -RA BR SCT015 BKN030
     FM232300 03012KT 6SM -RA BR BKN020 OVC040
     FM240200 04009KT 5SM -RA BR SCT006 BKN015
     FM240400 04009KT 3SM -RA BR BKN006
     FM241400 03010KT 5SM -RA BR SCT006 BKN011 OVC025
     FM242000 05006KT 6SM BR VCSH OVC020=
KLGA 232104Z 2321/2424 05013KT P6SM -RA BKN050 OVC100
      TEMPO 2322/2324 6SM -RA BR SCT015 BKN030
     FM240000 03013KT 6SM -RA BR BKN020 OVC040
     FM240200 04010KT 5SM -RA BR SCT006 BKN015
     FM240400 05009KT 3SM -RA BR BKN006
     FM241400 04010KT 5SM -RA BR SCT006 BKN011 OVC025
     FM242000 05009KT 6SM BR VCSH OVC020=
KMIV 232105Z 2321/2418 03011KT 6SM -SHRA BR BKN008 OVC015
     FM240300 02007KT 4SM -DZ BR OVC005
     FM241000 36006KT 2SM -DZ BR OVC003
     FM241600 35005KT P6SM BKN003=
