FTUS80 KWBC 231727 RRA
TAF
KBPT 231725Z 2318/2418 15019G28KT P6SM SCT050
     FM240100 15013G19KT P6SM FEW050
     FM241200 14009KT P6SM OVC050
     FM241600 15015G21KT P6SM OVC050=
KBTL 231725Z 2318/2418 17012G22KT P6SM SCT070
     FM232300 16012KT P6SM BKN100
     FM240200 15010KT P6SM VCSH BKN100
     FM241100 17009KT P6SM BKN090=
KBTR 231725Z 2318/2418 14010KT P6SM SCT045
     FM240000 16006KT P6SM FEW250
     FM241400 12007KT P6SM BKN060
     FM241700 15010KT P6SM BKN050=
KBVI 231724Z 2318/2418 11005KT P6SM SCT250
     FM241400 17005KT P6SM SCT250=
KBYI 231724Z 2318/2418 29020G30KT P6SM VCSH SCT030 BKN070
     FM240300 25010KT P6SM FEW070=
KCAK 231724Z 2318/2418 15006KT P6SM SCT250=
KCLE 231724Z 2318/2424 18008KT P6SM SCT250
     FM240600 15008KT P6SM SKC=
KCRQ 231724Z 2318/2418 VRB04KT P6SM BKN040
     FM231900 24010KT P6SM SCT040
     FM240200 07004KT P6SM SKC=
KDAG 231725Z 2318/2418 36009KT P6SM SKC
     FM240500 02010G18KT P6SM SKC
     FM241400 VRB06KT P6SM SKC=
KDHT 231726Z 2318/2418 22034G50KT P6SM SKC
     FM240000 23018G26KT P6SM SCT200
     FM240300 26014KT P6SM BKN200
     FM241000 35008KT P6SM OVC080
     FM241400 04013KT 4SM -SHRA BR OVC015=
KDUJ 231724Z 2318/2418 12005KT P6SM SCT250
     FM240800 11003KT 4SM BR SKC
     FM241300 17005KT P6SM SCT250=
KEED 231725Z 2318/2418 34012G22KT P6SM FEW080
     FM240200 34012KT P6SM SKC
     FM241600 35013G22KT P6SM SKC=
