FTUS80 KWBC 231615 AAA
TAF AMD
KASE 231612Z 2316/2412 36005KT P6SM -SHSN BKN010 OVC040
      TEMPO 2316/2318 1/2SM SN BKN005
     FM231800 32012G22KT 2SM -SHSN BR OVC020
     FM240200 28008KT 6SM -SHSN BR BKN030=
