FTUS80 KWBC 232018 AAA
TAF AMD
KORH 232017Z 2320/2418 04004KT P6SM -RA BKN090
     FM232300 03007KT 5SM -RA BR OVC030
     FM240000 03009KT 3SM -RA BR OVC015
     FM240200 04008KT 4SM BR VCSH OVC008
     FM240500 04008KT 1 1/2SM BR VCSH OVC003
     FM241700 03006KT 3SM BR VCSH OVC003=
KPVD 232016Z 2320/2418 03009KT P6SM -RA OVC040
     FM232300 03009KT 4SM -RA BR OVC020
     FM240300 03011KT 1 1/2SM -SHRA BR OVC003
     FM241600 03006KT 3SM -SHRA BR OVC008=
