FTUS80 KWBC 231721 RRJ
TAF
KPLN 231720Z 2318/2418 16009G18KT P6SM FEW250
     FM240100 14009G16KT P6SM BKN090 WS020/18040KT
     FM240600 15007G20KT P6SM VCSH BKN070 WS020/20035KT
     FM241200 14005KT P6SM BKN080=
KPNS 231720Z 2318/2418 15010KT P6SM SCT250
     FM240300 14003KT P6SM SCT250=
KPQI 231720Z 2318/2418 19005KT P6SM FEW250
     FM241200 12003KT P6SM OVC100
     FM241600 12004KT P6SM VCSH OVC050=
KPSC 231720Z 2318/2418 VRB04KT P6SM SCT100
     FM232100 26006KT P6SM FEW150
     FM240200 21005KT P6SM SCT120 BKN200
     FM241200 20010KT P6SM BKN070 OVC100
      TEMPO 2415/2418 -RA OVC060=
KPUB 231720Z 2318/2418 26035G45KT P6SM SKC
      TEMPO 2318/2322 4SM BLDU
     FM232300 30020G30KT P6SM SCT250
     FM240300 34012G22KT P6SM SCT250
     FM240600 35008KT P6SM SCT250=
KRDM 231720Z 2318/2418 VRB04KT P6SM FEW070
     FM232100 32007KT P6SM FEW100 SCT250
     FM240300 VRB04KT P6SM SCT080 BKN120
     FM241200 16007KT P6SM BKN060 OVC090
      TEMPO 2414/2418 -RA OVC050=
KRFD 231720Z 2318/2418 17020G32KT P6SM SCT150
     FM240100 16017G26KT P6SM -SHRA SCT050 BKN100
     FM240900 17015G24KT P6SM SCT050 BKN100
     FM241500 19018G29KT P6SM BKN100=
KROA 231720Z 2318/2418 VRB05KT P6SM FEW200=
KRUT 231720Z 2318/2418 10010KT P6SM FEW240
     FM232200 13005KT P6SM OVC230
     FM240600 14006KT P6SM -SHRA OVC027
     FM240900 14004KT 5SM -SHRA BR OVC017
     FM241400 15004KT P6SM BKN014=
