FTCA31 KWBC 231654
TAF
MUCC 231700Z 2318/2418 05012KT 9000 SCT020
      TEMPO 2318/2324 VRB10KT 5000 TSRA SCT018CB BKN020
      BECMG 2402/2404 VRB03KT
      BECMG 2413/2415 06012KT=
TAF MUCM 231700Z 2318/2418 04010KT 9000 SCT020
      TEMPO 2318/2324 VRB10KT 5000 TSRA SCT018CB BKN020
      BECMG 2402/2404 VRB03KT
      BECMG 2413/2415 05010KT=
MUCM 231700Z 2318/2418 04010KT 9000 SCT020
      TEMPO 2318/2324 VRB10KT 5000 TSRA SCT018CB BKN020
      BECMG 2402/2404 VRB03KT
      BECMG 2413/2415 05010KT=
TAF MUCU 231700Z 2318/2418 VRB03KT 9000 SCT020
      TEMPO 2318/2324 VRB10KT 5000 TSRA SCT018CB BKN020
      BECMG 2402/2404 36005KT
      BECMG 2413/2415 17010KT=
MUCU 231700Z 2318/2418 VRB03KT 9000 SCT020
      TEMPO 2318/2324 VRB10KT 5000 TSRA SCT018CB BKN020
      BECMG 2402/2404 36005KT
      BECMG 2413/2415 17010KT=
TAF MUVR 231700Z 2318/2418 05012KT 9000 SCT020
      BECMG 2402/2404 VRB03KT
      BECMG 2413/2415 04012KT=
