FTUS80 KWBC 231745 RRB
TAF
KMOT 231743Z 2318/2418 05015G25KT P6SM OVC008
     FM232000 04015G25KT P6SM OVC020
     FM240000 02016G26KT P6SM VCSH OVC020
     FM240300 36018G27KT 6SM -RA BR OVC010
     FM240800 33020G30KT 4SM -RA BR OVC007
     FM241400 31025G35KT 2SM -RASNPL BR OVC007=
KMRB 231742Z 2318/2418 00000KT P6SM OVC030
     FM232100 00000KT P6SM OVC050
     FM240000 00000KT P6SM BKN030
     FM240700 00000KT P6SM BKN015
     FM241500 00000KT P6SM SCT025=
KMTN 231742Z 2318/2418 35004KT P6SM OVC050
     FM232100 04005KT P6SM -SHRA OVC030
     FM240100 36003KT 6SM -SHRA OVC010
     FM240300 36003KT 6SM -SHRADZ BR OVC008
     FM240600 34003KT 6SM -DZ BR OVC008
     FM241500 33004KT P6SM BKN008=
KSAT 231744Z 2318/2424 16017G27KT P6SM SCT030 BKN250
     FM240200 14015KT P6SM SCT030
     FM240400 16012KT P6SM OVC016
     FM240700 18012KT P6SM BKN009
     FM241200 17010KT 4SM SHRA BKN010 PROB30 2416/2422 3SM TSRA BR
      OVC009CB=
KSSF 231744Z 2318/2418 16015G25KT P6SM FEW040
     FM240300 16014KT P6SM SCT025
     FM240500 16012KT P6SM OVC016
     FM240800 16012KT P6SM BKN009
     FM241200 15010KT 4SM SHRA BKN010 PROB30 2416/2418 3SM TSRA BR
      OVC009CB=
KXWA 231743Z 2318/2418 06015G25KT P6SM OVC007
     FM232100 02018G27KT P6SM OVC009
     FM240000 36020G30KT 3SM RA BR OVC006
     FM240600 34025G35KT 1/2SM RASNPL FZFG OVC007
     FM240900 33027G40KT 1/2SM SN FZFG BLSN OVC008=
