FTUS80 KWBC 231742 RRD
TAF
KFMH 231740Z 2318/2418 05009KT P6SM -RA OVC090
     FM232100 05009KT 2SM -RA BR OVC025
     FM240000 04010G18KT 3SM -RA BR OVC003
     FM241100 05005KT 3/4SM BR VCSH OVC003
     FM241700 13006KT 5SM BR VCSH OVC003=
KGCC 231741Z 2318/2418 32020G31KT 2SM -SN BR OVC020
     FM232200 31023G36KT 3SM BR OVC008
      TEMPO 2322/2402 1SM -SN OVC005
     FM241100 30028G43KT 1 1/2SM BR OVC012
     FM241600 31023G35KT P6SM BKN060=
KGGG 231739Z 2318/2418 18018G27KT P6SM BKN040
     FM240100 17012G18KT P6SM FEW045 BKN250
     FM240600 17011KT P6SM BKN025
     FM241500 17016G25KT P6SM BKN035=
KGON 231739Z 2318/2418 03009KT P6SM -RA SCT080 OVC120
      TEMPO 2319/2323 5SM RA BR BKN015 OVC025
     FM232300 03011G17KT 3SM RA BR OVC009
     FM240400 04010KT 2SM -RA BR OVC005
     FM241000 04008KT 2SM -RA BR OVC006=
KGSO 231740Z 2318/2418 01007KT P6SM SCT250=
KGTF 231739Z 2318/2418 34016G26KT 6SM -SHSN OVC006
      TEMPO 2318/2321 1SM -SN BR BKN008
     FM232100 34014G25KT P6SM VCSH SCT008 BKN015
      TEMPO 2321/2323 4SM -SN BR BKN008
     FM232300 33013G23KT P6SM VCSH SCT010 BKN015
     FM240300 28009KT P6SM SCT015 BKN035
     FM240600 23009KT P6SM SCT025 BKN050=
KHLN 231739Z 2318/2418 30009KT P6SM VCSH OVC035
     FM232100 33013G27KT P6SM SCT025 BKN035
      TEMPO 2321/2324 4SM -SN BR BKN025
     FM240300 VRB06KT P6SM BKN025
     FM240800 VRB06KT P6SM SCT025 BKN060=
