FTUS80 KWBC 231739 RRC
TAF
KJAX 231737Z 2318/2418 03009KT P6SM SCT035
     FM240000 06003KT P6SM FEW250
     FM240900 00000KT 5SM BR SCT250
      TEMPO 2410/2412 2SM BR SCT003
     FM241400 03005KT P6SM FEW020 SCT250=
KJFK 231736Z 2318/2424 04013G18KT P6SM -RA SCT040 OVC080
      TEMPO 2320/2323 5SM RA BR SCT015 BKN030
     FM232300 03012G19KT 4SM -RA BR BKN009 OVC025
     FM240200 04009KT 2SM -RA BR OVC006
     FM241400 03010KT 5SM -RA BR SCT006 BKN011 OVC025
     FM242000 05006KT 6SM BR VCSH OVC020=
KLGA 231736Z 2318/2424 04015KT P6SM -RA BKN040 OVC080
      TEMPO 2320/2323 5SM RA BR SCT015 BKN030
     FM232300 03014KT 4SM -RA BR BKN008 OVC025
     FM240200 04010KT 2SM -RA BR OVC008
     FM241400 04010KT 5SM -RA BR SCT006 BKN011 OVC025
     FM242000 05009KT 6SM BR VCSH OVC020=
KMCI 231738Z 2318/2418 18023G34KT P6SM SCT150
     FM240000 19026G42KT P6SM SCT100
     FM240800 20016G28KT P6SM OVC050
     FM241500 25008KT P6SM -SHRA OVC025=
KMCN 231738Z 2318/2418 10004KT P6SM SCT250
     FM240000 00000KT P6SM FEW250
     FM241600 10004KT P6SM SCT250=
KMHK 231737Z 2318/2418 20022G35KT P6SM SCT150
     FM240700 19021G33KT P6SM BKN100 WS020/21050KT
     FM241200 25011KT P6SM -SHRA OVC040=
KMKC 231738Z 2318/2418 18023G34KT P6SM SCT150
     FM240000 19026G42KT P6SM SCT100
     FM240800 20016G28KT P6SM OVC050
     FM241500 25008KT P6SM -SHRA OVC025=
