FTUS80 KWBC 231736
TAF
KABQ 231732Z 2318/2418 21022G34KT P6SM FEW050 BKN080
     FM232000 25026G36KT P6SM VCSH FEW050 BKN080
     FM240200 29012G22KT P6SM VCSH SCT040 BKN090
     FM240600 31011KT P6SM SCT050 BKN090
     FM241600 32016G32KT P6SM SCT090=
KACV 231732Z 2318/2418 07003KT P6SM SKC
     FM231900 33010KT P6SM FEW040
     FM232100 33015G22KT P6SM SKC
     FM240200 35008KT P6SM SKC
     FM240400 05003KT P6SM FEW150=
KAGS 231734Z 2318/2418 03005KT P6SM SCT250
     FM232200 00000KT P6SM SKC=
KBRO 231732Z 2318/2418 16022G31KT P6SM SCT040 SCT060 BKN250
     FM240300 15014KT P6SM BKN045
     FM241500 17021G27KT P6SM OVC050=
KCAE 231734Z 2318/2418 01006KT P6SM SKC
     FM232200 VRB03KT P6SM SKC=
KCEC 231732Z 2318/2418 05005KT 6SM BR SKC
     FM231900 34010KT 5SM HZ SKC
     FM232200 33012G22KT 5SM HZ SKC
     FM240200 36007KT 5SM BR FEW150
     FM240500 10004KT P6SM OVC100
     FM241300 15006KT P6SM OVC040=
KCUB 231734Z 2318/2418 VRB03KT P6SM SKC
     FM240000 00000KT P6SM SKC=
KDNL 231734Z 2318/2418 03006KT P6SM SCT250
     FM232200 VRB03KT P6SM SKC=
KFMN 231732Z 2318/2418 28018G30KT 6SM -SHRA SCT020 BKN050
      TEMPO 2318/2320 VRB15G40KT 3SM -SHRA OVC018
     FM232000 27020G32KT P6SM FEW080
     FM240200 29010KT P6SM SCT090
     FM241500 28012G24KT P6SM FEW200=
