FTUS80 KWBC 231730 RRE
TAF
TAF KMCC 231725Z 2318/2418 34016G24KT P6SM SKC
     FM240200 33009KT P6SM SKC=
KMDT 231727Z 2318/2418 31008KT P6SM SCT025 BKN035
     FM231900 VRB03KT P6SM BKN035
     FM240100 34005KT P6SM OVC025
     FM240500 35006KT 5SM BR OVC018
      TEMPO 2409/2413 2SM -DZ BR OVC009
     FM241600 02005KT P6SM OVC025=
KMEI 231727Z 2318/2418 18009KT P6SM FEW250=
KMEV 231728Z 2318/2418 VRB04KT P6SM SCT060
     FM232000 02010KT P6SM FEW070
     FM240300 VRB03KT P6SM FEW250=
TAF KMOD 231725Z 2318/2418 32016G24KT P6SM SKC
     FM240200 31007KT P6SM SKC=
KONP 231728Z 2318/2418 VRB03KT P6SM SCT250
     FM240700 18008KT P6SM FEW025 OVC070
     FM241100 18012G24KT P6SM SHRA OVC025
     FM241200 18013G26KT P6SM SHRA OVC018
     FM241500 19016G25KT P6SM SHRA OVC009
     FM241700 24012KT 6SM SHRA BR OVC006=
KPDX 231728Z 2318/2418 VRB03KT P6SM FEW050 BKN250
     FM240900 17007KT P6SM FEW035 OVC070
     FM241200 17007KT P6SM SHRA OVC035
     FM241500 18008KT P6SM SHRA OVC019
     FM241600 18007KT P6SM SHRA OVC021=
KPIB 231727Z 2318/2418 16008KT P6SM SCT250=
KRNO 231728Z 2318/2418 35007KT P6SM SCT060
     FM232000 03010KT P6SM FEW070
     FM240300 VRB03KT P6SM FEW250=
