FTUS80 KWBC 231715 AAA
TAF AMD
KCOU 231713Z 2317/2412 17017G27KT P6SM VCSH SCT150
     FM231900 17017G27KT P6SM SCT150
     FM240800 16014KT P6SM BKN150 WS020/20040KT=
KJEF 231714Z 2317/2412 17015G26KT P6SM VCSH SCT150
     FM231900 17015G26KT P6SM SCT150
     FM240800 17014KT P6SM BKN150 WS020/20040KT=
