FTUS80 KWBC 231739 RRA
TAF
KCMI 231737Z 2318/2418 17024G33KT P6SM FEW050 SCT110
     FM232100 17022G32KT P6SM SCT050 BKN110
     FM240100 16018G27KT P6SM BKN150
     FM240500 15014G23KT P6SM BKN200 WS015/19045KT
     FM241000 15013G22KT P6SM BKN200
     FM241500 17016G25KT P6SM FEW050 SCT150=
KCSG 231738Z 2318/2418 11005KT P6SM FEW250
     FM240000 07003KT P6SM SCT250
     FM241300 08004KT P6SM FEW250
     FM241600 12006KT P6SM FEW250=
KDEC 231737Z 2318/2418 18020G31KT P6SM FEW050 SCT110
     FM232000 17018G30KT P6SM SCT050 BKN100
     FM240400 17015G24KT P6SM BKN200 WS015/19045KT
     FM241000 17013G22KT P6SM BKN200
     FM241500 18016G25KT P6SM FEW050 SCT150=
KEAU 231736Z 2318/2418 14014G22KT P6SM FEW250
     FM240000 14015G27KT P6SM BKN100
     FM240300 16016G29KT 6SM -SHRA BR BKN080 WS020/17050KT PROB30
      2403/2409 4SM -TSRA BR BKN040CB
     FM240900 17017G32KT P6SM BKN070 WS020/18050KT
     FM241600 19016G29KT P6SM OVC040=
KEWN 231736Z 2318/2418 35010G16KT P6SM VCSH FEW009 OVC015
     FM240700 33006KT P6SM SCT009 BKN015
     FM241400 34006KT P6SM SCT015=
KEWR 231736Z 2318/2424 02010KT P6SM -RA SCT040 OVC100
      TEMPO 2320/2324 5SM RA BR SCT015 BKN030
     FM240000 03011KT 5SM -RA BR BKN009 OVC025
     FM240700 03008KT 2SM -RA BR OVC009
     FM241400 02008KT 3SM -RA BR SCT006 BKN011 OVC025
     FM241900 03006KT 6SM BR VCSH OVC015=
