FTUS80 KWBC 231721 RRG
TAF
KJVL 231720Z 2318/2418 17017G25KT P6SM FEW140
     FM232000 17017G28KT P6SM FEW160
     FM232300 17015G23KT P6SM SCT100
     FM240300 17015G27KT P6SM VCTS BKN100CB WS020/19045KT
     FM241000 17014G23KT P6SM BKN110=
KJZI 231720Z 2318/2418 36009KT P6SM FEW250
     FM240000 00000KT P6SM SKC
     FM240600 01003KT P6SM FEW010=
KLAF 231720Z 2318/2418 18015G25KT P6SM FEW120 SCT250
     FM240000 15010KT P6SM SCT250
     FM240400 14008KT P6SM BKN250 WS020/20040KT
     FM241400 18012G22KT P6SM SCT250=
KLAR 231720Z 2318/2418 31015G25KT P6SM -SHSN BKN040 BKN080
     FM240200 30012KT P6SM BKN080=
KLBB 231720Z 2318/2418 22022KT P6SM BKN250 PROB30 2403/2405 4SM
      -SHRA BR OVC030
     FM240500 20015KT P6SM BKN100 PROB30 2405/2411 4SM -SHRA BR
      OVC030
     FM241100 27015KT 6SM BR OVC060 PROB30 2411/2415 4SM -SHRA BR
      OVC030=
KLEX 231720Z 2318/2418 19010G16KT P6SM SKC
     FM240000 15005KT P6SM FEW250
     FM241200 17008KT P6SM BKN250=
KLRD 231720Z 2318/2418 15018G28KT P6SM BKN040
     FM240800 17004KT P6SM VCSH OVC012
     FM241700 19011KT P6SM BKN250=
KLWB 231720Z 2318/2418 VRB03KT P6SM SKC
      TEMPO 2410/2412 5SM BR=
KLYH 231720Z 2318/2418 02004KT P6SM BKN250=
KMAF 231720Z 2318/2418 21016G24KT P6SM FEW120 SCT250
     FM240000 18014G20KT P6SM SCT060 BKN100
     FM241200 26018G25KT P6SM FEW100 SCT250=
