FTUS80 KWBC 231800 CCA
TAF COR
KPHF 231758Z 2318/2418 34012KT 5SM -RADZ BR OVC005
     FM232100 35011KT 5SM -RA BR OVC009
     FM240400 35007KT P6SM OVC008
     FM241500 34010KT P6SM BKN015=
