FTUS80 KWBC 231733 RRF
TAF
KRIW 231731Z 2318/2418 36012G17KT 2SM -SN BR OVC030
      TEMPO 2318/2320 BKN007 OVC015
     FM232000 01012G18KT P6SM VCSH BKN025 OVC040
     FM241000 18007KT P6SM SCT025 BKN070
     FM241600 29012G18KT P6SM SCT150=
KRKS 231731Z 2318/2418 30020G30KT P6SM VCSH BKN025 OVC050
     FM240300 28018G26KT P6SM SCT025 OVC060
     FM240700 27012G18KT P6SM OVC100
     FM241500 28018G30KT P6SM SCT120=
KROC 231732Z 2318/2418 14006KT P6SM SCT250
     FM232100 11005KT P6SM SCT250
     FM240300 17005KT P6SM BKN250
     FM241000 VRB03KT P6SM FEW250=
KRST 231731Z 2318/2418 16020G31KT P6SM SCT150
     FM240000 17023G36KT P6SM VCSH SCT035 BKN100 WS020/18045KT
     FM240600 18022G35KT P6SM SCT150 WS020/18045KT
     FM241500 21018G28KT P6SM BKN100=
KSBA 231732Z 2318/2418 00000KT P6SM SKC
     FM231900 24010KT P6SM SKC
     FM240200 35008KT P6SM SKC
     FM240800 VRB03KT P6SM SKC
     FM241300 00000KT P6SM SKC=
KSBP 231732Z 2318/2418 36010KT P6SM SKC
     FM232200 32018G26KT P6SM SKC
     FM240200 33010KT P6SM SKC
     FM240800 VRB03KT P6SM SKC=
KSFF 231729Z 2318/2418 VRB03KT P6SM SCT035 BKN040
     FM232200 VRB03KT P6SM SCT080 BKN150
     FM240400 20005KT P6SM FEW080 BKN120
     FM240900 20008KT P6SM SCT040 OVC080
     FM241500 20008KT 5SM -RA BR OVC030=
