FTUS80 KWBC 232009 AAA
TAF AMD
KACY 232005Z 2320/2418 04013G23KT 6SM -RA BR OVC010
      TEMPO 2320/2324 3SM RA
     FM240400 02007KT 3SM -RADZ BR OVC003
     FM240700 36006KT 2SM -DZ BR BKN003=
KPHL 232008Z 2320/2424 05012G20KT 4SM -RA BR SCT030 OVC045
      TEMPO 2320/2324 3SM -RA BR BKN025
     FM240200 02008KT 4SM -RADZ SCT008 OVC020
     FM240800 01006KT 5SM -DZ BR OVC005
     FM241600 36005KT P6SM BKN015=
PABT 232007Z 2320/2418 02003KT 5SM BR SCT004 OVC035
     FM240000 VRB03KT P6SM SCT015 BKN040
     FM240800 VRB03KT P6SM SCT025 BKN050=
PATA 232006Z 2320/2418 VRB03KT 6SM BR OVC004
     FM240000 VRB03KT P6SM BKN007 OVC015
     FM240900 07003KT P6SM SCT007 OVC015
     FM241600 07006KT P6SM SCT015 BKN050 BKN100=
