FTUS80 KWBC 231748 CCA
TAF COR
PHJR 231745Z 2318/2418 04004KT P6SM VCSH BKN050
     FM232000 07010G17KT P6SM SCT030 SCT050
     FM240500 VRB04KT P6SM FEW030 FEW040=
