FTUS80 KWBC 231724 RRA
TAF
KDAY 231721Z 2318/2418 18012G18KT P6SM FEW050
     FM232300 15007KT P6SM SCT250
     FM241500 18012G18KT P6SM FEW180 BKN250=
KDVT 231723Z 2318/2418 27013KT P6SM SCT080
     FM240300 33010KT P6SM FEW250
     FM241600 03006KT P6SM SKC=
KEET 231721Z 2318/2418 16007KT P6SM FEW250
     FM240000 00000KT P6SM SCT250
     FM241300 VRB03KT P6SM FEW250=
KFLO 231722Z 2318/2418 36007KT P6SM SKC
     FM232300 00000KT P6SM SKC
     FM241300 02004KT P6SM SKC=
KFMY 231722Z 2318/2418 06008KT P6SM FEW040
     FM240200 05004KT P6SM FEW250
     FM241500 07007KT P6SM FEW250=
KFSM 231722Z 2318/2418 18015G26KT P6SM SCT040 BKN250
     FM240100 16010KT P6SM SCT100 BKN250
     FM241000 15010KT P6SM OVC025 PROB30 2411/2415 4SM -SHRA
      BKN015
     FM241500 13012G20KT 4SM -SHRA SCT008 OVC015 PROB30
      2415/2418
      2SM -TSRA BKN008CB=
KFYV 231722Z 2318/2418 18022G32KT P6SM SCT040 BKN250
     FM240300 18015G25KT P6SM SCT100 BKN250
     FM241000 18015G23KT P6SM OVC025 PROB30 2411/2415 4SM -SHRA
      BKN015
     FM241500 18013G20KT 4SM -SHRA SCT008 OVC015 PROB30 2415/2418
      2SM -TSRA BKN008CB=
KGLS 231722Z 2318/2418 17015KT P6SM SCT040 BKN050
     FM240800 17015G25KT P6SM BKN060
     FM241500 15016KT P6SM SCT050 BKN250=
KHIE 231722Z 2318/2418 VRB03KT P6SM BKN150
     FM232200 VRB03KT P6SM SCT070 OVC100
     FM240400 VRB02KT P6SM OVC060
     FM240600 VRB02KT 6SM -SHRA BR SCT020 OVC040=
