FTUS80 KWBC 231739 RRG
TAF
KTEB 231736Z 2318/2424 03007KT P6SM -RA SCT050 OVC120
      TEMPO 2320/2324 5SM RA BR SCT015 BKN025
     FM240000 02009KT 3SM -RA BR BKN009 OVC015
     FM240700 03006KT 2SM -RA BR OVC005
     FM241400 02005KT 2SM -RA BR BKN009 OVC015
     FM241900 03005KT 6SM BR VCSH OVC015=
KTOP 231737Z 2318/2418 18024G42KT P6SM SCT150
     FM240700 19021G33KT P6SM BKN120 WS015/21050KT
     FM241200 24012KT P6SM -SHRA OVC050=
TAF NSTU 231735Z 2318/2418 34008KT P6SM VCSH SCT020 BKN040 BKN100
     FM240500 25007KT 6SM -SHRA SCT020 BKN040 OVC100=
PABR 231737Z 2318/2418 13021G28KT P6SM FEW007 OVC040
     FM240000 12020KT 6SM BR SCT007 OVC015
     FM240300 12017KT 4SM BR SCT007 OVC015
     FM241000 12017KT 4SM BR OVC007=
PABT 231737Z 2318/2418 33003KT P6SM FEW008 OVC035
     FM232200 VRB03KT P6SM SCT015 BKN040
     FM240800 VRB03KT P6SM SCT025 BKN050=
PAFA 231737Z 2318/2424 VRB03KT 1 1/2SM -SN BR BKN004 BKN030 OVC060
      TEMPO 2318/2320 1/4SM FZFG BKN003
     FM240000 VRB03KT 3SM BR BKN007 OVC015
     FM240600 VRB03KT 1/2SM FZFG OVC005
     FM241700 VRB03KT P6SM SCT007 BKN100=
PAGA 231737Z 2318/2418 15009KT 6SM -SHSN BR FEW020 SCT025 OVC040
     FM240000 12008KT P6SM VCSH SCT025 BKN040 BKN100
     FM241100 08006KT P6SM VCSH BKN050 BKN100 AMD LTD TO CLD VIS
      WX=
PAMC 231737Z 2318/2418 NIL=
