FTUS80 KWBC 231742 AAA
TAF AMD
KALW 231741Z 2318/2418 21009KT P6SM FEW070 SCT100
     FM240300 15007KT P6SM SCT100 BKN200
     FM240900 16008KT P6SM BKN080 OVC120
     FM241200 18010KT P6SM BKN060 OVC090
      TEMPO 2414/2418 -RA OVC050=
PAJN 231740Z 2318/2418 11020KT P6SM -RA OVC050 WS020/06030KT
     FM240300 09007KT P6SM OVC050
     FM240900 02006KT P6SM BKN100=
