FTUS80 KWBC 232039 AAA
TAF AMD
KRIL 232038Z 2321/2418 28010KT 5SM -RA SCT010 OVC030
      TEMPO 2321/2324 1/2SM -RASN FG OVC010
     FM240000 27006KT P6SM VCSH SCT020 BKN040
     FM240600 VRB04KT P6SM BKN050=
