FTUS80 KWBC 231724 RRC
TAF
KLCK 231721Z 2318/2418 17010KT P6SM FEW050 FEW250
     FM232300 14005KT P6SM FEW250
     FM241500 18010KT P6SM FEW180 SCT250=
KLEB 231722Z 2318/2418 VRB03KT P6SM BKN200
     FM232300 VRB03KT P6SM SCT050 OVC100
     FM240200 00000KT 6SM -RA BR SCT015 OVC050
     FM240400 VRB02KT 4SM -SHRA BR OVC015=
KLEE 231721Z 2318/2418 01006KT P6SM SKC
     FM240100 36004KT P6SM SKC
     FM240900 36003KT P6SM SKC
      TEMPO 2410/2412 5SM BR
     FM241400 05006KT P6SM FEW035=
KLNK 231722Z 2318/2418 19024G37KT P6SM FEW200
     FM232100 18027G45KT 6SM BLDU FEW200
     FM240100 19025G45KT 6SM BLDU FEW070 SCT150 WS020/20060KT
     FM240700 27013G23KT P6SM BKN200 WS020/21050KT
     FM241000 27013KT P6SM BKN200=
KLOZ 231721Z 2318/2418 19007KT P6SM FEW250
     FM232200 VRB04KT P6SM FEW250
     FM241500 19006KT P6SM FEW200=
KLUK 231721Z 2318/2418 18010KT P6SM FEW050
     FM232300 VRB03KT P6SM SCT250
      TEMPO 2408/2412 00000KT 4SM BR SCT250
     FM241500 18008KT P6SM FEW180 SCT250=
KMCO 231721Z 2318/2424 35009KT P6SM SKC
     FM232000 01010KT P6SM FEW040
     FM240200 02005KT P6SM SKC
     FM240900 36004KT P6SM FEW012
      TEMPO 2410/2412 5SM BR
     FM241400 04008KT P6SM FEW035
     FM241800 05009KT P6SM SCT040=
KMGM 231721Z 2318/2418 12007KT P6SM SKC
     FM240000 00000KT P6SM SCT250=
