FTUS80 KWBC 231800 AAA
TAF AMD
KPHL 231758Z 2318/2424 04009KT P6SM VCSH OVC035
     FM232000 03008KT 4SM -RA BR SCT007 OVC015
     FM240100 02008KT 4SM -RADZ SCT003 OVC008
     FM240800 01006KT 5SM -DZ BR OVC003
     FM241100 36005KT 3SM -DZ BR BKN003
     FM241600 36005KT P6SM BKN015=
