FTUS80 KWBC 231951 AAC
TAF AMD
KMIV 231949Z 2320/2418 02009KT 3SM -RA BR SCT005 OVC008
      TEMPO 2319/2322 1 1/2SM RA
     FM240000 02009KT 4SM -DZ BR OVC008
     FM240300 02007KT 3SM -DZ BR OVC003
     FM241000 36006KT 2SM -DZ BR OVC003
     FM241600 35005KT P6SM BKN003=
KPHL 231950Z 2320/2424 04009KT P6SM VCSH OVC035
     FM232100 03008KT 4SM -RA BR SCT007 OVC015
     FM240100 02008KT 4SM -RADZ SCT003 OVC008
     FM240800 01006KT 5SM -DZ BR OVC003
     FM241100 36005KT 3SM -DZ BR BKN003
     FM241600 36005KT P6SM BKN015=
KSUX 231949Z 2320/2418 16023G33KT P6SM SKC
     FM232300 17022G31KT P6SM SCT120 WS012/18050KT
     FM240600 23019G29KT P6SM SCT130
     FM241000 27013G21KT P6SM SCT220=
KSWF 231948Z 2320/2424 05005KT P6SM SCT040 OVC120
      TEMPO 2321/2324 -RA SCT025 OVC040
     FM240000 05005KT 6SM -RA BR BKN020 OVC040
     FM240300 06006KT 5SM -RA BR BKN008 OVC015
     FM241800 VRB04KT P6SM VCSH SCT009 OVC015 AMD NOT SKED=
KTEB 231948Z 2320/2424 02005KT P6SM SCT050 OVC120
      TEMPO 2321/2324 6SM -RA SCT015 BKN025
     FM240000 02009KT 3SM -RA BR BKN015 OVC025
     FM240300 03006KT 2SM -RA BR OVC006
     FM241400 02005KT 2SM -RA BR BKN009 OVC015
     FM241900 03005KT 6SM BR VCSH OVC015=
