FTUS80 KWBC 231924 AAA
TAF AMD
KFMN 231921Z 2319/2418 28018G30KT P6SM VCSH BKN060 OVC090
     FM232000 27020G32KT P6SM FEW080
     FM240200 29010KT P6SM SCT090
     FM241500 28012G24KT P6SM FEW200=
KGJT 231922Z 2319/2418 32007KT 3SM -RASN BR OVC013
      TEMPO 2319/2321 1SM -RASN
     FM240000 35007KT P6SM VCSH SCT025 OVC050
     FM240600 05005KT P6SM BKN050=
KTOP 231922Z 2319/2418 18024G42KT P6SM -TSRA OVC100CB
     FM232100 18024G42KT P6SM SCT150
     FM240700 19021G33KT P6SM BKN120 WS015/21050KT
     FM241200 24012KT P6SM -SHRA OVC050=
