FTUS80 KWBC 231742 RRE
TAF
KHOT 231741Z 2318/2418 19010G18KT P6SM SCT040 SCT250
      TEMPO 2318/2320 BKN035
     FM240100 17008KT P6SM BKN250
     FM240900 16007KT P6SM SCT025 BKN050
     FM241400 16009G16KT P6SM OVC025=
KHQM 231740Z 2318/2418 08006KT P6SM SCT005 BKN250
     FM231900 10008KT P6SM SCT030 BKN250
     FM232200 19010KT P6SM OVC250
     FM240500 14013KT P6SM -RA OVC050
     FM240800 14016KT P6SM -RA OVC019=
KHRO 231741Z 2318/2418 18015G25KT P6SM SCT040 SCT250
     FM240100 17012G20KT P6SM BKN250
     FM241000 17010G18KT P6SM SCT025 BKN050
     FM241400 17014G22KT P6SM VCSH BKN025 BKN060=
KHVR 231739Z 2318/2418 01015G25KT 6SM -SHSNRA SCT012 BKN019
      TEMPO 2318/2322 3SM -SN BR BKN012
     FM232200 36016G26KT 6SM -RASN BR SCT012 BKN020
      TEMPO 2322/2401 4SM -SNRA BR BKN012
     FM240100 34011G18KT P6SM SCT015 OVC025
     FM240400 27009KT P6SM SCT025 BKN050
     FM241600 24011G18KT P6SM SCT015=
KHYA 231740Z 2318/2418 05011KT P6SM -RA OVC045
     FM232300 04012G20KT 2SM -RA BR OVC010
     FM240500 05009KT 3/4SM -SHRA BR OVC003
     FM241700 13006KT 4SM BR VCSH OVC008=
KILG 231739Z 2318/2418 03009KT P6SM VCSH OVC035
     FM231900 03009KT 6SM -RADZ BR VCSH OVC020
     FM232000 02009KT 6SM -RADZ BR SCT008 OVC015
     FM240400 01006KT 6SM -RADZ BR SCT004 OVC008
     FM240900 35005KT 3SM -DZ BR BKN003
     FM241600 36005KT P6SM BKN250=
KINT 231740Z 2318/2418 36007KT P6SM FEW250=
