FTUS80 KWBC 231742 RRN
TAF
TAF TJSJ 231737Z 2318/2418 05012KT P6SM FEW022 SCT040 BKN060
     FM232200 09008KT P6SM FEW030 SCT045
     FM240100 14003KT P6SM FEW022 SCT035 SCT060
     FM241400 07012KT P6SM FEW035 SCT050=
