FTUS80 KWBC 232006
TAF
TAF AMD PASC 232002Z 2320/2418 09012KT 6SM BR SCT005 OVC035
     FM240000 11017KT 4SM BR SCT007 OVC015
     FM240400 10018KT 4SM BR BKN007 OVC015=
