FTUS80 KWBC 232030 AAA
TAF AMD
KMCK 232028Z 2320/2418 22025G37KT P6SM SCT035
     FM240200 30022G34KT P6SM FEW230
     FM240800 29013KT P6SM SCT240=
KTTN 232026Z 2320/2418 05010KT 6SM -RA BR SCT030 OVC045
     FM240000 03007KT 5SM -RA BR SCT015 OVC020
     FM240400 02007KT 4SM -RADZ SCT004 OVC008
     FM240700 01005KT 3SM -DZ BR OVC003
     FM241600 01005KT P6SM BKN003=
