FTUS80 KWBC 231936 AAA
TAF AMD
KCDR 231935Z 2320/2418 29025G38KT P6SM BKN150
     FM232300 30020G30KT P6SM VCSH BKN060
     FM240500 29028G38KT P6SM BKN050=
KRSL 231933Z 2320/2418 20030G45KT 4SM BLDU SCT030 SCT100
      TEMPO 2320/2323 1 1/2SM BLDU SCT015 BKN030
     FM240200 20026G40KT P6SM SCT100
     FM240700 32015G25KT P6SM BKN100=
