FTUS80 KWBC 231721 RRH
TAF
KMBG 231720Z 2318/2418 10015KT P6SM BKN200
     FM240600 29018G30KT 6SM -RA BR OVC035
     FM241700 29022G35KT 6SM -RA BR OVC022=
KMCE 231720Z 2318/2418 32012KT P6SM SKC
     FM241200 00000KT P6SM SKC=
KMCK 231720Z 2318/2418 21032G44KT 3SM BLDU BKN027
     FM232100 23022G35KT 6SM BLDU FEW250
     FM240200 30022G34KT P6SM FEW230
     FM240800 29013KT P6SM SCT240=
KMDW 231720Z 2318/2424 17020G33KT P6SM SCT100
     FM240100 17017G26KT P6SM SCT050 BKN100
      TEMPO 2404/2408 -SHRA BKN050
     FM241500 19018G29KT P6SM BKN100=
KMIA 231720Z 2318/2424 06010KT P6SM SCT040
     FM240100 VRB05KT P6SM FEW040
     FM241500 06010KT P6SM SCT040=
KMKE 231720Z 2318/2424 16014G23KT P6SM FEW220
     FM240200 17013G21KT P6SM BKN110 WS020/18045KT
     FM240600 18013G21KT P6SM VCTS BKN100CB WS020/20040KT
     FM241100 17013G21KT P6SM BKN100 WS020/20040KT
     FM241500 18014G23KT P6SM BKN180=
KMOB 231720Z 2318/2418 14010KT P6SM SCT250
     FM240300 13004KT P6SM SCT250=
KMPV 231720Z 2318/2418 VRB04KT P6SM FEW250
     FM240700 VRB03KT P6SM -SHRA OVC025
     FM240900 00000KT 5SM -SHRA BR OVC015
     FM241500 00000KT P6SM BKN012=
KMSL 231720Z 2318/2418 18010G18KT P6SM SKC
     FM240000 15005KT P6SM SCT250=
KMSN 231720Z 2318/2418 16015G25KT P6SM FEW170
     FM240100 17014G24KT P6SM BKN110
     FM240400 17016G28KT P6SM VCTS BKN100CB WS020/19050KT
     FM241400 18015G24KT P6SM BKN120 WS020/20040KT=
