FTUS80 KWBC 231906 AAA
TAF AMD
KUNV 231903Z 2319/2418 VRB05KT P6SM BKN035
     FM240500 07005KT P6SM BKN035
     FM241000 05005KT 5SM BR OVC018
     FM241700 06006KT P6SM BKN030=
