FTUS80 KWBC 231733 RRD
TAF
KLBF 231731Z 2318/2418 22026G40KT P6SM SKC
     FM240000 28020G30KT P6SM SCT100 BKN200
     FM240300 30016G25KT P6SM BKN040
     FM241000 30012KT P6SM SCT100 BKN250
     FM241500 31014G22KT P6SM BKN250=
KLGB 231732Z 2318/2418 13005KT P6SM SKC
     FM232000 21008KT P6SM SKC
     FM240300 VRB03KT P6SM SKC
     FM241000 00000KT P6SM SKC=
KLND 231731Z 2318/2418 35012G22KT P6SM VCSH BKN025 OVC050
     FM240700 19004KT P6SM BKN030 OVC050
     FM241400 VRB05KT P6SM SCT120=
KLSE 231731Z 2318/2418 16014G23KT P6SM SCT150
     FM240100 15019G31KT P6SM VCSH SCT050 BKN100 WS020/18040KT
      TEMPO 2401/2404 -SHRA
     FM240700 17018G30KT P6SM BKN100 WS020/18040KT
     FM241400 18017G26KT P6SM BKN040=
KLWS 231729Z 2318/2418 25004KT P6SM BKN070
     FM232200 29006KT P6SM SCT050
     FM240600 17005KT P6SM SCT100 BKN200
     FM241600 14007KT P6SM -RA SCT020 BKN040=
KMEM 231732Z 2318/2424 18015G23KT P6SM FEW050
     FM240000 17010KT P6SM SCT250
     FM241400 18015G22KT P6SM FEW045 SCT250=
KMKL 231732Z 2318/2418 19013G21KT P6SM FEW045
     FM240000 17006KT P6SM SKC
     FM241400 18012G20KT P6SM FEW250=
KMTJ 231730Z 2318/2418 28010KT P6SM -SHRA BKN010 OVC025
      TEMPO 2318/2321 5SM -RA BR
     FM232100 29010G18KT 5SM -SHRA BR OVC020
     FM240000 30007KT 5SM -SHRASN BR OVC015
     FM240600 15005KT P6SM VCSH BKN035=
