FTUS80 KWBC 232121 AAB
TAF AMD
KISP 232119Z 2321/2418 05013KT P6SM -RA BKN040 OVC150
     FM232300 04014KT 6SM -RA BR BKN015
     FM240100 04013KT 5SM -RA BR BKN008
     FM240400 04013KT 3SM -RA BR OVC004
     FM241600 05009KT 5SM -RA BR OVC007=
KLAN 232118Z 2321/2418 17014G24KT P6SM SCT060 BKN100
     FM232230 16012KT P6SM BKN100
     FM241100 17009KT P6SM BKN090=
KSWF 232119Z 2321/2424 05005KT P6SM SCT040 OVC120
      TEMPO 2322/2324 -RA SCT025 OVC040
     FM240000 05005KT P6SM -RA SCT020 OVC040
     FM240200 05005KT 6SM -RA BR BKN020
     FM240500 06006KT 5SM -RA BR BKN008 OVC015
     FM241800 VRB04KT P6SM VCSH SCT009 OVC015 AMD NOT SKED=
KUIN 232119Z 2321/2418 17018G28KT P6SM VCSH SCT110
     FM240200 17013G23KT P6SM BKN250
     FM240800 18013KT P6SM BKN250
     FM241500 18013G24KT P6SM BKN090=
