FTUS80 KWBC 231900 AAA
TAF AMD
KCOS 231858Z 2319/2418 29020G30KT P6SM SCT200
     FM240300 33015G25KT P6SM SCT200
     FM240600 35012KT P6SM SCT250=
KHLN 231857Z 2319/2418 30009KT P6SM VCSH OVC035
      TEMPO 2319/2321 2SM -SN OVC020
     FM232100 33013G27KT P6SM SCT025 BKN035
      TEMPO 2321/2324 4SM -SN BR BKN025
     FM240300 VRB06KT P6SM BKN025
     FM240800 VRB06KT P6SM SCT025 BKN060=
KLVM 231857Z 2319/2418 28011KT P6SM VCSH FEW012 OVC035
      TEMPO 2319/2321 1/2SM SN OVC015
     FM232100 31015G28KT P6SM VCSH SCT020 BKN040
      TEMPO 2321/2324 3SM -SHSN OVC020
     FM240600 30015KT P6SM SCT050 OVC100
     FM241200 24010KT P6SM FEW100 SCT200=
PABE 231859Z 2319/2418 15010KT P6SM BKN030 OVC120
     FM232100 16010KT P6SM VCSH SCT030 OVC040
     FM240000 16011KT 4SM -RA BR BKN020 OVC050
     FM240300 13010KT 3SM -RA BR SCT007 OVC015=
