FTCA32 KWBC 231745
TAF
TAF TISX 231737Z 2318/2418 11012KT P6SM VCSH FEW030 SCT050
     FM232200 04005KT P6SM SCT035
     FM241400 09012KT P6SM FEW030 SCT050=
