FTUS80 KWBC 231730 RRH
TAF
TAF PTKK 231725Z 2318/2418 VRB06KT P6SM VCSH SCT014 SCT040
      TEMPO 2318/2322 -SHRA SCT014 BKN045=
TAF PTRO 231725Z 2318/2418 27011KT P6SM VCSH SCT015 BKN110
      TEMPO 2318/2322 24014G20KT 5SM SHRA BKN015 OVC110=
TAF PTYA 231725Z 2318/2418 19010KT P6SM VCSH SCT016 BKN120
      TEMPO 2318/2322 15010G20KT 3SM +SHRA OVC016=
