FTUS80 KWBC 231727 RRG
TAF
KSHR 231726Z 2318/2418 31020G30KT 5SM -SN BR SCT008 OVC020
      TEMPO 2318/2322 2SM -SN BR BKN008 OVC015
     FM232200 32030G45KT 4SM -SHSN BLSN FEW006 OVC012
     FM240200 32030G45KT 1/2SM SN BLSN OVC008
     FM240700 32025G40KT 1 1/2SM -SN BLSN BKN008 OVC022
     FM241200 32020G30KT P6SM VCSH FEW025 BKN060=
KSMF 231725Z 2318/2418 34017G26KT P6SM SKC
     FM240200 33009KT P6SM SKC=
KSNA 231724Z 2318/2418 VRB05KT P6SM SCT035
     FM231900 21010KT P6SM FEW040
     FM240200 10003KT P6SM SKC
     FM240700 04005KT P6SM SKC WS010/04030KT
     FM241100 04015G20KT P6SM SKC=
KSUN 231724Z 2318/2424 32011G20KT P6SM VCSH BKN050
     FM240300 33010KT P6SM SKC
     FM241800 14007KT P6SM SKC=
KTOL 231724Z 2318/2418 16010KT P6SM FEW045 SCT250
     FM232200 16010KT P6SM SCT250=
KTRM 231724Z 2318/2418 33010KT P6SM SKC
     FM240600 32007KT P6SM SKC=
KVGT 231725Z 2318/2418 33015G25KT P6SM SCT100
     FM240000 36010G18KT P6SM FEW150
     FM240500 33012G20KT P6SM FEW150=
KYNG 231724Z 2318/2418 14005KT P6SM FEW250=
KZZV 231724Z 2318/2418 13003KT P6SM SCT250
      TEMPO 2407/2411 5SM BR SKC
     FM241200 17005KT P6SM SCT250=
PGSN 231725Z 2318/2418 09008KT P6SM VCSH SCT020 SCT050
     FM232200 12013KT P6SM VCSH SCT020 SCT050=
PGUM 231725Z 2318/2424 12011KT P6SM VCSH SCT015 SCT050 SCT120=
PKMJ 231725Z 2318/2418 11011KT P6SM VCSH SCT015 SCT050 SCT120
      TEMPO 2323/2403 5SM -SHRA SCT015 BKN030=
