FTUS80 KWBC 232057 AAA
TAF AMD
KART 232053Z 2321/2418 VRB04KT P6SM SCT250
     FM232300 VRB03KT P6SM BKN250=
KBUF 232053Z 2321/2418 07006KT P6SM FEW250
     FM232300 10004KT P6SM SCT250
     FM240400 15005KT P6SM FEW250
     FM240800 VRB04KT P6SM SKC=
KFAY 232055Z 2321/2418 36010G18KT P6SM SKC
     FM240000 36004KT P6SM SCT028 SCT250
      TEMPO 2402/2406 BKN025=
KFLG 232056Z 2321/2418 25013G23KT P6SM FEW030 SCT050
     FM240200 31010KT P6SM FEW040
     FM240900 04008G14KT P6SM FEW060=
KIAG 232053Z 2321/2418 VRB03KT P6SM FEW250
     FM232200 06005KT P6SM SCT250
     FM240400 18005KT P6SM FEW250
     FM241100 VRB03KT P6SM FEW250=
KJHW 232053Z 2321/2418 15005KT P6SM FEW250
     FM232300 12004KT P6SM SKC
     FM241200 VRB04KT P6SM SKC=
KROC 232053Z 2321/2418 11005KT P6SM SCT250
     FM240300 17005KT P6SM BKN250
     FM241000 VRB03KT P6SM FEW250=
