FTUS80 KWBC 231733 RRE
TAF
KMTW 231731Z 2318/2418 16015G24KT P6SM SKC
     FM232200 16015G29KT P6SM SCT100 WS020/18045KT
     FM240400 17015KT P6SM -SHRA SCT040 BKN080 WS020/20045KT
      TEMPO 2406/2410 17015G25KT 3SM SHRA BKN040
     FM241200 17017G28KT P6SM BKN090 WS016/20045KT=
KMWH 231729Z 2318/2418 35006KT P6SM FEW200
     FM232200 20005KT P6SM BKN200
     FM240600 18006KT P6SM SCT100 OVC200
     FM241300 14006KT P6SM -RA SCT040 BKN050=
KOXR 231732Z 2318/2418 00000KT P6SM FEW020
     FM231900 27010KT P6SM SKC
     FM240300 VRB03KT P6SM SKC
     FM241000 06008KT P6SM SKC
     FM241500 06014G20KT P6SM SKC=
KPMD 231732Z 2318/2418 29015KT P6SM SKC
     FM240400 VRB03KT P6SM SKC
     FM241000 00000KT P6SM SKC=
KPRB 231732Z 2318/2418 33006KT P6SM SKC
     FM232300 33012KT P6SM SKC
     FM240600 VRB03KT P6SM SKC
     FM241000 00000KT P6SM SKC=
KRHI 231731Z 2318/2418 15014G24KT P6SM SKC
     FM240000 15013G26KT P6SM BKN045 WS020/17040KT
     FM240300 16014KT P6SM -SHRA SCT020 OVC040 WS020/19045KT
      TEMPO 2403/2407 16014G25KT 3SM SHRA OVC020
     FM240700 16015KT P6SM -SHRA OVC020 WS020/19045KT
     FM241200 18016G31KT P6SM OVC021 WS020/20045KT=
KRIL 231730Z 2318/2418 28010KT P6SM -SHRA SCT010 OVC020
     FM232100 30007KT 5SM -SHRASN BKN015
     FM240000 27006KT P6SM VCSH SCT020 BKN040
     FM240600 VRB04KT P6SM BKN050=
