FTUS80 KWBC 231721 RRM
TAF
KVCT 231720Z 2318/2418 15020G30KT P6SM SCT035
     FM240400 16012KT P6SM SCT020 BKN050
     FM241500 16016G23KT P6SM VCSH OVC025=
KYKM 231720Z 2318/2418 28005KT P6SM FEW080
     FM232100 VRB04KT P6SM FEW250
     FM240300 26006KT P6SM SCT100 BKN200
     FM241200 22005KT P6SM SCT060 BKN120
      TEMPO 2414/2418 -RA OVC050=
PAAQ 231720Z 2318/2418 01007KT P6SM SCT200=
PABE 231720Z 2318/2418 VRB06KT 1/2SM FZFG VV002
      TEMPO 2318/2320 1SM -SN BR OVC002
     FM232000 VRB06KT 1/2SM FG OVC003
     FM240000 16011KT 1/2SM -SHRA FG OVC003
     FM240300 13010KT 1 1/2SM -RA BR BKN003 OVC007=
PADL 231720Z 2318/2418 VRB06KT P6SM FEW120
     FM240000 16008G16KT P6SM FEW015 BKN025
     FM240300 15010G16KT 5SM -RASN BR BKN007 OVC015
     FM240900 17008KT 6SM -RA BR OVC020=
PAEN 231720Z 2318/2418 VRB03KT P6SM BKN200
     FM232100 02007KT P6SM SCT200=
PAHO 231720Z 2318/2418 VRB03KT P6SM BKN200
     FM232100 01007KT P6SM SCT200=
PAIL 231720Z 2318/2418 32007G18KT P6SM FEW060
     FM240900 06008KT 6SM -SHSN BR OVC020=
PAKN 231720Z 2318/2418 VRB06KT P6SM SCT100
     FM240500 19011KT 5SM -RA BR OVC030
     FM240700 18011KT 5SM -RA BR SCT007 OVC015=
PANC 231720Z 2318/2424 36011KT P6SM BKN220
     FM240300 02006KT P6SM SCT200=
PATK 231720Z 2318/2418 36005KT P6SM SCT200=
