FTUS80 KWBC 232015 AAA
TAF AMD
KDLS 232011Z 2320/2418 30007G15KT P6SM FEW060
     FM232300 31010KT P6SM SCT250
     FM240300 30008KT P6SM BKN250
     FM241100 VRB04KT P6SM BKN050 OVC100
      TEMPO 2414/2418 -RA OVC040=
KFMH 232014Z 2320/2418 04011KT 6SM -RA BR SCT025 OVC040
     FM232200 05009KT 2SM -RA BR OVC025
     FM240000 04010G18KT 3SM -RA BR OVC003
     FM241100 05005KT 3/4SM BR VCSH OVC003
     FM241700 13006KT 5SM BR VCSH OVC003=
KHYA 232013Z 2320/2418 03007KT 6SM -RA BR SCT007 BKN020 OVC050
     FM232300 04012G20KT 2SM -RA BR OVC007
     FM240500 05009KT 3/4SM -SHRA BR OVC003
     FM241700 13006KT 4SM BR VCSH OVC008=
KRDM 232013Z 2320/2418 35008G17KT P6SM SCT050
     FM240100 VRB04KT P6SM SCT080 BKN120
     FM241200 16007KT P6SM BKN060 OVC090
      TEMPO 2414/2418 -RA OVC050=
