FTUS80 KWBC 232118 AAA
TAF AMD
KMKG 232117Z 2321/2418 15012G22KT P6SM FEW060 SCT250
     FM232300 15012KT P6SM BKN100
     FM240300 16014KT P6SM VCSH BKN100 WS020/19045KT
     FM241100 17013KT P6SM BKN090=
KOAJ 232116Z 2321/2418 34010KT P6SM SCT025 BKN040
      TEMPO 2321/2324 BKN025
     FM240000 34008KT P6SM BKN025
     FM241300 35006KT P6SM SCT025 AMD LTD TO CLD VIS AND WIND=
KSAF 232115Z 2321/2418 28024G34KT P6SM VCSH SCT035 OVC080
     FM232300 27021G29KT P6SM VCSH BKN070
     FM240600 33010KT P6SM BKN070
     FM241500 32017G30KT P6SM SCT070=
