FTUS80 KWBC 232124 AAA
TAF AMD
KBRD 232121Z 2321/2418 10013G25KT P6SM SKC
     FM240100 13014G25KT P6SM BKN060 WS020/15041KT
     FM240400 14016G30KT 4SM -SHRA VCTS BKN060CB WS020/16045KT
     FM240900 16016G30KT P6SM -SHRA VCTS BKN050CB
     FM241400 21017G35KT P6SM SCT045=
KILG 232122Z 2321/2418 05009KT 3SM RA BR OVC025
      TEMPO 2321/2323 1 1/2SM RA BR
     FM240000 02009KT 5SM -RADZ BR SCT008 OVC020
     FM240900 35005KT 3SM -DZ BR BKN003
     FM241600 36005KT P6SM BKN250=
KINL 232120Z 2321/2418 12018G26KT P6SM FEW070 SCT090
     FM240000 11012G25KT P6SM BKN045 WS020/15032KT
     FM240200 12012G25KT P6SM -SHRA BKN045 WS020/16033KT
     FM240600 13013G25KT 4SM SHRA VCTS BKN025CB WS020/18042KT
     FM240900 14014G25KT P6SM VCSH BKN025 WS020/18037KT
     FM241500 20016G29KT P6SM BKN040 WS020/20046KT=
