FTUS80 KWBC 231739 RRF
TAF
KSNS 231737Z 2318/2418 28006KT P6SM SKC
     FM232000 30011G18KT P6SM SKC
     FM240300 VRB06KT P6SM SKC
     FM241500 10007KT P6SM FEW250=
KSPI 231737Z 2318/2418 17018G28KT P6SM SCT050 BKN100
     FM240100 17018G27KT P6SM SCT070 BKN120
     FM240400 17016G25KT P6SM BKN200 WS015/19050KT
     FM240900 17014G22KT P6SM BKN200
     FM241500 18016G25KT P6SM FEW050 SCT150=
KSSI 231737Z 2318/2418 05010G15KT P6SM SKC
     FM240000 08007KT P6SM FEW250
     FM240700 34003KT P6SM SCT250
     FM241400 03006KT P6SM FEW025 SCT250=
KSTC 231736Z 2318/2418 14013G21KT P6SM FEW240
     FM232300 13016G29KT P6SM BKN120
     FM240200 15016G31KT P6SM -SHRA SCT040 BKN100 WS020/17050KT
      TEMPO 2402/2406 3SM TSRA BR BKN040CB
     FM240800 17015G31KT P6SM BKN070 WS020/19050KT
     FM241200 20018G28KT P6SM BKN080=
KSTJ 231738Z 2318/2418 18025G34KT P6SM SCT150
     FM240000 19027G42KT P6SM SCT100
     FM240800 20016G28KT P6SM OVC050
     FM241600 25008KT P6SM -SHRA OVC025=
KSTS 231737Z 2318/2418 35013G21KT P6SM SKC
     FM240300 34008KT P6SM SKC
     FM241500 00000KT P6SM SKC=
KSWF 231736Z 2318/2424 05006KT P6SM BKN040 OVC150
      TEMPO 2320/2324 -RA SCT025 OVC040
     FM240000 05005KT 6SM -RA BR BKN020 OVC040
     FM240300 06006KT 5SM -RA BR BKN008 OVC015
     FM241800 VRB04KT P6SM VCSH SCT009 OVC015 AMD NOT SKED=
