FTUS80 KWBC 231742 RRA
TAF
KBED 231740Z 2318/2418 04005KT P6SM OVC130
     FM232300 03006KT 5SM -RA BR OVC030
     FM240200 02007KT 4SM -RA BR OVC008
     FM240600 03006KT 2SM -SHRA BR OVC008
     FM240800 02006KT 1SM -SHRA BR OVC003=
KBFI 231740Z 2318/2418 16005KT P6SM BKN010 BKN250
     FM231900 19006KT P6SM SCT050 OVC250
     FM240900 15007KT P6SM -RA OVC045
     FM241700 18010KT 6SM -SHRA OVC025=
KBKE 231741Z 2318/2418 32012G20KT P6SM BKN040
     FM240300 VRB04KT P6SM SKC
     FM241300 11007KT P6SM BKN080 OVC120=
KBLI 231740Z 2318/2418 VRB02KT P6SM BKN040 BKN250
     FM231900 16006KT P6SM SCT050 OVC250
     FM240600 15011G18KT P6SM -RA OVC045
     FM241100 15009G16KT P6SM -RA OVC030=
KBNO 231741Z 2318/2418 29011G18KT P6SM SCT040
     FM240200 26006KT P6SM SCT150
     FM241400 VRB04KT P6SM SCT080 BKN100=
KBOI 231741Z 2318/2418 31015G23KT P6SM SCT040
     FM240300 30008KT P6SM SKC
     FM240800 VRB03KT P6SM SKC
     FM241600 13006KT P6SM BKN100=
KBOS 231740Z 2318/2424 05007KT P6SM FEW020 OVC090
     FM232100 05007KT P6SM VCSH SCT025 OVC045
     FM232300 03010G17KT 3SM -RA BR OVC025
     FM240300 03012KT 3SM -RA BR OVC008
     FM240900 03009KT 2SM BR VCSH OVC003
     FM242200 05004KT 4SM BR VCSH OVC008=
KBRL 231741Z 2318/2418 16015G27KT P6SM BKN150
     FM240000 18016G26KT P6SM BKN200 WS016/20045KT
     FM241500 18013G21KT P6SM BKN080=
