FTUS80 KWBC 232024 AAB
TAF AMD
KLGA 232021Z 2320/2424 05012KT P6SM -RA BKN050 OVC100
      TEMPO 2321/2323 6SM -RA BR SCT015 BKN030
     FM232300 03014KT 4SM -RA BR BKN010 OVC025
     FM240200 04010KT 2SM -RA BR OVC008
     FM241400 04010KT 5SM -RA BR SCT006 BKN011 OVC025
     FM242000 05009KT 6SM BR VCSH OVC020=
KPKB 232020Z 2320/2418 VRB03KT P6SM SKC=
KTEB 232021Z 2320/2424 02005KT P6SM -RA BKN060
      TEMPO 2322/2324 6SM -RA SCT015 BKN030
     FM240000 02009KT 3SM -RA BR BKN015 OVC025
     FM240300 03006KT 2SM -RA BR OVC006
     FM241400 02005KT 2SM -RA BR BKN009 OVC015
     FM241900 03005KT 6SM BR VCSH OVC015=
