FTUS80 KWBC 231724 RRD
TAF
KMHT 231722Z 2318/2418 32005KT P6SM SCT060 BKN100
     FM232300 03005KT P6SM -RA SCT007 OVC040
     FM240200 01005KT 4SM -SHRA BR OVC007
     FM240600 01008KT 3SM -DZ BR VCSH OVC003=
KMLB 231721Z 2318/2418 02011KT P6SM SCT035
     FM240100 03006KT P6SM FEW030
     FM241400 04010KT P6SM SCT040=
KMLC 231722Z 2318/2418 18017G27KT P6SM BKN025
     FM232000 18018G30KT P6SM SCT040 BKN250
     FM240300 17015G22KT P6SM SCT100 BKN250
     FM240600 17014G21KT P6SM SCT035 OVC060 PROB30 2408/2412 4SM
      -SHRA BR BKN035
     FM241200 17012G20KT 4SM -SHRA SCT008 OVC025 PROB30 2414/2418
      2SM -TSRA BKN008CB=
KMYR 231722Z 2318/2418 35010KT P6SM SKC
     FM232300 35004KT P6SM SKC=
KOFK 231722Z 2318/2418 19023G40KT 6SM BLDU FEW230
     FM240100 19021G36KT 6SM BLDU FEW070 SCT150 WS020/19055KT
     FM240400 27014G22KT P6SM BKN200=
KOMA 231722Z 2318/2418 18022G34KT P6SM FEW200
     FM232100 17027G42KT 6SM BLDU FEW150
     FM240200 18022G43KT 6SM BLDU FEW070 SCT150 WS020/19055KT
     FM240800 26012G23KT P6SM BKN200 WS020/21050KT
     FM241000 28012KT P6SM BKN200=
TAF KPBG 231720Z 2318/2418 VRB04KT P6SM FEW250
     FM241500 VRB03KT P6SM BKN018
     FM241700 VRB03KT P6SM SCT022=
KPHX 231723Z 2318/2424 27015G22KT P6SM SCT050 SCT080
     FM240300 31012KT P6SM FEW080 FEW250
     FM241200 35008KT P6SM SKC
     FM241600 03006KT P6SM SKC
     FM242000 33008KT P6SM SKC=
