FTUS80 KWBC 231745 CCA
TAF COR
KGLD 231742Z 2318/2418 22035G47KT 2SM BLDU BKN020
     FM231900 23030G42KT 4SM BLDU BKN027
     FM232200 24025G37KT 6SM BLDU SKC
     FM240200 33022G32KT P6SM SKC
     FM240700 31012KT P6SM BKN240=
