FTUS80 KWBC 231730 RRG
TAF
KWMC 231727Z 2318/2418 30007KT P6SM SCT045 BKN060
     FM231900 33014G22KT P6SM SCT070 BKN090
     FM240200 VRB05KT P6SM FEW060 SCT180
     FM241700 21008KT P6SM SCT050 BKN080 AMD NOT SKED=
PACD 231727Z 2318/2418 23010KT P6SM BKN035
     FM232100 22015G23KT P6SM SCT025 BKN035
     FM240100 26025G35KT 6SM -RA OVC025
     FM240300 26025G35KT 6SM -RA OVC015
     FM240500 28020G30KT P6SM OVC015
     FM241200 27010KT P6SM BKN025=
PADU 231727Z 2318/2418 22010KT P6SM BKN035
      TEMPO 2318/2320 23014G24KT
     FM232000 24014G24KT 5SM -RA BR OVC025
     FM240200 26012G22KT P6SM SCT025 BKN035
     FM240800 24010KT P6SM BKN035
     FM241200 24010KT 5SM -RA BR OVC015=
PASN 231727Z 2318/2418 20028G38KT 4SM -RA BR OVC015
      TEMPO 2318/2321 24028G38KT 2SM -RA BR OVC007
     FM232100 26028G38KT P6SM -SHRA OVC015
     FM240000 29025G35KT P6SM -SHRA OVC015
     FM240300 30020G28KT P6SM VCSH OVC025
     FM240600 27010KT P6SM SCT025 BKN035=
TAF PGSN 231725Z 2318/2418 09008KT P6SM VCSH SCT020 SCT050
     FM232200 12013KT P6SM VCSH SCT020 SCT050=
TAF PGUM 231725Z 2318/2424 12011KT P6SM VCSH SCT015 SCT050
      SCT120=
TAF PKMJ 231725Z 2318/2418 11011KT P6SM VCSH SCT015 SCT050 SCT120
      TEMPO 2323/2403 5SM -SHRA SCT015 BKN030=
TAF PKWA 231725Z 2318/2418 10010KT P6SM VCSH SCT020 SCT050
      TEMPO 2318/2322 17010G17KT 2SM +SHRA SCT013 BKN020 OVC050=
