FTUS80 KWBC 231724 RRE
TAF
KPIE 231722Z 2318/2418 05005KT P6SM FEW040
     FM231900 36007KT P6SM FEW040
     FM240200 06005KT P6SM SCT050=
KPSM 231722Z 2318/2418 07005KT P6SM SCT150 OVC200
     FM232000 05006KT P6SM SCT030 OVC070
     FM232300 03008KT 5SM BR VCSH SCT005 OVC020
     FM240100 02008KT 4SM -RA BR OVC007
     FM240400 04008KT 4SM -DZ BR VCSH OVC005=
KPWM 231722Z 2318/2418 05005KT P6SM SCT150 BKN200
     FM240000 02005KT 6SM -SHRA BR SCT025 OVC070
     FM240200 03008KT 5SM -RA BR SCT007 OVC025
     FM240400 03008KT 4SM -RA BR OVC007
     FM240600 03007KT 4SM RA BR OVC003=
TAF KRDM 231720Z 2318/2418 VRB04KT P6SM FEW070
     FM232100 32007KT P6SM FEW100 SCT250
     FM240300 VRB04KT P6SM SCT080 BKN120
     FM241200 16007KT P6SM BKN060 OVC090
      TEMPO 2414/2418 -RA OVC050=
TAF KRFD 231720Z 2318/2418 17020G32KT P6SM SCT150
     FM240100 16017G26KT P6SM -SHRA SCT050 BKN100
     FM240900 17015G24KT P6SM SCT050 BKN100
     FM241500 19018G29KT P6SM BKN100=
KRKD 231722Z 2318/2418 07005KT P6SM BKN200
     FM240000 05006KT 4SM -RA BR SCT030 OVC050
     FM240300 04008G16KT 3SM -RA BR SCT007 OVC020
     FM240500 05008G16KT 2SM -RA BR OVC005=
KROG 231722Z 2318/2418 17024G34KT P6SM SCT040 BKN250
     FM240600 17017G27KT P6SM SCT100 BKN250
     FM241000 17015G25KT P6SM OVC025 PROB30 2411/2415 4SM -SHRA
      BKN015
     FM241500 17015G22KT 4SM -SHRA SCT008 OVC015 PROB30 2415/2418
      2SM -TSRA BKN008CB=
