FTUS80 KWBC 232100 AAB
TAF AMD
PHJR 232059Z 2321/2418 08010G17KT P6SM VCSH SCT030 BKN050
     FM240500 VRB04KT P6SM FEW030 FEW040=
PHMK 232059Z 2321/2418 04014G22KT P6SM VCSH SCT045
     FM240500 04007KT P6SM FEW020 SCT040=
PHNL 232058Z 2321/2424 07013KT P6SM VCSH SCT025 SCT045 BKN060
     FM240600 06007KT P6SM FEW025 SCT040
     FM242000 07015KT P6SM FEW025 SCT045=
