FTUS80 KWBC 231933 AAA
TAF AMD
KCTB 231931Z 2320/2418 35019G27KT 6SM -SHSN SCT007 BKN015
      TEMPO 2320/2324 1SM -SN BR BKN007
     FM240300 31008KT P6SM SCT025
     FM240600 23009KT P6SM FEW250=
