FTUS80 KWBC 232106 AAB
TAF AMD
KPHL 232104Z 2321/2424 05010KT 5SM -RA BR BKN028 OVC040
     FM240200 02008KT 4SM -RADZ SCT008 OVC020
     FM240800 01006KT 5SM -DZ BR OVC005
     FM241600 36005KT P6SM BKN015=
KTEB 232104Z 2321/2424 02005KT P6SM -RA BKN060
      TEMPO 2322/2324 6SM -RA SCT015 BKN030
     FM240000 02009KT 6SM -RA BR BKN025
     FM240200 02009KT 5SM -RA BR SCT008 BKN015
     FM240400 03006KT 2SM -RA BR OVC006
     FM241400 02005KT 4SM -RA BR BKN009 OVC015
     FM241900 03005KT 6SM BR VCSH OVC015=
KTPA 232102Z 2321/2424 VRB03KT P6SM SCT050
     FM240200 06003KT P6SM SKC
     FM241400 06006KT P6SM SCT040
     FM241900 33007KT P6SM SCT050=
