FTUS80 KWBC 231730 RRD
TAF
KHYR 231728Z 2318/2418 12011KT P6SM SKC
     FM240000 11012G20KT P6SM BKN045 WS020/15032KT
     FM240200 12012G20KT P6SM -SHRA BKN045 WS020/16033KT
     FM240600 13013G19KT 4SM SHRA VCTS BKN025CB WS020/18042KT
     FM240900 14014G20KT P6SM VCSH BKN025 WS020/18037KT
     FM241500 20016G29KT P6SM BKN040 WS020/20046KT=
KINL 231728Z 2318/2418 14006KT P6SM SKC
     FM240000 11012G20KT P6SM BKN045 WS020/15032KT
     FM240200 12012G20KT P6SM -SHRA BKN045 WS020/16033KT
     FM240600 13013G19KT 4SM SHRA VCTS BKN025CB WS020/18042KT
     FM240900 14014G20KT P6SM VCSH BKN025 WS020/18037KT
     FM241500 20016G29KT P6SM BKN040 WS020/20046KT=
KIPT 231727Z 2318/2418 15006KT P6SM SCT100 BKN250
     FM240400 07005KT P6SM OVC035
     FM240800 06006KT 5SM BR OVC018
      TEMPO 2410/2412 2SM -DZ BR OVC009
     FM241700 10007KT P6SM OVC025=
KJAN 231727Z 2318/2418 18010G17KT P6SM SKC
     FM232300 16007KT P6SM SCT250
     FM241600 16012G18KT P6SM SCT250=
KJST 231727Z 2318/2418 15007KT P6SM BKN250
     FM240500 11007KT P6SM BKN035
      TEMPO 2409/2413 BKN015 AMD NOT SKED=
KLNS 231727Z 2318/2418 05006KT P6SM SCT025 BKN035
     FM240100 04006KT P6SM OVC025
     FM240300 03006KT 5SM BR OVC015
      TEMPO 2409/2413 2SM -DZ BR OVC009
     FM241600 02006KT P6SM OVC025=
KMBS 231729Z 2318/2418 16011KT P6SM FEW080 SCT200
     FM240000 14006KT P6SM SKC
     FM241200 17007KT P6SM FEW150 SCT250=
