FTUS80 KWBC 231730 RRC
TAF
KFNT 231729Z 2318/2418 16011KT P6SM FEW080 SCT200
     FM240000 14006KT P6SM SKC
     FM241200 17007KT P6SM FEW150 SCT250=
KFTW 231728Z 2318/2418 17018G28KT P6SM SCT030 SCT200
     FM240700 17015G25KT 6SM BR VCSH OVC025
     FM241500 17013G25KT 6SM SHRA VCTS OVC015CB=
KGLH 231727Z 2318/2418 18015G27KT P6SM SKC
     FM232200 18009KT P6SM FEW250
     FM241600 17013G23KT P6SM SCT250=
KGRI 231727Z 2318/2418 18020G30KT P6SM SKC
     FM232000 19025G40KT P6SM SKC
     FM240300 21022G37KT P6SM FEW110
     FM240600 28017G26KT P6SM SCT100
     FM241200 29012KT P6SM BKN100=
KGWO 231727Z 2318/2418 17014G23KT P6SM SKC
     FM232200 17008KT P6SM SCT250
     FM241600 17013G21KT P6SM SCT250=
KHBG 231727Z 2318/2418 16008KT P6SM SCT250=
KHIB 231728Z 2318/2418 13011KT P6SM SKC
     FM240000 11012G20KT P6SM BKN045 WS020/15032KT
     FM240200 12012G20KT P6SM -SHRA BKN045 WS020/16033KT
     FM240600 13013G19KT 4SM SHRA VCTS BKN025CB WS020/18042KT
     FM240900 14014G20KT P6SM VCSH BKN025 WS020/18037KT
     FM241500 18016G29KT P6SM BKN040 WS020/20046KT=
KHIO 231728Z 2318/2418 00000KT P6SM FEW025 SCT250
     FM240700 18005KT P6SM SCT030 OVC080
     FM241200 17008KT P6SM -SHRA OVC029
     FM241400 18008KT P6SM -SHRA OVC017
     FM241600 18007KT P6SM -SHRA OVC014=
KHKS 231727Z 2318/2418 17010G17KT P6SM SKC
     FM232300 16007KT P6SM SCT250
     FM241600 16012G18KT P6SM SCT250=
