FTUS80 KWBC 231757 CCA
TAF COR
KSBY 231755Z 2318/2418 02012G18KT 5SM BR VCSH BKN008 OVC015
     FM232000 01012G19KT 5SM -SHRA BR OVC007
     FM240100 01009KT 3SM -RA BR OVC005
     FM240600 36006KT 2SM -DZ BR OVC004
     FM241400 36008KT P6SM BKN015=
