FTUS80 KWBC 231730 RRF
TAF
KSLE 231728Z 2318/2418 VRB04KT P6SM SCT250
     FM240700 18007KT P6SM FEW025 OVC090
     FM241000 18010G18KT P6SM -SHRA OVC060
     FM241300 18014G23KT P6SM -SHRA OVC035
     FM241500 18015G23KT P6SM -SHRA OVC028
     FM241700 19014KT P6SM -SHRA OVC040=
KTPH 231727Z 2318/2418 33017G25KT P6SM FEW100
     FM231930 34024G34KT P6SM FEW080
     FM240500 35012G19KT P6SM FEW250
     FM241400 34009KT P6SM SKC=
KTRK 231728Z 2318/2418 VRB05KT P6SM FEW040
     FM231900 02010G18KT P6SM FEW060
     FM240300 VRB05KT P6SM FEW250
     FM240900 00000KT 4SM BR FEW001
     FM241500 VRB05KT P6SM FEW250=
KTTD 231728Z 2318/2418 VRB03KT P6SM BKN250
     FM240900 VRB03KT P6SM SCT025 OVC070
     FM241300 VRB03KT P6SM SHRA SCT017 OVC030
     FM241700 VRB04KT P6SM SHRA OVC050=
KTVL 231728Z 2318/2418 VRB04KT P6SM SCT060
     FM231900 04008KT P6SM FEW070
     FM240100 VRB05KT P6SM FEW250=
KUAO 231728Z 2318/2418 VRB04KT P6SM SCT250
     FM240900 19007KT P6SM SCT025 OVC070
     FM241200 20011G23KT P6SM -SHRA OVC040
     FM241500 20013G26KT P6SM -SHRA OVC030
     FM241700 20012G22KT P6SM -SHRA OVC050=
KUNV 231727Z 2318/2418 VRB05KT P6SM FEW030 SCT100 BKN250
     FM240500 07005KT P6SM BKN035
     FM241000 05005KT 5SM BR OVC018
     FM241700 06006KT P6SM BKN030=
