FTCA33 KWBC 231715
TAF
TAF TFFF 231700Z 2318/2418 11009KT 9999 SCT035 PROB30
      TEMPO 2318/2322 4000 SHRA SCT018TCU
      TEMPO 2409/2418 4000 SHRA FEW015CB SCT018TCU=
