FTUS80 KWBC 231745
TAF
KALO 231742Z 2318/2418 16020G32KT P6SM FEW250
     FM240300 16021G38KT P6SM BKN110 WS020/18045KT
     FM240700 18020G35KT P6SM BKN100 WS020/19050KT
     FM241200 20015KT P6SM OVC060=
KAUS 231744Z 2318/2424 18018G28KT P6SM FEW035 SCT045 BKN250
     FM240200 16016KT P6SM SCT035
     FM240500 17013KT P6SM OVC015
     FM240800 17012KT P6SM BKN009
     FM241200 18010G20KT 4SM SHRA BKN010 PROB30 2416/2422 3SM TSRA
      BR OVC009CB=
KBIS 231743Z 2318/2418 07015G23KT P6SM BKN200
     FM240000 03012KT P6SM VCSH OVC050
     FM240400 35014KT P6SM VCSH OVC035
     FM240800 31020G30KT 5SM -RA BR VCTS OVC015CB
     FM241400 30025G37KT 3SM -RASNPL BR OVC015=
KBWI 231742Z 2318/2424 02009KT P6SM FEW020 OVC050
     FM232100 02005KT P6SM -SHRA OVC025
     FM240200 34003KT P6SM -SHRA OVC010
     FM240400 34003KT 6SM -DZ BR OVC008
     FM241500 33004KT P6SM BKN008=
KCHO 231742Z 2318/2418 02010KT P6SM FEW030 BKN200
     FM232000 02005KT P6SM BKN150
     FM232300 00000KT P6SM BKN100=
KDCA 231742Z 2318/2424 35008KT P6SM OVC050
     FM232100 01006KT P6SM -SHRA OVC030
     FM240200 01004KT P6SM OVC010
     FM240600 33003KT 6SM -DZ BR SCT005 OVC010
     FM241400 32005KT P6SM BKN010=
KDIK 231743Z 2318/2418 05014G22KT P6SM OVC008
     FM232000 02014G24KT P6SM OVC010
     FM232300 36012KT P6SM VCSH OVC012
     FM240200 32020G30KT 3SM -RA BR OVC008
     FM241000 30027G38KT 2SM -SN BR OVC010=
