FTUS80 KWBC 231742 RRC
TAF
KDHN 231740Z 2318/2418 10004KT P6SM FEW250
     FM241000 VRB03KT 5SM BR SKC
     FM241400 10005KT P6SM SCT250=
KDMN 231740Z 2318/2418 26025G35KT P6SM BKN250
     FM240300 25018G28KT P6SM OVC100
     FM241000 25020G30KT P6SM -RA OVC050=
KECG 231740Z 2318/2418 32013G20KT 5SM -SHRA BKN008 OVC015
     FM232300 35012G18KT P6SM OVC008
     FM240800 33009KT P6SM BKN009
     FM241500 31010KT P6SM BKN015=
KECP 231740Z 2318/2418 08005KT P6SM FEW250
     FM241300 08007KT P6SM SCT250=
KELD 231739Z 2318/2418 16012G20KT P6SM SCT040 BKN250
     FM240100 16007KT P6SM FEW045 SCT250
     FM240800 16007KT P6SM BKN025
     FM241500 16013G22KT P6SM BKN050=
KELP 231740Z 2318/2418 24022G32KT P6SM BKN250
     FM240400 24028G38KT P6SM OVC100
     FM240900 23025G35KT P6SM -RA SCT030 BKN040 OVC090
     FM241700 27015KT P6SM VCSH SCT040 BKN070=
KENV 231739Z 2318/2418 32020G35KT P6SM SCT100
     FM240100 31011KT P6SM FEW250=
KEUL 231741Z 2318/2418 31012G20KT P6SM SCT040
     FM240300 31005KT P6SM SKC
     FM241500 14006KT P6SM BKN100 AMD NOT SKED=
KEVW 231739Z 2318/2418 33010G22KT P6SM VCSH OVC050
     FM240100 29005KT P6SM SCT050 BKN080=
KFAY 231740Z 2318/2418 36010KT P6SM BKN250
     FM240000 36004KT P6SM SCT028 BKN250
      TEMPO 2402/2406 BKN025=
