FTUS80 KWBC 231948 AAA
TAF AMD
KHON 231946Z 2320/2418 14023G32KT P6SM SKC
     FM240000 16015G25KT P6SM BKN110
     FM240300 22011G21KT P6SM SCT200
     FM240600 26014G23KT P6SM BKN150
     FM241700 27020G29KT P6SM BKN050=
KPRC 231947Z 2320/2418 32010G18KT P6SM SCT050
     FM240100 33013KT P6SM SKC
     FM241400 35007G15KT P6SM SKC=
