FTUS80 KWBC 231730 AAA
TAF AMD
KPUB 231728Z 2317/2418 23035G45KT P6SM SKC
      TEMPO 2318/2322 4SM BLDU
     FM232300 30020G30KT P6SM SCT250
     FM240300 34012G22KT P6SM SCT250
     FM240600 35008KT P6SM SCT250=
