FTUS80 KWBC 231739 RRB
TAF
KFLG 231735Z 2318/2418 27013G23KT P6SM FEW030 SCT050
     FM240200 31010KT P6SM FEW040
     FM240900 04008G14KT P6SM FEW060=
KFOE 231737Z 2318/2418 18026G42KT P6SM SCT150
     FM240700 19021G33KT P6SM BKN100 WS015/21050KT
     FM241200 24013KT P6SM -SHRA OVC040=
KFTY 231738Z 2318/2418 10005KT P6SM SCT250
     FM240000 00000KT P6SM SCT200
     FM241500 12005KT P6SM SCT200=
KGCN 231735Z 2318/2418 28013G23KT P6SM FEW015 SCT025 SCT050
     FM232300 30013G22KT P6SM BKN050
     FM240700 04008KT P6SM FEW050=
KGNV 231737Z 2318/2418 02006KT P6SM SCT035
     FM240100 05003KT P6SM FEW250
     FM240900 00000KT 5SM BR FEW003 SCT250
     FM241100 00000KT 2SM BR SCT003
     FM241400 04005KT P6SM FEW020 SCT250=
KGPI 231735Z 2318/2418 34003KT P6SM VCSH FEW110
     FM232300 03006KT P6SM BKN070
     FM241000 04003KT 5SM BR SCT010 OVC035=
KHPN 231736Z 2318/2418 03007KT P6SM -RA FEW040 OVC120
      TEMPO 2321/2323 5SM -RA BR FEW009 SCT015 OVC030
     FM232300 03009G16KT 5SM -RA BR BKN009 OVC015
     FM240200 03007KT 2SM -RA BR OVC009 AMD NOT SKED=
KINW 231735Z 2318/2418 28016G26KT P6SM VCSH SCT045 BKN050
     FM240200 30010G20KT P6SM FEW060=
KISP 231736Z 2318/2418 04012G19KT P6SM -RA SCT040 OVC090
      TEMPO 2319/2323 5SM RA BR BKN020 OVC040
     FM232300 04013G20KT 2SM RA BR OVC008
     FM240300 04013KT 2SM -RA BR OVC004
     FM241600 04009KT 3SM -RA BR OVC007=
