FTUS80 KWBC 231754 CCA
TAF COR
KHIO 231752Z 2318/2418 27003KT P6SM BKN015 BKN060
     FM231900 24002KT P6SM BKN050
     FM240700 18005KT P6SM SCT030 OVC080
     FM241200 17008KT P6SM -SHRA OVC029
     FM241400 18008KT P6SM -SHRA OVC017
     FM241600 18007KT P6SM -SHRA OVC014=
