FTUS80 KWBC 231842 AAA
TAF AMD
KPDX 231841Z 2319/2418 VRB03KT P6SM FEW050 BKN250
      TEMPO 2319/2321 BKN025
     FM240900 17007KT P6SM FEW035 OVC070
     FM241200 17007KT P6SM SHRA OVC035
     FM241500 18008KT P6SM SHRA OVC019
     FM241600 18007KT P6SM SHRA OVC021=
