FTUS80 KWBC 232000 AAA
TAF AMD
KGLD 231958Z 2320/2418 23029G44KT P6SM SCT035
      TEMPO 2320/2322 23034G45KT 6SM BLDU BKN030
     FM240200 33022G32KT P6SM SKC
     FM240700 31012KT P6SM BKN240=
