FTCA35 KWBC 231751
TAF
TAF MROC 231700Z 2318/2418 25005KT 9999 BKN030 TX28/2319Z
      TN19/2411Z
      TEMPO 2320/2400 5000 TSRA SCT015CB BKN020
      TEMPO 2400/2405 VRB02KT BCFG BKN015
      BECMG 2405/2408 09006KT
      BECMG 2414/2417 25008KT=
