FTUS80 KWBC 231739
TAF
KAHN 231738Z 2318/2418 08004KT P6SM SCT250
     FM240000 00000KT P6SM FEW250
     FM241400 11004KT P6SM SCT250=
KAPC 231737Z 2318/2418 VRB05KT P6SM SKC
     FM231900 31015G20KT P6SM SKC
     FM240300 33008KT P6SM SKC
     FM241200 01003KT P6SM SKC=
KATL 231738Z 2318/2424 11005KT P6SM SCT250
     FM240000 09003KT P6SM SCT200
     FM241500 12006KT P6SM SCT200=
KAXN 231736Z 2318/2418 13018G30KT P6SM FEW250 PROB30 2403/2406 4SM
      -TSRA BR BKN040CB
     FM240600 16017G30KT P6SM BKN160 WS020/18050KT
     FM241000 19019G31KT P6SM BKN130
     FM241200 21017G29KT P6SM SCT070
     FM241700 23022G33KT P6SM SCT060=
KBDR 231736Z 2318/2418 02010KT P6SM -RA SCT050 OVC100
      TEMPO 2318/2322 6SM RA BKN025 OVC050
     FM232300 03013KT 3SM RA BR SCT009 OVC015
     FM240400 03010KT 2SM -RA BR OVC007
     FM241600 03009KT 4SM -RA BR OVC009=
KBMI 231737Z 2318/2418 18024G32KT P6SM FEW050 SCT110
     FM232100 18023G32KT P6SM SCT050 BKN100
     FM240100 17021G30KT P6SM SCT070 BKN150
     FM240500 17019G27KT P6SM BKN150 WS015/19050KT
     FM241000 17016G25KT P6SM BKN200
     FM241500 18019G27KT P6SM FEW050 SCT120=
KBTM 231735Z 2318/2418 30010G17KT 2SM -SN BR FEW016 BKN029 OVC035
     FM232200 31010G18KT 5SM -SN OVC035
     FM240100 33008KT P6SM VCSH BKN050
     FM240600 30003KT P6SM SCT010 SCT050=
