FTUS80 KWBC 231742 RRG
TAF
KMIV 231739Z 2318/2418 03010G18KT 6SM -RA BR SCT009 OVC010
     FM232100 02009KT 3SM -RA BR SCT005 OVC008
     FM240000 02009KT 4SM -DZ BR OVC008
     FM240300 02007KT 3SM -DZ BR OVC003
     FM241000 36006KT 2SM -DZ BR OVC003
     FM241600 35005KT P6SM BKN003=
KMLI 231741Z 2318/2418 16020G32KT P6SM SCT200
     FM240000 17015G26KT P6SM OVC150 WS016/20045KT
     FM241400 17013G21KT P6SM BKN120
     FM241600 18013G22KT P6SM BKN080=
KMLU 231739Z 2318/2418 17012G20KT P6SM SCT040 SCT250
     FM240100 17007KT P6SM FEW045 SCT250
     FM241000 15004KT P6SM SCT023 BKN250
     FM241500 16012G20KT P6SM BKN070=
KMYL 231741Z 2318/2418 35007KT P6SM VCSH BKN040 OVC060
      TEMPO 2318/2322 2SM -SN OVC030
     FM232200 33011KT P6SM VCSH BKN040
     FM240300 VRB03KT P6SM SKC
     FM241500 16005KT P6SM BKN060=
KOGD 231739Z 2318/2418 34012G22KT P6SM BKN040 OVC060
     FM240200 VRB06KT P6SM SCT060=
KOKC 231741Z 2318/2418 19022G30KT P6SM SCT120 BKN250
     FM240500 18015G24KT P6SM BKN040 OVC120 WS012/19030KT PROB30
      2406/2411 SHRA OVC040
     FM241100 22012G18KT 3SM +SHRA BR OVC013 PROB30 2411/2417 2SM
      TSRA BR OVC008CB
     FM241700 32011G18KT 5SM SHRA BR BKN012 OVC020=
KOLM 231740Z 2318/2418 VRB02KT 1/2SM FG OVC002
     FM231900 19004KT 6SM BR BKN020 BKN250
     FM232200 21005KT P6SM SCT040 OVC250
     FM240800 20010KT P6SM -RA OVC040=
