FTUS80 KWBC 231748 RRA
TAF
KSLN 231746Z 2318/2418 19029G43KT 6SM BLDU BKN120
     FM240200 18026G42KT P6SM BKN120 WS020/20060KT
     FM240500 18020G30KT P6SM BKN120 WS020/20060KT
     FM241000 33014KT P6SM BKN120=
KSYR 231745Z 2318/2418 10005KT P6SM SCT250
     FM240600 10003KT P6SM BKN100=
TAF PAFA 231737Z 2318/2424 VRB03KT 1 1/2SM -SN BR BKN004 BKN030
      OVC060
      TEMPO 2318/2320 1/4SM FZFG BKN003
     FM240000 VRB03KT 3SM BR BKN007 OVC015
     FM240600 VRB03KT 1/2SM FZFG OVC005
     FM241700 VRB03KT P6SM SCT007 BKN100=
TAF COR PHJR 231745Z 2318/2418 04004KT P6SM VCSH BKN050
     FM232000 07010G17KT P6SM SCT030 SCT050
     FM240500 VRB04KT P6SM FEW030 FEW040=
