FTUS80 KWBC 231845 AAA
TAF AMD
KHIO 231842Z 2319/2418 27003KT P6SM SCT015 BKN060
      TEMPO 2319/2321 BKN015
     FM232100 23002KT P6SM BKN050
     FM240700 18005KT P6SM SCT030 OVC080
     FM241200 17008KT P6SM -SHRA OVC029
     FM241400 18008KT P6SM -SHRA OVC017
     FM241600 18007KT P6SM -SHRA OVC014=
