FTUS80 KWBC 231733 RRC
TAF
KGUC 231730Z 2318/2418 23010G20KT P6SM -SHRASN SCT010 OVC030
     FM232100 25010KT 4SM -SHSN BR BKN025
     FM240000 27010KT 6SM -SHSN BR SCT020 BKN050
     FM240600 28007KT P6SM BKN050=
KHDN 231730Z 2318/2418 27010KT 5SM -SHSN OVC020
      TEMPO 2318/2321 3/4SM -SN BKN005
     FM240000 28005KT P6SM VCSH BKN030 OVC050=
KHKY 231732Z 2318/2418 36003KT P6SM SKC
     FM232100 10003KT P6SM SKC
     FM240000 00000KT P6SM FEW250
     FM241500 VRB02KT P6SM FEW250=
KIAG 231732Z 2318/2418 VRB03KT P6SM FEW250
     FM232200 06005KT P6SM SCT250
     FM240400 18005KT P6SM FEW250
     FM241100 VRB03KT P6SM FEW250=
KJAC 231731Z 2318/2418 23012KT P6SM VCSH BKN040 OVC060
     FM232100 30012G18KT P6SM VCSH SCT025 OVC050
     FM240100 34012G18KT P6SM BKN060 OVC100
     FM241000 20007KT P6SM SCT100=
KJBR 231732Z 2318/2418 19018G27KT P6SM SCT050
     FM240000 17012KT P6SM SKC
     FM240400 17010KT P6SM FEW250 WS020/20040KT
     FM241400 19017G24KT P6SM FEW045 SCT250=
KJHW 231732Z 2318/2418 15005KT P6SM FEW250
     FM232300 12004KT P6SM SKC
     FM241200 VRB04KT P6SM SKC=
KLAX 231732Z 2318/2424 00000KT P6SM FEW024 SCT060
     FM231900 26014KT P6SM SKC
     FM240100 27008KT P6SM SKC
     FM240500 VRB03KT P6SM SKC
     FM241100 07005KT P6SM SKC
     FM242000 26012KT P6SM SKC=
