FTCA35 KWBC 231712
TAF
TAF MHLC 231700Z 2318/2418 VRB05KT 8000 VCSH SCT020 FEW020CB
      TX29/2319Z TN21/2412Z
     FM232200 VRB05KT 5000 RA SCT020TCU FEW055CB
     FM240100 VRB05KT 9999 FEW022=
TAF MHLM 231700Z 2318/2418 03005KT 9999 SCT028TCU BKN080
      TX30/2319Z
      TN22/2412Z
      TEMPO 2321/2401 04010KT 8000 VCSH SCT028TCU FEW030CB
     FM240100 VRB05KT 9999 FEW028=
TAF MHTG 231700Z 2318/2418 VRB05KT 9999 BKN028TCU FEW030CB
      TX27/2319Z TN17/2412Z
      TEMPO 2319/2401 8000 VCSH BKN028 FEW030CB
     FM240100 VRB05KT 9999 FEW028=
