FTUS80 KWBC 232033 AAA
TAF AMD
KLAS 232030Z 2320/2424 36015G25KT P6SM FEW100
     FM240100 01011G20KT P6SM FEW150
     FM240500 34010G18KT P6SM SKC
     FM241700 01009KT P6SM SKC
     FM242300 14007KT P6SM SKC=
