FTCA35 KWBC 231651
TAF
TAF MPTO 231645Z 2318/2424 28006KT 9999 SCT018 SCT090 PROB30
      2319/2323 14006KT 6000 TSRA SCT014CB BKN080
      TEMPO 2408/2412 VRB02KT=
