FTCA45 KWBC 231624
TAF
TAF MNMG 231619Z 2318/2418 11008KT 9999 SCT025
      BECMG 2322/2402 7000 VCRA/-TSRA FEW020CB SCT070
      BECMG 2403/2406 14004KT 9999 SCT022
      TEMPO 2414/2418 09008KT=
TAF MNPC 231610Z 2318/2418 05006KT 7000 HZ/VCRA BKN016
      TEMPO 2321/2403 6000 RA/-TSRA FEW016CB BKN016
      BECMG 2404/2406 03010KT=
