FTCA33 KWBC 231657
TAF
TAF TNCA 231715Z 2318/2418 08016KT 9999 SCT025
      TEMPO 2404/2414 6000 SHRA BKN014=
