FTUS80 KWBC 231939 AAA
TAF AMD
KCMI 231936Z 2320/2418 17026G37KT P6SM SCT050 SCT100
     FM232100 17023G33KT P6SM SCT050 BKN110
     FM240100 16018G27KT P6SM BKN150
     FM240500 15014G23KT P6SM BKN200 WS015/20045KT
     FM241000 15013G22KT P6SM BKN200
     FM241500 17016G25KT P6SM FEW050 SCT150=
KSPI 231937Z 2320/2418 17018G32KT P6SM SCT050 BKN100
     FM240100 17018G27KT P6SM SCT070 BKN120
     FM240400 17016G25KT P6SM BKN200 WS015/20050KT
     FM240900 17014G22KT P6SM BKN200
     FM241500 18016G25KT P6SM FEW050 SCT150=
