FTSA31 KWBC 231745
TAF
TAF SPQT 231700Z 2318/2418 12005KT 9999 BKN012 OVC100 TX28/2320Z
      TN21/2411Z
      TEMPO 2319/2323 4000 RADZ BKN010 OVC080
      TEMPO 2408/2412 0500 FG BKN002 OVC080=
TAF SPQU 231700Z 2318/2418 25011KT CAVOK TX21/2318Z TN07/2410Z
      BECMG 2322/2324 06007KT
      BECMG 2415/2417 25010KT=
TAF SPYL 231630Z 2318/2418 18018KT CAVOK TX24/2319Z TN13/2411Z
      TEMPO 2412/2414 16010KT SCT040=
TAF SPZO 231700Z 2318/2418 VRB05KT 9999 SCT050 TX25/2319Z
      TN09/2411Z
      BECMG 2318/2322 01012KT
      BECMG 2323/2324 VRB04KT=
