FTUS80 KWBC 231742 RRM
TAF
PAKW 231740Z 2318/2418 13015G25KT 5SM -RA BR OVC025 WS020/15055KT
     FM232100 14012KT 4SM -RA BR OVC025 WS020/17035KT
     FM240000 17010KT 4SM RA BR OVC020
     FM241200 35012KT 6SM -SHRA BR OVC030 WS020/32035KT AMD LTD TO
      CLD VIS AND WIND=
PAPG 231740Z 2318/2418 11015G25KT 5SM RA BR OVC025 WS020/13050KT
     FM240000 11013KT 4SM RA BR OVC020 WS020/10035KT
     FM240400 12005KT 4SM -RA BR SCT015 OVC020=
PASI 231740Z 2318/2418 11025G35KT 5SM -RA BR BKN030 OVC050
      WS020/12050KT
     FM240000 10015KT P6SM -RA OVC050 WS020/04035KT
     FM240600 33005KT P6SM VCSH OVC050=
PAWG 231740Z 2318/2418 09015G30KT 6SM RA OVC030 WS020/12050KT
     FM232100 10020G35KT 3SM RA BR OVC020 WS020/13040KT
     FM240400 10015G25KT 5SM -RA BR OVC020
     FM240900 11009KT 6SM -RA BR SCT015 OVC025=
PAYA 231740Z 2318/2418 05004KT P6SM SCT050 BKN070 WS020/07035KT
     FM232200 04007KT P6SM BKN050 AMD LTD TO CLD VIS AND WIND=
TAF TIST 231737Z 2318/2418 14012KT P6SM VCSH SCT025 SCT050
     FM232200 07005KT P6SM VCSH SCT035
     FM240200 08004KT P6SM FEW035
     FM241400 10012KT P6SM FEW025 SCT050=
TAF TJBQ 231737Z 2318/2418 08012G18KT P6SM SCT025 SCT040
     FM232200 10006KT P6SM FEW030 SCT045
     FM241400 08014KT P6SM SCT025=
TAF TJPS 231737Z 2318/2418 16012G18KT P6SM VCSH SCT035 SCT060
     FM232200 10008KT P6SM FEW035 SCT060
     FM240200 00000KT P6SM FEW035
     FM241400 16010KT P6SM FEW030 SCT060=
