FTUS80 KWBC 231727 RRE
TAF
KMLS 231726Z 2318/2418 30011KT 3SM RA BR SCT012 OVC020
      TEMPO 2318/2322 1SM +RA BR BKN007 OVC015
     FM232200 32015G28KT 3SM RASN BR OVC007
      TEMPO 2322/2402 1/2SM RASN FG OVC004
     FM240200 32025G40KT 1/2SM SN BLSN BKN004 OVC012
     FM240700 31030G45KT 4SM -SN BLSN SCT008 OVC015
     FM241200 31025G40KT P6SM SCT015 BKN060=
KMOD 231725Z 2318/2418 32016G24KT P6SM SKC
     FM240200 31007KT P6SM SKC=
KMSY 231725Z 2318/2424 12014KT P6SM FEW035 FEW250
     FM240500 VRB05KT P6SM FEW250
     FM241600 16008KT P6SM SCT110=
KMTH 231725Z 2318/2418 04009KT P6SM FEW045=
KNEW 231725Z 2318/2418 14013KT P6SM FEW250
     FM240900 15007KT P6SM SCT250
     FM241600 15009KT P6SM SCT130=
KOLF 231724Z 2318/2418 04018G28KT 4SM -RA BR OVC008
     FM232200 35018G28KT 3SM RASN BR OVC007
     FM240200 34019G30KT 1/2SM SN BLSN OVC009
     FM240600 31019G30KT 2SM -SN BLSN OVC009
     FM241600 30017G25KT P6SM VCSH SCT015 OVC025=
KONT 231724Z 2318/2424 VRB05KT P6SM FEW025 BKN050
     FM232100 24009KT P6SM SCT050
     FM240300 VRB05KT P6SM SKC
     FM240500 05005KT P6SM SKC WS010/05030KT
     FM241200 04015G25KT P6SM SKC
     FM242100 30007KT P6SM SKC=
KPIH 231724Z 2318/2418 25011KT P6SM -SHSN BKN017
     FM232000 27012G20KT P6SM VCSH SCT020
      TEMPO 2320/2324 3SM -SN BKN020
     FM240200 33011KT P6SM BKN040 BKN070
     FM240700 22006KT P6SM FEW050=
