FTUS80 KWBC 232054 AAA
TAF AMD
KACT 232053Z 2321/2418 18020G30KT P6SM SCT050
     FM240100 17017G27KT P6SM SCT250
     FM240500 18017G28KT 6SM BR VCSH BKN015
     FM241700 17015KT 6SM SHRA VCTS OVC009CB=
KDAL 232053Z 2321/2418 17025G35KT P6SM SCT050
     FM240100 17018G28KT P6SM SCT250
     FM240700 17015G25KT 6SM BR VCSH OVC025
     FM241500 17013G25KT 6SM SHRA VCTS OVC015CB=
KDFW 232053Z 2321/2424 17025G35KT P6SM SCT050
     FM240100 17018G28KT P6SM SCT250
     FM240700 17015G25KT 6SM BR VCSH OVC025
     FM241500 17013G25KT 6SM SHRA VCTS OVC015CB
     FM242000 27006KT 6SM BR OVC010=
KFTW 232053Z 2321/2418 17025G35KT P6SM SCT050
     FM240100 17018G28KT P6SM SCT250
     FM240700 17015G25KT 6SM BR VCSH OVC025
     FM241500 17013G25KT 6SM SHRA VCTS OVC015CB=
KSLC 232052Z 2321/2424 33012G20KT P6SM VCSH SCT020 OVC050
     FM232300 29012KT P6SM VCSH SCT020 BKN040 OVC060
     FM240100 17005KT P6SM SCT040 OVC060
     FM241700 34007KT P6SM FEW150=
