FTUS80 KWBC 231721 RRL
TAF
KSLK 231720Z 2318/2418 VRB03KT P6SM FEW250
     FM241200 VRB04KT P6SM BKN025
     FM241700 00000KT P6SM SCT024=
KSNY 231720Z 2318/2418 32015G25KT P6SM BKN150
     FM232000 33025G35KT P6SM -SHRA SCT020 BKN050
     FM240100 31020G30KT P6SM VCSH BKN080=
KSOA 231720Z 2318/2418 17015G25KT P6SM SCT050
     FM240100 17013G23KT P6SM VCSH BKN060
     FM240600 17017G27KT P6SM BKN015
     FM241100 18014G24KT P6SM VCSH BKN025
      TEMPO 2412/2416 VRB15G25KT 3SM -TSRA BKN025CB
     FM241600 24013G23KT P6SM SCT250=
KSTL 231720Z 2318/2424 18017G27KT P6SM SCT120
     FM240200 17013G23KT P6SM BKN250
     FM240800 17012KT P6SM BKN250
     FM241500 18012G22KT P6SM BKN250=
KSUS 231720Z 2318/2418 18015G25KT P6SM SCT120
     FM240200 17010KT P6SM BKN250
     FM241500 18011G21KT P6SM BKN250=
KTMB 231720Z 2318/2418 06010KT P6SM SCT040
     FM240100 VRB05KT P6SM FEW040
     FM241500 06008KT P6SM SCT040=
KTVC 231720Z 2318/2418 17010G19KT P6SM FEW250
     FM240000 15012G21KT P6SM SCT090 WS020/18040KT
     FM240200 16013G21KT P6SM BKN100 WS020/18040KT
     FM240800 17012G25KT P6SM VCSH OVC070 WS020/19040KT
     FM241200 15008G16KT P6SM BKN090
     FM241700 18014G23KT P6SM BKN120=
KUIN 231720Z 2318/2418 18018G28KT P6SM SCT110
     FM240200 17013G23KT P6SM BKN250
     FM240800 18013KT P6SM BKN250
     FM241500 18013G24KT P6SM BKN090=
