FTUS80 KWBC 231736 RRC
TAF
PHJR 231735Z 2318/2418 04004KT P6SM VCSH SCT050
     FM232000 07010G17KT P6SM SCT030 SCT050
     FM240500 VRB04KT P6SM FEW030 FEW040=
PHKO 231735Z 2318/2418 11006KT P6SM FEW050
     FM232100 20011KT P6SM SCT050
     FM240500 13006KT P6SM FEW050=
PHLI 231735Z 2318/2418 07011KT P6SM SCT025
     FM232000 06014KT P6SM VCSH SCT025 BKN040
     FM240000 06011KT P6SM VCSH SCT025 BKN040=
PHMK 231735Z 2318/2418 04005KT P6SM FEW045
     FM232000 05014G22KT P6SM VCSH SCT020 BKN040
     FM240500 04007KT P6SM FEW020 SCT040=
PHNL 231735Z 2318/2424 05009KT P6SM VCSH FEW025 BKN050
     FM232000 06014KT P6SM VCSH SCT025 BKN040
     FM240600 06007KT P6SM FEW025 SCT040
     FM242000 07015KT P6SM FEW025 SCT045=
PHNY 231735Z 2318/2418 VRB05KT P6SM FEW020
     FM232200 04012KT P6SM SCT025
     FM240800 05006KT P6SM SCT025=
PHOG 231735Z 2318/2418 07009KT P6SM FEW030
     FM232000 06018G28KT P6SM VCSH SCT030 BKN050
     FM240500 06012KT P6SM FEW030 SCT050
     FM240800 07008KT P6SM FEW030 FEW050=
PHTO 231735Z 2318/2418 24006KT P6SM VCSH FEW030 BKN050
     FM232000 10009KT P6SM VCSH SCT025 BKN050
     FM240600 23005KT P6SM VCSH SCT025 BKN040=
