FTUS80 KWBC 231854
TAF
TAF AMD PWAK 231830Z 2318/2420 06012G18KT 9999 FEW030 BKN040
      510022
      QNH2993INS TX31/2401Z TN25/2322Z FOR MIL USE ONLY=
