FTUS80 KWBC 231733 RRG
TAF
KSMO 231732Z 2318/2418 02007KT P6SM SKC
     FM232000 23010KT P6SM SKC
     FM240300 VRB03KT P6SM SKC
     FM241000 01007KT P6SM SKC
     FM241500 03006KT P6SM SKC=
KSMX 231732Z 2318/2418 30007KT P6SM SKC
     FM232100 31018G26KT P6SM SKC
     FM240200 33012KT P6SM SKC
     FM240600 02006KT P6SM SKC
     FM241000 VRB03KT P6SM SKC=
KTEX 231730Z 2318/2418 22012G20KT P6SM -SHSN SCT020 OVC050
      TEMPO 2318/2321 3SM -SN BKN015
     FM240000 27010KT P6SM -SHSN OVC025
     FM240600 29005KT P6SM BKN050=
KTRI 231730Z 2318/2418 00000KT P6SM FEW250=
KTUP 231732Z 2318/2418 18012G19KT P6SM FEW050
     FM240000 16005KT P6SM SKC
     FM241500 20010G17KT P6SM FEW250=
KTYS 231730Z 2318/2418 VRB03KT P6SM FEW250=
KVEL 231730Z 2318/2418 VRB04KT P6SM VCSH BKN045
     FM240000 VRB04KT P6SM SCT050 BKN100=
KVNY 231732Z 2318/2418 36011KT P6SM SKC
     FM240300 VRB03KT P6SM SKC
     FM241000 36012KT P6SM SKC=
KVTN 231731Z 2318/2418 18013KT P6SM FEW250
     FM232000 25017G25KT P6SM SCT200
     FM232200 28020G30KT P6SM BKN200
     FM240000 30020G30KT P6SM VCSH SCT050 BKN100
     FM240400 28017G26KT P6SM BKN025
     FM241000 28015G23KT P6SM BKN060
     FM241200 28016G24KT P6SM BKN150=
KWJF 231732Z 2318/2418 28017KT P6SM SKC
     FM240500 VRB03KT P6SM SKC
     FM241000 00000KT P6SM SKC=
