FTUS80 KWBC 231739 RRE
TAF
KPIA 231737Z 2318/2418 18018G28KT P6SM FEW050 SCT110
     FM232000 18018G28KT P6SM SCT050 BKN100
     FM240000 17018G26KT P6SM SCT070 BKN150
     FM240300 17016G25KT P6SM BKN150 WS015/19045KT
     FM240900 17014G22KT P6SM BKN200
     FM241500 18015G23KT P6SM FEW050 SCT120=
KPRC 231735Z 2318/2418 26008G18KT P6SM SCT040 BKN050
     FM231900 27013G23KT P6SM SCT040
     FM240100 30013KT P6SM SKC
     FM241400 35007G15KT P6SM SKC=
KRNH 231736Z 2318/2418 14014G21KT P6SM FEW250
     FM232000 15019G31KT P6SM SCT230
     FM240300 16020G33KT P6SM BKN080 WS020/17050KT PROB30
      2403/2407
      3SM TSRA BR BKN040CB
     FM241000 18018G33KT P6SM BKN070 WS020/18050KT
     FM241500 21018G30KT P6SM BKN060=
KRWF 231736Z 2318/2418 15020G32KT P6SM FEW240
     FM240300 16020G36KT P6SM BKN100 WS020/18050KT PROB30
      2403/2405
      4SM -TSRA BR BKN050CB
     FM240800 19017G28KT P6SM SCT130
     FM240900 21016G27KT P6SM SCT140
     FM241200 23016G27KT P6SM BKN110=
KSFO 231737Z 2318/2424 32016G24KT P6SM SKC
     FM240400 32012KT P6SM FEW250
     FM240600 29005KT P6SM SKC
     FM242100 31008KT P6SM FEW250=
KSJC 231737Z 2318/2418 34012G20KT P6SM SKC
     FM240300 32008KT P6SM SKC
     FM240600 VRB03KT P6SM SKC
     FM241500 14002KT P6SM FEW250=
KSMN 231735Z 2318/2418 04008KT P6SM FEW040 OVC070
     FM232300 01002KT P6SM BKN050=
