FTUS80 KWBC 231730 RRA
TAF
KBJC 231727Z 2318/2418 27015G25KT P6SM SCT100 BKN150
      TEMPO 2318/2321 27025G35KT BKN100
     FM232300 01020G30KT P6SM VCSH SCT050 BKN080
      TEMPO 2323/2402 -SHRA BKN050
     FM240200 07010KT P6SM BKN080 BKN120
     FM240400 18010KT P6SM FEW080 BKN120
     FM240700 VRB05KT P6SM SCT120
     FM241400 30010KT P6SM SCT120=
KBRD 231728Z 2318/2418 14009G18KT P6SM SCT060
     FM240100 13014G24KT P6SM BKN060 WS020/15041KT
     FM240400 14016G26KT 4SM -SHRA VCTS BKN060CB WS020/16045KT
     FM240900 16016G25KT P6SM -SHRA VCTS BKN050CB
     FM241400 21017G27KT P6SM SCT045=
KCXP 231728Z 2318/2418 36005KT P6SM SCT060
     FM232000 04011KT P6SM FEW070
     FM240300 VRB03KT P6SM FEW250=
KDAL 231728Z 2318/2418 17018G28KT P6SM SCT030 SCT200
     FM240700 17015G25KT 6SM BR VCSH OVC025
     FM241500 17013G25KT 6SM SHRA VCTS OVC015CB=
KDEN 231727Z 2318/2424 23020G30KT P6SM SCT120 BKN200
      TEMPO 2318/2320 23030G40KT
     FM232000 23020G30KT P6SM SCT100 BKN150
     FM232300 01020G30KT P6SM VCSH BKN080 BKN120
      TEMPO 2323/2402 -SHRA BKN050
     FM240200 02010KT P6SM SCT080 BKN120
     FM240400 06006KT P6SM FEW080 BKN120
     FM240700 20010KT P6SM FEW080 SCT120
     FM241400 24005KT P6SM FEW120=
KDET 231729Z 2318/2418 16011KT P6SM FEW080 SCT200
     FM240000 14006KT P6SM SKC
     FM241200 17007KT P6SM FEW150 SCT250=
