FTUS80 KWBC 231621 AAA
TAF AMD
KHOT 231619Z 2316/2412 18008KT P6SM SCT025 BKN040
      TEMPO 2316/2318 BKN025
     FM231800 19012G22KT P6SM SCT050 SCT250
     FM240100 17009KT P6SM BKN250=
KRIL 231620Z 2316/2412 28011KT P6SM -SHRA BKN005 OVC020
     FM231800 28010KT P6SM -SHRA SCT010 OVC035
     FM240400 27006KT P6SM VCSH BKN040=
