FTUS80 KWBC 231727 RRF
TAF
KPIT 231724Z 2318/2424 11005KT P6SM SCT250
     FM241400 17005KT P6SM SCT250=
KPOU 231725Z 2318/2418 01004KT P6SM BKN100 OVC200
     FM232100 02003KT P6SM VCSH SCT060 OVC100
     FM240100 02003KT 6SM -SHRA SCT030 OVC050
     FM240400 02003KT 6SM -SHRA BR SCT015 OVC025
     FM241000 01003KT 4SM -SHRA BR OVC008=
KPSF 231725Z 2318/2418 03004KT P6SM OVC200
     FM232300 05003KT P6SM VCSH OVC080
     FM240300 05003KT 6SM -SHRA BKN020 OVC050
     FM241000 03004KT 4SM -SHRA BR OVC008=
KPSP 231724Z 2318/2418 32011G18KT P6SM SKC
     FM240200 31015G25KT P6SM SKC
     FM241600 33008KT P6SM SKC=
KRBL 231725Z 2318/2418 34015G24KT P6SM SKC
     FM240200 33010KT P6SM SKC=
KRDD 231725Z 2318/2418 01014G23KT P6SM SKC
     FM240100 35008KT P6SM SKC AMD NOT SKED=
KSAC 231725Z 2318/2418 33016G24KT P6SM SKC
     FM240200 33008KT P6SM SKC=
KSAN 231724Z 2318/2424 24005KT P6SM SCT030 BKN040
     FM232000 24009KT P6SM SCT050
     FM240200 VRB04KT P6SM SKC
     FM241900 29007KT P6SM SKC=
KSCK 231725Z 2318/2418 32016G24KT P6SM SKC
     FM240200 30008KT P6SM SKC=
KSDY 231724Z 2318/2418 02014G23KT P6SM VCSH OVC008
     FM232200 36016G25KT 5SM -RA BR OVC011
     FM240300 33020G29KT 2SM -RASN BR OVC006
     FM240500 32023G34KT 1/2SM SN BLSN OVC004
     FM241700 30021G32KT P6SM VCSH OVC009=
