FTUS80 KWBC 232100 AAA
TAF AMD
KBWI 232059Z 2321/2424 02008KT P6SM -SHRA OVC025
     FM240200 34003KT P6SM -SHRA OVC010
     FM240400 34003KT 6SM -DZ BR OVC008
     FM241500 33004KT P6SM BKN008=
KCVG 232059Z 2321/2424 18009KT P6SM FEW050
     FM232300 16006KT P6SM SCT250
     FM241500 18010KT P6SM FEW180 BKN250=
KDCA 232059Z 2321/2424 01006KT P6SM -SHRA OVC030
     FM240400 01004KT P6SM OVC010
     FM240600 33003KT 6SM -DZ BR SCT005 OVC010
     FM241400 32005KT P6SM BKN010=
KIAD 232059Z 2321/2424 35010KT P6SM OVC050
     FM240000 35003KT P6SM -SHRA OVC015
     FM240400 35003KT P6SM OVC015
     FM240800 00000KT 6SM -DZ BR BKN015
     FM241400 33005KT P6SM BKN015=
KINW 232059Z 2321/2418 27012G22KT P6SM FEW040 BKN050
     FM240200 30010G20KT P6SM FEW060=
KLAX 232056Z 2321/2424 23012KT P6SM FEW013 FEW035
     FM240100 27008KT P6SM SKC
     FM240500 VRB03KT P6SM SKC
     FM241100 07005KT P6SM SKC
     FM242000 26012KT P6SM SKC=
KLVM 232059Z 2321/2418 28015KT 3SM -SHSN OVC003
      TEMPO 2321/2323 30008KT 1/4SM +SHSN SCT008 OVC020
     FM240600 30015KT P6SM SCT050 OVC100
     FM241200 24010KT P6SM FEW100 SCT200=
KPRC 232057Z 2321/2418 27010G20KT P6SM SCT050
     FM240100 33013KT P6SM SKC
     FM241400 35007G15KT P6SM SKC=
KSFO 232057Z 2321/2424 32016G24KT P6SM SKC
     FM240400 32012KT P6SM FEW250
     FM240600 29005KT P6SM SKC
     FM242100 31008KT P6SM FEW250=
