FTUS80 KWBC 231745 RRC
TAF
TAF PASC 231737Z 2318/2418 09017KT 6SM BR BKN005 OVC011
     FM232100 11017KT 2SM BR BKN007 OVC015
     FM240400 10018KT 4SM BR BKN007 OVC015=
TAF TISX 231737Z 2318/2418 11012KT P6SM VCSH FEW030 SCT050
     FM232200 04005KT P6SM SCT035
     FM241400 09012KT P6SM FEW030 SCT050=
