FTUS80 KWBC 231845 CCA
TAF COR
KHIO 231843Z 2318/2418 27003KT P6SM SCT015 BKN060
      TEMPO 2318/2321 BKN015
     FM232100 23002KT P6SM BKN050
     FM240700 18005KT P6SM SCT030 OVC080
     FM241200 17008KT P6SM -SHRA OVC029
     FM241400 18008KT P6SM -SHRA OVC017
     FM241600 18007KT P6SM -SHRA OVC014=
KHIO 231842Z 2318/2418 27003KT P6SM SCT015 BKN060
      TEMPO 2319/2321 BKN015
     FM232100 23002KT P6SM BKN050
     FM240700 18005KT P6SM SCT030 OVC080
     FM241200 17008KT P6SM -SHRA OVC029
     FM241400 18008KT P6SM -SHRA OVC017
     FM241600 18007KT P6SM -SHRA OVC014=
KTTD 231843Z 2318/2418 VRB03KT P6SM BKN250
      TEMPO 2318/2320 BKN015
     FM240900 VRB03KT P6SM SCT025 OVC070
     FM241300 VRB03KT P6SM SHRA SCT017 OVC030
     FM241700 VRB04KT P6SM SHRA OVC050=
