FTUS80 KWBC 232006 AAA
TAF AMD
PAOM 232005Z 2320/2418 15019G26KT 6SM -SHRA BR SCT010 BKN014
      OVC019
     FM240000 18011KT 5SM -SHRA BR SCT010 OVC015
     FM240400 22008KT 6SM -SHSN BR SCT007 OVC015
     FM241200 25006KT P6SM VCSH SCT007 OVC015=
