FTUS80 KWBC 232139 AAA
TAF AMD
PAKW 232136Z 2322/2418 03012KT 4SM -RA BR OVC025 WS020/17035KT
     FM240000 17010KT 4SM RA BR OVC020
     FM241200 35012KT 6SM -SHRA BR OVC030 WS020/32035KT AMD LTD TO
      CLD VIS AND WIND=
