FTUS80 KWBC 232036 AAA
TAF AMD
KALO 232034Z 2321/2418 16020G32KT P6SM VCTS SCT060CB BKN150
     FM232200 16021G36KT P6SM BKN130
     FM240300 16021G38KT P6SM BKN110 WS020/18045KT
     FM240700 18020G35KT P6SM BKN100 WS020/19050KT
     FM241200 20015KT P6SM OVC060=
KPIT 232035Z 2321/2424 11005KT P6SM SKC
     FM241400 17005KT P6SM SCT250=
