FTUS80 KWBC 231721
TAF
KABI 231720Z 2318/2418 18018G28KT P6SM FEW250
     FM240900 19016G27KT P6SM VCSH BKN060 WS020/21045KT
      TEMPO 2412/2416 VRB20G35KT 3SM -TSRA BKN030CB
     FM241600 24014G24KT P6SM SCT250=
KABR 231720Z 2318/2418 13014G24KT P6SM SCT200
     FM240800 23015G25KT P6SM VCSH SCT070
     FM241000 24018G29KT P6SM VCSH BKN028
     FM241700 25021G34KT P6SM BKN035=
KALI 231720Z 2318/2418 15018G30KT P6SM SCT035
     FM240900 15011KT P6SM OVC035
      TEMPO 2412/2416 OVC025
     FM241600 18016G22KT P6SM OVC050=
KALS 231720Z 2318/2418 20030G45KT P6SM VCSH BKN060
      TEMPO 2318/2321 2SM -SHRA BLDU SCT002 BKN020
     FM232100 25030G40KT 5SM HZ SCT002 BKN100
     FM240200 25012G22KT P6SM BKN150
     FM240400 23012KT P6SM BKN250
     FM240600 33005KT P6SM BKN100=
KALW 231720Z 2318/2418 19009KT P6SM BKN070 BKN100
     FM232100 23008KT P6SM FEW120 SCT200
     FM240300 15007KT P6SM SCT100 BKN200
     FM241200 18010KT P6SM BKN060 OVC090
      TEMPO 2414/2418 -RA OVC050=
KAPF 231720Z 2318/2418 06008KT P6SM FEW050
     FM240100 VRB05KT P6SM SKC
     FM241500 06007KT P6SM SCT040=
KAPN 231720Z 2318/2418 16009G20KT P6SM SCT250
     FM240200 14007G17KT P6SM SCT250 WS020/18035KT
     FM241000 16008KT P6SM SCT090 BKN250=
KATY 231720Z 2318/2418 13018G29KT P6SM SKC
     FM232100 15020G32KT P6SM BKN250
     FM240400 18015G26KT P6SM VCSH SCT250
     FM241100 24020G30KT P6SM BKN035=
