FTUS80 KWBC 232103 AAA
TAF AMD
KAPF 232058Z 2321/2418 06008KT P6SM FEW050
     FM240100 VRB05KT P6SM SKC
     FM241500 06007KT P6SM SCT040=
KCDS 232059Z 2321/2418 19017KT P6SM SCT120 BKN250
     FM240400 20015KT P6SM VCSH SCT080 BKN120
     FM241200 34015KT P6SM SHRA FEW020 OVC080=
KDPA 232102Z 2321/2418 17020G35KT P6SM FEW050 SCT120
     FM240100 17017G26KT P6SM SCT050 BKN100 WS020/19050KT
      TEMPO 2404/2408 -SHRA BKN050
     FM240800 17017G26KT P6SM BKN120
     FM241500 19018G29KT P6SM BKN100=
KFLL 232058Z 2321/2424 06010KT P6SM SCT040
     FM240100 VRB05KT P6SM FEW040
     FM241500 05010KT P6SM SCT040=
KFXE 232058Z 2321/2418 04010KT P6SM SCT040
     FM240100 VRB05KT P6SM FEW040
     FM241500 05008KT P6SM SCT040=
KGYY 232102Z 2321/2418 17019G33KT P6SM SCT120
     FM240000 17015G25KT P6SM SCT050 BKN100 WS020/19048KT
      TEMPO 2404/2408 -SHRA BKN050
     FM240800 17017G26KT P6SM BKN120
     FM241500 19018G29KT P6SM BKN100=
KHOU 232102Z 2321/2418 16017G25KT P6SM FEW060 BKN250
     FM240200 16009KT P6SM FEW030 BKN045
     FM241500 16013G22KT P6SM BKN040=
KIAH 232101Z 2321/2424 17016G27KT P6SM SCT060 BKN250
     FM240200 15008KT P6SM FEW030 BKN250
     FM241500 15009G20KT P6SM SCT030 BKN060 OVC250
     FM241800 16014G23KT P6SM VCSH SCT025 BKN040=
