FTUS80 KWBC 231721 RRD
TAF
KDDC 231720Z 2318/2418 21030G47KT 3SM BLDU BKN080
     FM240200 22021G40KT P6SM BKN090
     FM240500 26016G25KT P6SM BKN080
     FM241200 35010G20KT P6SM OVC090=
KDLS 231720Z 2318/2418 30006KT P6SM SKC
     FM232200 31010KT P6SM SCT250
     FM240300 30008KT P6SM BKN250
     FM241100 VRB04KT P6SM BKN050 OVC100
      TEMPO 2414/2418 -RA OVC040=
KDPA 231720Z 2318/2418 17020G33KT P6SM SCT100
     FM240100 17017G25KT P6SM SCT050 BKN100
      TEMPO 2404/2408 -SHRA BKN050
     FM241500 19018G29KT P6SM BKN100=
KDUG 231720Z 2318/2418 NIL=
KEFK 231720Z 2318/2418 00000KT P6SM FEW250
     FM241000 VRB04KT 5SM -SHRA BR OVC035
     FM241200 VRB03KT P6SM VCSH OVC019
     FM241700 00000KT P6SM BKN016=
KEKN 231720Z 2318/2418 VRB04KT P6SM SKC=
KEVV 231720Z 2318/2418 18016G27KT P6SM FEW050
     FM240000 17007KT P6SM FEW250
     FM241400 18010G18KT P6SM SCT250=
KFAR 231720Z 2318/2418 11014KT P6SM SKC
     FM231900 13017G26KT P6SM FEW250
     FM240400 14015G26KT 6SM -RA BR BKN060 WS020/16060KT
     FM240800 18018G27KT P6SM BKN100=
KFAT 231720Z 2318/2418 31010KT P6SM SKC
     FM240600 00000KT P6SM FEW250=
KFLL 231720Z 2318/2424 06010KT P6SM SCT040
     FM240100 VRB05KT P6SM FEW040
     FM241500 05010KT P6SM SCT040=
KFST 231720Z 2318/2418 22010KT P6SM SCT250
     FM240100 17016G25KT P6SM BKN100
     FM240800 27015G22KT P6SM FEW100 SCT250=
