FTUS80 KWBC 232109 AAA
TAF AMD
KACY 232106Z 2321/2418 04013G23KT 4SM -RA BR OVC006
      TEMPO 2321/2324 2SM RA
     FM240400 02007KT 3SM -RADZ BR OVC003
     FM240700 36006KT 2SM -DZ BR BKN003=
KBZN 232108Z 2321/2424 29011KT 6SM -SHSN SCT025 BKN035
      TEMPO 2321/2323 1SM -SN BR SCT015 BKN025
     FM240400 30009KT P6SM SCT025 BKN050
     FM241500 22007KT P6SM BKN150=
KMSP 232106Z 2321/2424 14016G30KT P6SM FEW050 FEW250
     FM240200 16015G35KT P6SM VCSH BKN050 WS020/18050KT
     FM240600 18017G34KT P6SM BKN060 WS020/19050KT
     FM241300 20016G28KT P6SM BKN070
     FM242300 24012G19KT P6SM BKN100=
KSTL 232106Z 2321/2424 18018G30KT P6SM SCT120
     FM240200 17013G23KT P6SM BKN250
     FM240800 17012KT P6SM BKN250
     FM241500 18012G22KT P6SM BKN250=
