FTUS80 KWBC 231624 AAA
TAF AMD
KAZO 231622Z 2316/2412 18012G22KT P6SM FEW060 SCT100
     FM232200 15012KT P6SM BKN100
     FM240200 16010KT P6SM VCSH BKN100
     FM241100 17009KT P6SM BKN090=
KBTL 231622Z 2316/2412 16012G22KT P6SM FEW060 SCT100
     FM232200 16012KT P6SM BKN100
     FM240200 15010KT P6SM VCSH BKN100
     FM241100 17009KT P6SM BKN090=
KGRR 231622Z 2316/2412 16014G21KT P6SM FEW060 SCT200
     FM232100 16013KT P6SM SCT100 BKN250
     FM240200 16011KT P6SM VCSH BKN100 WS020/19040KT
     FM241100 17009KT P6SM BKN090=
KJXN 231622Z 2316/2412 16010G20KT P6SM FEW060 SCT100
     FM232200 16012KT P6SM BKN100=
KLAN 231622Z 2316/2412 16011KT P6SM FEW060 SCT100
     FM231900 17014G24KT P6SM SCT060 BKN100
     FM232200 16012KT P6SM BKN100
     FM241100 17009KT P6SM BKN090=
KMKG 231622Z 2316/2412 16014G22KT P6SM FEW060 SCT150
     FM232100 15012KT P6SM BKN100
     FM240300 16014KT P6SM VCSH BKN100 WS020/19045KT
     FM241100 17013KT P6SM BKN090=
KPSP 231622Z 2316/2412 32018G26KT P6SM FEW250
     FM231800 32007KT P6SM SKC
     FM231900 33011KT P6SM SKC
     FM240200 31015G25KT P6SM SKC=
