FTUS80 KWBC 232042 AAA
TAF AMD
KJVL 232039Z 2321/2418 16019G26KT P6SM SCT090
     FM232300 17015G23KT P6SM SCT100
     FM240300 17015G27KT P6SM VCTS BKN100CB WS020/19045KT
     FM241000 17014G23KT P6SM BKN110=
KLVM 232039Z 2321/2418 28015KT 1SM -SN SCT005 OVC025
     FM232100 31015G28KT P6SM VCSH SCT020 BKN040
      TEMPO 2321/2324 3SM -SHSN OVC020
     FM240600 30015KT P6SM SCT050 OVC100
     FM241200 24010KT P6SM FEW100 SCT200=
KMKE 232040Z 2321/2424 15015KT P6SM FEW220
     FM240200 17013G21KT P6SM BKN110 WS020/18045KT
     FM240600 18013G21KT P6SM VCTS BKN100CB WS020/20040KT
     FM241100 17013G21KT P6SM BKN100 WS020/20040KT
     FM241500 18014G23KT P6SM BKN180=
KMSN 232039Z 2321/2418 16020G29KT P6SM FEW045 FEW120
     FM240100 17014G24KT P6SM BKN110
     FM240400 17016G28KT P6SM VCTS BKN100CB WS020/19050KT
     FM241400 18015G24KT P6SM BKN120 WS020/20040KT=
KSBM 232039Z 2321/2418 16011G21KT P6SM SKC
     FM240400 17014G24KT P6SM VCSH BKN100 WS020/19045KT
     FM240600 17013G22KT 6SM -SHRA BR VCTS BKN090CB WS020/20040KT
     FM241100 17013G21KT P6SM BKN100 WS020/20040KT
     FM241600 18016G26KT P6SM BKN110=
KTEX 232040Z 2321/2418 26009G20KT 6SM -SN BKN020 OVC030
      TEMPO 2321/2324 1SM -SN BKN010
     FM240100 27010KT P6SM -SHSN OVC025
     FM240600 29005KT P6SM BKN050=
