FTSA31 KWBC 231639
TAF
TAF SKBO 231630Z 2318/2418 30012KT 9999 BKN020
      TEMPO 2318/2323 5000 RADZ BKN020TCU
      BECMG 2400/2402 VRB02KT SCT015 SCT070 PROB40
      TEMPO 2410/2412 5000 BR SCT010 TX20/2319Z TN10/2410Z=
TAF SKBQ 231630Z 2318/2418 13010KT 9999 SCT015
      TEMPO 2318/2319 RA SCT015TCU
      TEMPO 2320/2324 TSRA BKN010 FEW015CB
      TEMPO 2400/2403 RA SCT010 BKN070
      TEMPO 2406/2410 TSRA SCT012 FEW015CB
      TEMPO 2410/2413 RA BKN006 TX33/2318Z TN24/2410Z=
TAF SKCG 231630Z 2318/2418 21010KT 9999 FEW017 SCT090
      TEMPO 2319/2322 TSRA SCT017CB
      BECMG 2400/2402 VRB02KT FEW015 PROB40
      TEMPO 2409/2412 5000 TSRA SCT015CB TX30/2319Z TN24/2410Z=
TAF SKCL 231630Z 2318/2418 VRB04KT 9999 SCT020TCU
      TEMPO 2321/2324 32012KT TS SCT017CB
      BECMG 2400/2401 SCT020
      TEMPO 2403/2407 DZ SCT020 BKN090
      TEMPO 2410/2414 4000 BR BKN010 TX30/2320Z TN19/2411Z=
TAF SKLT 231630Z 2318/2418 VRB02KT 9999 SCT015 BKN080
      TEMPO 2320/2322 25006KT 5000 TSRA SCT015CB PROB40
      TEMPO 2415/2418 5000 TSRA SCT015CB TX31/2319Z TN23/2410Z=
TAF SKRG 231630Z 2318/2418 14010KT 9999 SCT020
      TEMPO 2320/2324 DZ SCT017CB
      BECMG 2400/2402 VRB02KT BKN012
      TEMPO 2403/2407 RADZ SCT010CB
      BECMG 2408/2410 4000 BCFG BKN006
      BECMG 2413/2415 27008KT 9999 NSW SCT017 TX22/2319Z
      TN13/2410Z=
