FTUS80 KWBC 232048 AAA
TAF AMD
KLBB 232047Z 2321/2418 22020G30KT P6SM FEW070 BKN250
     FM240200 21017KT P6SM VCSH SCT050 BKN100
     FM241100 27018KT 6SM SHRA BR FEW020 OVC050=
KLVM 232045Z 2321/2418 28015KT 1SM -SN SCT005 OVC025
     FM232200 31015G28KT P6SM VCSH SCT020 BKN040
      TEMPO 2321/2324 3SM -SHSN OVC020
     FM240600 30015KT P6SM SCT050 OVC100
     FM241200 24010KT P6SM FEW100 SCT200=
KPHX 232045Z 2321/2424 27015G22KT P6SM FEW050 SCT080
     FM240300 31012KT P6SM FEW080 FEW250
     FM241200 35008KT P6SM SKC
     FM241600 03006KT P6SM SKC
     FM242000 33008KT P6SM SKC=
