FTUS80 KWBC 231727
TAF
KAEX 231725Z 2318/2418 17016G24KT P6SM FEW050
     FM240100 16009KT P6SM FEW040
     FM241300 13009KT P6SM OVC050
     FM241700 15014G21KT P6SM OVC050=
KAGC 231724Z 2318/2418 11003KT P6SM SCT250
      TEMPO 2409/2413 4SM BR SKC
     FM241300 17005KT P6SM SCT250=
KALB 231725Z 2318/2418 34004KT P6SM OVC200
     FM240000 33003KT P6SM VCSH SCT070 OVC120
     FM240400 35003KT 6SM -SHRA SCT030 OVC040
     FM240900 34004KT 6SM -SHRA BR SCT012 OVC020=
KAMA 231726Z 2318/2418 21027G38KT P6SM BKN200
     FM240100 23018G26KT P6SM BKN200
     FM240600 25010KT P6SM BKN090
     FM241300 33009KT 5SM SHRA OVC020=
KARA 231725Z 2318/2418 16017G26KT P6SM SCT040
     FM232300 16009KT P6SM FEW050
     FM240600 13006KT P6SM BKN100
     FM241500 14012G19KT P6SM BKN050=
KASD 231725Z 2318/2418 13008KT P6SM SKC
     FM240100 VRB02KT P6SM SKC
     FM241500 16006KT P6SM SCT070=
KAZO 231725Z 2318/2418 16010G20KT P6SM SCT070
     FM232300 15012KT P6SM BKN100
     FM240200 16010KT P6SM VCSH BKN100
     FM241100 17009KT P6SM BKN090=
KBIH 231725Z 2318/2418 34018G28KT P6SM FEW100
     FM240400 01012G20KT P6SM SKC
     FM240900 35008KT P6SM SKC=
KBIL 231726Z 2318/2418 30020G30KT P6SM OVC040
     FM232000 30025G35KT P6SM -SHRASN OVC030
     FM232300 33025G35KT 4SM -SHSN FEW015 OVC025
     FM240700 32015G30KT P6SM VCSH FEW025 OVC045
     FM241200 30012G20KT P6SM FEW050 SCT200=
