FTUS80 KWBC 231721 RRA
TAF
KBBD 231720Z 2318/2418 17015G25KT P6SM SCT050
     FM240200 17013G23KT P6SM VCSH BKN060
     FM240800 17017G27KT P6SM BKN018
     FM241200 18014G24KT P6SM VCSH BKN025
      TEMPO 2413/2417 VRB15G25KT 3SM -TSRA BKN025CB=
KBBG 231720Z 2318/2418 17015G25KT P6SM SCT120
     FM240100 16015G22KT P6SM BKN250
     FM241200 16012G20KT P6SM VCSH SCT025 OVC050=
KBCB 231720Z 2318/2418 VRB02KT P6SM FEW250=
KBFF 231720Z 2318/2418 31008KT P6SM BKN150
     FM231900 31020G30KT P6SM VCSH BKN150
     FM232200 30012KT 5SM -SHRA SCT020 OVC040
     FM240100 30015G25KT P6SM SCT040 BKN080=
KBFL 231720Z 2318/2418 VRB03KT P6SM SKC
     FM232300 33008KT P6SM SKC=
KBGR 231720Z 2318/2418 VRB03KT P6SM BKN200
     FM240200 VRB02KT P6SM OVC070
     FM240800 05004KT 5SM -RA BR OVC028
     FM241500 09006KT 5SM -RA BR OVC009=
KBHB 231720Z 2318/2418 VRB03KT P6SM BKN200
     FM240000 00000KT P6SM OVC080
     FM240600 06005KT 3SM -RA BR FEW007 OVC025
     FM241200 08008KT 3SM -RA BR OVC007=
KBJI 231720Z 2318/2418 12012KT P6SM SKC
     FM231900 13013G21KT P6SM SCT250
     FM240500 14011G25KT 6SM -RA BR BKN060 WS020/17045KT
     FM240900 16012KT P6SM BKN015 WS020/18045KT
     FM241100 18013KT P6SM BKN025 WS020/19040KT=
KBKW 231720Z 2318/2418 VRB04KT P6SM SKC=
KBLF 231720Z 2318/2418 16004KT P6SM FEW250=
KBNA 231720Z 2318/2418 18011G17KT P6SM FEW250
     FM240000 16006KT P6SM FEW250
     FM241700 18012G17KT P6SM FEW250=
