FTCA33 KWBC 231818
TAF
TAF TLPC 231700Z 2318/2418 10007KT 9999 SCT027 PROB30
      TEMPO 2400/2418 SHRA=
TAF TLPL 231700Z 2318/2418 08013KT 9999 SCT027 PROB30
      TEMPO 2400/2418 SHRA=
