FTUS80 KWBC 231739 RRI
TAF
TIST 231737Z 2318/2418 14012KT P6SM VCSH SCT025 SCT050
     FM232200 07005KT P6SM VCSH SCT035
     FM240200 08004KT P6SM FEW035
     FM241400 10012KT P6SM FEW025 SCT050=
TISX 231737Z 2318/2418 11012KT P6SM VCSH FEW030 SCT050
     FM232200 04005KT P6SM SCT035
     FM241400 09012KT P6SM FEW030 SCT050=
TJBQ 231737Z 2318/2418 08012G18KT P6SM SCT025 SCT040
     FM232200 10006KT P6SM FEW030 SCT045
     FM241400 08014KT P6SM SCT025=
TJMZ 231737Z 2318/2418 NIL=
TJPS 231737Z 2318/2418 16012G18KT P6SM VCSH SCT035 SCT060
     FM232200 10008KT P6SM FEW035 SCT060
     FM240200 00000KT P6SM FEW035
     FM241400 16010KT P6SM FEW030 SCT060=
TJSJ 231737Z 2318/2418 05012KT P6SM FEW022 SCT040 BKN060
     FM232200 09008KT P6SM FEW030 SCT045
     FM240100 14003KT P6SM FEW022 SCT035 SCT060
     FM241400 07012KT P6SM FEW035 SCT050=
