FTUS80 KWBC 231627 AAA
TAF AMD
KLVM 231626Z 2316/2412 31010G17KT P6SM VCSH SCT020 OVC035
     FM232000 27015G25KT 6SM -SN BR BKN020 OVC040
     FM240200 25018G30KT P6SM VCSH SCT015 OVC040=
KMLS 231625Z 2316/2412 33014KT 5SM -RA BR BKN009 OVC015
      TEMPO 2316/2320 1 1/2SM +RA BR BKN007 OVC015
     FM232000 32018G28KT 3/4SM -SN BR SCT004 OVC008=
KSAT 231625Z 2316/2418 18010G20KT P6SM BKN025 BKN045 OVC250
     FM231730 17012G22KT P6SM BKN035 BKN250
     FM240000 14013KT P6SM SCT030
     FM240700 14010KT P6SM BKN010
     FM241200 17010KT 4SM SHRA BKN010=
