FTUS80 KWBC 231706
TAF
TAF COR PAFA 231700Z 2317/2418 VRB03KT 1 1/2SM -SN BR BKN004
      BKN030
      OVC060
      TEMPO 2317/2320 1/4SM FZFG BKN003
     FM240000 VRB03KT 3SM BR BKN007 OVC015
     FM240600 VRB03KT 1/2SM FZFG OVC005=
TAF AMD PAFA 231659Z 2317/2418 VRB03KT 1 1/2SM -SN BR BKN004
      BKN030
      OVC060
      TEMPO 2318/2320 1/4SM FZFG BKN003
     FM240000 VRB03KT 3SM BR BKN007 OVC015
     FM240600 VRB03KT 1/2SM FZFG OVC005=
