FTUS80 KWBC 231951 AAB
TAF AMD
KHPN 231948Z 2320/2418 03007KT P6SM -RA FEW040 OVC120
      TEMPO 2321/2323 6SM -RA FEW009 SCT015 OVC030
     FM232300 03010KT 5SM -RA BR BKN009 OVC015
     FM240200 03007KT 2SM -RA BR OVC009 AMD NOT SKED=
KILG 231950Z 2320/2418 03009KT P6SM VCSH OVC035
     FM232100 02009KT 6SM -RADZ BR SCT008 OVC015
     FM240400 01006KT 6SM -RADZ BR SCT004 OVC008
     FM240900 35005KT 3SM -DZ BR BKN003
     FM241600 36005KT P6SM BKN250=
KINW 231949Z 2320/2418 33009G18KT P6SM FEW040 BKN050
     FM240200 30010G20KT P6SM FEW060=
KISP 231948Z 2320/2418 05013KT P6SM BKN040 OVC150
      TEMPO 2321/2323 5SM RA BR BKN018 OVC035
     FM232300 04014KT 3SM RA BR OVC008
     FM240400 04013KT 2SM -RA BR OVC004
     FM241600 04009KT 3SM -RA BR OVC007=
KJFK 231948Z 2320/2424 03010KT P6SM BKN060 OVC100
      TEMPO 2320/2323 6SM -RA BR SCT015 BKN030
     FM232300 03012KT 4SM -RA BR BKN010 OVC025
     FM240200 04009KT 2SM -RA BR OVC006
     FM241400 03010KT 5SM -RA BR SCT006 BKN011 OVC025
     FM242000 05006KT 6SM BR VCSH OVC020=
KLGA 231948Z 2320/2424 05012KT P6SM BKN050 OVC100
      TEMPO 2320/2323 6SM -RA BR SCT015 BKN030
     FM232300 03014KT 4SM -RA BR BKN010 OVC025
     FM240200 04010KT 2SM -RA BR OVC008
     FM241400 04010KT 5SM -RA BR SCT006 BKN011 OVC025
     FM242000 05009KT 6SM BR VCSH OVC020=
