FTCA31 KWBC 231612
TAF
MBPV 231530Z 2318/2418 07010KT 9999 SCT022 PROB30
      TEMPO 2319/2322 VCSH FEW018CB=
TAF MYGF 231530Z 2318/2418 03009KT 9999 FEW025=
TAF MYNN 231530Z 2318/2418 05010KT 9999 FEW025=
MYNN 231530Z 2318/2418 05010KT 9999 FEW025=
