FTUS80 KWBC 231727 RRB
TAF
KERI 231724Z 2318/2418 16008KT P6SM SCT250=
KEYW 231725Z 2318/2418 05010G16KT P6SM SKC
     FM232200 06009KT P6SM FEW050=
KFDY 231724Z 2318/2418 16011KT P6SM SCT045
     FM232300 14007KT P6SM SCT250=
KFKL 231724Z 2318/2418 12005KT P6SM SCT250
      TEMPO 2409/2413 12003KT 4SM BR SKC
     FM241300 17005KT P6SM SCT250=
KGDV 231724Z 2318/2418 02012KT P6SM VCSH OVC010
     FM232100 35016G25KT 3SM -RA BR OVC009
     FM240100 32020G30KT 1SM -RASN BR OVC008
     FM240400 31023G32KT 1/2SM SN BLSN OVC007
     FM241700 30018G26KT P6SM VCSH OVC013=
KGFL 231725Z 2318/2418 VRB03KT P6SM OVC250
     FM240200 00000KT P6SM VCSH SCT070 OVC120
     FM240600 00000KT 6SM -SHRA SCT020 OVC035
     FM241100 00000KT 6SM -SHRA BR BKN012 OVC020=
KGGW 231724Z 2318/2418 03018G28KT 5SM RA BR OVC015
     FM231900 36018G28KT 1SM RASN BR OVC008
      TEMPO 2320/2324 1/4SM +RASN OVC001
     FM240300 33018G29KT 1/2SM SN BLSN OVC008
     FM241100 31018G28KT P6SM VCSH OVC011=
KGPT 231725Z 2318/2418 13010KT P6SM SKC
     FM240700 15006KT P6SM SCT250
     FM241200 12006KT P6SM OVC045
     FM241400 11006KT P6SM BKN060=
KGRR 231725Z 2318/2418 16016G26KT P6SM SCT060 BKN250
     FM232200 16014KT P6SM SCT070 BKN250
     FM240200 16011KT P6SM VCSH BKN100 WS020/19040KT
     FM241100 17009KT P6SM BKN090=
KHLG 231724Z 2318/2418 12005KT P6SM SCT250
     FM240700 12003KT 3SM BR SKC
     FM241300 17005KT P6SM SCT250=
