FTUS80 KWBC 232021 AAA
TAF AMD
KBAF 232018Z 2320/2418 35005KT P6SM -RA OVC090
     FM240000 01007KT P6SM VCSH OVC030
     FM240300 01007KT 5SM BR VCSH OVC015
     FM240600 01007KT 5SM BR VCSH OVC008
     FM241000 36006KT 2SM -SHRA BR OVC008=
KBDL 232019Z 2320/2424 02005KT P6SM -RA OVC090
     FM240000 01008KT 5SM -RA BR OVC040
     FM240500 01008KT 5SM BR VCSH OVC008
     FM241200 36006KT 1 1/2SM -SHRA BR OVC008
     FM242300 01004KT 4SM BR VCSH OVC008=
KBJC 232018Z 2320/2418 VRB06KT P6SM BKN080 BKN120
      TEMPO 2320/2323 27025G35KT BKN080
     FM232300 01020G30KT P6SM VCSH SCT050 BKN080
      TEMPO 2323/2402 -SHRA BKN050
     FM240200 07010KT P6SM BKN080 BKN120
     FM240400 18010KT P6SM FEW080 BKN120
     FM240700 VRB05KT P6SM SCT120
     FM241400 30010KT P6SM SCT120=
KLVM 232019Z 2320/2418 28011KT P6SM VCSH FEW012 OVC035
      TEMPO 2320/2321 3SM -SN BKN020
     FM232100 31015G28KT P6SM VCSH SCT020 BKN040
      TEMPO 2321/2324 3SM -SHSN OVC020
     FM240600 30015KT P6SM SCT050 OVC100
     FM241200 24010KT P6SM FEW100 SCT200=
