FTUS80 KWBC 231618 AAA
TAF AMD
KHDN 231616Z 2316/2412 19003KT P6SM -SHSN OVC020
      TEMPO 2316/2318 3SM -SN BR OVC005
     FM232100 27014G22KT 6SM -SHSN BLSN OVC030
     FM240200 28010KT P6SM VCSH BKN030 OVC050=
