FTUS80 KWBC 231742 RRL
TAF
KTTN 231739Z 2318/2418 04008KT P6SM VCSH SCT020 OVC035
     FM232300 03007KT 6SM -RA BR SCT015 OVC020
     FM240100 03007KT 6SM -RA BR SCT008 OVC015
     FM240400 02007KT 4SM -RADZ SCT004 OVC008
     FM240700 01005KT 3SM -DZ BR OVC003
     FM241600 01005KT P6SM BKN003=
KTWF 231741Z 2318/2418 27025G35KT P6SM SCT050
     FM240200 23015G25KT P6SM SKC=
KTXK 231739Z 2318/2418 18014G23KT P6SM BKN035
     FM240100 17011G18KT P6SM FEW045 SCT250
     FM240900 17011G18KT P6SM BKN025
     FM241500 16015G25KT P6SM BKN040=
KTYR 231739Z 2318/2418 18020G32KT P6SM SCT040 BKN250
     FM240100 17014G25KT P6SM FEW045 BKN250
     FM240700 17013G20KT P6SM BKN025
     FM241500 17017G27KT P6SM BKN030=
KVLD 231740Z 2318/2418 06005KT P6SM SKC
     FM241000 VRB03KT 5SM BR SKC
     FM241400 06005KT P6SM SCT250=
PAGS 231740Z 2318/2418 33008G18KT P6SM -RA OVC050 WS020/09035KT
     FM232300 35008KT P6SM BKN050 AMD LTD TO CLD VIS AND WIND=
PAGY 231740Z 2318/2418 02010G20KT P6SM BKN050
     FM232100 02017G27KT P6SM BKN050 AMD LTD TO CLD VIS AND WIND=
PAJN 231740Z 2318/2418 11012KT P6SM -RA OVC050 WS020/06030KT
     FM240300 09007KT P6SM OVC050
     FM240900 02006KT P6SM BKN100=
PAKT 231740Z 2318/2418 14030G40KT 4SM -RA BR OVC025 WS020/14055KT
     FM240000 14025G40KT 3SM RA BR OVC020 WS020/14035KT
     FM240600 14012KT 4SM -RA BR BKN015 OVC025
     FM241200 31012KT 6SM -SHRA BR OVC020=
