FTUS80 KWBC 231957 AAA
TAF AMD
KERI 231954Z 2320/2418 02008KT P6SM FEW250
     FM232300 16008KT P6SM SKC=
KPLN 231954Z 2320/2418 16009G18KT P6SM SCT060 SCT250
     FM240100 14009G16KT P6SM BKN090 WS020/18040KT
     FM240600 15007G20KT P6SM VCSH BKN070 WS020/20035KT
     FM241200 14005KT P6SM BKN080=
KTVC 231954Z 2320/2418 17010G19KT P6SM FEW050 SCT250
     FM240000 15012G21KT P6SM SCT090 WS020/18040KT
     FM240200 16013G21KT P6SM BKN100 WS020/18040KT
     FM240800 17012G25KT P6SM VCSH OVC070 WS020/19040KT
     FM241200 15008G16KT P6SM BKN090
     FM241700 18014G23KT P6SM BKN120=
