FTUS80 KWBC 232130 AAA
TAF AMD
KCOU 232129Z 2321/2418 18017G28KT P6SM VCSH SCT120
      TEMPO 2321/2322 -SHRA FEW050 BKN120
     FM240200 18015KT P6SM BKN250
     FM241500 18015G25KT P6SM OVC040=
KPGV 232128Z 2321/2418 36010KT P6SM SCT018 BKN040
      TEMPO 2321/2323 BKN018
     FM240000 34006KT P6SM BKN018
     FM241400 35006KT P6SM SCT015 AMD LTD TO CLD VIS AND WIND=
KRWL 232127Z 2321/2418 25012KT P6SM VCSH SCT008 OVC035
      TEMPO 2321/2323 1/2SM SN FG BKN010 OVC020
     FM232300 29012KT P6SM OVC050=
KSBP 232129Z 2321/2418 30014KT P6SM SKC
     FM232200 32018G26KT P6SM SKC
     FM240200 33010KT P6SM SKC
     FM240800 VRB03KT P6SM SKC=
KVNY 232128Z 2321/2418 35013G22KT P6SM SKC
     FM240300 VRB03KT P6SM SKC
     FM241000 36012KT P6SM SKC=
KWJF 232128Z 2321/2418 29018G27KT P6SM SKC
     FM240500 VRB03KT P6SM SKC
     FM241000 00000KT P6SM SKC=
PANC 232128Z 2321/2424 35006KT P6SM FEW005 SCT200
     FM240600 VRB05KT P6SM SCT200=
