FTUS80 KWBC 231724 RRB
TAF
KHOU 231722Z 2318/2418 17015G27KT P6SM SCT060 BKN250
     FM240200 16009KT P6SM FEW030 BKN045
     FM241500 16013G22KT P6SM BKN040=
KIAH 231722Z 2318/2424 17014G27KT P6SM SCT040 BKN250
     FM240200 15008KT P6SM FEW030 BKN250
     FM241500 15009G20KT P6SM SCT030 BKN060 OVC250
     FM241800 16014G23KT P6SM VCSH SCT025 BKN040=
KILM 231722Z 2318/2418 34009G15KT P6SM SCT200
     FM232200 34006KT P6SM FEW070
     FM241100 34005KT P6SM SCT025
     FM241500 34007KT P6SM SKC=
KILN 231721Z 2318/2418 18011G17KT P6SM FEW050
     FM232300 15005KT P6SM FEW250
     FM241500 18012G18KT P6SM FEW180 BKN250=
KIPL 231723Z 2318/2418 29014KT P6SM SKC
     FM240800 33007KT P6SM SKC=
KISM 231721Z 2318/2418 34007KT P6SM SKC
     FM232000 01008KT P6SM FEW040
     FM240200 02005KT P6SM SKC
     FM240900 36004KT P6SM SKC
      TEMPO 2410/2412 5SM BR
     FM241400 04006KT P6SM FEW035=
KIWA 231723Z 2318/2418 25013KT P6SM SCT080
     FM240300 30008KT P6SM FEW080 SCT250
     FM241000 VRB05KT P6SM SKC=
KJKL 231721Z 2318/2418 VRB05KT P6SM FEW250=
KLBT 231722Z 2318/2418 36009KT P6SM SKC
     FM240000 00000KT P6SM SKC
     FM241400 36005KT P6SM SKC AMD NOT SKED=
KLBX 231722Z 2318/2418 17015G25KT P6SM SCT035 SCT250
     FM240000 15009KT P6SM FEW020 BKN035
     FM241600 17015G23KT P6SM SCT045 SCT250=
