FTUS80 KWBC 232027 AAA
TAF AMD
KILG 232025Z 2320/2418 03012KT 6SM -RA BR OVC035
     FM240000 02009KT 5SM -RADZ BR SCT008 OVC020
     FM240900 35005KT 3SM -DZ BR BKN003
     FM241600 36005KT P6SM BKN250=
KPNE 232024Z 2320/2418 05010KT 6SM -RA BR SCT030 OVC045
     FM240000 03008KT 4SM -RA BR SCT015 OVC020
     FM240800 01006KT 3SM -DZ BR OVC003
     FM241200 01006KT 2SM -DZ BR BKN003
     FM241600 36006KT P6SM BKN003=
