FTUS80 KWBC 231839 AAA
TAF AMD
KDRO 231835Z 2319/2418 26020G30KT P6SM VCSH BKN030 OVC050
     FM232000 27020G35KT P6SM -SHRA SCT025 BKN050
     FM240000 28010KT P6SM VCSH BKN050
     FM240600 29005KT P6SM SCT050 BKN100=
KSLC 231835Z 2319/2424 33012G25KT P6SM VCSH SCT020 BKN030 OVC040
     FM232300 29012KT P6SM VCSH SCT020 BKN040 OVC060
     FM240100 17005KT P6SM SCT040 OVC060
     FM241700 34007KT P6SM FEW150=
