FTUS80 KWBC 232051 AAA
TAF AMD
KAGS 232049Z 2321/2418 03005KT P6SM SCT250
     FM232200 00000KT P6SM SKC=
KCAE 232049Z 2321/2418 03005KT P6SM SKC
     FM232200 VRB03KT P6SM SKC=
KCUB 232049Z 2321/2418 VRB05KT P6SM SKC
     FM240000 00000KT P6SM SKC=
KDNL 232049Z 2321/2418 03005KT P6SM SCT250
     FM232200 VRB03KT P6SM SKC=
KMEM 232049Z 2321/2424 18012G21KT P6SM FEW050 BKN120
     FM240000 17010KT P6SM SCT250
     FM241400 18015G22KT P6SM FEW045 SCT250=
KOGB 232049Z 2321/2418 01006KT P6SM SKC
     FM232200 VRB03KT P6SM SKC=
KPDX 232049Z 2321/2418 15004KT P6SM SCT040 BKN060
     FM240900 17007KT P6SM FEW035 OVC070
     FM241200 17007KT P6SM -RA OVC035
     FM241500 18008KT P6SM -RA OVC015=
KSAN 232049Z 2321/2424 24009KT P6SM SCT040
     FM240200 VRB04KT P6SM SKC
     FM241900 29007KT P6SM SKC=
