FTUS80 KWBC 231936
TAF
TAF AMD PABI 231930Z 2319/2420 VRB06KT 9999 BKN006 OVC010 620066
      510043 QNH2989INS
      TEMPO 2319/2323 SCT006 OVC010 620106
      BECMG 2412/2413 VRB06KT 3200 BR BKN012 620123 QNH2989INS
      TEMPO 2413/2420 1600 BR TXM01/2323Z TNM05/2319Z=
