FTUS80 KWBC 231721 RRE
TAF
KFVE 231720Z 2318/2418 17005KT P6SM FEW250
     FM241500 12004KT P6SM OVC120=
KFWA 231720Z 2318/2418 18014G24KT P6SM SCT050
     FM232300 15008KT P6SM BKN100 WS020/20040KT
     FM241400 18012G22KT P6SM SCT250=
KFXE 231720Z 2318/2418 04010KT P6SM SCT040
     FM240100 VRB05KT P6SM FEW040
     FM241500 05008KT P6SM SCT040=
KGCK 231720Z 2318/2418 21029G46KT 3SM BLDU BKN090
     FM240200 23023G38KT P6SM SCT100
     FM240500 27015G25KT P6SM BKN080
     FM241100 35010G18KT P6SM OVC100=
KGFK 231720Z 2318/2418 05008KT P6SM FEW250
     FM232100 11015G21KT P6SM BKN150
     FM240400 10011KT 6SM -RA BR BKN060 WS020/15055KT
     FM240900 16011KT 4SM -RA BR BKN050 WS020/17035KT=
KGLD 231720Z 2318/2418 22035G47KT 4SM BLDU BKN027
      TEMPO 2318/2321 6SM BLDU SKC
     FM232100 24025G37KT 6SM BLDU SKC
     FM240200 33022G32KT P6SM SKC
     FM240700 31012KT P6SM BKN240=
KGYY 231720Z 2318/2418 17019G32KT P6SM SCT100
     FM240000 16015G25KT P6SM SCT050 BKN100
      TEMPO 2404/2408 -SHRA BKN050
     FM241500 19018G29KT P6SM BKN100=
KHOB 231720Z 2318/2418 21020G28KT P6SM FEW120 SCT250
     FM240500 18012KT P6SM BKN100
     FM241400 27015G22KT P6SM SCT100=
KHSV 231720Z 2318/2418 18008G16KT P6SM SKC
     FM232300 16005KT P6SM FEW250=
KHTS 231720Z 2318/2418 VRB04KT P6SM SKC=
