FTUS80 KWBC 231736 RRB
TAF
KROW 231732Z 2318/2418 21018G30KT P6SM FEW080 BKN200
     FM232100 23022G36KT P6SM BKN200
     FM240200 22012G22KT P6SM BKN140
     FM241000 27012KT P6SM VCSH SCT035 BKN060
     FM241400 31014G24KT P6SM VCSH BKN060=
KSAF 231732Z 2318/2418 23022G31KT P6SM SCT050 BKN070
     FM232000 25024G34KT P6SM VCSH SCT035 BKN060
     FM232300 27021G29KT P6SM VCSH BKN070
     FM240600 33010KT P6SM BKN070
     FM241500 32017G30KT P6SM SCT070=
KSUX 231734Z 2318/2418 16019G28KT P6SM SKC
     FM232300 17023G32KT P6SM SCT120 WS012/18050KT
     FM240600 23019G29KT P6SM SCT130
     FM241000 27013G21KT P6SM SCT220=
KTCC 231732Z 2318/2418 23026G38KT P6SM FEW080
     FM232000 24032G45KT P6SM FEW090
     FM240200 26014G24KT P6SM BKN160
     FM241000 28011KT P6SM VCSH SCT035 BKN050=
KTUS 231734Z 2318/2418 34011KT P6SM SCT050 SCT250
     FM232000 28012G22KT P6SM SCT050 BKN200
     FM240100 26012G20KT P6SM VCSH BKN050 BKN200
      TEMPO 2403/2407 P6SM -SHRA OVC040
     FM240900 27008KT P6SM BKN050
     FM241600 34008KT P6SM SCT050=
KUKI 231732Z 2318/2418 VRB04KT P6SM SKC
     FM231900 31009KT P6SM SKC
     FM240300 00000KT P6SM SKC=
NSTU 231735Z 2318/2418 34008KT P6SM VCSH SCT020 BKN040 BKN100
     FM240500 25007KT 6SM -SHRA SCT020 BKN040 OVC100=
PHJH 231735Z 2318/2418 07009KT P6SM SCT030
     FM232000 06015KT P6SM VCSH SCT030 BKN050
     FM240500 06009KT P6SM SCT050=
