FTUS80 KWBC 231833 AAA
TAF AMD
KCOS 231832Z 2319/2418 23020G30KT P6SM SCT200
     FM240300 33015G25KT P6SM SCT200
     FM240600 35012KT P6SM SCT250=
KDRT 231831Z 2319/2418 13009G19KT P6SM SCT020
     FM232000 14013G23KT P6SM SCT035 BKN150
     FM240400 12010KT P6SM OVC022
     FM241100 14011KT P6SM BKN009=
KPUB 231831Z 2319/2418 23025G35KT P6SM SKC
      TEMPO 2319/2322 4SM BLDU
     FM232300 30020G30KT P6SM SCT250
     FM240300 34012G22KT P6SM SCT250
     FM240600 35008KT P6SM SCT250=
