FTUS80 KWBC 231724 RRF
TAF
KRSW 231722Z 2318/2418 06010G15KT P6SM FEW040
     FM240200 05004KT P6SM FEW250
     FM241500 07007KT P6SM FEW250=
KRVS 231722Z 2318/2418 18022G32KT P6SM SCT040 BKN250
     FM240300 17018G25KT P6SM SCT100 BKN250
     FM240600 17015G22KT P6SM SCT035 BKN100 PROB30 2408/2412 4SM
      -SHRA BR BKN035
     FM241200 18012G20KT 4SM -SHRA SCT015 OVC035 PROB30 2412/2415
      2SM -TSRA BKN015CB
     FM241500 18012G20KT 4SM -SHRA SCT008 OVC015 PROB30 2415/2418
      2SM -TSRA BKN008CB=
KSDL 231723Z 2318/2418 25009G19KT P6SM SCT080
     FM240400 VRB05KT P6SM FEW250
     FM241600 03007KT P6SM SKC=
KSFB 231721Z 2318/2418 01009KT P6SM SKC
     FM240200 01004KT P6SM SKC
     FM240900 36003KT P6SM SKC
     FM241400 03008KT P6SM FEW035=
KSME 231721Z 2318/2418 19007KT P6SM FEW250
     FM232000 VRB04KT P6SM FEW250
     FM241500 19006KT P6SM FEW200=
TAF KSNY 231720Z 2318/2418 32015G25KT P6SM BKN150
     FM232000 33025G35KT P6SM -SHRA SCT020 BKN050
     FM240100 31020G30KT P6SM VCSH BKN080=
KSRQ 231722Z 2318/2418 06008KT P6SM FEW040
     FM231900 36008KT P6SM FEW040
     FM240200 06005KT P6SM FEW050
     FM241500 08007KT P6SM SCT050=
KTCL 231721Z 2318/2418 16009KT P6SM FEW250
     FM240000 VRB03KT P6SM BKN250
     FM240900 00000KT P6SM FEW250
     FM241700 16007KT P6SM FEW240=
