FTUS80 KWBC 231945 AAA
TAF AMD
KATL 231944Z 2320/2424 11005KT P6SM FEW200 SCT250
     FM240000 09003KT P6SM SCT200
     FM241500 12006KT P6SM SCT200=
KGCC 231944Z 2320/2418 32020G31KT P6SM OVC008
     FM232200 31023G36KT 3SM BR OVC008
      TEMPO 2322/2402 1SM -SN OVC005
     FM241100 30028G43KT 1 1/2SM BR OVC012
     FM241600 31023G35KT P6SM BKN060=
