FTUS80 KWBC 231742 RRJ
TAF
KPVU 231739Z 2318/2418 30011KT P6SM SCT020 BKN100
     FM231900 30011KT P6SM VCSH SCT020 OVC060
     FM240300 30007KT P6SM VCSH BKN090=
KRAP 231741Z 2318/2418 34020G32KT P6SM BKN120 OVC200
      TEMPO 2321/2324 3SM -RA BR OVC020
     FM240000 32026G40KT 6SM -RA OVC045
     FM240800 31021G36KT P6SM BKN045=
KRDG 231739Z 2318/2418 05007KT P6SM OVC060
     FM240100 03005KT P6SM VCSH SCT025 OVC045
     FM240600 VRB04KT P6SM VCSH SCT008 OVC015
     FM241300 VRB04KT 6SM -DZ BR BKN008
     FM241400 VRB04KT 6SM -DZ BR BKN250
     FM241700 VRB04KT P6SM BKN008=
KRDU 231740Z 2318/2418 01009KT P6SM BKN250
     FM232200 01004KT P6SM SCT028 BKN040 BKN250
      TEMPO 2401/2405 BKN025=
KRIC 231740Z 2318/2418 36011KT P6SM OVC015
     FM232100 36009KT P6SM OVC025
     FM240700 34007KT P6SM BKN007 OVC015
     FM241300 34008KT P6SM BKN015
     FM241500 33008KT P6SM BKN025=
KRWI 231740Z 2318/2418 35009KT P6SM BKN022 BKN250
      TEMPO 2407/2411 3SM BR BKN007=
KSBY 231740Z 2318/2418 02006KT P6SM VCSH OVC008
     FM231900 02012G18KT 6SM -SHRA BR BKN008 OVC012
     FM241000 34006KT P6SM BKN008=
KSEA 231740Z 2318/2424 19005KT P6SM BKN030 BKN250
     FM231900 21006KT P6SM SCT040 OVC250
     FM240900 17008KT P6SM -RA OVC040
     FM241700 18010KT 6SM -SHRA OVC020=
