FTSA31 KWBC 231733
TAF
TAF SPJC 231700Z 2318/2418 18012KT 9999 SCT013 BKN017 TX19/2319Z
      TN15/2411Z
      BECMG 2322/2401 20013KT OVC013
      BECMG 2404/2409 13005KT 7000 OVC009
      BECMG 2411/2413 9999 BKN013
      BECMG 2415/2417 20011KT BKN016=
TAF SPSO 231700Z 2318/2418 27008KT CAVOK TX20/2319Z TN12/2411Z
     FM232100 20014KT CAVOK
      BECMG 2404/2406 08005KT 5000 BR OVC010
      BECMG 2414/2416 22011KT 8000 NSW BKN016=
TAF SPTN 231700Z 2318/2418 21010KT CAVOK TX21/2319Z TN11/2411Z
     FM240200 VRB04KT 8000 OVC020
      BECMG 2403/2407 3000 BR SCT006 BKN010
      BECMG 2413/2415 7000 NSW SCT010 BKN015
     FM241500 21010KT 9000 FEW060=
