FTCA45 KWBC 231712
TAF
TAF MHRO 231700Z 2318/2418 VRB06KT 8000 VCSH BKN020TCU FEW025CB
      TX29/2320Z TN26/2412Z
      TEMPO 2320/2402 5000 RA SCT020TCU SCT025CB
     FM240200 VRB06KT 9999 SCT020TCU
     FM241000 VRB06KT 8000 VCSH SCT020 FEW025CB=
