FTCA31 KWBC 231715
TAF
TAF MKJP 231715Z 2318/2418 VRB05KT 9999 FEW022CB SCT036
      TEMPO 2318/2402 5000 TSRA BKN020CB BKN034
      BECMG 2403/2405 34008KT
      BECMG 2414/2416 15012KT=
TAF MKJS 231715Z 2318/2418 05012KT 9999 FEW020CB SCT036
      TEMPO 2318/2324 5000 TSRA BKN018CB
      BECMG 2401/2403 VRB05KT
      BECMG 2414/2416 05010KT FEW020 FEW022CB=
