FTUS80 KWBC 231754 AAA
TAF AMD
KCOS 231752Z 2318/2418 28020G30KT P6SM SCT200
     FM240300 33015G25KT P6SM SCT200
     FM240600 35012KT P6SM SCT250=
