FTCA35 KWBC 231754
TAF
TAF MRLB 231700Z 2318/2418 12005KT 9999 SCT030 TX32/2319Z
      TN21/2410Z
      TEMPO 2320/2400 27007KT -TSRA SCT020CB
      TEMPO 2408/2414 VRB02KT 3000 BR SCT002=
TAF MRLM 231700Z 2318/2418 05005KT 9999 FEW030 BKN100 TX29/2320Z
      TN22/2411Z
      TEMPO 2318/2320 DZ FEW015TCU
      BECMG 2400/2403 26005KT
      TEMPO 2410/2414 DZ FEW020TCU
      BECMG 2414/2417 04005KT=
TAF MRPV 231700Z 2318/2418 12005KT 9999 SCT010 TX27/2319Z
      TN18/2411Z
      TEMPO 2320/2400 29006KT 3000 TSRA SCT010CB BKN015
      TEMPO 2400/2402 VRB02KT BCFG BKN010
      BECMG 2415/2418 29006KT=
