FTUS80 KWBC 231724
TAF
KANB 231721Z 2318/2418 14007KT P6SM FEW250
     FM240000 00000KT P6SM FEW250=
KASN 231721Z 2318/2418 14007KT P6SM FEW250
     FM240000 00000KT P6SM FEW250=
KAUG 231722Z 2318/2418 07005KT P6SM BKN100
     FM240000 08004KT P6SM SCT020 OVC050
     FM240300 02005KT 4SM -RA BR SCT007 OVC020
     FM240700 02008KT 4SM -SHRA BR OVC005=
KBHM 231721Z 2318/2418 16008KT P6SM FEW250
     FM240000 00000KT P6SM SCT250
     FM241400 16007KT P6SM FEW250=
KBLH 231723Z 2318/2418 31012G19KT P6SM SKC
     FM240000 34010KT P6SM SKC
     FM240400 34015G25KT P6SM SKC=
KCLL 231722Z 2318/2418 18016G28KT P6SM SCT040 BKN060
     FM240300 16013KT P6SM SCT030 BKN250
     FM241000 16010G20KT P6SM BKN029 OVC050
     FM241400 16013G25KT P6SM VCSH BKN025 OVC050=
KCMH 231721Z 2318/2418 17010KT P6SM FEW050 FEW250
     FM232300 14005KT P6SM FEW250
     FM241500 18010KT P6SM FEW180 SCT250=
KCON 231722Z 2318/2418 05006KT P6SM BKN200
     FM232000 04005KT P6SM BKN070 OVC100
     FM240100 04005KT 5SM -RA BR SCT007 OVC015
     FM240400 01005KT 4SM -SHRA BR OVC009
     FM240900 01005KT 2SM -DZ BR VCSH OVC006=
KCRE 231722Z 2318/2418 35010KT P6SM SKC
     FM232300 35005KT P6SM SKC=
KCVG 231721Z 2318/2424 18011KT P6SM FEW050
     FM232300 16006KT P6SM SCT250
     FM241500 18010KT P6SM FEW180 BKN250=
KDAB 231721Z 2318/2418 02010KT P6SM SCT035
     FM240100 36004KT P6SM FEW030
     FM241400 03008KT P6SM FEW040=
