FTUS80 KWBC 231730 RRB
TAF
KDFW 231728Z 2318/2424 17018G28KT P6SM SCT030 SCT200
     FM240700 17015G25KT 6SM BR VCSH OVC025
     FM241500 17013G25KT 6SM SHRA VCTS OVC015CB
     FM242000 27006KT 6SM BR OVC010=
KDLH 231728Z 2318/2418 11011G19KT P6SM BKN090
     FM240000 11012G20KT P6SM BKN045 WS020/15032KT
     FM240200 12012G20KT P6SM -SHRA BKN045 WS020/16033KT
     FM240600 13013G19KT 4SM SHRA VCTS BKN025CB WS020/18042KT
     FM240900 14014G20KT P6SM VCSH BKN025 WS020/18037KT
     FM241500 20016G29KT P6SM BKN040 WS020/20046KT=
KDTW 231729Z 2318/2424 16011KT P6SM FEW080 SCT200
     FM240000 14006KT P6SM SKC
     FM241200 17007KT P6SM FEW150 SCT250=
KEKO 231727Z 2318/2418 28010KT P6SM VCSH SCT040 BKN050
     FM231930 33018G26KT P6SM VCSH SCT045 BKN060
      TEMPO 2320/2324 5SM -SHSN BR SCT020 BKN035
     FM240200 VRB05KT P6SM SCT060 BKN180
     FM241700 23007KT P6SM SCT050 BKN100=
KELY 231727Z 2318/2418 34009KT 6SM -SHSN BR SCT020 OVC040
     FM231930 34015G25KT P6SM VCSH SCT045 BKN060
      TEMPO 2320/2324 4SM -SHSN BR SCT020 BKN030
     FM240200 33010KT P6SM SCT060 BKN100
     FM241700 32007KT P6SM SCT050 BKN100=
KEUG 231728Z 2318/2418 00000KT P6SM SCT250
     FM232200 23005KT P6SM SCT250
     FM241000 17006KT P6SM FEW035 OVC060
     FM241300 18009KT P6SM SHRA OVC029
     FM241600 18012KT P6SM SHRA OVC019=
