FTUS80 KWBC 231803 CCA
TAF COR
KRIC 231759Z 2318/2418 36011KT P6SM OVC012
     FM240700 34007KT P6SM BKN007 OVC015
     FM241300 34008KT P6SM BKN015
     FM241500 33008KT P6SM BKN025=
