FTUS80 KWBC 231745 RRA
TAF
KDRT 231744Z 2318/2418 13009G19KT P6SM OVC016
     FM232000 14013G23KT P6SM SCT035 BKN150
     FM240400 12010KT P6SM OVC022
     FM241100 14011KT P6SM BKN009=
KDSM 231742Z 2318/2418 16018G32KT P6SM FEW120 SCT250
     FM240200 18021G39KT P6SM BKN100 WS020/19050KT
     FM241000 19018G31KT P6SM OVC100 WS020/20045KT
     FM241300 22012KT P6SM OVC080=
TAF KECG 231740Z 2318/2418 32013G20KT 5SM -SHRA BKN008 OVC015
     FM232300 35012G18KT P6SM OVC008
     FM240800 33009KT P6SM BKN009
     FM241500 31010KT P6SM BKN015=
TAF KEVW 231739Z 2318/2418 33010G22KT P6SM VCSH OVC050
     FM240100 29005KT P6SM SCT050 BKN080=
KIAD 231742Z 2318/2424 35008KT P6SM OVC040
     FM240100 35003KT P6SM OVC015
     FM240800 00000KT 6SM -DZ BR BKN015
     FM241400 33005KT P6SM BKN015=
KJMS 231743Z 2318/2418 09015G23KT P6SM SCT200
     FM240300 08014KT P6SM VCTS FEW050 BKN200CB WS015/14040KT
     FM240600 15014KT P6SM BKN150
     FM241100 24020G30KT P6SM VCTS BKN015CB
     FM241400 27025G35KT 6SM -RA BR OVC015=
KMCW 231742Z 2318/2418 16022G33KT P6SM SKC
     FM240200 17023G40KT P6SM VCSH BKN100 WS020/18045KT
     FM240500 18021G35KT P6SM BKN100 WS020/20050KT
     FM241200 22014KT P6SM OVC100=
