FTUS80 KWBC 231942 AAA
TAF AMD
KRIL 231940Z 2320/2418 28010KT P6SM -RA SCT010 OVC030
     FM232100 30007KT 2SM -SN BKN015
     FM240000 27006KT P6SM VCSH SCT020 BKN040
     FM240600 VRB04KT P6SM BKN050=
