FTSA31 KWBC 231639 RRA
TAF
TAF SKSP 231630Z 2318/2418 07010KT 9999 FEW017 PROB40
      TEMPO 2403/2406 TSRA SCT015CB TX32/2319Z TN27/2409Z=
