FTUS80 KWBC 231836 AAA
TAF AMD
KCNU 231833Z 2319/2418 18027G38KT P6SM VCTS BKN120CB
      TEMPO 2319/2320 -TSRA
     FM232100 18027G37KT P6SM BKN120
     FM240600 18023G33KT P6SM BKN120 WS020/20060KT
     FM241000 20015G23KT P6SM VCSH SCT015 BKN025=
