FTUS80 KWBC 231912 AAA
TAF AMD
KASE 231911Z 2319/2418 35007KT 6SM -SN BR SCT009 OVC030
      TEMPO 2319/2323 1/2SM SN BKN005
     FM240000 33007KT 4SM -SHSN BR SCT015 BKN025
     FM240600 VRB04KT P6SM VCSH OVC025=
KSFO 231909Z 2319/2424 34016G24KT P6SM SKC
     FM240400 32012KT P6SM FEW250
     FM240600 29005KT P6SM SKC
     FM242100 31008KT P6SM FEW250=
KTEX 231910Z 2319/2418 26009G20KT P6SM SCT060 BKN070 BKN090
      TEMPO 2319/2323 3SM -SN BKN015
     FM240100 27010KT P6SM -SHSN OVC025
     FM240600 29005KT P6SM BKN050=
PAOM 231909Z 2319/2418 16019G26KT 6SM -SHRA BR BKN010 OVC015
     FM232000 16017KT 2SM -SHRA BR BKN007 OVC015
     FM240000 18011KT 5SM -SHRA BR SCT010 OVC015
     FM240400 22008KT 6SM -SHSN BR SCT007 OVC015
     FM241200 25006KT P6SM VCSH SCT007 OVC015=
PAOT 231910Z 2319/2418 13010KT P6SM VCSH SCT025 OVC040
     FM232300 14015G22KT 4SM -SHSN BR SCT015 OVC025
     FM240000 13020KT 5SM -SHSN BR OVC015
     FM240800 13016KT 4SM -SHSN BR SCT010 OVC015
     FM241200 13016KT 2SM -SHSN BR BKN010 OVC015=
