FTUS80 KWBC 231727 RRC
TAF
KHND 231725Z 2318/2418 35015G22KT P6SM FEW100
     FM240200 01010KT P6SM FEW150
     FM240500 34009KT P6SM SKC
     FM241700 01010KT P6SM SKC=
KHUM 231725Z 2318/2418 13016KT P6SM FEW050 SCT250
     FM240200 VRB03KT P6SM SCT250
     FM241300 VRB04KT P6SM BKN060
     FM241600 15010KT P6SM SCT080=
KIDA 231724Z 2318/2418 31009KT P6SM VCSH FEW020 BKN060
      TEMPO 2320/2324 3SM -SHRA BKN020
     FM240600 VRB06KT P6SM FEW050
     FM241200 20006KT P6SM VCFG SCT002
     FM241600 21012G20KT P6SM FEW050=
KIFP 231725Z 2318/2418 34016G24KT P6SM FEW080
     FM240200 35011KT P6SM SKC
     FM241500 35014G23KT P6SM SKC=
KJXN 231725Z 2318/2418 14012G22KT P6SM SKC
     FM232200 16012KT P6SM BKN100=
KLAN 231725Z 2318/2418 16012G22KT P6SM FEW060
     FM231900 17014G24KT P6SM SCT060 BKN100
     FM232200 16012KT P6SM BKN100
     FM241100 17009KT P6SM BKN090=
KLAS 231725Z 2318/2424 34015G25KT P6SM FEW100
     FM240100 01011G20KT P6SM FEW150
     FM240500 34010G18KT P6SM SKC
     FM241700 01009KT P6SM SKC
     FM242300 14007KT P6SM SKC=
KLBE 231724Z 2318/2418 12005KT P6SM SCT250
     FM240700 13003KT 3SM BR SKC
      TEMPO 2408/2412 1SM BR
     FM241300 20005KT P6SM SCT250=
KLCH 231725Z 2318/2418 17015G24KT P6SM SCT040
     FM232300 15013G19KT P6SM FEW050
     FM240400 14008KT P6SM SCT040
     FM241200 14008KT P6SM OVC050
     FM241700 16013G19KT P6SM OVC050=
