FTUS80 KWBC 231739 AAA
TAF AMD
KPDT 231738Z 2318/2418 26007KT P6SM FEW070 SCT090
     FM240300 16007KT P6SM SCT100 BKN200
     FM240900 16006KT P6SM BKN080 OVC120
     FM241300 21008G15KT P6SM BKN060 OVC090
      TEMPO 2414/2418 -RA OVC050=
