FTUS80 KWBC 231721 RRB
TAF
KBTV 231720Z 2318/2418 17005KT P6SM BKN150
     FM240500 VRB03KT P6SM VCSH OVC080
     FM241500 00000KT P6SM BKN019=
KBWG 231720Z 2318/2418 19012G18KT P6SM SKC
     FM232300 17005KT P6SM FEW250
     FM241600 19010G16KT P6SM BKN250=
KCAR 231720Z 2318/2418 19005KT P6SM FEW250
     FM241200 12004KT P6SM OVC120=
KCDR 231720Z 2318/2418 33010KT P6SM BKN150
     FM232100 30020G30KT P6SM VCSH BKN060=
KCDS 231720Z 2318/2418 21020G30KT P6SM BKN250 PROB30 2406/2412 4SM
      -SHRA BR OVC030
     FM241500 34011KT P6SM OVC015 PROB30 2415/2417 4SM -SHRA BR
      OVC009=
KCGI 231720Z 2318/2418 19015G24KT P6SM BKN040
     FM240000 17009G17KT P6SM SCT250
     FM241400 18015G24KT P6SM SCT250=
KCHS 231720Z 2318/2418 36009KT P6SM FEW250
     FM240000 00000KT P6SM SKC
     FM240600 36003KT P6SM FEW015=
KCIU 231720Z 2318/2418 15009G19KT P6SM FEW250
     FM232100 13010G18KT P6SM SCT250
     FM240100 13010G15KT P6SM BKN060 WS020/17040KT
     FM240800 15011G19KT P6SM OVC070 WS020/19040KT
     FM241200 12010G16KT P6SM BKN060
     FM241700 15012G21KT P6SM BKN080=
KCKB 231720Z 2318/2418 VRB04KT P6SM SKC=
KCKV 231720Z 2318/2418 19012G18KT P6SM SKC
     FM232300 17007KT P6SM FEW250
     FM241700 18013G18KT P6SM FEW250=
