FTUS80 KWBC 231721 RRF
TAF
KHUF 231720Z 2318/2418 18016G25KT P6SM FEW120 SCT250
     FM232300 16012KT P6SM SCT250
     FM240800 14008KT P6SM BKN250 WS020/21035KT
     FM241500 18012G21KT P6SM SCT250=
KHUL 231720Z 2318/2418 20004KT P6SM SCT250
     FM241000 VRB02KT P6SM OVC090
     FM241600 08005KT P6SM -RA OVC035=
KHYS 231720Z 2318/2418 21030G45KT 4SM BLDU SCT080
     FM240300 23021G31KT P6SM SCT090
     FM240600 29015G24KT P6SM SCT090
     FM241000 32013KT P6SM OVC100=
KIND 231720Z 2318/2424 18014G22KT P6SM FEW250
     FM232300 15012KT P6SM FEW250
     FM241000 16008KT P6SM SCT250
     FM241500 19014G22KT P6SM BKN250=
KINK 231720Z 2318/2418 21016G24KT P6SM SCT250
     FM240300 18008KT P6SM BKN100
     FM241400 27020G30KT P6SM FEW100 SCT250=
KJCT 231720Z 2318/2418 17015G25KT P6SM SCT050
     FM240200 17013G23KT P6SM VCSH BKN060
     FM240700 17017G27KT P6SM BKN015
     FM241200 18014G24KT P6SM VCSH BKN025
      TEMPO 2413/2417 VRB15G25KT 3SM -TSRA BKN025CB=
KJEF 231720Z 2318/2418 18015G25KT P6SM VCSH SCT120
     FM231900 18015G25KT P6SM VCSH SCT120
     FM240200 18013KT P6SM BKN250
     FM241500 18014G24KT P6SM OVC045=
KJKA 231720Z 2318/2418 15010KT P6SM SCT250
     FM240300 13003KT P6SM SCT250=
KJLN 231720Z 2318/2418 19030G45KT P6SM SKC
     FM232300 18022G35KT P6SM SCT250
     FM241200 18020G25KT P6SM VCSH OVC050
      TEMPO 2412/2416 4SM -SHRA BR OVC015=
