FTUS80 KWBC 231612 AAA
TAF AMD
KCOD 231609Z 2316/2412 36010KT P6SM VCSH SCT015 OVC030
      TEMPO 2316/2318 3SM -SHSN BKN015 OVC025
     FM231800 01020G40KT P6SM VCSH SCT015 OVC040
     FM240300 33023G35KT P6SM SCT030 OVC080=
KGCC 231610Z 2316/2412 34020G28KT 2SM -SN BR FEW019 BKN025 OVC030
     FM231800 32025G35KT 3/4SM -SN OVC005
     FM232100 32025G35KT 2SM -SN OVC006=
KOKC 231609Z 2316/2412 19022G30KT P6SM SCT120 BKN250
      TEMPO 2316/2318 BKN012 BKN120
     FM240500 18015G24KT P6SM BKN040 OVC120 WS012/19030KT PROB30
      2408/2412 SHRA OVC040=
KSFF 231609Z 2316/2412 VRB03KT P6SM SCT015 SCT029 OVC040
     FM231800 VRB03KT P6SM SCT035 BKN080
     FM232200 VRB03KT P6SM SCT080
     FM240400 20005KT P6SM FEW080 BKN200
     FM240900 20008KT P6SM SCT040 OVC080=
PAWG 231610Z 2316/2412 09015G30KT 6SM -RA BR BKN035 WS020/12040KT
     FM232100 10020G35KT 3SM RA BR OVC020 WS020/13040KT
     FM240400 10015G25KT 5SM -RA BR OVC020=
