FTCA33 KWBC 231618
TAF
TAF TTCP 231600Z 2318/2418 11012KT 9999 SCT025
      TEMPO 2318/2323 5000 SHRA FEW012CB BKN015
      BECMG 2323/2401 00000KT FEW018=
TAF TTPP 231600Z 2318/2418 11012KT 9999 SCT025
      TEMPO 2318/2323 5000 SHRA FEW012CB BKN015
      BECMG 2323/2401 00000KT FEW018=
