FTUS80 KWBC 231727 RRH
TAF
PKWA 231725Z 2318/2418 10010KT P6SM VCSH SCT020 SCT050
      TEMPO 2318/2322 17010G17KT 2SM +SHRA SCT013 BKN020 OVC050=
PTKK 231725Z 2318/2418 VRB06KT P6SM VCSH SCT014 SCT040
      TEMPO 2318/2322 -SHRA SCT014 BKN045=
PTPN 231725Z 2318/2418 NIL=
PTRO 231725Z 2318/2418 27011KT P6SM VCSH SCT015 BKN110
      TEMPO 2318/2322 24014G20KT 5SM SHRA BKN015 OVC110=
PTSA 231725Z 2318/2418 NIL=
PTYA 231725Z 2318/2418 19010KT P6SM VCSH SCT016 BKN120
      TEMPO 2318/2322 15010G20KT 3SM +SHRA OVC016=
