FTUS80 KWBC 231748
TAF
KAVP 231745Z 2318/2418 05003KT P6SM BKN080
     FM240600 05003KT P6SM BKN025
     FM240800 04003KT P6SM OVC015
     FM241200 04003KT P6SM BKN009 AMD NOT SKED=
KBGM 231745Z 2318/2418 13005KT P6SM SCT250
     FM240400 10005KT P6SM BKN090
     FM240900 06004KT P6SM BKN025
     FM241400 09003KT P6SM BKN015=
KCNU 231746Z 2318/2418 19026G36KT P6SM BKN120
     FM231900 18026G36KT P6SM VCTS BKN120CB
     FM232300 18027G37KT P6SM BKN120
     FM240600 18023G33KT P6SM BKN120 WS020/20060KT
     FM241000 20015G23KT P6SM VCSH SCT015 BKN025=
KELM 231745Z 2318/2418 15003KT P6SM FEW250
     FM240400 16003KT P6SM BKN100
     FM241000 VRB03KT 5SM BR BKN080
     FM241300 12003KT P6SM SCT040=
KHUT 231746Z 2318/2418 18029G42KT 6SM BLDU BKN120
     FM240300 18025G40KT P6SM BKN120 WS020/20060KT
     FM240600 20020G30KT P6SM BKN120 WS020/21060KT
     FM241100 33013KT P6SM VCSH SCT030 BKN060=
KICT 231746Z 2318/2418 19029G42KT 6SM BLDU BKN120
     FM240600 19020G30KT P6SM BKN120 WS020/20060KT
     FM241200 33013KT P6SM VCSH SCT030 BKN060=
KITH 231745Z 2318/2418 17006KT P6SM SCT250
     FM240400 10002KT P6SM BKN100=
KRME 231745Z 2318/2418 11005KT P6SM SCT250
     FM240400 09002KT P6SM BKN080
     FM241600 VRB03KT P6SM BKN025=
KRSL 231746Z 2318/2418 20029G44KT 6SM BLDU SKC
     FM232000 21029G44KT 3SM BLDU SCT100
     FM240200 20026G40KT P6SM SCT100
     FM240700 32015G25KT P6SM BKN100=
