FTUS80 KWBC 231736 RRA
TAF
KFSD 231734Z 2318/2418 15017G28KT P6SM FEW250
     FM240000 15015G25KT P6SM BKN100 WS012/18050KT
      TEMPO 2400/2402 VRB25G45KT 6SM -TSRA BKN090CB
     FM240500 22014G24KT P6SM SCT110
     FM241400 26017G26KT P6SM SCT170=
KGUP 231732Z 2318/2418 25025G35KT 5SM -SHRA SCT020 BKN035
     FM232000 26024G34KT P6SM VCSH SCT040 BKN060
     FM240200 28011KT P6SM VCSH FEW045 BKN070
     FM240500 29007KT P6SM BKN070
     FM241600 28015G24KT P6SM SCT090=
KHON 231734Z 2318/2418 14020G26KT P6SM SKC
     FM240000 16013G23KT P6SM BKN110
     FM240300 22011G21KT P6SM SCT200
     FM240600 26014G23KT P6SM BKN150
     FM241700 27020G29KT P6SM BKN050=
KHRL 231732Z 2318/2418 18023G30KT P6SM SCT050 SCT250
     FM240300 17015G21KT P6SM BKN035
     FM241300 15014KT P6SM BKN035
     FM241500 18021G27KT P6SM BKN050=
KLVS 231732Z 2318/2418 23034G48KT P6SM FEW060 SCT150
     FM240200 25014G24KT P6SM SCT110 WS020/25045KT
     FM240500 27011KT P6SM SCT110
     FM241100 33007KT P6SM VCSH BKN100=
KMFE 231732Z 2318/2418 15024G34KT P6SM SCT040 BKN250
     FM240500 15014KT P6SM BKN040
     FM241500 17016G22KT P6SM BKN050=
KOGB 231734Z 2318/2418 01005KT P6SM SKC
     FM232200 VRB03KT P6SM SKC=
KOLS 231734Z 2318/2418 23014G23KT P6SM SCT030 BKN035
     FM240300 20011G18KT P6SM VCSH BKN035 BKN200
      TEMPO 2405/2409 P6SM -SHRA OVC030
     FM241100 21010KT P6SM BKN040
     FM241600 28011KT P6SM SCT040=
