FTUS80 KWBC 232103 AAB
TAF AMD
KMCO 232059Z 2321/2424 05009KT P6SM FEW050
     FM240200 02005KT P6SM SKC
     FM240900 36004KT P6SM FEW012
      TEMPO 2410/2412 5SM BR
     FM241400 04008KT P6SM FEW035
     FM241800 05009KT P6SM SCT040=
KMDW 232102Z 2321/2424 17020G35KT P6SM FEW050 SCT120
     FM240100 17017G26KT P6SM SCT050 BKN100 WS020/19050KT
      TEMPO 2404/2408 -SHRA BKN050
     FM240800 17017G26KT P6SM BKN120
     FM241500 19018G29KT P6SM BKN100=
KMIA 232058Z 2321/2424 06010KT P6SM SCT040
     FM240100 VRB05KT P6SM FEW040
     FM241500 06010KT P6SM SCT040=
KORD 232102Z 2321/2424 17020G35KT P6SM FEW050 SCT120
     FM240100 17017G26KT P6SM SCT050 BKN100 WS020/19050KT
      TEMPO 2404/2408 -SHRA BKN050
     FM240800 17017G26KT P6SM BKN120
     FM241500 19018G29KT P6SM BKN100=
KPBI 232058Z 2321/2418 01012KT P6SM SCT040
     FM240100 VRB05KT P6SM SCT040
     FM241500 06008KT P6SM SCT040=
KRFD 232102Z 2321/2418 17020G33KT P6SM SCT045 SCT120
     FM240100 16017G26KT P6SM -SHRA SCT050 BKN100 WS020/29045KT
     FM240900 17015G24KT P6SM SCT050 BKN100
     FM241500 19018G29KT P6SM BKN100=
KTMB 232058Z 2321/2418 06010KT P6SM SCT040
     FM240100 VRB05KT P6SM FEW040
     FM241500 06008KT P6SM SCT040=
NSTU 232101Z 2321/2418 34012G20KT P6SM VCSH SCT020 SCT040 BKN100
     FM240500 25007KT 6SM -SHRA SCT020 BKN040 OVC100=
PHJH 232100Z 2321/2418 07015KT P6SM VCSH FEW030 SCT050
     FM240500 06009KT P6SM SCT050=
