FTCA32 KWBC 231624
TAF
TAF MDLR 231600Z 2318/2418 09008KT 9999 SCT018 SCT070 PROB40
      2319/2401 5000 TSRA FEW016CB BKN018 BKN070
      BECMG 2321/2323 06006KT=
TAF MDPC 231600Z 2318/2418 07012KT 9999 FEW020CB SCT022 PROB30
      2318/2400 7000 -TSRA FEW16CB BKN018=
TAF MDPP 231600Z 2318/2418 09008KT 9999 FEW020
      BECMG 2401/2403 00000KT=
TAF MDSD 231600Z 2318/2418 14010KT 9999 SCT020 PROB30 2400/2406
      7000 -TSRA FEW014CB BKN016
      BECMG 2400/2402 03005KT=
TAF MDST 231600Z 2318/2418 12004KT 9999 FEW022 SCT300 PRO30
      2318/2400 8000 -SH FEW018 SCT300=
