SAPS31 NZKL 231700
METAR NIUE 231700Z AUTO 24003KT 23/23 Q1010=
METAR NCAI 231700Z AUTO 07004KT //// ////// 26/23 Q1011=
