SAPS31 NZKL 231800
METAR NIUE 231800Z AUTO 24005KT 24/23 Q1011=
METAR NCAI 231800Z AUTO 07004KT //// ////// 26/23 Q1012=
