SAPS31 NZKL 231900
METAR NIUE 231900Z AUTO 26005KT 220V290 24/23 Q1011=
METAR NCAI 231900Z AUTO 05005KT //// ////// 27/23 Q1012=
