SAPS31 NZKL 232100
METAR NIUE 232100Z AUTO 21010KT 24/23 Q1011=
METAR NCAI 232100Z AUTO 04005KT //// ////// 28/24 Q1012=
