SAPS31 NZKL 232000
METAR NIUE 232000Z 22007KT -DZ FEW018 SCT030 BKN110 26/23 Q1011=
METAR NCAI 232000Z AUTO 05005KT //// ////// 27/23 Q1012=
