SMPA01 KWBC 231800 RRA
AAXX 23184
91165 12966 00610 10261 20211 30138 40173 53014 69901 91753 333
10267 555 92318=
91182 12566 60509 10256 20222 30161 40165 53015 69931 91753 333
10267 20244 555 92318=
91190 32966 01310 10278 20178 30144 40163 51012 91754 333 10283
20222 555 92318=
91212 12566 20908 10267 20244 39997 40079 56013 69931 91754 333
10283 20256 555 92318=
91285 12566 62505 10256 20200 30158 40171 52016 60021 91753 333
10256 20211 555 92318=
91334 11472 69906 10261 20237 30071 40074 57008 60011 78082 82271
333 56999 70020 555 92318=
