SMPA01 KWBC 231800
AAXX 23184
91165 NIL=
91182 NIL=
91190 NIL=
91212 NIL=
91217 NIL=
91285 NIL=
91317 NIL=
91334 NIL=
91348 32474 51303 10248 20237 30030 40083 56008 82101 333 563/9
70043 555 92318=
91356 NIL=
91366 NIL=
91369 NIL=
91371 NIL=
91376 32474 80905 10273 20239 30097 40100 53008 84871 333 56299
70373 555 92318=
91408 11463 82805 10237 20228 39997 40054 60041 78082 8737/ 333
56999 70066 555 92318=
91413 11469 81708 10250 20247 30039 40064 55014 60511 78082 8432/
333 56499 70693 555 92318=
91425 NIL=
91434 NIL=
91765 11461 80109 10252 20242 30108 40112 52019 60261 78082 8647/
333 56899 70417 555 92318=
