SPUS80 KWBC 231852
SPECI
KSEA 231849Z 21006KT 10SM SCT010 SCT015 BKN030 09/06 A3016 RMK AO2
     $=
