SPUS70 KWBC 231700
SPECI
KRIL 231657Z AUTO 00000KT 10SM -RA SCT005 BKN021 OVC028 02/02
     A2958 RMK AO2 P0001 T00220017=
KCAG 231657Z AUTO 31008KT 1SM -SN BR FEW005 OVC016 01/M01 A2957
     RMK AO2 P0000 T00061011=
