SPUS70 KWBC 231934
SPECI
KFCI 231931Z AUTO 35006KT 2SM -RA BR BKN007 OVC014 14/14 A3018 RMK
     AO2 CIG 004V010 P0000=
PANI 231931Z AUTO 14010KT 10SM BKN006 M02/M03 A3009 RMK AO2 FZRANO
     $=
PANI 231931Z AUTO 14010KT 10SM BKN006 M02/M03 A3009 RMK AO2 FZRANO
     $=
PAOU 231931Z AUTO 20010KT 10SM SCT027 BKN032 OVC040 04/03 A3021
     RMK AO2 PNO $=
KCDC 231931Z AUTO 36007KT 1/2SM SN FG OVC005 00/M01 A2988 RMK AO2
     T00001011 PNO $=
