SPUS80 KWBC 231800
SPECI
PADG 231758Z 17019G23KT 1 1/4SM -SN BR OVC003 M01/M01 A2973=
