SPUS80 KWBC 231848 CCA
SPECI
KMEH 231842Z AUTO 00000KT 10SM BKN012 03/01 A3003 RMK AO2
     T00330011=
