SPUS80 KWBC 231710
SPECI
PFNO 231707Z AUTO 13008KT 9SM SCT027 M03/M03 A2988 RMK AO2
     FZRANO=
