SPUS80 KWBC 231728
SPECI
PASN 231724Z AUTO 20025G39KT 3SM -RA BR OVC007 06/05 A2977 RMK AO2
     PK WND 20039/1719 CIG 004V010 P0000 T00560050 TSNO $=
KMLF 231725Z AUTO 01005KT 1 3/4SM -SN BR BKN005 OVC010 01/00 A2983
     RMK AO2 P0001 T00060000 $=
