SPUS80 KWBC 231622
SPECI
PANN 231618Z AUTO 31005KT 10SM BKN007 OVC060 M02/M03 A2999 RMK AO2
     CIG 004V012 T10171028 TSNO=
