SPUS70 KWBC 231726
SPECI
KDIK 231722Z AUTO 05015G22KT 10SM OVC011 07/04 A2934 RMK AO2
     T00720039=
KMLC 231722Z AUTO 18012G28KT 140V220 10SM SCT027 24/17 A2981 RMK
     AO2 PK WND 18028/1722 T02440172=
KNFE 231722Z AUTO 34008KT 1 3/4SM +RA BR OVC004 17/15 A3011 RMK
     AO2 P0012 T01670150=
KFHR 231722Z AUTO 00000KT 9SM SCT003 09/09 A3011 RMK AO2
     T00940089=
KHQM 231722Z AUTO 08007KT 10SM SCT003 08/06 A3013 RMK AO2
     T00780061=
KKLS 231723Z AUTO 18005KT 10SM FEW008 SCT020 BKN050 10/08 A3015
     RMK AO2=
KBJC 231721Z 31021G26KT 10SM BKN120 BKN200 20/M02 A2933=
KCPR 231723Z 36004KT 3SM -RA BR BKN013 BKN019 OVC023 03/01 A2950
     RMK AO2 RAE1659B17 P0000 T00280011=
KSPB 231723Z AUTO 00000KT 10SM SCT007 SCT036 OVC055 11/07 A3014
     RMK AO2 T01060072=
