SPUS80 KWBC 232046
SPECI
KHLC 232042Z AUTO 22025G41KT 1 3/4SM HZ BKN030 OVC040 32/02 A2927
     RMK AO2 PK WND 21046/1954 T03170017=
