SPUS80 KWBC 231838
SPECI
KMYL 231834Z AUTO 30007G16KT 10SM FEW018 BKN023 BKN033 02/M05
     A2991 RMK AO2 T00221050=
PAQT 231832Z AUTO 08013KT 2 1/2SM BR OVC005 M07/M08 A3003 RMK AO2
     I1000 T10671078 TSNO=
KHSE 231835Z AUTO 36009G18KT 200V090 10SM OVC005 17/17 A3000 RMK
     AO2 LTG DSNT SW T01720172 $=
KLND 231835Z AUTO 10005KT 1 3/4SM -SN BR FEW010 OVC021 02/00 A2959
     RMK AO2 SNB10 P0001 T00170000=
