SPUS70 KWBC 231824
SPECI
KLVM 231820Z AUTO 27010KT 1 1/4SM -SN SCT013 OVC019 01/M02 A2973
     RMK AO2 P0000 T00111017 $=
KTIW 231820Z 28004KT 10SM BKN014 09/07 A3015 RMK AO2 T00940067=
KCPR 231821Z VRB05KT 8SM -RA SCT011 BKN031 OVC047 03/01 A2951 RMK
     AO2 RAE08B20 P0000 T00330011=
