SPUS70 KWBC 232028
SPECI
KDLN 232024Z AUTO 13009KT 1/2SM SN FZFG BKN016 OVC035 M01/M01
     A2981 RMK AO2 SNB11 P0000 T10111011=
KFNL 232025Z 15007KT 10SM 17/01 A2932 RMK AO2 LTG DSNT SE=
KMRH 232024Z AUTO 34009KT 1 1/2SM +RA BR FEW005 BKN024 OVC031
     17/16 A3006 RMK AO2 RAB1959 P0010 T01670156=
KEWB 232025Z 35004KT 2SM RA BR BKN040 OVC075 14/14 A3029 RMK AO2
     P0011 T01390139=
KLWT 232025Z AUTO 29018G28KT 1SM -SN BR OVC003 M01/M02 A2969 RMK
     AO2 PK WND 29028/2023 P0000 T10111017 $=
PAPG 232026Z 11008G24KT 080V150 10SM RA BKN029 BKN034 OVC041 06/02
     A2940 RMK AO2 P0000=
