SPUS80 KWBC 232004
SPECI
KGCC 232000Z AUTO 10SM OVC011 02/ A2949 RMK AO2 T0022 $=
KWAL 232001Z AUTO 35007KT 2 1/2SM +RA BR OVC010 16/15 A3011 RMK
     AO2 P0000 T01610150=
