SPUS70 KWBC 231932
SPECI
KCAG 231928Z AUTO 27012KT 1/2SM SN FG SCT006 OVC012 00/M01 A2964
     RMK AO2 P0001 T00001011=
KFOK 231927Z 05012G18KT 3SM RA BR SCT060 BKN080 OVC100 13/13 A3025
     RMK AO2 P0014 T01330128 $=
KGJT 231928Z 34004KT 2SM -SN BR FEW011 OVC015 01/01 A2964 RMK AO2
     RAE10SNB10 P0008 T00110006=
KMLP 231927Z AUTO 34003KT 1/4SM FZFG VV001 M01/M03 A2992 RMK AO2
     T10061028=
KVEL 231928Z AUTO 25005KT 10SM BKN009 03/01 A2966 RMK AO2 CIG
     008V013 T00330006=
KDDC 231929Z AUTO 21040G57KT 2 1/2SM HZ CLR 31/05 A2939 RMK AO2 PK
     WND 22060/1859 T03110050 $=
KLWT 231930Z AUTO 29017G25KT 3/4SM -SN BR BKN004 OVC008 M01/M02
     A2969 RMK AO2 PK WND 28026/1859 P0000 T10061017 $=
KSHR 231929Z AUTO 32017G29KT 10SM SCT015 BKN020 OVC047 03/01 A2958
     RMK AO2 PK WND 31029/1927 T00330006=
PARS 231930Z AUTO 00000KT 4SM HZ OVC003 A3000 RMK AO2 FZRANO $=
