SPUS70 KWBC 231818
SPECI
KBTM 231814Z AUTO 30009KT 10SM FEW021 SCT027 OVC037 M01/M03 A2980
     RMK AO2 SNE03 P0000 T10061028=
KCPR 231814Z 33003KT 8SM BKN011 BKN031 OVC039 03/02 A2951 RMK AO2
     RAE08 P0000 T00330017=
KGED 231814Z AUTO 04013G20KT 1 3/4SM -RA BR OVC006 17/15 A3015 RMK
     AO2 P0001 T01670150=
PASC 231814Z 09010KT 10SM SCT004 SCT035 M09/M10 A3000 RMK AO2
     T10891100 $=
KGFA 231815Z AUTO 33012KT 2 3/4SM -SN OVC007 00/M00 A2980 RMK AO2
     VIS 2 3/4V4 SLP121 $=
PASC 231814Z 09010KT 10SM SCT004 SCT035 M09/M10 A3000 RMK AO2
     T10891100 $=
KCAG 231815Z AUTO 29007KT 260V320 3/4SM -SN BR FEW009 BKN015
     OVC019 01/M02 A2961 RMK AO2 P0001 T00061017=
PALG 231816Z AUTO 09008KT 1SM BR OVC003 M03/M03 A3003 RMK AO2
     FZRANO=
