SPUS70 KWBC 232036
SPECI
KITR 232032Z AUTO 23030G52KT 5SM HZ BKN026 27/M04 A2934 RMK AO2 PK
     WND 21053/1957 T02671039 $=
KSTJ 232032Z 17011G28KT 10SM VCTS -RA FEW046 BKN095 OVC120 22/17
     A2949 RMK AO2 PK WND 22043/2013 WSHFT 2015 LTG DSNT N-SE
     RAB15 TSB10E32 P0002 T02220167=
KDLN 232033Z AUTO 13006KT 1/2SM SN FZFG VV013 M01/M01 A2982 RMK
     AO2 SNB11 P0000 T10111011=
KGED 232032Z AUTO 03013KT 2 1/2SM -RA BR BKN007 OVC012 16/15 A3015
     RMK AO2 P0006 T01610150=
KLVM 232032Z AUTO 32006KT 3/4SM -SN BR SCT004 BKN016 OVC021 01/M01
     A2976 RMK AO2 P0000 T00061006 $=
KCQX 232033Z AUTO 04010KT 1 3/4SM +RA BR BKN005 OVC017 14/13 A3027
     RMK AO2 P0011 T01440133=
KRSL 232033Z AUTO 21035G52KT 1 3/4SM HZ OVC035 33/04 A2930 RMK AO2
     PK WND 22055/2006 T03280039=
PANI 232034Z AUTO 13008KT 3SM BR OVC004 M01/M02 A3007 RMK AO2
     FZRANO $=
PANI 232034Z AUTO 13008KT 3SM BR OVC004 M01/M02 A3007 RMK AO2
     FZRANO $=
