SPUS70 KWBC 232032
SPECI
KCAG 232028Z AUTO 27013KT 2 1/2SM -SN BR BKN013 BKN018 OVC033
     01/M02 A2966 RMK AO2 P0006 T00061017=
KDMO 232028Z AUTO 20017G29KT 10SM VCTS SCT110 29/13 A2969 RMK AO2
     PK WND 18033/2000 LTG DSNT SW AND W PRESRR T02890133=
KGUP 232028Z AUTO 24010KT 10SM -RA FEW021 SCT027 OVC037 05/03
     A2978 RMK AO2 P0000 T00500028=
KLVM 232028Z AUTO 33007KT 1 1/2SM -SN BR FEW004 SCT016 OVC022
     01/M01 A2975 RMK AO2 P0000 T00061006 $=
KCPR 232029Z 27013KT 10SM -RA FEW010 BKN016 OVC048 03/02 A2954 RMK
     AO2 PRESRR P0001 T00280017=
KGGW 232029Z AUTO 35007KT 1 1/4SM -SN BR OVC007 01/00 A2959 RMK
     AO2 P0004 T00110000=
KGTF 232029Z 35017G28KT 1 1/4SM -SN BR OVC007 00/M01 A2986 RMK AO2
     PK WND 34028/2026 TWR VIS 2 CIG 005V009 P0000 T00001006 $=
KLBL 232030Z AUTO 21031G41KT 4SM HZ FEW009 SCT022 BKN100 31/07
     A2943 RMK AO2 PK WND 23048/1959=
KOFP 232029Z AUTO 33004KT 8SM SCT007 SCT012 OVC019 15/14 A3018 RMK
     AO2 RAB02E14 P0000 T01500139=
KRIL 232029Z AUTO 30013G20KT 3/4SM -SN BR SCT007 OVC011 01/M01
     A2966 RMK AO2 PK WND 28030/1954 P0001 T00111006=
PANV 232030Z AUTO 14007KT 1SM BR OVC003 M02/M03 A2997 RMK AO2
     FZRANO TSNO=
PANV 232030Z AUTO 14007KT 1SM BR OVC003 M02/M03 A2997 RMK AO2
     FZRANO TSNO=
