SPUS70 KWBC 232000
SPECI
KHDN 231958Z AUTO 29013G18KT 3/4SM -SN BR SCT006 OVC011 M01/M01
     A2963 RMK AO2 P0000 FZRANO=
KLVM 231957Z AUTO 26014KT 1 3/4SM -SN BR FEW008 BKN020 OVC029
     01/M01 A2974 RMK AO2 P0000 T00111011 $=
KPHL 231957Z 05012G20KT 5SM RA SCT030 BKN043 OVC075 16/12 A3021
     RMK AO2 P0001 T01560122 $=
KRIL 231957Z AUTO 31017G30KT 1 1/2SM -SN BR FEW011 BKN018 OVC027
     02/M01 A2962 RMK AO2 PK WND 28030/1954 P0000 T00171006=
