SPUS70 KWBC 231624
SPECI
PANA 231621Z AUTO 15006KT 1SM BR OVC003 M02/M02 A3004 RMK AO2
     FZRANO TSNO $=
KCDC 231620Z AUTO 27008KT 1/4SM +SN FZFG VV008 M01/M02 A2981 RMK
     AO2 T10111017 PNO $=
PANA 231621Z AUTO 15006KT 1SM BR OVC003 M02/M02 A3004 RMK AO2
     FZRANO TSNO $=
KCPR 231621Z 22005KT 3SM -RA BR BKN012 OVC018 02/01 A2950 RMK AO2
     P0003 I1000 T00220011=
KHDN 231622Z AUTO 27005KT 1 1/2SM -SN BR BKN003 OVC017 01/01 A2956
     RMK AO2 RAE05UPB05E15SNB15 P0000 FZRANO=
PAOO 231622Z AUTO 23009KT SCT014 BKN022 OVC031 03/03 A2993 RMK AO2
     PWINO TSNO $=
