SPUS70 KWBC 231856
SPECI
KGFA 231850Z AUTO 34012KT 4SM -SN OVC006 00/M00 A2982 RMK AO2
     SLP128 $=
