SPUS80 KWBC 231826
SPECI
KALS 231822Z AUTO 26012G28KT 10SM BKN021 BKN030 OVC040 09/03 A2961
     RMK AO2 PK WND 22047/1753 RAB1754E19 P0000 T00890028=
