SPUS70 KWBC 231628
SPECI
KCTB 231624Z AUTO 34024G34KT 3/4SM -SN BR BKN008 OVC018 M01/M01
     A2983 RMK AO2 PK WND 33034/1557 P0000 T10061011 $=
KCEZ 231625Z AUTO 29007KT 10SM -RA SCT022 BKN030 OVC046 04/01
     A2972 RMK AO2 RAB03E14B21 P0000 T00440011 $=
PAHY 231626Z AUTO 08022G33KT 020V120 4SM RA BR BKN016 OVC026 08/06
     A2946 RMK AO2 PK WND 13034/1557 P0010 $=
PAOU 231626Z AUTO 26011KT 10SM BKN024 BKN033 OVC041 05/02 A3021
     RMK AO2 PNO $=
