SPUS80 KWBC 231626
SPECI
KMLF 231622Z AUTO 36006KT 1 3/4SM -SN BR OVC003 00/00 A2980 RMK
     AO2 P0002 T00000000 $=
KEAR 231624Z AUTO 19021G26KT 10SM CLR 25/10 A2930 RMK AO2 PK WND
     20029/1611=
KLND 231623Z AUTO 00000KT 3/4SM -SN BR FEW006 OVC011 01/00 A2956
     RMK AO2 P0002 T00060000 $=
