SPUS80 KWBC 231952
SPECI
KHLC 231949Z AUTO 21025G39KT 3SM HZ BKN038 OVC045 32/03 A2927 RMK
     AO2 PK WND 23045/1927=
