SPUS70 KWBC 231844
SPECI
PAGL 231841Z AUTO 17018KT 10SM SCT015 BKN034 OVC050 03/01 A2985
     RMK AO2 PWINO $=
PAGL 231841Z AUTO 17018KT 10SM SCT015 BKN034 OVC050 03/01 A2985
     RMK AO2 PWINO $=
KPPF 231840Z AUTO 19018G34KT 10SM SCT110 26/15 A2967 RMK AO2 PK
     WND 18038/1800 LTG DSNT N T02610150 PWINO $=
KRNT 231840Z 18005KT 10SM BKN016 10/07 A3016 RMK AO2 T01000067=
KMRB 231841Z 00000KT 10SM SCT029 OVC035 18/07 A3023 RMK AO2
     T01780072 $=
KPHF 231841Z 34007KT 1 1/2SM -RA BR OVC005 14/14 A3013 RMK AO2
     RAB27 P0000 T01440139=
KGFA 231840Z AUTO 34014KT 3SM -SN BKN007 OVC011 M00/M00 A2981 RMK
     AO2 BKN V OVC SLP125 $=
KGGW 231841Z AUTO 35007KT 1 1/4SM -SN BR FEW007 OVC014 01/00 A2957
     RMK AO2 RAE1756SNB1756 P0009 T00110000=
KLGU 231841Z AUTO 33013KT 10SM SCT026 BKN044 OVC050 04/M01 A2980
     RMK AO2 T00391011=
