SPUS80 KWBC 231812
SPECI
KSMP 231808Z AUTO 00000KT 8SM SCT002 BKN010 BKN016 01/01 A3005 RMK
     AO2 T00110006 $=
PHNY 231809Z AUTO 35006KT 10SM FEW002 BKN040 23/19 A3008 RMK AO2
     $=
KCNY 231807Z AUTO 21006KT 10SM BKN035 BKN049 OVC060 02/02 A2963
     RMK AO2 RAE1758UPB1758E01 P0000 T00220017=
