SPUS80 KWBC 231636
SPECI
KLND 231632Z AUTO 35006KT 1 3/4SM -SN BR BKN008 OVC013 01/M01
     A2957 RMK AO2 P0002 T00061006 $=
KMLF 231633Z AUTO 01005KT 1 1/2SM -SN BR BKN003 OVC016 01/00 A2981
     RMK AO2 P0002 T00060000 $=
PASN 231633Z AUTO 19028G36KT 4SM -RA BR BKN008 OVC018 06/04 A2982
     RMK AO2 PK WND 19037/1600 PRESFR P0007 T00560044 TSNO $=
