SPUS80 KWBC 231904
SPECI
KALS 231900Z AUTO 25020G28KT 10SM SCT028 SCT050 BKN080 11/01 A2961
     RMK AO2 PK WND 26028/1858 T01110006=
KMHK 231901Z 19017G30KT 10SM VCTS FEW050 BKN120 28/13 A2945 RMK
     AO2 PK WND 18030/1857 LTG DSNT SE T02830128=
PASN 231901Z AUTO 23024G31KT 5SM BR FEW012 SCT016 OVC040 07/06
     A2974 RMK AO2 PK WND 23032/1855 T00670061 TSNO $=
