SPUS70 KWBC 232122
SPECI
KBID 232119Z AUTO 04014G22KT 10SM -RA BKN020 OVC100 12/09 A3026
     RMK AO2 RAB10 P0000=
KCDC 232118Z AUTO 06003KT 9SM SCT007 BKN029 OVC055 01/M01 A2990
     RMK AO2 SNB2056E18 T00061006 PNO $=
KHLN 232118Z 32013G21KT 6SM -SN SCT020 BKN030 OVC035 02/M01 A2988
     RMK AO2 P0000 T00221011=
KMOT 232118Z 03016KT 10SM BKN028 12/05 A2939 RMK AO2 T01220050
     $=
KRWL 232118Z AUTO 28011G17KT 3/4SM -SN BR SCT013 BKN019 OVC047
     01/M01 A2960 RMK AO2 SNB2057 P0000 T00061011=
KASE 232119Z 18019G26KT 10SM FEW035 SCT046 OVC070 02/M03 A2959 RMK
     AO2 PK WND 18026/2119 T00221033=
PAKP 232120Z AUTO 19011KT 2 1/2SM -SN BR CLR M11/M12 A2989 RMK AO2
     VIS 2V3 P0000 FZRANO=
PAKP 232120Z AUTO 19011KT 2 1/2SM -SN BR CLR M11/M12 A2989 RMK AO2
     VIS 2V3 P0000 FZRANO=
