SPUS70 KWBC 231648
SPECI
KLVM 231644Z AUTO 25014KT 7SM -SN BKN028 OVC035 01/M02 A2969 RMK
     AO2 SNB27 P0000 T00111022 $=
KMTJ 231644Z AUTO 17004KT 5SM -RA BR BKN006 OVC013 01/01 A2965 RMK
     AO2 RAE33B44SNB33E44 P0005 T00110011 $=
KPVU 231646Z 31024G30KT 10SM SCT014 BKN110 04/00 A2974 RMK AO2 PK
     WND 31030/1641=
