SPUS80 KWBC 231704
SPECI
KCQT 231701Z AUTO 00000KT 10SM SCT025 18/13 A2987 RMK AO2
     T01830133=
KGCC 231701Z AUTO 1SM -SN VV015 01/ A2946 RMK AO2 P0000 T0006
     $=
PANN 231701Z AUTO 31004KT 4SM BR BKN004 OVC009 M02/M02 A3000 RMK
     AO2 T10171022 TSNO=
PASN 231701Z AUTO 19029G37KT 2 1/2SM -RA BR OVC009 06/05 A2979 RMK
     AO2 PK WND 19037/1659 P0000 T00560050 TSNO $=
