SPUS70 KWBC 232104
SPECI
KLBF 232100Z AUTO 31017G28KT 10SM CLR 26/M01 A2919 RMK AO2 PK WND
     31027/2054 WSHFT 2040 T02561011=
KMIW 232100Z AUTO 15019G30KT 10SM CLR 24/14 A2954 RMK AO2 PK WND
     14030/2055 LTG DSNT NE T02440139=
KPAE 232100Z 16007KT 10SM SCT021 BKN028 BKN043 11/05 A3017 RMK AO2
     T01060050=
KPUW 232100Z AUTO 28010KT 10SM BKN022 BKN028 OVC039 06/02 A3007
     RMK AO2 T00610017 $=
KRWL 232100Z AUTO 25008KT 5SM -SN BR BKN013 OVC030 01/M01 A2959
     RMK AO2 SNB2057 P0000 T00111011=
KTIW 232100Z VRB03KT 10SM CLR 11/07 A3017 RMK AO2 T01060067=
KDIJ 232102Z AUTO 30011KT 1 1/4SM -SN BR SCT007 BKN012 OVC028
     M01/M02 A2978 RMK AO2 P0000=
KOFP 232101Z AUTO 00000KT 2 1/2SM -RA BR OVC021 15/14 A3018 RMK
     AO2 P0000 T01500144=
