SPUS80 KWBC 232028
SPECI
KCAK 232024Z 14010KT 10SM CLR 24/05 A3015 RMK AO2 T02390050=
KWAL 232024Z AUTO 34010KT 1 1/2SM RA BR FEW008 OVC013 16/15 A3010
     RMK AO2 P0015 T01610150=
