SPUS70 KWBC 231832
SPECI
PAKK 231829Z AUTO 18008KT 10SM BKN016 OVC047 00/00 A2986 RMK AO2
     FZRANO=
KCTB 231829Z AUTO 34022G29KT 1SM -SN BR BKN009 OVC014 00/M01 A2988
     RMK AO2 PK WND 34032/1806 P0001 T00001006 $=
PAKK 231829Z AUTO 18008KT 10SM BKN016 OVC047 00/00 A2986 RMK AO2
     FZRANO=
KCHO 231829Z 06008KT 10SM BKN030 OVC044 20/09 A3020 RMK AO2
     T02000089=
KGJT 231829Z 25011G19KT 10SM -RA SCT012 BKN019 OVC023 04/03 A2961
     RMK AO2 P0007 T00440028=
KMIV 231829Z AUTO 03008KT 1 1/2SM -RA BR SCT006 SCT013 OVC019
     16/15 A3017 RMK AO2 RAB1758 P0003 T01610150 $=
