SPUS70 KWBC 231916
SPECI
KBLM 231913Z AUTO 02009KT 10SM -RA SCT019 OVC032 14/14 A3023 RMK
     AO2 P0000=
KCTB 231912Z AUTO 34019G29KT 2 1/2SM -SN BR OVC008 00/M01 A2990
     RMK AO2 PK WND 34029/1907 CIG 006V011 P0001 T00001006 $=
KEEO 231912Z AUTO 32006KT 2SM -SN BR BKN021 BKN026 OVC031 M01/M02
     A2963 RMK AO2 P0000 T10061022=
KFCI 231913Z AUTO 34006KT 2 1/2SM -RA BR SCT009 OVC016 14/14 A3018
     RMK AO2 P0000=
KGDV 231913Z AUTO 02009KT 2 1/2SM -RA BR OVC006 06/06 A2947 RMK
     AO2 RAB04 CIG 004V008 P0000=
KGFA 231910Z AUTO 34013KT 5SM -SN OVC007 00/00 A2982 RMK AO2
     SLP128 $=
