SPUS80 KWBC 231820
SPECI
PAQT 231815Z AUTO 10009KT 1 3/4SM BR OVC006 M07/M08 A3004 RMK AO2
     T10671078 TSNO=
