SPUS80 KWBC 232140 CCA
SPECI
KMEH 232133Z AUTO VRB04KT 10SM FEW024 BKN036 OVC065 04/00 A3008
     RMK AO2 T00440000=
