SPUS80 KWBC 231918
SPECI
KHVR 231914Z AUTO 36014G21KT -SN FEW009 BKN013 OVC018 02/01 A2977
     RMK AO2 SNB04 P0000 T00170006 $=
