SPUS80 KWBC 231914
SPECI
KSMP 231911Z AUTO VRB03KT 9SM FEW003 SCT009 BKN015 02/01 A3007 RMK
     AO2 T00220011 $=
KRIW 231911Z AUTO 02013KT 9SM SCT007 OVC055 01/00 A2959 RMK AO2
     SNE01 P0000 T00110000=
