SPUS70 KWBC 231938
SPECI
KPVG 231935Z AUTO VRB04KT 8SM -RA OVC006 14/14 A3011 RMK AO2 CIG
     003V009 PNO $=
KCQX 231934Z AUTO 04007KT 10SM -RA BKN006 BKN030 OVC065 15/13
     A3027 RMK AO2 P0002 T01500133=
KGJT 231934Z 33004KT 3SM -SN BR FEW005 FEW011 OVC017 01/01 A2964
     RMK AO2 RAE10SNB10 P0008 T00110011=
KHLN 231934Z 31008KT 10SM BKN022 BKN029 OVC034 02/M01 A2985 RMK
     AO2 SNE10 P0000 T00221006=
PAHY 231935Z AUTO 13019G27KT 5SM RA BR FEW015 BKN028 OVC039 09/07
     A2936 RMK AO2 PK WND 13029/1922 P0007 $=
PASK 231936Z AUTO 12005KT 10SM SCT021 BKN060 M02/M02 A2991 RMK AO2
     FZRANO=
KGGW 231935Z AUTO 34005KT 3/4SM -SN BR OVC006 01/00 A2959 RMK AO2
     P0005 T00110000=
KIXD 231935Z 18021G35KT 10SM VCTS SCT100 27/14 A2959 RMK AO2 PK
     WND 18040/1900 VCTS SE T02670139 $=
