SPUS80 KWBC 231824
SPECI
KMLF 231820Z AUTO 03005KT 10SM -SN SCT003 BKN007 OVC018 01/00
     A2986 RMK AO2 CIG 006V011 P0000 T00110000 $=
KWAL 231821Z AUTO 01009G16KT 2 1/2SM -RA BR OVC009 17/16 A3011 RMK
     AO2 RAB04 P0000 T01670156=
