SPUS70 KWBC 231922
SPECI
KGBD 231919Z AUTO 20034G43KT 2 1/2SM HZ BKN029 OVC037 33/09 A2935
     RMK AO2 PK WND 20043/1918 VIS 1 3/4V4=
KGJT 231918Z 32007KT 1 3/4SM -SN BR OVC013 01/01 A2965 RMK AO2
     RAE10SNB10 P0006 T00110006=
KLWT 231918Z AUTO 29017G25KT 1SM -SN BR BKN004 BKN008 OVC021
     M01/M02 A2969 RMK AO2 PK WND 28026/1859 P0000 T10061017 $=
KMRH 231918Z AUTO 34011KT 2SM RA BR SCT013 BKN024 OVC065 16/16
     A3006 RMK AO2 RAB10 P0002 T01610156=
KTOP 231918Z 17022G35KT 10SM VCTS CLR 28/14 A2951 RMK AO2 PK WND
     17037/1858 LTG DSNT S-NW T02830144=
PAHY 231919Z AUTO 12020KT 5SM RA BR SCT019 OVC036 10/08 A2937 RMK
     AO2 P0002 $=
PAOU 231919Z AUTO 21010KT 10SM BKN027 BKN032 OVC043 04/03 A3020
     RMK AO2 PNO $=
PARY 231919Z AUTO 10003KT 9SM -SN FEW020 SCT026 OVC045 M03/M04
     A3001 RMK AO2 P0000 FZRANO=
KBID 231920Z AUTO 05011G19KT 10SM -RA SCT014 BKN060 OVC070 14/12
     A3027 RMK AO2 P0000=
KFOK 231918Z 05013KT 2 1/2SM +RA BR BKN065 BKN075 OVC090 13/13
     A3025 RMK AO2 P0010 T01330128 $=
KGTF 231919Z 34018G26KT 3SM -SN BR OVC008 00/M01 A2983 RMK AO2 PK
     WND 34026/1916 SFC VIS 4 CIG 006V013 P0000 T00001006 $=
KHDN 231920Z AUTO 28018G22KT 3/4SM -SN BR FEW004 BKN009 OVC025
     M01/M01 A2960 RMK AO2 CIG 008V014 P0000 FZRANO=
KOFP 231919Z AUTO 33004KT 5SM -RA BR OVC006 14/13 A3019 RMK AO2
     CIG 004V009 P0001 T01440133=
PAGN 231920Z AUTO 07010G19KT 040V100 8SM -RA BKN009 OVC034 03/03
     A2945 RMK AO2 P0001=
PADL 231920Z 00000KT 10SM FEW003 M01/M02 A3011 RMK AO2 VIS S 1=
PAGN 231920Z AUTO 07010G19KT 040V100 8SM -RA BKN009 OVC034 03/03
     A2945 RMK AO2 P0001=
