SPUS70 KWBC 231920
SPECI
KLBL 231917Z AUTO 21036G45KT 1 3/4SM HZ SCT016 BKN021 OVC034 31/06
     A2945 RMK AO2 PK WND 23047/1858=
KPVG 231917Z AUTO VRB05KT 6SM RA BR OVC004 14/14 A3011 RMK AO2 PNO
     $=
KOUN 231915Z 15021G33KT 10SM CLR 27/15 A2966=
KFOE 231917Z 18026G36KT 10SM TS SCT120 28/16 A2952 RMK AO2 LTG
     DSNT SW-NW TSB17 T02780161 $=
