SPUS70 KWBC 231718
SPECI
KECG 231714Z 33014G26KT 3/4SM +RA BR SCT005 BKN018 OVC090 16/15
     A3007 RMK AO2 PK WND 33026/1708 P0020 T01560150=
KIAD 231714Z 35008KT 10SM FEW028 OVC042 17/11 A3024 RMK AO2
     T01670106=
KLVM 231714Z AUTO 25013KT 2SM -SN OVC019 01/M02 A2970 RMK AO2 VIS
     1 1/4V3 P0000 T00111017 $=
TISX 231710Z 11011KT 10SM SCT027 SCT032 BKN041 31/23 A2991 RMK AO2
     T03110233 $=
KPUW 231714Z AUTO 28011KT 10SM BKN010 03/01 A3001 RMK AO2 CIG
     009V014 T00330011 $=
KPWT 231715Z AUTO 19003KT 1 1/2SM BR OVC002 07/06 A3013 RMK AO2
     VIS 1/2V5=
KNFE 231715Z AUTO 35007G16KT 2SM +RA BR OVC004 17/15 A3011 RMK AO2
     P0010 T01670150=
KBTM 231715Z AUTO 30010G17KT 2 1/2SM -SN BR FEW016 BKN029 OVC035
     M01/M03 A2978 RMK AO2 P0000 T10111028=
KBVX 231716Z AUTO 20012G22KT 10SM OVC032 23/16 A2997 RMK AO2=
