SPUS70 KWBC 231954
SPECI
PANI 231951Z AUTO 14010KT 3/4SM BR OVC004 M02/M03 A3009 RMK AO2
     CIG 002V006 FZRANO RVRNO $=
KIXD 231950Z 16024G35KT 10SM -RA SCT100 SCT110 26/15 A2956 RMK AO2
     PK WND 18040/1900 LTG DSNT E AND NW RAB41 P0000 $=
PANI 231951Z AUTO 14010KT 3/4SM BR OVC004 M02/M03 A3009 RMK AO2
     CIG 002V006 FZRANO RVRNO $=
PASD 231952Z 24007KT 10SM FEW024 SCT048 BKN060 07/02 A3024 RMK AO2
     PNO $=
KACK 231951Z 03017KT 4SM -RA BR BKN005 OVC038 16/15 A3023 RMK AO2
     P0008=
KTOP 231951Z 16013G22KT 10SM VCTS SCT031 SCT080 BKN110 25/18 A2950
     RMK AO2 PK WND 21041/1928 LTG DSNT N-E RAB29E50 TSB27E45
     P0002=
