SPUS80 KWBC 231722
SPECI
KHSE 231718Z AUTO 34009G17KT 300V010 9SM -RA OVC004 17/17 A3001
     RMK AO2 LTG DSNT NE RAE1657B14 P0000 T01720172 $=
KRIW 231718Z AUTO 36015G21KT 1/2SM SN FG VV007 00/M01 A2958 RMK
     AO2 P0003 T00001006=
