SPUS70 KWBC 231756
SPECI
PAFS 231753Z AUTO 00000KT 10SM OVC013 M03/M03 A3006 RMK AO2
     FZRANO=
PAHL 231753Z AUTO 15005KT 4SM -SN BR OVC027 M02/M03 A3000 RMK AO2
     P0000 FZRANO=
PAGL 231754Z AUTO 17018KT 10SM OVC015 03/01 A2986 RMK AO2 PWINO
     $=
PAGL 231754Z AUTO 17018KT 10SM OVC015 03/01 A2986 RMK AO2 PWINO
     $=
