SPUS70 KWBC 231720
SPECI
KLWT 231716Z AUTO 28013G20KT 1SM -SN BR BKN003 OVC007 M01/M02
     A2966 RMK AO2 P0000 T10061017 $=
PAKI 231717Z AUTO 18009KT 10SM SCT019 BKN025 OVC034 04/ A2995 RMK
     AO2 RAE1658 PNO $=
KDGW 231717Z AUTO 32012G22KT 10SM -RA BKN014 BKN019 OVC034 03/01
     A2949 RMK AO2 PK WND 32026/1655 P0000 T00330011=
KGCN 231717Z 27009G19KT 10SM SCT020 BKN025 04/M01 A2982 RMK AO2
     T00391011=
KHIO 231717Z 27003KT 10SM SCT010 BKN012 BKN055 08/07 A3014 RMK AO2
     T00830072=
KPWT 231718Z AUTO 18003KT 3/4SM BR OVC002 06/06 A3013 RMK AO2 VIS
     1/4V2 1/2=
