SPUS80 KWBC 231700
SPECI
PADG 231657Z 12016G24KT 4SM -SN BR OVC007 M01/M01 A2973=
