SPUS70 KWBC 232016
SPECI
KHDN 232013Z AUTO 29012G19KT 3SM -SN BR FEW006 BKN011 OVC027
     M01/M01 A2963 RMK AO2 P0000 FZRANO=
KMRH 232012Z AUTO 34010KT 2SM +RA BR FEW007 BKN024 OVC030 17/16
     A3006 RMK AO2 RAB1959 P0003 T01670156=
KMVY 232013Z 01008KT 1 3/4SM +RA BR OVC021 14/13 A3027 RMK AO2
     P0007 T01390128=
KPUW 232013Z AUTO 29008KT 10SM BKN018 BKN036 07/02 A3005 RMK AO2
     T00670022 $=
KRSL 232013Z AUTO 21036G55KT 1 1/2SM HZ BKN033 OVC041 33/05 A2930
     RMK AO2 PK WND 22055/2006 T03330050=
PAPB 232013Z AUTO 24025G32KT 9SM FEW023 SCT033 07/ A2983 RMK AO2
     PK WND 24037/1955 T0067 TSNO $=
PAPB 232013Z AUTO 24025G32KT 9SM FEW023 SCT033 07/ A2983 RMK AO2
     PK WND 24037/1955 T0067 TSNO $=
