SPUS80 KWBC 231624
SPECI
KBZN 231621Z 29004KT 8SM -SN BKN031 OVC038 00/M01 A2975 RMK AO2
     P0001 T00001011=
