SPUS70 KWBC 231924
SPECI
KBJC 231925Z 28014G24KT 10SM -RA BKN080 BKN120 13/00 A2936=
KCTB 231921Z AUTO 34023G29KT 3SM -SN BR BKN008 OVC014 00/M01 A2990
     RMK AO2 PK WND 34029/1916 CIG 006V011 P0002 T00001006 $=
KEEO 231920Z AUTO 31004KT 1 1/4SM -SN BR BKN021 OVC026 M01/M02
     A2963 RMK AO2 P0000 T10061022=
KHWV 231919Z AUTO 01004KT 3SM RA BR SCT035 BKN050 OVC065 13/11
     A3026 RMK AO2 P0011 T01280106=
KCDC 231921Z AUTO 36008KT 1 1/4SM -SN BR BKN005 OVC014 00/M01
     A2988 RMK AO2 T00001006 PNO $=
KFCI 231922Z AUTO 02007KT 1 3/4SM -RA BR SCT007 OVC014 14/14 A3018
     RMK AO2 P0000=
KGEY 231921Z AUTO 34016G23KT 10SM -RA SCT020 BKN026 OVC055 03/02
     A2960 RMK AO2 RAB03 P0000 T00330017=
KMLS 231921Z AUTO 31018KT 10SM -RA OVC013 04/03 A2948 RMK AO2
     P0003 T00440033=
KRSL 231922Z AUTO 20037G48KT 1 3/4SM HZ BKN032 OVC039 33/07 A2930
     RMK AO2 PK WND 20048/1921 T03280067=
