SPUS80 KWBC 231640
SPECI
KGEG 231637Z 19004KT 10SM SCT024 BKN039 03/01 A2997 RMK AO2
     T00330006 $=
