SPUS70 KWBC 231746
SPECI
KCTB 231742Z AUTO 33026KT 3SM -SN BR BKN007 OVC025 00/M01 A2985
     RMK AO2 PK WND 34034/1724 SNB1656 P0001 T00001011 $=
KEEO 231742Z AUTO VRB03KT 1SM -SN BR OVC009 01/00 A2957 RMK AO2
     VIS 1/4V2 RAE1655UPB08E11SNB11 P0002 T00060000=
KGLD 231742Z AUTO 22027G47KT 2SM HZ BKN024 26/M03 A2931 RMK AO2 PK
     WND 22047/1738 T02561033=
KHDN 231744Z AUTO 27011KT 1SM -SN BR OVC003 00/00 A2958 RMK AO2
     P0001 FZRANO=
KMLS 231743Z AUTO 29008KT 2SM RA BR FEW009 BKN020 OVC025 06/06
     A2948 RMK AO2 P0011 T00560056=
KNFE 231739Z AUTO 35011G15KT 3SM RA BR OVC005 17/15 A3010 RMK AO2
     P0016 T01670150=
