SPUS70 KWBC 231926
SPECI
KBWI 231923Z 36008KT 10SM BKN050 OVC065 19/11 A3019 RMK AO2
     T01890106 $=
KGLD 231923Z AUTO 23024G45KT 4SM HZ BKN028 OVC037 27/M05 A2927 RMK
     AO2 PK WND 23051/1859 T02721050=
