SPUS80 KWBC 231946
SPECI
KMYL 231943Z AUTO 03006KT 9SM FEW023 SCT032 BKN060 02/M06 A2992
     RMK AO2 SNB07E42 P0000 T00221056=
