SPUS80 KWBC 232116 CCA
SPECI
KMEH 232110Z AUTO VRB03KT 10SM BKN026 BKN034 OVC042 04/00 A3008
     RMK AO2 T00390000=
