SPUS80 KWBC 231808
SPECI
PASN 231804Z AUTO 21027G36KT 4SM -RA BR OVC005 07/06 A2975 RMK AO2
     PK WND 20036/1801 CIG 004V008 P0000 T00670056 TSNO $=
KLND 231804Z AUTO 00000KT 10SM BKN010 BKN031 OVC055 02/00 A2958
     RMK AO2 CIG 007V014 T00220000=
KMLF 231804Z AUTO 02005KT 3SM -SN BR BKN003 BKN009 OVC018 01/00
     A2985 RMK AO2 P0000 T00110000 $=
