SPUS70 KWBC 232118
SPECI
KCAG 232114Z AUTO 26009KT 2 1/2SM -SN BR FEW008 BKN012 OVC017
     01/M02 A2968 RMK AO2 P0000 T00061017=
KRWL 232114Z AUTO 27008KT 1SM -SN BR FEW009 BKN015 OVC049 01/M01
     A2959 RMK AO2 SNB2057 P0000 T00061011=
KPUW 232114Z AUTO 28009KT 10SM SCT021 SCT027 OVC039 06/01 A3007
     RMK AO2 T00610011 $=
KECP 232115Z 18007KT 10SM CLR 26/07 A3008 RMK AO1 T02610072=
KGXY 232116Z 04005KT 10SM -RA FEW033 SCT048 OVC095 14/06 A2935 RMK
     AO2 LTG DSNT E AND NW TSE10 P0002 $=
PARS 232116Z AUTO 07003KT 10SM OVC007 A2997 RMK AO2 FZRANO $=
