SPUS80 KWBC 232114
SPECI
KSXT 232110Z AUTO 00000KT 10SM SCT026 SCT032 06/02 A3016 RMK AO2
     T00560017=
PABE 232111Z 15011KT 10SM -RA FEW022 BKN028 OVC036 00/M01 A2994
     RMK AO2 UPE2055RAB2056SNB2055E2056 P0000 T00001006=
KACY 232111Z 04010G20KT 4SM -RA BR OVC006 15/14 A3017 RMK AO2 CIG
     005V011 P0001 T01500139=
PABE 232111Z 15011KT 10SM -RA FEW022 BKN028 OVC036 00/M01 A2994
     RMK AO2 UPE2055RAB2056SNB2055E2056 P0000 T00001006=
