SPUS70 KWBC 231940
SPECI
KHYS 231937Z AUTO 21036G45KT 3SM HZ OVC032 32/04 A2930 RMK AO2
     $=
KVEL 231937Z AUTO 24004KT 10SM SCT009 03/01 A2966 RMK AO2
     T00330006=
KBJC 231937Z 31005KT 10SM VCSH BKN080 BKN120 13/01 A2936=
KMLP 231936Z AUTO 00000KT 3/4SM BR VV001 M01/M03 A2992 RMK AO2
     T10061028=
