SPUS80 KWBC 231938
SPECI
KHLC 231934Z AUTO 20030G45KT 2 1/2SM HZ BKN036 OVC046 32/04 A2927
     RMK AO2 PK WND 23045/1927 T03170039=
