SPUS80 KWBC 232100
SPECI
KHLC 232057Z AUTO 22023G41KT 2SM HZ BKN029 OVC038 32/01 A2927 RMK
     AO2 PK WND 22041/2057 T03170011=
PADG 232058Z 17012G15KT 1SM -SN BR OVC003 M01/M01 A2976=
