SPUS80 KWBC 231818
SPECI
KRIW 231814Z AUTO 01013G23KT 2SM -SN BR BKN006 OVC016 01/00 A2958
     RMK AO2 P0000 T00060000=
KCNU 231815Z AUTO 19027G38KT 10SM VCTS SCT120 27/15 A2967 RMK AO2
     PK WND 17038/1809 LTG DSNT SW AND NW T02670150 $=
