SPUS70 KWBC 232108
SPECI
KCAG 232104Z AUTO 26009KT 3/4SM -SN BR FEW009 OVC015 00/M02 A2968
     RMK AO2 P0000 T00001017=
KHYA 232104Z 36012KT 2 1/2SM RA BR BKN007 OVC019 13/13 A3025 RMK
     AO2 P0001 T01330133=
KCQX 232105Z AUTO 01007G15KT 340V040 4SM -RA BR BKN004 OVC038
     14/13 A3026 RMK AO2 P0002 T01440133=
KEWK 232106Z AUTO 18031G42KT 7SM FEW023 27/14 A2947 RMK AO2 PK WND
     18042/2102=
KILG 232105Z 04009KT 1 1/4SM R01/6000VP6000FT +RA BR OVC028 15/13
     A3021 RMK AO2 P0004 T01500128=
