SPUS70 KWBC 231900
SPECI
KPVG 231857Z VRB04KT 3SM OVC002 14/14 A3011 RMK AO2 SLP301 PWINO
     PNO FZRANO RVRNO=
