SPUS80 KWBC 231828
SPECI
KHVR 231824Z AUTO 36015KT SCT011 OVC017 02/01 A2975 RMK AO2
     T00170006 $=
