SPUS70 KWBC 232046
SPECI
PAFM 232043Z AUTO 12008G15KT 9SM -SN BKN009 OVC020 M01/M02 A2998
     RMK AO2 SNB25 P0000 FZRANO=
PAFM 232043Z AUTO 12008G15KT 9SM -SN BKN009 OVC020 M01/M02 A2998
     RMK AO2 SNB25 P0000 FZRANO=
KDGW 232043Z AUTO 32019G29KT 10SM SCT024 OVC041 05/00 A2950 RMK
     AO2 PK WND 33029/2039 T00500000=
KDMO 232043Z AUTO 20016G24KT 10SM BKN110 28/13 A2970 RMK AO2 PK
     WND 18033/2000 T02830133=
KFNL 232044Z VRB05KT 10SM -TSRA BKN075 OVC110 17/02 A2932 RMK AO2
     LTG DSNT SE TSB38RAB36=
KRSL 232043Z AUTO 22033G51KT 3SM HZ BKN036 OVC044 33/04 A2929 RMK
     AO2 PK WND 22055/2006 T03280044=
KRWL 232043Z AUTO 27006KT 5SM -SN BR FEW011 SCT030 OVC040 01/M01
     A2959 RMK AO2 SNB07 P0000 T00111011=
KCTB 232043Z AUTO 34024G31KT 7SM OVC012 00/M01 A2993 RMK AO2 PK
     WND 34033/2032 SNE34 P0003 T00001006 $=
KLVM 232043Z AUTO 32007KT 1/4SM SN FG SCT003 BKN009 OVC016 00/M01
     A2977 RMK AO2 P0002 T00001011 $=
KMYF 232043Z 18007G15KT 140V200 10SM FEW040 19/09 A2985 RMK AO2
     T01890089=
