SPUS80 KWBC 231916
SPECI
KSXT 231912Z AUTO 00000KT 10SM FEW005 BKN011 OVC021 03/02 A3016
     RMK AO2 T00330022=
KLND 231912Z AUTO 09007KT 10SM UP BKN008 BKN014 OVC019 02/01 A2959
     RMK AO2 UPB06SNE1857 CIG 005V013 P0000 T00170006=
