SPUS70 KWBC 232014
SPECI
KCDC 232010Z AUTO 34008KT 3/4SM -SN BR BKN004 OVC012 M01/M01 A2989
     RMK AO2 T10061011 PNO $=
KGDV 232011Z AUTO 01010KT 2 1/2SM -RA BR OVC004 06/06 A2946 RMK
     AO2 P0000=
TISX 232004Z 04009KT 10SM SCT029 30/23 A2988 RMK AO2 T03000228
     $=
KCAG 232011Z AUTO 27014KT 3SM -SN BR FEW008 BKN015 OVC031 01/M02
     A2965 RMK AO2 P0004 T00061017=
KCTB 232011Z AUTO 34025G31KT 5SM -SN BR BKN009 BKN013 OVC020
     00/M01 A2991 RMK AO2 PK WND 35031/2003 P0001 T00001006 $=
KECG 232011Z 32011KT 2 1/2SM -RA BR OVC007 16/15 A3007 RMK AO2
     RAB03 P0000 T01610150=
KLBL 232012Z AUTO 22034G47KT 2SM HZ FEW007 BKN017 OVC033 30/05
     A2944 RMK AO2 PK WND 23048/1959 VIS 1 1/4V3=
KSHR 232011Z AUTO 31026G33KT 10SM SCT017 OVC055 04/00 A2958 RMK
     AO2 PK WND 31033/2008 T00390000=
