SPUS80 KWBC 232016
SPECI
KLND 232014Z AUTO 05007KT 10SM SCT010 OVC016 03/01 A2960 RMK AO2
     T00280006=
KLXV 232013Z AUTO 30005KT 1 1/2SM -SN BR BKN030 BKN038 OVC048
     M01/M03 A2958 RMK AO2 P0000 T10111033 $=
