SPUS80 KWBC 232050
SPECI
KNAK 232046Z AUTO 36007KT 10SM -RA SCT027 OVC037 16/12 A3019 RMK
     AO2 P0003 T01560122=
