SPUS70 KWBC 231652
SPECI
PALG 231649Z AUTO 10006KT 1SM -SN BR OVC003 M03/M03 A3006 RMK AO2
     SNB33 P0000 FZRANO=
PATE 231649Z AUTO 09012KT 9SM -SN SCT029 OVC038 M01/M03 A2974 RMK
     AO2 P0000 FZRANO=
KCAG 231648Z AUTO 30007KT 3SM -SN BR FEW005 BKN018 OVC022 01/00
     A2957 RMK AO2 P0003=
KEEO 231648Z AUTO 30004KT 10SM -RA FEW006 BKN012 OVC017 01/01
     A2955 RMK AO2 UPB02E06RAB43SNE02B10E43 P0000=
KMLS 231648Z AUTO 27009KT 2 1/2SM RA BR SCT008 BKN020 OVC024 06/05
     A2947 RMK AO2 P0012=
KITR 231648Z AUTO 23038G52KT 1 1/2SM HZ OVC023 24/M04 A2936 RMK
     AO2 PK WND 23056/1635 $=
