SPUS70 KWBC 232026
SPECI
KCTB 232021Z AUTO 34025KT 5SM -SN BR SCT009 OVC018 00/M01 A2992
     RMK AO2 PK WND 35031/2003 P0001 T00001006 $=
KMLP 232021Z AUTO 00000KT 1/2SM FZFG VV001 M01/M03 A2994 RMK AO2
     T10061028=
KACK 232023Z 03017KT 3SM RA BR OVC004 16/15 A3022 RMK AO2 P0008
     T01560150=
KHUT 232023Z 17034G45KT 3SM BLDU FEW026 28/12 A2944 RMK AO2 PK WND
     18048/2001 T02830122=
KIML 232023Z AUTO 32018G31KT 10SM CLR 23/M04 A2922 RMK AO2 PK WND
     25054/2001 WSHFT 2003 T02331039 $=
KRSL 232023Z AUTO 20037G51KT 2SM HZ OVC035 33/05 A2930 RMK AO2 PK
     WND 22055/2006 T03330050=
