SPUS80 KWBC 231844
SPECI
PAQT 231839Z AUTO 09012KT 8SM OVC005 M07/M08 A3003 RMK AO2 I1000
     T10671078 TSNO=
