SPUS80 KWBC 232140
SPECI
PAOT 232136Z 10011KT 3SM -SN BR BKN009 BKN019 OVC041 M01/M01 A2982
     RMK AO2 SNB19 P0000 T10111011=
KLWD 232137Z AUTO 13007KT 7SM -TSRA FEW034 BKN070 OVC100 21/17
     A2954 RMK AO2 PK WND 21047/2118 LTG DSNT ALQDS TSB16 PRESFR
     P0008 T02110172=
KAKQ 232137Z AUTO VRB03KT 10SM OVC010 14/13 A3014 RMK AO2 CIG
     008V013 T01440128=
