SPUS80 KWBC 231814
SPECI
PANN 231810Z AUTO VRB04KT 3SM BR OVC003 M02/M02 A3001 RMK AO2
     T10171022 TSNO=
