SPUS70 KWBC 231622
SPECI
KITR 231618Z AUTO 23033G49KT 2SM HZ OVC021 23/M03 A2935 RMK AO2 PK
     WND 21050/1603 T02331033 $=
KBPK 231619Z AUTO 22013KT 10SM SCT031 23/15 A2989 RMK AO2
     T02330150=
KEEO 231619Z AUTO 00000KT 4SM -SN BR SCT010 OVC025 01/00 A2955 RMK
     AO2 UPB02E06SNE02B10 P0000 T00110000=
KGEY 231619Z AUTO 33015KT 10SM -RA BKN027 OVC035 03/01 A2956 RMK
     AO2 P0001 T00330011=
KWRL 231619Z AUTO 34012KT 10SM -RA BKN012 OVC018 02/01 A2955 RMK
     AO2 P0001 T00220011=
KTTD 231619Z 11004KT 10SM BKN028 BKN047 OVC055 10/07 A3013 RMK AO2
     T01000072=
