SPUS70 KWBC 231910
SPECI
KBJC 231905Z 27021G33KT 10SM RAPL BKN120 BKN200 16/M04 A2936=
KLVM 231907Z AUTO 28009KT 3/4SM -SN BR FEW005 OVC015 01/M01 A2974
     RMK AO2 P0001 T00061011 $=
KOLF 231907Z AUTO 06014KT BKN008 OVC013 05/04 A2954 RMK AO2 RAE00
     CIG 005V010 P0000 T00500039=
KSBY 231907Z 01008G16KT 5SM -RA BR OVC009 17/15 A3013 RMK AO2 CIG
     006V013 P0000 T01670150=
PAIN 231908Z AUTO 00000KT 3SM -SN BR OVC026 M07/M08 A2997 RMK AO2
     P0000 FZRANO $=
