SPUS70 KWBC 232034
SPECI
KMVY 232030Z 02013KT 1 3/4SM +RA BR FEW020 OVC030 14/13 A3025 RMK
     AO2 P0014 T01390128=
KMLP 232030Z AUTO VRB03KT 1SM BR VV001 M01/M03 A2994 RMK AO2 VIS
     1/2V4 T10111028=
