SPUS80 KWBC 232010
SPECI
KUIL 232006Z AUTO 21006KT 10SM SCT019 BKN028 12/07 A3014 RMK AO2
     T01170072=
