SPUS70 KWBC 231716
SPECI
KRBG 231712Z AUTO 17003KT 5SM BR OVC002 06/06 A3018 RMK AO2
     T00610061=
KRIL 231712Z AUTO 28003KT 10SM -RA SCT005 BKN011 OVC015 02/01
     A2958 RMK AO2 P0001 T00220006=
KGTF 231713Z 34020G28KT 1 1/2SM -SN BR OVC006 00/M01 A2977 RMK AO2
     PK WND 33028/1704 CIG 004V009 P0000 T00001006 $=
KMLP 231712Z AUTO VRB03KT 1/4SM HZ VV001 M01/M04 A2988 RMK AO2
     SNE11 P0000 T10111039=
