SPUS80 KWBC 232116
SPECI
PAOT 232112Z 11012KT 9SM FEW007 OVC060 M01/M02 A2982 RMK AO2
     T10111017=
KCRP 232113Z 14025G35KT 10SM BKN029 BKN037 BKN055 BKN250 29/22
     A2981 RMK AO2 PK WND 13035/2105 T02940217=
KLWD 232113Z AUTO 19029G42KT 10SM VCTS -RA SCT065 BKN100 28/14
     A2958 RMK AO2 PK WND 19042/2113 LTG DSNT ALQDS PRESRR P0000
     T02780139=
