SPUS80 KWBC 232018
SPECI
KLXV 232015Z AUTO 32004KT 3SM -SN BR BKN030 OVC038 M01/M03 A2958
     RMK AO2 P0000 T10111033 $=
