SPUS80 KWBC 231736
SPECI
KCOS 231732Z 27014G25KT 10SM -RA FEW060 SCT250 14/01 A2945 RMK AO2
     PK WND 21039/1659 WSHFT 1712 RAB29 P0000 T01440006 $=
KMYL 231732Z AUTO 30006KT 1 3/4SM -SN SCT021 BKN030 OVC060 01/M04
     A2990 RMK AO2 SNB27 P0000 T00111044=
