SPUS80 KWBC 232134
SPECI
PAOT 232130Z 10010KT 2SM -SN BR BKN007 BKN017 OVC065 M02/M02 A2982
     RMK AO2 SNB19 P0000 T10171017=
PASN 232131Z AUTO 25027G37KT 8SM FEW023 BKN027 OVC042 06/03 A2977
     RMK AO2 PK WND 24040/2058 RAB00E24 P0000 T00610028 TSNO $=
