SPUS70 KWBC 231754
SPECI
KMTJ 231750Z AUTO 14012KT 10SM BKN008 BKN033 OVC080 04/03 A2962
     RMK AO2 RAE28 P0002 $=
PASD 231752Z 29003KT 10SM FEW026 FEW046 SCT070 06/02 A3023 RMK AO2
     PNO $=
KSHR 231751Z AUTO 31021G32KT 9SM UP BKN011 BKN022 OVC038 02/01
     A2957 RMK AO2 PK WND 32034/1738 UPE24B46SNB05E09B24E46
     P0002=
