SPUS70 KWBC 231744
SPECI
KRNT 231740Z 17005KT 10SM BKN007 OVC055 09/07 A3014 RMK AO2
     T00940067=
KASE 231741Z 02007KT 1 3/4SM -SN BR FEW007 OVC015 00/M01 A2957 RMK
     AO2 P0003 T00001006=
PAPB 231741Z AUTO 20027G35KT 2 1/2SM -RA OVC005 07/ A2984 RMK AO2
     PK WND 19037/1700 CIG 004V010 P0001 T0067 TSNO $=
KOLM 231739Z 00000KT 2 1/2SM BR OVC001 04/04 A3015 RMK AO2
     T00440044 $=
PAPB 231741Z AUTO 20027G35KT 2 1/2SM -RA OVC005 07/ A2984 RMK AO2
     PK WND 19037/1700 CIG 004V010 P0001 T0067 TSNO $=
