SPUS70 KWBC 231802
SPECI
KCPR 231758Z 00000KT 8SM -RA SCT011 BKN030 OVC038 03/01 A2950 RMK
     AO2 P0000 T00280011=
KHDN 231759Z AUTO 28008KT 1 1/4SM -SN BR SCT003 OVC009 00/M01
     A2959 RMK AO2 CIG 007V012 P0000 FZRANO=
KCAG 231759Z AUTO 28008KT 1SM -SN BR BKN016 OVC026 01/M02 A2960
     RMK AO2 P0001 T00061017=
