SPUS70 KWBC 232112
SPECI
KFMH 232110Z 02010KT 2SM RA BR FEW002 SCT007 BKN033 13/13
     A3027=
KECG 232108Z 32012KT 1 3/4SM -RA BR OVC006 16/15 A3008 RMK AO2
     RAB03 P0000 T01560150=
PASA 232109Z AUTO 30012KT 4SM -SN BR OVC012 01/M01 A2972 RMK AO2
     P0000 FZRANO=
PASH 232109Z AUTO 09011KT 5SM -SN BR BKN006 OVC018 M01/M02 A2974
     RMK AO2 CIG 004V009 FZRANO PNO $=
KCAG 232109Z AUTO 25008KT 1 1/4SM -SN BR SCT010 OVC015 00/M02
     A2968 RMK AO2 P0000 T00001017=
KOFP 232109Z AUTO VRB03KT 8SM OVC023 15/14 A3018 RMK AO2 RAE06
     P0000 T01500144=
PAQH 232110Z AUTO 12010KT 10SM OVC028 03/03 A2997 RMK AO2=
KMLS 232109Z AUTO 32017KT 10SM -RA OVC010 03/02 A2952 RMK AO2 CIG
     007V012 P0000 T00330022=
PAQH 232110Z AUTO 12010KT 10SM OVC028 03/03 A2997 RMK AO2=
