SPUS80 KWBC 231724
SPECI
KSXT 231720Z AUTO VRB03KT 3SM BR OVC004 02/01 A3012 RMK AO2
     T00220011=
KCNY 231720Z AUTO 27009KT 2 1/2SM -SN BR SCT009 OVC013 01/01 A2962
     RMK AO2 RAE07SNB07 P0007 T00110011=
PFNO 231721Z AUTO 15009KT 9SM SCT003 M03/M03 A2989 RMK AO2
     FZRANO=
KBZN 231721Z 00000KT 2SM SN BR BKN021 BKN030 OVC035 00/M01 A2978
     RMK AO2 SNB03 P0000 T00001006=
