SPUS70 KWBC 231918
SPECI
PAOH 231915Z AUTO 07012G19KT 6SM -RA BR BKN016 OVC023 04/02 A2948
     RMK AO2 PNO $=
KACK 231914Z 03015KT 3SM RA BR FEW005 FEW027 OVC038 15/14 A3023
     RMK AO2 P0004 T01500139=
PAOH 231915Z AUTO 07012G19KT 6SM -RA BR BKN016 OVC023 04/02 A2948
     RMK AO2 PNO $=
KMOT 231915Z 03019G26KT 10SM OVC015 10/05 A2941 RMK AO2 PK WND
     02026/1914 T01000050 $=
KCAG 231915Z AUTO 28007KT 1/2SM SN FG FEW006 OVC016 00/M02 A2964
     RMK AO2 P0001 T00001017=
KLVM 231915Z AUTO 27011KT 3/4SM -SN BR FEW009 OVC013 01/M01 A2974
     RMK AO2 P0001 T00061011 $=
KMLP 231914Z AUTO 00000KT 3/4SM BR VV001 M01/M03 A2992 RMK AO2
     T10061028=
KSHR 231915Z AUTO 31021G28KT 10SM BKN013 BKN018 OVC047 03/01 A2958
     RMK AO2 PK WND 31028/1915 T00330011=
