SPUS80 KWBC 231718
SPECI
PAOM 231714Z 16015KT 9SM -RA BKN010 OVC016 04/03 A2976 RMK AO2
     RAB1656 P0000 T00440028=
PHNY 231716Z AUTO 36004KT 10SM FEW002 22/19 A3006 RMK AO2 $=
