SPUS70 KWBC 231656
SPECI
PAGA 231653Z AUTO 9SM -SN FEW022 SCT026 OVC047 M02/M02 A3002 RMK
     AO2 UPB27E30SNB30 P0000 FZRANO $=
PAPM 231653Z AUTO 06007KT 10SM OVC031 01/01 A3008 RMK AO2
     FZRANO=
PASD 231653Z 26006KT 10SM FEW023 BKN036 BKN050 06/02 A3024 RMK AO2
     PNO $=
PASM 231653Z AUTO 15009G15KT 10SM BKN004 BKN042 M01/M01 A2994 RMK
     AO2 FZRANO=
