SPUS70 KWBC 231734
SPECI
PALG 231731Z AUTO 10005KT 2 1/2SM BR OVC003 M03/M03 A3005 RMK AO2
     VIS 2V5 SNE1657 FZRANO=
KSMO 231730Z VRB03KT 10SM CLR 20/08 A2986 RMK AO2 T02000083=
KASE 231731Z 01003KT 2SM -SN BR FEW006 BKN010 OVC017 01/M01 A2959
     RMK AO2 P0003 T00061006=
KCRG 231731Z 05008KT 10SM SCT022 SCT029 24/18 A3014 RMK AO2
     T02440183=
KGED 231731Z AUTO 03011KT 1 3/4SM -RA BR BKN008 OVC013 17/15 A3017
     RMK AO2 CIG 006V011 P0001 T01670150=
