SPUS70 KWBC 231950
SPECI
KCDC 231946Z AUTO 33008KT 1/2SM SN FZFG OVC005 M01/M01 A2988 RMK
     AO2 T10061011 PNO $=
KGBD 231947Z AUTO 20036G43KT 2SM HZ SCT026 OVC033 33/09 A2934 RMK
     AO2 PK WND 22051/1937 VIS 1 1/4V4=
