SPUS70 KWBC 231904
SPECI
KACK 231900Z 02017KT 2SM RA BR FEW027 OVC036 15/14 A3024 RMK AO2
     P0001 T01500139=
KEEO 231900Z AUTO VRB06KT 1 1/4SM -SN BR FEW012 BKN019 OVC025
     M01/M02 A2962 RMK AO2 P0000 T10061017=
KLWT 231901Z AUTO 29014G26KT 3/4SM -SN BR BKN005 OVC008 M01/M02
     A2969 RMK AO2 PK WND 28026/1859 P0000 T10061017 $=
KMVY 231901Z 02011KT 5SM -RA BR SCT049 OVC070 14/12 A3025 RMK AO2
     P0001 T01390117=
KOFP 231901Z AUTO 36004KT 2SM -RA BR OVC006 14/13 A3020 RMK AO2
     CIG 004V009 P0000 T01390133=
KPUW 231901Z AUTO 25009KT 10SM BKN015 06/02 A3003 RMK AO2
     T00560017 $=
