SPUS80 KWBC 232002
SPECI
KALS 231959Z AUTO 24031G41KT 8SM FEW047 BKN060 BKN070 11/M03 A2962
     RMK AO2 PK WND 23041/1958 WSHFT 1939 T01061033=
KLXV 231959Z AUTO VRB04KT 1 3/4SM -SN BR BKN033 BKN050 OVC070
     M02/M04 A2958 RMK AO2 P0000 T10171039 $=
