SPUS70 KWBC 231810
SPECI
KGJT 231806Z 28007KT 7SM -RA SCT019 BKN026 OVC035 06/03 A2959 RMK
     AO2 P0000 T00610033=
KSHR 231806Z AUTO 31021G28KT 10SM SCT012 BKN038 OVC046 03/01 A2957
     RMK AO2 PK WND 32028/1806 UPE01 P0000 T00280011=
PAFM 231807Z AUTO 12007G15KT 9SM -SN FEW006 OVC022 M02/M02 A2997
     RMK AO2 P0000 FZRANO=
PAKW 231806Z AUTO 14007G17KT 2 1/2SM RA BKN033 BKN040 OVC047 08/05
     A2936 RMK AO2 P0004 T00780050 TSNO $=
PAFM 231807Z AUTO 12007G15KT 9SM -SN FEW006 OVC022 M02/M02 A2997
     RMK AO2 P0000 FZRANO=
PAKW 231806Z AUTO 14007G17KT 2 1/2SM RA BKN033 BKN040 OVC047 08/05
     A2936 RMK AO2 P0004 T00780050 TSNO $=
KGUC 231808Z AUTO 22009KT 10SM FEW010 BKN014 BKN030 02/00 A2961
     RMK AO2 UPE02 P0000 FZRANO=
