SPUS80 KWBC 231614
SPECI
KLXV 231611Z AUTO VRB04KT 2SM -SN BR BKN015 OVC060 00/M01 A2955
     RMK AO2 P0002 T00001006 $=
KMLF 231611Z AUTO 01006KT 1SM -SN BR BKN003 OVC009 00/00 A2980 RMK
     AO2 P0001 T00000000 $=
