SPUS70 KWBC 231728
SPECI
PANA 231725Z AUTO 15009KT 10SM SCT003 SCT025 M01/M02 A3002 RMK AO2
     FZRANO TSNO $=
KDGW 231724Z AUTO 32017G24KT 9SM -RA SCT014 BKN019 OVC035 03/01
     A2948 RMK AO2 PK WND 32026/1655 P0000 T00330011=
KECG 231724Z 32011G19KT 1SM +RA BR BKN004 OVC018 16/15 A3007 RMK
     AO2 PK WND 33026/1708 P0030 T01560150=
KPWT 231725Z AUTO 16004KT 1/4SM FG OVC002 06/06 A3013 RMK AO2=
PANA 231725Z AUTO 15009KT 10SM SCT003 SCT025 M01/M02 A3002 RMK AO2
     FZRANO TSNO $=
KNFE 231722Z AUTO 34008KT 1 3/4SM +RA BR OVC004 17/15 A3011 RMK
     AO2 P0012 T01670150=
PASA 231726Z AUTO 31016KT 9SM -SN BKN005 OVC012 01/01 A2967 RMK
     AO2 RAB19E21 CIG 004V009 P0000 FZRANO=
PFKW 231726Z AUTO 16008KT 3/4SM -SN BR BKN003 OVC029 M02/M02 A3003
     RMK AO2 P0000 FZRANO=
KAWO 231726Z AUTO 18003KT 10SM BKN021 BKN050 08/06 A3013 RMK
     AO2=
KGCN 231725Z 27011G18KT 10SM SCT020 03/M02 A2982 RMK AO2
     T00331017=
KGDV 231726Z AUTO 04009KT 10SM OVC008 07/05 A2945 RMK AO2=
KJAC 231726Z 28006KT 10SM BKN030 OVC070 01/M05 A2967 RMK AO2
     UPB09E18SNE09 PNO $=
KOGD 231725Z 35015G21KT 10SM FEW021 SCT034 BKN095 06/M01 A2976 RMK
     AO2 T00611006=
PFKW 231726Z AUTO 16008KT 3/4SM -SN BR BKN003 OVC029 M02/M02 A3003
     RMK AO2 P0000 FZRANO=
