SPUS80 KWBC 232144
SPECI
KLWD 232141Z AUTO 14008KT 8SM -RA SCT034 BKN060 BKN070 21/17 A2952
     RMK AO2 PK WND 21047/2118 LTG DSNT N-SE TSB16E40 PRESFR P0009
     T02110172=
