SPUS70 KWBC 231842
SPECI
K2DP 231834Z AUTO 35017G22KT 10SM OVC007 M A3001 RMK AO2 LTG DSNT
     S RAE03DZB03E07RAB07E34 SLPNO ALSTG ESTMD $=
KGFA 231835Z AUTO 33011KT 2 1/2SM -SN OVC007 M00/M00 A2981 RMK AO2
     CIG 006V008 SLP125 $=
KGUR 231836Z AUTO 32023G29KT 4SM BR FEW017 FEW025 SCT038 BKN150
     06/04 A2938 RMK AO2 RAE36 SLPNO=
KGLD 231838Z AUTO 23025G48KT 4SM HZ OVC032 27/M04 A2929 RMK AO2 PK
     WND 22048/1831 T02671044=
KDIK 231838Z AUTO 01013KT 10SM OVC015 09/04 A2933 RMK AO2
     T00890039=
PAKW 231839Z AUTO 15012KT 1 3/4SM +RA BKN029 OVC040 08/05 A2936
     RMK AO2 P0013 T00780050 TSNO $=
KHYS 231840Z AUTO 21038G48KT 2SM HZ FEW023 OVC033 32/03 A2931 RMK
     AO2 $=
KLVM 231839Z AUTO 29009KT 3/4SM -SN OVC019 01/M02 A2974 RMK AO2
     P0000 T00111017 $=
PAKW 231839Z AUTO 15012KT 1 3/4SM +RA BKN029 OVC040 08/05 A2936
     RMK AO2 P0013 T00780050 TSNO $=
