SPUS70 KWBC 231742
SPECI
KOLM 231736Z 00000KT 1 1/2SM BR OVC001 04/04 A3015 RMK AO2
     T00440044 $=
KRWL 231738Z AUTO 26013G23KT 10SM BKN020 OVC050 01/M02 A2955 RMK
     AO2 T00061022=
KCPR 231738Z 01004KT 3SM -RA BR BKN009 BKN019 OVC023 03/02 A2949
     RMK AO2 RAE1659B17UPB26E30 P0000 T00330017=
KNFE 231739Z AUTO 35011G15KT 3SM RA BR OVC005 17/15 A3010 RMK AO2
     P0016 T01670150=
KEEO 231739Z AUTO 35005KT 1 1/2SM -SN BR SCT007 OVC013 01/00 A2957
     RMK AO2 VIS 3/4V4 RAE1655UPB08E11SNB11 P0001 T00060000=
KOLF 231739Z AUTO 05016G27KT -RA OVC008 05/03 A2953 RMK AO2 PK WND
     06027/1734 CIG 006V010 P0001 T00500033=
KTIW 231739Z 21003KT 10SM BKN005 08/07 A3013 RMK AO2 T00830067=
PAKV 231739Z AUTO 00000KT 10SM SCT011 BKN075 OVC090 M05/M06 A3002
     RMK AO2 T10501056 TSNO=
