SPUS80 KWBC 231612
SPECI
PAQT 231606Z AUTO 10007KT 5SM BR BKN004 OVC007 M09/M09 A3005 RMK
     AO2 CIG 002V006 T10891094 TSNO=
KATT 231607Z AUTO 17007G23KT 150V220 10SM SCT022 SCT030 26/19
     A2992 RMK AO2 T02610189=
KFLG 231608Z AUTO 24017G26KT 10SM FEW018 SCT025 BKN055 06/03 A2980
     RMK AO2 PK WND 23026/1603 T00610028=
