SPUS80 KWBC 231730
SPECI
KDRT 231727Z AUTO 12010KT 10SM OVC016 22/18 A2983 RMK AO2
     T02220183=
