SPUS80 KWBC 231956
SPECI
KWAL 231952Z AUTO 36009KT 10SM -RA BKN010 OVC023 17/15 A3011 RMK
     AO2 P0009=
