SPUS80 KWBC 231922
SPECI
KMHK 231918Z 18021G32KT 10SM FEW044 SCT095 BKN110 28/13 A2944 RMK
     AO2 PK WND 18032/1913 LTG DSNT E T02830133=
