SPUS80 KWBC 231950
SPECI
KSXT 231946Z AUTO 00000KT 10SM SCT004 SCT026 04/02 A3016 RMK AO2
     T00440017=
PAFA 231946Z 00000KT 1/2SM -SN FZFG VV003 M01/M03 A3001 RMK AO2
     P0000 T10111028 RVRNO $=
