SPUS70 KWBC 231948
SPECI
KCPR 231944Z 30007KT 10SM -RA SCT012 BKN019 OVC048 03/02 A2950 RMK
     AO2 RAB28 P0000 T00330017=
KGED 231945Z AUTO 03010G16KT 4SM RA BR BKN007 OVC014 16/15 A3015
     RMK AO2 P0008 T01610150=
KMIV 231945Z AUTO 04013G17KT 1 1/2SM RA BR BKN009 OVC014 15/14
     A3018 RMK AO2 RAB1858 CIG 005V011 P0010 T01500144 $=
KOAJ 231946Z 01007KT 340V040 10SM SCT020 20/15 A3010 RMK AO2=
KRSL 231945Z AUTO 20040G53KT 1SM HZ BKN027 OVC038 33/05 A2930 RMK
     AO2 PK WND 21053/1939 T03330050=
