SPUS80 KWBC 231908
SPECI
KHVR 231904Z AUTO 36012KT -SN BKN011 OVC017 02/01 A2977 RMK AO2
     SNB04 P0000 T00170006 $=
KLND 231904Z AUTO 10004KT 10SM SCT006 BKN013 OVC020 02/01 A2959
     RMK AO2 SNE1857 P0000 T00170006=
