SPUS80 KWBC 231714
SPECI
KAAT 231710Z AUTO 20004KT 10SM SCT015 BKN030 OVC037 02/M02 A3006
     RMK AO2 T00171017=
KACY 231710Z 05017G23KT 3SM -RA BR BKN010 OVC032 16/14 A3019 RMK
     AO2 P0000 T01610144=
