SPUS70 KWBC 231952
SPECI
KGLD 231948Z AUTO 23029G44KT 6SM HZ OVC032 28/M06 A2928 RMK AO2 PK
     WND 23051/1859=
KHDN 231949Z AUTO 30013G20KT 1/2SM SN FZFG SCT006 OVC011 M01/M02
     A2962 RMK AO2 P0000 FZRANO=
KLVM 231948Z AUTO 26014KT 1SM -SN BR FEW008 BKN016 OVC029 01/M01
     A2973 RMK AO2 P0001 $=
KTTD 231948Z 00000KT 10SM FEW025 BKN046 OVC055 14/07 A3018 RMK
     AO2=
PARC 231949Z AUTO 35003KT 3SM -SN BKN014 BKN023 OVC034 M11/M13
     A2991 RMK AO2 P0000 FZRANO=
PAHL 231950Z AUTO 14005KT 2 1/2SM -SN BR BKN026 BKN035 OVC046
     M02/M02 A2999 RMK AO2 VIS 2V4 P0000 FZRANO=
KCAG 231949Z AUTO 28016KT 3/4SM -SN BR SCT007 BKN014 OVC018 01/M01
     A2965 RMK AO2 P0003=
KEEO 231949Z AUTO 22005KT 3/4SM -SN BR BKN016 OVC025 M01/M02 A2965
     RMK AO2 P0001=
KGBD 231950Z AUTO 20032G43KT 3SM HZ BKN026 OVC033 33/09 A2933 RMK
     AO2 PK WND 22051/1937=
KMLP 231948Z AUTO 34004KT 3/4SM HZ VV001 00/M03 A2992 RMK AO2=
