SPUS80 KWBC 231642
SPECI
PAOM 231638Z 17008KT 10SM -RA SCT008 OVC015 03/02 A2977 RMK AO2
     CIG 008 NE P0009 T00330022=
KHVR 231638Z AUTO 01015KT FEW012 BKN020 OVC029 02/01 A2970 RMK AO2
     T00170006 $=
PAQT 231637Z AUTO 10007KT 2SM BR OVC005 M08/M09 A3004 RMK AO2
     I1000 T10781089 TSNO=
