SPUS70 KWBC 232140
SPECI
KDIJ 232137Z AUTO 35009KT 1/4SM +SN FZFG BKN005 BKN009 OVC027
     M01/M03 A2980 RMK AO2 CIG 003V007 P0000=
KILG 232136Z 36005KT 5SM -RA BR OVC030 14/13 A3021 RMK AO2 P0023
     T01440133=
KEEO 232137Z AUTO 31006KT 1 1/4SM -SN BR OVC016 M01/M03 A2971 RMK
     AO2 P0001 T10111028=
KHYA 232137Z 01011KT 5SM -RA BR SCT007 BKN019 OVC032 13/13 A3024
     RMK AO2 P0005 T01280128=
PADM 232138Z AUTO 09017G22KT 10SM -RA SCT022 BKN027 OVC042 01/M01
     A2994 RMK AO2 UPB23E25RAB25 P0000 FZRANO=
KASE 232137Z 18009G27KT 1/2SM SN BKN021 BKN034 OVC065 00/M03 A2962
     RMK AO2 PK WND 17028/2120 SNB28 P0000 T00001028=
