SPUS80 KWBC 232036
SPECI
PHLI 232032Z 10011G23KT 10SM +RA FEW010 BKN018 26/23 A3008 RMK AO2
     RAB28 P0003 T02560228 $=
