SPUS80 KWBC 231716
SPECI
KCNY 231712Z AUTO 30011KT 3SM -SN BR OVC013 02/01 A2961 RMK AO2
     RAE07SNB07 P0004 T00170011=
