SPUS80 KWBC 231740
SPECI
KCNY 231737Z AUTO 22006KT 1 1/2SM -SN BR SCT007 OVC015 01/01 A2963
     RMK AO2 LTG DSNT SE RAE07SNB07 P0011 T00060006=
KMYL 231736Z AUTO 35008KT 2SM -SN FEW017 BKN023 OVC060 01/M04
     A2990 RMK AO2 SNB27 P0000 T00111044=
KALS 231738Z AUTO 21026G38KT 10SM BKN028 BKN040 BKN050 09/03 A2960
     RMK AO2 PK WND 21044/1712 T00940028=
