SPUS70 KWBC 232120
SPECI
KCAG 232116Z AUTO 27009KT 3SM -SN BR FEW008 BKN015 OVC023 01/M02
     A2968 RMK AO2 P0000 T00061017=
KCLM 232116Z AUTO VRB04KT 10SM BKN014 11/07 A3014 RMK AO2
     T01110067=
KEEO 232116Z AUTO 32010G19KT 3/4SM -SN BR VV012 M01/M03 A2969 RMK
     AO2 P0001 T10111028=
PAHY 232117Z AUTO 10023G28KT 4SM RA BR FEW020 BKN029 OVC037 09/07
     A2930 RMK AO2 PK WND 10028/2115 P0003 $=
PAIN 232117Z AUTO 00000KT 9SM -SN FEW023 SCT029 OVC038 M04/M06
     A2996 RMK AO2 SNB2058 P0000 FZRANO $=
PASH 232117Z AUTO 08010KT 4SM -SN BR SCT006 OVC018 M01/M01 A2974
     RMK AO2 FZRANO PNO $=
KSAC 232116Z 31019G26KT 10SM CLR 22/M03 A2994 RMK AO2 PK WND
     32027/2054 T02171028=
KACK 232117Z 04015G21KT 3SM -RA BR BKN004 OVC010 16/16 A3022 RMK
     AO2 P0017 T01610156=
KCTB 232117Z AUTO 34022KT 5SM -SN BR OVC009 00/M01 A2994 RMK AO2
     PK WND 33029/2107 SNB05 P0000 T00001006 $=
KMRH 232117Z AUTO 33012KT 5SM -RA BR FEW007 BKN021 OVC036 17/16
     A3006 RMK AO2 P0002 T01670161=
PAHL 232118Z AUTO 17006KT 3SM -SN BR OVC007 M01/M01 A2998 RMK AO2
     CIG 004V010 P0000 FZRANO=
