SPUS80 KWBC 232024
SPECI
PAQT 232017Z AUTO 08013KT 10SM OVC006 M06/M07 A3002 RMK AO2
     T10561067 TSNO=
