SPUS70 KWBC 232138
SPECI
PAKV 232134Z AUTO VRB03KT 10SM OVC009 M02/M02 A3001 RMK AO2
     T10171022 TSNO=
KFNL 232136Z 28019G25KT 10SM CLR 18/M06 A2936 RMK AO2 WSHFT
     2116=
