SPUS70 KWBC 232042
SPECI
KGGW 232039Z AUTO 34008KT 1 1/2SM -SN BR OVC008 01/00 A2959 RMK
     AO2 P0005 T00110000=
KMCI 232039Z 17017G22KT 10SM -RA SCT029 SCT055 BKN120 27/16 A2955
     RMK AO2 PK WND 18039/1956 LTG DSNT N AND NE RAB13 TSE00 P0000
     T02720161=
KMLP 232038Z AUTO 00000KT 2SM BR OVC001 M01/M03 A2994 RMK AO2 VIS
     3/4V5 T10111028=
KPWT 232040Z AUTO 19005KT 10SM SCT006 09/07 A3017 RMK AO2=
KSBY 232039Z 02010KT 8SM BKN008 OVC013 16/15 A3011 RMK AO2 RAE15
     P0001 T01610150=
