SPUS80 KWBC 231720
SPECI
KSXT 231716Z AUTO VRB04KT 1 1/2SM BR OVC004 02/01 A3012 RMK AO2
     VIS 3/4V4 T00170011=
KNUI 231716Z AUTO 03006KT BKN020 BKN050 19/12 A3017 RMK AO2
     T01890122=
KLXV 231716Z AUTO 29012G20KT 3SM -SN SCT021 BKN025 OVC042 M01/M03
     A2957 RMK AO2 SNB07 P0000 T10061033 $=
KACY 231717Z 05015G26KT 2 1/2SM -RA BR BKN010 OVC034 16/14 A3019
     RMK AO2 PK WND 05026/1712 P0000 T01610144=
KORF 231717Z 35012KT 5SM -RA BR OVC005 16/15 A3013 RMK AO2 P0001
     T01560150=
