SPUS70 KWBC 231800
SPECI
KHFF 231753Z AUTO 06010KT 10SM CLR 22/07 A3014 RMK AO2 SLP208
     $=
KGON 231757Z 04006KT 6SM -RA SCT055 BKN070 OVC090 16/10 A3027 RMK
     AO2 P0000 T01560100=
