SPUS80 KWBC 231746
SPECI
KAAT 231742Z AUTO 21004KT 10SM BKN027 BKN038 OVC050 02/M02 A3008
     RMK AO2 T00221017=
KMYL 231742Z AUTO 31004KT 7SM -SN FEW017 SCT023 BKN031 02/M04
     A2990 RMK AO2 SNB27 P0000 T00171044=
KORF 231742Z 35011G18KT 2SM RA BR OVC005 15/15 A3012 RMK AO2 P0003
     T01500150=
KWAL 231743Z AUTO 02012G19KT 10SM OVC009 17/15 A3011 RMK AO2 RAE02
     P0000 T01720150=
