SPUS70 KWBC 231612
SPECI
PAKV 231608Z AUTO 00000KT 10SM BKN012 BKN050 OVC110 M05/M06 A3003
     RMK AO2 T10501061 TSNO=
KCAG 231608Z AUTO 27004KT 1SM -SN BR VV015 01/00 A2956 RMK AO2
     P0000 T00060000=
KCTB 231608Z AUTO 34025G33KT 3/4SM -SN BR BKN007 BKN011 OVC016
     M01/M01 A2981 RMK AO2 PK WND 33034/1557 P0000 T10061011 $=
KSEG 231608Z AUTO VRB03KT 10SM OVC029 13/07 A3031 RMK AO2
     T01280072=
KEGE 231610Z 34004KT 10SM FEW025 BKN049 OVC060 04/02 A2959 RMK
     AO2=
KHYI 231610Z 19019G27KT 10SM SCT025 RMK AO2 PK WND 19027/1603
     $=
KMIV 231609Z AUTO 05012KT 10SM BKN015 OVC100 16/13 A3021 RMK AO2
     T01610133 $=
KPVU 231610Z 32019G26KT 10SM BKN014 BKN019 OVC085 03/01 A2973 RMK
     AO2 PK WND 32029/1559=
