SPUS70 KWBC 231838
SPECI
KCPR 231834Z 00000KT 8SM FEW011 BKN017 OVC039 03/01 A2952 RMK AO2
     RAE08B20E30 P0000 T00280011=
KMLP 231833Z AUTO 01003KT 1SM HZ VV001 00/M03 A2990 RMK AO2
     T00001028=
KOLM 231832Z 17005KT 10SM SCT007 09/06 A3016 RMK AO2 T00890061
     $=
KFOK 231833Z 03012KT 2 1/2SM +RA BR BKN070 BKN090 OVC110 14/13
     A3025 RMK AO2 P0014 T01390128 $=
KASE 231835Z 36006KT 1SM -SN BR BKN011 BKN018 OVC028 01/00 A2957
     RMK AO2 P0002 T00060000=
KBTM 231835Z AUTO 30008KT 9SM BKN029 BKN034 OVC042 00/M03 A2980
     RMK AO2 SNE03B24E33 P0000 T00001028=
KLWT 231835Z AUTO 29015G24KT 3/4SM -SN BR OVC004 M01/M02 A2969 RMK
     AO2 UPB21E27SNE21B27 P0000 T10061017 $=
PFKW 231836Z AUTO 13010KT 10SM SCT029 M02/M02 A3000 RMK AO2
     FZRANO=
PFKW 231836Z AUTO 13010KT 10SM SCT029 M02/M02 A3000 RMK AO2
     FZRANO=
KMIV 231835Z AUTO 02010KT 2SM -RA BR SCT007 BKN013 OVC024 16/15
     A3018 RMK AO2 RAB1758 P0004 T01610150 $=
