SPUS80 KWBC 232042
SPECI
KACY 232039Z 04015G23KT 2SM BR OVC006 15/14 A3017 RMK AO2 RAB05E28
     P0000 T01500139=
KWAL 232039Z AUTO 35011KT 2 1/2SM -RA BR SCT010 OVC015 16/15 A3010
     RMK AO2 P0018 T01610150=
