SPUS70 KWBC 232116
SPECI
KHDN 232113Z AUTO 28011KT 3SM -SN BR SCT005 OVC013 M01/M01 A2967
     RMK AO2 P0000 FZRANO=
KLVM 232112Z AUTO 33011KT 1/2SM SN FG VV005 00/M02 A2978 RMK AO2
     P0001 T00001017 $=
KRIL 232112Z AUTO 27010KT 1/2SM SN FG FEW004 OVC010 01/M01 A2969
     RMK AO2 P0002 T00061006=
PAOO 232114Z AUTO 08009KT FEW027 BKN038 OVC065 03/02 A2982 RMK AO2
     PWINO TSNO $=
KAOO 232113Z AUTO 06004KT 10SM BKN029 OVC034 17/08 A3024 RMK AO2
     T01720078=
