SPUS70 KWBC 232100
SPECI
KILG 232056Z 06009KT 2SM RA BR OVC028 15/13 A3021 RMK AO2 P0001
     T01500128=
KCAG 232057Z AUTO 27010KT 3/4SM -SN BR SCT011 BKN016 OVC020 00/M02
     A2968 RMK AO2 P0000 T00001017=
KPHL 232057Z 05009KT 6SM -RA BKN030 BKN043 OVC075 15/13 A3021 RMK
     AO2 P0001 T01500133 $=
