SPUS70 KWBC 231944
SPECI
KLWT 231940Z AUTO 29017G28KT 1 1/4SM -SN BR BKN004 OVC009 M01/M02
     A2969 RMK AO2 PK WND 29028/1940 P0000 T10061017 $=
PARC 231941Z AUTO 00000KT 2 1/2SM -SN SCT018 BKN023 OVC036 M11/M13
     A2991 RMK AO2 P0000 FZRANO=
KRIL 231941Z AUTO 29016G26KT 10SM SCT011 BKN021 OVC038 03/00 A2961
     RMK AO2 PK WND 32026/1937 RAB23E36 P0001 T00280000=
KCDC 231941Z AUTO 34007KT 1/4SM +SN FZFG OVC003 M01/M01 A2988 RMK
     AO2 T10061011 PNO $=
