SPUS80 KWBC 231848
SPECI
KSMP 231844Z AUTO VRB04KT 3SM BR SCT002 BKN008 OVC014 01/00 A3006
     RMK AO2 T00110000 $=
KLND 231843Z AUTO 09004KT 2SM -SN BR BKN021 BKN026 OVC035 01/00
     A2959 RMK AO2 SNB10 P0001 T00110000=
KSXT 231845Z AUTO 01004KT 10SM SCT004 OVC023 03/02 A3015 RMK AO2
     T00280017=
