SPUS80 KWBC 232142
SPECI
PAOT 232139Z 10012KT 3SM -SN BR SCT009 BKN019 OVC041 M01/M01 A2982
     RMK AO2 SNB19 P0000 T10111011=
