SPUS70 KWBC 231650
SPECI
KPHF 231646Z 33009KT 7SM OVC005 14/14 A3015 RMK AO2 T01440139=
KAWO 231648Z AUTO 00000KT 10SM SCT027 OVC050 07/06 A3012 RMK
     AO2=
KPWT 231648Z AUTO 00000KT 10SM SCT002 BKN037 07/06 A3011 RMK
     AO2=
