SPUS80 KWBC 231942
SPECI
KNAK 231939Z AUTO 36007KT 10SM -RA OVC029 17/11 A3019 RMK AO2
     RAB17 P0000 T01720111=
