SPUS70 KWBC 231710
SPECI
KMTJ 231707Z AUTO 14005KT 9SM -RA SCT006 SCT015 OVC025 02/02 A2965
     RMK AO2 P0000 T00220017 $=
PARS 231708Z AUTO 12004KT 3/4SM BR OVC003 A3003 RMK AO2 FZRANO
     RVRNO $=
