SPUS80 KWBC 232052
SPECI
PHLI 232048Z 06009KT 10SM SCT021 BKN041 26/23 A3007 RMK AO2
     RAB28E44 P0013 $=
KACY 232049Z 04015G22KT 1 3/4SM -RA BR OVC006 15/14 A3017 RMK AO2
     RAB05E28B45 CIG 005V010 P0001=
