SPUS80 KWBC 232032
SPECI
PHLI 232028Z 08014G23KT 1 1/2SM RA FEW014 SCT020 SCT050 26/22
     A3008 RMK AO2 RAB28 P0000 T02610222 $=
KSXT 232029Z AUTO VRB03KT 10SM FEW016 FEW027 05/03 A3016 RMK AO2
     T00500028=
