SPUS80 KWBC 231926
SPECI
KSMP 231923Z AUTO 18005KT 10SM FEW003 OVC014 02/01 A3007 RMK AO2
     T00170006 $=
KCOS 231923Z 21021G31KT 10SM FEW050 SCT090 BKN200 18/M01 A2944 RMK
     AO2 PK WND 22041/1911 WSHFT 1903 CB DSNT W MOV NE T01781011
     $=
KUIL 231923Z AUTO 19007KT 10SM SCT023 11/07 A3013 RMK AO2
     T01110072=
