SPUS80 KWBC 231910
SPECI
KCNU 231907Z AUTO 17020G31KT 10SM FEW029 FEW095 SCT110 28/17 A2963
     RMK AO2 PK WND 18031/1904 RAB1856E05 P0000 T02780167 $=
