SPUS70 KWBC 231702
SPECI
PANA 231659Z AUTO 16008KT 2 1/2SM BR OVC003 M01/M01 A3003 RMK AO2
     FZRANO TSNO $=
PAGA 231653Z AUTO 9SM -SN FEW022 SCT026 OVC047 M02/M02 A3002 RMK
     AO2 UPB27E30SNB30 P0000 FZRANO $=
PANA 231659Z AUTO 16008KT 2 1/2SM BR OVC003 M01/M01 A3003 RMK AO2
     FZRANO TSNO $=
KHFF 231653Z AUTO 04009G14KT 10SM CLR 21/07 A3016 RMK AO2 SLP215
     $=
TISX 231700Z 12010KT 10SM BKN027 BKN032 BKN045 31/24 A2992 RMK AO2
     T03110244 $=
