SPUS80 KWBC 232128
SPECI
PAOT 232125Z 10010KT 3SM -SN BR SCT007 BKN015 OVC065 M02/M02 A2982
     RMK AO2 SNB19 P0000 T10171017=
