SPUS70 KWBC 231804
SPECI
KRNT 231800Z 19005KT 10SM BKN012 09/07 A3014 RMK AO2 T00940067=
KLGB 231800Z 10SM BKN029 BKN036 21/11 A2986 RMK AO2 T02060111=
KMTJ 231800Z AUTO 13012KT 10SM SCT008 BKN075 OVC100 04/03 A2962
     RMK AO2 T00440028 $=
PASC 231800Z 10011KT 10SM OVC004 M07/M08 A3001 RMK AO2 T10721078
     $=
KMOT 231801Z 03017G23KT 10SM OVC011 09/05 A2946 RMK AO2 T00890050
     $=
KRIL 231801Z AUTO 31005KT 10SM -RA SCT004 SCT013 OVC020 02/01
     A2959 RMK AO2 P0000 T00220011=
