SPUS80 KWBC 231934
SPECI
KVTN 231930Z AUTO 29020G27KT 10SM CLR 22/M01 A2917 RMK AO2 PK WND
     29027/1929 WSHFT 1910 T02171006=
