SPUS80 KWBC 231702
SPECI
KSXT 231658Z AUTO VRB04KT 1/2SM FG VV004 02/02 A3011 RMK AO2
     T00220022=
KMLF 231659Z AUTO 01004KT 2 1/2SM -SN BR FEW003 OVC010 01/M01
     A2982 RMK AO2 P0000 T00061006 $=
