SPUS80 KWBC 231638
SPECI
KRNM 231634Z 00000KT 10SM OVC030 14/10 A2989 RMK AO2 T01390100=
KCNY 231635Z AUTO 32016G45KT 10SM -RA SQ SCT013 BKN030 OVC042
     04/02 A2960 RMK AO2 PK WND 31045/1631 WSHFT 1621 RAB35 PRESRR
     P0000 T00390017=
KLND 231635Z AUTO 33005KT 3SM -SN BR SCT006 OVC011 01/M01 A2957
     RMK AO2 P0002 T00061006 $=
