SPUS70 KWBC 231618
SPECI
KIML 231614Z AUTO 21029G45KT 5SM HZ BKN016 24/00 A2922 RMK AO2 PK
     WND 21045/1611 T02440000 $=
KMDT 231614Z 30009KT 9SM SCT029 OVC037 13/08 A3028 RMK AO2
     T01330078=
KMLS 231614Z AUTO 29004KT 1 1/4SM +RA BR BKN007 BKN012 OVC020
     06/06 A2945 RMK AO2 CIG 005V010 P0005 T00610056=
KASE 231615Z 35005KT 1/4SM SN FG VV005 00/00 A2957 RMK AO2 P0004
     T00000000=
KCDC 231615Z AUTO 27006KT 1/2SM SN FZFG FEW007 OVC010 M01/M02
     A2981 RMK AO2 T10111017 PNO $=
PANV 231616Z AUTO 10005KT 10SM SCT018 BKN075 M03/M04 A3000 RMK AO2
     FZRANO TSNO=
PAHY 231616Z AUTO 09016G33KT 3/4SM RA BR BKN018 OVC026 08/06 A2947
     RMK AO2 PK WND 13034/1557 VIS M1/4V4 P0007 $=
PANV 231616Z AUTO 10005KT 10SM SCT018 BKN075 M03/M04 A3000 RMK AO2
     FZRANO TSNO=
