SPUS70 KWBC 231646
SPECI
KECG 231642Z 33016G19KT 2 1/2SM RA BR BKN005 BKN011 OVC060 16/15
     A3011 RMK AO2 P0014 T01610150=
PAFE 231643Z AUTO 08010G15KT 10SM -RA FEW020 BKN026 OVC034 04/03
     A2948 RMK AO2 P0003=
PAFE 231643Z AUTO 08010G15KT 10SM -RA FEW020 BKN026 OVC034 04/03
     A2948 RMK AO2 P0003=
PAPH 231643Z AUTO 32009KT 8SM -RA FEW015 BKN024 BKN029 04/03 A3015
     RMK AO2 RAB21 P0001=
KGTU 231644Z 19017G27KT 10SM BKN033 26/17 A2992 RMK AO2 PK WND
     19027/1639=
KGUP 231643Z AUTO 26021G38KT 2 1/2SM -RA BR FEW016 SCT023 OVC033
     06/04 A2976 RMK AO2 PK WND 24040/1603 P0009 T00560039=
