SPUS80 KWBC 232104
SPECI
KLND 232101Z AUTO 09005KT 10SM OVC017 02/00 A2962 RMK AO2
     T00220000=
