SPUS70 KWBC 232102
SPECI
KDIJ 232059Z AUTO 30012KT 1 1/2SM -SN BR SCT011 BKN021 OVC033
     M01/M02 A2978 RMK AO2 VIS 3/4V5 P0000=
KGGW 232058Z AUTO 33008KT 3SM -SN BR OVC006 01/00 A2960 RMK AO2
     P0000 T00110000=
KAVX 232059Z AUTO 26006KT 10SM BKN018 16/11 A2988 RMK AO2
     T01610111=
KMLP 232058Z AUTO 33004KT 1/4SM FZFG VV001 M01/M03 A2996 RMK AO2
     T10111033=
