SPUS70 KWBC 231708
SPECI
KPVG 231705Z VRB04KT 2SM OVC002 14/14 A3015 RMK AO2 SLP301 PWINO
     PNO FZRANO RVRNO=
KCAG 231705Z AUTO 29006KT 1/2SM SN FG FEW005 BKN012 OVC017 01/M01
     A2958 RMK AO2 P0000 T00061011=
KCTB 231706Z AUTO 33024G33KT 3/4SM -SN BR M01/M01 A2984 RMK AO2 PK
     WND 33033/1702 SNB1656 P0000 T10061011 $=
KGON 231705Z 01005KT 6SM -RA FEW070 SCT090 OVC110 16/09 A3029 RMK
     AO2 P0000 T01560094=
KLGU 231706Z AUTO 35007KT 10SM SCT021 BKN027 OVC046 03/00 A2976
     RMK AO2 T00330000=
KRBG 231705Z AUTO 12003KT 2 1/2SM BR OVC002 06/06 A3019 RMK AO2
     T00610056=
PANA 231706Z AUTO 15007KT 10SM OVC003 M01/M01 A3003 RMK AO2 FZRANO
     TSNO $=
PAKI 231706Z AUTO 19009KT 10SM FEW012 SCT025 OVC034 04/ A2995 RMK
     AO2 RAE1658 PNO $=
PANA 231706Z AUTO 15007KT 10SM OVC003 M01/M01 A3003 RMK AO2 FZRANO
     TSNO $=
