SPUS80 KWBC 231912
SPECI
PASN 231908Z AUTO 23026G34KT 5SM BR BKN014 OVC040 07/06 A2974 RMK
     AO2 PK WND 23034/1904 T00670061 TSNO $=
