SPUS80 KWBC 231748
SPECI
KACY 231744Z 04013G25KT 1 3/4SM -RA BR BKN008 OVC032 16/14 A3018
     RMK AO2 PK WND 05026/1712 P0002 T01560144=
KRIW 231744Z AUTO 02015G22KT 3/4SM -SN BR BKN004 OVC008 00/M01
     A2957 RMK AO2 P0004 T00001006=
PHJR 231744Z 08005KT 1 1/2SM -RA BR FEW020 BKN028 OVC047 23/21
     A3004 RMK AO2 RAB35 P0001 T02330211=
PHJR 231744Z 08005KT 1 1/2SM -RA BR FEW020 BKN028 OVC047 23/21
     A3004 RMK AO2 RAB35 P0001 T02330211=
KLXV 231745Z AUTO 33005G15KT 9SM -SN FEW028 BKN034 OVC055 M01/M04
     A2958 RMK AO2 SNB07 P0000 T10111039 $=
PADK 231746Z AUTO 26018G23KT OVC008 09/08 A3022 RMK AO2 PK WND
     25029/1709 P0006 PWINO $=
PADK 231746Z AUTO 26018G23KT OVC008 09/08 A3022 RMK AO2 PK WND
     25029/1709 P0006 PWINO $=
PHJR 231741Z 09006KT 1 3/4SM RA SCT024 BKN030 OVC037 24/21 A3004
     RMK AO2 RAB35 P0001 T02390206=
PHJR 231744Z 08005KT 1 1/2SM -RA BR FEW020 BKN028 OVC047 23/21
     A3004 RMK AO2 RAB35 P0001 T02330211=
