SPUS70 KWBC 231620
SPECI
KCAG 231616Z AUTO 27005KT 2SM -SN BR FEW005 OVC017 01/00 A2957 RMK
     AO2 P0001 T00060000=
KEYE 231616Z AUTO 18011G22KT 5SM HZ CLR 23/12 A3006 RMK AO2
     T02280117 $=
KRWI 231616Z AUTO 36013KT 10SM BKN022 21/12 A3018 RMK AO2
     T02060117=
KVEL 231616Z AUTO VRB03KT 10SM BKN032 OVC040 03/M02 A2959 RMK AO2
     UPB1558E02SNE1558 P0000 T00281022=
KBYG 231617Z AUTO 34023G31KT 7SM SCT004 BKN032 OVC075 01/00 A2947
     RMK AO2 PK WND 35031/1617 SNE11 P0000 T00110000=
KCEZ 231617Z AUTO VRB03G16KT 10SM BKN022 BKN031 OVC042 04/01 A2972
     RMK AO2 RAB03E14 P0000 T00440011 $=
KCTB 231617Z AUTO 34027G33KT 1SM -SN BR BKN007 OVC018 M01/M01
     A2982 RMK AO2 PK WND 33034/1557 P0000 T10061011 $=
KGCN 231617Z 23009KT 10SM SCT008 SCT060 BKN070 01/M01 A2981 RMK
     AO2 T00111006=
KTPL 231618Z AUTO 19019KT 10SM SCT026 BKN033 BKN042 26/19 A2991
     RMK AO2 PK WND 17030/1558=
KMLP 231616Z AUTO 01003KT 1/4SM -SN FZFG VV001 M01/M03 A2985 RMK
     AO2 P0000 T10111033=
