SPUS70 KWBC 232052
SPECI
KDDC 232049Z AUTO 21036G51KT 4SM HZ FEW027 32/04 A2937 RMK AO2 PK
     WND 20060/2007 $=
KEVW 232049Z AUTO 29016KT 10SM SCT032 BKN043 OVC065 M01/M05 A2976
     RMK AO2 WSHFT 2029 SNB1958E22 P0000 $=
