SPUS70 KWBC 231928
SPECI
KVAY 231925Z AUTO 05007KT 5SM -RA BKN025 BKN033 OVC045 17/12 A3021
     RMK AO2 RAB16 P0000 T01670122 $=
