SPUS70 KWBC 231846
SPECI
KGEY 231842Z AUTO 33014KT 10SM -RA SCT012 BKN034 OVC048 03/02
     A2959 RMK AO2 P0001 T00280017=
KITR 231842Z AUTO 23031G47KT 4SM HZ OVC032 26/M04 A2932 RMK AO2 PK
     WND 23055/1812 T02611039 $=
PAAQ 231842Z 00000KT 10SM FEW005 M03/M04 A2985 RMK AO2
     T10281044=
PAAQ 231842Z 00000KT 10SM FEW005 M03/M04 A2985 RMK AO2
     T10281044=
PAHL 231843Z AUTO 15004KT 6SM -SN BR SCT032 OVC042 M02/M03 A3000
     RMK AO2 P0000 FZRANO=
PAKV 231842Z AUTO 00000KT 10SM BKN014 OVC065 M05/M06 A3002 RMK AO2
     T10501061 TSNO=
PARS 231843Z AUTO 15005KT 6SM HZ OVC003 A3001 RMK AO2 SNB1758E41
     P0000 FZRANO $=
KAWO 231843Z AUTO 16007KT 10SM FEW013 SCT023 11/07 A3015 RMK
     AO2=
KMIV 231842Z AUTO 01010KT 3SM -RA BR BKN007 BKN018 OVC024 16/15
     A3018 RMK AO2 RAB1758 P0004 T01560150 $=
KMLP 231841Z AUTO 00000KT 1/2SM HZ VV001 00/M03 A2991 RMK AO2
     T00001028=
KEEO 231843Z AUTO 32005KT 3/4SM -SN BR BKN010 BKN018 OVC028
     M01/M02 A2962 RMK AO2 P0005 T10061017=
KGBD 231844Z AUTO 21037G48KT 2 1/2SM HZ FEW025 OVC033 32/09 A2935
     RMK AO2 PK WND 21048/1841 PRESFR=
KPVG 231844Z VRB04KT 3SM OVC002 14/14 A3010 RMK AO2 SLP301 PWINO
     PNO FZRANO RVRNO=
PAJC 231844Z AUTO 27006G15KT 10SM OVC030 06/00 A3017 RMK AO2 PNO
     $=
PAJC 231844Z AUTO 27006G15KT 10SM OVC030 06/00 A3017 RMK AO2 PNO
     $=
