SPUS70 KWBC 231750
SPECI
PAKI 231747Z AUTO 18008KT 10SM SCT016 OVC035 04/ A2994 RMK AO2
     RAE1658 PNO $=
PANI 231747Z AUTO 13004KT 2 1/2SM BR OVC003 M02/M02 A3011 RMK AO2
     VIS 1 1/2V4 FZRANO $=
PAOO 231747Z AUTO 17009KT OVC033 03/03 A2992 RMK AO2 PWINO TSNO
     $=
PANI 231747Z AUTO 13004KT 2 1/2SM BR OVC003 M02/M02 A3011 RMK AO2
     VIS 1 1/2V4 FZRANO $=
KEEO 231747Z AUTO 33007KT 1/4SM SN FG BKN007 OVC011 00/M01 A2957
     RMK AO2 RAE1655UPB08E11SNB11 P0005=
PARC 231748Z AUTO 00000KT 5SM -SN BR BKN030 OVC036 M14/M16 A2990
     RMK AO2 P0000 FZRANO=
