SPUS70 KWBC 232124
SPECI
KNFE 232120Z AUTO 34006KT 3SM -RA BR OVC005 17/15 A3008 RMK AO2
     P0000 T01670150=
PAWN 232121Z AUTO 14006KT 10SM BKN025 OVC039 00/00 A2984 RMK AO2
     FZRANO=
KAOO 232120Z AUTO 08006KT 10SM OVC031 17/08 A3023 RMK AO2
     T01670078=
K2DP 232120Z AUTO 34012G20KT 10SM OVC009 18/18 A3002 RMK AO2 SLPNO
     $=
KNFE 232120Z AUTO 34006KT 3SM -RA BR OVC005 17/15 A3008 RMK AO2
     P0000 T01670150=
PAKI 232122Z AUTO 19013KT 8SM -RA SCT020 BKN025 OVC038 04/03 A2985
     RMK AO2 RAB00 PNO $=
KDDC 232121Z AUTO 20038G52KT 4SM HZ CLR 31/07 A2938 RMK AO2 PK WND
     21057/2055 T03060067 $=
KLBL 232122Z AUTO 20032G41KT 3SM HZ FEW009 SCT015 SCT020 29/08
     A2943 RMK AO2 PK WND 22045/2108=
KRWL 232121Z AUTO 27008G17KT 1/4SM SN FG OVC012 00/M01 A2960 RMK
     AO2 SNB2057 P0001 T00001011=
