SPUS80 KWBC 231940
SPECI
KBIL 231937Z 30016G20KT 10SM -RA FEW011 SCT017 OVC033 03/01 A2965
     RMK AO2 RAB03 P0000 T00280011=
