SPUS70 KWBC 232004
SPECI
KLBL 232001Z AUTO 22035G48KT 1 1/4SM HZ FEW008 BKN014 OVC030 31/04
     A2945 RMK AO2 PK WND 23048/1959=
KMTJ 232000Z AUTO 30015KT 10SM SCT029 SCT045 BKN050 04/01 A2965
     RMK AO2 WSHFT 1940 RAE1957 P0000 T00440011 $=
KTIW 232000Z 19005KT 10SM SCT011 BKN016 11/06 A3017 RMK AO2
     T01060061=
KGUP 232001Z AUTO 24009KT 10SM -RA FEW017 BKN024 OVC035 05/03
     A2979 RMK AO2 P0000 T00500033=
KTOP 232001Z 16013G20KT 10SM FEW030 26/18 A2950 RMK AO2 LTG DSNT
     NE AND E T02560178=
PAHX 232002Z AUTO 17004KT 10SM BKN008 M02/M02 A3003 RMK AO2
     FZRANO=
