SPUS80 KWBC 231840
SPECI
PANN 231836Z AUTO 00000KT 2 1/2SM BR OVC003 M02/M02 A3001 RMK AO2
     T10171022 TSNO=
KSMP 231837Z AUTO VRB03KT 2 1/2SM BR SCT002 BKN006 OVC017 01/01
     A3006 RMK AO2 VIS 1V5 T00110006 $=
PASN 231837Z AUTO 22025G32KT 6SM BR FEW007 BKN012 OVC018 07/06
     A2974 RMK AO2 PK WND 20036/1801 RAE09 P0001 T00670061 TSNO
     $=
