SPUS70 KWBC 232040
SPECI
KCPR 232036Z 28012KT 10SM FEW010 SCT017 OVC049 02/01 A2954 RMK AO2
     RAE35 P0001 T00220011=
KVAY 232036Z AUTO 03007KT 7SM -RA BKN030 OVC034 14/12 A3021 RMK
     AO2 P0002 T01440122 $=
KLWT 232036Z AUTO 29016G29KT 3/4SM -SN BR OVC003 M01/M02 A2970 RMK
     AO2 PK WND 30029/2036 P0000 T10111017 $=
KRWL 232036Z AUTO 28008KT 2 1/2SM -SN FEW011 BKN040 OVC049 01/M02
     A2958 RMK AO2 SNB07 P0000 T00111017=
KCDC 232037Z AUTO 03004KT 1SM -SN BR SCT005 OVC010 00/00 A2989 RMK
     AO2 T00000000 PNO $=
KEEO 232037Z AUTO 31006KT 1/2SM SN FZFG BKN013 OVC026 M01/M02
     A2967 RMK AO2 P0001 T10061017=
KEWB 232037Z 01005KT 4SM -RA BR SCT038 BKN085 OVC110 14/14 A3029
     RMK AO2 P0013 T01390139=
KHDN 232038Z AUTO 27015KT 3SM -SN BR SCT005 BKN012 OVC026 M01/M01
     A2965 RMK AO2 P0000 FZRANO=
KMVY 232037Z 02012KT 1 1/4SM R24/5500VP6000FT +RA BR OVC021 14/13
     A3025 RMK AO2 P0017 T01390133=
PABA 232038Z AUTO 09021KT 10SM OVC008 M04/M06 A3006 RMK AO2 PK WND
     09026/2029 SNE10 FZRANO PNO $=
PATG 232038Z AUTO 34006KT 10SM BKN023 OVC038 M01/M02 A3010 RMK AO2
     FZRANO=
KBLM 232038Z AUTO 02011G20KT 2 1/2SM -RA BR SCT025 BKN030 OVC037
     13/13 A3022 RMK AO2 P0001=
