SPUS70 KWBC 231830
SPECI
PARS 231827Z AUTO 15004KT 1SM -SN OVC003 A3001 RMK AO2 SNB1758
     P0000 FZRANO RVRNO $=
KEEO 231827Z AUTO 33011KT 1/2SM SN FZFG VV008 M01/M02 A2961 RMK
     AO2 P0004 T10061017=
KSBY 231827Z 02011G16KT 9SM OVC010 17/15 A3013 RMK AO2 CIG 007V013
     T01670150=
