SPUS70 KWBC 231654
SPECI
KHDN 231651Z AUTO 28007KT 1/2SM SN FG BKN003 OVC008 00/00 A2958
     RMK AO2 RAE05UPB05E15SNB15 P0001 FZRANO=
KRBG 231650Z AUTO 10003KT 3/4SM BR VV002 06/06 A3018 RMK AO2=
PAKI 231651Z AUTO 19010KT 6SM -RA SCT011 BKN019 OVC032 04/ A2996
     RMK AO2 RAB21 PNO $=
KASE 231651Z 00000KT 1/2SM SN FG VV007 00/00 A2958 RMK AO2
     P0008=
KDEQ 231651Z AUTO 26/17 A2992 RMK AO2 PWINO=
KECG 231651Z 33019KT 2 1/2SM +RA BR SCT005 BKN050 OVC090 16/15
     A3009 RMK AO2 PRESFR P0017=
PFSH 231652Z AUTO 17018KT 10SM SCT019 02/M01 A2994 RMK AO2
     FZRANO=
KGTF 231651Z 34019G27KT 2 1/2SM -SN BR OVC006 00/M01 A2975 RMK AO2
     PK WND 34027/1651 SFC VIS 3 P0000 $=
KGUP 231651Z AUTO 25022G33KT 8SM RA FEW016 SCT026 OVC034 06/04
     A2977 RMK AO2 PK WND 24040/1603 P0010=
KLWT 231652Z AUTO 28014G20KT 3/4SM -SN BR OVC005 M01/M02 A2965 RMK
     AO2 UPE27SNB27 P0002 $=
KPUW 231651Z AUTO 27009KT 10SM BKN009 03/02 A3000 RMK AO2 CIG
     007V012 $=
