SPUS80 KWBC 231928
SPECI
KSXT 231925Z AUTO 00000KT 4SM BR BKN004 BKN009 OVC023 04/03 A3016
     RMK AO2 CIG 001V006 T00440028=
