SPUS80 KWBC 232038
SPECI
KWAL 232034Z AUTO 35010KT 2SM -RA BR SCT008 BKN013 OVC018 16/15
     A3010 RMK AO2 P0017 T01610150=
KUIL 232035Z AUTO 18007KT 150V220 10SM FEW019 SCT026 12/07 A3013
     RMK AO2 T01220072=
