SPUS70 KWBC 231908
SPECI
KBID 231905Z AUTO 05012G19KT 7SM -RA BKN014 BKN037 OVC050 14/12
     A3026 RMK AO2 P0000=
KHLN 231904Z 31011KT 5SM -SN FEW013 BKN025 OVC036 02/M01 A2984 RMK
     AO2 P0000 T00221006=
KLBL 231905Z AUTO 22029G47KT 1 3/4SM HZ FEW008 BKN020 OVC034 30/07
     A2946 RMK AO2 PK WND 23047/1858 VIS 1 1/4V3=
KMIV 231904Z AUTO 03010KT 2 1/2SM -RA BR OVC009 16/14 A3017 RMK
     AO2 RAB1858 P0000 T01560144 $=
PAPH 231905Z AUTO 29008KT 10SM FEW025 SCT029 06/03 A3017 RMK
     AO2=
KMLP 231904Z AUTO VRB03KT 3/4SM HZ VV002 M01/M03 A2991 RMK AO2
     T10061033=
KPHF 231905Z 35007KT 4SM -RA BR OVC006 14/14 A3013 RMK AO2 CIG
     005V009 P0001 T01440139=
