SPUS70 KWBC 231634
SPECI
KMLP 231629Z AUTO 00000KT M1/4SM +SN VV001 M01/M03 A2986 RMK AO2
     P0000 T10061033=
PAPB 231630Z AUTO 19025G33KT 4SM RA BKN009 OVC014 06/ A2990 RMK
     AO2 PK WND 18035/1559 RAB1557 P0004 T0061 TSNO $=
PAPB 231630Z AUTO 19025G33KT 4SM RA BKN009 OVC014 06/ A2990 RMK
     AO2 PK WND 18035/1559 RAB1557 P0004 T0061 TSNO $=
KCXY 231631Z 35005KT 10SM SCT030 OVC039 16/06 A3028 RMK AO2
     T01610061=
KGUC 231632Z AUTO 23009KT 10SM UP FEW013 BKN033 OVC050 02/01 A2959
     RMK AO2 RAE18UPB30 P0000 FZRANO=
