SPUS70 KWBC 231906
SPECI
PADU 231903Z 21012KT 10SM BKN027 BKN033 07/03 A3021 RMK AO2=
PAOO 231903Z AUTO 14008KT OVC032 03/03 A2990 RMK AO2 PWINO TSNO
     $=
KCDC 231902Z AUTO 01008KT 1SM -SN BR SCT004 OVC010 00/M01 A2987
     RMK AO2 T00001006 PNO $=
KPVU 231903Z 31022G26KT 10SM BKN025 07/M02 A2980 RMK AO2 PK WND
     31026/1902=
KGGW 231903Z AUTO 32005KT 1 1/4SM -SN BR BKN006 OVC009 01/00 A2958
     RMK AO2 P0001 T00110000=
KITR 231904Z AUTO 23036G51KT 4SM HZ BKN030 BKN040 27/M04 A2932 RMK
     AO2 PK WND 23051/1856 T02671044 $=
KSHN 231903Z AUTO 00000KT 3SM BR OVC002 07/07 A3014 RMK AO2
     T00670067=
KVAY 231903Z AUTO VRB04KT 10SM SCT025 OVC046 17/12 A3021 RMK AO2
     T01720122 $=
