SPUS80 KWBC 232030
SPECI
PFNO 232028Z AUTO 12009KT 8SM BKN018 OVC060 01/00 A2988 RMK AO2
     FZRANO=
