SPUS70 KWBC 231632
SPECI
PANA 231629Z AUTO 15008KT 3/4SM BR OVC003 M02/M02 A3004 RMK AO2
     FZRANO TSNO $=
PANV 231629Z AUTO 10004KT 3SM BR SCT001 BKN075 M04/M04 A3000 RMK
     AO2 FZRANO TSNO=
PANA 231629Z AUTO 15008KT 3/4SM BR OVC003 M02/M02 A3004 RMK AO2
     FZRANO TSNO $=
PANV 231629Z AUTO 10004KT 3SM BR SCT001 BKN075 M04/M04 A3000 RMK
     AO2 FZRANO TSNO=
PAOO 231629Z AUTO 23008KT FEW012 OVC030 03/03 A2993 RMK AO2 PWINO
     TSNO $=
KGFA 231625Z AUTO 33014KT 2 3/4SM -SN OVC007 00/00 A2974 RMK AO2
     VIS 2 3/4V4 SLP101 $=
KCAG 231629Z AUTO 27006KT 1SM -SN BR FEW005 OVC017 01/M01 A2958
     RMK AO2 P0003 T00061006=
KHOT 231629Z AUTO 19008KT 10SM OVC031 23/16 A2998 RMK AO2
     T02330161=
KRIL 231629Z AUTO 09004KT 9SM -RA OVC003 02/01 A2958 RMK AO2 P0002
     T00220011=
