SPUS80 KWBC 231708
SPECI
KHVR 231704Z AUTO 01014G22KT BKN013 OVC019 02/01 A2972 RMK AO2
     T00170006 $=
KRIW 231704Z AUTO 36011KT 1/2SM SN FG SCT005 OVC010 00/M01 A2958
     RMK AO2 P0001 T00001006=
