SPUS70 KWBC 232054
SPECI
KNFE 232045Z AUTO VRB05KT 1 3/4SM -RA BR OVC007 17/14 A3008 RMK
     AO2 RAB40 P0000 T01670144=
KLVM 232050Z AUTO 30006KT 1/4SM +SN FG OVC003 00/M01 A2977 RMK AO2
     P0003 $=
KMLP 232049Z AUTO VRB04KT 1 3/4SM BR OVC002 M01/M03 A2995 RMK AO2
     VIS 1/2V5=
KVAY 232050Z AUTO 02007KT 10SM -RA BKN029 OVC034 14/12 A3021 RMK
     AO2 P0003 $=
PASD 232051Z 21006KT 10SM FEW024 SCT048 BKN060 08/02 A3024 RMK AO2
     PNO $=
KBLM 232052Z AUTO 03010KT 4SM -RA SCT007 BKN025 OVC033 13/ A3022
     RMK AO2 P0002=
KDLN 232051Z AUTO 15007KT 1SM -SN BR BKN017 OVC035 M01/M01 A2982
     RMK AO2 SNB11 P0000=
KMIW 232051Z AUTO 15021G32KT 10SM VCTS FEW034 FEW090 24/14 A2955
     RMK AO2 PK WND 16034/2013 LTG DSNT NE RAB20E39 TSB28E45
     P0000=
PANV 232052Z AUTO 17006KT 2SM BR OVC003 M02/M02 A2997 RMK AO2 VIS
     1 1/4V5 FZRANO TSNO=
PANV 232052Z AUTO 17006KT 2SM BR OVC003 M02/M02 A2997 RMK AO2 VIS
     1 1/4V5 FZRANO TSNO=
PATE 232052Z AUTO 11010KT 10SM UP OVC014 01/00 A2967 RMK AO2
     UPB05E08B25RAB08E18SNE05 P0000 FZRANO=
