SPUS70 KWBC 232002
SPECI
PAHX 232000Z AUTO 17004KT 10SM SCT008 M02/M02 A3003 RMK AO2
     FZRANO=
PATA 231959Z 00000KT 6SM BR OVC004 M02/M03 A3005 RMK AO2 T10221033
     $=
KMIV 231959Z AUTO 03006KT 2SM RA BR BKN009 BKN012 OVC020 15/14
     A3018 RMK AO2 P0002 T01500144 $=
