SPUS70 KWBC 231706
SPECI
KHEF 231703Z 36010KT 10SM SCT021 SCT025 OVC030 16/11 A3024 RMK
     AO2=
KRNT 231702Z 17004KT 10SM FEW007 SCT014 OVC055 09/07 A3012 RMK AO2
     T00890072=
TISX 231700Z 12010KT 10SM BKN027 BKN032 BKN045 31/24 A2992 RMK AO2
     T03110244 $=
KHDN 231704Z AUTO 27007KT 3/4SM -SN BR BKN003 OVC008 00/00 A2957
     RMK AO2 P0000 FZRANO=
KOFP 231703Z AUTO VRB06KT 10SM OVC014 16/12 A3022 RMK AO2
     T01560117=
PANI 231704Z AUTO 13004KT 10SM OVC005 M02/M03 A3012 RMK AO2 FZRANO
     $=
PANI 231704Z AUTO 13004KT 10SM OVC005 M02/M03 A3012 RMK AO2 FZRANO
     $=
