SPUS80 KWBC 232138
SPECI
KBZN 232135Z 28008KT 1 1/4SM -SN BR BKN006 OVC017 00/M01 A2986 RMK
     AO2 P0001 T00001006=
