SPUS80 KWBC 232006
SPECI
PAFA 232002Z 00000KT 1SM -SN BR OVC003 M01/M03 A3001 RMK AO2 P0000
     T10111028 RVRNO $=
KACY 232002Z 04012G19KT 10SM BKN010 OVC014 15/14 A3017 RMK AO2
     T01500139=
KELY 232000Z AUTO 03012KT 10SM FEW041 SCT050 SCT060 01/M03 A2990
     RMK AO2 WSHFT 1940 T00111028=
KHLC 232003Z AUTO 22024G46KT 2 1/2SM HZ BKN036 OVC045 32/03 A2927
     RMK AO2 PK WND 21046/1954 T03170028=
KLXV 232003Z AUTO 29003KT 3/4SM -SN BR BKN024 BKN032 OVC050
     M02/M04 A2958 RMK AO2 P0000 T10221039 $=
