SPUS70 KWBC 232020
SPECI
PAKP 232017Z AUTO 20010KT 4SM -SN BR OVC003 M10/M12 A2989 RMK AO2
     P0000 FZRANO=
PANV 232017Z AUTO 15007KT 1/2SM FZFG OVC003 M03/M03 A2998 RMK AO2
     FZRANO TSNO=
KIML 232016Z AUTO 33023G31KT 10SM CLR 26/M04 A2921 RMK AO2 PK WND
     25054/2001 WSHFT 1956 T02561039 $=
KSTJ 232016Z 21025G43KT 5SM -TSRA SCT060 BKN120 25/16 A2958 RMK
     AO2 PK WND 22043/2013 LTG DSNT S-NW RAB15 TSB10 P0001
     T02500156=
PAKP 232017Z AUTO 20010KT 4SM -SN BR OVC003 M10/M12 A2989 RMK AO2
     P0000 FZRANO=
PANV 232017Z AUTO 15007KT 1/2SM FZFG OVC003 M03/M03 A2998 RMK AO2
     FZRANO TSNO=
KCEZ 232017Z AUTO 24015G29KT 10SM BKN060 08/M06 A2971 RMK AO2 PK
     WND 24030/2007 WSHFT 1957 T00831056 $=
KDDC 232017Z AUTO 21039G59KT 2 1/2SM HZ FEW021 32/04 A2938 RMK AO2
     PK WND 20060/2007 T03170044 $=
KDLN 232017Z AUTO 12009KT 1SM -SN BR BKN026 BKN036 OVC045 M01/M02
     A2981 RMK AO2 SNB11 P0000 T10111017=
KPHL 232017Z 05009KT 8SM -RA SCT030 BKN043 OVC075 15/13 A3021 RMK
     AO2 P0002 T01500128 $=
KSGU 232018Z AUTO 35017G24KT 10SM BKN060 12/M01 A2986 RMK AO2 PK
     WND 31028/2002 WSHFT 1958=
