SPUS80 KWBC 232026
SPECI
KLND 232021Z AUTO 05008KT 10SM BKN014 OVC018 03/01 A2960 RMK AO2
     T00280011=
KACY 232023Z 02008G21KT 4SM -RA BR OVC009 15/14 A3017 RMK AO2
     RAB05 CIG 006V011 P0000 T01500139=
KRIC 232023Z 33010KT 3SM -RA BR FEW007 BKN013 OVC019 14/13 A3016
     RMK AO2 RAB08 P0000 T01440133 $=
