SPUS80 KWBC 231732
SPECI
KCNY 231728Z AUTO 25008KT 1 3/4SM -SN BR BKN007 OVC013 01/01 A2962
     RMK AO2 VIS 1 1/4V2 1/2 RAE07SNB07 P0009 T00060006=
PFNO 231729Z AUTO 15009KT 9SM BKN003 M03/M03 A2989 RMK AO2
     FZRANO=
