SPUS80 KWBC 231752
SPECI
KGCC 231748Z AUTO 4SM -SN SCT009 BKN022 OVC032 01/ A2947 RMK AO2
     P0002 $=
KMLF 231747Z AUTO 03005KT 1 1/2SM -SN BR OVC003 01/00 A2984 RMK
     AO2 P0001 T00060000 $=
PABE 231748Z 15008KT 3SM BR OVC002 M01/M02 A3002 RMK AO2 I1001=
PABE 231748Z 15008KT 3SM BR OVC002 M01/M02 A3002 RMK AO2 I1001=
PHJR 231747Z 08004KT 2SM -RA BR FEW023 BKN030 OVC047 23/21 A3004
     RMK AO2 RAB35 P0001=
