SPUS70 KWBC 231636
SPECI
KEEO 231632Z AUTO 00000KT 7SM -SN FEW006 BKN010 OVC019 02/01 A2955
     RMK AO2 UPB02E06SNE02B10 P0000 T00170006=
KPWT 231633Z AUTO 00000KT 10SM SCT026 BKN037 07/07 A3011 RMK
     AO2=
PASA 231633Z AUTO 32016KT 8SM -SN BKN006 OVC010 01/00 A2965 RMK
     AO2 CIG 004V009 P0000 FZRANO=
KLBL 231634Z AUTO 22036G41KT 2 1/2SM HZ FEW015 SCT022 28/08 A2951
     RMK AO2 PK WND 22044/1621 VIS 1 3/4V4=
KSBY 231633Z 04014G21KT 10SM OVC014 18/15 A3015 RMK AO2
     T01780150=
PALG 231634Z AUTO 09006KT 1 1/4SM -SN BR OVC003 M02/M03 A3005 RMK
     AO2 SNB33 P0000 FZRANO=
PAPM 231634Z AUTO 07006KT 10SM BKN029 BKN035 01/00 A3008 RMK AO2
     FZRANO=
