SPUS80 KWBC 231632
SPECI
KAAT 231628Z AUTO 18003KT 10SM BKN017 BKN024 01/M01 A3005 RMK AO2
     T00061011=
KRIW 231629Z AUTO 34008KT 1 1/2SM -SN BR OVC013 01/00 A2957 RMK
     AO2 P0001 T00060000 $=
