SPUS80 KWBC 231806
SPECI
KDRT 231802Z AUTO 14010KT 10SM SCT017 23/18 A2981 RMK AO2
     T02330183=
PABE 231802Z 15009KT 10SM SCT002 M02/M02 A3001 RMK AO2
     T10171017=
PFNO 231803Z AUTO 14009KT 9SM SCT003 SCT095 M03/M03 A2989 RMK AO2
     FZRANO=
PABE 231802Z 15009KT 10SM SCT002 M02/M02 A3001 RMK AO2
     T10171017=
KORF 231803Z 35012KT 3SM -RA BR OVC005 16/15 A3011 RMK AO2 P0001
     T01560150=
