SPUS70 KWBC 231740
SPECI
KCAG 231736Z AUTO 32007KT 4SM -SN SCT015 BKN019 OVC024 01/M02
     A2959 RMK AO2 P0003 T00061022=
PARY 231737Z AUTO 13003KT 3SM -SN BR FEW012 OVC025 M03/M04 A3001
     RMK AO2 SNB25 P0000 FZRANO=
KIML 231737Z AUTO 22028G43KT 10SM SCT027 27/M01 A2922 RMK AO2 PK
     WND 21049/1708 T02671011 $=
KUAO 231737Z VRB05KT 10SM BKN013 OVC055 10/08 A3017 RMK AO2
     T01000078=
