SPUS70 KWBC 232144
SPECI
KACK 232140Z 02015KT 2SM RA BR OVC004 16/16 A3021 RMK AO2 P0021
     T01610156=
KGED 232141Z AUTO 03014KT 2SM -RA BR OVC006 16/14 A3013 RMK AO2
     CIG 004V010 P0002 T01560144=
