SPUS80 KWBC 231846
SPECI
KMHK 231842Z 19014G34KT 10SM TS FEW037 FEW095 SCT120 28/13 A2948
     RMK AO2 PK WND 18037/1805 RAB15E25 TSB36 TS MOVING FROMWEST
     TO EAST. P0000 T02780128=
KRIC 231842Z 35009KT 4SM -RA BR SCT006 OVC011 14/13 A3018 RMK AO2
     RAB04 P0001 T01440133 $=
KMYL 231843Z AUTO 33003KT 10SM SCT022 BKN039 OVC050 02/M06 A2991
     RMK AO2 T00221056=
PANN 231843Z AUTO 28004KT 7SM OVC003 M02/M02 A3001 RMK AO2
     T10171022 TSNO=
