SPUS80 KWBC 231836
SPECI
KSXT 231833Z AUTO VRB04KT 6SM BR SCT005 BKN011 OVC025 03/02 A3015
     RMK AO2 T00280017=
KHVR 231833Z AUTO 01015G20KT BKN014 OVC020 02/01 A2976 RMK AO2
     T00170006 $=
