SPUS70 KWBC 231946
SPECI
PAHY 231943Z AUTO 11020G24KT 9SM -RA FEW015 BKN041 OVC048 09/07
     A2936 RMK AO2 PK WND 13029/1922 P0007 $=
PAIK 231943Z AUTO 00000KT 10SM BKN003 M02/M02 A2991 RMK AO2
     FZRANO=
KFCI 231943Z AUTO 01007KT 4SM -RA BR BKN007 OVC014 14/14 A3018 RMK
     AO2 CIG 004V009 P0001=
KMLP 231941Z AUTO 00000KT 1 1/2SM BR OVC001 00/M02 A2992 RMK AO2
     VIS 3/4V5 T00001022=
KBTM 231943Z AUTO 30009KT 10SM FEW020 BKN055 OVC070 00/M03 A2982
     RMK AO2 SNE19 P0000 T00001028=
PANI 231944Z AUTO 14009KT 2 1/2SM BR OVC004 M02/M03 A3009 RMK AO2
     VIS 1V5 FZRANO $=
PANI 231944Z AUTO 14009KT 2 1/2SM BR OVC004 M02/M03 A3009 RMK AO2
     VIS 1V5 FZRANO $=
