SPUS80 KWBC 231900
SPECI
KWAL 231857Z AUTO 01010G15KT 3SM -RA BR BKN007 OVC013 17/16 A3011
     RMK AO2 P0001 T01670156=
PADG 231859Z 17016KT 4SM BR BKN003 OVC005 M01/M01 A2973 RMK VIS S
     1-1/4=
