SPUS80 KWBC 231712
SPECI
KMLF 231708Z AUTO 01004KT 1 1/2SM -SN BR FEW003 OVC010 01/00 A2983
     RMK AO2 P0000 T00060000 $=
