SPUS70 KWBC 232018
SPECI
KEEO 232014Z AUTO 21004KT 1SM -SN BR BKN012 BKN020 OVC032 M01/M01
     A2966 RMK AO2 P0000 T10061011=
KOFP 232014Z AUTO 33005KT 3SM BR BKN008 BKN012 OVC019 15/14 A3018
     RMK AO2 RAB02E14 CIG 006V010 P0000 T01500139=
KGTF 232015Z 35017KT 1 1/2SM -SN BR OVC007 00/M01 A2985 RMK AO2 PK
     WND 35027/2001 TWR VIS 3 P0000 T00001006 $=
