SPUS80 KWBC 231620
SPECI
KGCC 231616Z AUTO 3/4SM -SN BKN018 OVC024 01/ A2946 RMK AO2 P0002
     T0006 $=
KLXV 231616Z AUTO 17003KT 7SM SCT020 OVC060 01/M01 A2955 RMK AO2
     SNE16 P0002 T00061006 $=
KRIC 231616Z 35013KT 10SM BKN008 OVC013 15/12 A3020 RMK AO2 RAE03
     P0000 T01500117 $=
