SPUS70 KWBC 232056
SPECI
KOAJ 232053Z 35006KT 10SM FEW025 OVC044 20/16 A3009 RMK AO2=
PAIK 232053Z AUTO 09008KT 10SM SCT005 BKN018 OVC050 M01/M01 A2991
     RMK AO2 FZRANO=
KHDN 232053Z AUTO 27014G19KT 1SM -SN BR BKN005 OVC010 M01/M01
     A2966 RMK AO2 CIG 003V007 P0000 FZRANO=
PAFS 232054Z AUTO 01003KT 10SM OVC009 M02/M03 A3006 RMK AO2 CIG
     006V012 FZRANO=
