SPUS70 KWBC 232110
SPECI
KCDC 232106Z AUTO 05004KT 2SM -SN BR FEW007 BKN025 OVC032 01/00
     A2990 RMK AO2 SNB2056 T00060000 PNO $=
KRWL 232106Z AUTO 27013KT 1 1/4SM -SN BR BKN013 BKN019 OVC030
     01/M02 A2959 RMK AO2 SNB2057 P0000 T00061017=
KFMH 232110Z 02010KT 2SM RA BR FEW002 SCT007 BKN033 13/13
     A3027=
KGED 232106Z AUTO 03012G19KT 1 3/4SM -RA BR OVC007 16/14 A3014 RMK
     AO2 P0000 T01610144=
