SPUS70 KWBC 231732
SPECI
KBYG 231728Z AUTO 34024G33KT 5SM -SN BR FEW005 SCT044 OVC060 02/00
     A2948 RMK AO2 PK WND 34037/1715 UPE1659SNB1659 P0000
     T00170000=
KCTB 231728Z AUTO 33026G34KT 1SM -SN BR BKN008 OVC015 M01/M01
     A2984 RMK AO2 PK WND 34034/1724 SNB1656 P0001 T10061011 $=
KGED 231728Z AUTO 03010KT 2SM -RA BR BKN010 OVC015 17/15 A3017 RMK
     AO2 CIG 006V012 P0001 T01670150=
KHDN 231729Z AUTO 26007KT 1SM -SN BR BKN003 OVC007 00/00 A2958 RMK
     AO2 P0001 FZRANO=
KNFE 231729Z AUTO 35008KT 2 1/2SM RA BR OVC004 17/15 A3011 RMK AO2
     P0014 T01670150=
PAPH 231730Z AUTO 28010KT 10SM SCT029 SCT050 04/02 A3016 RMK AO2
     RAE08 P0000=
KBTM 231729Z AUTO 31007KT 3SM -SN BR FEW016 BKN026 OVC035 M01/M03
     A2978 RMK AO2 P0000 T10111028=
KEEO 231729Z AUTO 29004KT 5SM -SN BR BKN011 OVC017 01/01 A2956 RMK
     AO2 RAE1655UPB08E11SNB11 P0001 T00110006=
KRNT 231729Z VRB03KT 10SM BKN010 OVC055 09/07 A3013 RMK AO2
     T00940067=
KVAY 231729Z AUTO 02006KT 10SM BKN020 BKN048 OVC100 16/13 A3023
     RMK AO2 RAB09E27 P0000 T01610128 $=
