SPUS80 KWBC 232112
SPECI
KINW 232108Z AUTO 30015KT 10SM BKN070 OVC090 14/01 A2977 RMK AO2
     WSHFT 2048 T01390011=
