SPUS70 KWBC 231712
SPECI
PALG 231709Z AUTO VRB05KT 3/4SM BR OVC003 M03/M03 A3006 RMK AO2
     SNE1657 FZRANO=
KCDC 231709Z AUTO 32007KT 1/2SM SN FZFG VV007 M01/M01 A2983 RMK
     AO2 T10061011 PNO $=
KDDC 231709Z AUTO 22030G50KT 2 1/2SM HZ 30/05 A2942 RMK AO2 PK WND
     21051/1659 T03000050 $=
KHYI 231710Z 19021G25KT 10SM OVC015 23/21 A2994 RMK AO2 $=
KITR 231709Z AUTO 23036G50KT 2SM HZ BKN021 OVC034 25/M03 A2936 RMK
     AO2 PK WND 23050/1702 T02501033 $=
KPVG 231710Z AUTO VRB04KT 2SM BR OVC002 14/14 A3015 RMK AO2 PNO
     $=
PAOU 231710Z AUTO 23009KT 10SM BKN026 BKN038 04/02 A3021 RMK AO2
     PNO $=
