SPUS70 KWBC 231736
SPECI
KDGW 231732Z AUTO 32016KT 8SM -RA BKN014 OVC022 03/01 A2948 RMK
     AO2 PK WND 32026/1655 P0000 T00330011=
KAWO 231734Z AUTO 18004KT 10SM SCT021 BKN050 09/06 A3014 RMK
     AO2=
KECG 231733Z 31010G17KT 3SM RA BR BKN004 OVC008 16/16 A3007 RMK
     AO2 PK WND 33026/1708 P0032 T01610156=
KHDN 231734Z AUTO 26007KT 2SM -SN BR BKN003 OVC007 00/00 A2958 RMK
     AO2 VIS 1 1/4V3 P0001 FZRANO=
