SPUS80 KWBC 231738
SPECI
KMLF 231734Z AUTO 01004KT 2 1/2SM -SN BR BKN005 OVC010 01/00 A2984
     RMK AO2 CIG 002V007 P0001 T00060000 $=
KGCC 231734Z AUTO 2SM -SN FEW009 OVC022 01/ A2947 RMK AO2 P0002
     T0011 $=
