SPUS80 KWBC 231618
SPECI
KDVL 231615Z AUTO 05019G24KT 10SM SCT009 08/06 A2949 RMK AO2=
KLND 231616Z AUTO 00000KT 1SM -SN BR VV013 01/00 A2956 RMK AO2
     P0001 T00060000 $=
