SPUS80 KWBC 231654
SPECI
KMLF 231650Z AUTO 01005KT 1 1/2SM -SN BR SCT003 OVC010 01/00 A2982
     RMK AO2 P0002 $=
PAQT 231648Z AUTO 09007KT 6SM BR OVC005 M07/M08 A3004 RMK AO2
     I1000 TSNO=
PASN 231651Z AUTO 19027G39KT 4SM -RA BR BKN010 BKN013 OVC018 06/04
     A2980 RMK AO2 PK WND 19039/1649 P0008 TSNO $=
