SPUS70 KWBC 232008
SPECI
KHDN 232005Z AUTO 30012G18KT 1 1/4SM -SN BR FEW006 BKN011 OVC017
     M01/M02 A2963 RMK AO2 CIG 009V014 P0000 FZRANO=
KMLP 232003Z AUTO VRB03KT 1/4SM FZFG VV001 M01/M02 A2993 RMK AO2
     T10061022=
KLVM 232005Z AUTO 26017KT 2 1/2SM -SN BR BKN022 OVC029 01/M01
     A2974 RMK AO2 P0000 T00111011 $=
KOFP 232005Z AUTO 32005KT 1 3/4SM -RA BR BKN008 OVC012 14/14 A3019
     RMK AO2 RAB02 CIG 006V010 P0000 T01440139=
PADM 232006Z AUTO 09016G23KT 10SM OVC030 01/M02 A2998 RMK AO2
     FZRANO=
PAHL 232006Z AUTO 15007KT 1 3/4SM -SN BR FEW005 BKN022 OVC028
     M01/M02 A2999 RMK AO2 VIS 1 1/4V3 P0000 FZRANO=
TISX 232004Z 04009KT 10SM SCT029 30/23 A2988 RMK AO2 T03000228
     $=
