SPUS80 KWBC 231754
SPECI
KUIL 231750Z AUTO 00000KT 10SM BKN023 08/06 A3012 RMK AO2=
