SPUS70 KWBC 231626
SPECI
KGUP 231622Z AUTO 24022G38KT 4SM +RA BR FEW020 SCT029 OVC035 07/05
     A2974 RMK AO2 PK WND 24040/1603 P0006 T00720050=
KMTJ 231622Z AUTO 17004KT 4SM RA BR FEW005 BKN009 OVC014 02/02
     A2964 RMK AO2 P0002 T00170017 $=
KECG 231623Z 32012KT 1 3/4SM +RA BR OVC004 16/15 A3012 RMK AO2
     P0004 T01610150=
KOGD 231623Z 34012G21KT 10SM BKN023 04/M01 A2974 RMK AO2
     T00441011=
KONT 231623Z 00000KT 10SM BKN026 BKN050 16/11 A2986 RMK AO2
     T01560106 $=
KPVG 231624Z AUTO VRB05KT 1 1/2SM BR OVC002 14/14 A3015 RMK AO2
     RAE01 PNO $=
