SPUS80 KWBC 231902
SPECI
KMYL 231858Z AUTO 32005KT 10SM BKN020 BKN040 OVC055 02/M04 A2992
     RMK AO2 T00221044=
