SPUS70 KWBC 231630
SPECI
KCPR 231626Z 25005KT 2SM -RA BR SCT012 OVC018 03/01 A2950 RMK AO2
     P0004 I1000 T00280011=
KGGW 231626Z AUTO 05014KT 7SM -RA OVC018 05/03 A2952 RMK AO2 P0003
     T00500028=
KSEG 231626Z AUTO 00000KT 10SM OVC031 14/07 A3031 RMK AO2
     T01390072=
KTTD 231626Z 10004KT 10SM SCT029 SCT047 OVC055 10/07 A3014 RMK AO2
     T01000072=
PAPG 231628Z 11008G17KT 070V170 9SM RA BKN026 OVC037 05/02 A2954
     RMK AO2 P0002=
PARS 231628Z AUTO 16005KT 1SM BR OVC003 A3004 RMK AO2 FZRANO RVRNO
     $=
KAWO 231628Z AUTO 00000KT 10SM BKN027 OVC050 07/06 A3012 RMK
     AO2=
KDGW 231627Z AUTO 30021G30KT 10SM BKN018 OVC060 05/02 A2944 RMK
     AO2 PK WND 30030/1621 T00500017=
KDRO 231627Z AUTO 25020G27KT 10SM FEW018 SCT027 BKN035 07/06 A2968
     RMK AO2 PK WND 25027/1625 RAE06 P0001 T00670061 $=
KLHX 231627Z AUTO 23027G43KT 7SM BKN019 23/M03 A2941 RMK AO2 PK
     WND 24051/1612 T02331033 $=
KSPB 231627Z AUTO 00000KT 7SM SCT028 SCT034 OVC055 09/07 A3012 RMK
     AO2 T00890072=
