SPUS80 KWBC 231726
SPECI
KHVR 231723Z AUTO 02017G23KT BKN015 OVC022 02/01 A2972 RMK AO2
     T00170006 $=
