SPUS80 KWBC 231706
SPECI
KCNY 231702Z AUTO 31015KT 4SM RA BR BKN009 OVC014 02/02 A2960 RMK
     AO2 P0001 T00220017=
