SPUS80 KWBC 231830
SPECI
KRIW 231826Z AUTO 36015KT 4SM -SN BR BKN006 OVC016 01/00 A2958 RMK
     AO2 P0000 T00060000=
