SPUS70 KWBC 231730
SPECI
KMTJ 231726Z AUTO 13011KT 10SM -RA SCT006 BKN032 OVC050 03/02
     A2964 RMK AO2 P0002 T00330022 $=
KITR 231727Z AUTO 22033G52KT 2SM HZ BKN021 OVC030 25/M03 A2936 RMK
     AO2 PK WND 22052/1718 T02501033 $=
KOAJ 231728Z VRB05KT 10SM BKN024 21/14 A3012 RMK AO2=
KSHR 231727Z AUTO 31021G29KT 9SM -SN SCT011 BKN024 OVC029 02/01
     A2957 RMK AO2 PK WND 31030/1713 UPE24SNB05E09B24 P0001
     T00220006=
