SPUS70 KWBC 231724
SPECI
KMLS 231720Z AUTO 29009KT 3SM RA BR FEW007 SCT019 OVC028 06/05
     A2948 RMK AO2 P0006 T00610050=
KRIL 231720Z AUTO 28004KT 10SM BKN007 OVC017 03/01 A2959 RMK AO2
     RAE18 P0001 T00280006=
PAHX 231721Z AUTO 14004KT 10SM BKN004 BKN070 OVC085 M04/M04 A3005
     RMK AO2 FZRANO=
PAOU 231721Z AUTO 27009KT 9SM SCT026 OVC038 05/02 A3021 RMK AO2
     PNO $=
KASE 231721Z 32003KT 1SM -SN BR VV008 00/M01 A2958 RMK AO2 P0003
     T00001006=
KCAG 231721Z AUTO 32006KT 1 1/4SM -SN BR BKN012 OVC024 01/M02
     A2958 RMK AO2 P0002 T00061017=
KCRG 231721Z 08007KT 10SM SCT023 BKN027 25/18 A3014 RMK AO2
     T02500183=
KLVM 231721Z AUTO 26015KT 1 3/4SM -SN OVC019 01/M02 A2971 RMK AO2
     VIS 1 1/4V2 P0000 T00111017 $=
PARY 231722Z AUTO 08004KT 1 1/2SM BR FEW012 SCT018 OVC025 M03/M04
     A3001 RMK AO2 FZRANO=
PASK 231722Z AUTO 13005KT 10SM SCT022 M01/M02 A2991 RMK AO2
     FZRANO=
