SPUS70 KWBC 231816
SPECI
KCHO 231812Z 02007KT 10SM OVC029 20/08 A3021 RMK AO2 T02000083=
KUNO 231812Z AUTO 19015G26KT 10SM SCT030 23/14 A2990 RMK AO2 PK
     WND 20027/1800 T02330144=
KCDC 231813Z AUTO 01013G18KT 1/2SM SN FZFG FEW005 OVC010 M01/M01
     A2986 RMK AO2 T10061011 PNO $=
KCTB 231813Z AUTO 34023KT 3/4SM -SN BR BKN009 OVC020 00/M01 A2987
     RMK AO2 PK WND 34032/1806 P0000 T00001011 $=
KHJO 231813Z AUTO 31013G21KT 6SM HZ CLR 18/02 A2995 RMK AO2
     T01780017=
KMRH 231813Z AUTO 32012KT 10SM -RA BKN011 BKN029 OVC036 16/15
     A3006 RMK AO2 P0001 T01610150=
KPWT 231814Z AUTO 21004KT 1SM BR OVC002 07/07 A3016 RMK AO2 VIS
     1/2V2 1/2=
PALP 231812Z 10014KT 3SM BR OVC002 M06/M07 A3003=
