SPUS80 KWBC 231832
SPECI
KLND 231829Z AUTO 08005KT 3SM -SN BR SCT010 BKN026 OVC032 02/00
     A2959 RMK AO2 SNB10 P0000 T00170000=
KMLF 231828Z AUTO 01006KT 9SM SCT003 OVC018 01/00 A2986 RMK AO2
     SNE25 P0000 T00110000 $=
KWAL 231829Z AUTO 02010KT 1 3/4SM -RA BR OVC009 17/15 A3011 RMK
     AO2 RAB04 CIG 006V011 P0001 T01670150=
PABT 231829Z 01003KT 6SM BR FEW004 FEW010 OVC035 M06/M07 A3002 RMK
     AO2 T10561072 $=
KSXT 231830Z AUTO VRB04KT 2 1/2SM BR BKN005 BKN011 OVC025 03/02
     A3015 RMK AO2 T00280022=
