ASUS43 KARX 231759
RWRARX

HOURLY WEATHER FOR THE UPPER MISSISSIPPI RIVER VALLEY
NATIONAL WEATHER SERVICE LA CROSSE WI
100 PM CDT SUN OCT 23 2022

NOTE: "FAIR" indicates few or no clouds below 12,000 feet with no
significant weater and/or obstructions to visibility. 

MNZ077-085>088-093>096-231900
Southeast Minnesota
  
CITY           SKY/WX    TMP DP  RH WIND       PRES   REMARKS
ROCHESTER      SUNNY     73  54  51 SE22G35   29.61F                  
WINONA         SUNNY     73  54  49 SE17      29.65F                  
AUSTIN         SUNNY     73  55  53 S15G26    29.58F                  
ALBERT LEA     SUNNY     73  55  53 S22G30      N/A                   
DODGE CENTER   SUNNY     73  54  49 SE25G31   29.59F                  
PRESTON          N/A     72  55  54 SE18G28   29.64F                  
OWATONNA       SUNNY     73  55  53 SE22      29.56F                  
FARIBAULT      SUNNY     73  55  53 SE23G29   29.56F                  
$$
 
WIZ041-042-053>056-061-231900
Southwest Wisconsin
  
CITY           SKY/WX    TMP DP  RH WIND       PRES   REMARKS
LA CROSSE      SUNNY     75  55  49 SE16G29   29.67F                  
SPARTA         NOT AVBL                                               
VIROQUA        SUNNY     71  58  64 SE16G24   29.72F                  
WIS DELLS      SUNNY     69  52  55 SE18      29.78F                  
PRAIRIE DU CHI SUNNY     74  53  47 SE12G20   29.70F                  
BOSCOBEL       SUNNY     75  55  49 S8G23     29.73F                  
LONE ROCK      NOT AVBL                                               
PLATTEVILLE    FAIR      73  54  51 SE21      29.76F                  
$$
 
WIZ017-030-034>036-043>045-231900
Central Wisconsin
  
CITY           SKY/WX    TMP DP  RH WIND       PRES   REMARKS
MEDFORD        SUNNY     69  55  59 SE14      29.76F                  
WAUSAU         SUNNY     72  53  51 E16G30    29.78F                  
BLACK RVR FLS  SUNNY     75  54  48 SE10      29.70F                  
WIS RAPIDS     SUNNY     72  54  53 SE18G26   29.78F                  
MARSHFIELD     LGT RAIN  70  55  59 SE16G26   29.75F                  
MAUSTON        FAIR      72  55  55 SE13G22   29.75F                  
CAMP DOUGLAS   NOT AVBL                                               
WAUTOMA        SUNNY     73  55  53 SE16      29.80F                  
$$

IAZ008>011-017>019-029-030-231900
Northeast Iowa
  
CITY           SKY/WX    TMP DP  RH WIND       PRES   REMARKS
WATERLOO       SUNNY     77  55  46 SE23G39   29.61F                  
DUBUQUE        SUNNY     74  56  53 S25G33    29.74F                  
DECORAH        SUNNY     73  55  53 SE15G24   29.64F                  
MASON CITY     SUNNY     74  55  51 SE20G39   29.56F                  
CHARLES CITY   SUNNY     73  55  53 SE24G30   29.60F                  
OELWEIN        SUNNY     73  55  53 S25G38    29.66F                  
$$

Wind speeds are in miles per hour.

 Abbreviations used in the REMARKS:
VSB - Visibility in statute miles
WCI - Wind chill index
HX  - Heat Index
  
