ASUS43 KMKX 232010
RWRWI 

WISCONSIN REGIONAL WEATHER ROUNDUP
NATIONAL WEATHER SERVICE MILWAUKEE/SULLIVAN WI
300 PM CDT SUN OCT 23 2022

NOTE: "FAIR" INDICATES FEW OR NO CLOUDS BELOW 12,000 FEET WITH NO
SIGNIFICANT WEATHER AND/OR OBSTRUCTIONS TO VISIBILITY.

WIZ001-002-006>008-014>016-023>028-232100-
NORTHWEST WISCONSIN
  
CITY           SKY/WX    TMP DP  RH WIND       PRES   REMARKS
SUPERIOR ARPT  SUNNY     57  49  74 E14G21    29.63F                  
ASHLAND        SUNNY     77  55  46 S13G31    29.66F                  
HAYWARD        SUNNY     74  55  51 SE20G32   29.63F                  
SIREN          SUNNY     74  53  47 SE17G24   29.58F                  
CUMBERLAND     MOSUNNY   73  63  68 SE21G29   29.61F                  
RICE LAKE      MOSUNNY   75  61  63 SE16G23   29.62F                  
CHETEK         PTSUNNY   76  60  56 SE15G24   29.62F                  
LADYSMITH      MOSUNNY   74  60  62 SE12G28   29.69S                  
EAU CLAIRE     MOSUNNY   76  55  48 SE16G31   29.61F                  
MENOMONIE      MOSUNNY   78  63  60 SE21G30   29.60F HX  80           
NEW RICHMOND   SUNNY     75  62  62 SE14G24   29.57S                  
OSCEOLA        SUNNY     77  60  55 SE26G33   29.58F                  
$$
 
WIZ003>005-009-010-017-018-232100-
NORTH CENTRAL WISCONSIN
  
CITY           SKY/WX    TMP DP  RH WIND       PRES   REMARKS
MANITOWISH WTR MOSUNNY   71  54  53 SE18G28   29.74F                  
ARBOR VITAE    MOSUNNY   70  53  55 S16G22    29.76F                  
WOODRUFF       MOSUNNY   70  53  55 S16G22    29.76F                  
RHINELANDER    SUNNY     70  52  52 S17G28    29.78F                  
EAGLE RIVER    MOSUNNY   69  51  52 S15G23    29.79S                  
LAND O LAKES   PTSUNNY   72  51  48 S13G22    29.81S                  
PHILLIPS       MOSUNNY   72  55  54 SE21G26   29.70F                  
TOMAHAWK       MOSUNNY   73  54  51 CALM      29.75F                  
MEDFORD        SUNNY     72  55  54 SE16G28   29.72F                  
MERRILL        MOSUNNY   73  55  53 SE16      29.74F                  
$$
 
WIZ029-030-035-036-043>047-232100-
CENTRAL WISCONSIN
  
CITY           SKY/WX    TMP DP  RH WIND       PRES   REMARKS
WAUSAU         SUNNY     74  54  49 E14G25    29.73F                  
MOSINEE        MOSUNNY   72  54  53 SE17G25   29.76F                  
MARSHFIELD     SUNNY     73  55  53 S18G31    29.71F                  
STEVENS POINT  MOSUNNY   75  50  40 SE16G23   29.75F                  
WAUPACA        SUNNY     75  54  46 SE16      29.77F                  
WAUTOMA        MOSUNNY   75  56  51 SE18      29.75F                  
WISC RAPIDS    SUNNY     74  54  49 SE17G35   29.74F                  
CAMP DOUGLAS   MOSUNNY   75  55  50 SE18G30   29.67F                  
$$
 
WIZ011>013-019>022-031-037>040-048>050-232100-
NORTHEAST WISCONSIN
  
CITY           SKY/WX    TMP DP  RH WIND       PRES   REMARKS
ANTIGO         SUNNY     70  55  58 SE20      29.80F                  
SHAWANO        SUNNY     73  57  56 SE13G23   29.80F                  
OCONTO         SUNNY     67  54  63 SE14      29.85F                  
STURGEON BAY   SUNNY     64  53  67 S24       29.87F                  
GREEN BAY      SUNNY     71  54  54 SE18G28   29.84F                  
MANITOWOC      PTSUNNY   61  53  75 SE20G26   29.87F                  
APPLETON       SUNNY     70  54  56 SE15      29.79F                  
CLINTONVILLE   SUNNY     72  56  56 SE14      29.80F                  
OSHKOSH        SUNNY     71  55  56 SE20G29   29.79F                  
$$
 
WIZ032>034-041-042-053>061-232100-
SOUTHWEST WISCONSIN
  
CITY           SKY/WX    TMP DP  RH WIND       PRES   REMARKS
LA CROSSE      SUNNY     79  55  44 SE21      29.61F                  
SPARTA         MOSUNNY   77  55  47 SE17G25   29.67F                  
VIROQUA        SUNNY     73  58  58 SE21G29   29.67F                  
BOSCOBEL       SUNNY     77  56  48 MISG      29.68F                  
PRAIRIE DU CHI MOSUNNY   77  53  43 SE14G25   29.64F                  
PLATTEVILLE    MOSUNNY   76  54  46 SE18      29.71F                  
$$

WIZ056-057-062-063-064-067-068-232100-
SOUTH CENTRAL WISCONSIN
  
CITY           SKY/WX    TMP DP  RH WIND       PRES   REMARKS
REEDSBURG      SUNNY     74  55  50 SE12G24   29.72F                  
BARABOO/DELLS  SUNNY     71  53  53 SE16G25   29.74F                  
LONE ROCK      SUNNY     81  55  40 SE16G26   29.70F HX  81           
MINERAL POINT  SUNNY     73  50  43 SE18G28   29.72F                  
MADISON        MOSUNNY   75  55  49 S23G33    29.75F                  
MIDDLETON      MOSUNNY   76  55  47 SE18G24   29.75F                  
WATERTOWN      MOSUNNY   73  53  50 SE14G22   29.78F                  
MONROE         SUNNY     75  55  49 S24G32    29.74F                  
JANESVILLE     MOSUNNY   77  50  38 S22G30    29.77F                  
$$
 
WIZ051-052-058>065-066-070>072-232100-
SOUTHEAST WISCONSIN
  
CITY           SKY/WX    TMP DP  RH WIND       PRES   REMARKS
MILWAUKEE      MOSUNNY   70  55  59 SE17      29.83F                  
WAUKESHA       SUNNY     72  54  53 SE12G25   29.83F                  
MILWAUKEE/TIMM SUNNY     70  52  52 SE12G18   29.84F                  
RACINE         SUNNY     67  55  65 S16G29    29.86F                  
KENOSHA        SUNNY     76  56  49 SE14G24   29.83F                  
FOND DU LAC    SUNNY     73  53  49 SE15G25   29.79F                  
SHEBOYGAN      SUNNY     67  55  65 S13G24    29.86F                  
WEST BEND      SUNNY     68  54  60 SE14G23   29.83F                  
JUNEAU         SUNNY     73  56  54 SE21G26   29.80F                  
$$

LSZ147-162-232100-
LAKE SUPERIOR
  
STATION/POSITION TIME  TEMP    WIND        PRES    WAVE
                       AIR SEA DIR/SP/G            HT/PER
                 (UTC) (F)     (DEG/KT/KT) (MB)    (FT/S)
W MID LAKE BUOY  1950      45   80/ 12/ 14 1006.1F   1/ 4
DEVILS ISLAND    2000   51      40/ 18/ 20 1005.5F
PORT WING        1930   54      20/ 14/ 19 1004.1F
SAXON HARBOR     1930   76     180/  9/ 22 1004.7F
$$
 
LMZ867-665-643>646-232100-
LAKE MICHIGAN
  
STATION/POSITION TIME  TEMP    WIND        PRES    WAVE
                       AIR SEA DIR/SP/G            HT/PER
                 (UTC) (F)     (DEG/KT/KT) (MB)    (FT/S)
CHAMBERS ISLAND  1940   64     120/  8/ 16   N/A
N MID LAKE BUOY  1950   53 49  110/  4/  6 1013.5F   3/ 6
NORTHPORT PIER   1900          120/ 12/ 19 1013.9
KEWAUNEE LAKESHO 1924          170/  8/  9 1011.5
SHEBOYGAN LAKESH 2000   56     150/ 16/ 17 1011.1F
PORT WASHINGTON  1940   60     180/  6/  9 1012.2F
ATWATER BUOY     1915   57     160/ 14/ 17 1012.9    3/ 5
MILWAUKEE LAKESH 1950   59     150/ 15/ 17   N/A
S MID LAKE BUOY  1950   56 50  130/ 12/ 14 1012.3F   2/ 4
KENOSHA   LAKESH 2000   62     170/ 12/ 19 1010.5
$$

TC  - TEMPERATURE IN CELSIUS
VSB - VISIBILITY IN STATUTE MILES
WCI - WIND CHILL INDEX
HX  - HEAT INDEX

  
