ASUS43 KMKX 231920
RWRWI 

WISCONSIN REGIONAL WEATHER ROUNDUP
NATIONAL WEATHER SERVICE MILWAUKEE/SULLIVAN WI
200 PM CDT SUN OCT 23 2022

NOTE: "FAIR" INDICATES FEW OR NO CLOUDS BELOW 12,000 FEET WITH NO
SIGNIFICANT WEATHER AND/OR OBSTRUCTIONS TO VISIBILITY.

WIZ001-002-006>008-014>016-023>028-232000-
NORTHWEST WISCONSIN
  
CITY           SKY/WX    TMP DP  RH WIND       PRES   REMARKS
SUPERIOR ARPT  SUNNY     57  49  73 NE13      29.66F                  
ASHLAND        SUNNY     76  55  48 SE14G24   29.68F                  
HAYWARD        SUNNY     74  54  49 SE16G25   29.66F                  
SIREN          SUNNY     73  53  48 SE16G22   29.60F                  
CUMBERLAND     MOSUNNY   72  61  68 SE17G23   29.62F                  
RICE LAKE      SUNNY     73  61  65 E18       29.64F                  
CHETEK         MOSUNNY   74  60  59 SE13G24   29.63F                  
LADYSMITH      SUNNY     73  60  63 SE20G28   29.69F                  
EAU CLAIRE     SUNNY     76  55  48 SE17G31   29.63F                  
MENOMONIE      MOSUNNY   77  63  62 E20G30    29.61F                  
NEW RICHMOND   SUNNY     74  61  63 SE21G30   29.57F                  
OSCEOLA        SUNNY     75  60  58 E21G29    29.59F                  
$$
 
WIZ003>005-009-010-017-018-232000-
NORTH CENTRAL WISCONSIN
  
CITY           SKY/WX    TMP DP  RH WIND       PRES   REMARKS
MANITOWISH WTR SUNNY     71  54  54 S13G22    29.75F                  
ARBOR VITAE    MOSUNNY   71  53  53 SE15G24   29.77F                  
WOODRUFF       MOSUNNY   71  53  53 SE15G24   29.77F                  
RHINELANDER    SUNNY     70  52  52 S13G31    29.79F                  
EAGLE RIVER    MOSUNNY   71  51  49 S14G22    29.79F                  
LAND O LAKES   PTSUNNY   72  51  48 SE15G23   29.81F                  
PHILLIPS       MOSUNNY   72  55  54 SE13G21   29.72F                  
TOMAHAWK       MOSUNNY   74  54  48 SE7       29.77S                  
MEDFORD        SUNNY     72  55  54 SE17G23   29.73F                  
MERRILL        MOSUNNY   72  55  54 SE16G24   29.76F                  
$$
 
WIZ029-030-035-036-043>047-232000-
CENTRAL WISCONSIN
  
CITY           SKY/WX    TMP DP  RH WIND       PRES   REMARKS
WAUSAU         SUNNY     74  53  48 SE23G32   29.75F                  
MOSINEE        SUNNY     70  54  56 SE20G26   29.77F                  
MARSHFIELD     SUNNY     72  55  55 SE15G33   29.73F                  
STEVENS POINT  SUNNY     74  50  43 SE16G22   29.78F                  
WAUPACA        SUNNY     75  54  47 SE16      29.78F                  
WAUTOMA        SUNNY     73  55  53 SE15G22   29.78F                  
WISC RAPIDS    SUNNY     74  54  49 SE18G31   29.76F                  
CAMP DOUGLAS   MOSUNNY   73  55  53 SE16G25   29.70F                  
$$
 
WIZ011>013-019>022-031-037>040-048>050-232000-
NORTHEAST WISCONSIN
  
CITY           SKY/WX    TMP DP  RH WIND       PRES   REMARKS
ANTIGO         SUNNY     69  54  58 SE23      29.81F                  
SHAWANO        SUNNY     73  57  56 SE15G21   29.82F                  
OCONTO         SUNNY     66  54  63 SE13      29.86F                  
STURGEON BAY   SUNNY     62  53  72 S21G31    29.89F                  
GREEN BAY      SUNNY     71  54  54 SE14      29.85F                  
MANITOWOC      SUNNY     61  53  75 S21G29    29.89F                  
APPLETON       SUNNY     70  54  56 SE13      29.81F                  
CLINTONVILLE   SUNNY     73  55  54 SE13      29.81F                  
OSHKOSH        SUNNY     73  55  53 SE17G26   29.80F                  
$$
 
WIZ032>034-041-042-053>061-232000-
SOUTHWEST WISCONSIN
  
CITY           SKY/WX    TMP DP  RH WIND       PRES   REMARKS
LA CROSSE      MOSUNNY   78  55  44 SE20G28   29.63F                  
SPARTA         SUNNY     76  55  48 SE18G25   29.69F                  
VIROQUA        SUNNY     73  58  59 SE16G30   29.68F                  
BOSCOBEL       SUNNY     77  55  46 SE9       29.70F                  
PRAIRIE DU CHI SUNNY     76  53  45 SE15G24   29.66F                  
PLATTEVILLE    SUNNY     76  54  46 S17G25    29.72F                  
$$

WIZ056-057-062-063-064-067-068-232000-
SOUTH CENTRAL WISCONSIN
  
CITY           SKY/WX    TMP DP  RH WIND       PRES   REMARKS
REEDSBURG      SUNNY     74  55  51 S14G23    29.73F                  
BARABOO/DELLS  SUNNY     71  53  52 SE16G28   29.75F                  
LONE ROCK      SUNNY     80  55  42 SE16G25   29.72F HX  80           
MINERAL POINT  SUNNY     72  50  46 S23       29.74F                  
MADISON        MOSUNNY   74  54  49 S21G29    29.77F                  
MIDDLETON      SUNNY     75  55  48 SE17G31   29.76F                  
WATERTOWN      SUNNY     74  53  48 S15G24    29.80F                  
MONROE         SUNNY     74  55  50 S18G30    29.76F                  
JANESVILLE     MOSUNNY   75  50  41 SE21G30   29.80F                  
$$
 
WIZ051-052-058>065-066-070>072-232000-
SOUTHEAST WISCONSIN
  
CITY           SKY/WX    TMP DP  RH WIND       PRES   REMARKS
MILWAUKEE      MOSUNNY   70  55  59 SE17      29.86F                  
WAUKESHA       SUNNY     72  54  53 S14G25    29.85F                  
MILWAUKEE/TIMM SUNNY     70  50  49 E10       29.86F                  
RACINE         SUNNY     68  55  63 S13G30    29.89F                  
KENOSHA        SUNNY     74  56  53 SE14G25   29.86F                  
FOND DU LAC    SUNNY     77  53  43 SE16      29.80F                  
SHEBOYGAN      SUNNY     66  55  67 S14G26    29.88F                  
WEST BEND      SUNNY     68  54  60 SE13G20   29.84F                  
JUNEAU         SUNNY     73  55  54 SE18      29.81F                  
$$

LSZ147-162-232000-
LAKE SUPERIOR
  
STATION/POSITION TIME  TEMP    WIND        PRES    WAVE
                       AIR SEA DIR/SP/G            HT/PER
                 (UTC) (F)     (DEG/KT/KT) (MB)    (FT/S)
W MID LAKE BUOY  1900      45   60/ 10/ 12 1006.7
DEVILS ISLAND    1900   52      60/ 14/ 15 1006.3F
PORT WING        1830   54      10/ 13/ 20 1005.1F
SAXON HARBOR     1840   76     170/ 11/ 19 1004.7F
$$
 
LMZ867-665-643>646-232000-
LAKE MICHIGAN
  
STATION/POSITION TIME  TEMP    WIND        PRES    WAVE
                       AIR SEA DIR/SP/G            HT/PER
                 (UTC) (F)     (DEG/KT/KT) (MB)    (FT/S)
CHAMBERS ISLAND  1830   64     110/  9/ 19   N/A
N MID LAKE BUOY  1900   54 49  110/  6/  6 1013.6
NORTHPORT PIER   1800          120/ 13/ 18 1014.2
KEWAUNEE LAKESHO 1848          170/  7/  8   N/A
SHEBOYGAN LAKESH 1900   56     150/ 22/ 23 1011.5F
PORT WASHINGTON  1840   60     190/  6/  9 1013.2F
ATWATER BUOY     1900   57     160/ 12/ 16 1013.2    3/ 5
MILWAUKEE LAKESH 1900   63     160/ 16/ 19   N/A
S MID LAKE BUOY  1900   56 50  130/ 12/ 14 1013.0
KENOSHA   LAKESH 1900   62     160/ 15/ 18 1011.2
$$

TC  - TEMPERATURE IN CELSIUS
VSB - VISIBILITY IN STATUTE MILES
WCI - WIND CHILL INDEX
HX  - HEAT INDEX

  
