ASUS43 KARX 231659
RWRARX

HOURLY WEATHER FOR THE UPPER MISSISSIPPI RIVER VALLEY
NATIONAL WEATHER SERVICE LA CROSSE WI
1200 PM CDT SUN OCT 23 2022

NOTE: "FAIR" indicates few or no clouds below 12,000 feet with no
significant weater and/or obstructions to visibility. 

MNZ077-085>088-093>096-231800
Southeast Minnesota
  
CITY           SKY/WX    TMP DP  RH WIND       PRES   REMARKS
ROCHESTER      SUNNY     70  54  56 SE21G33   29.64F                  
WINONA         SUNNY     72  54  53 S9G21     29.68F                  
AUSTIN         SUNNY     70  55  60 S13G24    29.61F                  
ALBERT LEA     SUNNY     70  55  60 SE24G31   29.57F                  
DODGE CENTER   SUNNY     70  54  56 SE25G31   29.62F                  
PRESTON        SUNNY     69  55  60 SE16G25   29.67F                  
OWATONNA       SUNNY     72  55  56 SE16G29   29.59F                  
FARIBAULT      SUNNY     72  54  53 SE20G29   29.59F                  
$$
 
WIZ041-042-053>056-061-231800
Southwest Wisconsin
  
CITY           SKY/WX    TMP DP  RH WIND       PRES   REMARKS
LA CROSSE      SUNNY     73  54  51 S14       29.71F                  
SPARTA         NOT AVBL                                               
VIROQUA        SUNNY     68  58  68 S14       29.75F                  
WIS DELLS      SUNNY     67  52  59 S14       29.80F                  
PRAIRIE DU CHI SUNNY     71  53  52 SE10      29.73F                  
BOSCOBEL       SUNNY     73  55  53 SE8G18    29.76F                  
LONE ROCK      NOT AVBL                                               
PLATTEVILLE    FAIR      71  54  55 SE18      29.79F                  
$$
 
WIZ017-030-034>036-043>045-231800
Central Wisconsin
  
CITY           SKY/WX    TMP DP  RH WIND       PRES   REMARKS
MEDFORD        SUNNY     66  55  67 SE12G18   29.78F                  
WAUSAU         SUNNY     68  53  58 SE16G23   29.80F                  
BLACK RVR FLS  SUNNY     73  54  52 S6        29.73F                  
WIS RAPIDS     SUNNY     69  54  58 SE14G22   29.81F                  
MARSHFIELD     SUNNY     68  55  63 S15G24    29.78F                  
MAUSTON        FAIR      69  55  59 SE13G18   29.78F                  
CAMP DOUGLAS   SUNNY     70  54  56 SE15      29.75F                  
WAUTOMA        SUNNY     70  55  59 S13       29.83F                  
$$

IAZ008>011-017>019-029-030-231800
Northeast Iowa
  
CITY           SKY/WX    TMP DP  RH WIND       PRES   REMARKS
WATERLOO       SUNNY     75  55  49 SE21G32   29.63F                  
DUBUQUE        SUNNY     71  55  56 S23G31    29.76F                  
DECORAH        SUNNY     70  54  56 S12G29    29.68F                  
MASON CITY     SUNNY     71  54  54 SE23G35   29.59F                  
CHARLES CITY   SUNNY     72  55  56 SE23G31   29.63F                  
OELWEIN        SUNNY     70  55  60 S23G31    29.69F                  
$$

Wind speeds are in miles per hour.

 Abbreviations used in the REMARKS:
VSB - Visibility in statute miles
WCI - Wind chill index
HX  - Heat Index
  
