ASUS43 KARX 232059
RWRARX

HOURLY WEATHER FOR THE UPPER MISSISSIPPI RIVER VALLEY
NATIONAL WEATHER SERVICE LA CROSSE WI
400 PM CDT SUN OCT 23 2022

NOTE: "FAIR" indicates few or no clouds below 12,000 feet with no
significant weater and/or obstructions to visibility. 

MNZ077-085>088-093>096-232200
Southeast Minnesota
  
CITY           SKY/WX    TMP DP  RH WIND       PRES   REMARKS
ROCHESTER      SUNNY     75  54  47 SE30G37   29.56F                  
WINONA         SUNNY     77  54  44 S10G24    29.59S                  
AUSTIN         MOSUNNY   75  55  50 S20G29    29.54F                  
ALBERT LEA     MOSUNNY   75  55  50 S26G38    29.50F                  
DODGE CENTER   SUNNY     75  54  46 SE30G37   29.54S                  
PRESTON        SUNNY     73  55  52 SE22G31   29.60S                  
OWATONNA       SUNNY     75  55  50 SE17G37   29.50S                  
FARIBAULT      SUNNY     75  55  50 SE26G35   29.50S                  
$$
 
WIZ041-042-053>056-061-232200
Southwest Wisconsin
  
CITY           SKY/WX    TMP DP  RH WIND       PRES   REMARKS
LA CROSSE      SUNNY     78  55  44 SE24G33   29.61S                  
SPARTA         NOT AVBL                                               
VIROQUA        SUNNY     73  58  60 SE18G25   29.66S                  
WIS DELLS      SUNNY     72  54  52 S22G33    29.72F                  
PRAIRIE DU CHI SUNNY     76  53  44 SE12G22   29.63F                  
BOSCOBEL       SUNNY     77  56  48 SE9G21    29.67F                  
LONE ROCK      NOT AVBL                                               
PLATTEVILLE    FAIR      73  55  52 S18G25    29.70F                  
$$
 
WIZ017-030-034>036-043>045-232200
Central Wisconsin
  
CITY           SKY/WX    TMP DP  RH WIND       PRES   REMARKS
MEDFORD        PTSUNNY   72  55  53 SE15G22   29.71S                  
WAUSAU           N/A    N/A N/A N/A MISG      29.72F                  
BLACK RVR FLS  SUNNY     77  54  44 SE12G22   29.65F                  
WIS RAPIDS     SUNNY     74  54  49 SE13G23   29.73F                  
MARSHFIELD     SUNNY     73  55  53 SE21G33   29.70F                  
MAUSTON        FAIR      75  56  51 SE15G25   29.69S                  
CAMP DOUGLAS   NOT AVBL                                               
WAUTOMA        MOSUNNY   75  56  51 S15G28    29.75S                  
$$

IAZ008>011-017>019-029-030-232200
Northeast Iowa
  
CITY           SKY/WX    TMP DP  RH WIND       PRES   REMARKS
WATERLOO       PTSUNNY   75  56  51 SE24G33   29.59R                  
DUBUQUE        SUNNY     75  57  53 SE22G35   29.68F                  
DECORAH        SUNNY     73  55  53 S16G28    29.61R                  
MASON CITY     PTSUNNY   73  55  53 SE29G43   29.53S                  
CHARLES CITY   PTSUNNY   75  55  50 S26G38    29.57R                  
OELWEIN        SUNNY     73  55  53 SE31      29.61F                  
$$

Wind speeds are in miles per hour.

 Abbreviations used in the REMARKS:
VSB - Visibility in statute miles
WCI - Wind chill index
HX  - Heat Index
  
