ASUS43 KMKX 231710
RWRWI 

WISCONSIN REGIONAL WEATHER ROUNDUP
NATIONAL WEATHER SERVICE MILWAUKEE/SULLIVAN WI
1200 PM CDT SUN OCT 23 2022

NOTE: "FAIR" INDICATES FEW OR NO CLOUDS BELOW 12,000 FEET WITH NO
SIGNIFICANT WEATHER AND/OR OBSTRUCTIONS TO VISIBILITY.

WIZ001-002-006>008-014>016-023>028-231800-
NORTHWEST WISCONSIN
  
CITY           SKY/WX    TMP DP  RH WIND       PRES   REMARKS
SUPERIOR ARPT  CLOUDY    55  49  79 E10       29.70F                  
ASHLAND        SUNNY     72  54  53 SE8G17    29.73F                  
HAYWARD        SUNNY     69  53  56 SE13      29.72F                  
SIREN          SUNNY     68  51  55 SE10G20   29.67F                  
CUMBERLAND     SUNNY     66  59  77 SE17      29.70F                  
RICE LAKE      SUNNY     68  59  72 SE13G24   29.71F                  
CHETEK         SUNNY     69  58  68 SE13G20   29.71F                  
LADYSMITH      SUNNY     67  58  73 SE13G21   29.76F                  
EAU CLAIRE     SUNNY     71  55  56 SE17      29.69F                  
MENOMONIE      SUNNY     72  62  71 E14       29.68F                  
NEW RICHMOND   SUNNY     71  60  68 SE12G17   29.64F                  
OSCEOLA        SUNNY     71  58  64 SE16G22   29.66F                  
$$
 
WIZ003>005-009-010-017-018-231800-
NORTH CENTRAL WISCONSIN
  
CITY           SKY/WX    TMP DP  RH WIND       PRES   REMARKS
MANITOWISH WTR PTSUNNY   65  53  66 SE13G22   29.81F                  
ARBOR VITAE    PTSUNNY   65  53  65 S14       29.82F                  
WOODRUFF       PTSUNNY   65  53  65 S14       29.82F                  
RHINELANDER    MOSUNNY   67  52  58 S9G20     29.84F                  
EAGLE RIVER    SUNNY     66  51  59 SE8       29.84S                  
LAND O LAKES   SUNNY     67  52  59 S9G21     29.86F                  
PHILLIPS       SUNNY     65  54  65 SE12      29.77F                  
TOMAHAWK       SUNNY     68  54  60 SE7       29.82S                  
MEDFORD        SUNNY     66  55  67 SE12G18   29.78F                  
MERRILL        SUNNY     66  54  65 SE13      29.81F                  
$$
 
WIZ029-030-035-036-043>047-231800-
CENTRAL WISCONSIN
  
CITY           SKY/WX    TMP DP  RH WIND       PRES   REMARKS
WAUSAU         SUNNY     68  53  58 SE16G23   29.80F                  
MOSINEE        SUNNY     66  54  63 SE10      29.83F                  
MARSHFIELD     SUNNY     68  55  63 S15G24    29.78F                  
STEVENS POINT  SUNNY     69  50  50 SE12      29.83S                  
WAUPACA        SUNNY     71  54  54 SE12      29.84F                  
WAUTOMA        SUNNY     70  55  59 S13       29.83F                  
WISC RAPIDS    SUNNY     69  54  58 SE14G22   29.81F                  
CAMP DOUGLAS   SUNNY     70  54  56 SE15      29.75F                  
$$
 
WIZ011>013-019>022-031-037>040-048>050-231800-
NORTHEAST WISCONSIN
  
CITY           SKY/WX    TMP DP  RH WIND       PRES   REMARKS
ANTIGO         SUNNY     65  54  65 SE16      29.85F                  
SHAWANO        SUNNY     71  57  61 SE9       29.86F                  
OCONTO         SUNNY     65  54  67 SE13G18   29.89F                  
STURGEON BAY   SUNNY     61  52  72 S20G28    29.93F                  
GREEN BAY      SUNNY     71  55  56 SE15      29.88F                  
MANITOWOC      SUNNY     60  53  77 SE15      29.93F                  
APPLETON       SUNNY     66  52  59 SE16G22   29.86S                  
CLINTONVILLE   SUNNY     69  54  60 SE10      29.87F                  
OSHKOSH        SUNNY     70  55  59 S16G24    29.85F                  
$$
 
WIZ032>034-041-042-053>061-231800-
SOUTHWEST WISCONSIN
  
CITY           SKY/WX    TMP DP  RH WIND       PRES   REMARKS
LA CROSSE      SUNNY     73  54  51 S14       29.71F                  
SPARTA         SUNNY     72  55  55 SE13      29.75F                  
VIROQUA        SUNNY     68  58  68 S14       29.75F                  
BOSCOBEL       SUNNY     73  55  53 SE8G18    29.76F                  
PRAIRIE DU CHI SUNNY     71  53  52 SE10      29.73F                  
PLATTEVILLE    SUNNY     71  54  55 SE18      29.79F                  
$$

WIZ056-057-062-063-064-067-068-231800-
SOUTH CENTRAL WISCONSIN
  
CITY           SKY/WX    TMP DP  RH WIND       PRES   REMARKS
REEDSBURG      SUNNY     69  54  58 SE9G16    29.79F                  
BARABOO/DELLS  SUNNY     68  53  56 S13       29.80F                  
LONE ROCK      SUNNY     75  54  47 SE14      29.78F                  
MINERAL POINT  SUNNY     68  50  52 S18G25    29.80S                  
MADISON        SUNNY     69  53  56 S16G26    29.82F                  
MIDDLETON      SUNNY     71  54  54 SE14G22   29.83S                  
WATERTOWN      SUNNY     71  52  51 SE12G20   29.85F                  
MONROE         SUNNY     70  53  55 S18G24    29.82F                  
JANESVILLE     MOSUNNY   72  50  46 S22G28    29.85F                  
$$
 
WIZ051-052-058>065-066-070>072-231800-
SOUTHEAST WISCONSIN
  
CITY           SKY/WX    TMP DP  RH WIND       PRES   REMARKS
MILWAUKEE      SUNNY     66  54  65 SE16      29.90F                  
WAUKESHA       SUNNY     70  54  56 SE13G23   29.90F                  
MILWAUKEE/TIMM SUNNY     70  48  46 S14       29.90F                  
RACINE         SUNNY     64  54  69 S15G23    29.93F                  
KENOSHA        SUNNY     73  55  53 S16G23    29.90F                  
FOND DU LAC    SUNNY     72  52  49 S17       29.86F                  
SHEBOYGAN      SUNNY     63  55  75 S18G28    29.91F                  
WEST BEND      SUNNY     68  54  60 S8        29.88F                  
JUNEAU         SUNNY     69  54  59 SE12      29.87F                  
$$

LSZ147-162-231800-
LAKE SUPERIOR
  
STATION/POSITION TIME  TEMP    WIND        PRES    WAVE
                       AIR SEA DIR/SP/G            HT/PER
                 (UTC) (F)     (DEG/KT/KT) (MB)    (FT/S)
W MID LAKE BUOY  1650      44   70/  8/ 10 1008.2R   1/ 4
DEVILS ISLAND    1600   54      90/ 11/ 12 1007.7R
PORT WING        1640   53      20/ 11/ 15 1006.1F
SAXON HARBOR     1540   67     200/  8/ 14 1006.8S
$$
 
LMZ867-665-643>646-231800-
LAKE MICHIGAN
  
STATION/POSITION TIME  TEMP    WIND        PRES    WAVE
                       AIR SEA DIR/SP/G            HT/PER
                 (UTC) (F)     (DEG/KT/KT) (MB)    (FT/S)
CHAMBERS ISLAND  1640   63     110/  6/ 19   N/A
N MID LAKE BUOY  1650   54 49  130/ 10/ 14 1015.0R   4/ 6
NORTHPORT PIER   1600          120/ 12/ 18 1015.2
KEWAUNEE LAKESHO 1624          180/  8/  9 1013.0
SHEBOYGAN LAKESH 1700   55     170/ 13/ 15 1013.1F
PORT WASHINGTON  1630   60     170/  8/ 11 1014.2F
ATWATER BUOY     1615   57     150/ 17/ 19 1014.8    2/ 4
MILWAUKEE LAKESH 1650   60     160/ 16/ 18   N/A
S MID LAKE BUOY  1650   55 50  140/ 14/ 16 1014.6F   2/ 4
KENOSHA   LAKESH 1600   57     170/ 14/ 16 1013.2
$$

TC  - TEMPERATURE IN CELSIUS
VSB - VISIBILITY IN STATUTE MILES
WCI - WIND CHILL INDEX
HX  - HEAT INDEX

  
