ASUS43 KARX 231859
RWRARX

HOURLY WEATHER FOR THE UPPER MISSISSIPPI RIVER VALLEY
NATIONAL WEATHER SERVICE LA CROSSE WI
200 PM CDT SUN OCT 23 2022

NOTE: "FAIR" indicates few or no clouds below 12,000 feet with no
significant weater and/or obstructions to visibility. 

MNZ077-085>088-093>096-232000
Southeast Minnesota
  
CITY           SKY/WX    TMP DP  RH WIND       PRES   REMARKS
ROCHESTER      SUNNY     74  54  49 SE29G39   29.58F                  
WINONA         SUNNY     77  54  44 SE13G22   29.62F                  
AUSTIN         SUNNY     73  55  53 S20G30    29.56F                  
ALBERT LEA     SUNNY     73  55  53 SE24G33   29.53F                  
DODGE CENTER   SUNNY     73  54  49 SE26G36   29.56F                  
PRESTON        SUNNY     73  55  52 SE21G30   29.61F                  
OWATONNA       SUNNY     75  55  50 SE21G32   29.53F                  
FARIBAULT      SUNNY     75  55  50 SE21G33   29.53F                  
$$
 
WIZ041-042-053>056-061-232000
Southwest Wisconsin
  
CITY           SKY/WX    TMP DP  RH WIND       PRES   REMARKS
LA CROSSE      MOSUNNY   78  55  44 SE20G28   29.63F                  
SPARTA         NOT AVBL                                               
VIROQUA        SUNNY     73  58  60 SE22G28   29.69F                  
WIS DELLS      SUNNY     71  53  52 SE17G24   29.76F                  
PRAIRIE DU CHI SUNNY     75  53  46 SE14G25   29.67F                  
BOSCOBEL       SUNNY     77  55  46 SE9       29.70F                  
LONE ROCK      NOT AVBL                                               
PLATTEVILLE    FAIR      75  54  47 S20       29.73F                  
$$
 
WIZ017-030-034>036-043>045-232000
Central Wisconsin
  
CITY           SKY/WX    TMP DP  RH WIND       PRES   REMARKS
MEDFORD        SUNNY     72  55  54 SE15G25   29.73F                  
WAUSAU         SUNNY     74  53  48 SE23G32   29.75F                  
BLACK RVR FLS  SUNNY     76  54  45 SE10G17   29.68F                  
WIS RAPIDS     SUNNY     74  54  49 SE18G31   29.76F                  
MARSHFIELD     SUNNY     72  55  55 SE15G33   29.73F                  
MAUSTON        FAIR      74  56  52 SE13G26   29.72F                  
CAMP DOUGLAS   MOSUNNY   73  55  53 SE16G25   29.70F                  
WAUTOMA        SUNNY     73  55  53 SE15G22   29.78F                  
$$

IAZ008>011-017>019-029-030-232000
Northeast Iowa
  
CITY           SKY/WX    TMP DP  RH WIND       PRES   REMARKS
WATERLOO       SUNNY     78  56  46 SE24G33   29.58F                  
DUBUQUE        SUNNY     75  56  51 S26G36    29.71F                  
DECORAH        SUNNY     73  55  53 S24G32    29.62F                  
MASON CITY     SUNNY     76  55  48 SE30G40   29.54F                  
CHARLES CITY   SUNNY     75  55  50 SE24G37   29.57F                  
OELWEIN        SUNNY     75  55  50 SE25      29.63F                  
$$

Wind speeds are in miles per hour.

 Abbreviations used in the REMARKS:
VSB - Visibility in statute miles
WCI - Wind chill index
HX  - Heat Index
  
