ASUS43 KGRB 231859
RWRGRB

NORTH-CENTRAL AND NORTHEAST WISCONSIN REGIONAL WEATHER ROUNDUP
NATIONAL WEATHER SERVICE GREEN BAY WI
200 PM CDT SUN OCT 23 2022

WIZ005-009-010>012-018-019-232000-
NORTH CENTRAL WISCONSIN
  
CITY           SKY/WX    TMP DP  RH WIND       PRES   REMARKS
IRONWOOD       SUNNY     71  54  54 S17G26    29.72F                  
MANITOWISH WTR SUNNY     71  54  54 SE17      29.76F                  
ARBOR VITAE    MOSUNNY   71  53  53 S18G26    29.77F                  
EAGLE RIVER    MOSUNNY   71  51  49 S15G24    29.79F                  
LAND O LAKES   MOSUNNY   71  51  49 SE14G23   29.81F                  
RHINELANDER    SUNNY     70  52  52 S13G31    29.79F                  
PHILLIPS       SUNNY     71  55  56 SE13G22   29.73F                  
ANTIGO         SUNNY     69  54  58 SE21G28   29.82F                  
TOMAHAWK       PTSUNNY   73  53  50 SE8G22    29.77F                  
MERRILL        MOSUNNY   72  55  55 SE10G22   29.76F                  
$$

WIZ013-073-232000-
NORTHEAST WISCONSIN
  
CITY           SKY/WX    TMP DP  RH WIND       PRES   REMARKS
IRON MOUNTAIN  SUNNY     70  54  56 SE14G26   29.85F                  
MARINETTE      SUNNY     64  53  67 S10       29.89F                  
OCONTO         SUNNY     66  54  63 SE13      29.86F                  
$$

WIZ017-030-035>037-045-232000-
CENTRAL WISCONSIN
  
CITY           SKY/WX    TMP DP  RH WIND       PRES   REMARKS
MEDFORD        SUNNY     72  55  54 SE15G25   29.73F                  
WAUSAU         SUNNY     74  53  48 SE23G32   29.75F                  
MOSINEE        SUNNY     70  54  56 SE20G26   29.77F                  
MARSHFIELD     SUNNY     72  55  55 SE15G33   29.73F                  
WISC RAPIDS    SUNNY     74  54  49 SE18G31   29.76F                  
STEVENS POINT  NOT AVBL                                               
WAUPACA        SUNNY     74  54  48 SE20      29.79F                  
SHAWANO        SUNNY     73  57  57 SE13      29.83F                  
CLINTONVILLE   SUNNY     72  55  54 SE17G23   29.82F                  
WAUTOMA        SUNNY     73  55  53 SE15G22   29.78F                  
$$

WIZ038-039-048-051-232000-
FOX VALLEY
  
CITY           SKY/WX    TMP DP  RH WIND       PRES   REMARKS
NWS GREEN BAY  SUNNY     71  54  54 SE14      29.85F                  
APPLETON       SUNNY     70  54  56 SE13      29.81F                  
OSHKOSH        SUNNY     73  55  53 SE17G26   29.80F                  
FOND DU LAC    SUNNY     77  53  43 SE16      29.80F                  
$$

WIZ022-050-052-232000-
EAST CENTRAL WISCONSIN
  
CITY           SKY/WX    TMP DP  RH WIND       PRES   REMARKS
EPHRAIM        FAIR      62  51  67 S20G29    29.90F                  
WASHINGTON ISL MOCLDY    63  53  70 S9G20     29.92F                  
STURGEON BAY   SUNNY     62  53  72 S21G31    29.89F                  
MANITOWOC      SUNNY     61  53  75 S21G29    29.89F                  
SHEBOYGAN      SUNNY     66  55  67 S14G26    29.88F                  
$$

LMZ563-521-522-541>543-232000-
LAKESHORE
  
STATION/POSITION TIME  TEMP    WIND        PRES    VSBY  WAVE
                       AIR SEA DIR/SP/G                  HT/PER
                 (UTC) (F)     (DEG/KT/KT) (MB)    (MI)  (FT/S)
SHEBOYGAN LKSHOR 1800   56     160/ 21/ 23 1012.2F
KEWAUNEE LKSHORE 1824          180/  7/  8 1011.9
NORTHPORT PIER   1800          120/ 13/ 18 1014.2
N MID LAKE BUOY  1840   54 49  140/  6/  8 1013.7F
CHAMBERS ISLAND  1830   64     110/  9/ 19   N/A
GREEN BAY WEST   1824          160/  9/ 13 1009.6
MENOMINEE LKSHOR 1830      49  150/ 15/ 18 1010.9
$$
  
