ASUS45 KABQ 231901
RWRNM 
NEW MEXICO REGIONAL WEATHER ROUNDUP
NATIONAL WEATHER SERVICE ALBUQUERQUE NM
100 PM MDT SUN OCT 23 2022

NOTE: "FAIR" MEANS FEW OR NO CLOUDS BELOW 12,000 FEET AGL WITH NO
       SIGNIFICANT WEATHER OR OBSTRUCTIONS TO VISION.

      THIS PRODUCT IS RELEASED AS TWO VERSIONS.  ONE VERSION NEAR
      THE TOP OF THE HOUR CONTAINING PRELIMINARY DATA FROM ALBUQUERQUE
      AND OTHER STATIONS.  A FINAL VERSION WITH ADDITIONAL DATA IS 
      ISSUED ABOUT 10 MINUTES AFTER THE HOUR.
 
NMZ201-203-204-210>218-232000-
NORTHWEST PLATEAU/NORTHCENTRAL MOUNTAINS
  
CITY           SKY/WX    TMP DP  RH WIND       PRES   REMARKS
FARMINGTON     CLOUDY    45  29  53 W22G30    29.74F                  
LOS ALAMOS     RAIN      50  32  49 SW18G28   29.71R                  
SANTA FE       CLOUDY    61  32  33 SW26G44   29.68F                  
TAOS           LGT RAIN  43  40  89 W24G48    29.72R FOG              

$$
NMZ202-205>209-241-402-403-232000-
WESTCENTRAL MOUNTAINS/SOUTHWEST MOUNTAINS
  
CITY           SKY/WX    TMP DP  RH WIND       PRES   REMARKS
GALLUP         LGT RAIN  41  36  82 SW15G30   29.80R                  
GRANTS         LGT RAIN  50  43  77 NW17G23   29.81R                  
SILVER CITY    FAIR      66  40  38 W20G26    29.86F                  

$$
NMZ407-409-411-412-232000-
SOUTHERN DESERTS
  
CITY           SKY/WX    TMP DP  RH WIND       PRES   REMARKS
DEMING         FAIR      72  38  29 W21G36    29.80F                  
LAS CRUCES     FAIR      74  44  34 SW25G37   29.81F                  
HOLLOMAN AFB   CLOUDY    73  42  33 SW24G38   29.79F                  
ALAMOGORDO     FAIR      75  43  31 SW21G32   29.78F                  
T OR C         FAIR      70  33  25 S26G40    29.75F                  

$$
NMZ219>223-232000-
CENTRAL VALLEYS/CENTRAL HIGHLANDS
  
CITY           SKY/WX    TMP DP  RH WIND       PRES   REMARKS
ALBUQUERQUE    PTSUNNY   67  30  25 SW25G38   29.69F                  
DOUBLE EAGLE   MOSUNNY   64  30  27 SW26G32   29.70F                  
MORIARTY ARPT  FAIR      65  28  24 SW31G38   29.73F                  
CLINES CORNERS PTSUNNY   61  33  35 SW36G51   29.73F                  
BELEN          FAIR      70  26  19 SW31G40   29.70F                  
SOCORRO        FAIR      72  30  21 SW21G31   29.71F                  

$$
NMZ224>226-239-240-232000-
SOUTHCENTRAL MOUNTAINS
  
CITY           SKY/WX    TMP DP  RH WIND       PRES   REMARKS
RUIDOSO          N/A     63  34  34 W47G63    29.75F                  

$$
NMZ227>231-232000-
NORTHEAST HIGHLANDS/NORTHEAST PLAINS
  
CITY           SKY/WX    TMP DP  RH WIND       PRES   REMARKS
LAS VEGAS      PTSUNNY   63  28  26 SW37G55   29.66F                  
RATON          FAIR      69  27  20 SW35G59   29.52F                  
CLAYTON        NOT AVBL                                               

$$
NMZ232>237-232000-
EASTCENTRAL PLAINS
  
CITY           SKY/WX    TMP DP  RH WIND       PRES   REMARKS
SANTA ROSA     MOCLDY    75  32  20 SW28G38   29.63F                  
TUCUMCARI      FAIR      77  42  28 SW35G48   29.56F                  
CANNON AFB     FAIR      73  49  42 SW24G33   29.66F                  
CLOVIS AIRPORT FAIR      73  50  44 SW24G36   29.68F                  

$$
NMZ028-029-033-238-232000-
SOUTHEAST PLAINS
  
CITY           SKY/WX    TMP DP  RH WIND       PRES   REMARKS
ROSWELL        FAIR      79  49  34 SW25G37   29.67S                  
ARTESIA        FAIR      79  50  36 SW28G36   29.71F                  
CARLSBAD       FAIR      85  47  26 SW17G32   29.68F                  
HOBBS          SUNNY     82  48  30 SW25G33   29.72F                  


$$
  
