ASUS45 KABQ 231710
RWRNM 
NEW MEXICO REGIONAL WEATHER ROUNDUP
NATIONAL WEATHER SERVICE ALBUQUERQUE NM
1100 AM MDT SUN OCT 23 2022

NOTE: "FAIR" MEANS FEW OR NO CLOUDS BELOW 12,000 FEET AGL WITH NO
       SIGNIFICANT WEATHER OR OBSTRUCTIONS TO VISION.

      THIS PRODUCT IS RELEASED AS TWO VERSIONS.  ONE VERSION NEAR
      THE TOP OF THE HOUR CONTAINING PRELIMINARY DATA FROM ALBUQUERQUE
      AND OTHER STATIONS.  A FINAL VERSION WITH ADDITIONAL DATA IS 
      ISSUED ABOUT 10 MINUTES AFTER THE HOUR.
 
NMZ201-203-204-210>218-231800-
NORTHWEST PLATEAU/NORTHCENTRAL MOUNTAINS
  
CITY           SKY/WX    TMP DP  RH WIND       PRES   REMARKS
FARMINGTON     CLOUDY    44  36  73 W18G30    29.73R                  
LOS ALAMOS     CLOUDY    52  30  42 S24G35    29.72F                  
SANTA FE       PTSUNNY   59  34  39 SW26G39   29.72F                  
TAOS           LGT RAIN  54  31  41 SW31G41   29.68F                  
ANGEL FIRE     CLOUDY    51  27  40 SW35G48   29.71S                  

$$
NMZ202-205>209-241-402-403-231800-
WESTCENTRAL MOUNTAINS/SOUTHWEST MOUNTAINS
  
CITY           SKY/WX    TMP DP  RH WIND       PRES   REMARKS
GALLUP         RAIN      43  39  86 W21G37    29.77R                  
GRANTS         CLOUDY    55  35  46 SW20G33   29.78S                  
SILVER CITY    FAIR      64  45  50 W17G25    29.89F                  

$$
NMZ407-409-411-412-231800-
SOUTHERN DESERTS
  
CITY           SKY/WX    TMP DP  RH WIND       PRES   REMARKS
DEMING         FAIR      68  46  45 W22G38    29.84F                  
LAS CRUCES     FAIR      70  45  41 W24G31    29.84S                  
HOLLOMAN AFB   CLOUDY    71  49  44 SW17G25   29.84R                  
ALAMOGORDO     FAIR      72  50  46 SW15G21   29.82F                  
T OR C         FAIR      67  39  35 S20G33    29.78F                  

$$
NMZ219>223-231800-
CENTRAL VALLEYS/CENTRAL HIGHLANDS
  
CITY           SKY/WX    TMP DP  RH WIND       PRES   REMARKS
ALBUQUERQUE    FAIR      66  32  28 SW25G36   29.73F                  
DOUBLE EAGLE   PTSUNNY   63  34  34 SW31G39   29.74F                  
MORIARTY ARPT  FAIR      63  31  31 SW26G39   29.77S                  
CLINES CORNERS FAIR      59  38  45 SW39G52   29.76F                  
BELEN          FAIR      67  30  25 SW24G37   29.74F                  
SOCORRO        FAIR      69  34  27 S13G20    29.75F                  

$$
NMZ224>226-239-240-231800-
SOUTHCENTRAL MOUNTAINS
  
CITY           SKY/WX    TMP DP  RH WIND       PRES   REMARKS
RUIDOSO          N/A     61  41  48 SW39G54   29.82S                  

$$
NMZ227>231-231800-
NORTHEAST HIGHLANDS/NORTHEAST PLAINS
  
CITY           SKY/WX    TMP DP  RH WIND       PRES   REMARKS
LAS VEGAS      FAIR      61  30  31 SW37G55   29.70S                  
RATON          FAIR      65  25  22 SW40G61   29.56F                  
CLAYTON        FAIR      71  39  31 SW33G52   29.58F                  

$$
NMZ232>237-231800-
EASTCENTRAL PLAINS
  
CITY           SKY/WX    TMP DP  RH WIND       PRES   REMARKS
SANTA ROSA     FAIR      73  37  27 SW30G40   29.66F                  
TUCUMCARI      FAIR      72  50  45 SW31G40   29.62F                  
CANNON AFB     FAIR      70  50  47 SW23G29   29.71F                  
CLOVIS AIRPORT FAIR      70  51  51 SW17G24   29.72F                  

$$
NMZ028-029-033-238-231800-
SOUTHEAST PLAINS
  
CITY           SKY/WX    TMP DP  RH WIND       PRES   REMARKS
ROSWELL        FAIR      77  52  41 S26G41    29.68F                  
ARTESIA        FAIR      77  52  41 SW30G37   29.73F                  
CARLSBAD       FAIR      81  49  32 S14G23    29.73F                  
HOBBS          SUNNY     77  50  38 S21G26    29.78F                  


$$
  
