ASUS45 KABQ 232010
RWRNM 
NEW MEXICO REGIONAL WEATHER ROUNDUP
NATIONAL WEATHER SERVICE ALBUQUERQUE NM
200 PM MDT SUN OCT 23 2022

NOTE: "FAIR" MEANS FEW OR NO CLOUDS BELOW 12,000 FEET AGL WITH NO
       SIGNIFICANT WEATHER OR OBSTRUCTIONS TO VISION.

      THIS PRODUCT IS RELEASED AS TWO VERSIONS.  ONE VERSION NEAR
      THE TOP OF THE HOUR CONTAINING PRELIMINARY DATA FROM ALBUQUERQUE
      AND OTHER STATIONS.  A FINAL VERSION WITH ADDITIONAL DATA IS 
      ISSUED ABOUT 10 MINUTES AFTER THE HOUR.
 
NMZ201-203-204-210>218-232100-
NORTHWEST PLATEAU/NORTHCENTRAL MOUNTAINS
  
CITY           SKY/WX    TMP DP  RH WIND       PRES   REMARKS
FARMINGTON     CLOUDY    46  23  40 W17       29.73F                  
LOS ALAMOS     CLOUDY    46  38  73 W9        29.74R                  
SANTA FE       LGT RAIN  54  40  59 W21G36    29.68S                  
TAOS           LGT RAIN  42  38  85 W21G26    29.73R                  
ANGEL FIRE     RAIN      39  35  86 SW10G28   29.71R WCI  32          

$$
NMZ202-205>209-241-402-403-232100-
WESTCENTRAL MOUNTAINS/SOUTHWEST MOUNTAINS
  
CITY           SKY/WX    TMP DP  RH WIND       PRES   REMARKS
GALLUP         LGT RAIN  41  38  89 SW10      29.79F                  
GRANTS         LGT RAIN  51  39  65 W15G26    29.80F                  
SILVER CITY    FAIR      66  38  36 W14G25    29.83F                  

$$
NMZ407-409-411-412-232100-
SOUTHERN DESERTS
  
CITY           SKY/WX    TMP DP  RH WIND       PRES   REMARKS
DEMING         FAIR      72  37  28 W23G36    29.78F                  
LAS CRUCES     FAIR      76  36  23 W31G41    29.79F                  
HOLLOMAN AFB   PTSUNNY   74  44  33 S21G28    29.76F                  
ALAMOGORDO     FAIR      73  43  33 SW20      29.75F                  
T OR C         FAIR      70  30  22 SW25G37   29.72F                  

$$
NMZ219>223-232100-
CENTRAL VALLEYS/CENTRAL HIGHLANDS
  
CITY           SKY/WX    TMP DP  RH WIND       PRES   REMARKS
ALBUQUERQUE    PTSUNNY   68  32  26 SW22G38   29.67F                  
DOUBLE EAGLE   PTSUNNY   66  32  28 SW24G39   29.69F                  
MORIARTY ARPT  PTSUNNY   65  26  22 SW29G38   29.71F                  
CLINES CORNERS FAIR      61  27  27 W39G59    29.71F                  
BELEN          FAIR      71  26  19 SW29G38   29.68F                  
SOCORRO        FAIR      73  30  20 S21G29    29.68F                  

$$
NMZ224>226-239-240-232100-
SOUTHCENTRAL MOUNTAINS
  
CITY           SKY/WX    TMP DP  RH WIND       PRES   REMARKS
RUIDOSO          N/A     63  32  31 SW47G67   29.73F                  

$$
NMZ227>231-232100-
NORTHEAST HIGHLANDS/NORTHEAST PLAINS
  
CITY           SKY/WX    TMP DP  RH WIND       PRES   REMARKS
LAS VEGAS      PTSUNNY   64  28  25 SW38G62   29.65F                  
RATON          FAIR      67  28  23 SW39G53   29.52S                  
CLAYTON        FAIR      75  31  19 SW36G49   29.50F                  

$$
NMZ232>237-232100-
EASTCENTRAL PLAINS
  
CITY           SKY/WX    TMP DP  RH WIND       PRES   REMARKS
SANTA ROSA     FAIR      73  31  21 SW35G41   29.60F                  
TUCUMCARI      FAIR      77  32  19 SW37G53   29.53F                  
CANNON AFB     FAIR      73  49  43 SW31      29.63F                  
CLOVIS AIRPORT FAIR      73  50  44 SW30G38   29.64F                  

$$
NMZ028-029-033-238-232100-
SOUTHEAST PLAINS
  
CITY           SKY/WX    TMP DP  RH WIND       PRES   REMARKS
ROSWELL        FAIR      80  49  33 SW24G31   29.64F                  
ARTESIA        PTSUNNY   77  52  41 SW25G32   29.69F                  
CARLSBAD       FAIR      84  47  27 W22G29    29.66F                  
HOBBS          SUNNY     84  45  24 SW25G36   29.69F                  


$$
  
