ASUS44 KHUN 212310
RWRHUN
       
WEATHER ROUNDUP FOR THE TENNESSEE VALLEY
NATIONAL WEATHER SERVICE HUNTSVILLE AL
600 PM CDT FRI OCT 21 2022

ALZ001>004-220000-
NORTHWEST ALABAMA
  
CITY           SKY/WX    TMP DP  RH WIND       PRES   REMARKS
BANKHEAD NF      N/A     71  51  49 S1          N/A                   
SHOALS AIRPORT CLEAR     72  51  47 S8        29.98S                  
$$

ALZ005>007-016-220000-
NORTH CENTRAL ALABAMA
  
CITY           SKY/WX    TMP DP  RH WIND       PRES   REMARKS
CULLMAN AG STN   N/A     70 N/A N/A SW5         N/A                   
DECATUR AP     CLEAR     68  48  48 S8        30.02S                  
HUNTSVILLE AP  CLEAR     69  46  43 S6        30.02S                  
HUN NWS/UAH      N/A     69  45  41 S3          N/A                   
MERIDIANVILLE  CLEAR     69  39  33 CALM      30.03S                  
VINEMONT AP    FAIR      66  46  48 S6        30.05S                  
$$
 
ALZ008>010-220000-
NORTHEAST ALABAMA
  
CITY           SKY/WX    TMP DP  RH WIND       PRES   REMARKS
ALBERTVILLE    CLEAR     64  36  34 S3        30.06R                  
FORT PAYNE     CLEAR     63  37  39 SE6       30.04F                  
SCOTTSBORO AP  CLEAR     66  41  39 S3        30.05R                  
$$

TNZ076-096-097-220000-
SOUTHEASTERN MIDDLE TENNESSEE
  
CITY           SKY/WX    TMP DP  RH WIND       PRES   REMARKS
FAYETTEVILLE   CLEAR     64  41  42 SE6       30.04S                  
TULLAHOMA      CLEAR     66  36  32 S6        30.02S                  
WINCHESTER     CLEAR     64  36  34 S7        30.03R                  
$$
 
...SURROUNDING SITES...
  
CITY           SKY/WX    TMP DP  RH WIND       PRES   REMARKS
ATLANTA        PTCLDY    64  36  35 W3        30.09R                  
ANNISTON       CLEAR     62  43  49 CALM      30.06S                  
BIRMINGHAM     CLEAR     68  43  40 SE7       30.07S                  
CHATTANOOGA    PTCLDY    67  35  30 S5        30.06R                  
CORINTH        CLEAR     72  48  43 S9G15     29.94F                  
DALTON         CLEAR     60  36  40 CALM      30.07S                  
GADSDEN        CLEAR     66  39  37 CALM      30.06S                  
GOLDEN TRNGL   CLEAR     74  54  49 S10       29.99S                  
HALEYVILLE     FAIR      69  52  54 S6        30.04S                  
JACKSON TN     CLEAR     73  50  44 S8        29.93R                  
MEMPHIS        PTCLDY    75  50  41 S10       29.90S                  
NASHVILLE      PTCLDY    69  35  28 S9        29.98F                  
OXFORD MS      CLEAR     75  48  38 S7G14     29.95S                  
ROME           CLEAR     63  41  44 CALM      30.06S                  
SAVANNAH       CLEAR     73  50  43 S7        29.94S                  
SELMER         CLEAR     72  50  46 S7        29.94S                  
TUPELO         CLEAR     75  50  41 SE7       29.96S                  
TUSCALOOSA     CLEAR     72  53  51 S8        30.03S                  
$$

  
