ASUS44 KHUN 220010
RWRHUN
       
WEATHER ROUNDUP FOR THE TENNESSEE VALLEY
NATIONAL WEATHER SERVICE HUNTSVILLE AL
700 PM CDT FRI OCT 21 2022

ALZ001>004-220100-
NORTHWEST ALABAMA
  
CITY           SKY/WX    TMP DP  RH WIND       PRES   REMARKS
BANKHEAD NF      N/A     63  51  66 CALM        N/A                   
SHOALS AIRPORT CLEAR     68  51  54 S8        29.99R                  
6HR MIN TEMP:  67; 6HR MAX TEMP:  78;                                

$$

ALZ005>007-016-220100-
NORTH CENTRAL ALABAMA
  
CITY           SKY/WX    TMP DP  RH WIND       PRES   REMARKS
CULLMAN AG STN   N/A     64 N/A N/A CALM        N/A                   
DECATUR AP     CLEAR     62  48  60 SE8       30.03R                  
6HR MIN TEMP:  61; 6HR MAX TEMP:  76;                                

HUNTSVILLE AP  CLEAR     62  46  55 SE6       30.03R                  
6HR MIN TEMP:  62; 6HR MAX TEMP:  75;                                

HUN NWS/UAH      N/A     66  44  45 SE5         N/A                   
MERIDIANVILLE  CLEAR     65  39  38 CALM      30.04R                  
VINEMONT AP    FAIR      64  45  48 S6        30.06R                  
$$
 
ALZ008>010-220100-
NORTHEAST ALABAMA
  
CITY           SKY/WX    TMP DP  RH WIND       PRES   REMARKS
ALBERTVILLE    CLEAR     61  36  39 S5        30.07R                  
FORT PAYNE     CLEAR     53  41  64 CALM      30.08R                  
SCOTTSBORO AP  PTCLDY    57  43  58 CALM      30.07R                  
$$

TNZ076-096-097-220100-
SOUTHEASTERN MIDDLE TENNESSEE
  
CITY           SKY/WX    TMP DP  RH WIND       PRES   REMARKS
FAYETTEVILLE   PTCLDY    59  39  47 SE7       30.04S                  
TULLAHOMA      CLEAR     63  37  39 SE6       30.03R                  
WINCHESTER     CLEAR     61  36  39 S5        30.04R                  
$$
 
...SURROUNDING SITES...
  
CITY           SKY/WX    TMP DP  RH WIND       PRES   REMARKS
ATLANTA        PTCLDY    59  39  47 W3        30.10R                  
ANNISTON       CLEAR     54  43  66 CALM      30.08R                  
BIRMINGHAM     CLEAR     64  43  46 SE5       30.08R                  
CHATTANOOGA    PTCLDY    62  37  39 S3        30.07R                  
CORINTH        CLEAR     68  48  49 S5        29.96R                  
DALTON         CLEAR     54  37  52 CALM      30.08R                  
GADSDEN        CLEAR     55  41  59 CALM      30.07R                  
GOLDEN TRNGL   CLEAR     70  53  54 SE8       30.00R                  
HALEYVILLE     FAIR      65  52  62 S7        30.05R                  
JACKSON TN     CLEAR     67  50  54 S5        29.94R                  
MEMPHIS        CLEAR     73  50  44 S8        29.90S                  
NASHVILLE      PTCLDY    68  36  30 S12       29.99R                  
OXFORD MS      CLEAR     68  50  52 SE7       29.96R                  
ROME           CLEAR     56  43  61 CALM      30.07R                  
SAVANNAH       CLEAR     64  52  63 S5        29.95R                  
SELMER         CLEAR     68  50  52 S6        29.95R                  
TUPELO         CLEAR     72  50  45 S8        29.97R                  
TUSCALOOSA     CLEAR     69  53  56 SE3       30.03S                  
$$

  
