ASUS45 KPSR 231810
RWRAZ 

ARIZONA HOURLY REGIONAL WEATHER ROUNDUP
NATIONAL WEATHER SERVICE PHOENIX AZ
1100 AM MST SUN OCT 23 2022

NOTE: FAIR INDICATES FEW OR NO CLOUDS BELOW 12,000 FEET WITH NO
SIGNIFICANT WEATHER AND/OR OBSTRUCTIONS TO VISIBILITY.

AZZ001>003-036-231900-
NORTHWEST ARIZONA
  
CITY           SKY/WX    TMP DP  RH WIND       PRES   REMARKS
BULLHEAD CITY  MOSUNNY   70  30  23 N18       29.80S                  
KINGMAN        SUNNY     60  31  33 N15G22    29.86R                  
6HR MIN TEMP:  50; 6HR MAX TEMP:  60;                                

$$

AZZ004>008-015-016-018-231900-
NORTH CENTRAL ARIZONA
  
CITY           SKY/WX    TMP DP  RH WIND       PRES   REMARKS
GRAND CANYON   MOSUNNY   41  27  57 NW15G22   29.82S                  
6HR MIN TEMP:  31; 6HR MAX TEMP:  41; 6HR PCP:  0.01;                

WILLIAMS       MOSUNNY   41  30  65 W16       29.85F                  
PRESCOTT       PTSUNNY   49  36  61 N13       29.85S                  
6HR MIN TEMP:  47; 6HR MAX TEMP:  53;                                

FLAGSTAFF      CLOUDY    40  34  79 W9        29.84R WCI  34          
6HR MIN TEMP:  37; 6HR MAX TEMP:  44; 6HR PCP:  0.02;                

PAYSON         PTSUNNY   52  43  71 S12G20    29.86S                  
PAGE           MOSUNNY   48  22  35 W14G24    29.76R                  
6HR MIN TEMP:  44; 6HR MAX TEMP:  50; 6HR PCP: TRACE;                

$$

AZZ009>014-017-231900-
NORTHEAST ARIZONA
  
CITY           SKY/WX    TMP DP  RH WIND       PRES   REMARKS
WINSLOW        CLOUDY    49  31  49 N15       29.81R                  
6HR MIN TEMP:  45; 6HR MAX TEMP:  56; 6HR PCP: TRACE;                

WINDOW ROCK    CLOUDY    43  35  73 W15G29    29.78R                  
6HR MIN TEMP:  42; 6HR MAX TEMP:  50; 6HR PCP:  0.12;                

SHOW LOW       DRIZZLE   46  45  93 SW18G28   29.85R                  
$$

AZZ540-542>544-546-548-231900-
GREATER PHOENIX AREA
  
CITY           SKY/WX    TMP DP  RH WIND       PRES   REMARKS
PHOENIX        PTSUNNY   72  47  40 W14       29.77R                  
6HR MIN TEMP:  68; 6HR MAX TEMP:  73;                                

BUCKEYE        MOSUNNY   73  48  40 W12       29.79S                  
LUKE AFB       MOSUNNY   73  47  40 W9        29.77R                  
6HR MIN TEMP:  65; 6HR MAX TEMP:  73;                                

DEER VALLEY    PTSUNNY   69  48  47 NW9G16    29.78S                  
6HR MIN TEMP:  65; 6HR MAX TEMP:  70;                                

SCOTTSDALE     MOSUNNY   70  48  45 SW10      29.79S                  
6HR MIN TEMP:  67; 6HR MAX TEMP:  71;                                

MESA-FALCON    SUNNY     70  47  43 W13G23    29.78S                  
6HR MIN TEMP:  68; 6HR MAX TEMP:  72;                                

MESA-GATEWAY   MOSUNNY   70  48  46 W14       29.80S                  
CHANDLER       SUNNY     72  46  40 SW12      29.79R                  
$$

AZZ539-553-231900-
SOUTHWEST MARICOPA COUNTY AND PINAL COUNTY
  
CITY           SKY/WX    TMP DP  RH WIND       PRES   REMARKS
CASA GRANDE    CLOUDY    72  47  40 W18       29.80S                  
6HR MIN TEMP:  66; 6HR MAX TEMP:  72;                                

GILA BEND      FAIR      74  49  40 W15       29.79F                  
6HR MIN TEMP:  66; 6HR MAX TEMP:  74;                                

$$

AZZ503-504-507>509-231900-
SOUTHEAST ARIZONA
  
CITY           SKY/WX    TMP DP  RH WIND       PRES   REMARKS
TUCSON         SUNNY     74  47  38 NW12      29.83F                  
6HR MIN TEMP:  64; 6HR MAX TEMP:  74;                                

DAVIS-MONTHAN  SUNNY     71  46  40 NW5       29.81F                  
6HR MIN TEMP:  61; 6HR MAX TEMP:  71;                                

RYAN FIELD     SUNNY     72  48  43 S7G14     29.81F                  
NOGALES        PTSUNNY   69  47  45 SW15G22   29.90S                  
6HR MIN TEMP:  59; 6HR MAX TEMP:  69;                                

SIERRA VISTA   PTSUNNY   67  43  42 SW3       29.91S                  
6HR MIN TEMP:  59; 6HR MAX TEMP:  67;                                

SAFFORD        SUNNY     72  44  36 NW23G33   29.76F                  
6HR MIN TEMP:  60; 6HR MAX TEMP:  73;                                

$$

AZZ532-231900-
SOUTHWEST ARIZONA
  
CITY           SKY/WX    TMP DP  RH WIND       PRES   REMARKS
YUMA           SUNNY     76  48  37 NW12G17   29.78F                  
6HR MIN TEMP:  63; 6HR MAX TEMP:  77;                                

$$

CAZ041-043-047-048-061-525>527-560>570-231900-
SOUTHERN CALIFORNIA
  
CITY           SKY/WX    TMP DP  RH WIND       PRES   REMARKS
DOWNTOWN L.A.  SUNNY     67  52  58 SE7       29.86F                  
6HR MIN TEMP:  56; 6HR MAX TEMP:  68;                                

L.A. AIRPORT   MOSUNNY   69  50  50 VRB5      29.86F                  
6HR MIN TEMP:  59; 6HR MAX TEMP:  70;                                

SAN DIEGO      PTSUNNY   68  47  46 S9        29.89S                  
6HR MIN TEMP:  59; 6HR MAX TEMP:  68;                                

BURBANK        SUNNY     71  31  22 W10G20    29.85F                  
6HR MIN TEMP:  58; 6HR MAX TEMP:  71;                                

ONTARIO        PTSUNNY   63  52  67 VRB3      29.87S                  
6HR MIN TEMP:  54; 6HR MAX TEMP:  63;                                

RIVERSIDE      PTSUNNY   65  48  54 CALM      29.86F                  
6HR MIN TEMP:  57; 6HR MAX TEMP:  65;                                

PALM SPRINGS   SUNNY     73  41  31 NW5       29.81R                  
6HR MIN TEMP:  61; 6HR MAX TEMP:  74;                                

EL CENTRO NAS  SUNNY     76  38  25 NW7       29.80F                  
6HR MIN TEMP:  65; 6HR MAX TEMP:  77;                                

BLYTHE         SUNNY     74  40  29 N9G18     29.79S                  
6HR MIN TEMP:  63; 6HR MAX TEMP:  74;                                

NEEDLES        SUNNY     72  28  19 N14G23    29.80S                  
6HR MIN TEMP:  64; 6HR MAX TEMP:  72;                                

$$

NVZ020-UTZ003-231900-
SOUTHERN NEVADA-UTAH
  
CITY           SKY/WX    TMP DP  RH WIND       PRES   REMARKS
LAS VEGAS      MOSUNNY   61  14  16 NW18G26   29.86R                  
6HR MIN TEMP:  56; 6HR MAX TEMP:  61;                                

SALT LAKE CITY PTSUNNY   43  31  62 NW15      29.78R                  
6HR MIN TEMP:  37; 6HR MAX TEMP:  43;                                

$$

NMZ009-TXZ055-231900-
NEW MEXICO-WEST TEXAS
  
CITY           SKY/WX    TMP DP  RH WIND       PRES   REMARKS
ALBUQUERQUE    MOSUNNY   67  31  26 SW25G48   29.72F                  
6HR MIN TEMP:  55; 6HR MAX TEMP:  68;                                

EL PASO        PTSUNNY   76  51  41 SW18G33   29.78F                  
6HR MIN TEMP:  69; 6HR MAX TEMP:  77;                                

$$


........................KEY........................
SKY/WX - SKY CONDITION/WEATHER
TMP    - TEMPERATURE IN FAHRENHEIT
DP     - DEW POINT IN FAHRENHEIT
RH     - RELATIVE HUMIDITY IN PERCENT
WIND   - DIRECTION AND SPEED IN MILES PER HOUR (MPH)
VRB    - VARIABLE WIND DIRECTION
PRES   - MEAN SEA LEVEL PRESSURE IN INCHES OF MERCURY
         F - FALLING PRESSURE   R - RISING PRESSURE
         S - STEADY PRESSURE
VSB    - VISIBILITY IN MILES
HX     - HEAT INDEX IN FAHRENHEIT
WCI    - WIND CHILL INDEX IN FAHRENHEIT
TC     - TEMPERATURE IN CELSIUS WHICH IS ALSO KNOWN AS
         TEMPERATURE IN CENTIGRADE
AFB    - AIR FORCE BASE
         LUKE AFB IS LUKE AIR FORCE BASE
         DAVIS-MONTHAN IS DAVIS-MONTHAN AIR FORCE BASE
NAS    - NAVAL AIR STATION
         EL CENTRO NAS IS EL CENTRO NAVAL AIR STATION
N/A    - NOT AVAILABLE

  
