ASUS43 KBIS 220210
RWRND 

NORTH DAKOTA REGIONAL WEATHER ROUNDUP
NATIONAL WEATHER SERVICE BISMARCK ND
900 PM CDT FRI OCT 21 2022

NOTE: "FAIR" INDICATES FEW OR NO CLOUDS BELOW 12,000 FEET WITH NO
SIGNIFICANT WEATHER AND/OR OBSTRUCTIONS TO VISIBILITY.


NDZ001>003-009>011-017-220300-
NORTHWEST NORTH DAKOTA
  
CITY           SKY/WX    TMP DP  RH WIND       PRES   REMARKS
WILLISTON      NOT AVBL                                               
$$
 
NDZ018>021-031>035-040>046-220300-
SOUTHWEST NORTH DAKOTA
  
CITY           SKY/WX    TMP DP  RH WIND       PRES   REMARKS
BISMARCK       NOT AVBL                                               
GARRISON       NOT AVBL                                               
$$
 
NDZ004>008-012>016-024-026-027-054-220300-
NORTHEAST NORTH DAKOTA
  
CITY           SKY/WX    TMP DP  RH WIND       PRES   REMARKS
$$
 
NDZ022-023-025-028>030-036>039-047>053-220300-
SOUTHEAST NORTH DAKOTA
  
CITY           SKY/WX    TMP DP  RH WIND       PRES   REMARKS
FARGO          NOT AVBL                                               
$$ 

  
