ASUS43 KBIS 212310
RWRND 
NORTH DAKOTA REGIONAL WEATHER ROUNDUP
NATIONAL WEATHER SERVICE EASTERN NORTH DAKOTA/GRAND FORKS ND
600 PM CDT FRI OCT 21 2022

  NOTE: "FAIR" INDICATES FEW OR NO CLOUDS BELOW 12,000 FEET WITH NO
  SIGNIFICANT WEATHER AND/OR OBSTRUCTIONS TO VISIBILITY.

NDZ001>003-009>011-017-220000-
...NORTHWEST NORTH DAKOTA...
  
CITY           SKY/WX    TMP DP  RH WIND       PRES   REMARKS
WILLISTON      NOT AVBL                                               
MINOT          CLOUDY    51  38  60 S3        29.53R                  
MINOT AFB      LGT RAIN  46  39  76 NW7       29.50S                  
$$

NDZ018>021-031>035-040>046-220000-
...SOUTHWEST NORTH DAKOTA...
  
CITY           SKY/WX    TMP DP  RH WIND       PRES   REMARKS
BISMARCK       CLOUDY    57  33  40 E6        29.51F                  
DICKINSON      FAIR      58  35  42 N12       29.48R                  
GARRISON         N/A     50  43  77 NE3       29.52F                  
HETTINGER      FAIR      67  32  27 S9        29.48F                  
$$

NDZ004>008-012>016-024-026-027-054-220000-
...NORTHEAST NORTH DAKOTA...
  
CITY           SKY/WX    TMP DP  RH WIND       PRES   REMARKS
GRAND FORKS    CLOUDY    59  31  34 SW5       29.52F                  
GRAND FORKS AF CLOUDY    58  31  35 W5        29.50F                  
DEVILS LAKE    CLOUDY    54  37  52 SW3       29.53F                  
$$

NDZ022-023-025-028>030-036>039-047>053-220000-
...SOUTHEAST NORTH DAKOTA...
  
CITY           SKY/WX    TMP DP  RH WIND       PRES   REMARKS
JAMESTOWN      FAIR      57  32  38 SE3       29.51F                  
FARGO          FAIR      58  29  33 S5        29.55F                  
WAHPETON       FAIR      61  32  33 SW5       29.56F                  
$$
  
