ASUS43 KBIS 220031
RWRND 
NORTH DAKOTA REGIONAL WEATHER ROUNDUP
NATIONAL WEATHER SERVICE EASTERN NORTH DAKOTA/GRAND FORKS ND
700 PM CDT FRI OCT 21 2022

  NOTE: "FAIR" INDICATES FEW OR NO CLOUDS BELOW 12,000 FEET WITH NO
  SIGNIFICANT WEATHER AND/OR OBSTRUCTIONS TO VISIBILITY.

NDZ001>003-009>011-017-220100-
...NORTHWEST NORTH DAKOTA...
  
CITY           SKY/WX    TMP DP  RH WIND       PRES   REMARKS
WILLISTON      NOT AVBL                                               
MINOT          LGT RAIN  48  41  76 N15       29.54R                  
MINOT AFB      LGT RAIN  44  40  86 N9        29.52R                  
6HR MIN TEMP:  44; 6HR MAX TEMP:  53; 6HR PCP: TRACE;                

$$

NDZ018>021-031>035-040>046-220100-
...SOUTHWEST NORTH DAKOTA...
  
CITY           SKY/WX    TMP DP  RH WIND       PRES   REMARKS
BISMARCK       FAIR      55  33  43 NE8       29.51S                  
DICKINSON      CLOUDY    53  36  52 N8        29.49R                  
GARRISON         N/A     49  41  74 NE3       29.52S                  
HETTINGER      FAIR      62  32  32 S7        29.47F                  
$$

NDZ004>008-012>016-024-026-027-054-220100-
...NORTHEAST NORTH DAKOTA...
  
CITY           SKY/WX    TMP DP  RH WIND       PRES   REMARKS
GRAND FORKS    CLOUDY    54  33  45 S5        29.52S HAZE             
GRAND FORKS AF CLOUDY    54  31  42 SW3       29.50S                  
DEVILS LAKE    CLOUDY    52  37  56 SW5       29.54R                  
$$

NDZ022-023-025-028>030-036>039-047>053-220100-
...SOUTHEAST NORTH DAKOTA...
  
CITY           SKY/WX    TMP DP  RH WIND       PRES   REMARKS
JAMESTOWN      FAIR      53  32  44 S3        29.52R                  
FARGO          MOCLDY    56  27  32 SE6       29.53F                  
WAHPETON       FAIR      54  32  43 S6        29.55F                  
$$
  
