ASUS44 KLIX 220110
RWRLA 
LOUISIANA WEATHER ROUNDUP
NATIONAL WEATHER SERVICE NEW ORLEANS LA
800 PM CDT FRI OCT 21 2022

NOTE: "FAIR" INDICATES FEW OR NO CLOUDS BELOW 12,000 FEET WITH NO
      SIGNIFICANT WEATHER AND/OR OBSTRUCTIONS TO VISIBILITY.
      SKY/WX - SKY CONDITION AND SIGNIFICANT WEATHER.
      TMP - AIR TEMPERATURE.    DP   - DEWPOINT TEMPERATURE.
      RH  - RELATIVE HUMIDITY.  PRES - PRESSURE.
      HX  - HEAT INDEX.         WCI  - WIND CHILL INDEX.

*  THESE STATIONS ARE NOT NWS OR FAA STATIONS AND ARE NOT UNDER
   NWS QUALITY CONTROL.

LAZ048-061-063-065-066-069-076-077-220200-
SOUTHEAST LOUISIANA
  
CITY           SKY/WX    TMP DP  RH WIND       PRES   REMARKS
N.O. INTL ARPT CLEAR     67  55  65 S7        30.08R                  
N.O. DWNTWN HE FAIR      69  52  54 S9        30.09R                  
N.O. LAKEFRONT CLEAR     68  52  56 S10       30.08R                  
RESERVE*       FAIR      64  55  72 S8        30.07R                  
SLIDELL        CLEAR     66  50  56 S6        30.07R                  
BATON ROUGE    CLEAR     70  56  61 S9        30.03R                  
BOOTHVILLE*    CLEAR     64  54  69 SE3       30.10S                  
BELLE CHASSE*  PTCLDY    66  52  60 S7        30.08R                  
BOGALUSA*      FAIR      67  54  63 S6        30.07R                  
GALLIANO*      CLEAR     58  54  85 SE3       30.10R                  
NEW ROADS*     FAIR      70  55  60 S8        30.03R                  
GONZALES*      FAIR      68  57  66 S5        30.05R                  
HAMMOND*       CLEAR     66  57  72 S9        30.06R                  
HOUMA*         CLEAR     61  56  85 SE5       30.09R                  

$$

LAZ041-044-053-054-220200-
SOUTHWEST LOUISIANA
  
CITY           SKY/WX    TMP DP  RH WIND       PRES   REMARKS
LAKE CHARLES   CLEAR     65  58  78 S6        30.02R                  
LAFAYETTE      CLEAR     70  56  61 S7        30.04R                  
PATTERSON      CLEAR     65  60  84 SE6       30.07R                  
SALT POINT     NOT AVBL                                               
NEW IBERIA     CLEAR     64  55  72 S6        30.04R                  
CHENAULT AIRPK CLEAR     61  55  82 S8        30.02R                  

$$

LAZ027-028-220200-
CENTRAL LOUISIANA
  
CITY           SKY/WX    TMP DP  RH WIND       PRES   REMARKS
FORT POLK      CLEAR     71  59  66 S10       29.98R                  
ALEXANDRIA INT CLEAR     75  57  53 S10       29.97R                  
ALEXANDRIA     CLEAR     73  57  57 S9        29.98R                  

$$

LAZ001-002-220200-
NORTHWEST LOUISIANA
  
CITY           SKY/WX    TMP DP  RH WIND       PRES   REMARKS
SHREVEPORT     CLEAR     73  54  49 S8        29.90R                  
BARKSDALE AFB  CLEAR     66  50  55 S8        29.90R                  
DTN SHREVEPORT CLEAR     78  52  40 S9        29.91R                  

$$

LAZ014-016-220200-
NORTHEAST LOUISIANA
  
CITY           SKY/WX    TMP DP  RH WIND       PRES   REMARKS
MONROE         CLEAR     74  55  51 S7        29.94R                  
TALLULAH       CLEAR     69  53  56 S6        29.97R                  

$$

  
