ASUS44 KLCH 220110
RWRLCH
REGIONAL WEATHER ROUNDUP
NATIONAL WEATHER SERVICE LAKE CHARLES LA
800 PM CDT FRI OCT 21 2022

Note: "fair" indicates few or no clouds below 12,000 feet with no
significant weather and/or obstructions to visibility.


ACROSS SOUTHEAST TEXAS
  
CITY           SKY/WX    TMP DP  RH WIND       PRES   REMARKS
BEAUMONT       CLEAR     68  60  75 S13G20    29.99R                  
BEAUMONT CITY  FAIR      68  58  69 S5        30.00R                  
ORANGE         CLEAR     73  62  70 S6        30.02R                  
JASPER         PTCLDY    72  61  68 S10G17    29.97R                  
$$

ACROSS CENTRAL LOUISIANA
  
CITY           SKY/WX    TMP DP  RH WIND       PRES   REMARKS
LEESVILLE      CLEAR     71  59  66 S10       29.98R                  
FULLERTON      FAIR      71  59  65 CALM      29.97R                  
ALEXANDRIA INT CLEAR     75  57  53 S10       29.97R                  
ESLER FIELD    CLEAR     73  57  57 S9        29.98R                  
DERIDDER       FAIR      72  61  68 S7        30.01R                  
OAKDALE        CLEAR     72  57  60 S6        30.01R                  
OPELOUSAS      FAIR      68  56  64 S9        30.03R                  
$$

ACROSS SOUTHWEST AND SOUTH CENTRAL LOUISIANA
  
CITY           SKY/WX    TMP DP  RH WIND       PRES   REMARKS
DEQUINCY       FAIR      67  58  72 SE6       30.01R                  
SULPHUR        CLEAR     65  59  80 S5        30.03R                  
LAKE CHARLES   CLEAR     65  58  78 S6        30.02R                  
CHENNAULT INT  CLEAR     61  55  82 S8        30.02R                  
JENNINGS       NOT AVBL                                               
LAFAYETTE      CLEAR     70  56  61 S7        30.04R                  
NEW IBERIA     CLEAR     64  55  72 S6        30.04R                  
ABBEVILLE      FAIR      64  54  69 SE5       30.05R                  
PATTERSON      CLEAR     65  60  84 SE6       30.07R                  
SALT POINT     NOT AVBL                                               
$$

SELECTED SITES ACROSS THE REGION
  
CITY           SKY/WX    TMP DP  RH WIND       PRES   REMARKS
HOUSTON BUSH   CLEAR     75  58  55 S10       29.97R                  
HOUSTON HOBBY  CLEAR     73  58  59 S12       29.99R                  
GALVESTON      MOCLDY    74  59  59 S14       30.01R                  
COLLEGE STAT   CLEAR     77  53  43 S10       29.93R                  
CONROE         PTCLDY    76  57  51 S13       29.96R                  
HUNTSVILLE     CLEAR     76  55  48 S8        29.94R                  
LUFKIN         CLEAR     74  55  51 S9        29.94R                  
SHREVEPORT     CLEAR     73  54  49 S8        29.90R                  
MONROE         CLEAR     74  55  51 S7        29.94R                  
NATCHEZ MS     CLEAR     68  55  63 SE9       30.00R                  
BATON ROUGE    CLEAR     70  56  61 S9        30.03R                  
N.O. INTL ARPT CLEAR     67  55  65 S7        30.08R                  
SLIDELL        CLEAR     66  50  56 S6        30.07R                  
$$

MARINE REPORTS
  
STATION/POSITION TIME  SKY/WX   TEMP    WIND        PRES    VSBY
                                AIR SEA DIR/SP/G
                 (UTC)          (F)     (DEG/KT/KT) (MB)    (MI)
BUOY 30 S HIGH I NOT AVBL
SEA RIM ST PARK  0000            73     190/ 11/ 14 1015.9R
PORT ARTHUR      0024               73  160/  5/ 11 1015.8
TEXAS POINT      0024               71  190/ 12/ 15 1015.0
CALCASIEU PASS   0024               70  200/ 12/ 14 1016.3
LK CHARLES BEACH 0024               74              1016.2
MARSH ISLAND     NOT AVBL
FRESH WATER LOCK NOT AVBL
AMERADA PASS     0024               73  140/  4/  6 1018.0
$$
  
