ASUS41 KBTV 231910
RWRBTV
VERMONT REGIONAL WEATHER ROUNDUP
NATIONAL WEATHER SERVICE BURLINGTON VT
300 PM EDT SUN OCT 23 2022

NOTE: "FAIR" INDICATES FEW OR NO CLOUDS BELOW 12,000 FEET WITH NO 
SIGNIFICANT WEATHER AND/OR OBSTRUCTIONS TO VISIBILITY.

* THESE REPORTS ARE NOT UNDER NWS QUALITY CONTROL AND/OR DO NOT
  REPORT WEATHER SUCH AS PRECIPITATION AND FOG.

VTZ001>019-232000-
_____VERMONT_____

  
CITY           SKY/WX    TMP DP  RH WIND       PRES   REMARKS
BURLINGTON     PTSUNNY   68  43  40 SW5       30.29F                  
MONTPELIER     SUNNY     68  38  33 S5        30.35F                  
MORRISVILLE    SUNNY     69  42  37 CALM      30.31F                  
ST. JOHNSBURY*   N/A     65  41  41 MISG      30.30F                  
LYNDONVILLE*     N/A     64  40  41 E3        30.35S                  
MIDDLEBURY*    FAIR      65  43  43 CALM      30.30S                  
RUTLAND*       SUNNY     66  35  31 E10       30.31S                  
SPRINGFIELD    SUNNY     61  42  49 CALM      30.33F                  
HIGHGATE*      FAIR      68  42  38 CALM      30.30S                  
NEWPORT*       FAIR      65  43  44 N5        30.32F                  
BENNINGTON     MOSUNNY   65  35  33 CALM      30.30F                  
LAKE EDEN*       N/A     68 N/A N/A S3          N/A                   

_____LAKE CHAMPLAIN_____

  
CITY           SKY/WX    TMP DP  RH WIND       PRES   REMARKS
BURTON ISLAND*   N/A     61  48  63 CALM        N/A                   
COLCHESTER RF*   N/A     57  46  67 S7          N/A                   
DIAMOND ISL*     N/A     61  45  55 S2          N/A                   

$$

NYZ007-026>031-035-052-083-087-232000-
_____NORTHERN NEW YORK_____

  
CITY           SKY/WX    TMP DP  RH WIND       PRES   REMARKS
PLATTSBURGH    SUNNY     61  42  49 SE3       30.29F                  
SARANAC LAKE   MOSUNNY   68  37  32 CALM      30.28F                  
MASSENA        SUNNY     70  41  34 N7        30.28F                  
OGDENSBURG*    FAIR      72  39  30 VRB3      30.23F                  
POTSDAM*       SUNNY     70  39  32 NE6       30.26S                  
WATERTOWN      MOSUNNY   70  43  37 W7        30.25S                  
FT DRUM        MOSUNNY   70  36  28 SE10      30.23S                  
ALBANY         PTSUNNY   61  45  55 NW3       30.30F                  
GLENS FALLS    MOSUNNY   63  43  48 CALM      30.30F                  

$$
NHZ002-005-011-232000-
_____NEW HAMPSHIRE_____

  
CITY           SKY/WX    TMP DP  RH WIND       PRES   REMARKS
LEBANON        SUNNY     62  43  49 CALM      30.33S                  
KEENE          SUNNY     56  45  66 CALM      30.33F                  
MT WASHINGTON  PTSUNNY   50  10  20 SE14        N/A                   
PLYMOUTH       FAIR      64  41  43 CALM      30.34S                  
WHITEFIELD     SUNNY     65  45  48 CALM      30.33F                  

$$

_____REGIONAL QUEBEC LOCATIONS_____

  
CITY           SKY/WX    TMP DP  RH WIND       PRES   REMARKS
MONTREAL       CLOUDY    70  39  32 E5        30.28F                  
QUEBEC CITY    PTSUNNY   66  43  42 W7        30.31F                  
SHERBROOKE       N/A     72  43  35 CALM      30.30S                  

_____REGIONAL ONTARIO LOCATIONS_____

  
CITY           SKY/WX    TMP DP  RH WIND       PRES   REMARKS
OTTAWA         PTSUNNY   70  43  37 E8        30.26S                  

______KEY______
VSB  - VISIBILITY IN MILES
WCI  - WIND CHILL INDEX
HX   - HEAT INDEX
$$
NNNN
  
