ASUS41 KBTV 232010
RWRBTV
VERMONT REGIONAL WEATHER ROUNDUP
NATIONAL WEATHER SERVICE BURLINGTON VT
400 PM EDT SUN OCT 23 2022

NOTE: "FAIR" INDICATES FEW OR NO CLOUDS BELOW 12,000 FEET WITH NO 
SIGNIFICANT WEATHER AND/OR OBSTRUCTIONS TO VISIBILITY.

* THESE REPORTS ARE NOT UNDER NWS QUALITY CONTROL AND/OR DO NOT
  REPORT WEATHER SUCH AS PRECIPITATION AND FOG.

VTZ001>019-232100-
_____VERMONT_____

  
CITY           SKY/WX    TMP DP  RH WIND       PRES   REMARKS
BURLINGTON     CLOUDY    68  43  40 SW3       30.29S                  
MONTPELIER     CLOUDY    67  40  37 S5        30.35S                  
MORRISVILLE    CLOUDY    68  42  38 CALM      30.31S                  
ST. JOHNSBURY*   N/A     65  41  41 MISG      30.30S                  
LYNDONVILLE*     N/A     64  38  39 SE7       30.35S                  
MIDDLEBURY*    FAIR      65  46  50 CALM      30.30S                  
RUTLAND*       CLOUDY    65  37  35 SE10      30.31S                  
SPRINGFIELD    CLOUDY    61  45  55 CALM      30.33S                  
HIGHGATE*      FAIR      67  42  39 CALM      30.29F HAZE             
NEWPORT*       FAIR      65  44  47 N3        30.32S                  
BENNINGTON     CLOUDY    64  38  38 CALM      30.29F                  

_____LAKE CHAMPLAIN_____

  
CITY           SKY/WX    TMP DP  RH WIND       PRES   REMARKS
BURTON ISLAND*   N/A     59  48  67 N1          N/A                   
COLCHESTER RF*   N/A     59  46  63 S7          N/A                   
DIAMOND ISL*     N/A     63  45  51 SW3         N/A                   

$$

NYZ007-026>031-035-052-083-087-232100-
_____NORTHERN NEW YORK_____

  
CITY           SKY/WX    TMP DP  RH WIND       PRES   REMARKS
PLATTSBURGH    CLOUDY    62  44  51 CALM      30.28F                  
SARANAC LAKE   CLOUDY    68  37  32 CALM      30.28S                  
MASSENA        PTSUNNY   69  39  33 NE9       30.27F                  
OGDENSBURG*    FAIR      72  39  30 CALM      30.23S                  
POTSDAM*       PTSUNNY   72  39  30 NE7       30.25F                  
WATERTOWN      SUNNY     69  44  40 W8        30.25S                  
FT DRUM        SUNNY     71  33  25 SE10      30.23S                  
ALBANY         CLOUDY    61  46  57 NW3       30.30S                  
GLENS FALLS    CLOUDY    63  44  50 CALM      30.29F                  

$$
NHZ002-005-011-232100-
_____NEW HAMPSHIRE_____

  
CITY           SKY/WX    TMP DP  RH WIND       PRES   REMARKS
LEBANON        CLOUDY    61  44  53 CALM      30.33S                  
KEENE          CLOUDY    55  48  77 CALM      30.33S                  
MT WASHINGTON  PTSUNNY   48  16  27 SE22        N/A                   
PLYMOUTH       FAIR      63  39  42 CALM      30.34S                  
WHITEFIELD     CLOUDY    64  46  52 CALM      30.33S                  

$$

_____REGIONAL QUEBEC LOCATIONS_____

  
CITY           SKY/WX    TMP DP  RH WIND       PRES   REMARKS
MONTREAL       CLOUDY    68  45  42 E6        30.27F                  
QUEBEC CITY    CLOUDY    66  45  45 SW2       30.31S                  
SHERBROOKE     MOSUNNY  N/A N/A N/A NE3       30.29F                  

_____REGIONAL ONTARIO LOCATIONS_____

  
CITY           SKY/WX    TMP DP  RH WIND       PRES   REMARKS
OTTAWA         PTSUNNY   70  45  40 E9        30.25F                  

______KEY______
VSB  - VISIBILITY IN MILES
WCI  - WIND CHILL INDEX
HX   - HEAT INDEX
$$
NNNN
  
