ASUS41 KAKQ 220111
RWRAKQ

REGIONAL WEATHER ROUNDUP
NATIONAL WEATHER SERVICE WAKEFIELD VA
900 PM EDT FRI OCT 21 2022

Note: "fair" indicates few or no clouds below 12,000 feet with no
significant weather and/or obstructions to visibility. * = Denotes
station may not report precipitation (e.g., rain,snow,etc.),
thunder or fog.

VAZ042-051-052>054-056-220200-
NORTHERN VIRGINIA
  
CITY           SKY/WX    TMP DP  RH WIND       PRES   REMARKS
WASH NATIONAL  PTCLDY    56  42  59 S8        30.16R                  
DULLES         CLEAR     53  32  44 S6        30.14R                  
FORT BELVOIR   CLEAR     44  39  83 CALM      30.14R                  
QUANTICO       CLEAR     50  32  50 W5        30.16R                  
FREDERICKSBRG* CLEAR     47  40  76 CALM      30.14R                  
STAFFORD*      CLEAR     47  41  79 NW3       30.18R                  
WARRENTON      CLEAR     38  33  84 CALM      30.18R                  
CULPEPER*      CLEAR     43  36  75 CALM      30.15R                  
MANASSAS*      CLEAR     45  38  76 CALM      30.15R                  
LEESBURG*      CLEAR     50  37  62 S5        30.15R                  
WINCHESTER     CLEAR     43  32  65 CALM      30.10R                  
FRONT ROYAL*   FAIR      48  32  53 S3        30.11S                  
LURAY*         FAIR      46  34  61 CALM      30.12S                  
$$

VAZ048-049-060>072-079>083-220200-
CENTRAL AND SOUTH CENTRAL VIRGINIA
  
CITY           SKY/WX    TMP DP  RH WIND       PRES   REMARKS
RICHMOND       CLEAR     51  40  65 SE7       30.15R                  
CHESTERFIELD*  FAIR      47  40  76 SW6       30.16R                  
PETERSBURG*    CLEAR     43  39  86 CALM      30.16R                  
HANOVER        CLEAR     48  42  80 CALM      30.16R                  
TAPPAHANNOCK*  CLEAR     52  41  66 SE3       30.16S                  
QUINTON*       FAIR      48  40  72 CALM      30.16R                  
CHARLOTTSVILLE CLEAR     49  36  61 CALM      30.14R                  
GORDONSVILLE*  NOT AVBL                                               
ORANGE*        CLEAR     43  36  75 CALM      30.16R                  
LOUISA*        CLEAR     40  37  89 CALM      30.15R                  
BUMPASS*       FAIR      47  39  75 CALM      30.15R                  
FARMVILLE*     CLEAR     44  36  73 CALM      30.14R                  
CREWE*         FAIR      42  38  86 CALM      30.15R                  
FORT PICKETT*  FAIR      50  38  65 CALM      30.15R                  
CHASE CITY*    FAIR      45  37  73 CALM      30.15R                  
CLARKSVILLE*   FAIR      45  45 100 CALM      30.15R                  
SOUTH HILL*    CLEAR     46  45  97 CALM      30.20S                  
LAWRENCEVILLE* FAIR      50  42  73 CALM      30.16R                  
EMPORIA*       CLEAR     41  39  94 CALM      30.18R                  
$$

VAZ088>098-220200-
SOUTHEAST VIRGINIA
  
CITY           SKY/WX    TMP DP  RH WIND       PRES   REMARKS
NORFOLK        CLEAR     54  49  83 E3        30.16R                  
VIRGINIA BEACH CLEAR     51  48  89 CALM      30.16R                  
NORFOLK NAVAL  CLEAR     53  47  79 SE5       30.18R                  
WEST POINT*    CLEAR     46  42  86 CALM      30.17S                  
SALUDA*        FAIR      49  44  82 CALM      30.16S                  
NEWPORT NEWS   CLEAR     46  45  96 CALM      30.17R                  
LANGLEY AFB    CLEAR     51  50  99 E3        30.16R                  
FORT EUSTIS    CLEAR    N/A N/A N/A CALM      30.16R                  
WILLIAMSBURG*  NOT AVBL                                               
HR EXEC AP*    FAIR      41  41 100 CALM      30.18R                  
FRANKLIN*      CLEAR     45  43  91 CALM      30.17R                  
US460-WAKEFLD  CLEAR     45  41  86 CALM      30.17R                  
$$

VAZ020-022-025-037-045-220200-
WEST CENTRAL AND SOUTHWEST VIRGINIA
  
CITY           SKY/WX    TMP DP  RH WIND       PRES   REMARKS
STAUNTON*      CLEAR     41  32  70 CALM      30.15R                  
WAYNESBORO*    FAIR      44  32  63 MISG      30.14R                  
HOT SPRINGS VA CLEAR     47  26  42 S8        30.16R                  
LYNCHBURG      CLEAR     47  34  60 CALM      30.14R                  
DANVILLE       CLEAR     44  36  73 CALM      30.15R                  
SOUTH BOSTON*  FAIR      44  38  80 CALM      30.15R                  
MARTINSVILLE   CLEAR     42  35  76 CALM      30.17R                  
ROANOKE        CLEAR     52  34  50 CALM      30.16R                  
BLACKSBURG     CLEAR     45  32  61 CALM      30.17R                  
DUBLIN*        CLEAR     47  34  60 CALM      30.14R                  
MARION*        CLEAR     43  31  63 CALM      30.16R                  
HILLSVILLE*    CLEAR     49  19  30 S6        30.14S                  
RICHLANDS*     FAIR      52  32  46 SE5       30.11R                  
WISE*          CLEAR     46  32  57 S5        30.11S                  
ABINGDON*      CLEAR     45  32  60 CALM      30.11R                  
$$

MDZ021>025-VAZ099-100-220200-
SOUTHERN MARYLAND AND THE DELMARVA PENINSULA
  
CITY           SKY/WX    TMP DP  RH WIND       PRES   REMARKS
PATUXENT RIVER CLEAR     56  43  61 S6        30.15R                  
BAY BRIDGE APT NOT AVBL                                               
LEONARDTOWN    CLEAR     46  45  93 CALM      30.17S                  
DOVER          CLEAR     51  43  73 SE7       30.15R                  
GEORGETOWN     CLEAR     48  43  82 CALM      30.17R                  
EASTON         CLEAR     48  43  81 CALM      30.19R                  
CAMBRIDGE      CLEAR     46  43  87 SE5       30.16R                  
SALISBURY      CLEAR     47  42  83 CALM      30.17R                  
TANGIER        FAIR      58  49  72 SE8       30.17R                  
OCEAN CITY     NOT AVBL                                               
WALLOPS ISLAND CLEAR     51  45  79 CALM      30.18R                  
ACCOMACK*      NOT AVBL                                               
$$

NCZ012>017-030>032-220200-
NORTH CENTRAL AND EASTERN NORTH CAROLINA
  
CITY           SKY/WX    TMP DP  RH WIND       PRES   REMARKS
ROANOKE RAPIDS FAIR      43  43 100 CALM      30.16R                  
RALEIGH        CLEAR     52  38  58 CALM      30.15R                  
ELIZABETH CITY CLEAR     56  48  74 NE5       30.16R                  
AHOSKIE*       CLEAR     44  44 100 CALM      30.16R                  
EDENTON*       MOCLDY    54  51  89 CALM      30.17R                  
CURRITUCK*     CLEAR     52  46  81 CALM      30.16R                  
KILL DEVIL HLS CLEAR     61  51  68 N6        30.14R                  
MANTEO         PTCLDY    59  51  73 NE7       30.15R                  
CAPE HATTERAS  CLEAR     62  55  77 VRB5      30.12R                  
TARBORO*       FAIR      44  43  94 CALM      30.15R                  
GOLDSBORO      MOCLDY    54  40  59 CALM      30.12R                  
WASHINGTON     NOT AVBL                                               
GREENVILLE     MOCLDY    52  46  82 CALM      30.15R                  
NEW BERN       CLOUDY    59  52  77 CALM      30.14R                  
WILMINGTON     CLOUDY    60  51  72 NE3       30.12R                  
$$

VAZ048-220200-
ELSEWHERE
  
CITY           SKY/WX    TMP DP  RH WIND       PRES   REMARKS
HARRISBURG PA  CLEAR     49  37  63 CALM      30.13R                  
BALTIMORE      PTCLDY    48  37  65 CALM      30.14R                  
ANNAPOLIS      CLEAR     52  45  77 CALM      30.15R                  
ANDREWS AFB    CLEAR     50  39  65 CALM      30.13R                  
PHILADELPHIA   CLEAR     55  36  48 SW5       30.16R                  
HENDERSON NC   CLEAR     45  41  85 CALM      30.15R                  
GREENSBORO     CLEAR     50  37  61 CALM      30.14R                  
ROCKY MOUNT    CLEAR     47  39  74 CALM      30.15R                  
$$

VAZ100-220200-
MARINE
  
STATION/POSITION TIME  TEMP    WIND        PRES    WAVE   SWELL
                       AIR SEA DIR/SP/G            HT/PER HT/PER
                 (UTC) (F)     (DEG/KT/KT) (MB)    (FT/S) (FT/S)
CAPE MAY NJ      0024      65  160/  4/  5 1021.4
LEWES DE         0024      61  180/  4/  5 1021.7
15NM E FENWICK I 0050   61 62  130/  8/ 10 1021.9R   2/11   2/11
OCEAN-CITY-INLET 0024      62  180/  5/  8 1022.0
44089 WALLOPS IS 0026      62                N/A     2/ 8
WACHAPREAGUE VA  0024      61  280/  1/  2 1020.8
THOMAS POINT MD  0100   60     140/  8/  9 1021.9R
GOOSES REEF MD   0048   56 61  160/  6/  6 1021.5F   1
COVE POINT MD    0030          120/  7/  8 1021.3R
SOLOMONS ISLAND  0024      63  170/  3/  4 1019.7
BISHOPS HEAD MD  0024      60  160/  8/ 10 1021.1
PINEY POINT MD   0030          190/ 10/ 11   N/A
POTOMAC MD       0048   57     160/ 12/ 14   N/A
CAMBRIDGE MD     0024      60  190/  4/  5 1020.9
LEWISETTA VA     0024      60  200/  6/  7 1021.1
RAPPAHANNOCK LGT 0030          120/  8/  9 1021.8R
STINGRAY PT      0048   58 62  150/ 12/ 16   N/A     1/ 2
YORK RVR RNG VA  0030          130/ 11/ 12 1021.2R
YORKTOWN VA      0024      63  170/  4/  5 1020.9
JAMESTOWN VA     0048   56     110/  8/ 10   N/A     0
DOMINION TERM VA 0030          100/  6/  8 1021.2R
KIPTOPEKE VA     0024      67  100/  5/  5   N/A
CHES BAY BRIDGE  0030          100/  7/  9 1020.4R
CAPE HENRY VA    0030           80/ 10/ 11 1021.5R
WILLOUBY STN VA  0030           90/  5/  8 1021.3R
S CRANEY ISL VA  0030          100/  6/  7 1021.0R
CAPE HENRY BUOY  0026      64                N/A     1/ 8
1ST LANDING BUOY 0048   59 63   90/ 12/ 14 1021.7F   1/ 9
DUCK PIER NC     0030      66   50/ 12/ 14 1020.4S
44100 DUCK FRF   0056      67                N/A     2/13   2/13
44056 DUCK FRF   0026      67                N/A     2/12   2/12
OREGON INLET NC  0018      62   30/  8/ 12 1020.0
HATTERAS NC      0030      64   30/ 10/ 13 1020.2R
DIAMOND SHLS NC  0050      77   40/ 16/ 19 1019.0R
CAPE LOOKOUT NC  0000   64      20/ 12/ 14 1019.9R
$$
  
