ASUS41 KAKQ 220011
RWRAKQ

REGIONAL WEATHER ROUNDUP
NATIONAL WEATHER SERVICE WAKEFIELD VA
800 PM EDT FRI OCT 21 2022

Note: "fair" indicates few or no clouds below 12,000 feet with no
significant weather and/or obstructions to visibility. * = Denotes
station may not report precipitation (e.g., rain,snow,etc.),
thunder or fog.

VAZ042-051-052>054-056-220100-
NORTHERN VIRGINIA
  
CITY           SKY/WX    TMP DP  RH WIND       PRES   REMARKS
WASH NATIONAL  PTCLDY    57  40  52 S3        30.14R                  
DULLES         CLEAR     53  32  44 SE7       30.12R                  
FORT BELVOIR   CLEAR     45  40  80 CALM      30.12R                  
QUANTICO       CLEAR     52  32  46 W6        30.15R                  
FREDERICKSBRG* CLEAR     50  41  71 CALM      30.12S                  
STAFFORD*      CLEAR     51  40  67 CALM      30.17R                  
WARRENTON      CLEAR     42  35  76 SE3       30.16S                  
CULPEPER*      CLEAR     46  36  66 CALM      30.14R                  
MANASSAS*      CLEAR     47  38  71 CALM      30.13R                  
LEESBURG*      CLEAR     54  36  50 S6        30.13S                  
WINCHESTER     CLEAR     48  32  53 S6        30.09R                  
FRONT ROYAL*   FAIR      52  32  46 CALM      30.10R                  
LURAY*         FAIR      52  32  46 CALM      30.11R                  
$$

VAZ048-049-060>072-079>083-220100-
CENTRAL AND SOUTH CENTRAL VIRGINIA
  
CITY           SKY/WX    TMP DP  RH WIND       PRES   REMARKS
RICHMOND       CLEAR     52  39  61 SE6       30.14R                  
CHESTERFIELD*  FAIR      49  40  71 S7        30.14R                  
PETERSBURG*    CLEAR     45  40  83 CALM      30.15R                  
HANOVER        CLEAR     50  42  74 CALM      30.15R                  
TAPPAHANNOCK*  CLEAR     53  42  65 CALM      30.15R                  
QUINTON*       FAIR      50  39  64 CALM      30.14R                  
CHARLOTTSVILLE CLEAR     57  33  40 CALM      30.12R                  
GORDONSVILLE*  NOT AVBL                                               
ORANGE*        CLEAR     45  37  76 CALM      30.15R                  
LOUISA*        CLEAR     43  38  83 CALM      30.13S                  
BUMPASS*       FAIR      49  41  72 CALM      30.13R                  
FARMVILLE*     CLEAR     50  36  58 CALM      30.12R                  
CREWE*         FAIR      45  37  73 CALM      30.13S                  
FORT PICKETT*  FAIR      51  38  62 CALM      30.14R                  
CHASE CITY*    FAIR      48  38  66 CALM      30.14R                  
CLARKSVILLE*   FAIR      46  43  87 CALM      30.13R                  
SOUTH HILL*    CLEAR     47  45  93 CALM      30.19R                  
LAWRENCEVILLE* FAIR      52  41  64 CALM      30.15R                  
EMPORIA*       CLEAR     44  41  89 CALM      30.16R                  
$$

VAZ088>098-220100-
SOUTHEAST VIRGINIA
  
CITY           SKY/WX    TMP DP  RH WIND       PRES   REMARKS
NORFOLK        CLEAR     55  49  80 CALM      30.15R                  
VIRGINIA BEACH CLEAR     52  48  86 CALM      30.14R                  
NORFOLK NAVAL  PTCLDY    56  47  71 E5        30.17R                  
WEST POINT*    CLEAR     52  41  66 CALM      30.16R                  
SALUDA*        FAIR      50  43  76 CALM      30.16R                  
NEWPORT NEWS   CLEAR     47  44  90 E3        30.16R                  
LANGLEY AFB    CLEAR     52  51  94 E3        30.15R                  
FORT EUSTIS    CLEAR     53  42  66 CALM      30.13R                  
WILLIAMSBURG*  NOT AVBL                                               
HR EXEC AP*    FAIR      45  43  93 CALM      30.16R                  
FRANKLIN*      CLEAR     47  43  85 CALM      30.15R                  
US460-WAKEFLD  CLEAR     48  41  76 CALM      30.15R                  
$$

VAZ020-022-025-037-045-220100-
WEST CENTRAL AND SOUTHWEST VIRGINIA
  
CITY           SKY/WX    TMP DP  RH WIND       PRES   REMARKS
STAUNTON*      CLEAR     52  31  45 CALM      30.14R                  
WAYNESBORO*    FAIR      47  32  55 MISG      30.13R                  
HOT SPRINGS VA CLEAR     48  27  43 S8        30.15R                  
LYNCHBURG      CLEAR     50  34  54 CALM      30.13R                  
DANVILLE       CLEAR     48  37  65 CALM      30.13R                  
SOUTH BOSTON*  FAIR      46  38  76 CALM      30.14R                  
MARTINSVILLE   CLEAR     46  34  63 CALM      30.15R                  
ROANOKE        CLEAR     53  33  46 CALM      30.14R                  
BLACKSBURG     CLEAR     46  32  59 E5        30.15R                  
DUBLIN*        CLEAR     50  33  52 CALM      30.12R                  
MARION*        CLEAR     46  32  59 CALM      30.14S                  
HILLSVILLE*    CLEAR     50  19  28 S5        30.13R                  
RICHLANDS*     FAIR      53  32  44 CALM      30.10S                  
WISE*          CLEAR     48  32  53 S3        30.11R                  
ABINGDON*      CLEAR     49  32  52 CALM      30.10R                  
$$

MDZ021>025-VAZ099-100-220100-
SOUTHERN MARYLAND AND THE DELMARVA PENINSULA
  
CITY           SKY/WX    TMP DP  RH WIND       PRES   REMARKS
PATUXENT RIVER CLEAR     56  43  61 S5        30.14R                  
BAY BRIDGE APT NOT AVBL                                               
LEONARDTOWN    CLEAR     52  45  76 CALM      30.16S                  
DOVER          CLEAR     52  43  70 SE6       30.13R                  
GEORGETOWN     CLEAR     51  42  71 CALM      30.16R                  
EASTON         CLEAR     52  43  71 CALM      30.18R                  
CAMBRIDGE      CLEAR     48  45  87 CALM      30.15R                  
SALISBURY      CLEAR     50  43  77 CALM      30.16R                  
TANGIER        FAIR      59  47  64 SE8       30.15S                  
OCEAN CITY     NOT AVBL                                               
WALLOPS ISLAND CLEAR     53  45  74 CALM      30.17R                  
ACCOMACK*      CLEAR     44  41  90 CALM      30.16                   
$$

NCZ012>017-030>032-220100-
NORTH CENTRAL AND EASTERN NORTH CAROLINA
  
CITY           SKY/WX    TMP DP  RH WIND       PRES   REMARKS
ROANOKE RAPIDS FAIR      46  46 100 CALM      30.14R                  
RALEIGH        PTCLDY    52  39  61 CALM      30.14R                  
ELIZABETH CITY CLEAR     56  47  71 E6        30.14R                  
AHOSKIE*       CLEAR     47  43  85 CALM      30.15R                  
EDENTON*       PTCLDY    56  53  90 CALM      30.15R                  
CURRITUCK*     CLEAR     54  46  74 CALM      30.14S                  
KILL DEVIL HLS PTCLDY    61  49  65 NE5       30.13R                  
MANTEO         CLEAR     60  50  69 NE6       30.14S                  
CAPE HATTERAS  CLEAR     62  54  74 N6        30.11R                  
TARBORO*       FAIR      47  44  88 CALM      30.14R                  
GOLDSBORO      PTCLDY    52  38  59 CALM      30.10R                  
WASHINGTON     NOT AVBL                                               
GREENVILLE     PTCLDY    52  43  71 CALM      30.13R                  
NEW BERN       CLOUDY    58  50  75 NE6       30.13R                  
WILMINGTON     CLOUDY    61  53  75 E3        30.11R                  
$$

VAZ048-220100-
ELSEWHERE
  
CITY           SKY/WX    TMP DP  RH WIND       PRES   REMARKS
HARRISBURG PA  CLEAR     51  40  65 E3        30.11R                  
BALTIMORE      PTCLDY    56  34  43 S3        30.13R                  
ANNAPOLIS      CLEAR     53  43  68 CALM      30.14R                  
ANDREWS AFB    CLEAR     51  38  61 CALM      30.12R                  
PHILADELPHIA   CLEAR     57  37  47 S8        30.15R                  
HENDERSON NC   CLEAR     47  39  74 CALM      30.14R                  
GREENSBORO     CLEAR     55  36  48 CALM      30.12R                  
ROCKY MOUNT    CLEAR     51  39  63 CALM      30.13R                  
$$

VAZ100-220100-
MARINE
  
STATION/POSITION TIME  TEMP    WIND        PRES    WAVE   SWELL
                       AIR SEA DIR/SP/G            HT/PER HT/PER
                 (UTC) (F)     (DEG/KT/KT) (MB)    (FT/S) (FT/S)
CAPE MAY NJ      2330      65  150/  4/  7   N/A
LEWES DE         2330      61  160/  2/  5   N/A
15NM E FENWICK I 2350   61 63  140/  8/ 10 1021.7R   2/13   2/13
OCEAN-CITY-INLET 2330      62  170/  5/  8   N/A
44089 WALLOPS IS 2326      62                N/A     2/11   2/11
WACHAPREAGUE VA  2330      61   CALM  /  1   N/A
THOMAS POINT MD  0000   61     150/  8/  9 1021.5R
GOOSES REEF MD   2348   57 61  160/  6/ 10 1021.9R   1
COVE POINT MD    2330          120/  5/  6   N/A
SOLOMONS ISLAND  2330      63  170/  2/  2   N/A
BISHOPS HEAD MD  2330      60  160/  6/  6   N/A
PINEY POINT MD   2330          180/  9/ 12   N/A
POTOMAC MD       2348   58     160/ 10/ 14   N/A
CAMBRIDGE MD     2330      59  220/  3/  3   N/A
LEWISETTA VA     2330      61  200/  6/  7   N/A
RAPPAHANNOCK LGT 2330          120/  6/  8   N/A
STINGRAY PT      2348   58 62  150/ 12/ 16   N/A     1
YORK RVR RNG VA  2330          130/ 11/ 12   N/A
YORKTOWN VA      2330      63  150/  3/  4   N/A
JAMESTOWN VA     2348   57     110/  6/  8   N/A     0
DOMINION TERM VA 2330          100/  8/ 11   N/A
KIPTOPEKE VA     2330      67  100/  4/  5   N/A
CHES BAY BRIDGE  2330          120/  9/ 10   N/A
CAPE HENRY VA    2330           80/  9/ 10   N/A
WILLOUBY STN VA  2330           80/  4/  8   N/A
S CRANEY ISL VA  2330          120/  6/  7   N/A
CAPE HENRY BUOY  2356      64                N/A     2/ 9
1ST LANDING BUOY 2348   59 62  100/ 12/ 14 1022.2R   1/ 9
DUCK PIER NC     2330      66   50/ 12/ 14   N/A
44100 DUCK FRF   2356      67                N/A     2/ 8
44056 DUCK FRF   2326      67                N/A     2/ 8
OREGON INLET NC  2330      62   40/  8/ 12   N/A
HATTERAS NC      2330      64   10/ 13/ 15   N/A
DIAMOND SHLS NC  2350      77   30/ 16/ 19 1018.7R
CAPE LOOKOUT NC  2300   63      20/ 11/ 14 1019.5R
$$
  
