ASUS41 KAKQ 212311
RWRAKQ

REGIONAL WEATHER ROUNDUP
NATIONAL WEATHER SERVICE WAKEFIELD VA
700 PM EDT FRI OCT 21 2022

Note: "fair" indicates few or no clouds below 12,000 feet with no
significant weather and/or obstructions to visibility. * = Denotes
station may not report precipitation (e.g., rain,snow,etc.),
thunder or fog.

VAZ042-051-052>054-056-220000-
NORTHERN VIRGINIA
  
CITY           SKY/WX    TMP DP  RH WIND       PRES   REMARKS
WASH NATIONAL  PTCLDY    61  36  39 SE6       30.13R                  
DULLES         PTCLDY    56  32  40 SE6       30.11S                  
FORT BELVOIR   CLEAR     50  40  68 CALM      30.11R                  
QUANTICO       CLEAR     56  32  40 CALM      30.14R                  
FREDERICKSBRG* CLEAR     53  40  60 CALM      30.11R                  
STAFFORD*      CLEAR     56  38  49 CALM      30.15S                  
WARRENTON      CLEAR     53  32  44 SE5       30.15S                  
CULPEPER*      CLEAR     51  36  55 CALM      30.12S                  
MANASSAS*      CLEAR     52  38  58 S5        30.12S                  
LEESBURG*      CLEAR     61  34  36 S6        30.12S                  
WINCHESTER     CLEAR     52  32  46 SE5       30.08R                  
FRONT ROYAL*   FAIR      55  30  38 CALM      30.08S                  
LURAY*         FAIR      54  32  43 S3        30.09S                  
$$

VAZ048-049-060>072-079>083-220000-
CENTRAL AND SOUTH CENTRAL VIRGINIA
  
CITY           SKY/WX    TMP DP  RH WIND       PRES   REMARKS
RICHMOND       PTCLDY    56  38  50 CALM      30.12S                  
CHESTERFIELD*  FAIR      52  39  61 W5        30.13R                  
PETERSBURG*    CLEAR     49  41  74 CALM      30.13R                  
HANOVER        CLEAR     54  42  64 CALM      30.14R                  
TAPPAHANNOCK*  CLEAR     54  44  68 CALM      30.14R                  
QUINTON*       FAIR      55  37  52 CALM      30.12S                  
CHARLOTTSVILLE CLEAR     58  31  35 S3        30.11R                  
GORDONSVILLE*  NOT AVBL                                               
ORANGE*        CLEAR     46  37  71 CALM      30.13S                  
LOUISA*        CLEAR     46  40  80 CALM      30.12S                  
BUMPASS*       FAIR      53  39  59 CALM      30.12S                  
FARMVILLE*     CLEAR     53  32  46 CALM      30.11R                  
CREWE*         FAIR      50  37  60 CALM      30.12R                  
FORT PICKETT*  FAIR      55  39  54 CALM      30.12S                  
CHASE CITY*    FAIR      52  39  61 CALM      30.13R                  
CLARKSVILLE*   FAIR      54  41  62 CALM      30.12R                  
SOUTH HILL*    CLEAR     51  45  81 CALM      30.18R                  
LAWRENCEVILLE* FAIR      55  44  67 CALM      30.13R                  
EMPORIA*       CLEAR     46  41  82 CALM      30.15R                  
$$

VAZ088>098-220000-
SOUTHEAST VIRGINIA
  
CITY           SKY/WX    TMP DP  RH WIND       PRES   REMARKS
NORFOLK        CLEAR     58  49  72 E3        30.13S                  
VIRGINIA BEACH CLEAR     57  49  74 E3        30.13S                  
NORFOLK NAVAL  PTCLDY    58  46  64 E5        30.15S                  
WEST POINT*    CLEAR     50  44  79 CALM      30.15R                  
SALUDA*        FAIR      52  44  75 CALM      30.14R                  
NEWPORT NEWS   CLEAR     53  43  68 E5        30.14S                  
LANGLEY AFB    CLEAR     58  49  72 E6        30.12S                  
FORT EUSTIS    CLEAR     59  38  45 E3        30.11S                  
WILLIAMSBURG*  NOT AVBL                                               
HR EXEC AP*    FAIR      48  45  89 CALM      30.14S                  
FRANKLIN*      CLEAR     52  41  66 CALM      30.14R                  
US460-WAKEFLD  CLEAR     53  42  66 CALM      30.13R                  
$$

VAZ020-022-025-037-045-220000-
WEST CENTRAL AND SOUTHWEST VIRGINIA
  
CITY           SKY/WX    TMP DP  RH WIND       PRES   REMARKS
STAUNTON*      CLEAR     54  31  40 SE5       30.12R                  
WAYNESBORO*    FAIR      52  32  47 MISG      30.11S                  
HOT SPRINGS VA CLEAR     48  26  41 S6        30.13S                  
LYNCHBURG      CLEAR     51  35  54 CALM      30.12R                  
DANVILLE       CLEAR     51  37  58 CALM      30.12R                  
SOUTH BOSTON*  FAIR      53  36  53 CALM      30.12S                  
MARTINSVILLE   CLEAR     51  34  52 CALM      30.14R                  
ROANOKE        PTCLDY    58  30  34 SE6       30.13R                  
BLACKSBURG     CLEAR     53  32  44 SE5       30.14R                  
DUBLIN*        CLEAR     56  34  44 CALM      30.10R                  
MARION*        CLEAR     53  32  45 CALM      30.13R                  
HILLSVILLE*    CLEAR     52  18  26 S5        30.11S                  
RICHLANDS*     FAIR      56  32  40 S5        30.10R                  
WISE*          CLEAR     52  32  46 S3        30.10S                  
ABINGDON*      CLEAR     56  29  34 CALM      30.09S                  
$$

MDZ021>025-VAZ099-100-220000-
SOUTHERN MARYLAND AND THE DELMARVA PENINSULA
  
CITY           SKY/WX    TMP DP  RH WIND       PRES   REMARKS
PATUXENT RIVER CLEAR     56  46  69 S3        30.13S                  
BAY BRIDGE APT NOT AVBL                                               
LEONARDTOWN    CLEAR     50  45  81 CALM      30.16R                  
DOVER          CLEAR     55  45  70 SE7       30.12R                  
GEORGETOWN     CLEAR     55  42  61 SE5       30.15R                  
EASTON         CLEAR     55  41  58 CALM      30.17R                  
CAMBRIDGE      CLEAR     52  43  71 CALM      30.13S                  
SALISBURY      CLEAR     54  43  66 SE5       30.15R                  
TANGIER        FAIR      58  45  60 SE6       30.14                   
OCEAN CITY     NOT AVBL                                               
WALLOPS ISLAND CLEAR     54  44  69 S3        30.15S                  
ACCOMACK*      NOT AVBL                                               
$$

NCZ012>017-030>032-220000-
NORTH CENTRAL AND EASTERN NORTH CAROLINA
  
CITY           SKY/WX    TMP DP  RH WIND       PRES   REMARKS
ROANOKE RAPIDS FAIR      50  48  93 CALM      30.12R                  
RALEIGH        PTCLDY    57  38  48 CALM      30.12R                  
ELIZABETH CITY CLEAR     57  46  66 NE6       30.13R                  
AHOSKIE*       CLEAR     52  43  70 CALM      30.13R                  
EDENTON*       CLEAR     57  53  85 CALM      30.14R                  
CURRITUCK*     CLEAR     56  46  69 CALM      30.13S                  
KILL DEVIL HLS CLEAR     61  48  63 NE3       30.12R                  
MANTEO         CLEAR     60  49  66 NE6       30.13R                  
CAPE HATTERAS  PTCLDY    63  54  72 VRB6      30.09S                  
TARBORO*       FAIR      52  43  71 CALM      30.12R                  
GOLDSBORO      PTCLDY    57  38  48 CALM      30.08R                  
WASHINGTON     NOT AVBL                                               
GREENVILLE     CLEAR     61  37  41 CALM      30.11R                  
NEW BERN       MOCLDY    57  48  72 CALM      30.12R                  
WILMINGTON     CLOUDY    62  51  67 CALM      30.09S                  
$$

VAZ048-220000-
ELSEWHERE
  
CITY           SKY/WX    TMP DP  RH WIND       PRES   REMARKS
HARRISBURG PA  CLEAR     53  39  59 E3        30.09R                  
BALTIMORE      PTCLDY    57  32  38 S5        30.12R                  
ANNAPOLIS      CLEAR     55  39  54 CALM      30.13R                  
ANDREWS AFB    CLEAR     53  36  51 SE6       30.11R                  
PHILADELPHIA   CLEAR     57  36  45 S5        30.14R                  
HENDERSON NC   CLEAR     51  38  62 CALM      30.12R                  
GREENSBORO     PTCLDY    59  30  33 CALM      30.11R                  
ROCKY MOUNT    CLEAR     55  39  54 CALM      30.12R                  
$$

VAZ100-220000-
MARINE
  
STATION/POSITION TIME  TEMP    WIND        PRES    WAVE   SWELL
                       AIR SEA DIR/SP/G            HT/PER HT/PER
                 (UTC) (F)     (DEG/KT/KT) (MB)    (FT/S) (FT/S)
CAPE MAY NJ      2224      65  140/  4/  5 1020.5
LEWES DE         2230      61  160/  3/  5 1020.8
15NM E FENWICK I 2250   61 63  140/  8/ 10 1021.1R   2/ 8   2/ 8
OCEAN-CITY-INLET 2230      61  180/  7/  9 1021.1
44089 WALLOPS IS 2256      62                N/A     2/ 8
WACHAPREAGUE VA  2230      62  170/  3/  4 1020.1
THOMAS POINT MD  2300   61     140/  7/  7 1021.3R
GOOSES REEF MD   2248   57 62  150/  6/  8 1021.4F   1
COVE POINT MD    2230           90/  7/  8 1020.6
SOLOMONS ISLAND  2230      63  140/  5/  5 1018.9
BISHOPS HEAD MD  2230      60  180/  3/  3 1020.3
PINEY POINT MD   2230          170/  9/ 11   N/A
POTOMAC MD       2248   59     160/ 10/ 14   N/A     1
CAMBRIDGE MD     2230      59  200/  3/  4 1020.2
LEWISETTA VA     2230      61  180/  5/  5 1020.2
RAPPAHANNOCK LGT 2230          120/  6/  7 1021.0
STINGRAY PT      2248   59 62  150/ 12/ 14   N/A
YORK RVR RNG VA  2230          140/ 12/ 13 1020.3
YORKTOWN VA      2230      63  150/  5/  6 1020.0
JAMESTOWN VA     2248   58     110/  8/ 10   N/A
DOMINION TERM VA 2230           80/  9/ 11 1020.1
KIPTOPEKE VA     2230      67  100/  4/  5   N/A
CHES BAY BRIDGE  2230          110/  7/  9 1019.5
CAPE HENRY VA    2230           80/ 10/ 11 1020.7
WILLOUBY STN VA  2230          100/  8/ 10 1020.3
S CRANEY ISL VA  2230          110/  8/  9 1020.0
CAPE HENRY BUOY  2226      64                N/A     2/ 7
1ST LANDING BUOY 2248   59 63  100/ 12/ 14 1021.3F   1/ 7
DUCK PIER NC     2230      66   50/ 11/ 12 1019.8
44100 DUCK FRF   2256      67                N/A     2/ 8
44056 DUCK FRF   2226      67                N/A     2/ 8   2/11
OREGON INLET NC  2230      62   40/  6/ 10 1019.7
HATTERAS NC      2230      64   20/ 12/ 15 1019.4
DIAMOND SHLS NC  2250      77   30/ 16/ 19 1018.3R
CAPE LOOKOUT NC  2200   64      10/ 10/ 13 1019.3R
$$
  
