ASUS43 KEAX 232010
RWREAX

WEATHER ROUNDUP FOR EASTERN KANSAS AND NORTHWEST MISSOURI
NATIONAL WEATHER SERVICE KANSAS CITY/PLEASANT HILL MO
300 PM CDT SUN OCT 23 2022

KSZ040-057-103>105-MOZ028-029-037-043-232100-
...KANSAS CITY METROPOLITAN AREA...
  
CITY           SKY/WX    TMP DP  RH WIND       PRES   REMARKS
K.C. INTL      CLOUDY    84  57  39 S31G47    29.54F                  
K.C. DOWNTOWN  PTSUNNY   83  58  42 S25G41    29.56F                  
LEES SUMMIT    PTSUNNY   81  58  45 S33G46    29.60S                  
OLATHE - IXD   PTSUNNY   80  59  48 S23G40    29.56F                  
OLATHE - OJC   PTSUNNY   78  59  51 S23G41    29.56F                  
LAWRENCE       PTSUNNY   80  58  46 S25G37    29.57R                  

$$
 
MOZ001>008-011>017-020>025-030>033-038>040-044>046-053-054-232100-
...NORTHERN AND CENTRAL MISSOURI...
  
CITY           SKY/WX    TMP DP  RH WIND       PRES   REMARKS
ST. JOSEPH     PTSUNNY   81  57  43 S23G41    29.50S                  
MOSBY          PTSUNNY   82  54  36 S21G35    29.57F                  
HARRISONVILLE  LGT RAIN  75  61  60 S13G22    29.64S                  
WHITEMAN AFB   PTSUNNY   83  56  39 S26G32    29.58F                  
CLINTON        PTSUNNY   84  57  39 S16G24    29.65R                  
SEDALIA        MOSUNNY   87  56  34 S24G38    29.65F                  
MARSHALL       MOSUNNY   86  59  39 S22G31    29.63F                  
CHILLICOTHE      N/A     86  58  38 S16G36    29.56F                  
MOBERLY        SUNNY     82  54  36 S17G25    29.66F                  
KIRKSVILLE     SUNNY     82  58  43 S24G33    29.64F                  

$$

MOZ041-047>049-056>058-063>065-088>090-097-232100-
...EASTERN AND SOUTHERN MISSOURI...
  
CITY           SKY/WX    TMP DP  RH WIND       PRES   REMARKS
ST. LOUIS INTL MOSUNNY   78  58  49 S17G31    29.81F                  
SPIRIT OF STL  SUNNY     77  58  51 S17G30    29.79F                  
COLUMBIA       SUNNY     85  58  39 S22G35    29.70F                  
JEFFERSON CITY SUNNY     85  58  39 S12G35    29.69F                  
MEXICO         SUNNY     79  61  53 SE18G26   29.70F                  
HANNIBAL       SUNNY     81  55  41 SE14G23   29.70F                  
ROLLA          MOSUNNY   79  58  48 S21G33    29.78F                  
LEBANON        SUNNY     82  52  34 S17G24    29.76F                  
OSAGE BEACH    SUNNY     84  58  40 S17G25      N/A                   
SPRINGFIELD    SUNNY     84  57  39 S22G37    29.73F                  
BRANSON        SUNNY     81  57  44 S15G24    29.82F                  
JOPLIN         MOSUNNY   86  56  35 S30G47    29.67F                  
WEST PLAINS    SUNNY     77  57  50 S21G32    29.87F                  
SIKESTON       MOSUNNY   79  59  50 S10G21    29.95F                  

$$

IAZ060-094-KSZ022-034>040-054-083-096-NEZ052-066-093-232100- 
...KANSAS...SOUTHEAST NEBRASKA AND IOWA...
  
CITY           SKY/WX    TMP DP  RH WIND       PRES   REMARKS
TOPEKA         PTSUNNY   78  64  61 S15G23    29.50F                  
MANHATTAN      MOSUNNY   86  56  35 S25G38    29.42F                  
EMPORIA        SUNNY     82  58  43 S29G52    29.51F                  
CHANUTE        MOSUNNY   84  59  42 S32G43    29.60F                  
SALINA         SUNNY     87  55  33 S32G46    29.39F BLWGDUST         
WICHITA        MOSUNNY   83  57  41 S36G48    29.50S                  
OMAHA          MOSUNNY   86  56  35 S29G44    29.34F                  
LINCOLN        MOSUNNY   86  55  34 S36G51    29.32F                  
FALLS CITY     LGT RAIN  80  59  48 S29G45    29.47R                  
LAMONI         LGT RAIN  82  57  42 S22G35    29.53F                  
DES MOINES     PTSUNNY   81  57  43 S28G37    29.50F                  

$$

  
