ASUS43 KEAX 232110
RWREAX

WEATHER ROUNDUP FOR EASTERN KANSAS AND NORTHWEST MISSOURI
NATIONAL WEATHER SERVICE KANSAS CITY/PLEASANT HILL MO
400 PM CDT SUN OCT 23 2022

KSZ040-057-103>105-MOZ028-029-037-043-232200-
...KANSAS CITY METROPOLITAN AREA...
  
CITY           SKY/WX    TMP DP  RH WIND       PRES   REMARKS
K.C. INTL      PTSUNNY   81  59  47 S23G32    29.54S                  
K.C. DOWNTOWN  MOSUNNY   83  59  44 S20G36    29.55F                  
LEES SUMMIT    SUNNY     81  59  47 S26G39    29.58F                  
OLATHE - IXD   PTSUNNY   80  59  48 S24G37    29.57R                  
OLATHE - OJC   MOSUNNY   81  58  45 S26G37    29.56S                  
LAWRENCE       PTSUNNY   82  59  45 S18G35    29.53F                  

$$
 
MOZ001>008-011>017-020>025-030>033-038>040-044>046-053-054-232200-
...NORTHERN AND CENTRAL MISSOURI...
  
CITY           SKY/WX    TMP DP  RH WIND       PRES   REMARKS
ST. JOSEPH     MOSUNNY   77  63  61 S14G25    29.50R                  
MOSBY          PTSUNNY   82  54  36 S16G22    29.57R                  
HARRISONVILLE  SUNNY     82  59  44 S13G23    29.61F                  
WHITEMAN AFB   PTSUNNY   81  58  44 S16       29.59F                  
CLINTON        PTSUNNY   84  57  39 S12       29.63F                  
SEDALIA        CLOUDY    83  56  39 S15G24    29.69R                  
MARSHALL       CLOUDY    82  57  42 S24G35    29.66R                  
CHILLICOTHE      N/A     85  58  39 S18G43    29.59R                  
MOBERLY        MOSUNNY   84  54  34 SE22      29.65F                  
KIRKSVILLE     MOSUNNY   80  58  46 S25G37    29.63F                  

$$

MOZ041-047>049-056>058-063>065-088>090-097-232200-
...EASTERN AND SOUTHERN MISSOURI...
  
CITY           SKY/WX    TMP DP  RH WIND       PRES   REMARKS
ST. LOUIS INTL MOSUNNY   79  58  48 S25G38    29.81S                  
SPIRIT OF STL  SUNNY     77  58  51 S12G25    29.78F                  
COLUMBIA       MOSUNNY   84  58  40 S21G32    29.70S                  
JEFFERSON CITY MOSUNNY   84  58  40 S20G29    29.70R                  
MEXICO         SUNNY     81  59  47 S17G29    29.70S                  
HANNIBAL       SUNNY     81  55  41 SE16G26   29.71R                  
ROLLA          SUNNY     78  58  49 S21G32    29.78S                  
LEBANON        MOSUNNY   79  52  38 S20G25    29.77R                  
OSAGE BEACH    SUNNY     85  58  39 S16G24      N/A                   
SPRINGFIELD    SUNNY     84  56  38 S24G35    29.72F                  
BRANSON        SUNNY     77  59  53 S17G24    29.82S                  
JOPLIN         MOSUNNY   86  54  33 S31G47    29.66F                  
WEST PLAINS    SUNNY     77  58  51 S16G26    29.87S                  
SIKESTON       SUNNY     81  57  44 S12G22    29.94F                  

$$

IAZ060-094-KSZ022-034>040-054-083-096-NEZ052-066-093-232200- 
...KANSAS...SOUTHEAST NEBRASKA AND IOWA...
  
CITY           SKY/WX    TMP DP  RH WIND       PRES   REMARKS
TOPEKA         PTSUNNY   82  60  47 S24G39    29.49F                  
MANHATTAN      SUNNY     87  57  35 S28G44    29.40F                  
EMPORIA        SUNNY     84  57  39 S35G49    29.51S                  
CHANUTE        MOSUNNY   86  58  38 S33G48    29.60S                  
SALINA         SUNNY     86  55  34 S35G58    29.39S BLWGDUST         
WICHITA        PTSUNNY   81  58  45 S33G48    29.49F BLWGDUST         
OMAHA          PTSUNNY   85  57  38 S32G49    29.33F                  
LINCOLN        CLOUDY    85  55  35 S31G49    29.32S                  
FALLS CITY     SUNNY     81  61  50 S26G45    29.44F                  
LAMONI         LGT RAIN  82  57  42 S21G39    29.53S                  
DES MOINES     PTSUNNY   83  57  41 SE28G37   29.48F                  

$$

  
