ASUS43 KEAX 231815
RWREAX

WEATHER ROUNDUP FOR EASTERN KANSAS AND NORTHWEST MISSOURI
NATIONAL WEATHER SERVICE KANSAS CITY/PLEASANT HILL MO
100 PM CDT SUN OCT 23 2022

KSZ040-057-103>105-MOZ028-029-037-043-231900-
...KANSAS CITY METROPOLITAN AREA...
  
CITY           SKY/WX    TMP DP  RH WIND       PRES   REMARKS
K.C. INTL      MOSUNNY   84  57  39 S28G38    29.58F                  
6HR MIN TEMP:  68; 6HR MAX TEMP:  85;                                

K.C. DOWNTOWN  SUNNY     83  58  42 S17G29    29.60F                  
6HR MIN TEMP:  69; 6HR MAX TEMP:  83;                                

LEES SUMMIT    SUNNY     82  58  43 S22G37    29.62F                  
6HR MIN TEMP:  66; 6HR MAX TEMP:  82;                                

OLATHE - IXD   SUNNY     82  58  43 S25G37    29.61F                  
6HR MIN TEMP:  69; 6HR MAX TEMP:  82;                                

OLATHE - OJC   SUNNY     81  58  45 S22G37    29.60F                  
6HR MIN TEMP:  70; 6HR MAX TEMP:  81;                                

LAWRENCE       SUNNY     81  58  45 S23G33    29.57F                  

$$
 
MOZ001>008-011>017-020>025-030>033-038>040-044>046-053-054-231900-
...NORTHERN AND CENTRAL MISSOURI...
  
CITY           SKY/WX    TMP DP  RH WIND       PRES   REMARKS
ST. JOSEPH     MOSUNNY   78  58  49 S30G44    29.53F                  
6HR MIN TEMP:  63; 6HR MAX TEMP:  80;                                

MOSBY          SUNNY     81  54  39 S17G28    29.60F                  
HARRISONVILLE  SUNNY     82  55  39 S22G29    29.67F                  
WHITEMAN AFB   MOSUNNY   83  57  40 S25G32    29.62F                  
6HR MIN TEMP:  67; 6HR MAX TEMP:  83;                                

CLINTON        SUNNY     84  59  42 S17G24    29.68F                  
SEDALIA        SUNNY     83  58  42 S23G38    29.70F                  
6HR MIN TEMP:  69; 6HR MAX TEMP:  83; 6HR PCP: TRACE;                

MARSHALL       SUNNY     81  59  47 S23G31    29.68F                  
CHILLICOTHE      N/A     83  58  42 S18G35    29.62F                  
6HR MIN TEMP:  64; 6HR MAX TEMP:  83;                                

MOBERLY        SUNNY     79  54  41 S17G29    29.71F                  
KIRKSVILLE     MOSUNNY   80  58  46 S25G33    29.68F                  
6HR MIN TEMP:  59; 6HR MAX TEMP:  81;                                


$$

MOZ041-047>049-056>058-063>065-088>090-097-231900-
...EASTERN AND SOUTHERN MISSOURI...
  
CITY           SKY/WX    TMP DP  RH WIND       PRES   REMARKS
ST. LOUIS INTL PTSUNNY   76  57  51 S18G31    29.85F                  
6HR MIN TEMP:  67; 6HR MAX TEMP:  77;                                

SPIRIT OF STL  MOSUNNY   74  58  57 S20G30    29.83F                  
COLUMBIA       MOSUNNY   79  59  50 S15       29.75F                  
JEFFERSON CITY MOSUNNY   80  58  46 S20G32    29.75F                  
MEXICO         PTSUNNY   77  59  53 S14G21    29.74F                  
HANNIBAL       MOSUNNY   77  55  47 S10G22    29.76F                  
ROLLA          MOSUNNY   77  58  51 S21G36    29.81F                  
LEBANON        SUNNY     79  54  41 S17G25    29.81F                  
OSAGE BEACH    SUNNY     81  58  45 S18G24      N/A                   
SPRINGFIELD    MOSUNNY   82  57  42 MISG      29.77F                  
JOPLIN         MOSUNNY   83  58  42 S35G49    29.72F                  
WEST PLAINS    PTSUNNY   73  58  59 S18G29    29.91F                  
SIKESTON       MOSUNNY   77  59  53 S15G26    29.99F                  

$$

IAZ060-094-KSZ022-034>040-054-083-096-NEZ052-066-093-231900- 
...KANSAS...SOUTHEAST NEBRASKA AND IOWA...
  
CITY           SKY/WX    TMP DP  RH WIND       PRES   REMARKS
TOPEKA         MOSUNNY   84  58  40 S28G41    29.54F                  
6HR MIN TEMP:  72; 6HR MAX TEMP:  85;                                

MANHATTAN      CLOUDY    85  55  35 S24G39    29.48F                  
EMPORIA        PTSUNNY   83  58  42 S28G48    29.56F                  
CHANUTE        PTSUNNY   81  59  47 S29G44    29.66F                  
SALINA         CLOUDY    79  55  43 S26G47    29.45F                  
WICHITA        PTSUNNY   82  55  39 S32G47    29.54F                  
OMAHA          PTSUNNY   82  56  40 S23G37    29.40F                  
LINCOLN        SUNNY     85  55  35 S32G40    29.36F                  
FALLS CITY     MOSUNNY   83  58  42 S24G43    29.48F                  
LAMONI         LGT RAIN  81  57  43 S24G39    29.56F                  
DES MOINES     PTSUNNY   76  56  49 S26G35    29.55F                  

$$

  
