ASUS43 KEAX 231710
RWREAX

WEATHER ROUNDUP FOR EASTERN KANSAS AND NORTHWEST MISSOURI
NATIONAL WEATHER SERVICE KANSAS CITY/PLEASANT HILL MO
1200 PM CDT SUN OCT 23 2022

KSZ040-057-103>105-MOZ028-029-037-043-231800-
...KANSAS CITY METROPOLITAN AREA...
  
CITY           SKY/WX    TMP DP  RH WIND       PRES   REMARKS
K.C. INTL      MOSUNNY   81  58  45 S25G37    29.60S                  
K.C. DOWNTOWN  SUNNY     80  58  46 S25G39    29.62F                  
LEES SUMMIT    SUNNY     79  58  48 S23G36    29.64F                  
OLATHE - IXD   SUNNY     80  58  46 S23G41    29.63F                  
OLATHE - OJC   SUNNY     79  58  48 S23G41    29.63F                  
LAWRENCE       MOSUNNY   81  58  45 S28G39    29.59S                  

$$
 
MOZ001>008-011>017-020>025-030>033-038>040-044>046-053-054-231800-
...NORTHERN AND CENTRAL MISSOURI...
  
CITY           SKY/WX    TMP DP  RH WIND       PRES   REMARKS
ST. JOSEPH     MOSUNNY   79  58  48 S29G43    29.55F                  
MOSBY          SUNNY     79  54  41 S13G26    29.62S                  
HARRISONVILLE  SUNNY     81  55  41 S18G30    29.69F                  
WHITEMAN AFB   MOSUNNY   80  58  46 S28G35    29.64F                  
CLINTON        SUNNY     81  59  47 S22G30    29.69F                  
SEDALIA        MOSUNNY   80  58  46 S24G37    29.72S                  
MARSHALL       MOSUNNY   77  59  53 S17G24    29.69F                  
CHILLICOTHE      N/A     81  58  45 S14G32    29.63F                  
MOBERLY        PTSUNNY   77  54  44 S12G22    29.73S                  
KIRKSVILLE     PTSUNNY   75  57  53 S18G37    29.70F                  

$$

MOZ041-047>049-056>058-063>065-088>090-097-231800-
...EASTERN AND SOUTHERN MISSOURI...
  
CITY           SKY/WX    TMP DP  RH WIND       PRES   REMARKS
ST. LOUIS INTL PTSUNNY   74  57  55 S18G29    29.87F                  
SPIRIT OF STL  MOSUNNY   74  58  57 S16G30    29.84F                  
COLUMBIA       LGT RAIN  76  59  55 S13G28    29.77S                  
JEFFERSON CITY PTSUNNY   79  58  48 S17G24    29.77S                  
MEXICO         PTSUNNY   72  59  64 S15G23    29.77S                  
HANNIBAL       PTSUNNY   73  55  53 SE17G29   29.78S                  
ROLLA          MOSUNNY   76  58  53 S22G32    29.83F                  
LEBANON        SUNNY     77  54  44 S14G26    29.82S                  
OSAGE BEACH    MOSUNNY   78  59  51 S15G30      N/A                   
SPRINGFIELD    SUNNY     77  58  51 MISG      29.78F                  
BRANSON        SUNNY     77  57  50 S12G18    29.86F                  
JOPLIN         MOSUNNY   81  58  45 S33G47    29.74F                  
WEST PLAINS    CLOUDY    72  59  63 S15G26    29.92F                  
SIKESTON       PTSUNNY   75  59  57 S17G23    30.01F                  

$$

IAZ060-094-KSZ022-034>040-054-083-096-NEZ052-066-093-231800- 
...KANSAS...SOUTHEAST NEBRASKA AND IOWA...
  
CITY           SKY/WX    TMP DP  RH WIND       PRES   REMARKS
TOPEKA         SUNNY     82  58  43 S25G46    29.55S                  
MANHATTAN      SUNNY     84  55  36 S21G36    29.49F                  
EMPORIA        MOSUNNY   80  57  45 S31G46    29.58S                  
CHANUTE        SUNNY     81  59  47 S26G38    29.68S                  
SALINA         PTSUNNY   79  55  43 S24G45    29.47F                  
WICHITA        MOSUNNY   81  55  40 S36G48    29.56F                  
OMAHA          MOSUNNY   79  56  45 S23G32    29.41F                  
LINCOLN        MOSUNNY   82  55  39 S30G41    29.38F                  
FALLS CITY     PTSUNNY   80  57  45 S22G38    29.49F                  
LAMONI         LGT RAIN  76  56  49 S16G37    29.58F                  
DES MOINES     MOSUNNY   74  56  53 S20G32    29.56F                  

$$

  
