ASUS43 KEAX 231905
RWREAX

WEATHER ROUNDUP FOR EASTERN KANSAS AND NORTHWEST MISSOURI
NATIONAL WEATHER SERVICE KANSAS CITY/PLEASANT HILL MO
200 PM CDT SUN OCT 23 2022

KSZ040-057-103>105-MOZ028-029-037-043-232000-
...KANSAS CITY METROPOLITAN AREA...
  
CITY           SKY/WX    TMP DP  RH WIND       PRES   REMARKS
K.C. INTL      MOSUNNY   86  57  37 S28G43    29.55F                  
K.C. DOWNTOWN  SUNNY     85  58  39 S22G36    29.57F                  
LEES SUMMIT    SUNNY     84  58  40 S20G38    29.60F                  
OLATHE - IXD   SUNNY     83  57  41 S25G40    29.59F                  
OLATHE - OJC   SUNNY     83  58  42 S24G40    29.58F                  
LAWRENCE       SUNNY     85  58  39 S30G43    29.54F                  

$$
 
MOZ001>008-011>017-020>025-030>033-038>040-044>046-053-054-232000-
...NORTHERN AND CENTRAL MISSOURI...
  
CITY           SKY/WX    TMP DP  RH WIND       PRES   REMARKS
ST. JOSEPH     MOSUNNY   83  58  42 S28G38    29.50F                  
MOSBY          SUNNY     82  54  36 S23G29    29.58F                  
HARRISONVILLE  SUNNY     86  55  35 S22G30    29.64F                  
WHITEMAN AFB   MOSUNNY   85  58  38 S21G28    29.59F                  
CLINTON        MOSUNNY   84  57  39 S14G25    29.65F                  
SEDALIA        SUNNY     86  57  37 S21G35    29.67F                  
MARSHALL       SUNNY     84  59  42 S21       29.64F                  
CHILLICOTHE      N/A     84  58  40 S17G32    29.59F                  
MOBERLY        SUNNY     81  54  39 S17G26    29.68F                  
KIRKSVILLE     MOSUNNY   82  58  43 S16G30    29.65F                  

$$

MOZ041-047>049-056>058-063>065-088>090-097-232000-
...EASTERN AND SOUTHERN MISSOURI...
  
CITY           SKY/WX    TMP DP  RH WIND       PRES   REMARKS
ST. LOUIS INTL PTSUNNY   77  58  51 S17G29    29.84F                  
SPIRIT OF STL  MOSUNNY   76  59  55 S17G33    29.80F                  
COLUMBIA       MOSUNNY   83  59  44 S21G31    29.71F                  
JEFFERSON CITY MOSUNNY   84  58  40 S21G31    29.71F                  
MEXICO         PTSUNNY   77  61  57 S13G23    29.73F                  
HANNIBAL       MOSUNNY   79  55  44 SE15G28   29.73F                  
ROLLA          MOSUNNY   79  58  48 S20G31    29.79F                  
LEBANON        MOSUNNY   82  52  34 S16G25    29.78F                  
OSAGE BEACH    PTSUNNY   83  59  44 S18G28      N/A                   
SPRINGFIELD    MOSUNNY   82  56  40 MISG      29.75F                  
BRANSON        SUNNY     81  57  44 S12G23    29.83F                  
JOPLIN         MOSUNNY   85  57  38 S24G46    29.69F                  
WEST PLAINS    MOSUNNY   76  58  53 S15G26    29.89F                  
SIKESTON       MOSUNNY   79  59  50 S15G25    29.96F                  

$$

IAZ060-094-KSZ022-034>040-054-083-096-NEZ052-066-093-232000- 
...KANSAS...SOUTHEAST NEBRASKA AND IOWA...
  
CITY           SKY/WX    TMP DP  RH WIND       PRES   REMARKS
TOPEKA         MOSUNNY   85  58  39 S26G39    29.51F                  
MANHATTAN      CLOUDY    83  55  38 S20G35    29.45F                  
EMPORIA        PTSUNNY   80  59  48 S29G43    29.54F                  
CHANUTE        PTSUNNY   77  62  59 S20G38    29.65F                  
SALINA         CLOUDY    83  55  38 S26G43    29.42F                  
WICHITA        MOSUNNY   84  55  36 S33G51    29.50F                  
OMAHA          MOSUNNY   84  56  38 S26G40    29.37F                  
LINCOLN        SUNNY     88  55  32 S24G44    29.33F                  
FALLS CITY     MOSUNNY   85  58  39 S28G41    29.45F                  
LAMONI         LGT RAIN  80  57  45 S14G36    29.54F                  
DES MOINES     PTSUNNY   78  57  48 SE24G40   29.51F                  

$$

  
