ASUS43 KLSX 231907
RWRMO 

WEATHER SUMMARY FOR MISSOURI
NATIONAL WEATHER SERVICE SPRINGFIELD MO
200 PM CDT SUN OCT 23 2022

NOTE: "FAIR" INDICATES FEW OR NO CLOUDS BELOW 12,000 FEET WITH NO
       SIGNIFICANT WEATHER AND/OR OBSTRUCTIONS TO VISIBILITY.
       CURRENT SKY AND/OR WEATHER CONDITIONS ARE NOT AVAILABLE FOR
       CHILLICOTHE AND FARMINGTON.

MOZ001>031-035>038-043-044-053-054-232000-
...NORTHERN AND WESTERN MISSOURI...
  
CITY           SKY/WX    TMP DP  RH WIND       PRES   REMARKS
KANSAS CTY INT MOSUNNY   86  57  37 S28G43    29.55F                  
KANSAS C DTWN  SUNNY     85  58  39 S22G36    29.57F                  
LEE'S SUMMIT   SUNNY     84  58  40 S20G38    29.60F                  
ST JOSEPH      MOSUNNY   83  58  42 S28G38    29.50F                  
CHILLICOTHE      N/A     84  58  40 S17G32    29.59F                  
KIRKSVILLE     MOSUNNY   82  58  43 S16G30    29.65F                  
     
$$
MOZ066>068-077>081-088>096-101>105-232000-
...SOUTHWEST MISSOURI...
  
CITY           SKY/WX    TMP DP  RH WIND       PRES   REMARKS
SPRINGFIELD    MOSUNNY   82  56  40 MISG      29.75F                  
JOPLIN         MOSUNNY   85  57  38 S24G46    29.69F                  
BRANSON        SUNNY     81  57  44 S12G23    29.83F                  
               
$$
MOZ032>034-039>042-045>050-055>058-069>072-232000-
...CENTRAL MISSOURI...  
  
CITY           SKY/WX    TMP DP  RH WIND       PRES   REMARKS
COLUMBIA       MOSUNNY   83  59  44 S21G31    29.71F                  
JEFFERSON CITY MOSUNNY   84  58  40 S21G31    29.71F                  
ROLLA          MOSUNNY   79  58  48 S20G31    29.79F                  
SEDALIA        SUNNY     86  57  37 S21G35    29.67F                  
WHITEMAN AFB   MOSUNNY   85  58  38 S21G28    29.59F                  
WARRENSBURG    SUNNY     82  54  36 S24G32    29.63F                  
OSAGE BEACH    PTSUNNY   83  59  44 S18G28      N/A                   
               
$$
MOZ051-052-059>065-232000-
...EAST CENTRAL MISSOURI...
  
CITY           SKY/WX    TMP DP  RH WIND       PRES   REMARKS
ST LOUIS INTL  PTSUNNY   77  58  51 S17G29    29.84F                  
SPIRIT OF STL  MOSUNNY   76  59  55 S17G33    29.80F                  
ST CHARLES     PTSUNNY   79  59  50 S23       29.81F                  
                   
$$
MOZ072>076-082>087-097>100-106>115-232000-
...SOUTH CENTRAL AND SOUTHEAST MISSOURI...
  
CITY           SKY/WX    TMP DP  RH WIND       PRES   REMARKS
CAPE GIRARDEAU CLOUDY    80  59  48 S18G30    29.95F                  
FARMINGTON     PTSUNNY   74  59  59 S18G30    29.90F                  
POPLAR BLUFF   LGT RAIN  77  58  51 S20G31    29.93F                  
WEST PLAINS    MOSUNNY   76  58  53 S15G26    29.89F                  
                                       
$$
  
