ASUS43 KLSX 231657
RWRMO 

WEATHER SUMMARY FOR MISSOURI
NATIONAL WEATHER SERVICE SPRINGFIELD MO
1200 PM CDT SUN OCT 23 2022

NOTE: "FAIR" INDICATES FEW OR NO CLOUDS BELOW 12,000 FEET WITH NO
       SIGNIFICANT WEATHER AND/OR OBSTRUCTIONS TO VISIBILITY.
       CURRENT SKY AND/OR WEATHER CONDITIONS ARE NOT AVAILABLE FOR
       CHILLICOTHE AND FARMINGTON.

MOZ001>031-035>038-043-044-053-054-231800-
...NORTHERN AND WESTERN MISSOURI...
  
CITY           SKY/WX    TMP DP  RH WIND       PRES   REMARKS
KANSAS CTY INT MOSUNNY   81  58  45 S25G37    29.60S                  
KANSAS C DTWN  MOSUNNY   80  58  46 S25G39    29.62F                  
LEE'S SUMMIT   MOSUNNY   79  58  48 S23G36    29.64F                  
ST JOSEPH      SUNNY     79  58  48 S29G43    29.55F                  
CHILLICOTHE      N/A     81  58  45 S14G32    29.63F                  
     
$$
MOZ066>068-077>081-088>096-101>105-231800-
...SOUTHWEST MISSOURI...
  
CITY           SKY/WX    TMP DP  RH WIND       PRES   REMARKS
SPRINGFIELD    MOSUNNY   77  58  51 MISG      29.78F                  
JOPLIN         MOSUNNY   81  58  45 S33G47    29.74F                  
BRANSON        SUNNY     77  57  50 S12G18    29.86F                  
               
$$
MOZ032>034-039>042-045>050-055>058-069>072-231800-
...CENTRAL MISSOURI...  
  
CITY           SKY/WX    TMP DP  RH WIND       PRES   REMARKS
COLUMBIA       LGT RAIN  76  59  55 S13G28    29.77S                  
JEFFERSON CITY MOSUNNY   79  58  48 S17G24    29.77S                  
ROLLA          MOSUNNY   76  58  53 S22G32    29.83F                  
SEDALIA        MOSUNNY   80  58  46 S24G37    29.72S                  
WARRENSBURG    MOSUNNY   79  55  44 S22G32    29.68S                  
               
$$
MOZ051-052-059>065-231800-
...EAST CENTRAL MISSOURI...
  
CITY           SKY/WX    TMP DP  RH WIND       PRES   REMARKS
ST LOUIS INTL  PTSUNNY   74  57  55 S18G29    29.87F                  
SPIRIT OF STL  MOSUNNY   74  58  57 S16G30    29.84F                  
ST CHARLES     PTSUNNY   74  58  57 S22G29    29.85F                  
                   
$$
MOZ072>076-082>087-097>100-106>115-231800-
...SOUTH CENTRAL AND SOUTHEAST MISSOURI...
  
CITY           SKY/WX    TMP DP  RH WIND       PRES   REMARKS
CAPE GIRARDEAU PTSUNNY   76  59  55 S17G28    29.99F                  
POPLAR BLUFF   LGT RAIN  75  58  55 S21G36    29.97F                  
WEST PLAINS    CLOUDY    72  59  63 S15G26    29.92F                  
                                       
$$
  
