ASUS43 KLSX 231810
RWRMO 

WEATHER SUMMARY FOR MISSOURI
NATIONAL WEATHER SERVICE SPRINGFIELD MO
100 PM CDT SUN OCT 23 2022

NOTE: "FAIR" INDICATES FEW OR NO CLOUDS BELOW 12,000 FEET WITH NO
       SIGNIFICANT WEATHER AND/OR OBSTRUCTIONS TO VISIBILITY.
       CURRENT SKY AND/OR WEATHER CONDITIONS ARE NOT AVAILABLE FOR
       CHILLICOTHE AND FARMINGTON.

MOZ001>031-035>038-043-044-053-054-231900-
...NORTHERN AND WESTERN MISSOURI...
  
CITY           SKY/WX    TMP DP  RH WIND       PRES   REMARKS
KANSAS CTY INT MOSUNNY   84  57  39 S28G38    29.58F                  
6HR MIN TEMP:  68; 6HR MAX TEMP:  85;                                

KANSAS C DTWN  SUNNY     83  58  42 S17G29    29.60F                  
6HR MIN TEMP:  69; 6HR MAX TEMP:  83;                                

LEE'S SUMMIT   SUNNY     82  58  43 S22G37    29.62F                  
6HR MIN TEMP:  66; 6HR MAX TEMP:  82;                                

ST JOSEPH      MOSUNNY   78  58  49 S30G44    29.53F                  
6HR MIN TEMP:  63; 6HR MAX TEMP:  80;                                

CHILLICOTHE      N/A     83  58  42 S18G35    29.62F                  
6HR MIN TEMP:  64; 6HR MAX TEMP:  83;                                

KIRKSVILLE     MOSUNNY   80  58  46 S25G33    29.68F                  
6HR MIN TEMP:  59; 6HR MAX TEMP:  81;                                

     
$$
MOZ066>068-077>081-088>096-101>105-231900-
...SOUTHWEST MISSOURI...
  
CITY           SKY/WX    TMP DP  RH WIND       PRES   REMARKS
SPRINGFIELD    MOSUNNY   82  57  42 MISG      29.77F                  
6HR MIN TEMP:  65; 6HR MAX TEMP:  83;                                

JOPLIN         MOSUNNY   83  58  42 S35G49    29.72F                  
6HR MIN TEMP:  70; 6HR MAX TEMP:  83;                                

               
$$
MOZ032>034-039>042-045>050-055>058-069>072-231900-
...CENTRAL MISSOURI...  
  
CITY           SKY/WX    TMP DP  RH WIND       PRES   REMARKS
COLUMBIA       MOSUNNY   79  59  50 S15       29.75F                  
6HR MIN TEMP:  66; 6HR MAX TEMP:  79; 6HR PCP: TRACE;                

JEFFERSON CITY MOSUNNY   80  58  46 S20G32    29.75F                  
6HR MIN TEMP:  67; 6HR MAX TEMP:  81;                                

ROLLA          MOSUNNY   77  58  51 S21G36    29.81F                  
6HR MIN TEMP:  64; 6HR MAX TEMP:  79;                                

SEDALIA        SUNNY     83  58  42 S23G38    29.70F                  
6HR MIN TEMP:  69; 6HR MAX TEMP:  83; 6HR PCP: TRACE;                

WHITEMAN AFB   MOSUNNY   83  57  40 S25G32    29.62F                  
WARRENSBURG    SUNNY     81  55  41 S20G31    29.65F                  
OSAGE BEACH    SUNNY     81  58  45 S18G24      N/A                   
               
$$
MOZ051-052-059>065-231900-
...EAST CENTRAL MISSOURI...
  
CITY           SKY/WX    TMP DP  RH WIND       PRES   REMARKS
ST LOUIS INTL  PTSUNNY   76  57  51 S18G31    29.85F                  
6HR MIN TEMP:  67; 6HR MAX TEMP:  77;                                

SPIRIT OF STL  MOSUNNY   74  58  57 S20G30    29.83F                  
6HR MIN TEMP:  65; 6HR MAX TEMP:  75;                                

ST CHARLES     PTSUNNY   76  58  53 S21       29.84F                  
6HR MIN TEMP:  63; 6HR MAX TEMP:  78; 6HR PCP: TRACE;                

                   
$$
MOZ072>076-082>087-097>100-106>115-231900-
...SOUTH CENTRAL AND SOUTHEAST MISSOURI...
  
CITY           SKY/WX    TMP DP  RH WIND       PRES   REMARKS
CAPE GIRARDEAU CLOUDY    77  59  53 S15G26    29.98F                  
6HR MIN TEMP:  64; 6HR MAX TEMP:  77;                                

FARMINGTON     CLOUDY    70  58  65 S17G29    29.93F                  
6HR MIN TEMP:  62; 6HR MAX TEMP:  70;                                

POPLAR BLUFF   CLOUDY    77  59  53 S21G36    29.96F                  
6HR MIN TEMP:  63; 6HR MAX TEMP:  77; 6HR PCP: TRACE;                

WEST PLAINS    PTSUNNY   73  58  59 S18G29    29.91F                  
6HR MIN TEMP:  62; 6HR MAX TEMP:  74;                                

                                       
$$
  
