ASUS46 KSEW 220110
RWRWA 

WASHINGTON REGIONAL WEATHER ROUNDUP
NATIONAL WEATHER SERVICE SEATTLE WA
600 PM PDT FRI OCT 21 2022

NOTE:"FAIR" INDICATES FEW OR NO CLOUDS BELOW 12,000 FEET WITH NO 
SIGNIFICANT WEATHER AND/OR OBSTRUCTIONS TO VISIBILITY.

WAZ507-509-555>559-220200-
SEATTLE, TACOMA, EVERETT, AND VICINITY
  
CITY           SKY/WX    TMP DP  RH WIND       PRES   REMARKS
EVERETT        LGT RAIN  46  44  93 NE8       29.72F FOG              
BOEING FIELD   LGT RAIN  48  45  89 S6        29.72F FOG              
RENTON         LGT RAIN  50  46  86 SE3       29.71F                  
SEATAC AIRPORT LGT RAIN  47  45  93 S5        29.71F                  
JBLM-MCCHORD   LGT RAIN  46  46 100 S3        29.71F                  
PUYALLUP       DRIZZLE   46  46 100 CALM      29.71F                  
BREMERTON      LGT RAIN  47  46  97 S5        29.71F                  
JBLM-FT LEWIS  LGT RAIN  46  43  91 CALM      29.69F                  
TACOMA NARROWS LGT RAIN  47  44  90 S3        29.71F FOG              
$$
 
WAZ001-503-506-510-514-515-220200-
NORTH INTERIOR
  
CITY           SKY/WX    TMP DP  RH WIND       PRES   REMARKS
BELLINGHAM     LGT RAIN  49  49 100 S6        29.71F FOG              
FRIDAY HARBOR  LGT RAIN  48  47  96 CALM      29.72F                  
EASTSOUND      LGT RAIN  50 N/A N/A S3        29.70F                  
PORT ANGELES   LGT RAIN  48  45  89 NW7       29.73F FOG              
EDIZ HOOK      LGT RAIN  48  47  99 NW12      29.73F                  
PORT TOWNSEND  LGT RAIN  48  46  93 CALM      29.71F                  
NAS WHIDBEY    RAIN      49  45  86 W7        29.76F FOG              
ARLINGTON      LGT RAIN  47  45  93 NE5       29.73F                  
BURLINGTON     CLOUDY    48  48 100 S3        29.72F                  
$$
 
WAZ020-022-039-040-504-511-512-220200-
SOUTHWEST INTERIOR
  
CITY           SKY/WX    TMP DP  RH WIND       PRES   REMARKS
SHELTON        LGT RAIN  48  47  96 E3        29.67F FOG              
OLYMPIA        LGT RAIN  45  44  97 W3        29.71F FOG              
CHEHALIS       LGT RAIN  46  45  93 CALM      29.70F                  
KELSO          LGT RAIN  49  47  93 S5        29.69F                  
VANCOUVER      LGT RAIN  50  47  89 SE6       29.72F                  
SCAPPOOSE, OR  LGT RAIN  49  48  97 S5        29.69F FOG              
PORTLAND, OR   LGT RAIN  51  48  89 SE8       29.71F                  
$$
 
WAZ021-516-517-220200-
WASHINGTON COAST
  
CITY           SKY/WX    TMP DP  RH WIND       PRES   REMARKS
FORKS          LGT RAIN  49  47  93 CALM      29.73F                  
HOQUIAM        LGT RAIN  51  48  89 NE6       29.69S                  
ASTORIA, OR    LGT RAIN  50  48  93 E13       29.62F FOG              
$$
 
WAZ019-023-024-040-567>569-220200-
CASCADE MOUNTAINS AND COLUMBIA GORGE
  
CITY           SKY/WX    TMP DP  RH WIND       PRES   REMARKS
STAMPEDE PASS  SNOW      34  33  96 VRB3      29.64F VSB 1/2          
TROUTDALE, OR  CLOUDY    51  47  86 E3        29.71F FOG              
HOOD RIVER, OR LGT RAIN  46  45  93 CALM      29.70F                  
THE DALLES, OR LGT RAIN  51  45  79 S3        29.69F                  
$$

WAZ026-027-041>044-520-521-220200-
EAST SLOPES
  
CITY           SKY/WX    TMP DP  RH WIND       PRES   REMARKS
OMAK           CLOUDY    49  42  77 N8        29.62F                  
WENATCHEE      MOCLDY    53  34  48 NW5       29.60F HAZE             
ELLENSBURG     MOCLDY    49  34  56 NW16      29.63F                  
YAKIMA         MOCLDY    50  43  77 E6        29.64F                  
SUNNYSIDE ARPT RAIN      48  46  93 E3        29.65F                  
YAKIMA TC      CLOUDY    50  35  56 CALM      29.60F                  
$$

WAZ028-034-035-220200-
COLUMBIA BASIN
  
CITY           SKY/WX    TMP DP  RH WIND       PRES   REMARKS
EPHRATA        MOCLDY    51  43  74 N6        29.61F                  
MOSES LAKE     MOCLDY    50  37  61 S10       29.62F                  
PASCO          RAIN      50  46  86 SW8       29.68F                  
RICHLAND ARPT  MIX PCPN  49  47  93 S6        29.68F                  
HERMISTON, OR  RAIN      49  47  93 S10       29.69F                  
$$

WAZ036>038-220200-
NORTHEAST WASHINGTON
  
CITY           SKY/WX    TMP DP  RH WIND       PRES   REMARKS
SPOKANE GEIGER CLOUDY    43  38  82 S7        29.63F                  
SPOKANE FELTS  CLOUDY    42  39  89 VRB3      29.66F                  
FAIRCHILD AFB  CLOUDY    41  39  91 S6        29.62F                  
COEURDALENE,ID LGT RAIN  40  38  93 S9        29.66F                  
DEER PARK      CLOUDY    39  38  96 SE7       29.65F                  
$$

WAZ029>033-220200-
SOUTHEAST WASHINGTON
  
CITY           SKY/WX    TMP DP  RH WIND       PRES   REMARKS
PULLMAN        RAIN      42  41  96 S5        29.69F FOG              
LEWISTON, ID   LGT RAIN  46  42  86 NE10      29.67F                  
WALLA WALLA    LGT RAIN  46  43  89 S14       29.68F                  
PENDLETON, OR  LGT RAIN  46  43  89 S13       29.69F FOG              
$$
  
