ASUS44 KJAN 220010
RWRMS 

MISSISSIPPI HOURLY WEATHER ROUNDUP
NATIONAL WEATHER SERVICE JACKSON MS
700 PM CDT FRI OCT 21 2022

NOTE: "FAIR: INDICATES FEW OR NO CLOUDS BELOW 12,000 FEET WITH NO
SIGNIFICANT WEATHER AND/OR OBSTRUCTIONS TO VISIBILITY.

MSZ001>002-007>008-010>013-018>021-025>028-034>036-220100-
NORTHWEST MISSISSIPPI
  
CITY           SKY/WX    TMP DP  RH WIND       PRES   REMARKS
BATESVILLE     FAIR      73  48  40 S6        29.92R                  
CLARKSDALE     PTCLDY    77  50  38 S10       29.91R                  
CLEVELAND      FAIR     N/A N/A N/A S13G18    29.91R                  
GREENWOOD      CLEAR     70  50  49 S6        29.94R                  
6HR MIN TEMP:  69; 6HR MAX TEMP:  85;                                

GREENVILLE     CLEAR     76  51  41 S10       29.90S                  
6HR MIN TEMP:  76; 6HR MAX TEMP:  87;                                

OLIVE BRANCH   CLEAR     72  50  46 SE9       29.91R                  
OXFORD         CLEAR     68  50  52 SE7       29.96R                  
TUNICA         CLEAR     73  49  42 S7        29.89R                  
$$

MSZ003>006-009-014>017-022>024-029>033-037>039-220100-
NORTHEAST MISSISSIPPI
  
CITY           SKY/WX    TMP DP  RH WIND       PRES   REMARKS
ABERDEEN       FAIR      68  54  60 SE6       30.00R                  
COLUMBUS AFB   CLEAR     62  53  70 SE9       29.96F                  
6HR MIN TEMP:  62; 6HR MAX TEMP:  78;                                

CORINTH        CLEAR     68  48  49 S5        29.96R                  
GOLDN TRIANGLE CLEAR     70  53  54 SE8       30.00R                  
STARKVILLE     FAIR      66  52  59 SE6       29.97R                  
TUPELO         CLEAR     72  50  45 S8        29.97R                  
6HR MIN TEMP:  72; 6HR MAX TEMP:  80;                                

$$

MSZ040-058-220100-
CENTRAL MISSISSIPPI
  
CITY           SKY/WX    TMP DP  RH WIND       PRES   REMARKS
JACKSON INTL   CLEAR     67  50  54 SE7       29.98R                  
6HR MIN TEMP:  67; 6HR MAX TEMP:  83;                                

JACKSON HAWKNS CLEAR     70  51  51 S5        29.98S                  
6HR MIN TEMP:  70; 6HR MAX TEMP:  84;                                

MADISON        FAIR      68  54  60 CALM      29.97S                  
MERIDIAN KEY   CLEAR     65  57  75 CALM      30.02R                  
6HR MIN TEMP:  65; 6HR MAX TEMP:  79;                                

MERIDIAN NAS   CLEAR     68  55  63 SE5       30.02S                  
6HR MIN TEMP:  68; 6HR MAX TEMP:  78;                                

RAYMOND        FAIR      70  52  52 CALM      29.97S                  
VICKSBURG VKS  CLEAR     73  54  49 S6        29.95R                  
$$

MSZ059>079-220100-
SOUTH MISSISSIPPI
  
CITY           SKY/WX    TMP DP  RH WIND       PRES   REMARKS
BROOKHAVEN     FAIR      70  57  64 CALM      30.01S                  
HATTIESBURG    CLEAR     72  52  49 S12       30.05R                  
6HR MIN TEMP:  72; 6HR MAX TEMP:  81;                                

LAUREL         PTCLDY    72  51  48 S6        30.03R                  
MCCOMB         CLEAR     70  55  59 S12       30.02R                  
6HR MIN TEMP:  69; 6HR MAX TEMP:  81;                                

NATCHEZ        CLEAR     70  54  56 SE8       29.98S                  
6HR MIN TEMP:  70; 6HR MAX TEMP:  82;                                

PINE BELT      CLEAR     68  55  63 S6        30.04R                  
6HR MIN TEMP:  68; 6HR MAX TEMP:  81;                                

$$

MSZ080>082-220100-
COASTAL MISSISSIPPI
  
CITY           SKY/WX    TMP DP  RH WIND       PRES   REMARKS
BAY ST LOUIS   CLEAR     61  48  63 S5        30.06S                  
BILOXI         CLEAR     64  56  73 SW6       30.05S                  
6HR MIN TEMP:  64; 6HR MAX TEMP:  74;                                

PASCAGOULA     CLEAR     58  52  80 CALM      30.08R                  
6HR MIN TEMP:  58; 6HR MAX TEMP:  78;                                

GULFPORT       CLEAR     66  52  60 S5        30.06F                  
6HR MIN TEMP:  66; 6HR MAX TEMP:  74; 6HR PCP: TRACE;                

$$

LAZ007>009-015>016-023>026-220100-
NORTHEAST LOUISIANA
  
CITY           SKY/WX    TMP DP  RH WIND       PRES   REMARKS
BASTROP        FAIR      72  54  52 CALM      29.93R                  
TALLULAH/VBURG CLEAR     72  53  51 S5        29.95S                  
6HR MIN TEMP:  72; 6HR MAX TEMP:  85;                                

VIDALIA        FAIR      74  53  47 SE8       29.96S                  
$$
  
