ASUS44 KOUN 231910
RWROK 

WEATHER ROUNDUP FOR OKLAHOMA
NATIONAL WEATHER SERVICE NORMAN OK
200 PM CDT SUN OCT 23 2022

NOTE: "FAIR" INDICATES FEW OR NO CLOUDS BELOW 12,000 FEET WITH NO
      SIGNIFICANT WEATHER AND/OR OBSTRUCTIONS TO VISIBILITY.

OKZ001>007-009>012-014-015-017-232000-
NORTHWEST OKLAHOMA AND THE PANHANDLE
  
CITY           SKY/WX    TMP DP  RH WIND       PRES   REMARKS
GAGE           MOSUNNY   78  53  41 S30G38    29.54F                  
ENID/WOODRING  PTSUNNY   82  59  44 S28G37    29.59F                  
$$

OKZ016-021>023-033>039-044-045-232000-
SOUTHWEST OKLAHOMA
  
CITY           SKY/WX    TMP DP  RH WIND       PRES   REMARKS
LAWTON/REGL    PTSUNNY   85  59  41 S25G35    29.66F                  
LAWTON/FT SILL PTSUNNY   84  59  42 S26G35    29.64F                  
FREDERICK      PTSUNNY   87  56  34 S25G33    29.62F                  
CLINTON        CLOUDY    74  57  55 S16       29.63F                  
HOBART         CLOUDY    81  56  42 S24G35    29.64F                  
ALTUS AFB      CLOUDY    84  54  34 S25G35    29.61F                  
$$

OKZ018>020-024>031-232000-
CENTRAL OKLAHOMA
  
CITY           SKY/WX    TMP DP  RH WIND       PRES   REMARKS
OKLAHOMA CITY  PTSUNNY   79  60  52 S29G37    29.67F                  
OKC/WILEY POST CLOUDY    80  59  48 S24G36    29.65F                  
OKC/TINKER AFB PTSUNNY   81  58  45 S21G33    29.65F                  
STILLWATER     MOSUNNY   86  60  41 S26G37    29.63F                  
GUTHRIE        PTSUNNY   80  59  48 S22G36    29.64F                  
$$

OKZ008-013-054>072-232000-
NORTHEAST OKLAHOMA
  
CITY           SKY/WX    TMP DP  RH WIND       PRES   REMARKS
TULSA          PTSUNNY   80  60  50 S32G44    29.69F                  
TULSA/JONES    SUNNY     82  59  45 S21G32    29.69F                  
PONCA CITY     PTSUNNY   83  58  42 S15G32    29.58F                  
BARTLESVILLE   MOSUNNY   83  59  44 S25G39    29.65F                  
MUSKOGEE       MOSUNNY   82  61  48 S20G39    29.76F                  
$$

OKZ032-040>043-046>053-073>077-232000-
SOUTH CENTRAL/SOUTHEAST OKLAHOMA
  
CITY           SKY/WX    TMP DP  RH WIND       PRES   REMARKS
ARDMORE/DWNTWN SUNNY     82  62  49 SE21G36   29.74F                  
MCALESTER      SUNNY     83  61  47 S14G33    29.75F                  
$$

  
