ASUS42 KMLB 220210
RWRMLB
HOURLY WEATHER ROUNDUP AROUND FLORIDA
NATIONAL WEATHER SERVICE OFFICE MELBOURNE FL
1000 PM EDT FRI OCT 21 2022
  
CITY           SKY/WX    TMP DP  RH WIND       PRES   REMARKS
MELBOURNE      CLEAR     65  55  70 NW6       30.04R                  
FORT PIERCE    PTCLDY    67  58  72 NW6       30.02R                  
ORLANDO INTL   CLEAR     63  49  60 N9        30.07S                  
DAYTONA BEACH  PTCLDY    62  51  67 NW7       30.08R                  
VERO BEACH     MOCLDY    67  59  75 NW10      30.03R                  
$$
...ELSEWHERE ACROSS CENTRAL FLORIDA...
  
CITY           SKY/WX    TMP DP  RH WIND       PRES   REMARKS
PATRICK AFB    CLEAR     68  68  99 NW13      30.02R                  
KSC            CLEAR     62  56  81 NW7       30.04R                  
CAPE CANAVERAL CLEAR     65  58  77 NW8       30.02S                  
SEBASTIAN      FAIR      66  57  71 NW8       30.04R                  
ORLANDO EXEC   CLEAR     66  48  52 N7        30.07S                  
LEESBURG       CLEAR     63  51  65 N9        30.09S                  
SANFORD        CLEAR     63  51  65 N10       30.07S                  
DELAND         CLEAR     61  50  65 NW7       30.09S                  
NEW SMYRNA BCH PTCLDY    63  52  67 N5        30.07R                  
WINTER HAVEN   CLEAR    N/A N/A N/A N7        30.08R                  
KISSIMMEE      CLEAR     66  48  52 N6        30.08S                  
OKEECHOBEE     PTCLDY    64  59  82 N8        30.03S                  
TAMPA          CLEAR     62  48  60 N8        30.08R                  
$$
...NORTHERN FLORIDA...
  
CITY           SKY/WX    TMP DP  RH WIND       PRES   REMARKS
PALM COAST     CLEAR     57  50  78 NW5       30.09                   
ST AUGUSTINE   CLEAR     59  48  67 NW7       30.12R                  
OCALA          CLEAR     58  43  57 CALM      30.11R                  
GAINESVILLE    CLEAR     51  43  74 CALM      30.13R                  
JACKSONVILLE   CLEAR     51  44  77 CALM      30.11R                  
TALLAHASSEE    CLEAR     50  38  63 CALM      30.12R                  
$$
...ALONG THE SOUTHEAST COAST TO THE KEYS...
  
CITY           SKY/WX    TMP DP  RH WIND       PRES   REMARKS
STUART         PTCLDY    70  58  65 CALM      30.04R                  
WEST PALM BCH  MOCLDY    70  65  84 N10       30.01R                  
MIAMI          MOCLDY    74  63  68 N9        29.99R                  
KEY WEST       MOCLDY    75  65  70 N9        30.01R                  
$$
...MARINE REPORTS...
  
STATION/POSITION TIME  TEMP    WIND        PRES    WAVE   SWELL
                       AIR SEA DIR/SP/G            HT/PER HT/PER
                 (UTC) (F)     (DEG/KT/KT) (MB)    (FT/S) (FT/S)
ST AUGUSTINE FP  0200   68 71   10/ 13/ 15 1019.5R
20NM E CAPE CANA 0150   75 81  360/ 14/ 17 1015.7R   5/ 7   2/12
120 E NEW SMYRNA 0150   76 82   40/ 14/ 17 1016.5S
TRIDENT PIER     0042          340/  5/  8   N/A
4NM E PORT CANAV 0156      76                N/A     2/ 7
6NM NE FPR INLET 0156      78                N/A     6/ 7
SETTLEMENT PT GB 0200   78      30/ 17/ 19 1015.0R
$$
  
