ASUS42 KKEY 220110
RWRKEY

FLORIDA KEYS REGIONAL WEATHER ROUNDUP
NATIONAL WEATHER SERVICE KEY WEST FLORIDA
900 PM EDT FRI OCT 21 2022

...FLORIDA KEYS...
  
CITY           SKY/WX    TMP DP  RH WIND       PRES   REMARKS
KEY WEST       PTCLDY    74  65  73 N12       29.99R                  
BOCA CHICA NAS PTCLDY    79  64  60 N13       29.99R                  
MARATHON       PTCLDY    76  66  71 N9        29.97R                  

...SOUTH FLORIDA...
  
CITY           SKY/WX    TMP DP  RH WIND       PRES   REMARKS
HOMESTEAD      CLOUDY    75  63  66 N8        29.96R                  
WEST KENDALL   CLOUDY    74  64  71 N15       29.98R                  
MIAMI          CLOUDY    75  64  68 N10       29.98R                  
OPA LOCKA      CLOUDY    73  62  68 N13G21    29.98R                  
PEMBROKE PINES CLOUDY    73  62  68 N14       29.99R                  
FT LAUDERDALE  MOCLDY    74  63  68 VRB7      29.97R                  
FT LAUD EXEC   MOCLDY    74  63  68 N10G21    29.97R                  
POMPANO BEACH  PTCLDY    74  63  68 N12       29.97R                  
BOCA RATON     PTCLDY    73  63  68 N12G18    29.98R                  
WEST PALM BCH  MOCLDY    70  65  84 N12       29.99R                  

...SOUTHWEST FLORIDA...
  
CITY           SKY/WX    TMP DP  RH WIND       PRES   REMARKS
MARCO ISLAND   NOT AVBL                                               
NAPLES         CLOUDY    72  61  68 N5        30.00R                  
FT MYERS-SW AP PTCLDY    71  54  54 N8        30.02R                  
FORT MYERS     CLEAR     71  55  56 N9        30.02R                  

...ADJACENT COASTAL WATERS...
  
STATION/POSITION TIME  SKY/WX   TEMP    WIND        PRES    WAVE
                                AIR SEA DIR/SP/G            HT/PER
                 (UTC)          (F)     (DEG/KT/KT) (MB)    (FT/S)
PULASKI SHOAL LT NOT AVBL
SAND KEY         NOT AVBL
SOMBRERO KEY     0050            76     340/ 13/ 16 1013.9R
LONG KEY         0050            76      20/ 12/ 16 1014.3R
FOWEY ROCKS      2300            82      40/ 12       N/A
SATAN SHL BUOY   0000            75 82                N/A     2/ 3
PULLEY RDG BUOY  0056               81                N/A     4/ 5

...INTERNATIONAL WEATHER...
  
CITY           SKY/WX    TMP DP  RH WIND       PRES   REMARKS
HAVANA         PTCLDY    72  63  73 NE7       30.00R                  
VARADERO       PTCLDY    70  64  83 VRB2      29.97S                  
CANCUN         PTCLDY    72  72 100 CALM      30.00R                  
COZUMEL        PTCLDY    77  63  61 E7        29.97R                  
KINGSTON       PTCLDY    82  73  74 N6        29.89S                  

$$
  
