ASUS42 KKEY 220010
RWRKEY

FLORIDA KEYS REGIONAL WEATHER ROUNDUP
NATIONAL WEATHER SERVICE KEY WEST FLORIDA
800 PM EDT FRI OCT 21 2022

...FLORIDA KEYS...
  
CITY           SKY/WX    TMP DP  RH WIND       PRES   REMARKS
KEY WEST       MOCLDY    74  64  71 N12       29.98R                  
BOCA CHICA NAS PTCLDY    78  63  59 N13       29.97R                  
MARATHON       PTCLDY    76  64  66 N9G18     29.95R                  

...SOUTH FLORIDA...
  
CITY           SKY/WX    TMP DP  RH WIND       PRES   REMARKS
HOMESTEAD      CLOUDY    76  64  67 N13       29.93R                  
WEST KENDALL   CLEAR     75  65  70 N10       29.95R                  
MIAMI          MOCLDY    76  64  66 N8        29.95R                  
OPA LOCKA      PTCLDY    74  63  68 N10       29.96R                  
PEMBROKE PINES CLOUDY    74  63  68 N13       29.97R                  
FT LAUDERDALE  MOCLDY    75  64  68 N9        29.95R                  
FT LAUD EXEC   CLOUDY    75  65  70 NW8       29.95R                  
POMPANO BEACH  CLOUDY    75  64  68 N12       29.95R                  
BOCA RATON     PTCLDY    73  64  73 N12G23    29.96R                  
WEST PALM BCH  MOCLDY    72  64  76 N12       29.97R                  

...SOUTHWEST FLORIDA...
  
CITY           SKY/WX    TMP DP  RH WIND       PRES   REMARKS
MARCO ISLAND   NOT AVBL                                               
NAPLES         MOCLDY    73  60  63 N3        29.98R                  
FT MYERS-SW AP CLEAR     73  57  57 N6        29.99R                  
FORT MYERS     CLEAR     73  55  53 N9        29.99R                  

...ADJACENT COASTAL WATERS...
  
STATION/POSITION TIME  SKY/WX   TEMP    WIND        PRES    WAVE
                                AIR SEA DIR/SP/G            HT/PER
                 (UTC)          (F)     (DEG/KT/KT) (MB)    (FT/S)
PULASKI SHOAL LT NOT AVBL
SAND KEY         NOT AVBL
SOMBRERO KEY     2350            76     330/ 15/ 18 1013.3R
LONG KEY         2350            76     360/ 11/ 14 1013.7R
FOWEY ROCKS      2300            82      40/ 12       N/A
SATAN SHL BUOY   2330            75 82                N/A     2/ 3
PULLEY RDG BUOY  2356               81                N/A     4/ 6

...INTERNATIONAL WEATHER...
  
CITY           SKY/WX    TMP DP  RH WIND       PRES   REMARKS
HAVANA         PTCLDY    73  61  64 N8        29.97S                  
VARADERO       PTCLDY    72  63  73 N5        29.97R                  
CANCUN         PTCLDY    75  63  64 CALM      29.99R                  
COZUMEL        PTCLDY    77  63  61 NE6       29.96                   
KINGSTON       PTCLDY    84  75  74 N15       29.89R HX  92           
BELIZE CITY    MOCLDY    81  70  69 N6        29.95R                  

$$
  
