NZUS99 KTBW 212311
RWRTPA
FLORIDA REGIONAL WEATHER ROUNDUP
NATIONAL WEATHER SERVICE TAMPA BAY RUSKIN FL
700 PM EDT FRI OCT 21 2022

NOTE: "FAIR" INDICATES FEW OR NO CLOUDS BELOW 12,000 FEET WITH NO
SIGNIFICANT WEATHER AND/OR OBSTRUCTIONS TO VISIBILITY.


  
STATION/POSITION



FLZ042-048>051-055-056-060-061-220000-
EXTRA STATIONS
  
CITY           SKY/WX    TMP DP  RH WIND       PRES   REMARKS
Everglades Cty NOT AVBL                                               
CRYSTAL RIVER  FAIR      68  36  30 CALM      30.05R                  
SEBRING        FAIR      70  51  52 N8        30.00S                  
EGLIN AFB      FAIR      67  44  43 S7        30.07R                  
CANAVERAL      CLEAR     70  54  57 N8        29.98S                  

$$
FLZ001>010-012>015-220000-
PANHANDLE FLORIDA
  
CITY           SKY/WX    TMP DP  RH WIND       PRES   REMARKS
PENSACOLA      CLEAR     68  44  42 S7        30.07S                  
PENSACOLA NAS  CLEAR     66  43  43 SW5       30.07S                  
MILTON NAS     CLEAR     66  44  45 S9        30.07R                  
CRESTVIEW      CLEAR     68  48  48 MISG      30.08S                  
VALPARAISO     CLEAR     67  45  46 SW5       30.05S                  
MARY ESTHER    CLEAR     66  44  44 SW5       30.07R                  
PANAMA CITY    FAIR      67  46  47 CALM      30.06S                  
TYNDALL AFB    CLEAR     67  46  46 W5        30.06S                  
APALACHICOLA   CLEAR     64  45  49 S5        30.07S                  

STATION/POSITION


29.2N   88.2W
28.8N   86.0W
28.5N   84.5W

$$
FLZ011-016>039-220000-
NORTH FLORIDA
  
CITY           SKY/WX    TMP DP  RH WIND       PRES   REMARKS
MARIANNA       CLEAR     68  36  30 SE3       30.07R                  
TALLAHASSEE    CLEAR     69  37  30 N5        30.07S                  
CROSS CITY     CLEAR     64  39  40 N3        30.06R                  
GAINESVILLE    CLEAR     66  36  32 N3        30.08R                  
MAYPORT NAS    CLEAR    N/A N/A N/A NE10      30.07S                  
JACKSONVILLE   PTCLDY    61  42  49 NE5       30.07R                  
JAX CRAIG      CLEAR     64  44  48 NE5       30.07S                  
ST AUGUSTINE   CLEAR     65  50  58 N8        30.08R                  

STATION/POSITION


KEATON BEACH
31.4N   80.9W
ST AUGUSTINE

$$
FLZ040-043>046-052-053-057-058-063-220000-
CENTRAL FLORIDA
  
CITY           SKY/WX    TMP DP  RH WIND       PRES   REMARKS
OCALA          CLEAR     67  37  33 N3        30.06R                  
LEESBURG       CLEAR     69  47  45 N6        30.04R                  
SANFORD        CLEAR     67  47  48 N9        30.03R                  
ORLANDO EXEC   CLEAR     70  49  47 NE10      30.02R                  
ORLANDO INTL   PTCLDY    69  50  50 NE10      30.02R                  
KISSIMMEE      CLEAR     72  50  45 NE8       30.03R                  
WINTER HAVEN   CLEAR    N/A N/A N/A N7        30.03R                  
LAKELAND INTL  CLEAR     68  42  39 N5        30.03R                  

$$
FLZ041-047-054-059-064-220000-
EAST CENTRAL FLORIDA
  
CITY           SKY/WX    TMP DP  RH WIND       PRES   REMARKS
DAYTONA BEACH  CLEAR     68  49  50 N10       30.04R                  
JFK SPACE CTR  PTCLDY    67  54  63 N7        29.99S                  
TITUSVILLE     PTCLDY    72  54  53 N9        30.02S                  
PATRICK AFB    CLEAR     70  70  99 N12       29.97S                  
MELBOURNE      CLEAR     69  55  60 N10       30.00S                  
VERO BEACH     PTCLDY    71  60  68 N10       29.99S                  
FT PIERCE      PTCLDY    71  58  63 N6        29.97F                  
STUART         PTCLDY    73  59  60 N9        29.98S                  

STATION/POSITION


28.9N   78.5W

$$
FLZ042-048>051-055-056-060-061-220000-
WEST CENTRAL FLORIDA
  
CITY           SKY/WX    TMP DP  RH WIND       PRES   REMARKS
BROOKSVILLE    CLEAR     67  45  45 MISG      30.05R                  
TAMPA          CLEAR     67  43  41 N9        30.03R                  
MACDILL AFB    CLEAR     67  47  48 N6        29.98S                  
ST PETERSBURG  CLEAR     66  47  50 N8        30.03R                  
ST PET-WHITTED CLEAR     70  48  45 N8        30.01R                  
SARASOTA       CLEAR     70  43  37 N7        30.00R                  

STATION/POSITION


CEDAR KEY
28.5N   84.5W
VENICE

$$
FLZ062-065-066-069-070-075>078-220000-
SOUTHWEST FLORIDA AND KEYS
  
CITY           SKY/WX    TMP DP  RH WIND       PRES   REMARKS
PUNTA GORDA    CLEAR     71  54  54 N7        30.00S                  
FT MYERS       CLEAR     75  56  51 N8        29.97R                  
SOUTHWEST INTL CLEAR     74  57  55 N6        29.97S                  
NAPLES         CLEAR     75  59  57 N7        29.96S                  
MARATHON       PTCLDY    76  64  66 NW12      29.94R                  
KEY WEST NAS   PTCLDY    78  63  59 N14       29.96S                  
KEY WEST INTL  PTCLDY    74  64  71 N10       29.96S                  

STATION/POSITION


VENICE
SOMBRERO KEY
LONG KEY

$$
FLZ067-068-071>074-220000-
SOUTHEAST FLORIDA 
  
CITY           SKY/WX    TMP DP  RH WIND       PRES   REMARKS
W PALM BEACH   LGT RAIN  72  66  81 N10       29.95S                  
POMPANO BEACH  MOCLDY    75  64  68 N13       29.93S                  
FT LAUDER-EXEC MOCLDY    76  65  68 N9        29.94R                  
FT LAUDERDALE  MOCLDY    75  64  68 N7        29.93R                  
PEMBROKE PINES PTCLDY    75  63  66 N14G23    29.95R                  
OPA LOCKA      MOCLDY    75  63  66 N9        29.94R                  
MIAMI          MOCLDY    77  65  66 N8        29.93R                  
WEST KENDALL   CLOUDY    77  65  66 N14       29.93R                  
HOMESTEAD      CLOUDY    74  70  89 E6        29.92R                  

STATION/POSITION


LAKE WORTH
FOWEY ROCKS
SETTLEMENT POINT

$$
  
