SXUS52 KTAE 220215
OSOTAE
OSOTAE
North Florida/South Alabama/Southwest Georgia Weather Roundup
National Weather Service Tallahassee Florida
1000 PM EDT FRI OCT 21 2022

Note: "fair" indicates few or no clouds below 12,000 feet with no
significant weather and/or obstructions to visibility.

!FLZ017-115-028-034-025-220300
...North Florida...
  
CITY           SKY/WX    TMP DP  RH WIND       PRES   REMARKS
TALL INTL ARPT CLEAR     50  38  63 CALM      30.12R                  
FSU LOVE BLDG    N/A     59  43  55 CALM        N/A                   
APALACHICOLA   CLEAR     51  47  86 CALM      30.11S                  
PERRY          NOT AVBL                                               
CROSS CITY     CLEAR     47  41  79 CALM      30.11R                  
JACKSONVILLE   CLEAR     51  44  77 CALM      30.11R                  
$$

!FLZ112-006-005-002-011-220300
...Florida Panhandle...
  
CITY           SKY/WX    TMP DP  RH WIND       PRES   REMARKS
MARIANNA       CLEAR     52  43  71 CALM      30.12R                  
BONIFAY        NOT AVBL                                               
PANAMA CITY NW FAIR      54  46  74 NW7       30.11R                  
TYNDALL AFB    CLEAR     54  45  71 CALM      30.11R                  
TYND DRONE APT FAIR      57  44  62 CALM      30.08R                  
DE FUNIAK SPR  NOT AVBL                                               
EGLIN AFB      CLEAR     56  45  67 CALM      30.09R                  
DESTIN         CLEAR     58  47  66 CALM      30.11S                  
HURLBURT       CLEAR     52  45  78 N5        30.11R                  
CRESTVIEW      CLEAR     50  46  86 MISG      30.13R                  
PENSACOLA      CLEAR     63  46  54 CALM      30.11R                  
$$

!ALZ063-066-220300
...South Alabama...
  
CITY           SKY/WX    TMP DP  RH WIND       PRES   REMARKS
DOTHAN         CLEAR     50  41  71 CALM      30.15S                  
OZARK CAIRNS   CLEAR     51  41  69 NE3       30.11R                  
FT RUCKER HELI CLEAR     47  45  90 CALM      30.12R                  
RUCKER HELI 3  FAIR      53  45  74 CALM      30.11R                  
RUCKER HELI 2  FAIR      52  47  82 CALM      30.10R                  
FLORALA APT    CLEAR     50  42  74 CALM      30.14R                  
ANDALUSIA      CLEAR     55  45  68 CALM      30.12R                  
TROY           CLEAR     50  44  80 CALM      30.13R                  
EUFALA         FAIR      47  42  83 CALM      30.13S                  
MOBILE         CLEAR     61  48  62 S5        30.11R                  
$$

!GAZ120>161-220300
...Southwest and South Central Georgia...
  
CITY           SKY/WX    TMP DP  RH WIND       PRES   REMARKS
THOMASVILLE    FAIR      48  41  76 CALM      30.14R                  
BAINBRIDGE     CLEAR     52  37  57 CALM      30.13R                  
MOODY AFB      CLEAR     50  40  69 CALM      30.11R                  
VALDOSTA       CLEAR     48  41  76 CALM      30.13R                  
MOULTRIE       CLEAR     50  43  76 CALM      30.14R                  
BLAKELY        CLEAR     46  41  81 CALM      30.14R                  
ALBANY         CLEAR     51  41  68 CALM      30.14R                  
TIFTON         NOT AVBL                                               
FITZGERALD     FAIR      47  44  88 CALM      30.14R                  
CORDELE        FAIR      47  38  71 CALM      30.15R                  
AMERICUS       FAIR      49  38  67 CALM      30.12S                  
HOMERVILLE     FAIR      46  41  81 CALM      30.13S                  
$$

!GMZ750-755-770-775-220300
...Coastal and Buoy Obs...
  
STATION/POSITION TIME  TEMP    WIND        PRES    VSBY  WAVE
                       AIR SEA DIR/SP/G                  HT/PER
                 (UTC) (F)     (DEG/KT/KT) (MB)    (MI)  (FT/S)
KEATON BEACH     0200   59      20/  4/  5 1019.9R
CEDAR KEY        0100   62     360/  5/  6 1019.3R
C TOWER          0200   67                 1019.9R
APALACHICOLA BUO 0150   70 79   40/ 12/ 17 1018.0R         2/ 4
PANAMA CITY BUOY 0150   69      80/  4/  8 1020.2R         1/ 4
MOBILE BUOY      0150   71 79  100/  6/ 10 1020.0R         1/ 3
ORANGE BCH AL BU 0150   70 75  190/  6/  8 1019.2R         1
$$
  
