ASUS43 KLSX 220010
RWRMO 

WEATHER SUMMARY FOR MISSOURI
NATIONAL WEATHER SERVICE SPRINGFIELD MO
700 PM CDT FRI OCT 21 2022

NOTE: "FAIR" INDICATES FEW OR NO CLOUDS BELOW 12,000 FEET WITH NO
       SIGNIFICANT WEATHER AND/OR OBSTRUCTIONS TO VISIBILITY.
       CURRENT SKY AND/OR WEATHER CONDITIONS ARE NOT AVAILABLE FOR
       CHILLICOTHE AND FARMINGTON.

MOZ001>031-035>038-043-044-053-054-220100-
...NORTHERN AND WESTERN MISSOURI...
  
CITY           SKY/WX    TMP DP  RH WIND       PRES   REMARKS
KANSAS CTY INT MOCLDY    75  38  26 S14       29.63S                  
6HR MIN TEMP:  74; 6HR MAX TEMP:  88;                                

KANSAS C DTWN  PTCLDY    75  39  27 S6        29.63S                  
6HR MIN TEMP:  74; 6HR MAX TEMP:  87;                                

LEE'S SUMMIT   CLEAR     77  38  24 S10       29.66S                  
6HR MIN TEMP:  77; 6HR MAX TEMP:  85;                                

ST JOSEPH      PTCLDY    69  39  33 S9        29.61R                  
6HR MIN TEMP:  69; 6HR MAX TEMP:  85; 6HR PCP: TRACE;                

CHILLICOTHE      N/A     76  39  26 S5        29.64R                  
6HR MIN TEMP:  76; 6HR MAX TEMP:  85;                                

KIRKSVILLE     PTCLDY    71  37  28 S10       29.66R                  
6HR MIN TEMP:  71; 6HR MAX TEMP:  82;                                

     
$$
MOZ066>068-077>081-088>096-101>105-220100-
...SOUTHWEST MISSOURI...
  
CITY           SKY/WX    TMP DP  RH WIND       PRES   REMARKS
SPRINGFIELD    CLEAR     72  34  24 S9        29.76S                  
6HR MIN TEMP:  72; 6HR MAX TEMP:  84;                                

JOPLIN         MOCLDY    77  37  23 S13       29.73S                  
6HR MIN TEMP:  75; 6HR MAX TEMP:  86;                                

BRANSON        CLEAR     72  39  30 S7        29.82R                  
               
$$
MOZ032>034-039>042-045>050-055>058-069>072-220100-
...CENTRAL MISSOURI...  
  
CITY           SKY/WX    TMP DP  RH WIND       PRES   REMARKS
COLUMBIA       PTCLDY    71  35  26 S9        29.72S                  
6HR MIN TEMP:  71; 6HR MAX TEMP:  84;                                

JEFFERSON CITY PTCLDY    75  33  21 SE8       29.72R                  
6HR MIN TEMP:  75; 6HR MAX TEMP:  86;                                

ROLLA          CLEAR     69  31  24 S9        29.78S                  
6HR MIN TEMP:  69; 6HR MAX TEMP:  84;                                

SEDALIA        CLEAR     70  35  27 S9        29.70S                  
6HR MIN TEMP:  70; 6HR MAX TEMP:  85;                                

WHITEMAN AFB   CLEAR     69  35  29 S7        29.63S                  
WARRENSBURG    CLEAR     73  36  25 S5        29.68R                  
OSAGE BEACH    CLEAR     75  32  20 S6          N/A                   
               
$$
MOZ051-052-059>065-220100-
...EAST CENTRAL MISSOURI...
  
CITY           SKY/WX    TMP DP  RH WIND       PRES   REMARKS
ST LOUIS INTL  MOCLDY    75  35  23 S10       29.78R                  
6HR MIN TEMP:  75; 6HR MAX TEMP:  84;                                

SPIRIT OF STL  CLEAR     72  35  25 S6        29.76R                  
6HR MIN TEMP:  70; 6HR MAX TEMP:  82;                                

ST CHARLES     CLEAR     68  36  30 S12       29.76R                  
6HR MIN TEMP:  68; 6HR MAX TEMP:  84;                                

                   
$$
MOZ072>076-082>087-097>100-106>115-220100-
...SOUTH CENTRAL AND SOUTHEAST MISSOURI...
  
CITY           SKY/WX    TMP DP  RH WIND       PRES   REMARKS
CAPE GIRARDEAU CLEAR     66  46  48 S8        29.86R                  
6HR MIN TEMP:  65; 6HR MAX TEMP:  79;                                

FARMINGTON     CLEAR     69  44  40 S7        29.85R                  
6HR MIN TEMP:  69; 6HR MAX TEMP:  80;                                

POPLAR BLUFF   CLEAR     67  48  50 S6        29.86R                  
6HR MIN TEMP:  67; 6HR MAX TEMP:  78;                                

WEST PLAINS    CLEAR     69  46  43 SE6       29.85R                  
6HR MIN TEMP:  69; 6HR MAX TEMP:  81;                                

                                       
$$
  
