ASUS43 KLSX 220207
RWRMO 

WEATHER SUMMARY FOR MISSOURI
NATIONAL WEATHER SERVICE SPRINGFIELD MO
900 PM CDT FRI OCT 21 2022

NOTE: "FAIR" INDICATES FEW OR NO CLOUDS BELOW 12,000 FEET WITH NO
       SIGNIFICANT WEATHER AND/OR OBSTRUCTIONS TO VISIBILITY.
       CURRENT SKY AND/OR WEATHER CONDITIONS ARE NOT AVAILABLE FOR
       CHILLICOTHE AND FARMINGTON.

MOZ001>031-035>038-043-044-053-054-220300-
...NORTHERN AND WESTERN MISSOURI...
  
CITY           SKY/WX    TMP DP  RH WIND       PRES   REMARKS
KANSAS CTY INT MOCLDY    76  40  27 S17G28    29.64S                  
KANSAS C DTWN  PTCLDY    73  41  31 S12       29.65R                  
LEE'S SUMMIT   CLEAR     73  39  29 S17       29.68R                  
ST JOSEPH      PTCLDY    66  41  40 S10       29.61S                  
CHILLICOTHE      N/A     76  38  25 S8        29.65S                  
KIRKSVILLE     PTCLDY    69  36  29 S12       29.68R                  
     
$$
MOZ066>068-077>081-088>096-101>105-220300-
...SOUTHWEST MISSOURI...
  
CITY           SKY/WX    TMP DP  RH WIND       PRES   REMARKS
SPRINGFIELD    PTCLDY    69  37  30 S12       29.78R                  
JOPLIN         MOCLDY    73  40  30 S15G30    29.74S                  
BRANSON        PTCLDY    66  39  37 S7        29.84R                  
               
$$
MOZ032>034-039>042-045>050-055>058-069>072-220300-
...CENTRAL MISSOURI...  
  
CITY           SKY/WX    TMP DP  RH WIND       PRES   REMARKS
COLUMBIA       CLEAR     70  33  25 S12       29.74R                  
JEFFERSON CITY CLEAR     74  34  23 SE9       29.74R                  
ROLLA          CLEAR     68  40  35 S14G23    29.80R                  
SEDALIA        CLEAR     67  36  31 S13       29.72S                  
WHITEMAN AFB   CLEAR     63  37  37 S10       29.65R                  
WARRENSBURG    CLEAR     68  36  30 S7        29.69S                  
OSAGE BEACH    CLEAR     70  34  26 S7          N/A                   
               
$$
MOZ051-052-059>065-220300-
...EAST CENTRAL MISSOURI...
  
CITY           SKY/WX    TMP DP  RH WIND       PRES   REMARKS
ST LOUIS INTL  PTCLDY    71  41  33 S15G25    29.80R                  
SPIRIT OF STL  CLEAR     71  41  33 S14G29    29.78R                  
ST CHARLES     CLEAR     70  42  36 S15       29.78R                  
                   
$$
MOZ072>076-082>087-097>100-106>115-220300-
...SOUTH CENTRAL AND SOUTHEAST MISSOURI...
  
CITY           SKY/WX    TMP DP  RH WIND       PRES   REMARKS
CAPE GIRARDEAU CLEAR     65  48  54 S8        29.88S                  
FARMINGTON     CLEAR     62  46  55 S6        29.87S                  
POPLAR BLUFF   CLEAR     63  48  58 S6        29.87S                  
WEST PLAINS    CLEAR     63  47  55 S6        29.87R                  
                                       
$$
  
