ASUS43 KFSD 232010
RWRSD 

WEATHER ROUNDUP FOR SOUTH DAKOTA
NATIONAL WEATHER SERVICE SIOUX FALLS SD
300 PM CDT SUN OCT 23 2022

NOTE: "FAIR" INDICATES FEW OR NO CLOUDS BELOW 12,000 FEET WITH NO
SIGNIFICANT WEATHER AND/OR OBSTRUCTIONS TO VISIBILITY.


SDZ001>005-009-010-012>017-232100-
NORTHWEST AND NORTH CENTRAL SOUTH DAKOTA
  
CITY           SKY/WX    TMP DP  RH WIND       PRES   REMARKS
BUFFALO          N/A     47  38  71 NW23G40   29.31S                  
FAITH            N/A     53  39  59 N15       29.26R                  
MOBRIDGE       CLOUDY    70  51  51 SE16G25   29.17S                  
$$
 
SDZ012>016-024>037-041>051-057-063-072>074-232100-
SOUTHWEST AND SOUTH CENTRAL SOUTH DAKOTA
  
CITY           SKY/WX    TMP DP  RH WIND       PRES   REMARKS
RAPID CTY ARPT CLOUDY    49  38  65 N35G47    29.28R                  
PIERRE         MOSUNNY   70  48  45 VRB7      29.14F                  
CUSTER         CLOUDY    50  34  54 W16G26    29.34R                  
ELLSWORTH AFB  CLOUDY    46  36  66 NW35G45   29.28R                  
PHILIP         MOSUNNY   55  40  56 N17       29.24R                  
PINE RIDGE     PTSUNNY   59  36  42 NW16G23   29.30R                  
SPEARFISH      CLOUDY    41  34  75 NW23G32   29.40R                  
WINNER         SUNNY     81  36  19 SW8       29.13F                  
$$
 
SDZ004>011-016>023-039-040-232100-
NORTHEAST SOUTH DAKOTA
  
CITY           SKY/WX    TMP DP  RH WIND       PRES   REMARKS
ABERDEEN       CLOUDY    75  54  47 SE21G35   29.22F                  
WATERTOWN      LGT RAIN  72  53  51 SE22G44   29.27F                  
BROOKINGS      MOSUNNY  N/A N/A N/A SE30G39   29.27F                  
SISSETON         N/A     75  53  46 SE28G39   29.28F                  
$$
 
SDZ017-020-022-023-036>040-048>070-232100-
SOUTHEAST SOUTH DAKOTA
  
CITY           SKY/WX    TMP DP  RH WIND       PRES   REMARKS
SIOUX FALLS    MOSUNNY   82  53  36 SE20G38   29.26F                  
HURON          CLOUDY    78  52  40 SE21G38   29.16F                  
CHAMBERLAIN    MOSUNNY   78  42  28 S14G20    29.14R                  
MADISON        MOSUNNY   77  54  44 SE25G37   29.25F                  
MITCHELL       PTSUNNY   82  48  30 S25G38    29.17F                  
YANKTON        MOSUNNY   84  52  33 SE29G35   29.21F                  
$$
 
ABBREVIATIONS USED IN REMARKS
   TC - TEMPERATURE IN CELSIUS
  WCI - WIND CHILL INDEX
   HX - HEAT INDEX
  VSB - VISIBILITY

  
