ASUS43 KFSD 232010
RWRFSD

WEATHER ROUNDUP FOR SE SOUTH DAKOTA/SW MINNESOTA/NW IOWA
NATIONAL WEATHER SERVICE SIOUX FALLS SD
300 PM CDT SUN OCT 23 2022

NOTE: "FAIR" INDICATES FEW OR NO CLOUDS BELOW 12,000 FEET WITH NO
SIGNIFICANT WEATHER AND OR OBSTRUCTIONS TO VISIBILITY.


SDZ038>040-050-052>070-232100-
SOUTHEAST SOUTH DAKOTA
  
CITY           SKY/WX    TMP DP  RH WIND       PRES   REMARKS
BROOKINGS      MOSUNNY  N/A N/A N/A SE30G39   29.27F                  
CHAMBERLAIN    MOSUNNY   78  42  28 S14G20    29.14R                  
HURON          CLOUDY    78  52  40 SE21G38   29.16F                  
MADISON        MOSUNNY   77  54  44 SE25G37   29.25F                  
MITCHELL       PTSUNNY   82  48  30 S25G38    29.17F                  
SIOUX FALLS    MOSUNNY   82  53  36 SE20G38   29.26F                  
WINNER         SUNNY     81  36  19 SW8       29.13F                  
YANKTON        MOSUNNY   84  52  33 SE29G35   29.21F                  
$$

MNZ071-072-080-081-089-090-097-098-232100-
SOUTHWEST MINNESOTA
  
CITY           SKY/WX    TMP DP  RH WIND       PRES   REMARKS
FAIRMONT       SUNNY     77  56  48 SE35G41   29.41F                  
JACKSON        SUNNY     77  52  41 S23G37    29.41F                  
LUVERNE        SUNNY     79  52  38 SE22G36   29.31F                  
MARSHALL       SUNNY     76  55  48 SE32      29.33F                  
MONTEVIDEO     MOSUNNY   75  55  50 SE18G36   29.35F                  
REDWOOD FALLS  SUNNY     78  55  44 SE31G44   29.37F                  
TRACY            N/A     77  50  38 SE28G37   29.36F                  
WINDOM         SUNNY     77  54  44 SE25G35   29.39F                  
WORTHINGTON    SUNNY     78  55  44 SE25G37   29.35F                  
$$

IAZ001>003-012>014-020>022-031-032-NEZ013-014-SDZ071-232100-
NORTHWEST IOWA
  
CITY           SKY/WX    TMP DP  RH WIND       PRES   REMARKS
CHEROKEE       MOSUNNY   82  53  37 S25G33    29.36F                  
DENISON          N/A    N/A N/A N/A MISG        N/A                   
ESTHERVILLE    MOSUNNY   78  55  44 SE33G44   29.41F                  
LE MARS        MOSUNNY   82  54  36 S25G37    29.29F                  
MAURICE        FAIR      82  54  36 S32G38    29.29F                  
SHELDON        MOSUNNY   81  54  39 SE28G41   29.31F                  
SIOUX CITY     MOSUNNY   86  55  34 S30G40    29.29F                  
SPENCER        NOT AVBL                                               
STORM LAKE     PTSUNNY   79  55  44 S30G43    29.39S                  
$$
 
ABBREVIATIONS USED IN REMARKS
   TC - TEMPERATURE IN CELSIUS
  WCI - WIND CHILL INDEX
   HX - HEAT INDEX
  VSB - VISIBILITY

  
