ASUS43 KFSD 232110
RWRFSD

WEATHER ROUNDUP FOR SE SOUTH DAKOTA/SW MINNESOTA/NW IOWA
NATIONAL WEATHER SERVICE SIOUX FALLS SD
400 PM CDT SUN OCT 23 2022

NOTE: "FAIR" INDICATES FEW OR NO CLOUDS BELOW 12,000 FEET WITH NO
SIGNIFICANT WEATHER AND OR OBSTRUCTIONS TO VISIBILITY.


SDZ038>040-050-052>070-232200-
SOUTHEAST SOUTH DAKOTA
  
CITY           SKY/WX    TMP DP  RH WIND       PRES   REMARKS
BROOKINGS      PTSUNNY  N/A N/A N/A SE30G37   29.26F                  
CHAMBERLAIN    MOSUNNY   82  39  21 S6        29.12F                  
HURON          PTSUNNY   80  50  34 S22G40    29.16S                  
MADISON        MOSUNNY   79  54  41 SE25G38   29.23F                  
MITCHELL       PTSUNNY   85  44  23 S18G38    29.16F                  
SIOUX FALLS    MOSUNNY   83  53  35 S21G37    29.24F                  
WINNER         MOSUNNY   80  34  19 W17G30    29.14R                  
YANKTON        SUNNY     86  53  32 S29G39    29.19F                  
$$

MNZ071-072-080-081-089-090-097-098-232200-
SOUTHWEST MINNESOTA
  
CITY           SKY/WX    TMP DP  RH WIND       PRES   REMARKS
FAIRMONT       MOSUNNY   77  56  48 SE28G37   29.41S                  
JACKSON        MOSUNNY   77  52  41 S32G38    29.41S                  
LUVERNE        MOSUNNY   79  50  36 S25G36    29.29F                  
MARSHALL       SUNNY     78  56  46 SE28G40   29.31F                  
MONTEVIDEO     MOSUNNY   75  54  46 S22G32    29.33F                  
REDWOOD FALLS  MOSUNNY   80  55  42 SE31G41   29.36F                  
TRACY            N/A     78  50  36 SE25G35   29.34F                  
WINDOM         SUNNY     77  54  44 SE21G35   29.38R                  
WORTHINGTON    MOSUNNY   78  55  44 SE29G37   29.34F                  
$$

IAZ001>003-012>014-020>022-031-032-NEZ013-014-SDZ071-232200-
NORTHWEST IOWA
  
CITY           SKY/WX    TMP DP  RH WIND       PRES   REMARKS
CHEROKEE       PTSUNNY   83  53  34 S26G37    29.33F                  
DENISON        MOSUNNY  N/A N/A N/A MISG        N/A                   
ESTHERVILLE    MOSUNNY   78  55  44 S32G43    29.40F                  
LE MARS        MOSUNNY   82  54  36 S26G32    29.27F                  
MAURICE        FAIR      82  54  36 S22G35    29.27F                  
SHELDON        MOSUNNY   82  55  39 S32G39    29.30F                  
SIOUX CITY     MOSUNNY   86  55  34 S24G39    29.28F                  
SPENCER        PTSUNNY   82  54  37 SE30G47   29.37                   
STORM LAKE     MOSUNNY   82  55  39 S32G43    29.36F                  
$$
 
ABBREVIATIONS USED IN REMARKS
   TC - TEMPERATURE IN CELSIUS
  WCI - WIND CHILL INDEX
   HX - HEAT INDEX
  VSB - VISIBILITY

  
