ASUS43 KFSD 231702
RWRFSD

WEATHER ROUNDUP FOR SE SOUTH DAKOTA/SW MINNESOTA/NW IOWA
NATIONAL WEATHER SERVICE SIOUX FALLS SD
1200 PM CDT SUN OCT 23 2022

NOTE: "FAIR" INDICATES FEW OR NO CLOUDS BELOW 12,000 FEET WITH NO
SIGNIFICANT WEATHER AND OR OBSTRUCTIONS TO VISIBILITY.


SDZ038>040-050-052>070-231800-
SOUTHEAST SOUTH DAKOTA
  
CITY           SKY/WX    TMP DP  RH WIND       PRES   REMARKS
BROOKINGS      SUNNY    N/A N/A N/A SE25G35   29.36                   
CHAMBERLAIN    NOT AVBL                                               
HURON          MOSUNNY   70  54  56 SE24G36   29.24F                  
MADISON        SUNNY     66  57  72 SE25G35   29.33F                  
MITCHELL       SUNNY     72  52  49 SE28G39   29.25F                  
SIOUX FALLS    SUNNY     72  54  53 SE20G32   29.34F                  
WINNER         MOSUNNY   66  43  43 SE14G23   29.18F                  
YANKTON        SUNNY     73  54  51 SE26G32   29.29F                  
$$

MNZ071-072-080-081-089-090-097-098-231800-
SOUTHWEST MINNESOTA
  
CITY           SKY/WX    TMP DP  RH WIND       PRES   REMARKS
FAIRMONT       SUNNY     71  55  56 SE25G36   29.50F                  
JACKSON        SUNNY     70  52  52 SE24      29.48F                  
LUVERNE        SUNNY     68  52  56 SE22G31   29.39F                  
MARSHALL       SUNNY     69  54  58 SE21G31   29.41F                  
MONTEVIDEO     SUNNY     70  54  56 SE22G29   29.44F                  
REDWOOD FALLS  SUNNY     71  54  54 SE26G36   29.47F                  
TRACY            N/A     69  51  51 SE20G31   29.43F                  
WINDOM         SUNNY     70  54  56 SE22G33   29.46F                  
WORTHINGTON    SUNNY     69  54  58 SE25G31   29.43F                  
$$

IAZ001>003-012>014-020>022-031-032-NEZ013-014-SDZ071-231800-
NORTHWEST IOWA
  
CITY           SKY/WX    TMP DP  RH WIND       PRES   REMARKS
CHEROKEE       SUNNY     74  55  52 S22G31    29.42F                  
DENISON          N/A     75  55  50 S24G33    29.44                   
ESTHERVILLE    SUNNY     71  54  54 S29G39    29.48F                  
LE MARS        SUNNY     73  55  53 S28G35    29.35S                  
MAURICE        FAIR      73  55  53 SE32      29.35F                  
SIOUX CITY     SUNNY     75  56  51 S22G32    29.36F                  
SPENCER        SUNNY     74  53  48 SE28G38   29.45F                  
$$
 
ABBREVIATIONS USED IN REMARKS
   TC - TEMPERATURE IN CELSIUS
  WCI - WIND CHILL INDEX
   HX - HEAT INDEX
  VSB - VISIBILITY

  
