ASUS43 KFSD 231910
RWRSD 

WEATHER ROUNDUP FOR SOUTH DAKOTA
NATIONAL WEATHER SERVICE SIOUX FALLS SD
200 PM CDT SUN OCT 23 2022

NOTE: "FAIR" INDICATES FEW OR NO CLOUDS BELOW 12,000 FEET WITH NO
SIGNIFICANT WEATHER AND/OR OBSTRUCTIONS TO VISIBILITY.


SDZ001>005-009-010-012>017-232000-
NORTHWEST AND NORTH CENTRAL SOUTH DAKOTA
  
CITY           SKY/WX    TMP DP  RH WIND       PRES   REMARKS
BUFFALO          N/A     46  38  73 NW18G29   29.31F                  
FAITH            N/A     53  39  59 N13       29.25S                  
MOBRIDGE       PTSUNNY   70  51  51 E17G26    29.17F                  
$$
 
SDZ012>016-024>037-041>051-057-063-072>074-232000-
SOUTHWEST AND SOUTH CENTRAL SOUTH DAKOTA
  
CITY           SKY/WX    TMP DP  RH WIND       PRES   REMARKS
RAPID CTY ARPT PTSUNNY   52  38  58 N32G51    29.24F                  
PIERRE         PTSUNNY   69  49  48 SE15G21   29.16S                  
CUSTER         CLOUDY    53  34  48 W15G22    29.29R                  
ELLSWORTH AFB  PTSUNNY   50  37  60 N39G48    29.23R                  
PHILIP         MOSUNNY   57  40  52 NW18G24   29.22R                  
PINE RIDGE     PTSUNNY   53  35  50 NW14G24   29.28R                  
SPEARFISH      CLOUDY    43  37  81 W25G35    29.37R                  
WINNER         MOSUNNY   78  39  24 S12       29.14F                  
$$
 
SDZ004>011-016>023-039-040-232000-
NORTHEAST SOUTH DAKOTA
  
CITY           SKY/WX    TMP DP  RH WIND       PRES   REMARKS
ABERDEEN       LGT RAIN  74  55  51 E17G30    29.24F                  
WATERTOWN      LGT RAIN  73  53  49 SE18G32   29.29F                  
BROOKINGS      MOSUNNY  N/A N/A N/A SE32      29.31F                  
SISSETON         N/A     74  53  48 SE31G41   29.31F                  
$$
 
SDZ017-020-022-023-036>040-048>070-232000-
SOUTHEAST SOUTH DAKOTA
  
CITY           SKY/WX    TMP DP  RH WIND       PRES   REMARKS
SIOUX FALLS    MOSUNNY   79  54  41 SE25G35   29.28F                  
HURON          PTSUNNY   77  53  43 SE24G40   29.19F                  
CHAMBERLAIN    PTSUNNY   72  46  39 SE18G26   29.15F                  
MADISON        SUNNY     73  55  53 SE26G37   29.27F                  
MITCHELL       MOSUNNY   78  51  38 SE25G39   29.19F                  
YANKTON        SUNNY     83  52  34 S23G37    29.24F                  
$$
 
ABBREVIATIONS USED IN REMARKS
   TC - TEMPERATURE IN CELSIUS
  WCI - WIND CHILL INDEX
   HX - HEAT INDEX
  VSB - VISIBILITY

  
