ASUS43 KFSD 231702
RWRSD 

WEATHER ROUNDUP FOR SOUTH DAKOTA
NATIONAL WEATHER SERVICE SIOUX FALLS SD
1200 PM CDT SUN OCT 23 2022

NOTE: "FAIR" INDICATES FEW OR NO CLOUDS BELOW 12,000 FEET WITH NO
SIGNIFICANT WEATHER AND/OR OBSTRUCTIONS TO VISIBILITY.


SDZ001>005-009-010-012>017-231800-
NORTHWEST AND NORTH CENTRAL SOUTH DAKOTA
  
CITY           SKY/WX    TMP DP  RH WIND       PRES   REMARKS
BUFFALO          N/A     46  37  71 N13       29.30F                  
FAITH            N/A     50  39  66 NE10      29.26S                  
MOBRIDGE       MOSUNNY   62  47  57 E16       29.23F                  
$$
 
SDZ012>016-024>037-041>051-057-063-072>074-231800-
SOUTHWEST AND SOUTH CENTRAL SOUTH DAKOTA
  
CITY           SKY/WX    TMP DP  RH WIND       PRES   REMARKS
RAPID CTY ARPT MOSUNNY   51  37  58 N31G41    29.25F                  
PIERRE         MOSUNNY   63  51  65 SE20G29   29.18F                  
CUSTER         PTSUNNY   59  32  36 W8        29.31S                  
ELLSWORTH AFB  CLOUDY    50  35  57 N32       29.23F                  
PHILIP         PTSUNNY   53  42  66 N9        29.21S                  
PINE RIDGE     MOSUNNY   49  36  61 NW13G21   29.26R                  
SPEARFISH      FAIR      46  36  66 W22G33    29.34S                  
WINNER         MOSUNNY   66  43  43 SE14G23   29.18F                  
$$
 
SDZ004>011-016>023-039-040-231800-
NORTHEAST SOUTH DAKOTA
  
CITY           SKY/WX    TMP DP  RH WIND       PRES   REMARKS
ABERDEEN       SUNNY     69  54  58 SE16      29.31F                  
WATERTOWN      SUNNY     69  54  58 SE21G33   29.34F                  
BROOKINGS      SUNNY    N/A N/A N/A SE25G35   29.36                   
SISSETON         N/A     67  50  54 SE21      29.38F                  
$$
 
SDZ017-020-022-023-036>040-048>070-231800-
SOUTHEAST SOUTH DAKOTA
  
CITY           SKY/WX    TMP DP  RH WIND       PRES   REMARKS
SIOUX FALLS    SUNNY     72  54  53 SE20G32   29.34F                  
HURON          MOSUNNY   70  54  56 SE24G36   29.24F                  
MADISON        SUNNY     66  57  72 SE25G35   29.33F                  
MITCHELL       SUNNY     72  52  49 SE28G39   29.25F                  
YANKTON        SUNNY     73  54  51 SE26G32   29.29F                  
$$
 
ABBREVIATIONS USED IN REMARKS
   TC - TEMPERATURE IN CELSIUS
  WCI - WIND CHILL INDEX
   HX - HEAT INDEX
  VSB - VISIBILITY

  
