ASUS43 KGRB 212310
RWRGRB

NORTH-CENTRAL AND NORTHEAST WISCONSIN REGIONAL WEATHER ROUNDUP
NATIONAL WEATHER SERVICE GREEN BAY WI
600 PM CDT FRI OCT 21 2022

WIZ005-009-010>012-018-019-220000-
NORTH CENTRAL WISCONSIN
  
CITY           SKY/WX    TMP DP  RH WIND       PRES   REMARKS
IRONWOOD       PTCLDY    53  40  61 CALM      29.57R                  
MANITOWISH WTR CLEAR     53  37  54 NW3       29.58R                  
ARBOR VITAE    CLEAR     59  36  43 NW5       29.58R                  
EAGLE RIVER    CLEAR     56  36  46 CALM      29.57R                  
LAND O LAKES   CLEAR     55  36  48 CALM      29.59R                  
RHINELANDER    CLEAR     56  35  45 W5        29.59R                  
PHILLIPS       CLEAR     60  36  40 NW3       29.58R                  
ANTIGO         CLEAR     56  38  52 SW6       29.59R                  
TOMAHAWK       CLEAR     59  37  44 CALM      29.59R                  
MERRILL        CLEAR     59  39  47 W5        29.58R                  
$$

WIZ013-073-220000-
NORTHEAST WISCONSIN
  
CITY           SKY/WX    TMP DP  RH WIND       PRES   REMARKS
IRON MOUNTAIN  CLEAR     62  38  40 W3        29.54R                  
MARINETTE      CLEAR     64  40  41 NW8       29.57R                  
OCONTO         CLEAR     65  38  37 SW3       29.56R                  
$$

WIZ017-030-035>037-045-220000-
CENTRAL WISCONSIN
  
CITY           SKY/WX    TMP DP  RH WIND       PRES   REMARKS
MEDFORD        CLEAR     60  38  45 W3        29.59R                  
WAUSAU         CLEAR     62  38  40 SW5       29.58R                  
MOSINEE        CLEAR     61  37  41 W5        29.60R                  
MARSHFIELD     CLEAR     61  38  42 W5        29.60R                  
WISC RAPIDS    CLEAR     65  37  35 SW6       29.61R                  
STEVENS POINT  CLEAR     65  32  28 CALM      29.60R                  
WAUPACA        CLEAR     66  36  32 W6        29.59R                  
SHAWANO        CLEAR     65  39  38 CALM      29.57R                  
CLINTONVILLE   CLEAR     65  39  38 W5        29.59R                  
WAUTOMA        CLEAR     66  37  34 SW3       29.60R                  
$$

WIZ038-039-048-051-220000-
FOX VALLEY
  
CITY           SKY/WX    TMP DP  RH WIND       PRES   REMARKS
NWS GREEN BAY  CLEAR     68  38  33 SW5       29.58R                  
APPLETON       CLEAR     63  37  39 W7        29.57R                  
OSHKOSH        CLEAR     67  39  35 CALM      29.58R                  
FOND DU LAC    CLEAR     70  36  28 SW7       29.59R                  
$$

WIZ022-050-052-220000-
EAST CENTRAL WISCONSIN
  
CITY           SKY/WX    TMP DP  RH WIND       PRES   REMARKS
EPHRAIM        FAIR      54  47  77 S3        29.56R                  
WASHINGTON ISL FAIR      50  50 100 S5        29.56R                  
STURGEON BAY   CLEAR     63  41  44 S3        29.58R                  
MANITOWOC      CLEAR     57  48  72 CALM      29.59R                  
SHEBOYGAN      CLEAR     70  40  33 SW9       29.59R                  
$$

LMZ563-521-522-541>543-220000-
LAKESHORE
  
STATION/POSITION TIME  TEMP    WIND        PRES    VSBY  WAVE
                       AIR SEA DIR/SP/G                  HT/PER
                 (UTC) (F)     (DEG/KT/KT) (MB)    (MI)  (FT/S)
SHEBOYGAN LKSHOR 2300   59     190/  9/ 10 1002.3R
KEWAUNEE LKSHORE 2224          180/  6/  7 1000.3
NORTHPORT PIER   2200          150/  4/  6 1001.4
N MID LAKE BUOY  2250   50 45  210/ 17/ 21 1001.2R         8/ 7
CHAMBERS ISLAND  2240   62     170/  5/  8   N/A
GREEN BAY WEST   2224          260/  3/  7  999.8
MENOMINEE LKSHOR 2230      49  230/  6/  8  999.4
$$
  
