ASUS43 KARX 212259
RWRARX

HOURLY WEATHER FOR THE UPPER MISSISSIPPI RIVER VALLEY
NATIONAL WEATHER SERVICE LA CROSSE WI
600 PM CDT FRI OCT 21 2022

NOTE: "FAIR" indicates few or no clouds below 12,000 feet with no
significant weater and/or obstructions to visibility. 

MNZ077-085>088-093>096-220000
Southeast Minnesota
  
CITY           SKY/WX    TMP DP  RH WIND       PRES   REMARKS
ROCHESTER      PTCLDY    64  36  35 W3        29.63R                  
WINONA         PTCLDY    64  36  34 CALM      29.60S                  
AUSTIN         PTCLDY    66  37  34 N5        29.62S                  
ALBERT LEA     PTCLDY    64  37  36 CALM      29.62S                  
DODGE CENTER     N/A     63  34  34 NW5       29.62S                  
PRESTON        CLEAR     65  35  32 NW3       29.63R                  
OWATONNA       PTCLDY    63  39  42 CALM      29.62R                  
FARIBAULT      PTCLDY    63  39  42 CALM      29.61S                  
$$
 
WIZ041-042-053>056-061-220000
Southwest Wisconsin
  
CITY           SKY/WX    TMP DP  RH WIND       PRES   REMARKS
LA CROSSE      CLEAR     62  40  44 NW6       29.59R                  
SPARTA         NOT AVBL                                               
VIROQUA        CLEAR     65  39  37 W5        29.62R                  
WIS DELLS      CLEAR     67  35  30 CALM      29.60R                  
PRAIRIE DU CHI CLEAR     72  32  23 CALM      29.59                   
BOSCOBEL       NOT AVBL                                               
LONE ROCK      NOT AVBL                                               
PLATTEVILLE    FAIR      71  33  25 CALM      29.62R                  
$$
 
WIZ017-030-034>036-043>045-220000
Central Wisconsin
  
CITY           SKY/WX    TMP DP  RH WIND       PRES   REMARKS
MEDFORD        CLEAR     60  38  45 W3        29.59R                  
WAUSAU         CLEAR     62  38  40 SW5       29.58R                  
BLACK RVR FLS  CLEAR     56  39  53 CALM      29.59S                  
WIS RAPIDS     CLEAR     65  37  35 SW6       29.61R                  
MARSHFIELD     CLEAR     61  38  42 W5        29.60R                  
MAUSTON        FAIR      64  38  37 W3        29.60R                  
CAMP DOUGLAS   CLEAR     60  39  45 CALM      29.58R HAZE             
WAUTOMA        CLEAR     66  37  34 SW3       29.60R                  
$$

IAZ008>011-017>019-029-030-220000
Northeast Iowa
  
CITY           SKY/WX    TMP DP  RH WIND       PRES   REMARKS
WATERLOO       CLOUDY    71  34  25 CALM      29.60R                  
DUBUQUE        CLEAR     70  39  32 SW6       29.61R                  
DECORAH        CLEAR     70  34  26 CALM      29.61R                  
MASON CITY     CLEAR     61  38  42 N6        29.63R                  
CHARLES CITY   CLEAR     66  32  28 NW3       29.62R                  
OELWEIN        CLEAR     72  34  25 SW6       29.61R HAZE             
$$

Wind speeds are in miles per hour.

 Abbreviations used in the REMARKS:
VSB - Visibility in statute miles
WCI - Wind chill index
HX  - Heat Index
  
