ASUS43 KARX 220059
RWRARX

HOURLY WEATHER FOR THE UPPER MISSISSIPPI RIVER VALLEY
NATIONAL WEATHER SERVICE LA CROSSE WI
800 PM CDT FRI OCT 21 2022

NOTE: "FAIR" indicates few or no clouds below 12,000 feet with no
significant weater and/or obstructions to visibility. 

MNZ077-085>088-093>096-220200
Southeast Minnesota
  
CITY           SKY/WX    TMP DP  RH WIND       PRES   REMARKS
ROCHESTER      CLEAR     59  36  42 CALM      29.65R                  
WINONA         CLEAR     48  37  66 CALM      29.64S                  
AUSTIN         CLEAR     52  37  58 CALM      29.65R                  
ALBERT LEA     PTCLDY    52  37  58 CALM      29.64S                  
DODGE CENTER   CLEAR     50  34  53 CALM      29.65S                  
PRESTON        CLEAR     58  35  42 CALM      29.65R                  
OWATONNA       CLEAR     48  37  66 CALM      29.65R HAZE             
FARIBAULT      PTCLDY    48  37  66 CALM      29.65R                  
$$
 
WIZ041-042-053>056-061-220200
Southwest Wisconsin
  
CITY           SKY/WX    TMP DP  RH WIND       PRES   REMARKS
LA CROSSE      CLEAR     52  39  61 CALM      29.63R                  
SPARTA         NOT AVBL                                               
VIROQUA        CLEAR     63  38  40 S3        29.65R                  
WIS DELLS      CLEAR     54  37  52 CALM      29.65R                  
PRAIRIE DU CHI CLEAR     54  38  54 CALM      29.63S                  
BOSCOBEL       CLEAR     50  38  63 CALM      29.64R                  
LONE ROCK      CLEAR     56  38  50 W5        29.64R                  
PLATTEVILLE    FAIR      65  34  30 SE6       29.66R                  
$$
 
WIZ017-030-034>036-043>045-220200
Central Wisconsin
  
CITY           SKY/WX    TMP DP  RH WIND       PRES   REMARKS
MEDFORD        CLEAR     45  37  76 CALM      29.64R                  
WAUSAU         CLEAR     52  38  58 CALM      29.63R                  
BLACK RVR FLS  CLEAR     42  36  79 CALM      29.64R                  
WIS RAPIDS     CLEAR     52  38  58 CALM      29.65R                  
MARSHFIELD     CLEAR     51  37  58 W5        29.65R                  
MAUSTON        FAIR      50  39  67 CALM      29.64R                  
CAMP DOUGLAS   CLEAR     45  36  70 CALM      29.62R                  
WAUTOMA        CLEAR     49  38  65 CALM      29.64R                  
$$

IAZ008>011-017>019-029-030-220200
Northeast Iowa
  
CITY           SKY/WX    TMP DP  RH WIND       PRES   REMARKS
WATERLOO       MOCLDY    53  34  48 N3        29.63R                  
DUBUQUE        CLEAR     58  38  47 CALM      29.66R                  
DECORAH        PTCLDY    63  34  34 CALM      29.63R                  
MASON CITY     CLEAR     47  33  58 CALM      29.65R                  
CHARLES CITY   CLEAR     55  32  41 NE5       29.64R                  
OELWEIN        CLEAR     64  34  32 N3        29.64R HAZE             
$$

Wind speeds are in miles per hour.

 Abbreviations used in the REMARKS:
VSB - Visibility in statute miles
WCI - Wind chill index
HX  - Heat Index
  
