ASUS45 KSLC 220010
RWRUT 

UTAH REGIONAL WEATHER ROUNDUP
NATIONAL WEATHER SERVICE SALT LAKE CITY UT
600 PM MDT FRI OCT 21 2022

UTZ101>105-107>111-220100-

NORTHERN UTAH
  
CITY           SKY/WX    TMP DP  RH WIND       PRES   REMARKS
BRIGHAM CITY   CLEAR     70  25  18 MISG      29.76F                  
HILL AFB       CLEAR     70  19  14 SW12      29.77F                  
LOGAN          CLEAR     70  21  15 S12       29.75F                  
OGDEN          CLEAR     73  19  13 SW9       29.77F                  
SALT LAKE CITY PTCLDY    76  18  11 NW6       29.77F                  
TOOELE VALLEY  CLEAR     72  32  23 S9        29.79F                  
WENDOVER       CLEAR     77  13   9 SW17      29.74F                  
HEBER CITY       N/A     66  14  13 SW10G23   29.84F                  
WEST JORDAN    CLEAR     71  35  26 SW7       29.81F                  

$$

UTZ024>027-106-112>120-220100-

CENTRAL/NORTHEAST UTAH
  
CITY           SKY/WX    TMP DP  RH WIND       PRES   REMARKS
PROVO AIRPORT  CLEAR     68  38  33 SW9       29.83F                  
MOAB/CANYONLAN CLEAR     73  20  13 SW10      29.81F                  
DELTA          CLEAR     73  14  10 S14       29.83F                  
MANTI            N/A     69  15  13 W9        29.88F                  
PRICE          CLEAR     65  22  19 E5        29.88F                  
ROOSEVELT        N/A     70  14  11 W12G17    29.82F                  
DUCHESNE       CLEAR     66  12  12 W13       29.84F                  
VERNAL         CLEAR     69  11  10 SW12      29.79F                  

$$

UTZ121>131-220100-

SOUTHERN UTAH
  
CITY           SKY/WX    TMP DP  RH WIND       PRES   REMARKS
BRYCE CANYON   CLEAR     59  24  26 W16G23    30.04F                  
CEDAR CITY     CLEAR     66  26  22 S17G26    29.95F                  
MILFORD        CLEAR     72  25  17 S24G36    29.87F                  
PANGUITCH        N/A     63  21  20 NW10      30.01S                  
ST GEORGE      CLEAR     80  31  16 W9        29.84F                  
HANKSVILLE     CLEAR     73  23  15 CALM      29.83F                  
BLANDING         N/A     65  26  22 S12G21    30.04F                  

$$

REGIONAL REPORTS     COLORADO/ARIZONA
  
CITY           SKY/WX    TMP DP  RH WIND       PRES   REMARKS
CRAIG, CO      CLEAR     61  17  18 W13       29.84F                  
GRAND JUNCTION CLEAR     69  28  21 CALM      29.85F                  
RIFLE, CO      CLEAR     67  17  14 W14       29.87F                  
MONTROSE, CO   CLEAR     67  22  18 SW10      29.91F                  
CORTEZ, CO     CLEAR     65  25  22 W9        29.99F                  
COLORADO CITY    N/A     73  32  21 NW7       29.98F                  
PAGE, AZ       PTCLDY    76  28  17 W5        29.88F                  
GRAND CANYON   CLEAR     63  33  32 SW12      30.07F                  
KINGMAN, AZ    CLEAR     77  38  24 SW14      29.92F                  
FLAGSTAFF, AZ  CLEAR     61  36  39 SW14      30.10F                  

$$

REGIONAL REPORTS    NEVADA/IDAHO/WYOMING
  
CITY           SKY/WX    TMP DP  RH WIND       PRES   REMARKS
LAS VEGAS, NV  MOSUNNY   85  29  13 S8        29.80F                  
ELY, NY        CLEAR     66  12  12 S15G21    29.93S                  
ELKO, NV       LGT RAIN  71  14  11 W23       29.81F                  
POCATELLO, ID  PTCLDY    65  27  23 SW16      29.72F                  
BURLEY, ID     MOCLDY    59  38  45 SW7       29.70F                  
EVANSTON, WY   CLEAR     59  13  16 W22G32    29.89F                  
ROCK SPRINGS,  CLEAR     60  15  17 W23G37    29.83S                  
KEMMERER, WY   PTCLDY    57  10  15 MISG      29.87S                  

$$
  
