ASUS45 KSLC 220210
RWRUT 

UTAH REGIONAL WEATHER ROUNDUP
NATIONAL WEATHER SERVICE SALT LAKE CITY UT
800 PM MDT FRI OCT 21 2022

UTZ101>105-107>111-220300-

NORTHERN UTAH
  
CITY           SKY/WX    TMP DP  RH WIND       PRES   REMARKS
BRIGHAM CITY   PTCLDY    62  17  17 MISG      29.71F                  
HILL AFB       CLEAR     59  20  22 SE9       29.73F                  
LOGAN          PTCLDY    63  20  19 S12       29.70F                  
OGDEN          CLEAR     63  21  20 S12       29.72F                  
SALT LAKE CITY PTCLDY    65  20  17 SE9       29.73F                  
TOOELE VALLEY  CLEAR     55  25  30 S9        29.74F                  
WENDOVER       PTCLDY    66  14  13 W9        29.71F                  
HEBER CITY       N/A     57  12  17 CALM      29.83S                  
WEST JORDAN    CLEAR     58  28  32 SW7       29.78F                  

$$

UTZ024>027-106-112>120-220300-

CENTRAL/NORTHEAST UTAH
  
CITY           SKY/WX    TMP DP  RH WIND       PRES   REMARKS
PROVO AIRPORT  CLEAR     56  33  42 NE5       29.80F                  
MOAB/CANYONLAN PTCLDY    63  21  20 SW13      29.81S                  
DELTA          CLEAR     59  12  15 S14       29.82S                  
MANTI            N/A     56  15  20 S8        29.87S                  
PRICE          CLEAR     53  23  31 N12       29.88R                  
ROOSEVELT        N/A     54  19  26 W8        29.84R                  
DUCHESNE       CLEAR     59  14  17 W9        29.86R                  
VERNAL         CLEAR     65  14  14 W10G21    29.81R                  

$$

UTZ121>131-220300-

SOUTHERN UTAH
  
CITY           SKY/WX    TMP DP  RH WIND       PRES   REMARKS
BRYCE CANYON   CLEAR     51  19  28 W16       30.05R                  
CEDAR CITY     CLEAR     57  25  29 SW10      29.96R                  
MILFORD        CLEAR     63  27  25 S16       29.89R                  
PANGUITCH        N/A     50  21  32 SE12      30.03R                  
ST GEORGE      CLEAR     73  33  23 SW5       29.84R                  
HANKSVILLE     CLEAR     66  23  19 S9        29.83S                  
BLANDING         N/A     58  26  28 CALM      30.03S                  

$$

REGIONAL REPORTS     COLORADO/ARIZONA
  
CITY           SKY/WX    TMP DP  RH WIND       PRES   REMARKS
CRAIG, CO      CLEAR     57  18  21 SW13G23   29.86R                  
GRAND JUNCTION CLEAR     56  32  40 SE7       29.84R                  
RIFLE, CO      CLEAR     56  19  23 S8        29.88S                  
MONTROSE, CO   CLEAR     59  26  28 SW9       29.93R                  
CORTEZ, CO     CLEAR     47  30  51 E8        29.98S                  
COLORADO CITY    N/A     59  32  36 SW6       29.98R                  
PAGE, AZ       CLEAR     71  29  21 SW3       29.88R                  
GRAND CANYON   CLEAR     46  33  60 CALM      30.07R                  
KINGMAN, AZ    CLEAR     65  39  38 S8        29.92R                  
FLAGSTAFF, AZ  CLEAR     53  38  56 SW5       30.10R                  

$$

REGIONAL REPORTS    NEVADA/IDAHO/WYOMING
  
CITY           SKY/WX    TMP DP  RH WIND       PRES   REMARKS
LAS VEGAS, NV  PTCLDY    80  35  19 SW5       29.79S                  
ELY, NY        CLEAR     50  11  20 S12       29.91S                  
ELKO, NV       MOCLDY    62  19  19 SW10      29.78S                  
POCATELLO, ID  MOCLDY    61  24  24 S12       29.67F                  
BURLEY, ID     CLOUDY    56  38  50 S5        29.66F                  
EVANSTON, WY   CLEAR     50  15  24 SW14      29.86F                  
ROCK SPRINGS,  CLEAR     55  15  20 W21G32    29.82S                  
KEMMERER, WY   CLEAR     52  10  19 MISG      29.84F                  

$$
  
