ASUS46 KPDT 232004
RWRPDT
PENDLETON REGIONAL WEATHER ROUNDUP
NATIONAL WEATHER SERVICE PENDLETON OREGON
100 PM PDT SUN OCT 23 2022

NOTE: FAIR INDICATES FEW OR NO CLOUDS BELOW 12,000 FEET WITH NO
SIGNIFICANT WEATHER AND/OR OBSTRUCTIONS TO VISIBILITY.

# INDICATES UNOFFICIAL STATION AND DATA

WAZ520-232110-
EAST SLOPES OF WASHINGTON CASCADES

CITY            SKY/WX      TMP DP  RH  WIND    PRES   REMARKS
#BULLFROG       N/A         49  31  50  W10     N/A                          
#ELK HTS DOT    N/A         50  50  100 NW2     N/A                          
#NILE           N/A         50  31  48  SW6     29.41R                       
#TROUT LAKE 1E  N/A         49  34  56  N2      30.11R                       
$$

WAZ521-232110-
SIMCOE HIGHLANDS

CITY            SKY/WX      TMP DP  RH  WIND    PRES   REMARKS
#SATUS PASS DOT N/A         46  27  47  S6      N/A                          
#CENTERVILLE 1SWN/A         51  37  59  NW9     30.08R                       
#LYLE 6NE       N/A         51  40  66  N10     30.11S                       
#PITT 4SE       N/A         46  38  73  SW5     30.15R                       
$$

WAZ026-232110-
KITTITAS VALLEY

CITY            SKY/WX      TMP DP  RH  WIND    PRES   REMARKS
ELLENSBURG AP   FAIR        54  28  36  SW3     30.05S                       
#ELLENSBURG CWU N/A         54  31  41  NW3     30.03R                       
#ELLENSBURG 1E  N/A         52  32  46  NW1     30.11R                       
#MANASTASH RDG  N/A         49  28  44  W3      N/A                          
#ROCKY CYN DOT  N/A         58  32  37  NW9     N/A                          
#RYEGRASS DOT   N/A         46  26  45  W8      N/A                          
#THORP 6N       N/A         49  34  56  W2      30.02S                       
$$

WAZ027-232110-
YAKIMA VALLEY

CITY            SKY/WX      TMP DP  RH  WIND    PRES   REMARKS
SUNNYSIDE AP    FAIR        54  36  50  SW3     30.09S                       
YAKIMA AIRPORT  FAIR        54  29  38  W5      30.08R                       
YAKIMA-VAGABOND FAIR        53  24  32  CALM    30.03S                       
#MABTON         N/A         53  37  54  W5      30.09R                       
#NACHES 2SW     N/A         50  33  52  CALM    30.04S                       
#OUTLOOK DOT    N/A         54  31  41  CALM    N/A                          
#TERRACE HTS    N/A         59  36  42  CALM    30.06R                       
#I82 S UMTANUM RN/A         51  26  37  SW3     N/A                          
#UNION GAP DOT  N/A         55  30  38  E2      N/A                          
#ZILLAH DOT     N/A         55  25  31  S2      N/A                          
$$

WAZ028-232110-
LOWER COLUMBIA BASIN...WASHINGTON

CITY            SKY/WX      TMP DP  RH  WIND    PRES   REMARKS
PASCO           FAIR        58  29  33  NW6     30.09R                       
RICHLAND AWOS   FAIR        59  32  36  W6      30.10R                       
#BASIN CITY 5SW N/A         56  36  47  NW2     30.07R                       
#BENTON CITY    N/A         54  37  52  CALM    29.99S                       
#CONNELL 5N     N/A         52  37  56  CALM    30.09S                       
#ELTOPIA 6NW    N/A         53  35  50  CALM    29.04S                       
#KAHLOTUS       N/A         47  35  63  W6      30.08S                       
#KENNEWICK 3S   N/A         58  36  44  CALM    30.09S                       
#SAGEMOOR 2W    N/A         53  37  54  W2      30.07S                       
#TOUCHET 2S     N/A         54  42  64  CALM    30.07S                       
$$

WAZ029-232110-
FOOTHILLS OF THE BLUES...WASHINGTON

CITY            SKY/WX      TMP DP  RH  WIND    PRES   REMARKS
WALLA WALLA AP  CLOUDY      50  34  54  SW7     30.08S                       
#CLYDE 6NW      N/A         49  34  56  W7      30.07R                       
#LOWDEN 2SE     N/A         54  40  59  CALM    29.96R                       
#PRESCOTT       N/A         52  41  66  CALM    30.09S                       
#WALLA WALLA 5E N/A         51  41  68  SW8     N/A                          
#WHITMAN MISSIONN/A         53  39  59  W3      30.18S                       
$$

WAZ030-232110-
BLUE MOUNTAINS...WASHINGTON
 
CITY            SKY/WX      TMP DP  RH  WIND    PRES   REMARKS
$$

ORZ009-041-WAZ024-232110-
COLUMBIA RIVER GORGE

CITY            SKY/WX      TMP DP  RH  WIND    PRES   REMARKS
HOOD RIVER AP   FAIR        55  36  49  W3      30.14R                       
THE DALLES AP   FAIR        60  35  39  NW10    30.11S                       
#CELILO DOT     N/A         54  34  47  SW6     N/A                          
#LYLE           N/A         55  38  53  W12     30.13S                       
#RUFUS DOT      N/A         57  33  40  W10     N/A                          

$$

ORZ510-232110-
NORTH CENTRAL OREGON

CITY            SKY/WX      TMP DP  RH  WIND    PRES   REMARKS
#COW CYN RST AREN/A         42  30  62  W8      N/A                          
#DUFUR          N/A         51  34  52  NW2     30.09S                       
#GRASS VALLEY 1SN/A         47  35  63  W7      30.07S                       
#KENT DOT       N/A         46  25  43  W10     N/A                          
#WAPANITIA AIRPON/A         50  37  61  W1      30.15R                       
#WASCO DOT      N/A         54  35  48  W7      N/A                          
#WASCO 5NE      N/A         50  37  61  N8      30.09S                       
$$

ORZ511-232110-
CENTRAL OREGON

CITY            SKY/WX      TMP DP  RH  WIND    PRES   REMARKS
MADRAS AIRPORT  FAIR        48  32  54  NW5     30.13S                       
PRINEVILLE AP   MOCLDY      46  28  49  VRB7    30.10R                       
REDMOND AIRPORT MOSUNNY     50  29  44  N10     30.10R                       
#ASHWOOD SCHOOL N/A         45  34  65  NW5     30.06S                       
#CULVER         N/A         47  32  56  W1      29.48S                       
#PRINEVILLE     N/A         45  32  60  CALM    30.23S                       

$$


ORZ509-232110-
EAST SLOPES OF OREGON CASCADES

CITY            SKY/WX      TMP DP  RH  WIND    PRES   REMARKS
SISTERS AWOS    N/A         46  28  49  W15     30.06R WCI 40                
SUNRIVER AWOS   MOCLDY      43  25  49  S10     30.12R                       
#CAMP SHERMAN   N/A         48  31  51  CALM    30.16R                       
#LAVA BUTTE DOT N/A         43  22  43  S1      N/A                          
#SISTERS ODOT   N/A         47  26  44  W6      N/A                          
#WANOGA BUTTE D N/A         33  16  49  NE2     N/A                          

$$

ORZ044-232110-
LOWER COLUMBIA BASIN...OREGON

CITY            SKY/WX      TMP DP  RH  WIND    PRES   REMARKS
HERMISTON       FAIR        56  36  47  W10     30.10S                       
#BOARDMAN SCHOOLN/A         56  35  45  CALM    30.06R                       
#ECHO 8SW       N/A         53  39  59  W9      30.13R                       
#I-84 EX 198 DOTN/A         51  35  54  E10     N/A                          
#UMATILLA       N/A         57  37  47  CALM    30.00S                       
$$

ORZ507-232110-
NORTHERN FOOTHILLS OF THE BLUES

CITY            SKY/WX      TMP DP  RH  WIND    PRES   REMARKS
PENDLETON AIRPT FAIR        52  37  56  W14     30.09R                       
#ATHENA         N/A         49  36  61  S5      30.10S                       
#CAYUSE         N/A         48  37  65  W7      30.09R                       
#HELIX SCHOOL   N/A         48  38  68  W6      30.10S                       
#HOLDMAN 6E     N/A         47  39  74  SW2     29.89S                       
#M-FREEWATER 5SEN/A         50  39  66  SW2     30.07R                       
#PDT SUNRIDGE   N/A         51  36  56  SW2     30.05S                       
#TUTUILLA       N/A         51  37  59  CALM    30.14S                       
#UMAPINE 2E     N/A         52  39  61  CALM    30.09R                       

$$

ORZ508-232110-
SOUTHERN FOOTHILLS OF THE BLUES

CITY            SKY/WX      TMP DP  RH  WIND    PRES   REMARKS
#AJAX           N/A         48  35  60  SW9     30.08S                       
#HEPPNER EOC    N/A         46  34  63  CALM    30.05S                       
#HEPPNER 4NE    N/A         43  34  70  SW7     30.12R                       
#OLEX 4N        N/A         51  37  59  SW5     30.11S                       
#RUGGS 2SW      N/A         43  34  70  W7      30.16S                       

$$

ORZ502-503-232110-
BLUE MOUNTAINS

CITY            SKY/WX      TMP DP  RH  WIND    PRES   REMARKS
MEACHAM         MOCLDY      39  32  76  W5      30.05R                       
#BATTLE MTN DOT N/A         39  25  57  N1      N/A                          
#LADD CYN SMT   N/A         41  32  70  CALM    N/A                          
#LADD CREEK ODOTN/A         N/A N/A N/A NW8     N/A                          
#N POWDER DOT   N/A         44  27  51  N10     N/A                          
#TOLLGATE       N/A         30  29  96  CALM    30.02S                       
#TROY SCHOOL    N/A         44  39  82  CALM    29.93S                       
#WESTON 4E      N/A         40  36  85  SW7     30.08R                       
$$

ORZ505-232110-
JOHN DAY BASIN

CITY            SKY/WX      TMP DP  RH  WIND    PRES   REMARKS
JOHN DAY        CLOUDY      39  32  76  NW3     30.08R                       
#DAYVILLE SCHOOLN/A         46  29  51  N1      30.03S                       
#MITCHELL 8NW   N/A         42  31  65  NW1     30.18R                       
#MONUMENT HS    N/A         48  31  51  S6      29.98S                       
#MT. VERNON 5SE N/A         38  32  79  N2      30.06S                       
$$

ORZ506-232110-
OCHOCO AND JOHN DAY HIGHLANDS

CITY            SKY/WX      TMP DP  RH  WIND    PRES   REMARKS
#BUCK CREEK DOT N/A         38  25  59  N14     N/A    WCI 30                
#HORSE RIDGE DO N/A         40  24  52  NW5     N/A                          
#KEYES SMT DOT  N/A         37  27  67  W9      N/A                          
#PAULINA ODOT   N/A         44  27  51  W3      N/A                          
#PRAIRIE CITY   N/A         39  35  85  CALM    30.01R                       
#SENECA 9NW     N/A         34  30  85  CALM    30.11S                       
$$

ORZ049-232110-
GRANDE RONDE VALLEY

CITY            SKY/WX      TMP DP  RH  WIND    PRES   REMARKS
LA GRANDE       MOCLDY      44  32  62  NW12    30.07R WCI 38                
#COVE 6NW       N/A         43  35  73  W2      30.11S                       
#ELGIN 1E       N/A         44  31  60  W1      N/A                          
#IMBLER SCHOOL  N/A         42  31  65  CALM    30.02R                       
#ISLAND CITY 4N N/A         54  48  80  S1      30.17S                       
#LADD CYN DOT   N/A         43  33  67  NW8     N/A                          
#UNION 1S       N/A         43  34  70  NW2     30.11S                       
$$

ORZ050-232110-
WALLOWA COUNTY

CITY            SKY/WX      TMP DP  RH  WIND    PRES   REMARKS
JOSEPH AIRPORT  CLOUDY      37  30  75  MISG    30.04R                       
#ENTERPRISE HS  N/A         37  32  82  N5      30.01R                       
#IMNAHA SCHOOL  N/A         43  40  89  CALM    30.11R                       
#JOSEPH 3N      N/A         36  28  72  NW6     30.05R                       
#LOSTINE 3SE    N/A         38  31  76  E2      30.10R                       
#MT HOWARD 8000 N/A         19  16  88  CALM    29.84R                       
#WALLOWA LAKE   N/A         34  29  82  NE2     30.05R                       
#WALLOWA SCHOOL N/A         40  33  76  CALM    30.12R                       



$$
