ASUS46 KPDT 232110
RWRPDT
PENDLETON REGIONAL WEATHER ROUNDUP
NATIONAL WEATHER SERVICE PENDLETON OREGON
200 PM PDT SUN OCT 23 2022

NOTE: FAIR INDICATES FEW OR NO CLOUDS BELOW 12,000 FEET WITH NO
SIGNIFICANT WEATHER AND/OR OBSTRUCTIONS TO VISIBILITY.

# INDICATES UNOFFICIAL STATION AND DATA

WAZ520-232210-
EAST SLOPES OF WASHINGTON CASCADES

CITY            SKY/WX      TMP DP  RH  WIND    PRES   REMARKS
#BULLFROG       N/A         49  31  50  W10     N/A                          
#ELK HTS DOT    N/A         50  50  100 NW3     N/A                          
#GLENWOOD       N/A         54  36  50  S5      30.14R                       
#NILE           N/A         52  30  43  W3      29.41R                       
#TROUT LAKE 1E  N/A         51  35  54  VRB1    30.11S                       
$$

WAZ521-232210-
SIMCOE HIGHLANDS

CITY            SKY/WX      TMP DP  RH  WIND    PRES   REMARKS
#SATUS PASS DOT N/A         48  30  49  SW5     N/A                          
#CENTERVILLE 1SWN/A         52  38  59  W10     30.08R                       
#LYLE 6NE       N/A         53  39  59  S10     30.12R                       
#PITT 4SE       N/A         48  37  65  W7      30.15R                       
$$

WAZ026-232210-
KITTITAS VALLEY

CITY            SKY/WX      TMP DP  RH  WIND    PRES   REMARKS
ELLENSBURG AP   FAIR        56  27  33  SW6     30.06R HAZE                  
#ELLENSBURG CWU N/A         55  29  37  CALM    30.03S                       
#ELLENSBURG 1E  N/A         54  32  43  CALM    30.10S                       
#KITTITAS 3S    N/A         54  35  48  CALM    30.03R                       
#MANASTASH RDG  N/A         50  25  37  S1      N/A                          
#ROCKY CYN DOT  N/A         56  30  37  W12     N/A                          
#RYEGRASS DOT   N/A         50  21  32  W9      N/A                          
#THORP 6N       N/A         51  35  54  SW1     30.03R                       
$$

WAZ027-232210-
YAKIMA VALLEY

CITY            SKY/WX      TMP DP  RH  WIND    PRES   REMARKS
YAKIMA AIRPORT  FAIR        57  29  34  MISG    30.08S                       
YAKIMA-VAGABOND FAIR        55  22  27  W5      30.03S                       
#MABTON         N/A         56  37  49  W2      30.09S                       
#NACHES 2SW     N/A         53  32  45  E3      30.04S                       
#OUTLOOK DOT    N/A         57  29  34  CALM    N/A                          
#PARKER DOT     N/A         58  28  32  CALM    N/A                          
#TERRACE HTS    N/A         57  30  35  CALM    30.05S                       
#I82 S UMTANUM RN/A         53  22  29  SW6     N/A                          
#UNION GAP DOT  N/A         58  30  34  SE3     N/A                          
#ZILLAH DOT     N/A         56  24  29  SE3     N/A                          
$$

WAZ028-232210-
LOWER COLUMBIA BASIN...WASHINGTON

CITY            SKY/WX      TMP DP  RH  WIND    PRES   REMARKS
PASCO           FAIR        59  28  30  N5      30.11R                       
RICHLAND AWOS   FAIR        60  32  35  S7      30.11R                       
#BASIN CITY 5SW N/A         58  36  44  W6      30.09R                       
#BENTON CITY    N/A         58  38  47  CALM    30.00S                       
#CONNELL 5N     N/A         56  37  49  CALM    30.11R                       
#ELTOPIA 6NW    N/A         59  36  42  CALM    29.06R                       
#KAHLOTUS       N/A         51  34  52  N12     30.09R                       
#KENNEWICK 3S   N/A         58  38  47  CALM    30.11R                       
#SAGEMOOR 2W    N/A         54  35  48  W2      30.09R                       
#TOUCHET 2S     N/A         56  39  53  CALM    30.09R                       
$$

WAZ029-232210-
FOOTHILLS OF THE BLUES...WASHINGTON

CITY            SKY/WX      TMP DP  RH  WIND    PRES   REMARKS
WALLA WALLA AP  CLOUDY      50  34  54  SW10    30.10R                       
#CLYDE 6NW      N/A         51  33  50  W9      30.09R                       
#DELANEY DOT    N/A         52  36  54  SW5     N/A                          
#LOWDEN 2SE     N/A         55  36  49  CALM    29.98R                       
#PRESCOTT       N/A         54  40  59  CALM    30.10R                       
#WALLA WALLA 5E N/A         52  41  66  W6      N/A                          
#WHITMAN MISSIONN/A         54  36  50  W3      30.20R                       
$$

WAZ030-232210-
BLUE MOUNTAINS...WASHINGTON
 
CITY            SKY/WX      TMP DP  RH  WIND    PRES   REMARKS
$$

ORZ009-041-WAZ024-232210-
COLUMBIA RIVER GORGE

CITY            SKY/WX      TMP DP  RH  WIND    PRES   REMARKS
HOOD RIVER AP   FAIR        55  34  45  CALM    30.14S                       
THE DALLES AP   FAIR        61  34  36  NW14    30.12R                       
#CELILO DOT     N/A         55  33  43  W6      N/A                          
#LYLE           N/A         56  38  51  W12     30.14R                       
#RUFUS DOT      N/A         59  34  39  W12     N/A                          

$$

ORZ510-232210-
NORTH CENTRAL OREGON

CITY            SKY/WX      TMP DP  RH  WIND    PRES   REMARKS
#COW CYN RST AREN/A         46  30  53  SW9     N/A                          
#DUFUR          N/A         54  36  50  NW5     30.10R                       
#GRASS VALLEY 1SN/A         49  34  56  NW7     30.09S                       
#KENT DOT       N/A         48  22  35  W8      N/A                          
#WAPANITIA AIRPON/A         52  36  54  NW7     30.15S                       
#WASCO DOT      N/A         56  31  38  W9      N/A                          
#WASCO 5NE      N/A         52  35  52  N7      30.10R                       
$$

ORZ511-232210-
CENTRAL OREGON

CITY            SKY/WX      TMP DP  RH  WIND    PRES   REMARKS
MADRAS AIRPORT  PTCLDY      50  32  50  NW5     30.14R                       
PRINEVILLE AP   PTCLDY      46  28  49  N5      30.11R                       
REDMOND AIRPORT MOCLDY      51  27  39  NE6     30.10S                       
#ASHWOOD SCHOOL N/A         48  31  51  SW2     30.06F                       
#CULVER         N/A         49  31  50  CALM    29.49S                       
#PRINEVILLE     N/A         47  30  51  CALM    30.24R                       

$$


ORZ509-232210-
EAST SLOPES OF OREGON CASCADES

CITY            SKY/WX      TMP DP  RH  WIND    PRES   REMARKS
SISTERS AWOS    N/A         46  28  49  W13G25  30.06S WCI 40                
SUNRIVER AWOS   MOSUNNY     46  27  47  S10     30.12S                       
#CAMP SHERMAN   N/A         50  30  46  CALM    30.16S                       
#LAVA BUTTE DOT N/A         44  21  40  W1      N/A                          
#SISTERS ODOT   N/A         46  26  45  SW8     N/A                          
#WANOGA BUTTE D N/A         36  16  44  NE2     N/A                          

$$

ORZ044-232210-
LOWER COLUMBIA BASIN...OREGON

CITY            SKY/WX      TMP DP  RH  WIND    PRES   REMARKS
HERMISTON       FAIR        57  34  42  SW7     30.11R                       
#BOARDMAN SCHOOLN/A         58  36  44  CALM    30.07R                       
#ECHO 8SW       N/A         55  39  55  W7      30.13S                       
#I-84 EX 198 DOTN/A         53  34  48  E12     N/A                          
#UMATILLA       N/A         58  36  44  CALM    30.01R                       
$$

ORZ507-232210-
NORTHERN FOOTHILLS OF THE BLUES

CITY            SKY/WX      TMP DP  RH  WIND    PRES   REMARKS
PENDLETON AIRPT FAIR        53  37  54  W12     30.10R                       
#ATHENA         N/A         52  35  52  S5      30.12R                       
#CAYUSE         N/A         50  36  58  NW9     30.10R                       
#HELIX SCHOOL   N/A         52  36  54  CALM    30.12R                       
#HOLDMAN 6E     N/A         49  38  66  W7      29.91R                       
#M-FREEWATER 5SEN/A         50  37  61  CALM    30.08R                       
#PDT SUNRIDGE   N/A         54  35  48  NW2     30.07R                       
#TUTUILLA       N/A         51  34  52  W3      30.15R                       
#UMAPINE 2E     N/A         54  39  57  CALM    30.10R                       

$$

ORZ508-232210-
SOUTHERN FOOTHILLS OF THE BLUES

CITY            SKY/WX      TMP DP  RH  WIND    PRES   REMARKS
#AJAX           N/A         50  34  54  SW9     30.09S                       
#HEPPNER EOC    N/A         47  34  60  CALM    30.06R                       
#HEPPNER 4NE    N/A         45  35  68  SW7     30.13R                       
#OLEX 4N        N/A         54  36  50  S2      30.11S                       
#RUGGS 2SW      N/A         45  34  65  W8      30.17R                       

$$

ORZ502-503-232210-
BLUE MOUNTAINS

CITY            SKY/WX      TMP DP  RH  WIND    PRES   REMARKS
MEACHAM         MOCLDY      39  32  76  VRB3    30.07R                       
#BATTLE MTN DOT N/A         39  23  52  CALM    N/A                          
#LADD CYN SMT   N/A         42  31  65  CALM    N/A                          
#LADD CREEK ODOTN/A         N/A N/A N/A N9      N/A                          
#N POWDER DOT   N/A         45  27  49  N12     N/A    WCI 39                
#TOLLGATE       N/A         30  29  96  CALM    30.05R                       
#TROY SCHOOL    N/A         48  41  77  CALM    29.93S                       
#WESTON 4E      N/A         41  33  73  CALM    30.10R                       
$$

ORZ505-232210-
JOHN DAY BASIN

CITY            SKY/WX      TMP DP  RH  WIND    PRES   REMARKS
JOHN DAY        CLOUDY      40  31  70  CALM    30.10R                       
#DAYVILLE SCHOOLN/A         47  29  49  W1      30.06R                       
#MITCHELL 8NW   N/A         43  32  65  CALM    30.18S                       
#MONUMENT HS    N/A         49  30  48  SW6     30.00R                       
#MT. VERNON 5SE N/A         38  30  73  CALM    30.08R                       
$$

ORZ506-232210-
OCHOCO AND JOHN DAY HIGHLANDS

CITY            SKY/WX      TMP DP  RH  WIND    PRES   REMARKS
#BUCK CREEK DOT N/A         41  21  44  NW10    N/A                          
#HORSE RIDGE DO N/A         42  22  45  SW2     N/A                          
#KEYES SMT DOT  N/A         40  27  59  NW8     N/A                          
#PAULINA ODOT   N/A         48  27  44  W6      N/A                          
#PRAIRIE CITY   N/A         41  33  73  W3      30.03R                       
#SENECA 9NW     N/A         35  31  85  CALM    30.13R                       
$$

ORZ049-232210-
GRANDE RONDE VALLEY

CITY            SKY/WX      TMP DP  RH  WIND    PRES   REMARKS
LA GRANDE       MOCLDY      46  31  56  NW14    30.08R WCI 40                
#COVE 6NW       N/A         45  33  63  CALM    30.13R                       
#ELGIN 1E       N/A         46  31  56  CALM    N/A                          
#IMBLER SCHOOL  N/A         44  30  58  W1      30.03R                       
#ISLAND CITY 4N N/A         56  44  64  SW2     30.18R                       
#LADD CYN DOT   N/A         46  31  56  N9      N/A                          
#UNION 1S       N/A         45  33  63  CALM    30.12R                       
$$

ORZ050-232210-
WALLOWA COUNTY

CITY            SKY/WX      TMP DP  RH  WIND    PRES   REMARKS
JOSEPH AIRPORT  CLOUDY      39  29  67  MISG    30.05R                       
#ENTERPRISE HS  N/A         39  31  73  NW5     30.03R                       
#IMNAHA SCHOOL  N/A         45  39  79  CALM    30.13R                       
#JOSEPH 3N      N/A         38  28  67  NW2     30.07R                       
#LOSTINE 3SE    N/A         41  31  67  E2      30.12R                       
#MT HOWARD 8000 N/A         20  17  88  CALM    29.88R                       
#WALLOWA LAKE   N/A         36  30  79  NE3     30.06R                       
#WALLOWA SCHOOL N/A         44  33  65  CALM    30.13R                       



$$
