ASUS46 KPQR 231810
RWROR 

OREGON REGIONAL WEATHER ROUNDUP
NATIONAL WEATHER SERVICE PORTLAND OR
1100 AM PDT SUN OCT 23 2022

NOTE: "FAIR" INDICATES FEW OR NO CLOUDS BELOW 12,000 FEET WITH
NO SIGNIFICANT WEATHER AND/OR OBSTRUCTIONS TO VISIBILITY.

ORZ001>013-231900-
NORTHWEST OREGON

  
CITY           SKY/WX    TMP DP  RH WIND       PRES   REMARKS
ASTORIA        CLOUDY    53  49  86 S3        30.14R                  
6HR MIN TEMP:  39; 6HR MAX TEMP:  53;                                

TILLAMOOK      SUNNY     52  46  82 CALM      30.18R                  
FLORENCE       FAIR      50  50 100 CALM      30.20R                  
PORTLAND       PTSUNNY   53  44  71 CALM      30.16R                  
6HR MIN TEMP:  48; 6HR MAX TEMP:  53;                                

VANCOUVER WA   MOSUNNY   52  44  74 SE5       30.17R                  
6HR MIN TEMP:  48; 6HR MAX TEMP:  53;                                

SCAPPOOSE      CLOUDY    51  45  79 CALM      30.15R                  
6HR MIN TEMP:  44; 6HR MAX TEMP:  52;                                

HILLSBORO      CLOUDY    48  44  86 CALM      30.16R                  
6HR MIN TEMP:  42; 6HR MAX TEMP:  48;                                

AURORA         CLOUDY    51  46  83 SW6       30.18R                  
6HR MIN TEMP:  43; 6HR MAX TEMP:  51;                                

MCMINNVILLE    NOT AVBL                                               
SALEM          CLOUDY    51  45  79 S8        30.16R                  
6HR MIN TEMP:  43; 6HR MAX TEMP:  51; 6HR PCP: TRACE;                

CORVALLIS      SUNNY     51  46  83 VRB6      30.19R                  
EUGENE         MOSUNNY   53  46  77 SW5       30.19R                  
6HR MIN TEMP:  38; 6HR MAX TEMP:  53;                                

CRESWELL       MOSUNNY   52  46  82 S9        30.18R                  
$$

ORZ021-028-231900-
SOUTHWEST OREGON

  
CITY           SKY/WX    TMP DP  RH WIND       PRES   REMARKS
NORTH BEND     SUNNY     51  49  92 SE7       30.22R                  
6HR MIN TEMP:  43; 6HR MAX TEMP:  51; 6HR PCP:  0.01;                

BROOKINGS      SUNNY     56  40  55 VRB5      30.18S                  
ROSEBURG       CLOUDY    44  43  96 VRB3      30.20R                  
6HR MIN TEMP:  41; 6HR MAX TEMP:  45;                                

SEXTON SUMMIT  CLOUDY    36  35  96 VRB5      30.13R FOG              
6HR MIN TEMP:  33; 6HR MAX TEMP:  37;                                

GRANTS PASS    CLOUDY    46  43  87 CALM      30.22S                  
MEDFORD        MOSUNNY   50  41  71 CALM      30.17S                  
6HR MIN TEMP:  40; 6HR MAX TEMP:  50;                                

$$

ORZ014>016-041-231900-
COLUMBIA GORGE

  
CITY           SKY/WX    TMP DP  RH WIND       PRES   REMARKS
TROUTDALE      CLOUDY    53  45  74 SW3       30.16R                  
6HR MIN TEMP:  47; 6HR MAX TEMP:  53;                                

HOOD RIVER     SUNNY     52  39  62 W5        30.11S                  
THE DALLES     SUNNY     57  37  47 NW14      30.10R                  
6HR MIN TEMP:  44; 6HR MAX TEMP:  57;                                

$$

ORZ029>031-041-044-049-050-061>064-502-503-505>511-231900-
EASTERN OREGON

  
CITY           SKY/WX    TMP DP  RH WIND       PRES   REMARKS
MADRAS         MOSUNNY   45  32  61 CALM      30.12R                  
REDMOND        MOSUNNY   46  32  58 CALM      30.08R                  
6HR MIN TEMP:  29; 6HR MAX TEMP:  46; 6HR PCP: TRACE;                

BEND           NOT AVBL                                               
PRINEVILLE     MOSUNNY   43  30  61 VRB3      30.09R                  
KLAMATH FALLS  PTSUNNY   43  29  57 NW8       30.09R                  
6HR MIN TEMP:  27; 6HR MAX TEMP:  43;                                

LAKEVIEW       CLOUDY    39  26  59 NE7       30.07R                  
HERMISTON      SUNNY     52  38  58 W9        30.09R                  
6HR MIN TEMP:  44; 6HR MAX TEMP:  52;                                

PENDLETON      MOSUNNY   49  36  61 W10       30.08R                  
6HR MIN TEMP:  42; 6HR MAX TEMP:  49; 6HR PCP: TRACE;                

JOHN DAY       CLOUDY    37  32  83 W3        30.05S                  
MEACHAM        PTSUNNY   36  32  85 CALM      30.02R                  
6HR MIN TEMP:  33; 6HR MAX TEMP:  36; 6HR PCP:  0.01;                

LA GRANDE      PTSUNNY   43  34  70 W10       30.05R                  
6HR MIN TEMP:  36; 6HR MAX TEMP:  43; 6HR PCP:  0.04;                

BAKER CITY     MOSUNNY   41  29  62 N17G28    30.02R                  
6HR MIN TEMP:  26; 6HR MAX TEMP:  42;                                

BURNS          PTSUNNY   39  26  59 NW9G21    30.05R                  
6HR MIN TEMP:  20; 6HR MAX TEMP:  40;                                

ROME             N/A     43  24  47 NW16G24   30.00R                  
6HR MIN TEMP:  36; 6HR MAX TEMP:  43;                                

ONTARIO        CLOUDY    49  30  48 NW20G26   30.02R                  
6HR MIN TEMP:  36; 6HR MAX TEMP:  49;                                

$$


OTHER REGIONAL REPORTS
  
CITY           SKY/WX    TMP DP  RH WIND       PRES   REMARKS
SEATTLE        CLOUDY    47  44  90 SW5       30.14R                  
6HR MIN TEMP:  42; 6HR MAX TEMP:  48;                                

SPOKANE        MOSUNNY   42  35  76 VRB3      30.00R                  
6HR MIN TEMP:  32; 6HR MAX TEMP:  42;                                

VANCOUVER BC   CLOUDY    50  45  81 E6        30.14R                  
PRINCE GEORGE  CLOUDY    36  34  93 S10       29.94F WCI  28          
DAWSON CREEK   SUNNY     34  23  64 S8        29.96F                  
WHITEHORSE     PTSUNNY   32  30  93 N7        29.63F                  
BOISE          MOSUNNY   45  31  58 NW16G26   29.96R                  
6HR MIN TEMP:  34; 6HR MAX TEMP:  45;                                

REDDING        NOT AVBL                                               
SAN FRANCISCO  SUNNY     61  41  47 CALM      30.02S                  
6HR MIN TEMP:  51; 6HR MAX TEMP:  61;                                


$$

  
