ASUS46 KPDT 232010
RWRPDT
PENDLETON REGIONAL WEATHER ROUNDUP
NATIONAL WEATHER SERVICE PENDLETON OREGON
100 PM PDT SUN OCT 23 2022

NOTE: FAIR INDICATES FEW OR NO CLOUDS BELOW 12,000 FEET WITH NO
SIGNIFICANT WEATHER AND/OR OBSTRUCTIONS TO VISIBILITY.

# INDICATES UNOFFICIAL STATION AND DATA

WAZ520-232110-
EAST SLOPES OF WASHINGTON CASCADES

CITY            SKY/WX      TMP DP  RH  WIND    PRES   REMARKS
#BULLFROG       N/A         48  31  51  W10     N/A                          
#ELK HTS DOT    N/A         50  50  100 SW3     N/A                          
#GLENWOOD       N/A         53  35  50  SW5     30.13F                       
#NILE           N/A         51  30  44  W2      29.40R                       
#TROUT LAKE 1E  N/A         50  35  56  N3      30.11R                       
$$

WAZ521-232110-
SIMCOE HIGHLANDS

CITY            SKY/WX      TMP DP  RH  WIND    PRES   REMARKS
#SATUS PASS DOT N/A         46  26  45  S7      N/A                          
#CENTERVILLE 1SWN/A         51  38  61  W9      30.07S                       
#LYLE 6NE       N/A         52  39  61  N10     30.11S                       
#PITT 4SE       N/A         47  37  68  W7      30.14S                       
$$

WAZ026-232110-
KITTITAS VALLEY

CITY            SKY/WX      TMP DP  RH  WIND    PRES   REMARKS
ELLENSBURG AP   FAIR        54  28  36  SW3     30.05S                       
#ELLENSBURG CWU N/A         55  30  38  NW3     30.03R                       
#ELLENSBURG 1E  N/A         53  34  48  CALM    30.10R                       
#KITTITAS 3S    N/A         52  37  56  CALM    30.02                        
#MANASTASH RDG  N/A         48  27  44  N5      N/A                          
#ROCKY CYN DOT  N/A         58  32  37  NW7     N/A                          
#RYEGRASS DOT   N/A         47  26  44  W7      N/A                          
#THORP 6N       N/A         50  34  54  CALM    30.01F                       
$$

WAZ027-232110-
YAKIMA VALLEY

CITY            SKY/WX      TMP DP  RH  WIND    PRES   REMARKS
YAKIMA AIRPORT  FAIR        54  29  38  W5      30.08R                       
YAKIMA-VAGABOND FAIR        53  24  32  CALM    30.03S                       
#MABTON         N/A         54  37  52  W5      30.09R                       
#NACHES 2SW     N/A         51  33  50  CALM    30.04S                       
#OUTLOOK DOT    N/A         55  32  41  CALM    N/A                          
#PARKER DOT     N/A         56  28  34  CALM    N/A                          
#TERRACE HTS    N/A         60  34  37  S1      30.05R                       
#I82 S UMTANUM RN/A         51  25  36  SW6     N/A                          
#UNION GAP DOT  N/A         56  29  35  S1      N/A                          
#ZILLAH DOT     N/A         56  26  31  SW1     N/A                          
$$

WAZ028-232110-
LOWER COLUMBIA BASIN...WASHINGTON

CITY            SKY/WX      TMP DP  RH  WIND    PRES   REMARKS
PASCO           FAIR        58  29  33  NW6     30.09R                       
RICHLAND AWOS   FAIR        59  32  36  W6      30.10R                       
#BASIN CITY 5SW N/A         57  36  45  W6      30.07R                       
#BENTON CITY    N/A         56  39  53  CALM    30.00R                       
#CONNELL 5N     N/A         54  38  55  CALM    30.09S                       
#ELTOPIA 6NW    N/A         54  37  52  CALM    29.05R                       
#KAHLOTUS       N/A         49  35  58  N3      30.08S                       
#KENNEWICK 3S   N/A         58  37  45  CALM    30.09S                       
#SAGEMOOR 2W    N/A         54  36  50  W2      30.07S                       
#TOUCHET 2S     N/A         55  43  64  CALM    30.07S                       
$$

WAZ029-232110-
FOOTHILLS OF THE BLUES...WASHINGTON

CITY            SKY/WX      TMP DP  RH  WIND    PRES   REMARKS
WALLA WALLA AP  CLOUDY      50  34  54  SW7     30.08S                       
#CLYDE 6NW      N/A         50  34  54  W5      30.06S                       
#DELANEY DOT    N/A         51  36  56  SW5     N/A                          
#LOWDEN 2SE     N/A         54  38  55  CALM    29.96R                       
#PRESCOTT       N/A         53  40  61  CALM    30.08F                       
#WALLA WALLA 5E N/A         51  41  68  W6      N/A                          
#WHITMAN MISSIONN/A         54  40  59  S1      30.18S                       
$$

WAZ030-232110-
BLUE MOUNTAINS...WASHINGTON
 
CITY            SKY/WX      TMP DP  RH  WIND    PRES   REMARKS
$$

ORZ009-041-WAZ024-232110-
COLUMBIA RIVER GORGE

CITY            SKY/WX      TMP DP  RH  WIND    PRES   REMARKS
HOOD RIVER AP   FAIR        55  36  49  W3      30.14R                       
THE DALLES AP   FAIR        60  35  39  NW10    30.11S                       
#CELILO DOT     N/A         55  33  43  SW6     N/A                          
#LYLE           N/A         55  38  53  W14G24  30.13S                       
#RUFUS DOT      N/A         57  33  40  W12     N/A                          

$$

ORZ510-232110-
NORTH CENTRAL OREGON

CITY            SKY/WX      TMP DP  RH  WIND    PRES   REMARKS
#COW CYN RST AREN/A         42  29  60  W6      N/A                          
#DUFUR          N/A         53  35  50  N5      30.09S                       
#GRASS VALLEY 1SN/A         46  34  63  W7      30.09R                       
#KENT DOT       N/A         47  25  42  W5      N/A                          
#WAPANITIA AIRPON/A         51  37  59  NW6     30.15R                       
#WASCO DOT      N/A         54  35  48  W7      N/A                          
#WASCO 5NE      N/A         50  36  58  N8      30.09S                       
$$

ORZ511-232110-
CENTRAL OREGON

CITY            SKY/WX      TMP DP  RH  WIND    PRES   REMARKS
MADRAS AIRPORT  FAIR        48  32  54  NW5     30.13S                       
PRINEVILLE AP   MOCLDY      46  28  49  VRB7    30.10R                       
REDMOND AIRPORT MOSUNNY     50  29  44  N10     30.10R                       
#ASHWOOD SCHOOL N/A         47  34  60  N6      30.07R                       
#CULVER         N/A         47  31  53  N3      29.49R                       
#PRINEVILLE     N/A         47  33  58  CALM    30.23S                       

$$


ORZ509-232110-
EAST SLOPES OF OREGON CASCADES

CITY            SKY/WX      TMP DP  RH  WIND    PRES   REMARKS
SISTERS AWOS    N/A         46  28  49  W15     30.06R WCI 40                
SUNRIVER AWOS   MOCLDY      43  25  49  S10     30.12R                       
#CAMP SHERMAN   N/A         50  33  52  CALM    30.16R                       
#LAVA BUTTE DOT N/A         44  21  40  W2      N/A                          
#SISTERS ODOT   N/A         47  26  44  W6      N/A                          
#WANOGA BUTTE D N/A         34  20  56  N3      N/A                          

$$

ORZ044-232110-
LOWER COLUMBIA BASIN...OREGON

CITY            SKY/WX      TMP DP  RH  WIND    PRES   REMARKS
HERMISTON       FAIR        56  36  47  W10     30.10S                       
#BOARDMAN SCHOOLN/A         57  37  47  W1      30.06R                       
#ECHO 8SW       N/A         54  39  57  SW9     30.13R                       
#I-84 EX 198 DOTN/A         51  35  54  E12     N/A                          
#UMATILLA       N/A         57  37  47  CALM    30.00S                       
$$

ORZ507-232110-
NORTHERN FOOTHILLS OF THE BLUES

CITY            SKY/WX      TMP DP  RH  WIND    PRES   REMARKS
PENDLETON AIRPT FAIR        52  37  56  W14     30.09R                       
#ATHENA         N/A         50  35  56  S2      30.10S                       
#CAYUSE         N/A         48  35  60  W7      30.09R                       
#HELIX SCHOOL   N/A         48  37  65  W1      30.10S                       
#HOLDMAN 6E     N/A         48  41  77  SW2     29.89S                       
#M-FREEWATER 5SEN/A         49  38  66  SW6     30.06S                       
#PDT SUNRIDGE   N/A         52  36  54  W1      30.05S                       
#TUTUILLA       N/A         50  34  54  W1      30.14S                       
#UMAPINE 2E     N/A         53  39  59  CALM    30.09R                       

$$

ORZ508-232110-
SOUTHERN FOOTHILLS OF THE BLUES

CITY            SKY/WX      TMP DP  RH  WIND    PRES   REMARKS
#AJAX           N/A         49  34  56  SW8     30.09R                       
#HEPPNER EOC    N/A         46  34  63  SW1     30.05S                       
#HEPPNER 4NE    N/A         44  35  70  W6      30.12R                       
#OLEX 4N        N/A         52  36  54  SW7     30.11S                       
#RUGGS 2SW      N/A         45  33  63  SW7     30.16S                       

$$

ORZ502-503-232110-
BLUE MOUNTAINS

CITY            SKY/WX      TMP DP  RH  WIND    PRES   REMARKS
MEACHAM         MOCLDY      39  32  76  W5      30.05R                       
#BATTLE MTN DOT N/A         37  24  59  CALM    N/A                          
#LADD CYN SMT   N/A         40  31  70  CALM    N/A                          
#LADD CREEK ODOTN/A         N/A N/A N/A N7      N/A                          
#N POWDER DOT   N/A         42  27  55  N13     N/A    WCI 35                
#TOLLGATE       N/A         30  29  96  CALM    30.03R                       
#TROY SCHOOL    N/A         45  41  86  CALM    29.93S                       
#WESTON 4E      N/A         40  35  82  SW6     30.09R                       
$$

ORZ505-232110-
JOHN DAY BASIN

CITY            SKY/WX      TMP DP  RH  WIND    PRES   REMARKS
JOHN DAY        CLOUDY      39  32  76  NW3     30.08R                       
#DAYVILLE SCHOOLN/A         46  30  53  N2      30.04R                       
#MITCHELL 8NW   N/A         42  32  67  N1      30.18R                       
#MONUMENT HS    N/A         47  30  51  S6      29.98S                       
#MT. VERNON 5SE N/A         39  31  73  N1      30.06S                       
$$

ORZ506-232110-
OCHOCO AND JOHN DAY HIGHLANDS

CITY            SKY/WX      TMP DP  RH  WIND    PRES   REMARKS
#BUCK CREEK DOT N/A         38  21  50  N13     N/A    WCI 30                
#HORSE RIDGE DO N/A         42  22  45  N6      N/A                          
#KEYES SMT DOT  N/A         37  27  67  W8      N/A                          
#PAULINA ODOT   N/A         44  26  49  W3      N/A                          
#PRAIRIE CITY   N/A         40  36  85  NW2     30.01R                       
#SENECA 9NW     N/A         35  31  85  CALM    30.11S                       
$$

ORZ049-232110-
GRANDE RONDE VALLEY

CITY            SKY/WX      TMP DP  RH  WIND    PRES   REMARKS
LA GRANDE       MOCLDY      44  32  62  NW12    30.07R WCI 38                
#COVE 6NW       N/A         44  34  68  NW2     30.11S                       
#ELGIN 1E       N/A         45  30  55  W2      N/A                          
#IMBLER SCHOOL  N/A         42  31  65  CALM    30.02R                       
#ISLAND CITY 4N N/A         54  47  77  SW3     30.17S                       
#LADD CYN DOT   N/A         44  33  65  N7      N/A                          
#UNION 1S       N/A         44  34  68  NW2     30.11S                       
$$

ORZ050-232110-
WALLOWA COUNTY

CITY            SKY/WX      TMP DP  RH  WIND    PRES   REMARKS
JOSEPH AIRPORT  CLOUDY      37  30  75  MISG    30.04R                       
#ENTERPRISE HS  N/A         38  33  82  NW3     30.01R                       
#IMNAHA SCHOOL  N/A         44  39  82  CALM    30.11R                       
#JOSEPH 3N      N/A         36  27  69  NW6     30.05R                       
#LOSTINE 3SE    N/A         39  31  73  E5      30.11R                       
#MT HOWARD 8000 N/A         19  16  88  CALM    29.85R                       
#WALLOWA LAKE   N/A         35  31  85  E2      30.05R                       
#WALLOWA SCHOOL N/A         41  32  70  CALM    30.12R                       



$$
