ASUS46 KPQR 232110
RWROR 

OREGON REGIONAL WEATHER ROUNDUP
NATIONAL WEATHER SERVICE PORTLAND OR
200 PM PDT SUN OCT 23 2022

NOTE: "FAIR" INDICATES FEW OR NO CLOUDS BELOW 12,000 FEET WITH
NO SIGNIFICANT WEATHER AND/OR OBSTRUCTIONS TO VISIBILITY.

ORZ001>013-232200-
NORTHWEST OREGON

  
CITY           SKY/WX    TMP DP  RH WIND       PRES   REMARKS
ASTORIA        MOSUNNY   56  43  61 SW10      30.17S                  
TILLAMOOK      MOSUNNY   55  45  67 W6        30.21R                  
FLORENCE       FAIR      55  50  82 SW8       30.22R                  
PORTLAND       PTSUNNY   59  42  53 CALM      30.19R                  
VANCOUVER WA   CLOUDY    57  42  57 CALM      30.19S                  
SCAPPOOSE      PTSUNNY   56  43  61 VRB3      30.17S                  
HILLSBORO      PTSUNNY   56  40  55 CALM      30.17S                  
AURORA         PTSUNNY   58  39  49 S5        30.20R                  
MCMINNVILLE    NOT AVBL                                               
SALEM          MOSUNNY   58  42  55 S7        30.19R                  
CORVALLIS      MOSUNNY   59  37  44 NW8       30.20R                  
EUGENE         PTSUNNY   57  38  48 NE5       30.20R                  
CRESWELL       CLOUDY    57  39  51 CALM      30.19S                  
$$

ORZ021-028-232200-
SOUTHWEST OREGON

  
CITY           SKY/WX    TMP DP  RH WIND       PRES   REMARKS
NORTH BEND     MOSUNNY   57  47  69 W7        30.22F                  
BROOKINGS      SUNNY     57  43  59 NW10G16   30.18F                  
ROSEBURG       MOSUNNY   54  39  57 W3        30.20F                  
SEXTON SUMMIT  PTSUNNY   39  35  86 N3        30.16S                  
GRANTS PASS    FAIR      54  37  54 CALM      30.22S                  
MEDFORD        PTSUNNY   53  36  52 W5        30.17F                  
$$

ORZ014>016-041-232200-
COLUMBIA GORGE

  
CITY           SKY/WX    TMP DP  RH WIND       PRES   REMARKS
TROUTDALE      PTSUNNY   57  43  59 CALM      30.19R                  
HOOD RIVER     MOSUNNY   55  34  44 CALM      30.14S                  
THE DALLES     MOSUNNY   61  34  36 NW14      30.12R                  
$$

ORZ029>031-041-044-049-050-061>064-502-503-505>511-232200-
EASTERN OREGON

  
CITY           SKY/WX    TMP DP  RH WIND       PRES   REMARKS
MADRAS         MOSUNNY   50  32  50 NW5       30.14R                  
REDMOND        PTSUNNY   51  27  39 NE6       30.10S                  
BEND           NOT AVBL                                               
PRINEVILLE     MOSUNNY   46  28  49 N5G12     30.11R                  
KLAMATH FALLS  MOSUNNY   48  23  37 NW6       30.09F                  
LAKEVIEW       MOSUNNY   45  20  36 N13G20    30.08S                  
HERMISTON      SUNNY     57  34  41 SW7       30.11R                  
PENDLETON      MOSUNNY   53  37  54 W12       30.10R                  
JOHN DAY       CLOUDY    40  31  70 CALM      30.10R                  
MEACHAM        PTSUNNY   39  32  76 VRB3      30.07R                  
LA GRANDE      PTSUNNY   46  31  55 NW14      30.08R                  
BAKER CITY     MOSUNNY   46  28  49 N16G22    30.06R                  
BURNS          CLOUDY    44  21  40 NW14      30.08R                  
ROME             N/A     44  19  36 NW12      30.02R                  
ONTARIO        MOSUNNY   56  26  31 NW17      30.03R                  
$$


OTHER REGIONAL REPORTS
  
CITY           SKY/WX    TMP DP  RH WIND       PRES   REMARKS
SEATTLE        PTSUNNY   52  42  69 W7        30.17R                  
SPOKANE        MOSUNNY   48  33  56 VRB6      30.04R                  
VANCOUVER BC   PTSUNNY   54  43  66 E9        30.13F                  
PRINCE GEORGE  SUNNY     39  32  75 S13G18    29.87F WCI  32          
DAWSON CREEK   SUNNY     39  27  60 S12G17    29.87F WCI  32          
WHITEHORSE     PTSUNNY   34  30  86 N8        29.62S                  
BOISE          PTSUNNY   49  29  46 NW16      29.98R                  
REDDING        NOT AVBL                                               
SAN FRANCISCO  SUNNY     65  42  43 W18       29.99F                  

$$

  
