ASUS46 KPQR 232010
RWROR 

OREGON REGIONAL WEATHER ROUNDUP
NATIONAL WEATHER SERVICE PORTLAND OR
100 PM PDT SUN OCT 23 2022

NOTE: "FAIR" INDICATES FEW OR NO CLOUDS BELOW 12,000 FEET WITH
NO SIGNIFICANT WEATHER AND/OR OBSTRUCTIONS TO VISIBILITY.

ORZ001>013-232100-
NORTHWEST OREGON

  
CITY           SKY/WX    TMP DP  RH WIND       PRES   REMARKS
ASTORIA        MOSUNNY   55  44  66 SW9       30.17R                  
TILLAMOOK      PTSUNNY   55  45  67 CALM      30.20S                  
FLORENCE       FAIR      55  52  88 SW8       30.21S HAZE             
PORTLAND       PTSUNNY   56  44  64 SE5       30.18S                  
VANCOUVER WA   CLOUDY    55  43  63 SW3       30.19R                  
SCAPPOOSE      PTSUNNY   56  44  64 SE6       30.17R                  
HILLSBORO      PTSUNNY   55  44  66 CALM      30.17S                  
AURORA         PTSUNNY   56  45  66 S6        30.19R                  
MCMINNVILLE    NOT AVBL                                               
SALEM          MOSUNNY   56  42  59 CALM      30.18R                  
CORVALLIS      MOSUNNY   57  42  57 VRB3      30.19F                  
EUGENE         MOSUNNY   59  38  45 CALM      30.19F                  
CRESWELL       PTSUNNY   54  41  62 CALM      30.19S                  
$$

ORZ021-028-232100-
SOUTHWEST OREGON

  
CITY           SKY/WX    TMP DP  RH WIND       PRES   REMARKS
NORTH BEND     MOSUNNY   56  48  74 N3        30.23S                  
BROOKINGS      SUNNY     59  40  49 NW9       30.19S                  
ROSEBURG       SUNNY     53  44  71 CALM      30.21S                  
SEXTON SUMMIT  PTSUNNY   39  34  82 CALM      30.16S                  
GRANTS PASS    FAIR      50  41  71 CALM      30.24S                  
MEDFORD        MOSUNNY   54  36  50 VRB3      30.19S                  
$$

ORZ014>016-041-232100-
COLUMBIA GORGE

  
CITY           SKY/WX    TMP DP  RH WIND       PRES   REMARKS
TROUTDALE      CLOUDY    56  45  66 CALM      30.17F                  
HOOD RIVER     MOSUNNY   55  36  47 W3        30.14R                  
THE DALLES     SUNNY     60  35  39 NW10      30.11S                  
$$

ORZ029>031-041-044-049-050-061>064-502-503-505>511-232100-
EASTERN OREGON

  
CITY           SKY/WX    TMP DP  RH WIND       PRES   REMARKS
MADRAS         SUNNY     48  32  53 NW5       30.13S                  
REDMOND        MOSUNNY   50  29  44 N10G17    30.10R                  
BEND           NOT AVBL                                               
PRINEVILLE     PTSUNNY   46  28  49 VRB7G14   30.10S                  
KLAMATH FALLS  PTSUNNY   45  25  45 NW10      30.10S                  
LAKEVIEW       PTSUNNY   43  25  49 NE10      30.08S                  
HERMISTON      SUNNY     56  36  47 W10       30.10S                  
PENDLETON      MOSUNNY   52  37  56 W14       30.09R                  
JOHN DAY       CLOUDY    39  32  75 NW3       30.08R                  
MEACHAM        PTSUNNY   39  32  76 W5        30.05R                  
LA GRANDE      PTSUNNY   44  32  62 NW12      30.07R                  
BAKER CITY     MOSUNNY   45  29  53 N16       30.04R                  
BURNS          CLOUDY    42  24  49 NW12      30.06S                  
ROME             N/A     44  21  40 NW9G26    30.01R                  
ONTARIO        MOSUNNY   55  28  35 NW18G26   30.02S                  
$$


OTHER REGIONAL REPORTS
  
CITY           SKY/WX    TMP DP  RH WIND       PRES   REMARKS
SEATTLE        PTSUNNY   51  42  71 SW7       30.16S                  
SPOKANE        PTSUNNY   46  32  58 CALM      30.02S                  
VANCOUVER BC   CLOUDY    52  45  76 E7        30.14F                  
PRINCE GEORGE  PTSUNNY   39  32  75 S15       29.90F WCI  31          
DAWSON CREEK   SUNNY     37  25  60 SE12G20   29.90F WCI  30          
WHITEHORSE     PTSUNNY   34  30  86 N8        29.62F                  
BOISE          MOSUNNY   49  30  48 NW18      29.97F                  
REDDING        NOT AVBL                                               
SAN FRANCISCO  SUNNY     67  41  38 NW12      30.00F                  

$$

  
