ASUS46 KPDT 231725
RWRPDT
PENDLETON REGIONAL WEATHER ROUNDUP
NATIONAL WEATHER SERVICE PENDLETON OREGON
1000 AM PDT SUN OCT 23 2022

NOTE: FAIR INDICATES FEW OR NO CLOUDS BELOW 12,000 FEET WITH NO
SIGNIFICANT WEATHER AND/OR OBSTRUCTIONS TO VISIBILITY.

# INDICATES UNOFFICIAL STATION AND DATA

WAZ520-231810-
EAST SLOPES OF WASHINGTON CASCADES

CITY            SKY/WX      TMP DP  RH  WIND    PRES   REMARKS
#BULLFROG       N/A         44  33  65  W5      N/A                          
#ELK HTS DOT    N/A         44  43  96  N1      N/A                          
#GLENWOOD       N/A         32  31  96  CALM    30.13R                       
#NILE           N/A         40  33  76  N2      29.37R                       
#TROUT LAKE 1E  N/A         45  35  68  W1      30.07R                       
$$

WAZ521-231810-
SIMCOE HIGHLANDS

CITY            SKY/WX      TMP DP  RH  WIND    PRES   REMARKS
#SATUS PASS DOT N/A         43  25  49  NE2     N/A                          
#CENTERVILLE 1SWN/A         44  38  79  W3      30.04R                       
#LYLE 6NE       N/A         46  40  79  S5      30.09R                       
#PITT 4SE       N/A         41  37  86  W3      30.12R                       
$$

WAZ026-231810-
KITTITAS VALLEY

CITY            SKY/WX      TMP DP  RH  WIND    PRES   REMARKS
ELLENSBURG AP   FAIR        47  32  56  NW15    30.03R WCI 41                
#ELLENSBURG CWU N/A         44  33  65  NW2     30.01R                       
#ELLENSBURG 1E  N/A         42  34  73  SW1     30.08R                       
#MANASTASH RDG  N/A         42  29  60  NW6     N/A                          
#ROCKY CYN DOT  N/A         48  33  56  NW9     N/A                          
#RYEGRASS DOT   N/A         40  29  64  W12     N/A    WCI 33                
#THORP 6N       N/A         44  36  73  CALM    29.98R                       
$$

WAZ027-231810-
YAKIMA VALLEY

CITY            SKY/WX      TMP DP  RH  WIND    PRES   REMARKS
SUNNYSIDE AP    FAIR        44  34  68  SW3     30.06R                       
YAKIMA AIRPORT  FAIR        47  32  56  CALM    30.05R                       
YAKIMA-VAGABOND FAIR        46  28  49  E8      30.00R                       
#MABTON         N/A         44  39  82  CALM    30.06R                       
#NACHES 2SW     N/A         44  32  62  W7      30.02R                       
#OUTLOOK DOT    N/A         43  35  73  CALM    N/A                          
#PARKER DOT     N/A         49  30  48  CALM    N/A                          
#TERRACE HTS    N/A         46  32  58  CALM    30.02R                       
#I82 S UMTANUM RN/A         44  28  53  NE6     N/A                          
#UNION GAP DOT  N/A         48  32  54  NW3     N/A                          
#ZILLAH DOT     N/A         45  34  65  CALM    N/A                          
$$

WAZ028-231810-
LOWER COLUMBIA BASIN...WASHINGTON

CITY            SKY/WX      TMP DP  RH  WIND    PRES   REMARKS
PASCO           PTCLDY      48  38  68  S5      30.06R                       
RICHLAND AWOS   PTCLDY      53  37  54  CALM    30.06R                       
#BASIN CITY 5SW N/A         50  40  68  W1      30.05R                       
#BENTON CITY    N/A         47  37  68  CALM    29.97R                       
#CONNELL 5N     N/A         41  37  86  CALM    30.06R                       
#ELTOPIA 6NW    N/A         49  39  68  CALM    29.02R                       
#KAHLOTUS       N/A         40  34  79  N7      30.04R                       
#KENNEWICK 3S   N/A         48  37  65  CALM    30.07R                       
#SAGEMOOR 2W    N/A         48  37  65  SW6     30.05R                       
#TOUCHET 2S     N/A         47  40  76  CALM    30.04R                       
$$

WAZ029-231810-
FOOTHILLS OF THE BLUES...WASHINGTON

CITY            SKY/WX      TMP DP  RH  WIND    PRES   REMARKS
WALLA WALLA AP  CLOUDY      45  36  70  S9      30.05R                       
#CLYDE 6NW      N/A         43  39  86  S5      30.04R                       
#DELANEY DOT    N/A         46  37  71  S3      N/A                          
#LOWDEN 2SE     N/A         48  40  74  CALM    29.94R                       
#PRESCOTT       N/A         44  41  89  CALM    30.06R                       
#WALLA WALLA 5E N/A         45  40  82  S14     N/A    WCI 39                
#WHITMAN MISSIONN/A         48  41  77  S6      30.16R                       
$$

WAZ030-231810-
BLUE MOUNTAINS...WASHINGTON
 
CITY            SKY/WX      TMP DP  RH  WIND    PRES   REMARKS
$$

ORZ009-041-WAZ024-231810-
COLUMBIA RIVER GORGE

CITY            SKY/WX      TMP DP  RH  WIND    PRES   REMARKS
HOOD RIVER AP   FAIR        50  39  66  W3      30.11R                       
THE DALLES AP   FAIR        54  40  59  NW8     30.09R                       
#CELILO DOT     N/A         50  36  58  SW5     N/A                          
#LYLE           N/A         48  40  74  N6      30.11R                       
#RUFUS DOT      N/A         51  37  59  W12     N/A                          

$$

ORZ510-231810-
NORTH CENTRAL OREGON

CITY            SKY/WX      TMP DP  RH  WIND    PRES   REMARKS
#COW CYN RST AREN/A         39  31  73  SW1     N/A                          
#DUFUR          N/A         47  40  76  CALM    30.07R                       
#GRASS VALLEY 1SN/A         43  35  73  SW6     30.06R                       
#KENT DOT       N/A         42  29  60  SW8     N/A                          
#WAPANITIA AIRPON/A         41  36  82  CALM    30.12R                       
#WASCO DOT      N/A         49  39  68  W8      N/A                          
#WASCO 5NE      N/A         45  38  76  N12     30.06R WCI 39                
$$

ORZ511-231810-
CENTRAL OREGON

CITY            SKY/WX      TMP DP  RH  WIND    PRES   REMARKS
BEND AIRPORT    FAIR        41  30  65  VRB5    30.08                        
MADRAS AIRPORT  FAIR        43  32  65  CALM    30.11R                       
PRINEVILLE AP   FAIR        41  32  70  CALM    30.08R                       
REDMOND AIRPORT FAIR        44  33  65  CALM    30.06R                       
#ASHWOOD SCHOOL N/A         36  34  92  CALM    30.04R                       
#CULVER         N/A         41  33  73  CALM    29.46R                       
#PRINEVILLE     N/A         38  35  89  CALM    30.22R                       

$$


ORZ509-231810-
EAST SLOPES OF OREGON CASCADES

CITY            SKY/WX      TMP DP  RH  WIND    PRES   REMARKS
SISTERS AWOS    N/A         43  30  60  W8      30.02R                       
SUNRIVER AWOS   FAIR        39  30  70  S10     30.09R                       
#CAMP SHERMAN   N/A         41  31  67  CALM    30.15S                       
#LAVA BUTTE DOT N/A         37  29  72  S3      N/A                          
#SISTERS ODOT   N/A         43  29  57  W3      N/A                          
#WANOGA BUTTE D N/A         34  20  56  CALM    N/A                          

$$

ORZ044-231810-
LOWER COLUMBIA BASIN...OREGON

CITY            SKY/WX      TMP DP  RH  WIND    PRES   REMARKS
HERMISTON       FAIR        50  39  66  W8      30.07R                       
#BOARDMAN SCHOOLN/A         50  40  68  SW6     30.03R                       
#ECHO 8SW       N/A         48  39  71  W13     30.09R WCI 43                
#I-84 EX 198 DOTN/A         47  37  68  E9      N/A                          
#UMATILLA       N/A         51  40  66  CALM    29.98R                       
$$

ORZ507-231810-
NORTHERN FOOTHILLS OF THE BLUES

CITY            SKY/WX      TMP DP  RH  WIND    PRES   REMARKS
PENDLETON AIRPT MOCLDY      47  36  65  W9      30.06R                       
#ATHENA         N/A         45  37  73  S3      30.09R                       
#CAYUSE         N/A         45  36  70  SW7     30.07R                       
#HELIX SCHOOL   N/A         42  37  82  N1      30.08R                       
#HOLDMAN 6E     N/A         42  38  86  SW7     29.87R                       
#M-FREEWATER 5SEN/A         45  37  73  SW9     30.04R                       
#PDT SUNRIDGE   N/A         46  37  71  CALM    30.03R                       
#TUTUILLA       N/A         43  38  82  CALM    30.12R                       
#UMAPINE 2E     N/A         47  40  76  CALM    30.06R                       

$$

ORZ508-231810-
SOUTHERN FOOTHILLS OF THE BLUES

CITY            SKY/WX      TMP DP  RH  WIND    PRES   REMARKS
#AJAX           N/A         42  34  73  S5      30.05R                       
#HEPPNER EOC    N/A         43  35  73  CALM    30.03R                       
#HEPPNER 4NE    N/A         39  34  82  W7      30.09R                       
#OLEX 4N        N/A         47  38  71  SW8     30.08R                       
#RUGGS 2SW      N/A         41  34  76  W8      30.12R                       

$$

ORZ502-503-231810-
BLUE MOUNTAINS

CITY            SKY/WX      TMP DP  RH  WIND    PRES   REMARKS
MEACHAM         MOCLDY      36  33  89  CALM    30.00R                       
#BATTLE MTN DOT N/A         35  29  78  W1      N/A                          
#LADD CYN SMT   N/A         37  34  89  CALM    N/A                          
#LADD CREEK ODOTN/A         N/A N/A N/A W3      N/A                          
#N POWDER DOT   N/A         41  29  62  N14     N/A    WCI 33                
#TOLLGATE       N/A         28  27  96  CALM    29.98R                       
#TROY SCHOOL    N/A         37  35  92  W2      29.91R                       
#WESTON 4E      N/A         36  34  92  SW2     30.05R                       
$$

ORZ505-231810-
JOHN DAY BASIN

CITY            SKY/WX      TMP DP  RH  WIND    PRES   REMARKS
JOHN DAY        CLOUDY      36  32  85  CALM    30.05R                       
#DAYVILLE SCHOOLN/A         44  32  62  NW3     30.01R                       
#MITCHELL 8NW   N/A         39  30  70  CALM    30.15R                       
#MONUMENT HS    N/A         44  33  65  CALM    29.96R                       
#MT. VERNON 5SE N/A         35  32  89  CALM    30.03R                       
$$

ORZ506-231810-
OCHOCO AND JOHN DAY HIGHLANDS

CITY            SKY/WX      TMP DP  RH  WIND    PRES   REMARKS
#BUCK CREEK DOT N/A         36  30  79  N7      N/A                          
#HORSE RIDGE DO N/A         37  27  67  CALM    N/A                          
#KEYES SMT DOT  N/A         33  30  89  W5      N/A                          
#PAULINA ODOT   N/A         41  30  65  W5      N/A                          
#PRAIRIE CITY   N/A         38  37  96  W2      29.98R                       
#SENECA 9NW     N/A         32  29  89  CALM    30.07R                       
$$

ORZ049-231810-
GRANDE RONDE VALLEY

CITY            SKY/WX      TMP DP  RH  WIND    PRES   REMARKS
LA GRANDE       CLOUDY      41  35  79  NW10    30.04R                       
#COVE 6NW       N/A         39  36  89  CALM    30.09R                       
#ELGIN 1E       N/A         40  34  79  CALM    N/A                          
#IMBLER SCHOOL  N/A         36  34  92  CALM    29.99R                       
#ISLAND CITY 4N N/A         46  45  96  CALM    30.14R                       
#LADD CYN DOT   N/A         40  33  76  W3      N/A                          
#UNION 1S       N/A         40  35  82  CALM    30.08R                       
$$

ORZ050-231810-
WALLOWA COUNTY

CITY            SKY/WX      TMP DP  RH  WIND    PRES   REMARKS
JOSEPH AIRPORT  CLOUDY      33  29  85  MISG    29.98R                       
#ENTERPRISE HS  N/A         34  32  92  CALM    29.96R                       
#IMNAHA SCHOOL  N/A         40  37  89  CALM    30.07R                       
#JOSEPH 3N      N/A         32  27  82  CALM    30.01R                       
#LOSTINE 3SE    N/A         33  31  92  CALM    30.05R                       
#MT HOWARD 8000 N/A         18  N/A N/A CALM    29.80R                       
#WALLOWA LAKE   N/A         33  29  85  SE1     29.99R                       
#WALLOWA SCHOOL N/A         36  33  89  CALM    30.08R                       



$$
