ASUS46 KPDT 231625
RWRPDT
PENDLETON REGIONAL WEATHER ROUNDUP
NATIONAL WEATHER SERVICE PENDLETON OREGON
900 AM PDT SUN OCT 23 2022

NOTE: FAIR INDICATES FEW OR NO CLOUDS BELOW 12,000 FEET WITH NO
SIGNIFICANT WEATHER AND/OR OBSTRUCTIONS TO VISIBILITY.

# INDICATES UNOFFICIAL STATION AND DATA

WAZ520-231710-
EAST SLOPES OF WASHINGTON CASCADES

CITY            SKY/WX      TMP DP  RH  WIND    PRES   REMARKS
#BULLFROG       N/A         40  33  76  W1      N/A                          
#ELK HTS DOT    N/A         37  37  100 CALM    N/A                          
#GLENWOOD       N/A         26  25  96  CALM    30.12R                       
#NILE           N/A         30  29  96  CALM    29.36R                       
#TROUT LAKE 1E  N/A         34  32  92  CALM    30.06R                       
$$

WAZ521-231710-
SIMCOE HIGHLANDS

CITY            SKY/WX      TMP DP  RH  WIND    PRES   REMARKS
#SATUS PASS DOT N/A         33  26  75  E1      N/A                          
#CENTERVILLE 1SWN/A         38  34  85  E1      30.03R                       
#LYLE 6NE       N/A         42  38  86  S5      30.07R                       
#PITT 4SE       N/A         39  36  89  SW5     30.10R                       
$$

WAZ026-231710-
KITTITAS VALLEY

CITY            SKY/WX      TMP DP  RH  WIND    PRES   REMARKS
ELLENSBURG AP   FAIR        44  31  60  NW12    30.01R WCI 38                
#ELLENSBURG CWU N/A         40  32  73  CALM    29.99R                       
#ELLENSBURG 1E  N/A         35  30  82  CALM    30.06R                       
#MANASTASH RDG  N/A         39  29  67  N2      N/A                          
#ROCKY CYN DOT  N/A         42  34  73  NW10    N/A                          
#RYEGRASS DOT   N/A         37  30  75  W9      N/A                          
#THORP 6N       N/A         32  30  92  CALM    29.98R                       
$$

WAZ027-231710-
YAKIMA VALLEY

CITY            SKY/WX      TMP DP  RH  WIND    PRES   REMARKS
SUNNYSIDE AP    MOCLDY      38  34  85  CALM    30.05R                       
YAKIMA AIRPORT  FAIR        38  31  76  W5      30.04R                       
YAKIMA-VAGABOND FAIR        43  28  55  E8      29.98R                       
#MABTON         N/A         40  37  89  CALM    30.05R                       
#NACHES 2SW     N/A         42  31  65  W7      29.98R                       
#OUTLOOK DOT    N/A         36  33  89  CALM    N/A                          
#PARKER DOT     N/A         46  30  53  CALM    N/A                          
#TERRACE HTS    N/A         40  32  73  CALM    30.00R                       
#I82 S UMTANUM RN/A         42  28  57  N6      N/A                          
#UNION GAP DOT  N/A         41  33  73  NE2     N/A                          
#ZILLAH DOT     N/A         37  34  89  CALM    N/A                          
$$

WAZ028-231710-
LOWER COLUMBIA BASIN...WASHINGTON

CITY            SKY/WX      TMP DP  RH  WIND    PRES   REMARKS
HANFORD         MOCLDY      47  45  93  W10     29.53S                       
PASCO           CLOUDY      43  38  82  CALM    30.05R                       
RICHLAND AWOS   CLOUDY      47  37  68  CALM    30.06R                       
#BASIN CITY 5SW N/A         45  40  82  SW1     30.02R                       
#BENTON CITY    N/A         43  34  70  CALM    29.95R                       
#CONNELL 5N     N/A         32  30  92  CALM    30.05R                       
#ELTOPIA 6NW    N/A         46  39  76  CALM    29.00R                       
#KAHLOTUS       N/A         34  31  89  N2      30.03R                       
#KENNEWICK 3S   N/A         43  35  73  CALM    30.05R                       
#SAGEMOOR 2W    N/A         46  40  79  W2      30.03R                       
#TOUCHET 2S     N/A         45  39  79  CALM    30.03R                       
$$

WAZ029-231710-
FOOTHILLS OF THE BLUES...WASHINGTON

CITY            SKY/WX      TMP DP  RH  WIND    PRES   REMARKS
WALLA WALLA AP  MOCLDY      43  37  79  S9      30.03R                       
#CLYDE 6NW      N/A         36  34  92  CALM    30.03R                       
#DELANEY DOT    N/A         44  38  79  S6      N/A                          
#LOWDEN 2SE     N/A         46  40  79  CALM    29.93R                       
#PRESCOTT       N/A         42  39  89  CALM    30.04R                       
#WALLA WALLA 5E N/A         44  39  82  S12     N/A    WCI 38                
#WHITMAN MISSIONN/A         45  41  86  SE1     30.14R                       
$$

WAZ030-231710-
BLUE MOUNTAINS...WASHINGTON
 
CITY            SKY/WX      TMP DP  RH  WIND    PRES   REMARKS
$$

ORZ009-041-WAZ024-231710-
COLUMBIA RIVER GORGE

CITY            SKY/WX      TMP DP  RH  WIND    PRES   REMARKS
HOOD RIVER AP   MOCLDY      43  39  86  CALM    30.07R                       
THE DALLES AP   FAIR        51  39  63  W6      30.07R                       
#CELILO DOT     N/A         49  36  61  SW5     N/A                          
#LYLE           N/A         48  41  77  W3      30.09R                       
#RUFUS DOT      N/A         50  35  56  W15     N/A                          

$$

ORZ510-231710-
NORTH CENTRAL OREGON

CITY            SKY/WX      TMP DP  RH  WIND    PRES   REMARKS
#COW CYN RST AREN/A         36  32  85  S1      N/A                          
#DUFUR          N/A         35  32  89  CALM    30.05R                       
#GRASS VALLEY 1SN/A         40  35  82  W3      30.05R                       
#KENT DOT       N/A         38  29  70  SW6     N/A                          
#WAPANITIA AIRPON/A         37  34  89  CALM    30.10R                       
#WASCO DOT      N/A         46  40  79  W3      N/A                          
#WASCO 5NE      N/A         43  38  82  N10     30.04R                       
$$

ORZ511-231710-
CENTRAL OREGON

CITY            SKY/WX      TMP DP  RH  WIND    PRES   REMARKS
MADRAS AIRPORT  FAIR        36  32  85  CALM    30.09R                       
PRINEVILLE AP   FAIR        37  34  89  CALM    30.06R                       
REDMOND AIRPORT FAIR        38  32  79  SW3     30.04R                       
#ASHWOOD SCHOOL N/A         33  31  92  CALM    30.02                        
#CULVER         N/A         36  30  79  CALM    29.44R                       
#PRINEVILLE     N/A         33  31  92  CALM    30.19R                       

$$


ORZ509-231710-
EAST SLOPES OF OREGON CASCADES

CITY            SKY/WX      TMP DP  RH  WIND    PRES   REMARKS
SISTERS AWOS    N/A         39  32  76  W8      30.00R                       
SUNRIVER AWOS   FAIR        36  30  79  S13     30.08R WCI 27                
#CAMP SHERMAN   N/A         34  31  89  CALM    30.15R                       
#LAVA BUTTE DOT N/A         33  29  85  S2      N/A                          
#SISTERS ODOT   N/A         41  29  62  W5      N/A                          
#WANOGA BUTTE D N/A         33  22  63  CALM    N/A                          

$$

ORZ044-231710-
LOWER COLUMBIA BASIN...OREGON

CITY            SKY/WX      TMP DP  RH  WIND    PRES   REMARKS
HERMISTON       MOCLDY      47  37  68  SW6     30.05R                       
#BOARDMAN SCHOOLN/A         46  39  76  SW1     30.02R                       
#ECHO 8SW       N/A         45  38  76  SW13    30.07R WCI 39                
#I-84 EX 198 DOTN/A         44  35  70  E10     N/A                          
#UMATILLA       N/A         46  39  76  CALM    29.96R                       
$$

ORZ507-231710-
NORTHERN FOOTHILLS OF THE BLUES

CITY            SKY/WX      TMP DP  RH  WIND    PRES   REMARKS
PENDLETON AIRPT CLOUDY      44  35  70  W7      30.04R                       
#ATHENA         N/A         44  37  76  S5      30.07R                       
#CAYUSE         N/A         43  36  76  SW6     30.04                        
#HELIX SCHOOL   N/A         40  37  89  CALM    30.07R                       
#HOLDMAN 6E     N/A         40  37  89  S1      29.85R                       
#M-FREEWATER 5SEN/A         44  37  76  SW7     30.03R                       
#PDT SUNRIDGE   N/A         43  36  76  CALM    30.01R                       
#TUTUILLA       N/A         41  37  86  CALM    30.10R                       
#UMAPINE 2E     N/A         45  39  79  SW1     30.04R                       

$$

ORZ508-231710-
SOUTHERN FOOTHILLS OF THE BLUES

CITY            SKY/WX      TMP DP  RH  WIND    PRES   REMARKS
#AJAX           N/A         40  33  76  S2      30.03R                       
#HEPPNER EOC    N/A         40  34  79  CALM    30.01R                       
#HEPPNER 4NE    N/A         37  33  85  SW3     30.08R                       
#OLEX 4N        N/A         44  36  73  SW5     30.06                        
#RUGGS 2SW      N/A         39  32  76  W12     30.11R WCI 32                

$$

ORZ502-503-231710-
BLUE MOUNTAINS

CITY            SKY/WX      TMP DP  RH  WIND    PRES   REMARKS
MEACHAM         CLOUDY      34  32  92  CALM    29.98R                       
#BATTLE MTN DOT N/A         32  29  89  CALM    N/A                          
#LADD CYN SMT   N/A         36  34  92  CALM    N/A                          
#LADD CREEK ODOTN/A         N/A N/A N/A W5      N/A                          
#N POWDER DOT   N/A         39  32  76  N6      N/A                          
#TOLLGATE       N/A         28  27  96  CALM    29.97R                       
#TROY SCHOOL    N/A         34  32  92  CALM    29.88R                       
#WESTON 4E      N/A         35  33  92  S1      30.03R                       
$$

ORZ505-231710-
JOHN DAY BASIN

CITY            SKY/WX      TMP DP  RH  WIND    PRES   REMARKS
JOHN DAY        CLOUDY      35  32  89  W7      30.02R                       
#DAYVILLE SCHOOLN/A         40  36  85  CALM    29.99R                       
#MITCHELL 8NW   N/A         36  30  79  CALM    30.13R                       
#MONUMENT HS    N/A         41  32  70  CALM    29.96R                       
#MT. VERNON 5SE N/A         35  31  85  CALM    30.00R                       
$$

ORZ506-231710-
OCHOCO AND JOHN DAY HIGHLANDS

CITY            SKY/WX      TMP DP  RH  WIND    PRES   REMARKS
#BUCK CREEK DOT N/A         33  30  89  NW7     N/A                          
#HORSE RIDGE DO N/A         30  27  88  CALM    N/A                          
#KEYES SMT DOT  N/A         32  29  89  W5      N/A                          
#PAULINA ODOT   N/A         38  31  76  W5      N/A                          
#PRAIRIE CITY   N/A         37  36  96  W3      29.94R                       
#SENECA 9NW     N/A         30  28  92  CALM    30.04R                       
$$

ORZ049-231710-
GRANDE RONDE VALLEY

CITY            SKY/WX      TMP DP  RH  WIND    PRES   REMARKS
LA GRANDE       MOCLDY      39  34  82  NW12    30.01R WCI 32                
#COVE 6NW       N/A         36  34  92  CALM    30.06R                       
#ELGIN 1E       N/A         37  31  79  CALM    N/A                          
#IMBLER SCHOOL  N/A         34  33  96  CALM    29.97R                       
#ISLAND CITY 4N N/A         44  43  96  CALM    30.12R                       
#LADD CYN DOT   N/A         39  34  82  W5      N/A                          
#UNION 1S       N/A         38  36  92  CALM    30.06R                       
$$

ORZ050-231710-
WALLOWA COUNTY

CITY            SKY/WX      TMP DP  RH  WIND    PRES   REMARKS
JOSEPH AIRPORT  CLOUDY      32  31  96  MISG    29.96R                       
#ENTERPRISE HS  N/A         31  29  92  CALM    29.94                        
#IMNAHA SCHOOL  N/A         39  37  92  CALM    30.05R                       
#JOSEPH 3N      N/A         30  25  81  CALM    29.99R                       
#LOSTINE 3SE    N/A         31  30  96  CALM    30.02R                       
#MT HOWARD 8000 N/A         18  15  88  CALM    29.78R                       
#WALLOWA LAKE   N/A         32  30  92  CALM    29.97R                       
#WALLOWA SCHOOL N/A         33  32  96  CALM    30.06                        



$$
