ASUS42 KCAE 232010
RWRCAE
REGIONAL WEATHER ROUNDUP
NATIONAL WEATHER SERVICE COLUMBIA SC
400 PM EDT SUN OCT 23 2022

NOTE: "FAIR" INDICATES FEW OR NO CLOUDS BELOW 12,000 FEET WITH NO
SIGNIFICANT WEATHER AND/OR OBSTRUCTIONS TO VISIBILITY.

NOT ALL STATIONS ARE QUALITY CONTROLLED BY THE NATIONAL 
WEATHER SERVICE. USE DATA WITH CAUTION...ESPECIALLY 
DEWPOINT OBSERVATIONS.

SCZ001>059-115-116-135>137-GAZ040-063>065-077-232100-
...UPSTATE SOUTH CAROLINA...
  
CITY           SKY/WX    TMP DP  RH WIND       PRES   REMARKS
ANDERSON       SUNNY     74  37  26 CALM      30.15F                  
LIBERTY        SUNNY     76  38  25 MISG      30.15S                  
SPARTANBURG    SUNNY     72  32  23 CALM      30.15F                  
CLEMSON        SUNNY     73  36  25 SE3       30.16F                  
GREENVILLE     SUNNY     74  37  26 SE5       30.16F                  
GREENWOOD      SUNNY     74  41  30 VRB6      30.16F                  
GREER          SUNNY     72  37  28 CALM      30.16F                  
ROCK HILL      SUNNY     73  44  35 N5        30.15F                  
CHESTER        SUNNY     72  41  33 N5        30.16F                  
LAURENS        SUNNY     73  41  31 CALM      30.15F                  


...CENTRAL SOUTH CAROLINA...
  
CITY           SKY/WX    TMP DP  RH WIND       PRES   REMARKS
COLUMBIA APT   MOSUNNY   76  47  35 NE6       30.13F                  
COLUMBIA OWENS SUNNY     76  45  33 VRB6      30.14F                  
MCENTIRE ANGB  SUNNY     75  42  30 N5        30.11F                  
ORANGEBURG     SUNNY     75  49  39 N9        30.13F                  
SUMTER SHAW    SUNNY     75  44  32 N7        30.11F                  
NEWBERRY       SUNNY     73  41  31 N7        30.18F                  
AIKEN          FAIR      76  48  37 N7        30.15S                  
BARNWELL       FAIR      75  48  38 CALM      30.13F                  
MANNING        FAIR      73  43  33 N9        30.13S                  
CAMDEN         FAIR      75  43  31 N6G16     30.14F                  
LANCASTER      SUNNY     73  43  33 CALM      30.15S                  
WINNSBORO      SUNNY     73  43  33 CALM      30.15S                  


...EASTERN AND COASTAL SOUTH CAROLINA...
  
CITY           SKY/WX    TMP DP  RH WIND       PRES   REMARKS
MYRTLE BEACH   SUNNY     74  44  34 NW15      30.11S                  
N MYRTLE BCH   MOSUNNY   74  43  32 NW7       30.10S                  
CONWAY         FAIR      72  43  35 NW6       30.12S                  
MARION         FAIR      72  28  20 N7        30.13S                  
HARTSVILLE     FAIR      72  43  35 N5        30.14F                  
FLORENCE       SUNNY     74  43  32 VRB3      30.13F                  
DARLINGTON     SUNNY     75  43  31 VRB5      30.14F                  
CHARLESTON APT SUNNY     75  51  43 NW9       30.12F                  
MOUNT PLEASANT FAIR      75  50  41 CALM      30.12R                  
WALTERBORO     SUNNY     73  48  40 N5        30.14S                  
BEAUFORT       SUNNY     78  51  38 N6        30.13S                  
HILTON HEAD    SUNNY     75  54  46 NE6G13    30.13F                  


...EASTERN GEORGIA...
  
CITY           SKY/WX    TMP DP  RH WIND       PRES   REMARKS
AUGUSTA BUSH F SUNNY     77  48  35 NW3       30.13                   
AUGUSTA DANIEL SUNNY     75  46  35 CALM      30.14F                  
THOMSON        SUNNY     75  48  38 E5        30.15S                  
WASHINGTON     FAIR      75  42  30 W7        30.15F                  
CLAXTON        FAIR      78  50  37 CALM      30.13S HAZE             
SYLVANIA       SUNNY     78  50  37 N3        30.14S                  
STATESBORO     SUNNY     76  47  35 NW6       30.13F                  
SAVANNAH       MOSUNNY   78  50  37 N8        30.12F                  


...SOUTHERN NORTH CAROLINA...
  
CITY           SKY/WX    TMP DP  RH WIND       PRES   REMARKS
CHARLOTTE      MOSUNNY   73  35  25 SW8       30.16F                  
MONROE         SUNNY     72  41  32 VRB3      30.14F                  
WADESBORO      SUNNY     74  38  26 NE5       30.14F                  
ROCKINGHAM     SUNNY     73  42  33 N5        30.14F                  
RUTHERFORDTON  SUNNY     72  37  28 E3        30.16F                  
ASHEVILLE      SUNNY     71  33  24 S3        30.17F                  

$$
  
