ASUS42 KCAE 232110
RWRCAE
REGIONAL WEATHER ROUNDUP
NATIONAL WEATHER SERVICE COLUMBIA SC
500 PM EDT SUN OCT 23 2022

NOTE: "FAIR" INDICATES FEW OR NO CLOUDS BELOW 12,000 FEET WITH NO
SIGNIFICANT WEATHER AND/OR OBSTRUCTIONS TO VISIBILITY.

NOT ALL STATIONS ARE QUALITY CONTROLLED BY THE NATIONAL 
WEATHER SERVICE. USE DATA WITH CAUTION...ESPECIALLY 
DEWPOINT OBSERVATIONS.

SCZ001>059-115-116-135>137-GAZ040-063>065-077-232200-
...UPSTATE SOUTH CAROLINA...
  
CITY           SKY/WX    TMP DP  RH WIND       PRES   REMARKS
ANDERSON       SUNNY     75  36  24 VRB3      30.14F                  
LIBERTY        SUNNY    N/A N/A N/A MISG      30.15R                  
SPARTANBURG    SUNNY     72  32  23 CALM      30.15S                  
CLEMSON        SUNNY     72  37  28 CALM      30.15F                  
GREENVILLE     SUNNY     74  37  26 CALM      30.16S                  
GREENWOOD      SUNNY     74  40  29 CALM      30.16S                  
GREER          SUNNY     73  37  27 CALM      30.16S                  
ROCK HILL      SUNNY     73  41  31 N6        30.15S                  
CHESTER        SUNNY     72  41  33 CALM      30.16S                  
LAURENS        SUNNY     73  41  31 N5        30.15S                  


...CENTRAL SOUTH CAROLINA...
  
CITY           SKY/WX    TMP DP  RH WIND       PRES   REMARKS
COLUMBIA APT   MOSUNNY   75  49  39 VRB3      30.13S                  
COLUMBIA OWENS SUNNY     76  45  33 VRB3      30.14S                  
MCENTIRE ANGB  SUNNY     75  44  32 N3        30.12R                  
ORANGEBURG     SUNNY     75  47  36 NW8       30.13S                  
SUMTER SHAW    SUNNY     75  45  34 N6        30.12R                  
NEWBERRY       SUNNY     73  41  31 NE6       30.17F                  
AIKEN          FAIR      74  46  36 NE7       30.14S                  
BARNWELL       FAIR      77  48  36 NW5       30.13S                  
MANNING        FAIR      72  43  35 N5        30.13S                  
CAMDEN         FAIR      75  41  29 NW6       30.14S                  
LANCASTER      SUNNY     73  41  31 CALM      30.15S                  
WINNSBORO      SUNNY     73  43  33 CALM      30.15S                  


...EASTERN AND COASTAL SOUTH CAROLINA...
  
CITY           SKY/WX    TMP DP  RH WIND       PRES   REMARKS
MYRTLE BEACH   SUNNY     74  43  32 N13       30.10F                  
N MYRTLE BCH   SUNNY     73  41  31 N6        30.09F                  
CONWAY         FAIR      72  43  35 NW5       30.11F                  
MARION         FAIR      72  30  21 N7        30.12F                  
HARTSVILLE     FAIR      72  41  33 NE6       30.13F                  
FLORENCE       SUNNY     75  43  31 N9        30.13S                  
DARLINGTON     SUNNY     74  43  32 N9        30.14S                  
CHARLESTON APT MOSUNNY   74  50  42 N9        30.12S                  
MOUNT PLEASANT FAIR      75  50  41 CALM      30.11S                  
WALTERBORO     SUNNY     73  50  43 N5        30.14S                  
BEAUFORT       SUNNY     77  50  38 N8        30.12F                  
HILTON HEAD    SUNNY     75  54  46 CALM      30.14R                  


...EASTERN GEORGIA...
  
CITY           SKY/WX    TMP DP  RH WIND       PRES   REMARKS
AUGUSTA BUSH F SUNNY     77  45  32 NW5       30.12F                  
AUGUSTA DANIEL SUNNY     77  45  32 N7        30.14S                  
THOMSON        SUNNY     75  48  38 E6        30.14S                  
WASHINGTON     FAIR      75  43  31 E6        30.15S                  
CLAXTON        FAIR      78  49  36 E3        30.13S                  
SYLVANIA       SUNNY     78  49  35 N3        30.14S                  
STATESBORO     SUNNY     76  47  36 CALM      30.13S                  
SAVANNAH       MOSUNNY   77  50  38 N9        30.12S                  


...SOUTHERN NORTH CAROLINA...
  
CITY           SKY/WX    TMP DP  RH WIND       PRES   REMARKS
CHARLOTTE      MOSUNNY   73  38  27 VRB3      30.16S                  
MONROE         SUNNY     73  40  30 N6        30.14S                  
WADESBORO      SUNNY     74  37  26 N3        30.14S                  
ROCKINGHAM     SUNNY     73  42  33 N5        30.13S                  
RUTHERFORDTON  SUNNY     72  37  28 CALM      30.16S                  
ASHEVILLE      SUNNY     71  32  23 S7        30.17S                  

$$
  
