ASUS45 KBOI 231910
RWRID 

IDAHO REGIONAL WEATHER ROUNDUP
NATIONAL WEATHER SERVICE BOISE ID
100 PM MDT SUN OCT 23 2022

NOTE: "FAIR" INDICATES FEW OR NO CLOUDS BELOW 12000 FEET
WITH NO SIGNIFICANT WEATHER AND/OR OBSTRUCTIONS TO VISIBILITY

IDZ012-014-232000-
SOUTHWEST IDAHO

  
CITY           SKY/WX    TMP DP  RH WIND       PRES   REMARKS
BOISE          MOSUNNY   48  31  51 NW15      29.98R                  
CALDWELL       NOT AVBL                                               
MOUNTAIN HOME  MOSUNNY   46  30  54 NW25G35   29.94R                  
$$

IDZ016-017-232000-
SOUTHCENTRAL IDAHO

  
CITY           SKY/WX    TMP DP  RH WIND       PRES   REMARKS
BURLEY         MOSUNNY   43  30  60 W18G32    29.85R                  
JEROME         SUNNY     44  31  60 W24G35    29.87R                  
TWIN FALLS     MOSUNNY   41  29  62 W25G39    29.88S                  
$$

IDZ019>023-232000-
SOUTHEAST IDAHO

  
CITY           SKY/WX    TMP DP  RH WIND       PRES   REMARKS
IDAHO FALLS    CLOUDY    42  23  46 VRB6      29.78R                  
POCATELLO      PTSUNNY   38  29  70 SW17      29.83R WCI  28          
REXBURG        CLOUDY    40  25  55 MISG      29.77R                  
$$

IDZ006-010-011-018-031-032-232000-
CENTRAL IDAHO MOUNTAINS

  
CITY           SKY/WX    TMP DP  RH WIND       PRES   REMARKS
MCCALL         CLOUDY    36  24  62 NW6       29.92R WCI  31          
HAILEY         MOSUNNY   41  12  30 W20       29.83R                  
STANLEY          N/A     32  18  56 NW8G20    29.88R WCI  25          
SALMON         CLOUDY    41  25  53 S8        29.88R                  
CHALLIS        CLOUDY    40  17  39 NW15G26   29.86R WCI  32          
$$

IDZ002-004-006-007-026-232000-
NORTHERN IDAHO

  
CITY           SKY/WX    TMP DP  RH WIND       PRES   REMARKS
LEWISTON       SUNNY     46  38  73 S7        30.05R                  
LOWELL           N/A     43  39  86 CALM      30.05R                  
COEUR D'ALENE  MOSUNNY   45  35  68 NW3       30.02R                  
MULLAN PASS    HAZE      31  26  82 VRB3      29.91R VSB 3/4          
$$
  
