ASUS45 KBOI 231710
RWRID 

IDAHO REGIONAL WEATHER ROUNDUP
NATIONAL WEATHER SERVICE BOISE ID
1100 AM MDT SUN OCT 23 2022

NOTE: "FAIR" INDICATES FEW OR NO CLOUDS BELOW 12000 FEET
WITH NO SIGNIFICANT WEATHER AND/OR OBSTRUCTIONS TO VISIBILITY

IDZ012-014-231800-
SOUTHWEST IDAHO

  
CITY           SKY/WX    TMP DP  RH WIND       PRES   REMARKS
BOISE          SUNNY     42  32  67 NW13      29.95R                  
CALDWELL       NOT AVBL                                               
MOUNTAIN HOME  SUNNY     42  32  67 W24       29.91R                  
$$

IDZ016-017-231800-
SOUTHCENTRAL IDAHO

  
CITY           SKY/WX    TMP DP  RH WIND       PRES   REMARKS
BURLEY         MOSUNNY   37  28  70 W17G33    29.81R WCI  27          
JEROME         SUNNY     37  28  70 W21       29.85R WCI  26          
TWIN FALLS     MOSUNNY   38  28  67 W23G35    29.86R WCI  27          
$$

IDZ019>023-231800-
SOUTHEAST IDAHO

  
CITY           SKY/WX    TMP DP  RH WIND       PRES   REMARKS
IDAHO FALLS    CLOUDY    37  26  64 CALM      29.76R                  
POCATELLO      PTSUNNY   35  29  78 W17       29.80R WCI  25          
REXBURG        CLOUDY    35  26  69 W5        29.75R WCI  31          
$$

IDZ006-010-011-018-031-032-231800-
CENTRAL IDAHO MOUNTAINS

  
CITY           SKY/WX    TMP DP  RH WIND       PRES   REMARKS
MCCALL         PTSUNNY   33  25  72 CALM      29.89R                  
STANLEY          N/A     26  20  77 N3        29.84R                  
SALMON         CLOUDY    39  26  59 NE9       29.85R WCI  33          
CHALLIS        CLOUDY    35  20  54 E5        29.82R WCI  31          
$$

IDZ002-004-006-007-026-231800-
NORTHERN IDAHO

  
CITY           SKY/WX    TMP DP  RH WIND       PRES   REMARKS
LEWISTON       CLOUDY    40  36  86 CALM      30.02R                  
LOWELL           N/A     41  38  89 CALM      30.01R                  
COEUR D'ALENE  CLOUDY    39  35  86 SW5       29.99R                  
MULLAN PASS    HVY SNOW  31  26  82 CALM      29.87R VSB<1/4          
$$
  
