ASUS45 KBOI 232110
RWRID 

IDAHO REGIONAL WEATHER ROUNDUP
NATIONAL WEATHER SERVICE BOISE ID
300 PM MDT SUN OCT 23 2022

NOTE: "FAIR" INDICATES FEW OR NO CLOUDS BELOW 12000 FEET
WITH NO SIGNIFICANT WEATHER AND/OR OBSTRUCTIONS TO VISIBILITY

IDZ012-014-232200-
SOUTHWEST IDAHO

  
CITY           SKY/WX    TMP DP  RH WIND       PRES   REMARKS
BOISE          PTSUNNY   49  29  46 NW16      29.98R                  
CALDWELL       NOT AVBL                                               
MOUNTAIN HOME  MOSUNNY   48  28  45 NW24G30   29.96R                  
$$

IDZ016-017-232200-
SOUTHCENTRAL IDAHO

  
CITY           SKY/WX    TMP DP  RH WIND       PRES   REMARKS
BURLEY         PTSUNNY   44  27  51 W16G24    29.86S                  
JEROME         MOSUNNY   45  28  51 W28G38    29.88R                  
TWIN FALLS     MOSUNNY   43  28  55 W25G38    29.90R                  
$$

IDZ019>023-232200-
SOUTHEAST IDAHO

  
CITY           SKY/WX    TMP DP  RH WIND       PRES   REMARKS
IDAHO FALLS    CLOUDY    39  24  55 W9G21     29.82R WCI  33          
POCATELLO      PTSUNNY   40  27  59 SW17      29.84R WCI  31          
REXBURG        PTSUNNY   43  23  45 N13G25    29.79R                  
$$

IDZ006-010-011-018-031-032-232200-
CENTRAL IDAHO MOUNTAINS

  
CITY           SKY/WX    TMP DP  RH WIND       PRES   REMARKS
MCCALL         CLOUDY    38  19  46 N8        29.95R WCI  32          
HAILEY         PTSUNNY   43  16  33 W10G18    29.85R                  
STANLEY          N/A     32  18  56 NW10G17   29.90R WCI  24          
SALMON         CLOUDY    42  23  46 N8G20     29.91R                  
CHALLIS        CLOUDY    40  17  39 NW14      29.88R WCI  32          
$$

IDZ002-004-006-007-026-232200-
NORTHERN IDAHO

  
CITY           SKY/WX    TMP DP  RH WIND       PRES   REMARKS
LEWISTON       PTSUNNY   51  35  54 S3        30.07R                  
LOWELL           N/A     43  40  89 CALM      30.09R                  
COEUR D'ALENE  PTSUNNY   49  34  56 SW8       30.04R                  
MULLAN PASS    FOG       30  26  85 NW5       29.96R VSB 1/4 WCI  25  
$$
  
