ASGM40 PGUM 231910
RWRGUM
WEATHER ROUNDUP FOR THE MARIANAS
NATIONAL WEATHER SERVICE TIYAN GU
500 AM CHST MON OCT 24 2022

GUZ001>004-232000-
MARIANA ISLANDS-
  
CITY           SKY/WX    TMP DP  RH WIND       PRES   REMARKS
GUAM AIRPORT   LGT RAIN  81  75  83 E9        29.79S                  
ANDERSEN AFB   MOCLDY    79  73  83 E14       29.80R                  
ROTA AIRPORT   NOT AVBL                                               
TINIAN AP      NOT AVBL                                               
SAIPAN AP      PTCLDY    82  77  83 E8        29.80S HX  91           

$$

  
