ASGM40 PGUM 232110
RWRGUM
WEATHER ROUNDUP FOR THE MARIANAS
NATIONAL WEATHER SERVICE TIYAN GU
700 AM CHST MON OCT 24 2022

GUZ001>004-232200-
MARIANA ISLANDS-
  
CITY           SKY/WX    TMP DP  RH WIND       PRES   REMARKS
GUAM AIRPORT   MOSUNNY   82  75  78 E8        29.84R                  
ANDERSEN AFB   MOSUNNY   79  73  83 SE13      29.84R                  
ROTA AIRPORT   PTSUNNY   79  73  83 E9        29.80R                  
TINIAN AP      NOT AVBL                                               
SAIPAN AP      PTSUNNY   82  75  78 E12       29.84R                  

$$

  
