ASCA42 TJSJ 232110
RWRPR 
PUERTO RICO/U.S. VIRGIN ISLANDS HOURLY WEATHER ROUNDUP
NATIONAL WEATHER SERVICE SAN JUAN PR
500 PM AST SUN OCT 23 2022

PRZ001>002-007>008-010-232200-
PUERTO RICO
  
CITY           SKY/WX    TMP DP  RH WIND       PRES   REMARKS
SAN JUAN LMM   NOT AVBL                                               
AGUADILLA      MOSUNNY   82  73  74 E10       29.90S                  
CEIBA          MOSUNNY   82  73  74 NE6       29.90S                  
$$

VIZ001>002-232200-
U.S. VIRGIN ISLANDS
  
CITY           SKY/WX    TMP DP  RH WIND       PRES   REMARKS
CHARLOTTE AMA  MOSUNNY   84  73  70 NE5       29.88S HX  91           
CHRISTIANSTED  MOSUNNY   86  73  66 NE9       29.88S HX  93           
$$

HOURLY WEATHER ROUNDUP FOR THE NEWS MEDIA
  
CITY           SKY/WX    TMP DP  RH WIND       PRES   REMARKS
ORLANDO        SUNNY     83  57  41 NE7       30.06S                  
NEW YORK       LGT RAIN  58  50  75 NE13      30.24F                  
NEWARK         LGT RAIN  60  48  64 NE13      30.23F                  
CHICAGO        MOSUNNY   78  54  43 S21G41    29.82F                  
HARTFORD       LGT RAIN  57  57 100 N8        30.26F FOG              
BOSTON         LGT RAIN  56  48  74 NE8       30.33R                  
DALLAS         MOSUNNY   85  59  41 S18G39    29.75F                  
PHILADELPHIA   LGT RAIN  59  56  89 NE10      30.21S                  
LOS ANGELES    MOSUNNY   70  54  56 SW14      29.85F                  
WASHINGTON DC  CLOUDY    66  51  58 N13       30.19F                  
