ASCA42 TJSJ 231710
RWRPR 
PUERTO RICO/U.S. VIRGIN ISLANDS HOURLY WEATHER ROUNDUP
NATIONAL WEATHER SERVICE SAN JUAN PR
100 PM AST SUN OCT 23 2022

PRZ001>002-007>008-010-231800-
PUERTO RICO
  
CITY           SKY/WX    TMP DP  RH WIND       PRES   REMARKS
SAN JUAN LMM   MOSUNNY   88  75  66 NE12      29.91F HX  97           
AGUADILLA      SUNNY     86  73  66 E14       29.94F HX  93           
CEIBA          SUNNY     86  73  66 NE8       29.93F HX  93           
$$

VIZ001>002-231800-
U.S. VIRGIN ISLANDS
  
CITY           SKY/WX    TMP DP  RH WIND       PRES   REMARKS
CHARLOTTE AMA  MOSUNNY   88  75  66 S8        29.91F HX  97           
CHRISTIANSTED  MOSUNNY   88  75  66 SE13      29.92F HX  97           
$$

HOURLY WEATHER ROUNDUP FOR THE NEWS MEDIA
  
CITY           SKY/WX    TMP DP  RH WIND       PRES   REMARKS
ORLANDO        SUNNY     81  59  47 N12       30.12F                  
NEW YORK       LGT RAIN  58  51  78 NE12      30.26F                  
NEWARK         LGT RAIN  61  48  62 N9        30.27F                  
CHICAGO        MOSUNNY   73  54  51 S21G32    29.90F                  
HARTFORD       CLOUDY    62  54  74 NE6       30.31F                  
BOSTON         CLOUDY    57  50  77 NE8       30.35F                  
DALLAS         PTSUNNY   79  62  56 S21G33    29.85F                  
PHILADELPHIA   CLOUDY    63  54  72 NE14      30.24F                  
LOS ANGELES    MOSUNNY   66  54  65 CALM      29.87R                  
WASHINGTON DC  CLOUDY    62  51  67 N7        30.25F                  
