FTPA32 KWBC 231712
TAF
TAF NFFN 231706Z 2318/2418 14009KT 9999 SCT028 PROB40
      TEMPO 2401/2406 5000 TSRA FEW018CB PROB30
      TEMPO 2412/2418 5000 TSRA FEW018CB=
