FTSR31 WSSS 231700 AAA
TAF AMD WIII 232100Z 2321/2500 23005KT 6000 SCT020 
BECMG 2400/2402 34010KT=