FTPA32 KWBC 231748
TAF
TAF NFNA 231712Z 2318/2418 14009KT 9999 -RA BKN018 BKN045
      TEMPO 2318/2401 5000 RA SCT010 BKN015
      TEMPO 2401/2406 3000 +TSRA BKN015 FEW018CB
      TEMPO 2406/2418 5000 RA SCT010 BKN015=
TAF NFTF 231715Z 2318/2418 14012KT 9999 SCT016
      TEMPO 2318/2407 14015G28KT=
TAF NFTV 231718Z 2318/2418 15008KT 9999 FEW008 SCT017 PROB30
      TEMPO 2318/2402 5000 SHRA FEW016CB=
