FTPA32 KWBC 231721
TAF
TAF NCRG 231715Z 2318/2418 35012KT 7000 -RA SCT008 BKN018 BKN040
      TEMPO 2318/2402 3000 +TSRA BKN008 FEW018CB
      TEMPO 2402/2418 35015G28KT 1500 +TSRA BKN006 SCT015CB=
