FTSR31 WSSS 231700
TAF WSSS 231700Z 2318/2500 32007KT 9999 FEW015 BKN020 
TEMPO 2406/2409 3000 TSRA FEW012CB BKN015=
TAF WSAP 231700Z 2318/2500 32007KT 9999 FEW015 BKN020 
TEMPO 2406/2409 3000 TSRA FEW012CB BKN015=
TAF WSSL 231700Z 2318/2500 32007KT 9999 FEW015 BKN020 
TEMPO 2406/2409 3000 TSRA FEW012CB BKN015=
TAF WAAA 231700Z 2318/2500 11004KT 8000 FEW019
BECMG 2402/2403 29010KT=
TAF WABB 231700Z 2318/2500 31005KT 9999 SCT018
TEMPO 2318/2322 5000 TSRA FEW017CB
BECMG 2323/2400 23006KT=
TAF WADD 231700Z 2318/2418 VRB05KT 8000 SCT016
TEMPO 2318/2322 -TSRA FEW014CB BKN015=
TAF WARR 231700Z 2318/2418 25005KT 5000 HZ FEW020
BECMG 2401/2403 08010KT 9999 NSW
BECMG 2412/2414 25005KT
BECMG 2416/2418 5000 HZ=
TAF WIHH 231700Z 2318/2418 20004KT 5000 HZ SCT020 
BECMG 2401/2403 28008KT 7000=
TAF WIII 231700Z 2318/2500 23005KT 6000 FEW018CB SCT020 
TEMPO 2320/2400 4000 -TSRA FEW014CB 
BECMG 2400/2402 34010KT=
TAF WIMM 231700Z 2318/2418 VRB05KT 5000 HZ SCT018
BECMG 2401/2403 02008KT 9999 NSW
BECMG 2410/2412 VRB05KT 5000 HZ
TEMPO 2412/2416 -TSRA FEW016CB=