FTPA32 KWBC 232112 AAA
TAF AMD
TAF AMD NGTA 232107Z 2321/2418 10008KT 9999 SCT019 BKN040 PROB30
      TEMPO 2321/2406 3000 +SHRA BKN015=
