FTHA31 KWBC 231739
TAF
TAF MTCH 231730Z 2318/2418 02010KT 9000 FEW026TCU SCT200 PROB30
      TEMPO 2402/2406 4000 TSRA BKN022CB
     FM240800 12005KT 8000 FEW024 SCT070
      BECMG 2414/2418 03012KT=
