FTPQ31 PGUM 232050 RRA
TAFGRO
TAF
PGRO 232050Z 2321/2418 11011KT P6SM VCSH SCT015 SCT110=
