FTPQ31 PGUM 231725
TAFGSN
TAF
PGSN 231725Z 2318/2418 09008KT P6SM VCSH SCT020 SCT050
     FM232200 12013KT P6SM VCSH SCT020 SCT050=
