FTPA32 KWBC 231739
TAF
TAF NSTU 231735Z 2318/2418 34008KT P6SM VCSH SCT020 BKN040 BKN100
     FM240500 25007KT 6SM -SHRA SCT020 BKN040 OVC100=
