FTPA32 KWBC 231730
TAF
TAF NSFA 231721Z 2318/2418 31008KT 9999 -SHRA SCT018 BKN40 PROB30
      TEMPO 2318/2323 5000 SHRA FEW018CB
      TEMPO 2323/2418 5000 +TSRA BKN015 SCT016CB=
