FTPF21 NTAA 231700
TAF NTAA 231700Z 2318/2424 VRB05KT 9999 FEW026 TEMPO 2321/2403
05015KT BECMG 2318/2321 SCT020 BKN050=