FTHA31 KWBC 231736
TAF
TAF MTPP 231700Z 2318/2418 VRB02KT 9999 SCT025TCU
      BECMG 2318/2320 30010KT PROB30
      TEMPO 2400/2406 4500 -TSRA SCT022CB BKN050
      BECMG 2408/2412 14005KT 7000 NSW SCT024 BKN200
      BECMG 2416/2418 32010KT=
