FTPQ31 PGUM 231725
TAFTYA
TAF
PTYA 231725Z 2318/2418 19010KT P6SM VCSH SCT016 BKN120
      TEMPO 2318/2322 15010G20KT 3SM +SHRA OVC016=
