FTPA32 KWBC 232106 AAA
TAF AMD
TAF AMD NTAA 232058Z 2320/2424 04012KT 9999 FEW026
      BECMG 2418/2420 SCT020 BKN050
      TEMPO 2418/2424 05015G25KT 3500 SHRA=
