FTPQ31 PGUM 231725
TAFGUM
TAF
PGUM 231725Z 2318/2424 12011KT P6SM VCSH SCT015 SCT050 SCT120=
