FTNZ31 NZKL 231700
TAF NZAA 231729Z 2318/2500 14005KT 9999 SCT020
FM232200 22015KT 9999 BKN025
BECMG 2412/2414 18005KT
BECMG 2421/2423 05012KT=
TAF NZWN 231729Z 2318/2500 01020G30KT CAVOK
BECMG 2321/2323 34015KT
FM240500 18025KT 9999 -SHRA BKN020
BECMG 2415/2417 16015KT
TEMPO 2415/2418 6000 SHRA=
TAF NZCH 231729Z 2318/2500 22008KT CAVOK
FM232300 21018G30KT 9999 -RA BKN025
BECMG 2403/2405 21012KT
TEMPO 2403/2408 7000 RA
FM240800 27005KT 9999 SCT025
PROB30 2415/2419 0500 FG
BECMG 2422/2500 03012KT=