SAUS80 KWBC 231900 RRA
METAR
KCON 231851Z AUTO 00000KT 10SM CLR 15/07 A3035 RMK AO2 SLP278
     T01500067=
KPVD 231851Z 01007KT 10SM -RA FEW070 SCT090 OVC130 14/12 A3030 RMK
     AO2 SLP261 P0001 T01390117=
KATT 231851Z AUTO 16008G20KT 10SM BKN050 31/17 A2985 RMK AO2
     SLP096 T03060167=
K6R6 231851Z AUTO 12007KT 19/16 A2983 RMK AO1 SLP075 T01890161=
KREO 231852Z AUTO 31009G21KT 07/M06 A3000 RMK AO1 SLP166
     T00721056=
