SAUS70 KWBC 232140 RRH
METAR
KPTT 232135Z AUTO 19029G40KT 5SM HZ CLR 27/11 A2945 RMK AO2
     T02700110=
KRBO 232135Z AUTO 10SM SCT001 SCT034 30/21 A2980 RMK AO2
     T02960208=
KRCR 232135Z AUTO 17014KT 10SM CLR 24/11 A2997 RMK AO2=
KRCV 232135Z AUTO 23011G22KT 10SM SCT038 OVC048 04/M05 A2965 RMK
     AO2 T00431051=
KRDK 232135Z AUTO 16023G30KT FEW120 28/14 A2941 RMK AO2=
KREG 232135Z AUTO 13007KT 10SM BKN060 27/14 A3003 RMK AO2
     T02660141=
KSBO 232135Z AUTO 00000KT 10SM CLR 25/09 A3014 RMK AO2=
KSBS 232135Z AUTO 00000KT 1/4SM OVC005 M02/M02 A2965 RMK AO1
     T10181018=
KSDA 232135Z AUTO 18023G35KT 10SM FEW120 27/15 A2941 RMK AO2=
KSEF 232135Z AUTO 02009KT 10SM SCT050 28/16 A3005 RMK AO2
     T02770159=
KSHL 232135Z AUTO 16021G30KT 10SM CLR 27/13 A2930 RMK AO2=
KSJS 232135Z AUTO 19004KT 10SM CLR 23/06 A3014 RMK AO2
     T02320058=
KSLB 232135Z AUTO 16026G33KT 9SM CLR 26/14 A2938 RMK AO2=
KSNL 232135Z AUTO 17023G28KT 10SM CLR 28/12 A2967 RMK AO2
     T02770119=
KSUT 232135Z AUTO 34007KT 10SM CLR 23/10 A3009 RMK AO2
     T02260095=
KT35 232135Z AUTO 17017G25KT 10SM BKN055 30/17 A2980 RMK AO2
     T03040166=
KTAZ 232135Z AUTO 18020G28KT 10SM CLR 25/14 A2984 RMK AO2
     T02450140=
KTBR 232135Z AUTO 00000KT 10SM CLR 24/08 A3012 RMK AO2
     T02410082=
KTIF 232135Z AUTO 30017G28KT 10SM CLR 19/01 A2925 RMK AO2
     T01900007=
KTIP 232135Z AUTO 16017G26KT 10SM CLR 24/12 A2989 RMK AO2
     T02370115=
KTQK 232135Z AUTO 22026G43KT 4SM HZ BKN036 29/03 A2934 RMK AO2
     T02910029=
KTVI 232135Z AUTO 00000KT 10SM CLR 25/08 A3012 RMK AO2=
KUBE 232135Z AUTO 13015G20KT 10SM CLR 23/16 A2959 RMK AO2=
KUNI 232135Z AUTO 14005KT 10SM CLR 24/06 A3011 RMK AO2
     T02400055=
KVDI 232135Z AUTO 00000KT 10SM CLR 25/10 A3012 RMK AO2=
KVPC 232135Z AUTO 00000KT 10SM CLR 24/02 A3013 RMK AO2=
KW22 232135Z AUTO 03005KT 10SM CLR 23/01 A3016 RMK AO2=
KWDR 232135Z AUTO 00000KT 10SM CLR 22/01 A3016 RMK AO2=
KXBP 232135Z AUTO 17016G24KT 10SM CLR 30/14 A2973 RMK AO2
     T02980136=
KZER 232135Z AUTO 08005KT 10SM -RA BKN050 OVC110 13/08 A3026 RMK
     AO2=
K04V 232135Z AUTO 28006G16KT 10SM SCT065 BKN075 BKN090 08/M03
     A2962 RMK AO2=
K06C 232135Z AUTO 17017G24KT 10SM CLR 25/16 A2983 RMK AO2
     T02480160=
K17J 232135Z AUTO 07006KT 10SM CLR 25/02 A3011 RMK AO2
     T02520022=
K1A6 232135Z AUTO 00000KT 10SM CLR 23/04 A3014 RMK AO2
     T02260043=
K1R8 232135Z AUTO VRB05KT 10SM CLR 25/11 A3006 RMK AO2=
K2G9 232135Z AUTO 11004KT 10SM CLR 15/02 A3022 RMK AO2=
K33V 232135Z AUTO 33009KT 1/4SM OVC002 M03/M04 A2961 RMK AO1=
K3K3 232135Z AUTO 22026G39KT 10SM SCT037 BKN045 BKN110 28/00 A2937
     RMK AO2=
K4O4 232135Z AUTO 16017G25KT 9SM OVC050 28/15 A2981 RMK AO2=
K5C1 232135Z AUTO 15012G20KT 10SM BKN046 26/15 A2982 RMK AO1=
K5R8 232135Z AUTO 14012G18KT 10SM BKN036 OVC043 26/18 A2996 RMK
     AO2 T02620180=
K66R 232135Z AUTO 17011KT 10SM SCT047 SCT065 28/17 A2986 RMK AO2
     T02810170=
K6P9 232135Z AUTO 17017G22KT 10SM CLR 29/13 A2973 RMK AO2
     T02920128=
KAFO 232135Z AUTO 32011G15KT 10SM SCT038 BKN055 OVC065 00/M08
     A2977 RMK AO2=
KAJZ 232135Z AUTO 27017G21KT 10SM CLR 07/02 A2968 RMK AO2
     T00660019=
KAPS 232137Z AUTO 15008KT 10SM CLR 26/14 A3004 RMK AO2=
KAQO 232135Z AUTO 17018G24KT 10SM CLR 29/14 A2977 RMK AO2=
KASL 232135Z AUTO 00000KT 10SM FEW060 29/13 A2985 RMK AO2
     T02870134 TSNO $=
KAUN 232135Z AUTO 34009G18KT 280V040 10SM CLR 20/M08 A2993 RMK
     A01=
KAZE 232135Z AUTO 03005KT 10SM CLR 25/10 A3011 RMK AO2
     T02500102=
KBBP 232135Z AUTO 00000KT 10SM CLR 22/06 A3012 RMK AO2=
KBHC 232135Z AUTO 00000KT 10SM CLR A3011 RMK AO2=
