SAUS80 KWBC 231804
METAR
K77S 231815Z AUTO 18008KT 10SM SCT038 11/08 A3018 RMK A01=
KM25 231815Z AUTO 21015G26KT 10SM CLR 25/10 A3004 RMK AO2
     PWINO=
KSFY 231803Z AUTO 16017G21KT 10SM CLR 24/13 A2977 RMK AO2=
