SAUS70 KWBC 231908
METAR
K1S5 231915Z AUTO 00000KT 10SM CLR 11/02 A3009 RMK AO2
     T01120020=
KCPF 231915Z AUTO 00000KT 10SM CLR 25/05 A3016 RMK AO2=
KEMV 231915Z AUTO 33008G14KT 10SM OVC017 16/13 A3016 RMK AO2
     T01560125=
KFFA 231915Z AUTO 34009G15KT 1 3/4SM -DZ OVC003 16/16 A3004 RMK
     AO2 T01600160=
KMCJ 231915Z AUTO 18024G33KT 10SM SCT060 SCT065 28/14 A2988 RMK
     A01=
KSUW 231915Z AUTO 05011G15KT 10SM CLR 14/09 A2966 RMK AO2
     T01400093=
KTFP 231835Z AUTO 16017G22KT 10SM SCT027 SCT032 SCT043 30/22 A2985
     RMK AO2 T02960216=
