SAUS70 KWBC 231918 RRD
METAR
KUKT 231915Z AUTO VRB06G13KT 10SM SCT047 18/10 A3025 RMK A01=
KVGC 231915Z AUTO 16004KT 10SM CLR 17/07 A3028 RMK AO2=
KVVV 231915Z 13017G33KT 10SM 23/13 A2932 RMK AO2=
KJYM 231915Z AUTO 18014G21KT 10SM SCT050 23/08 A3006 RMK AO2
     T02280075=
KLWA 231915Z AUTO 18016G21KT 10SM SCT050 26/12 A2994 RMK AO2
     T02600121=
KLXL 231915Z AUTO 13017G23KT 10SM CLR 23/12 A2948 RMK AO2=
KMCD 231915Z AUTO 10005KT 10SM CLR 18/10 A3000 RMK AO2
     T01760104=
KMQJ 231915Z AUTO RMK AO1=
KMWM 231915Z AUTO 13024G29KT 10SM CLR 24/12 A2940 RMK AO2=
KOEB 231915Z AUTO 16012G19KT 10SM CLR 24/10 A3004 RMK AO2
     T02350104=
KONZ 231915Z AUTO 15005KT 10SM SCT080 BKN100 BKN120 22/05 A3010
     RMK AO2 T02210051=
KOXD 231915Z AUTO 20014G18KT 10SM SCT050 26/05 A3009 RMK AO2
     T02600047=
KPJC 231915Z AUTO RMK AO2 TSNO PWINO=
KPNM 231915Z AUTO 11014G21KT 10SM CLR 24/13 A2952 RMK AO2 TSNO=
KRMY 231915Z AUTO 15010G18KT 10SM BKN055 24/10 A3003 RMK AO2
     T02390104=
KRNP 231915Z AUTO 16009G19KT 3SM HZ CLR 24/09 A3005 RMK AO2
     T02410087=
KRQB 231915Z AUTO 16016G22KT 10SM SCT070 24/11 A2998 RMK AO2
     T02370111=
KRZT 231915Z AUTO 17005KT 10SM CLR 25/05 A3012 RMK AO2 PWINO=
KSJX 231915Z AUTO 16008G14KT 10SM CLR 24/11 A2996 RMK AO2
     T02420110=
KSLH 231915Z AUTO 16009KT 10SM SCT060 24/11 A2999 RMK AO2=
KSYM 231915Z AUTO 18009KT 10SM CLR 24/04 A3015 RMK AO2=
KTOB 231915Z AUTO 14025G33KT 10SM CLR 24/12 A2956 RMK AO2=
KTTF 231915Z AUTO 13009KT 10SM CLR 23/10 A3009 RMK AO2
     T02340100=
KULM 231915Z AUTO 14020G30KT 10SM CLR 24/11 A2943 RMK AO2=
KVLL 231915Z AUTO 16011G14KT 10SM CLR 23/09 A3012 RMK AO2
     T02340094=
KVWU 231915Z AUTO 12013G18KT 10SM CLR 26/12 A2953 RMK AO2=
KY63 231915Z AUTO 12024G31KT 10SM CLR 22/12 A2938 RMK AO2
     T02180120=
KY70 231915Z AUTO 17016G26KT 10SM SCT055 24/09 A3001 RMK AO2
     T02420088=
K04W 231915Z AUTO 13011G19KT 10SM CLR 23/13 A2957 RMK AO2=
K14Y 231915Z AUTO 14015G18KT 7SM CLR 22/12 A2946 RMK AO2=
K21D 231915Z AUTO 14012G27KT 10SM SCT044 23/12 A2955 RMK AO2=
K22N 231915Z AUTO 00000KT 10SM SCT065 BKN120 16/07 A3026 RMK
     AO2=
K3N8 231915Z AUTO 13016G21KT 10SM CLR 23/12 A2943 RMK AO2
     T02280115=
K6B0 231915Z AUTO 00000KT 10SM CLR 19/07 A3030 RMK AO2
     T01860069=
KACB 231915Z AUTO 16010G20KT 10SM BKN060 24/11 A2997 RMK AO2
     T02440109=
KADC 231915Z AUTO 13021G25KT 10SM CLR 24/11 A2944 RMK AO2 TSNO=
KAEL 231915Z AUTO 15020G30KT 10SM CLR 23/13 A2951 RMK AO2=
KAXV 231915Z AUTO 18013G18KT 10SM SCT055 23/08 A3009 RMK AO2=
KBVI 231915Z AUTO 14005KT 10SM CLR 24/02 A3020 RMK AO2
     T02410015=
KCAD 231915Z AUTO 16012G22KT 120V190 10SM SCT048 23/11 A2998 RMK
     AO2 T02260107=
KCDA 231915Z AUTO 12003KT 10SM 18/05 A3035 RMK AO2 T01800045=
KCDI 231915Z AUTO 17004KT 10SM CLR 24/09 A3016 RMK AO2
     T02370088=
KCNB 231915Z AUTO 10021G31KT 10SM CLR 24/11 A2934 RMK AO2
     T02400114=
KCVX 231915Z AUTO 17012G18KT 10SM CLR 23/12 A2996 RMK AO2
     T02330115=
KD95 231915Z AUTO 16009G17KT 10SM CLR 24/05 A3010 RMK AO2
     T02360053=
KDLZ 231915Z AUTO 17008KT 10SM CLR 22/08 A3013 RMK AO2=
KDTL 231915Z AUTO 12018G26KT 10SM CLR 23/12 A2940 RMK AO2=
KDUH 231915Z AUTO 16008G18KT 10SM CLR 25/07 A3008 RMK AO2
     T02450067=
KDYT 231915Z AUTO VRB05KT 7SM CLR 12/10 A2965 RMK AO2=
KEDJ 231915Z AUTO 17008G13KT 10SM SCT055 23/10 A3012 RMK A01=
KEFK 231915Z AUTO 02003KT 10SM CLR 19/07 A3032 RMK AO2
     T01870066=
KFFX 231915Z AUTO 16006G16KT 10SM BKN055 OVC070 25/12 A2995 RMK
     AO2 T02480116=
KFKA 231915Z AUTO 14019G26KT 10SM SCT041 23/13 A2960 RMK AO2
     T02300127=
