SAPA31 KWBC 231700 RRA
METAR
AGGH 231700Z 00000KT 9999 FEW013 FEW014CB BKN300 23/23 Q1007=
