SAUS70 KWBC 232200
METAR
KMCX 232155Z AUTO 17009G15KT 10SM CLR 24/10 A2994 RMK AO2
     T02370095=
KRID 232155Z AUTO 18010G16KT 7SM CLR 22/11 A3008 RMK AO2=
KW75 232155Z AUTO 34008KT 10SM OVC007 15/14 A3013 RMK AO1 P0001
     T01450136=
