SATO31 NFTF 231700
METAR NFTV 231700Z 16005KT 9999 FEW008 FEW016TCU 23/22 Q1011=

METAR NFTL 231700Z 09012KT 9999 SCT016TCU BKN100 23/22 Q1012=

METAR NFTF 231700Z 14009KT 9999 FEW016 22/18 Q1014=


