SAUS70 KWBC 232116 RRA
METAR
KPCZ 232115Z AUTO 11013G18KT 10SM SCT049 22/13 A2977 RMK AO2
     T02160125=
KPSK 232115Z AUTO 00000KT 10SM CLR 20/05 A3018 RMK AO2
     T01980046=
KRCM 232115Z AUTO 15014G19KT 10SM CLR 28/13 A2960 RMK AO2=
KRCX 232115Z AUTO 14016G23KT 10SM BKN045 23/15 A2968 RMK AO2
     T02280152=
KRHP 232115Z AUTO 25005KT 10SM CLR 24/M04 A3014 RMK AO2
     T02401037=
KSHD 232115Z AUTO 08004KT 10SM OVC034 17/06 A3022 RMK AO2
     T01700056=
KSRR 232115Z AUTO 24032G51KT 10SM 17/00 A2975 RMK AO2=
KVDF 232115Z AUTO 00000KT 10SM SCT060 29/17 A3006 RMK AO2=
KXSA 232115Z AUTO 34005KT 10SM -RA OVC020 15/15 A3016 RMK AO2
     T01500150=
