SAUS70 KWBC 231722 RRC
METAR
KDMW 231715Z AUTO 36005KT 10SM BKN041 18/10 A3025 RMK AO2=
KFME 231719Z AUTO 05005KT 10SM OVC050 18/08 A3024 RMK AO1=
K66R 231715Z AUTO 16010G16KT 10SM SCT042 BKN065 28/18 A2995 RMK
     AO2 T02770178=
K74V 231715Z AUTO 12003KT 01/00 A2965 RMK AO2 PWINO=
K7BM 231715Z AUTO 26012G24KT 1/2SM SN OVC004 00/00 A2959 RMK
     AO2=
K81R 231715Z AUTO 15018G24KT 10SM BKN035 26/17 A2987 RMK AO2
     T02630167=
KBDG 231715Z AUTO 22013KT 10SM 04/01 A2976 RMK AO1 T00440011=
KCFD 231715Z AUTO 18010G20KT 10SM BKN038 OVC050 27/18 A2995 RMK
     AO2 T02680178=
KDKB 231715Z AUTO 16018G23KT 10SM CLR 22/14 A2989 RMK AO2
     T02190143=
KDKR 231715Z AUTO 16016KT 10SM FEW038 SCT047 BKN055 28/17 A2994
     RMK AO2=
KE11 231715Z AUTO 21015G18KT 10SM CLR 26/09 A2979 RMK AO2
     T02620093=
KE41 231715Z AUTO 19012G19KT 10SM CLR 23/15 A2986 RMK AO2
     T02270152=
KECU 231715Z AUTO 15018G24KT 10SM 23/17 A2993 RMK AO2=
KFMM 231715Z AUTO 30015G24KT 10SM CLR 20/M03 A2927 RMK AO2=
KGCD 231715Z AUTO 00000KT 10SM SCT020 BKN029 OVC047 02/00 A3005
     RMK AO2 T00210002=
KGVT 231715Z AUTO 18024G32KT 10SM SCT039 27/16 A2988 RMK AO2 TSNO
     T02710159=
KJAS 231715Z AUTO 17007G13KT 130V200 9SM SCT040 BKN046 27/19 A2999
     RMK AO2=
KS33 231715Z AUTO 00000KT 10SM CLR 06/00 A3011 RMK AO2=
KADU 231715Z AUTO 18017G26KT 10SM BKN002 BKN018 OVC080 24/13 A2948
     RMK AO2 PWINO=
KAFK 231715Z AUTO 20024G35KT 10SM CLR 26/13 A2945 RMK AO2
     T02580126=
KAHQ 231715Z AUTO 18020G30KT 10SM CLR 26/12 A2939 RMK AO2
     T02640120=
KAIO 231715Z AUTO 17019G28KT 8SM CLR 25/15 A2945 RMK AO2=
KBBB 231717Z AUTO 16014G24KT 10SM CLR 22/12 A2944 RMK AO2=
KCFS 231715Z AUTO 15014G18KT 10SM CLR 22/10 A3011 RMK AO2
     T02210102=
KCKC 231717Z AUTO 13006KT 10SM SCT110 17/10 A2979 RMK AO2=
KCKN 231715Z AUTO 10006KT 10SM CLR 19/08 A2949 RMK AO2=
KDKB 231715Z AUTO 16018G23KT 10SM CLR 22/14 A2989 RMK AO2
     T02190143=
KDNV 231715Z AUTO 17017G23KT 10SM CLR 25/12 A2997 RMK AO2
     T02490120=
KFFL 231715Z AUTO 16018G24KT 10SM CLR 24/13 A2968 RMK A01=
KFKR 231715Z AUTO 18014KT 10SM CLR 24/12 A3002 RMK AO2=
KGBG 231715Z AUTO 16014G22KT 10SM CLR 22/15 A2980 RMK AO2
     T02200146=
KGGF 231715Z AUTO 22012G18KT 10SM CLR 24/M00 A2921 RMK AO2=
KGGP 231715Z AUTO 18016G19KT 10SM CLR 23/11 A3003 RMK AO2=
KHDE 231715Z AUTO 18020G28KT 10SM CLR 27/10 A2929 RMK AO2
     T02670096=
KHHG 231715Z AUTO 18013G17KT 10SM CLR A3008 RMK AO2=
KHMZ 231715Z AUTO 00000KT 10SM CLR 15/04 A3028 RMK AO2
     T01510040=
KHNR 231715Z AUTO 18017G30KT 10SM CLR 24/15 A2944 RMK A01=
KI63 231715Z AUTO 16017KT 10SM SCT120 22/13 A2979 RMK AO2
     T02160134=
KI74 231715Z AUTO 17004KT 10SM CLR 21/12 A3015 RMK AO2=
KIKK 231715Z AUTO 18019G25KT 10SM CLR 24/13 A2994 RMK AO2
     T02400131=
KJYR 231715Z AUTO 19022G29KT 9SM 26/12 A2934 RMK AO2=
KLOM 231715Z AUTO 06008KT 020V080 10SM SCT120 17/11 A3025 RMK AO2
     T01690108=
KPHN 231715Z AUTO 17008KT 140V200 10SM CLR 24/08 A3015 RMK AO2=
KPRG 231715Z AUTO 17022G26KT 10SM CLR 25/14 A2999 RMK AO2
     T02450138=
KRSV 231715Z AUTO 19021G25KT 10SM SCT110 25/11 A3001 RMK AO2
     T02490109=
KBJI 231715Z AUTO 12012KT 10SM CLR 18/10 A2956 RMK AO2
     T01830096=
KBUU 231715Z AUTO 16009G16KT 10SM CLR 22/13 A2988 RMK AO2
     T02220126 PWINO=
KC65 231715Z AUTO 18016G22KT 10SM CLR 24/12 A3000 RMK A01=
KC75 231715Z AUTO 20016G23KT 10SM CLR 23/15 A2984 RMK AO2
     T02310154=
KCAV 231715Z AUTO 15025G33KT 10SM CLR 23/14 A2953 RMK A01=
KCBF 231715Z AUTO 18020G27KT 10SM CLR 26/11 A2941 RMK AO2=
KCDD 231715Z AUTO 00000KT 10SM CLR 19/09 A2969 RMK AO2=
