SAUS70 KWBC 232100 RRJ
METAR
KF05 232055Z AUTO 20023G29KT 10SM CLR 34/12 A2959 RMK AO2
     T03370119=
KF17 232055Z AUTO 13012G17KT 110V170 10SM SCT055 BKN065 28/14
     A2990 RMK AO2=
KFLY 232055Z AUTO 21022G35KT BKN080 BKN095 BKN120 14/M04 A2946 RMK
     AO2 T01441038 PWINO=
KGUC 232056Z AUTO 28019G26KT 10SM FEW065 04/M05 A2962 RMK AO2 PK
     WND 25033/2030 SLP987 60000 T00391050 51005=
KHHF 232055Z AUTO 17020G27KT 10SM CLR 26/11 A2953 RMK AO2
     T02610114=
KHRX 232055Z AUTO 20025G34KT 10SM CLR 25/09 A2960 RMK AO2
     T02470094=
KMVH 232055Z AUTO 31021G30KT 1SM BR CLR M00/M02 A2966 RMK AO2
     PWINO=
KPYX 232055Z AUTO 20027G33KT 10SM CLR 26/08 A2950 RMK AO2
     T02580083=
KUVA 232055Z AUTO 15010G15KT 10SM CLR 28/17 A2980 RMK AO2
     T02790173=
KVCV 232055Z AUTO 33010G17KT 10SM CLR 17/M08 A2990 RMK AO2=
KCGZ 232056Z AUTO 29015G18KT 10SM SCT080 23/08 A2976 RMK AO2
     SLP066 6//// T02280083 58014 $=
KCOE 232056Z AUTO 23007KT 10SM BKN038 BKN046 09/01 A3004 RMK AO2
     SLP200 6//// T00940011 53012 PNO $=
KCVN 232056Z AUTO 21026G33KT 10SM CLR 23/09 A2962 RMK AO2 PK WND
     21038/2027 SLP993 T02280094 56025=
KCVO 232056Z AUTO 30007KT 10SM FEW039 15/03 A3020 RMK AO2 SLP227
     T01500028 51003=
KEIK 232055Z AUTO 32008KT 10SM SCT110 18/M07 A2933 RMK AO2
     T01821070 PWINO=
KF44 232055Z AUTO 17016G23KT 10SM BKN055 29/15 A2982 RMK AO2=
KF46 232055Z AUTO 18018G29KT 10SM SCT050 29/15 A2977 RMK AO2
     T02910152=
KGYB 232055Z AUTO 17012G23KT 10SM SCT048 SCT070 29/18 A2983 RMK
     AO2 T02910175=
KHDN 232056Z AUTO 27013KT 1SM -SN BR OVC005 M01/M01 A2966 RMK AO2
     CIG 003V007 SLP050 P0000 60000 T10111011 53021 FZRANO=
KLVS 232053Z AUTO 24024G42KT 10SM FEW060 OVC090 15/M02 A2965 RMK
     AO2 PK WND 24049/2028 SLP949 T01501017 55013=
KPTV 232056Z AUTO 00000KT 10SM CLR 18/03 A2993 RMK AO2 SLP135
     T01830028 58012=
KPVU 232056Z 33016G24KT 10SM FEW027 BKN039 BKN065 06/M01 A2985 RMK
     AO2 SLP106 T00561011 51025=
KSDY 232056Z AUTO 01014KT 6SM BR OVC007 05/04 A2948 RMK AO2 SLP999
     6//// T00500039 51007 PNO $=
KSKX 232056Z AUTO 27013KT 10SM SCT028 BKN037 OVC050 07/03 A2975
     RMK AO2 RAE39 SLP039 P0000 60001 T00670033 51025=
K6B0 232055Z AUTO 00000KT 10SM CLR 17/09 A3029 RMK AO2
     T01650085=
KBVI 232055Z AUTO 13006KT 10SM CLR 23/01 A3018 RMK AO2
     T02330005=
KD39 232055Z AUTO 13016G27KT 10SM SCT044 23/12 A2941 RMK AO2 LTG
     DSNT SE T02300124=
KDSF 232055Z AUTO 07008KT 10SM CLR 25/15 A3006 RMK A01=
KEAU 232056Z 14015G23KT 10SM FEW050 24/13 A2960 RMK AO2 PK WND
     14029/2008 SLP020 T02440128 56020=
KELZ 232056Z AUTO 14006KT 10SM CLR 19/00 A3025 RMK AO2 SLP244
     T01940000 56006=
KERY 232055Z AUTO 16016G21KT 10SM CLR 22/10 A2994 RMK AO2
     T02190104=
KGLX 232055Z AUTO 05011KT 10SM CLR 25/14 A3006 RMK A01=
KGON 232056Z 03013KT 10SM -RA SCT048 BKN110 14/11 A3023 RMK AO2
     SLP238 P0005 60012 T01390111 58012=
KIRS 232055Z AUTO 17013G21KT 10SM CLR 24/08 A2999 RMK AO2
     T02350084=
KLEW 232056Z AUTO 00000KT 10SM CLR 17/09 A3035 RMK AO2 SLP285
     T01670094 58004=
KLGA 232051Z COR 04014KT 10SM -RA BKN045 BKN060 BKN110 OVC140
     16/08 A3024 RMK AO2 SLPNO P0000 60000 T01560078 $=
KMBL 232056Z AUTO 17010G16KT 10SM BKN055 24/13 A2990 RMK AO2
     SLP124 T02390128 56013=
KOSC 232055Z AUTO 10006KT 10SM CLR 21/12 A3006 RMK AO2
     T02050115=
KPMH 232055Z AUTO 18004KT 10SM CLR 26/01 A3011 RMK AO2
     T02570013=
KVPZ 232056Z AUTO 18019G30KT 10SM CLR 27/11 A2991 RMK AO2 PK WND
     19036/2010 SLP125 T02670106 56013 $=
KY49 232055Z AUTO 10007KT 070V130 10SM SCT045 21/11 A2948 RMK AO2
     LTG DSNT S T02080114=
