SAPA32 KWBC 231600 RRC
METAR
NSTU 231551Z VRB06KT 8SM SHRA SCT018TCU BKN040 OVC100 25/25 A2981
     RMK TCU ALQDS SLP097 T02530246=
