SAKA31 PTRO 231600
METAR PTRO 231550Z 27004KT 12SM BKN014CB BKN110 BKN280 25/24 A2974
RMK CB ALQDS=
