SAUS80 KWBC 232000
METAR
KFWA 231954Z 17015G22KT 10SM SCT060 BKN190 24/09 A3004 RMK AO2 PK
     WND 16026/1913 SLP168 T02390094 $=
KGSO 231954Z 06007KT 10SM FEW250 21/06 A3016 RMK AO2 SLP209
     T02060061=
KIKW 231955Z AUTO 15013G18KT 10SM CLR 25/10 A3003 RMK AO2
     T02470095=
KINL 231954Z AUTO 11015G23KT 10SM SCT060 BKN080 23/11 A2958 RMK
     AO2 SLP019 T02330106=
KJAN 231954Z VRB04KT 10SM SCT055 27/12 A3003 RMK AO2 SLP165
     T02720122=
KLEX 231954Z 17009G17KT 10SM CLR 26/06 A3010 RMK AO2 SLP187
     T02560056=
KACY 231954Z 04011G23KT 1 3/4SM OVC010 15/14 A3017 RMK AO2 PK WND
     03026/1924 SFC VIS 10 RAE51 SLP215 P0005 T01500139=
KAKQ 231954Z AUTO 35007KT 310V010 10SM OVC007 15/13 A3013 RMK AO2
     SLP202 T01500128=
KAPN 231954Z AUTO 17015G26KT 10SM CLR 23/11 A3004 RMK AO2 PK WND
     16028/1902 SLP171 T02330106=
KAVP 231954Z 10SM A3026 RMK AO2 SLPNO $=
KBTV 231954Z 21003KT 10SM BKN150 20/06 A3029 RMK AO2 SLP257
     T02000061=
KCAR 231954Z AUTO 21005KT 10SM CLR 21/07 A3031 RMK AO2 SLP267
     T02110067=
KCOS 231954Z 19020G35KT 10SM FEW050 SCT090 BKN200 17/M01 A2943 RMK
     AO2 PK WND 22041/1911 WSHFT 1903 SLP891 VCSH SW-W-NW
     T01671011 $=
KCOU 231954Z 17019G30KT 10SM CLR 29/14 A2970 RMK AO2 PK WND
     18032/1859 SLP047 T02940144=
KCRW 231954Z 00000KT 10SM FEW150 24/06 A3014 RMK AO2 SLP205
     T02440056=
KDSM 231954Z 16024G32KT 10SM FEW055 SCT110 BKN140 BKN200 27/14
     A2950 RMK AO2 PK WND 16032/1856 SLP982 T02720139=
KRIC 231954Z 34010KT 10SM SCT006 OVC010 14/13 A3017 RMK AO2 RAE14
     SLP221 P0001 T01440128 $=
KROA 231954Z 06008KT 10SM CLR 22/02 A3020 RMK AO2 SLP225 T02170022
     $=
KSBN 231954Z 17018G28KT 10SM CLR 24/12 A2996 RMK AO2 PK WND
     17033/1855 SLP140 T02440117=
KSUS 231954Z 19015G26KT 10SM CLR 25/14 A2979 RMK AO2 PK WND
     15031/1917 SLP079 T02500144=
KSYR 231954Z 11007KT 10SM FEW120 SCT200 BKN250 22/04 A3024 RMK AO2
     SLP238 T02170039 $=
KWAL 231954Z AUTO 35008KT 10SM -RA BKN010 OVC023 17/15 A3011 RMK
     AO2 SLP193 P0009 T01670150=
KLYH 231954Z 03009KT 10SM CLR 22/01 A3019 RMK AO2 SLP219
     T02170006=
KLYV 231955Z AUTO 15019G31KT 10SM CLR 26/11 A2931 RMK AO2=
KMVL 231954Z AUTO 00000KT 10SM CLR 20/06 A3031 RMK AO2 SLP268
     T02000056=
KORH 231954Z 04004KT 10SM BKN090 OVC110 13/06 A3032 RMK AO2 SLP270
     T01280061=
KPIA 231954Z 16019G32KT 10SM CLR 25/14 A2977 RMK AO2 PK WND
     17032/1942 SLP078 T02500139=
KPOV 231955Z AUTO 13005KT 10SM CLR 23/00 A3015 RMK AO2 T02301003
     PWINO=
KPZQ 231955Z AUTO 18010G19KT 10SM SCT055 24/10 A3003 RMK AO2
     T02440104=
KRFD 231954Z 17017G27KT 10SM FEW045 SCT130 SCT250 24/14 A2978 RMK
     AO2 PK WND 19031/1902 SLP083 T02440139=
KDAB 231953Z 02013KT 10SM SCT032 SCT065 27/13 A3009 RMK AO2 SLP187
     T02720128=
KSAV 231953Z 01007KT 330V040 10SM FEW045 26/10 A3012 RMK AO2
     SLP200 T02560100=
KDAL 231953Z 17014G30KT 10SM FEW050 FEW250 29/16 A2976 RMK AO2 PK
     WND 16033/1938 SLP071 T02890156=
KDRT 231953Z AUTO 13012G18KT 10SM FEW110 25/19 A2977 RMK AO2
     RAB33E43 SLP073 P0000 T02500189=
KBFF 231953Z AUTO 29018G29KT 10SM CLR 14/03 A2935 RMK AO2 PK WND
     30034/1855 SLP916 T01390028=
KVTN 231952Z AUTO 28018G28KT 10SM CLR 21/M01 A2919 RMK AO2 PK WND
     27028/1944 WSHFT 1910 SLP871 T02061011=
KDMH 231954Z AUTO 19/09 A3021 RMK AO1 SLP229 T01890094=
PHMK 231954Z 04011G18KT 10SM BKN046 BKN050 27/20 A3006 RMK AO2
     SLP179 T02670200=
PHOG 231954Z VRB04KT 10SM CLR 32/18 A3002 RMK AO2 SLP169
     T03170178=
PHJR 231953Z VRB06G16KT 10SM FEW036 30/21 A3005 RMK AO2 SLP182
     T03000206=
