SACA42 KWBC 231700
METAR
TIST 231653Z 16007KT 10SM FEW030 31/24 A2991=
TJBQ 231650Z 08012KT 10SM CLR 30/23 A2994=
TJMZ NIL=
TJPS NIL=
TJSJ 231656Z 04010KT 10SM FEW035 SCT060 31/24 A2991=
