SACA45 KWBC 231800 RRC
METAR
MSAC 231750Z 20004KT 9999 FEW030 33/22 Q1011 A2986=
