SAUS70 KWBC 231622
METAR
K04V 231615Z AUTO 18011G19KT 10SM -RA SCT021 BKN027 OVC037 06/02
     A2961 RMK AO2=
K17J 231615Z AUTO 13005KT 10SM CLR 22/05 A3019 RMK AO2
     T02200045=
K1A6 231615Z AUTO 00000KT 10SM CLR 18/08 A3025 RMK AO2
     T01820078=
K1R8 231615Z AUTO VRB04KT 10SM CLR 24/09 A3018 RMK AO2=
K2G9 231615Z AUTO 17005KT 10SM CLR 15/02 A3028 RMK AO2=
K3K3 231615Z AUTO 22025G31KT 7SM BKN021 OVC026 25/08 A2942 RMK
     AO2=
K4O4 231615Z AUTO 17013G19KT 8SM BKN025 OVC031 24/18 A2993 RMK
     AO2=
K5C1 231615Z AUTO 19012G23KT 130V210 10SM SCT027 BKN041 24/16
     A2993 RMK AO1=
K5R8 231615Z AUTO 15010KT 10SM BKN060 26/18 A3004 RMK AO2
     T02600180=
K6I2 231615Z AUTO 18010G16KT 10SM CLR 22/05 A3019 RMK AO2=
K6P9 231615Z AUTO 19019G25KT 10SM CLR 24/16 A2983 RMK AO2
     T02400155=
KAFO 231615Z AUTO 32011KT 10SM BKN025 OVC032 00/M06 A2968 RMK
     AO2=
KAPS 231617Z AUTO 13010KT 10SM CLR 26/15 A3012 RMK AO2=
KAQO 231615Z AUTO 17012G21KT 10SM BKN032 25/16 A2989 RMK AO2=
KAUN 231615Z AUTO 34003KT 10SM CLR 12/M03 A2995 RMK A01=
KBHC 231615Z AUTO 10006KT 10SM CLR A3018 RMK AO2=
KBIJ 231615Z AUTO 05004KT 10SM CLR 22/03 A3020 RMK AO2=
KCCO 231615Z AUTO 00000KT 10SM CLR 20/05 A3024 RMK AO2
     T01950047=
KCPW 231615Z AUTO 22037KT M1/4SM +SN OVC001 M03/M03 A2963 RMK AO2
     P0001=
KCQB 231615Z AUTO 18020G28KT 10SM SCT027 23/16 A2974 RMK AO2
     T02350165=
KCTJ 231615Z AUTO 00000KT 10SM CLR 18/04 A3027 RMK AO2
     T01800038=
KCZT 231615Z AUTO 13011G14KT 10SM CLR 25/18 A2986 RMK AO2=
KDPL 231615Z AUTO 02012KT 10SM CLR 20/13 A3015 RMK AO2=
KDQH 231615Z AUTO 06004KT 10SM CLR 23/11 A3020 RMK AO2
     T02310112=
KE38 231615Z AUTO 21011G18KT 10SM CLR 24/07 A2997 RMK AO2
     T02390067=
KEGT 231615Z AUTO 18021G34KT 10SM CLR 27/13 A2962 RMK AO2
     T02660131=
KFKR 231615Z AUTO 17015G21KT 10SM CLR 23/12 A3004 RMK AO2=
KFMM 231615Z AUTO 26016KT 10SM CLR 19/M01 A2926 RMK AO2=
KFQD 231615Z AUTO 00000KT 10SM CLR 20/03 A3025 RMK AO2=
KFWZ 231615Z AUTO 35008KT 10SM SCT007 BKN029 OVC065 M02/M03 A2953
     RMK AO2=
KFXY 231615Z AUTO 14020G27KT 10SM CLR 21/12 A2958 RMK AO2=
KFYJ 231615Z AUTO 00000KT 5SM OVC005 14/13 A3019 RMK AO1
     T01350127=
KGLW 231615Z AUTO 20006G16KT 10SM CLR 22/08 A3017 RMK AO2
     T02180078=
KXBP 231615Z AUTO 18018G24KT 10SM CLR 26/15 A2982 RMK AO2
     T02570154=
KZER 231615Z AUTO 10007KT 10SM OVC021 15/09 A3030 RMK AO2=
KHCR 231615Z AUTO 01004KT 10SM SCT023 BKN120 04/M02 A2966 RMK
     AO2=
KHHG 231615Z AUTO 18012G15KT 10SM CLR A3009 RMK AO2=
KI75 231615Z AUTO 16017G27KT 7SM CLR 24/14 A2959 RMK AO2
     T02430139=
KIIB 231615Z AUTO 15018G22KT 10SM CLR 22/13 A2971 RMK AO2
     T02150133=
KIJX 231615Z AUTO 15016G22KT 10SM SCT120 19/13 A2986 RMK AO2
     T01930133=
KLMO 231615Z AUTO 03008KT 10SM CLR 19/M03 A2931 RMK AO2
     T01881035=
KLUV 231615Z AUTO 20017KT 10SM CLR 25/10 A2979 RMK AO2=
KMLE 231615Z AUTO 17019G26KT 10SM CLR 25/13 A2942 RMK AO2
     T02470130=
KMQB 231615Z AUTO 16020KT 10SM SCT110 21/11 A2983 RMK AO2
     T02130114=
KNOW 231615Z AUTO 15004KT 10SM CLR 08/06 A3008 RMK AO2
     T00800062=
KNRN 231615Z AUTO 22022G30KT 10SM CLR 27/08 A2934 RMK AO2=
KORG 231615Z AUTO 16009G15KT 130V190 10SM BKN036 BKN060 29/18
     A3004 RMK AO2 T02900179=
KPPA 231615Z AUTO 22021G27KT 10SM CLR 25/12 A2967 RMK AO2
     T02470120=
KPTT 231615Z AUTO 19025G32KT 10SM CLR 26/12 A2950 RMK AO2
     T02560117=
KRBO 231615Z AUTO 10SM SCT034 28/19 A2991 RMK AO2 T02840194=
KSHL 231615Z AUTO 14026G32KT 10SM CLR 20/13 A2940 RMK AO2=
KSJS 231615Z AUTO 21005KT 10SM CLR 20/07 A3024 RMK AO2
     T02010070=
