SAUS70 KWBC 231700 RRM
METAR
KPLU 231655Z AUTO 00000KT 10SM -DZ FEW003 07/07 A3012 RMK AO2=
KPNA 231655Z AUTO 31022G29KT 10SM OVC120 00/M06 A2959 RMK AO2=
KFET 231655Z AUTO 17015G24KT 10SM CLR 26/13 A2938 RMK AO2
     T02610133=
KFOA 231655Z AUTO 20021G32KT 10SM OVC039 24/14 A2999 RMK AO2=
KFSW 231655Z AUTO 16015G22KT 10SM OVC001 23/14 A2975 RMK AO2=
KFWC 231655Z AUTO 18018G22KT SCT042 24/13 A2999 RMK AO1 T02440129
     PWINO=
KGWB 231655Z AUTO 19007G14KT 135V215 10SM CLR 22/12 A3010 RMK
     AO2=
KHJH 231655Z AUTO 18025G33KT 10SM CLR 27/12 A2939 RMK AO2
     T02700115=
KLOT 231655Z AUTO 17019G25KT 10SM CLR 23/13 A2992 RMK AO2=
KLXN 231655Z AUTO 18019G24KT 10SM CLR 27/07 A2926 RMK AO2
     T02660074=
KMWO 231655Z AUTO 17011KT 10SM CLR 23/09 A3016 RMK AO2
     T02330087=
KOGS 231655Z AUTO 00000KT 10SM CLR 21/04 A3027 RMK AO2=
KOLY 231655Z AUTO 17016G24KT 10SM BKN041 24/11 A3000 RMK AO2
     T02370114=
KOLZ 231655Z AUTO 15023G29KT 10SM CLR 22/13 A2968 RMK A01=
KOOA 231655Z AUTO 17018G28KT 10SM CLR 25/18 A2966 RMK AO2
     T02520176=
KOQN 231655Z AUTO 04005KT 10SM SCT120 16/09 A3025 RMK AO2=
KPEA 231655Z AUTO 16015G24KT 10SM CLR 24/14 A2962 RMK AO2
     T02450138=
KPHN 231655Z AUTO 16006KT 10SM CLR 23/08 A3015 RMK AO2=
KPPO 231655Z AUTO 17013G20KT 10SM CLR 23/15 A3000 RMK AO2
     T02300152=
KPRG 231655Z AUTO 17022G29KT 10SM SCT120 25/14 A3000 RMK AO2
     T02460139=
KRPJ 231655Z AUTO 17018G26KT 10SM CLR 22/15 A2987 RMK AO2
     T02200145 TSNO=
KRSV 231655Z AUTO 20017G25KT 10SM BKN110 25/11 A3002 RMK AO2
     T02480113=
KSTE 231655Z AUTO 14010KT 10SM CLR 21/10 A2983 RMK AO2
     T02060100=
KSXK 231655Z AUTO 15028KT 10SM CLR 23/13 A2935 RMK AO2=
KTYQ 231655Z AUTO 17014KT 10SM CLR 23/12 A3007 RMK AO2
     T02290116=
KVYS 231655Z AUTO 18019G25KT 10SM CLR 23/13 A2986 RMK AO2
     T02340132=
K04V 231655Z AUTO 18006KT 10SM SCT022 BKN065 OVC110 08/03 A2961
     RMK AO2=
K17J 231655Z AUTO 19003KT 10SM CLR 23/04 A3019 RMK AO2
     T02270035=
K1A6 231655Z AUTO 16005KT 10SM CLR 21/05 A3023 RMK AO2
     T02100048=
K2G9 231655Z AUTO 13005KT 10SM CLR 16/01 A3027 RMK AO2=
K2W6 231659Z AUTO 36007KT 10SM OVC047 15/12 A3019 RMK AO1=
K5C1 231655Z AUTO 18015G20KT 10SM SCT031 SCT041 24/15 A2992 RMK
     AO1=
K5R8 231655Z AUTO 14010G20KT 10SM SCT038 SCT044 BKN055 27/18 A3002
     RMK AO2 T02710175=
K6P9 231655Z AUTO 18015G24KT 10SM CLR 25/15 A2983 RMK AO2
     T02540153=
KBHC 231655Z AUTO 03004KT 10SM CLR A3017 RMK AO2=
KBIJ 231655Z AUTO 00000KT 10SM CLR 22/02 A3020 RMK AO2=
KCCO 231655Z AUTO 00000KT 10SM CLR 21/03 A3023 RMK AO2
     T02080032=
KCGE 231655Z AUTO 01009G14KT 340V040 10SM FEW023 FEW120 17/15
     A3017 RMK A01=
KCPW 231655Z AUTO 1/4SM SN OVC001 M04/M04 A2970 RMK AO2 P0004=
KCQB 231655Z AUTO 18016G25KT 10SM CLR 26/16 A2973 RMK AO2
     T02570164=
KCSV 231653Z AUTO VRB03KT 10SM CLR 20/04 A3023 RMK AO2 SLP226
     T02000044=
KCTJ 231655Z AUTO 00000KT 10SM CLR 20/03 A3026 RMK AO2
     T01960025=
KCZT 231655Z AUTO 14009G15KT 10SM CLR 25/18 A2984 RMK AO2=
KDMW 231655Z AUTO 06005KT 10SM SCT039 18/11 A3025 RMK AO2=
KDPL 231655Z AUTO 36012G16KT 10SM CLR 20/13 A3015 RMK AO2=
KDQH 231655Z AUTO 10006KT 10SM CLR 24/12 A3019 RMK AO2
     T02390123=
KE38 231655Z AUTO 21016G21KT 10SM CLR 25/07 A2998 RMK AO2
     T02450071=
KEGT 231655Z AUTO 18029G34KT 10SM CLR 26/13 A2960 RMK AO2=
KFME 231659Z AUTO 02006KT 10SM OVC050 17/08 A3025 RMK AO1=
KFQD 231655Z AUTO 00000KT 10SM CLR 20/03 A3024 RMK AO2=
KFWZ 231655Z AUTO 34015G20KT 10SM SCT007 SCT060 BKN070 M01/M03
     A2952 RMK AO2=
KFXY 231655Z AUTO 15020G28KT 10SM CLR 22/12 A2956 RMK AO2=
