SAUS70 KWBC 232100 RRD
METAR
KMHT 232053Z 00000KT 10SM OVC120 16/07 A3032 RMK AO2 SLP283
     T01560072 55003=
KMIE 232053Z 19011G19KT 10SM CLR 25/08 A3002 RMK AO2 SLP159
     T02500078 56015=
KCAG 232053Z AUTO 27010KT 1 1/4SM -SN BR SCT011 BKN016 OVC022
     01/M02 A2967 RMK AO2 SLP060 P0009 60016 T00061017 53020=
KCDS 232053Z AUTO 20014KT 10SM CLR 30/10 A2959 RMK AO2 PK WND
     19026/2028 SLP990 T03000100 56022=
KCEW 232053Z AUTO 10SM CLR 28/04 A3010 RMK AO2 SLP190 T02780044
     56022=
KCEZ 232053Z AUTO 21022G30KT 10SM SCT070 09/M07 A2971 RMK AO2 PK
     WND 23033/2038 WSHFT 1957 SLP008 T00941072 55004 $=
KCHO 232053Z 02006KT 10SM OVC030 20/11 A3018 RMK AO2 SLP219
     T02000106 56009=
KCMI 232053Z 16020G32KT 10SM FEW043 24/13 A2988 RMK AO2 PK WND
     16034/2035 SLP115 T02440128 56013=
KCNM 232053Z AUTO 25016G23KT 10SM CLR 29/08 A2964 RMK AO2 PK WND
     27027/2021 SLP982 T02890083 56022=
KCNO 232053Z 25006KT 10SM SCT040 21/08 A2984 RMK AO2 SLP101
     T02110078 58012=
KCPR 232053Z 29011KT 10SM -RA FEW009 OVC050 03/02 A2954 RMK AO2
     RAE35B40 SLP988 P0001 60001 T00280022 53011=
KCRE 232053Z 35005KT 10SM CLR 23/05 A3009 RMK AO1 SLP190 T02280050
     56009=
KCRG 232053Z 04011KT 10SM CLR 24/17 A3012 RMK AO2 SLP198 T02440167
     55004=
KCRS 232053Z AUTO 18022G31KT 10SM BKN060 30/14 A2982 RMK AO2 PK
     WND 17035/2020 SLP091 T03000139 56025 $=
KCSM 232053Z AUTO 17018KT 10SM CLR 25/14 A2960 RMK AO2 PK WND
     17026/1956 SLP003 T02500144 56019=
KCUB 232053Z AUTO VRB03KT 10SM CLR 24/07 A3014 RMK AO2 SLP206
     T02440072 56009=
KCYS 232053Z 34019G29KT 10SM BKN060 OVC080 08/M04 A2939 RMK AO2 PK
     WND 31033/1954 LTG DSNT S RAB00E24 SLP905 P0000 60000
     T00831039 53004=
KDAN 232053Z AUTO 04004KT 10SM CLR 21/03 A3016 RMK AO2 SLP207
     T02110033 56014=
KDCU 232053Z AUTO 16008KT 10SM CLR 25/04 A3009 RMK AO2 SLP185
     T02500039 56026=
KDEN 232053Z VRB03KT 10SM SCT070 BKN120 BKN200 18/M03 A2934 RMK
     AO2 PK WND 25032/1956 LTG DSNT N SLP869 T01781028 53009=
KDEQ 232053Z AUTO 16013G24KT 10SM BKN055 28/15 A2981 RMK AO2
     SLP090 T02780150 56028=
KDFW 232053Z 18026G38KT 10SM FEW050 FEW250 30/16 A2972 RMK AO2 PK
     WND 17039/2017 SLP055 T03000156 56030=
KDGW 232053Z AUTO 32018G25KT 10SM SCT024 OVC041 05/00 A2951 RMK
     AO2 PK WND 33029/2039 SLP974 60001 T00500000 53008=
KDHN 232053Z 04007KT 10SM CLR 26/03 A3013 RMK AO2 SLP201 T02610028
     56018=
KABY 232053Z AUTO 06006KT 10SM CLR 26/07 A3013 RMK AO2 SLP202
     T02610072 56014=
KACK 232053Z 03018G25KT 1 1/2SM RA BR BKN004 OVC022 16/15 A3021
     RMK AO2 PK WND 04026/2038 SLP230 P0023 60043 T01610150
     56012=
KAFW 232053Z 16022G38KT 10SM FEW250 30/15 A2971 RMK AO2 PK WND
     17038/2043 SLP047 T03000150 56027=
KAIA 232053Z AUTO 34017G27KT 10SM CLR 13/03 A2936 RMK AO2 PK WND
     32030/2006 PRESRR SLP931 T01330033 53026=
KAKO 232053Z AUTO 02016KT 10SM FEW040 SCT080 BKN100 17/01 A2932
     RMK AO2 PK WND 36028/2018 RAB24E42 SLP882 P0000 60000
     T01720011 53016 $=
KAMA 232053Z 21025G39KT 10SM CLR 24/09 A2959 RMK AO2 PK WND
     22039/2051 SLP968 T02440094 56018=
KAMG 232053Z AUTO 34004KT 10SM CLR 27/11 A3011 RMK AO2 SLP194
     T02670106 56012=
KAOO 232053Z AUTO 07006KT 10SM OVC031 18/08 A3024 RMK AO2 SLP245
     T01780078 56008=
KAPA 232053Z 22021G37KT 10SM FEW050 SCT090 SCT200 17/M06 A2937 RMK
     AO2 PK WND 22037/2049 SLP884 SHRA DSNT SW-NW T01671061
     53002=
KAQP 232053Z AUTO 17021G29KT 10SM SCT085 25/11 A2931 RMK AO2=
KASE 232053Z 28004KT 10SM BKN046 OVC060 02/M04 A2958 RMK AO2
     SLP954 60002 T00221044 51001=
