SAUS70 KWBC 232118 RRA
METAR
KBVI 232115Z AUTO 14005KT 10SM CLR 23/01 A3017 RMK AO2
     T02300006=
KBVU 232115Z AUTO 06008G16KT 020V080 10SM CLR 17/M10 A2984 RMK
     AO2=
KBWW 232115Z AUTO 33015KT 8SM OVC009 06/06 A2937 RMK AO2=
KBXK 232115Z AUTO 28010KT 240V300 10SM BKN070 24/05 A2974 RMK
     A01=
KC29 232115Z AUTO 16017G24KT 10SM SCT046 25/13 A2974 RMK AO1
     T02450130=
KCAD 232115Z AUTO 15014G21KT 10SM OVC050 22/10 A2997 RMK AO2
     T02200102=
KCDA 232115Z AUTO 13005KT 10SM 16/04 A3034 RMK AO2 T01600038=
KCDD 232113Z AUTO 13004KT 10SM CLR 23/09 A2963 RMK AO2=
KCDI 232115Z AUTO 15003KT 10SM CLR 23/07 A3013 RMK AO2
     T02320071=
KCDN 232115Z AUTO 00000KT 10SM CLR 24/05 A3014 RMK AO2=
KCEY 232115Z AUTO 18011G19KT 150V230 10SM CLR 26/04 A3000 RMK
     A01=
KCFJ 232115Z AUTO 17015G23KT 10SM CLR 23/06 A2997 RMK AO2
     T02340060=
KCGC 232115Z AUTO 27005KT 10SM CLR 26/16 A3007 RMK AO2=
KCJR 232115Z AUTO 01007KT 10SM OVC046 19/10 A3019 RMK AO2
     T01870103=
KCKM 232115Z AUTO 16014G22KT 10SM CLR 28/12 A2996 RMK A01=
KCLS 232115Z AUTO 15004KT 10SM FEW048 FEW055 14/05 A3017 RMK
     AO2=
KCLW 232115Z AUTO 33009KT 10SM SCT055 25/14 A3006 RMK AO2
     PWINO=
KCMR 232115Z AUTO 30012G20KT 10SM FEW065 08/M09 A2985 RMK AO2=
KCNB 232115Z AUTO 10022G29KT 10SM CLR 25/12 A2930 RMK AO2
     T02520115=
KCPT 232115Z AUTO 16022G29KT 10SM CLR 29/14 A2975 RMK A01=
KCTZ 232115Z AUTO 32007KT 290V350 10SM CLR 22/10 A3011 RMK AO2
     T02150103=
KCVX 232115Z AUTO 14007G17KT 10SM OVC060 23/12 A2996 RMK AO2
     T02270115=
KD25 232115Z AUTO 15011G16KT 10SM BKN042 21/12 A2973 RMK AO2
     T02050120=
KD57 232115Z AUTO 05015KT 10SM OVC032 13/04 A2931 RMK AO2=
KD60 232115Z AUTO 05021G28KT 10SM OVC009 05/05 A2947 RMK AO2=
KD95 232115Z AUTO 15007KT 10SM CLR 24/05 A3007 RMK AO2
     T02380047=
K04W 232115Z AUTO 11012G18KT 10SM SCT048 SCT050 23/13 A2954 RMK
     AO2=
K06D 232115Z AUTO 03020G26KT 10SM BKN017 10/07 A2947 RMK AO2=
K0S9 232115Z AUTO 10007KT 10SM SCT027 12/07 A3014 RMK AO2=
K0VG 232115Z AUTO 08004KT 10SM CLR 23/02 A3015 RMK AO2=
K10G 232115Z AUTO 14006KT 10SM CLR 22/04 A3014 RMK AO2=
K15M 232115Z AUTO 17007KT 10SM CLR 24/06 A3006 RMK AO2 T02450063
     $=
K1P1 232115Z AUTO 00000KT 10SM CLR 14/09 A3033 RMK AO2
     T01360086=
K1R7 232115Z AUTO 16010KT 10SM SCT060 27/14 A3004 RMK AO2
     PWINO=
K22N 232115Z AUTO 00000KT 10SM BKN050 17/08 A3025 RMK AO2=
K24A 232115Z AUTO 00000KT 10SM CLR 22/M04 A3017 RMK AO2
     T02201040=
K24J 232115Z AUTO 00000KT 10SM 27/08 A3009 RMK A01=
K28J 232115Z AUTO 08009G15KT 9SM FEW050 23/16 A3009 RMK AO2
     TSNO=
K2D5 232115Z AUTO 11020G25KT 8SM CLR 21/12 A2926 RMK AO2=
K2P2 232115Z AUTO 19009G16KT 150V210 10SM OVC110 18/12 A2989 RMK
     AO2 T01760122=
K35A 232115Z AUTO 00000KT 10SM CLR 23/06 A3019 RMK A02
     T02290062=
K3N8 232115Z AUTO 11018G24KT 10SM CLR 23/12 A2939 RMK AO2
     T02260117=
K42J 232115Z AUTO 06003KT 10SM CLR 26/10 A3008 RMK A01=
K46D 232115Z AUTO 08014G20KT 10SM CLR 18/09 A2933 RMK AO2=
K4A6 232115Z AUTO VRB03KT 10SM CLR 24/06 A3010 RMK AO2=
K4M9 232115Z AUTO 17019KT 10SM SCT050 26/17 A2992 RMK AO2
     PWINO=
K4S2 232115Z AUTO 30004KT 10SM CLR 13/01 A3014 RMK AO2=
K5H4 232115Z AUTO 06016KT 10SM CLR 15/02 A2936 RMK AO2=
K6B0 232115Z AUTO 00000KT 10SM CLR 16/09 A3029 RMK AO2
     T01560088=
K6B9 232115Z AUTO 00000KT 10SM CLR 19/03 A3024 RMK AO2=
K6L4 232115Z AUTO 00000KT 10SM CLR 23/04 A3014 RMK AO2=
K6S2 232115Z AUTO 24006KT 5SM HZ CLR 13/10 A3022 RMK AO2=
K7L2 232115Z AUTO 09016KT 10SM OVC048 19/10 A2925 RMK AO2=
