SAUS70 KWBC 231622 RRC
METAR
KCIN 231615Z AUTO 16023G31KT 8SM CLR 23/15 A2948 RMK AO2=
KGGF 231615Z AUTO 21013G18KT 10SM CLR 21/00 A2923 RMK AO2=
KGGP 231615Z AUTO 19018G23KT 10SM CLR 22/11 A3006 RMK AO2=
KGHG 231615Z AUTO 06007KT 10SM CLR 15/13 A3034 RMK AO2=
KHDE 231615Z AUTO 19020G25KT 10SM CLR 23/09 A2931 RMK AO2
     T02300092=
KHMZ 231615Z AUTO 00000KT 10SM CLR 11/03 A3030 RMK AO2
     T01100032=
KHNR 231615Z AUTO 18018G26KT 10SM CLR 23/15 A2946 RMK A01=
KHPT 231615Z AUTO 16015G22KT 10SM CLR 22/12 A2961 RMK AO2=
KI63 231615Z AUTO 17013G22KT 10SM SCT110 20/13 A2981 RMK AO2
     T01990132=
KI74 231615Z AUTO 20005KT 10SM CLR 19/11 A3018 RMK AO2=
KIBM 231615Z AUTO 33019G26KT 10SM CLR 14/01 A2930 RMK AO2
     T01380007=
KIKK 231615Z AUTO 17015G21KT 10SM BKN065 22/12 A2996 RMK AO2
     T02150121=
KPEA 231615Z AUTO 16016G23KT 10SM CLR 22/13 A2964 RMK AO2
     T02210133=
KPPQ 231615Z AUTO 16014G20KT 10SM SCT120 22/14 A2983 RMK AO2
     T02160144=
KRCR 231615Z AUTO 18013G19KT 10SM CLR 22/12 A3004 RMK AO2=
KRDK 231615Z AUTO 18021G31KT CLR 25/14 A2948 RMK AO2=
KSDA 231615Z AUTO 18023G39KT 10SM CLR 25/13 A2946 RMK AO2=
K33V 231615Z AUTO 21010KT 10SM SCT021 SCT041 BKN048 02/M02 A2951
     RMK AO1=
K5C1 231615Z AUTO 19012G23KT 130V210 10SM SCT027 BKN041 24/16
     A2993 RMK AO1=
K66R 231615Z AUTO 15009G14KT 10SM SCT037 BKN043 BKN060 28/18 A2995
     RMK AO2 T02820181=
KAJZ 231615Z AUTO 22006KT 10SM -RA BKN024 OVC032 06/04 A2963 RMK
     AO2 T00610038=
KBBD 231615Z AUTO 18013G26KT 10SM CLR 23/16 A2986 RMK AO2=
KBYY 231615Z AUTO 17019G22KT 10SM SCT039 OVC060 27/17 A2997 RMK
     AO2 T02760179=
KCPW 231615Z AUTO 22037KT M1/4SM +SN OVC001 M03/M03 A2963 RMK AO2
     P0001=
KEMT 231615Z 00000KT 10SM SCT030 16/12 A2986=
KFMM 231615Z AUTO 26016KT 10SM CLR 19/M01 A2926 RMK AO2=
KFWZ 231615Z AUTO 35008KT 10SM SCT007 BKN029 OVC065 M02/M03 A2953
     RMK AO2=
KHCR 231615Z AUTO 01004KT 10SM SCT023 BKN120 04/M02 A2966 RMK
     AO2=
KLMO 231615Z AUTO 03008KT 10SM CLR 19/M03 A2931 RMK AO2
     T01881035=
KNOW 231615Z AUTO 15004KT 10SM CLR 08/06 A3008 RMK AO2
     T00800062=
KRBO 231615Z AUTO 10SM SCT034 28/19 A2991 RMK AO2 T02840194=
KSBS 231615Z AUTO 00000KT 10SM BKN006 BKN017 OVC028 00/00 A2954
     RMK AO1 T00000000=
K04V 231615Z AUTO 18011G19KT 10SM -RA SCT021 BKN027 OVC037 06/02
     A2961 RMK AO2=
K6P9 231615Z AUTO 19019G25KT 10SM CLR 24/16 A2983 RMK AO2
     T02400155=
KAFO 231615Z AUTO 32011KT 10SM BKN025 OVC032 00/M06 A2968 RMK
     AO2=
KAQO 231615Z AUTO 17012G21KT 10SM BKN032 25/16 A2989 RMK AO2=
KASL 231615Z AUTO 00000KT 10SM SCT037 26/16 A2995 RMK AO2
     T02590164 TSNO $=
KAUN 231615Z AUTO 34003KT 10SM CLR 12/M03 A2995 RMK A01=
KBVS 231615Z AUTO 00000KT 10SM OVC014 07/07 A3010 RMK A01=
KCZT 231615Z AUTO 13011G14KT 10SM CLR 25/18 A2986 RMK AO2=
KE38 231615Z AUTO 21011G18KT 10SM CLR 24/07 A2997 RMK AO2
     T02390067=
KLHM 231615Z AUTO 33011KT 10SM CLR 11/01 A2997 RMK AO1=
KLUV 231615Z AUTO 20017KT 10SM CLR 25/10 A2979 RMK AO2=
KORG 231615Z AUTO 16009G15KT 130V190 10SM BKN036 BKN060 29/18
     A3004 RMK AO2 T02900179=
KPPA 231615Z AUTO 22021G27KT 10SM CLR 25/12 A2967 RMK AO2
     T02470120=
KRYW 231615Z AUTO 20014G23KT 10SM BKN018 BKN026 BKN040 24/18 A2993
     RMK AO2 T02390180=
KSAA 231615Z AUTO 31009KT 10SM BKN013 BKN031 OVC055 00/00 A2952
     RMK AO2=
KT35 231615Z AUTO 19018G24KT 10SM SCT050 26/18 A2992 RMK AO2
     T02620179=
KXBP 231615Z AUTO 18018G24KT 10SM CLR 26/15 A2982 RMK AO2
     T02570154=
