SASA31 KWBC 232100 RRA
METAR
SKCL 232100Z 31012KT 9999 SCT020CB SCT300 29/19 Q1011 NOSIG RMK CB
     SE/S A2986=
SVBC 232103Z AUTO 36008KT NCD 31/23 Q1009=
SVBC 232100Z 04007KTS 9000 HZ SCT013 31/// Q1008=
SVMC 232103Z AUTO NIL=
SVMG 232103Z AUTO 10015KT NCD 31/24 Q1009=
SVMI 232103Z AUTO 06008KT NCD ///// Q1010=
SYCJ 232100Z 04008KT 9999 FEW020CB SCT022 30/25 Q1008 NOSIG RMK CB
     E-N=
