SAUS70 KWBC 232000 RRF
METAR
K7L2 231955Z AUTO 09013G19KT 10SM CLR 20/10 A2924 RMK AO2=
K7W4 231955Z AUTO 00000KT 7SM BKN015 BKN020 OVC034 15/13 A3019 RMK
     AO1 T01540127=
K7W6 231955Z AUTO 35012G19KT 10SM OVC006 17/17 A3002 RMK AO2
     T01700170=
K82C 231955Z AUTO 14015G23KT 10SM SCT047 24/13 A2970 RMK AO2
     T02390132=
K96D 231955Z AUTO 03014G20KT 10SM CLR 14/11 A2949 RMK AO2=
K9D7 231955Z AUTO 05016G23KT 10SM CLR 13/08 A2943 RMK AO2 TSNO=
KACJ 231955Z AUTO 05007KT 10SM CLR 24/07 A3012 RMK AO2
     T02430073=
KAFP 231955Z AUTO 05004KT 10SM CLR 23/03 A3014 RMK AO2
     T02320031=
KAGO 231955Z AUTO 19016G21KT 10SM SCT050 29/15 A2990 RMK A01=
KAIG 231955Z AUTO 14017KT 10SM CLR 21/13 A2980 RMK AO2
     T02100125=
KAIK 231955Z AUTO 34006KT 10SM CLR 24/09 A3015 RMK AO2
     T02420089=
KAKH 231954Z AUTO 04004KT 10SM CLR 23/06 A3015 RMK AO2 SLP207
     T02280056=
KN38 231955Z AUTO 17007KT 150V210 10SM CLR 17/05 A3025 RMK AO2=
KO22 231955Z AUTO 24009G14KT 10SM CLR 17/M06 A2992 RMK A01=
KO32 231955Z AUTO VRB03KT 10SM CLR 18/02 A2991 RMK AO2 T01790022
     $=
KOCQ 231955Z AUTO 15012KT 10SM CLR 19/12 A2985 RMK AO1
     T01920120=
KOEO 231955Z AUTO 13023G29KT 10SM CLR 25/16 A2958 RMK AO2
     T02490155=
KOKV 231955Z AUTO 00000KT 10SM SCT026 SCT032 OVC040 17/09 A3021
     RMK AO2=
KOLG 231955Z AUTO 15015G22KT 10SM CLR 23/11 A2962 RMK AO1=
KOMH 231955Z AUTO 02006KT 10SM OVC033 18/11 A3021 RMK AO2=
KONM 231955Z AUTO 20018G25KT 10SM CLR 23/M01 A2968 RMK AO2
     T02301009=
KORS 231955Z AUTO 18004KT 10SM FEW015 11/08 A3014 RMK AO2=
KOZS 231955Z AUTO 16016G25KT 10SM CLR 28/11 A2972 RMK AO2=
KPAN 231955Z AUTO 22014G20KT 10SM SCT034 SCT042 BKN047 13/04 A2983
     RMK AO2 PWINO TSNO=
KPCM 231955Z AUTO 07004KT 10SM SCT050 30/16 A3007 RMK AO2=
KPGV 231955Z AUTO 36006KT 10SM OVC018 18/16 A3011 RMK AO2=
KPLR 231955Z AUTO 00000G10KT 10SM CLR 25/04 A3012 RMK A01=
KPVB 231955Z AUTO 15016G19KT 10SM CLR 25/12 A2971 RMK AO1
     T02450124=
KPVF 231955Z AUTO 30006KT 10SM CLR 13/M06 A2997 RMK AO1=
KRBL 231954Z AUTO 35018G25KT 10SM CLR 19/M03 A3006 RMK AO2 SLP176
     T01941028=
KRCE 231955Z AUTO 18023G30KT 10SM CLR 26/15 A2964 RMK AO2=
KRMN 231955Z AUTO 01006KT 10SM OVC029 20/12 A3022 RMK AO2
     T01960120=
KRNH 231955Z AUTO 14012G21KT 10SM CLR 24/16 A2957 RMK AO2
     T02400164=
KRPH 231955Z AUTO 15016G23KT 100V180 10SM CLR 30/15 A2967 RMK AO2
     T03000147 $=
KRUG 231955Z AUTO 06024G30KT 10SM CLR 12/07 A2939 RMK AO2=
KRUQ 231955Z AUTO 01003KT 10SM CLR 21/05 A3016 RMK AO2
     T02110051=
KRVL 231955Z AUTO 00000KT 8SM OVC030 17/09 A3025 RMK AO2=
KRYV 231955Z AUTO 14012G19KT 10SM SCT043 SCT120 23/12 A2978 RMK
     AO2 T02270119=
KRZL 231955Z AUTO 17017G25KT 10SM CLR 25/11 A2994 RMK AO2=
KRZN 231955Z AUTO 15015G21KT 10SM CLR 23/12 A2958 RMK AO2
     T02330116=
KS25 231955Z AUTO 04015G20KT 10SM OVC015 08/07 A2942 RMK AO2=
KS32 231955Z AUTO 08020KT 10SM CLR 20/09 A2935 RMK AO2 TSNO=
KSCR 231955Z AUTO 01005KT 10SM CLR 21/05 A3015 RMK AO2
     T02140047=
KSFQ 231955Z AUTO 00000KT 7SM OVC005 15/15 A3013 RMK AO2 P0004
     T01510150=
K10G 231955Z AUTO 14007KT 10SM CLR 23/05 A3016 RMK AO2=
KS24 231955Z AUTO 18011KT 10SM CLR 25/09 A3010 RMK AO2=
KCNB 231955Z AUTO 10018G28KT 10SM CLR 25/11 A2933 RMK AO2
     T02520112=
KCOD 231956Z AUTO 01011KT 10SM FEW050 OVC070 03/M02 A2962 RMK AO2
     SLP036 T00331017=
KCQM 231955Z AUTO 14010G19KT 100V160 10SM CLR 23/10 A2961 RMK
     AO2=
KCTB 231956Z AUTO 34022KT 5SM -SN BR BKN010 BKN014 OVC019 00/M01
     A2991 RMK AO2 PK WND 34030/1931 CIG 007V011 SLP156 P0003
     T00001006 $=
