SAHA31 KWBC 231730 RRA
METAR
MTPP 231752Z VRB02KT 9999 SCT028 31/22 Q1011 A2987=
