SAUS70 KWBC 232038 RRB
METAR
KBVU 232035Z AUTO 04013KT 10SM CLR 17/M09 A2984 RMK AO2=
KPLR 232035Z AUTO 00000KT 10SM CLR 25/04 A3011 RMK A01=
KPVB 232035Z AUTO 16018G23KT 10SM CLR 25/13 A2970 RMK AO1
     T02450127=
KPVF 232035Z AUTO 28007KT 10SM CLR 14/M06 A2996 RMK AO1=
KRCE 232035Z AUTO 17026KT 10SM CLR 27/15 A2962 RMK AO2=
KRMN 232035Z AUTO 35007KT 10SM OVC029 20/12 A3021 RMK AO2
     T01960118=
KRNH 232035Z AUTO 15013G24KT 10SM CLR 24/16 A2955 RMK AO2
     T02420162=
KRPH 232035Z AUTO 17014G26KT 130V200 10SM CLR 30/15 A2966 RMK AO2
     PK WND 18026/2028 T03040146 $=
KRUG 232035Z AUTO 06024G30KT 10SM CLR 12/07 A2938 RMK AO2=
KRUQ 232035Z AUTO 00000KT 10SM CLR 21/05 A3016 RMK AO2
     T02130048=
KRVL 232035Z AUTO 35003KT 9SM 17/10 A3025 RMK AO2=
KRYV 232035Z AUTO 15013G21KT 10SM SCT045 24/12 A2977 RMK AO2
     T02350121=
KRZL 232035Z AUTO 15016G24KT 10SM CLR 25/10 A2993 RMK AO2=
KRZN 232035Z AUTO 15014G24KT 10SM SCT047 23/12 A2958 RMK AO2
     T02330117=
KS25 232035Z AUTO 02011KT 10SM OVC015 07/07 A2944 RMK AO2=
KS32 232035Z AUTO 09019G25KT 10SM CLR 23/11 A2934 RMK AO2 TSNO=
KSCR 232035Z AUTO 01004KT 10SM CLR 21/05 A3015 RMK AO2
     T02110050=
KSFQ 232035Z AUTO 30006KT 10SM -DZ OVC005 15/15 A3013 RMK AO2
     T01520150=
KSIF 232035Z AUTO 01003KT 10SM CLR 22/04 A3016 RMK AO2
     T02150035=
KSIK 232035Z AUTO 18009G17KT 10SM SCT060 27/14 A2994 RMK AO2=
KSPF 232035Z AUTO 30017G23KT 10SM OVC014 04/01 A2943 RMK AO2=
KSTF 232035Z AUTO 17009KT 10SM CLR 26/10 A3004 RMK AO2=
KSUZ 232035Z AUTO 16012G17KT 10SM SCT050 BKN060 27/15 A2989 RMK
     A01=
KSVC 232035Z AUTO 26016G22KT 10SM CLR 19/04 A2983 RMK AO2
     T01880042=
KSVH 232035Z AUTO 07005KT 10SM CLR 22/05 A3016 RMK AO2
     T02210046=
KSXU 232035Z AUTO 23019G32KT 10SM SCT100 23/00 A2960 RMK AO2
     T02251003=
KT69 232035Z AUTO 16015G26KT 9SM FEW039 SCT046 BKN050 28/22 A2981
     RMK A01=
KTKX 232035Z AUTO 18019G24KT 9SM BKN055 27/14 A2993 RMK AO2
     TSNO=
KTME 232035Z AUTO 17010G19KT 10SM BKN060 BKN070 31/15 A2988 RMK
     AO2=
KTSP 232035Z AUTO 31018KT 8SM CLR 11/M02 A2994 RMK AO2=
KTWT 232035Z AUTO 18017G23KT 10SM CLR 27/08 A2998 RMK AO2=
KU42 232035Z AUTO 33011KT 10SM BKN039 OVC046 04/00 A2985 RMK AO1
     T00410001=
KUBE 232035Z AUTO 14017G23KT 10SM BKN044 23/16 A2961 RMK AO2=
KUOX 232035Z AUTO 16010G17KT 110V180 10SM CLR 27/12 A3002 RMK AO2
     PWINO=
KUTA 232035Z AUTO 16015G23KT 10SM FEW060 SCT300 28/13 A2996 RMK
     AO2 T02810130 $=
KUXL 232035Z AUTO 14014G23KT 10SM SCT065 OVC075 27/19 A2998 RMK
     AO2 T02700189=
KVJI 232035Z AUTO 00000KT 10SM CLR 24/M03 A3017 RMK AO2
     T02401028=
KW78 232035Z AUTO 34006KT 10SM CLR 21/06 A3017 RMK AO1
     T02060055=
KW81 232035Z AUTO 33005KT 10SM OVC025 17/09 A3017 RMK AO1
     T01710091=
KX07 232035Z AUTO 04005G11KT 10SM CLR 28/15 A3006 RMK A01=
KXNX 232035Z AUTO 20008KT 170V230 10SM CLR 25/06 A3009 RMK A01=
KY19 232035Z AUTO 07010G17KT 10SM CLR 16/09 A2927 RMK AO2=
K08D 232035Z AUTO 05019G27KT 10SM OVC010 06/06 A2942 RMK AO2=
K14Y 232035Z AUTO 13014G27KT 10SM SCT045 22/12 A2943 RMK AO2=
K2C8 232035Z AUTO 05008G15KT 10SM CLR 18/09 A2945 RMK AO2=
K2P2 232035Z AUTO 17010G21KT 140V200 10SM SCT075 BKN085 18/12
     A2989 RMK AO2 T01750119=
K4R5 232035Z AUTO 00000KT 10SM BKN110 21/13 A2965 RMK AO2
     T02110126=
K82C 232035Z AUTO 13010G22KT 10SM CLR 24/13 A2969 RMK AO2
     T02400133=
KARV 232035Z AUTO 14016G22KT 10SM BKN043 22/12 A2974 RMK AO2
     T02170120=
KCFE 232035Z AUTO 14023G29KT 10SM CLR 25/13 A2946 RMK AO2=
KD50 232035Z AUTO 03014G19KT 10SM OVC012 05/03 A2953 RMK AO2=
