SAUS80 KWBC 231700 RRE
METAR
KLZZ 231655Z AUTO 18014G22KT 10SM BKN038 25/16 A2985 RMK AO2
     T02500160=
