SAUS70 KWBC 231922 RRB
METAR
KCCO 231915Z AUTO 00000KT 10SM CLR 22/01 A3017 RMK AO2
     T02240010=
KCGE 231915Z AUTO 33007KT 3SM BR OVC016 15/15 A3016 RMK A01=
KCPW 231915Z AUTO 25029KT 1/4SM -SN OVC001 M06/M06 A2967 RMK
     AO2=
KCQB 231915Z AUTO 16022G28KT 10SM CLR 28/16 A2967 RMK AO2
     T02790155=
KCTJ 231915Z AUTO 00000KT 10SM CLR 22/03 A3020 RMK AO2
     T02160030=
KCZT 231915Z AUTO 12011G16KT 10SM CLR 29/17 A2977 RMK AO2=
KDED 231915Z AUTO 03004KT 10SM CLR 27/15 A3008 RMK AO2
     T02720147=
KDMW 231915Z AUTO 01005KT 10SM SCT050 BKN055 17/10 A3023 RMK
     AO2=
KDPL 231915Z AUTO 01009KT 7SM SCT027 22/14 A3010 RMK AO2=
KDQH 231915Z AUTO 00000KT 10SM CLR 26/11 A3014 RMK AO2
     T02570108=
KDUX 231915Z AUTO 20026G36KT 10SM CLR 26/06 A2956 RMK AO2
     T02630060=
KE38 231915Z AUTO 22010G14KT 10SM CLR 27/07 A2991 RMK AO2
     T02700067=
KEGT 231915Z AUTO 19022G35KT 10SM CLR 27/14 A2954 RMK AO2=
KFME 231919Z AUTO 02004KT 10SM OVC046 17/08 A3022 RMK AO1=
KFQD 231915Z AUTO 19005KT 10SM CLR 22/03 A3017 RMK AO2=
KFWZ 231915Z AUTO 33011KT 5SM -SN SCT015 BKN030 OVC037 M02/M04
     A2957 RMK AO2=
KFXY 231915Z AUTO 15024G31KT 10SM CLR 23/13 A2951 RMK AO2=
KFYJ 231915Z AUTO 31004KT 10SM OVC013 15/13 A3016 RMK AO1
     T01460130=
KGEV 231915Z AUTO 07007KT 4SM HZ CLR 19/M02 A3021 RMK AO2
     T01891020=
KGLW 231915Z AUTO 21009KT 10SM CLR 25/09 A3010 RMK AO2
     T02500090=
KHCR 231915Z AUTO 35011KT 10SM SCT048 BKN055 BKN070 05/M06 A2973
     RMK AO2=
KHDC 231919Z AUTO 14012KT 10SM CLR 27/14 A3007 RMK AO2 TSNO=
KHHW 231915Z AUTO 18015G23KT 10SM BKN045 27/16 A2982 RMK AO2=
KHZR 231915Z AUTO 15010G15KT 10SM BKN048 OVC065 27/16 A3003 RMK
     AO2 T02700155=
KI75 231915Z AUTO 16015G23KT 10SM SCT110 27/14 A2953 RMK AO2
     T02700142=
KIIB 231915Z AUTO 15020G24KT 10SM CLR 24/14 A2964 RMK AO2
     T02390137=
KIJX 231915Z AUTO 15017G24KT 10SM CLR 23/14 A2978 RMK AO2 LTG DSNT
     SW T02300141=
KLMO 231915Z AUTO 27009G15KT 240V300 10SM SCT120 20/M05 A2933 RMK
     AO2 T02021048=
KLUV 231915Z AUTO 21018G24KT 10SM CLR 30/09 A2971 RMK AO2=
KMLE 231915Z AUTO 16019G27KT 140V200 10SM CLR 30/13 A2936 RMK AO2
     T02980127=
KMQB 231915Z AUTO 17019G23KT 10SM SCT120 24/13 A2977 RMK AO2
     T02390128=
KMQW 231915Z AUTO 07006KT 10SM CLR 26/10 A3013 RMK AO2
     T02580105=
KNOW 231915Z AUTO 04004KT 10SM CLR 10/08 A3014 RMK AO2
     T01010075=
KNRN 231915Z AUTO 24020G32KT 10SM BKN032 OVC120 31/02 A2928 RMK
     AO2=
KORG 231915Z AUTO 15012G17KT 10SM BKN048 OVC055 29/18 A2999 RMK
     AO2 T02910184=
KPPA 231915Z AUTO 22019G23KT 10SM CLR 27/12 A2960 RMK AO2
     T02690116=
KPTT 231915Z AUTO 18027G36KT 10SM CLR 31/11 A2944 RMK AO2
     T03140106=
KRBO 231915Z AUTO 10SM SCT001 SCT033 BKN047 30/21 A2983 RMK AO2
     T02980205=
KRCV 231915Z AUTO 24017G20KT 10SM -RA SCT045 BKN049 OVC070 06/M01
     A2962 RMK AO2 T00621011=
KRDK 231915Z AUTO 17019G30KT CLR 29/14 A2942 RMK AO2=
KREG 231915Z AUTO 11007KT 10SM OVC049 28/15 A3004 RMK AO2
     T02750151=
KSBO 231915Z AUTO 17005KT 10SM CLR 25/10 A3016 RMK AO2=
KSBS 231915Z AUTO 22012G16KT 2 1/2SM OVC005 00/00 A2954 RMK AO1
     T10011001=
KSDA 231915Z AUTO 17025G35KT 10SM CLR 29/14 A2940 RMK AO2=
KSEF 231915Z AUTO 03010G18KT 10SM SCT048 A3005 RMK AO2=
KSHL 231915Z AUTO 16024G33KT 10SM CLR 26/13 A2933 RMK AO2=
KSJS 231915Z AUTO 17004KT 10SM CLR 24/07 A3017 RMK AO2
     T02400072=
KSLB 231915Z AUTO 16031KT 9SM CLR 27/13 A2939 RMK AO2=
KSNL 231915Z AUTO 19025G32KT 10SM CLR 28/13 A2968 RMK AO2
     T02840126=
KT20 231915Z AUTO 17012G19KT 10SM BKN046 BKN060 30/19 A2983 RMK
     AO2 T03000185=
