SACA45 KWBC 231900 RRC
METAR
MNPC 231900Z 07010KT 6000 VCRA SCT016TCU SCT300 29/26 Q1010
     TCURA/NE/E/SE/SW=
