SAUS80 KWBC 231706
METAR
KROS 231703Z AUTO 15009G15KT 10SM CLR 23/13 A2963 RMK AO2=
