SANZ31 NZKL 231830
METAR NZAA 231830Z AUTO 11003KT 9999 NCD 12/12 Q1029 NOSIG=
METAR NZWN 231830Z AUTO 02018KT 9999 NCD 15/09 Q1023 NOSIG=
METAR NZCH 231830Z AUTO 33006KT 9999 NCD 11/04 Q1019 NOSIG=
