SAUS70 KWBC 232000 RRX
METAR
KTFP 231955Z AUTO 17021G27KT 10SM CLR 30/22 A2982 RMK AO2
     T02960221=
