SAUS70 KWBC 231600 RRX
METAR
KGZN 231600Z AUTO 19016G26KT 10SM CLR 24/16 A2980 RMK AO2=
KLBE 231547Z 00000KT 15SM CLR 19/05 A3026=
