SAPA31 KWBC 232100
METAR
AGGG NIL=
AGGH 232100Z 16002KT 9999 FEW017 FEW018CB SCT300 27/25 Q1010=
ANAU NIL=
AYPY NIL=
PGNT NIL=
PGRO 232050Z 10008KT 7SM BKN014 BKN100 26/23 A2980=
PGSN 232054Z 11010KT 10SM SCT020 BKN070 28/24 A2984 RMK AO2 SLP126
     VCSH VC NE-SE CB N-SE MOV W 60001 T02780244 53014=
PGUA 232055Z AUTO 13011KT 10SM FEW016 26/23 A2984 RMK AO2 SLP095
     T02640234 53014 $=
PGUM 232054Z 11007KT 10SM FEW027 28/24 A2984 RMK AO2 SLP095 60000
     T02780244 53016=
PGWT NIL=
PHJH NIL=
PHJR 232053Z 10010G17KT 10SM SCT036 BKN043 BKN050 28/20 A3004 RMK
     AO2 SLP179 60000 T02830200 50001=
PHMK 232054Z 02008KT 10SM SCT046 28/21 A3004 RMK AO2 SLP174
     T02830206 50001=
PJON NIL=
PKMJ NIL=
PKMR 232050Z 10003KT 15SM FEW015 SCT050 BKN120 OVC300 29/24 A2986
     RMK SLP113 8/871 T02860244 52014=
PKWA 232100Z AUTO 18012KT 2SM +RA SCT021 BKN031 OVC041 A2992 RMK
     AO2=
PLCH 232100Z 11009KT 9999 SCT020 28/23 Q1010=
PMDY 232056Z AUTO 02005KT 10SM FEW020 BKN050 OVC075 25/21 A3017
     RMK AO2 SLP218 T02500206 51019 TSNO=
PTKK NIL=
PTKR NIL=
PTPN NIL=
PTRO NIL=
PTSA NIL=
PTTP 232055Z 00000KT 15SM SCT018 OVC130 26/25 A2986 RMK SLP110
     8/17/ T02620245 52027=
PTYA 232052Z VRB06KT 11SM -RA SCT016CB OVC120 25/25 A2973 RMK CB
     N-E-SE SLP069 60017 8/32/ T02490245 53005=
PWAK 232055Z AUTO 08010G18KT 9999 FEW020 FEW039 28/24 A2999 RMK
     AO2 SLP162 60000 T02800240 52022 $=
