SACA35 KWBC 232100 RRB
METAR
MNPC 232100Z 09008KT 7000 SCT016 SCT300 30/24 Q1008 HZ=
