SAUS70 KWBC 231856
METAR
KRID 231915Z AUTO 16012G20KT 10SM CLR 23/12 A3010 RMK AO2=
K6S8 231840Z AUTO 27013G26KT 9SM 04/01 A2965 RMK A01 LAUREL=
KTFP 231815Z AUTO 17016G22KT 10SM CLR 29/21 A2986 RMK AO2
     T02880211=
KMCX 231915Z AUTO 18016G28KT 10SM CLR 25/10 A2996 RMK AO2
     T02530095=
