SAUS70 KWBC 231644
METAR
KOAR 231635Z AUTO 00000KT 7SM CLR M07/M15 A2999 RMK AO2 PWINO=
KOSC 231635Z AUTO 17008KT 10SM CLR 20/11 A3012 RMK AO2
     T02030110=
KTOC 231635Z AUTO 04004KT 10SM CLR 21/02 A3023 RMK AO2
     T02130017=
KTXW 231630Z AUTO 16017G26KT 1/2SM HZ BKN037 29/19 A2987 RMK AO2
     T02950194=
KULS 231635Z AUTO 21034G47KT 2 1/2SM HZ CLR 27/04 A2941 RMK
     AO2=
KWWR 231630Z AUTO 21018G28KT 10SM SCT110 26/11 A2962 RMK AO2 LTG
     DSNT NE=
KX26 231635Z AUTO 02015KT 10SM CLR 26/18 A3012 RMK AO2 LTG DSNT S
     T02630182=
K19S 231635Z AUTO 21026G40KT 4SM HZ CLR 28/04 A2944 RMK AO2
     T02810040=
K20V 231635Z AUTO 23005KT 10SM SCT018 SCT024 BKN070 02/02 A2956
     RMK AO2=
K2J5 231635Z AUTO 02005KT 10SM CLR 23/11 A3020 RMK AO2
     T02260108=
KADH 231635Z AUTO 18018G25KT 10SM SCT023 23/16 A2981 RMK AO2=
KADT 231635Z AUTO 22025G40KT 5SM HZ SCT006 27/03 A2933 RMK AO2
     T02660027=
KANK 231630Z AUTO 20013G19KT 190V250 10SM SCT025 BKN046 OVC050
     08/02 A2960 RMK AO1 T00820022=
KBMC 231630Z AUTO 10SM SCT038 BKN048 OVC090 04/M01 A2976 RMK AO1
     T00441013=
KC99 231631Z AUTO 29013G24KT 3/4SM BKN011 OVC024 00/M03 A2956 RMK
     AO2=
KCHK 231630Z AUTO 17015G25KT 10SM CLR 22/17 A2970 RMK AO2=
KDCY 231635Z AUTO 18013G20KT 10SM CLR 24/12 A3005 RMK AO2
     T02400117=
KDWX 231630Z AUTO 02008G17KT 3SM -SN 05/00 A2960 RMK AO2
     T00480003=
KEAN 231630Z AUTO 27009G16KT 10SM SCT060 SCT070 SCT085 11/M01
     A2939 RMK AO2 T01101007=
KEBS 231635Z AUTO 15026G34KT 10SM CLR 22/14 A2952 RMK AO2=
KGNB 231635Z AUTO 21006KT 10SM OVC015 03/01 A2954 RMK AO2
     T00330012=
KGNC 231635Z AUTO 22014G21KT 10SM CLR 26/10 A2982 RMK AO2
     T02580095=
KHBV 231630Z AUTO 17015G22KT 10SM CLR 28/18 A2988 RMK AO2
     T02780175=
KHDC 231630Z AUTO 12012G18KT 10SM CLR 25/14 A3013 RMK AO2 TSNO=
KHEQ 231635Z AUTO 23020G26KT 10SM CLR 26/M02 A2923 RMK AO2=
KHHW 231627Z AUTO 17015G21KT 10SM OVC029 24/16 A2989 RMK AO2=
KHSG 231630Z AUTO 36005KT 1 3/4SM -SN OVC008 01/00 A2959 RMK AO2
     P0002 T00060000=
KMHP 231635Z AUTO 08005KT 10SM CLR 23/12 A3019 RMK AO2
     T02260116=
KMPZ 231630Z AUTO 17015G22KT 10SM CLR 24/17 A2974 RMK AO2=
KMYP 231632Z AUTO OVC002 M03/M04 A2973 RMK AO2 PWINO=
KMYZ 231630Z AUTO 18016G27KT 10SM CLR 26/13 A2946 RMK AO2=
KOZA 231635Z AUTO 17018G25KT 10SM CLR 22/15 A2988 RMK AO2=
KPEQ 231635Z AUTO 15007KT 10SM CLR 29/09 A2977 RMK AO2
     T02860087=
KPVW 231630Z AUTO 22019G27KT 10SM SCT120 24/10 A2971 RMK AO2
     T02430102=
KSLR 231630Z AUTO 20015KT 10SM BKN032 26/17 A2992 RMK AO2
     T02600167=
KEVM 231641Z AUTO 15008KT 10SM CLR 19/10 A2970 RMK AO2=
K4I3 231642Z AUTO 17003KT 10SM CLR 22/11 A3020 RMK AO2=
KAPS 231640Z AUTO 12010KT 10SM CLR 26/15 A3012 RMK AO2=
KCPC 231635Z AUTO 34008G15KT 10SM CLR 20/05 A3016 RMK AO2
     T02030046=
KDUB 231638Z AUTO 31017G22KT 10SM OVC120 00/M08 A2956 RMK AO2=
KMMH 231638Z AUTO 35010G16KT 10SM CLR 02/M08 A2993 RMK AO2=
KOSA 231635Z AUTO 17018G23KT 10SM BKN030 OVC037 26/18 A2993 RMK
     AO2 T02550180=
KRBW 231635Z AUTO 36009KT 10SM CLR 22/10 A3019 RMK AO2=
KUYF 231635Z AUTO 22006KT 10SM CLR 21/07 A3018 RMK AO2=
