SAUS70 KWBC 232100 RRX
METAR
KGOV 232058Z AUTO 18012G16KT 10SM CLR 23/10 A3000 RMK AO2 LTG DSNT
     W SLP166 T02250102 57009 $=
