SAUS80 KWBC 232200
METAR
KM25 232155Z AUTO 19007G16KT 160V220 10SM CLR 25/07 A2999 RMK AO2
     PWINO=
