SAUS80 KWBC 231820
METAR
K9MN 231815Z AUTO 12017G26KT 090V160 10SM CLR 22/12 A2960 RMK AO1
     T02200116=
KTKC 231815Z AUTO 14018G29KT 10SM 23/10 A2940 RMK AO2
     T02340104=
KSOW 231815Z AUTO 23019G25KT 10SM BKN012 OVC018 08/07 A2985 RMK
     AO2=
KGNG 231815Z AUTO 28020G28KT 10SM CLR 06/M01 A2989 RMK AO2=
KMKN 231815Z AUTO 17023G27KT 10SM CLR 29/16 A2982 RMK AO2
     T02870160=
KRFI 231815Z AUTO 16011G16KT 10SM BKN044 OVC050 30/12 A2994 RMK
     AO2 T02970121=
KS39 231815Z AUTO 00000KT 10SM SCT033 06/M01 A3010 RMK AO2=
KSYN 231815Z AUTO 13011G22KT 10SM CLR 24/12 A2956 RMK AO2
     T02370120=
KTKV 231815Z AUTO 15004KT 10SM CLR 23/12 A2978 RMK AO2 T02250120
     PWINO=
KCTY 231815Z AUTO 02004KT 10SM CLR 26/11 A3011 RMK AO2
     T02640111=
KEHA 231815Z AUTO 22027G41KT 10SM CLR 28/06 A2951 RMK AO2
     T02760057=
K40U 231815Z AUTO 30011G20KT 10SM SCT050 SCT065 01/M04 A2968 RMK
     AO2 T00121041=
K48A 231815Z AUTO 11005KT 10SM CLR 24/10 A3016 RMK AO2
     T02400099=
KVTI 231815Z AUTO 16016G25KT 10SM CLR 25/13 A2963 RMK AO2
     T02540128=
KEDU 231820Z AUTO 35017G23KT 10SM CLR 18/M01 A3000 RMK AO1=
KRLD 231815Z AUTO 25003KT 10SM CLR 13/01 A3008 RMK AO2
     T01310009=
KSEP 231815Z AUTO 18016G24KT 10SM CLR 28/15 A2984 RMK AO2
     T02800145=
KCKP 231815Z AUTO 17018G26KT 10SM CLR 26/12 A2939 RMK AO2
     T02610120=
KDBN 231815Z AUTO 00000KT 10SM CLR 25/08 A3018 RMK AO2=
KIZA 231815Z AUTO 26004KT 10SM CLR 18/05 A2990 RMK AO2=
KSOA 231815Z AUTO 17015G21KT 10SM 26/16 A2987 RMK AO2=
KPSN 231815Z AUTO 16016G21KT 120V180 10SM SCT049 BKN060 29/16
     A2990 RMK AO2=
KCIR 231815Z AUTO 23015G20KT 10SM SCT042 OVC050 25/14 A3000 RMK
     AO2 T02470144=
K9MN 231815Z AUTO 12017G26KT 090V160 10SM CLR 22/12 A2960 RMK AO1
     T02200116=
KTKC 231815Z AUTO 14018G29KT 10SM 23/10 A2940 RMK AO2
     T02340104=
