SAUS80 KWBC 232000 RRD
METAR
K8D3 231956Z AUTO 13024G34KT 24/12 A2928 RMK AO1 PK WND 12037/1917
     SLP910 T02390117=
K9V9 231955Z AUTO 16012G17KT 10SM CLR 26/06 A2914 RMK AO2
     T02560058=
KCBE 231955Z AUTO 00000KT 10SM CLR 18/05 A3027 RMK AO2
     T01840047=
KNY0 231955Z AUTO 00000KT 10SM CLR 14/07 A3030 RMK AO2=
KP53 231956Z AUTO 18014G32KT 20/12 A2989 RMK AO1 PK WND 18032/1953
     SLP122 T02000117=
