SAUS70 KWBC 232020 RRF
METAR
KCOM 232015Z AUTO 18020G27KT 10SM CLR 30/13 A2975 RMK AO2
     T02990126=
KCUH 232015Z AUTO 18020G27KT 10SM CLR 28/15 A2962 RMK AO2
     T02750150=
KCWV 232015Z AUTO 13003KT 7SM CLR 26/10 A3013 RMK AO2
     T02590099=
KD73 232015Z AUTO 00000KT 10SM CLR 23/04 A3015 RMK AO2
     T02340035=
KDKB 232015Z AUTO 17026G32KT 10SM SCT120 24/15 A2982 RMK AO2
     T02420152=
KDKR 232015Z AUTO 17016G22KT 10SM BKN065 30/12 A2986 RMK AO2=
KDNS 232015Z AUTO RMK AO2 PNO PWINO=
KDVO 232015Z AUTO 36014KT 10SM CLR 23/M04 A2999 RMK AO2=
KE11 232015Z AUTO 20015G19KT 10SM CLR 28/12 A2970 RMK AO2
     T02840115=
KE16 232015Z AUTO 32009G17KT 310V010 10SM CLR 19/01 A2998 RMK
     AO2=
KE41 232015Z AUTO 17015G21KT 10SM CLR 25/14 A2978 RMK AO2
     T02520145=
KECU 232015Z AUTO 16017KT 10SM CLR 23/16 A2987 RMK AO2=
KEGT 232015Z AUTO 18023G39KT 10SM CLR A2953 RMK AO2=
KEZZ 232015Z AUTO 18023G33KT 10SM CLR 28/14 A2957 RMK AO2 LTG DSNT
     W T02790141=
KFEP 232015Z AUTO 17020G27KT 10SM CLR 24/16 A2977 RMK AO2
     T02440160=
KFFL 232015Z AUTO 15022G29KT 10SM CLR 26/14 A2961 RMK A01=
KFKR 232015Z AUTO 19016G23KT 10SM CLR 25/10 A2997 RMK AO2=
KFMM 232015Z AUTO 36017KT 10SM CLR 20/M01 A2930 RMK AO2=
KFPY 232015Z AUTO 07005KT 10SM CLR 28/07 A3010 RMK AO2 T02770074
     TSNO=
KFSK 232015Z AUTO 18019G27KT 10SM SCT120 30/14 A2962 RMK AO2
     T02980141=
KFZG 232015Z AUTO 00000KT 10SM CLR 25/10 A3013 RMK AO2
     T02470099=
KGBG 232015Z AUTO 17018G24KT 10SM CLR 24/15 A2973 RMK AO2
     T02370153=
KGCD 232015Z AUTO 00000KT 10SM OVC050 04/00 A3008 RMK AO2
     T00401005=
KGCM 232015Z AUTO 19015G24KT 7SM CLR 28/12 A2970 RMK AO2=
KGGF 232015Z AUTO 33022G28KT 10SM CLR 22/M03 A2923 RMK AO2=
KGGP 232015Z AUTO 19016G24KT 10SM CLR 25/10 A2998 RMK AO2=
KGHG 232015Z AUTO VRB03KT 10SM CLR 14/12 A3031 RMK AO2=
KGMJ 232015Z AUTO 18019G31KT 10SM CLR 22/04 A2967 RMK AO2 LTG DSNT
     S=
KGOP 232015Z AUTO 10SM FEW055 FEW120 29/14 A2980 RMK AO2=
KGVT 232015Z AUTO 17021G27KT 10SM BKN050 29/16 A2980 RMK AO2 TSNO
     T02880156=
KGZL 232015Z AUTO 17021G26KT 10SM CLR 29/15 A2973 RMK AO2=
KHDE 232015Z AUTO 21018G32KT 7SM BKN031 OVC037 30/02 A2922 RMK AO2
     T03000019=
KHDL 232015Z AUTO 00000KT 10SM CLR 25/03 A3012 RMK AO2=
KHHG 232015Z AUTO 17014G17KT 10SM CLR A3002 RMK AO2=
KHII 232015Z AUTO 32014G23KT 10SM CLR 23/M05 A2977 RMK AO2=
KHMZ 232015Z AUTO 14006KT 10SM BKN033 18/07 A3023 RMK AO2
     T01810073=
KHNR 232015Z AUTO 17026G34KT 10SM CLR 29/15 A2938 RMK A01=
KHPT 232015Z AUTO 16018G29KT 10SM SCT046 26/12 A2955 RMK AO2=
KI63 232015Z AUTO 16017G26KT 10SM CLR 25/14 A2971 RMK AO2
     T02480140=
KI74 232015Z AUTO 18007KT 10SM CLR 23/09 A3010 RMK AO2=
KIBM 232015Z AUTO 33018G24KT 10SM CLR 13/00 A2937 RMK AO2
     T01271004=
KICL 232015Z AUTO 19017G33KT 10SM CLR 29/14 A2946 RMK AO2=
KIDP 232015Z AUTO 18024G38KT 10SM CLR 28/15 A2960 RMK AO2
     T02770153=
KIKK 232015Z AUTO 16015G24KT 10SM CLR 26/12 A2988 RMK AO2
     T02550121=
KIKV 232015Z AUTO 16021G27KT 10SM CLR 27/14 A2950 RMK AO2=
KJAS 232015Z AUTO 17010G17KT 140V200 9SM FEW060 SCT070 27/17 A2991
     RMK AO2=
KJOT 232015Z AUTO 18017G27KT 10SM CLR 26/14 A2984 RMK AO2
     T02620135=
KJYR 232015Z AUTO 17028G39KT 8SM CLR 29/11 A2927 RMK AO2=
KLAM 232015Z AUTO 27012G19KT 10SM -DZ SCT045 BKN060 OVC070 07/02
     A2974 RMK AO2 T00670022=
KLCQ 232015Z AUTO 07005KT 10SM CLR 26/10 A3009 RMK AO2=
KLGC 232015Z AUTO 03005KT 10SM CLR 24/03 A3014 RMK AO2
     T02370029=
KLLN 232015Z AUTO 23021G31KT 10SM FEW080 29/09 A2967 RMK AO2=
KLOM 232015Z AUTO 05008KT 10SM OVC047 17/10 A3023 RMK AO2
     T01660101=
