SAUS70 KWBC 232000 RRH
METAR
K3LF 231955Z AUTO 18023G29KT 10SM CLR 24/14 A2985 RMK AO2
     T02400138=
KANW 231955Z AUTO 23021G30KT 10SM CLR 28/M01 A2915 RMK AO2
     T02801014=
KBBB 231956Z AUTO 16022G31KT 10SM CLR 23/12 A2935 RMK AO2=
KBNW 231955Z AUTO 15020G26KT 10SM SCT120 25/15 A2951 RMK AO2=
KBTA 231955Z AUTO 16020G32KT 10SM CLR 30/13 A2934 RMK AO2 LTG DSNT
     S T02980128=
KC09 231955Z AUTO 18020G28KT 10SM CLR 26/15 A2982 RMK AO2
     T02600145=
KCCY 231955Z AUTO 16019G29KT 10SM CLR 23/13 A2957 RMK AO2=
KCSQ 231955Z AUTO 17022G31KT 9SM CLR 28/14 A2947 RMK AO2=
KGVQ 231956Z AUTO 10008KT 10SM CLR 21/05 A3021 RMK AO2 SLP229
     T02110050=
KHNB 231956Z AUTO 19014G20KT 10SM CLR 27/11 A3002 RMK AO2 SLP162
     T02670106=
KI23 231955Z AUTO 17010G14KT 10SM CLR 24/06 A3011 RMK AO1=
KSLH 231955Z AUTO 15007KT 10SM SCT060 23/11 A2998 RMK AO2=
KSUE 231956Z AUTO 17021G24KT 10SM CLR 18/12 A2987 RMK AO2 PK WND
     17028/1942 SLP116 T01780117=
KY50 231956Z AUTO 15016G19KT 10SM FEW046 24/13 A2975 RMK AO2
     SLP069 T02390133 $=
KINJ 231955Z AUTO 18022G29KT 10SM BKN048 29/16 A2979 RMK AO2
     T02930161=
KJWY 231955Z AUTO 17018G24KT 10SM SCT050 30/16 A2980 RMK AO2
     T02960155=
KKLS 231956Z AUTO 16004KT 10SM FEW026 BKN038 OVC047 13/07 A3018
     RMK AO2 SLP222 T01330072=
KM75 231955Z AUTO 01017G22KT 1/2SM FG BKN003 01/01 A2965 RMK A01
     P0003=
KMEV 231955Z AUTO 04010KT 10SM BKN050 BKN060 08/M05 A3003 RMK
     AO2=
KO69 231955Z AUTO 35011G18KT 10SM CLR 20/M04 A3000 RMK A01=
KOAR 231955Z AUTO 28008KT 10SM CLR M03/M22 A2999 RMK AO2=
KPKV 231955Z AUTO 15016G24KT 10SM SCT039 SCT044 BKN055 30/19 A2986
     RMK AO2 T03010194=
KPRS 231955Z AUTO 20006KT 10SM CLR 31/10 A2977 RMK AO2
     T03050104=
KPYX 231955Z AUTO 20027G36KT 10SM CLR 28/08 A2950 RMK AO2
     T02750079=
KRTS 231955Z AUTO 05006G13KT 10SM SCT055 06/M10 A3005 RMK AO2=
KSEZ 231955Z AUTO 30017G23KT 10SM 12/00 A2981 RMK AO2=
KUVA 231955Z AUTO 15012KT 10SM CLR 28/17 A2981 RMK AO2
     T02780171=
KOAR 231955Z AUTO 28008KT 10SM CLR M03/M22 A2999 RMK AO2=
KOSC 231955Z AUTO 13005KT 10SM CLR 20/12 A3007 RMK AO2
     T02010117=
KSGH 231956Z AUTO 14006G16KT 10SM FEW060 24/09 A3010 RMK AO2
     SLP191 T02390094=
KTTS 231955Z AUTO 01011G17KT 10SM CLR 26/16 A3005 RMK AO2 VIS 5/8
     RWY15/33 SLP180 T02590161 $=
K05U 231955Z AUTO 33013KT 1 1/2SM HZ 00/M02 A2999 RMK A01
     P0001=
K0F2 231955Z AUTO 18019G31KT 10SM CLR 29/15 A2970 RMK AO2 P0001
     T02910148=
K4V0 231955Z AUTO 21004KT 10SM -SN SCT006 SCT023 OVC029 02/01
     A2968 RMK AO2 T00150005=
K5T9 231955Z AUTO 15010G17KT 10SM CLR 27/19 A2976 RMK A01=
K65S 231955Z AUTO 16004KT 10SM FEW013 FEW019 SCT050 07/04 A3001
     RMK AO2=
KAEJ 231955Z AUTO 26022G29KT 5SM -SN 05/M01 A2955 RMK AO2
     T00481012=
KARM 231955Z AUTO 15018G24KT 10SM SCT048 OVC055 28/16 A2988 RMK
     AO2 T02830159 TSNO=
KAXH 231955Z AUTO 20008G16KT 10SM CLR 30/14 A2990 RMK AO2
     T03040135=
KBOK 231956Z AUTO 30008KT 10SM CLR 15/04 A3019 RMK AO2 SLP223
     T01500044 $=
KC07 231955Z AUTO 29011G19KT M1/4SM +SN OVC001 M06/M06 A2957 RMK
     AO2 P0003=
KC83 231955Z AUTO 32016G23KT 10SM CLR 21/M03 A2998 RMK AO2=
KCOE 231956Z AUTO 23004KT 10SM BKN026 BKN033 OVC045 09/02 A3003
     RMK AO2 SLP196 T00890017 PNO $=
KHDN 231956Z AUTO 29011G18KT 1/2SM SN FZFG SCT006 OVC011 M01/M02
     A2963 RMK AO2 SLP038 P0000 T10111017 FZRANO=
KHHF 231955Z AUTO 17019G25KT 10SM CLR 27/12 A2954 RMK AO2
     T02660116=
KHRX 231955Z AUTO 20018G25KT 10SM CLR 25/10 A2963 RMK AO2
     T02450100=
KJTC 231955Z AUTO 28023G28KT 10SM SCT034 BKN039 BKN045 15/04 A2980
     RMK AO2=
