SAUS70 KWBC 231958
METAR
KMCX 232015Z AUTO 19018G24KT 10SM CLR 26/10 A2994 RMK AO2
     T02550095=
KGZN 231940Z AUTO 18020G26KT 10SM CLR 29/14 A2971 RMK AO2=
