SAUS80 KWBC 231826
METAR
KROS 231823Z AUTO 13009G20KT 10SM CLR 25/13 A2958 RMK AO2=
