SAUS70 KWBC 231824
METAR
K20V 231815Z AUTO 22011KT 10SM BKN049 BKN070 OVC085 04/00 A2957
     RMK AO2=
K2J5 231815Z AUTO 36007KT 10SM CLR 24/10 A3016 RMK AO2
     T02370102=
KADT 231815Z AUTO 20025G40KT 10SM CLR 28/00 A2933 RMK AO2
     T02811004=
KANK 231810Z AUTO 23016G23KT 10SM SCT027 BKN038 OVC065 08/M01
     A2964 RMK AO1 T00761007=
KBMC 231810Z AUTO 10SM BKN070 OVC095 05/M02 A2980 RMK AO1
     T00471019=
KCHK 231810Z AUTO 18022G30KT 10SM CLR 27/16 A2966 RMK AO2
     T02720161=
KDCY 231815Z AUTO 20016G24KT 10SM CLR 26/11 A3001 RMK AO2
     T02550106=
KDUB 231816Z AUTO 28021G28KT 10SM BKN120 00/M08 A2957 RMK AO2=
KEAN 231810Z AUTO 34010G17KT 10SM -DZ SCT033 BKN045 BKN055 08/03
     A2942 RMK AO2 T00760033=
KGNB 231815Z AUTO 25006KT 10SM SCT020 SCT031 BKN095 04/M01 A2957
     RMK AO2 T00371014=
KHBV 231810Z AUTO 17014G19KT 10SM CLR 30/17 A2984 RMK AO2
     T03010170=
KHEQ 231815Z AUTO 29012G18KT 10SM CLR 27/M02 A2921 RMK AO2=
KHSG 231810Z AUTO 35004KT 1 1/4SM -SN SCT008 OVC015 00/00 A2961
     RMK AO2 T00040000=
KMHP 231815Z AUTO 00000KT 10SM CLR 24/11 A3015 RMK AO2
     T02420109=
KMPZ 231810Z AUTO 17016G27KT 10SM CLR 23/17 A2970 RMK AO2=
KMYZ 231810Z AUTO 20022G29KT 10SM CLR 29/13 A2944 RMK AO2=
KOSA 231810Z AUTO 18015KT 10SM OVC046 27/17 A2990 RMK AO2
     T02680173=
KPBX 231810Z AUTO 06003KT 10SM CLR 22/07 A3019 RMK AO2
     T02190069=
KPEQ 231815Z AUTO 23020G24KT 10SM CLR 32/08 A2972 RMK AO2
     T03160079=
KPVW 231810Z AUTO 23024G32KT 10SM CLR 27/09 A2967 RMK AO2
     T02710090=
KSLR 231810Z AUTO 18019G23KT 10SM BKN044 28/15 A2989 RMK AO2
     T02840147=
KTXW 231810Z AUTO 16020G28KT 1/2SM HZ VV005 31/18 A2983 RMK AO2
     T03100180=
KULS 231815Z AUTO 21040G55KT 1 1/4SM HZ VV007 28/00 A2939 RMK
     AO2=
KW99 231820Z AUTO 00000KT 10SM CLR 18/06 A3025 RMK AO2=
KWWR 231810Z AUTO 19023G28KT 10SM CLR 27/11 A2958 RMK AO2=
KX26 231815Z AUTO 01014KT 10SM CLR 26/19 A3008 RMK AO2
     T02640191=
K04V 231815Z AUTO 16016G21KT 10SM SCT080 SCT090 SCT110 08/02 A2959
     RMK AO2=
K6P9 231815Z AUTO 20016G28KT 10SM CLR 27/15 A2980 RMK AO2
     T02690149=
KAFO 231815Z AUTO 32010KT 10SM BKN026 OVC035 00/M06 A2972 RMK
     AO2=
KAXX 231815Z AUTO 22031G42KT 10SM SCT046 BKN050 OVC070 11/M01
     A2968 RMK AO2 T01091015=
KETN 231815Z AUTO 19020G25KT 10SM CLR 27/15 A2978 RMK AO2
     T02720149=
KFWZ 231815Z AUTO 35014G19KT 10SM SCT009 SCT014 OVC033 M02/M04
     A2956 RMK AO2=
KGNC 231815Z AUTO 22017G24KT 10SM CLR 28/10 A2979 RMK AO2
     T02820099=
KHCR 231815Z AUTO 35013G18KT 10SM BKN055 BKN065 05/M06 A2970 RMK
     AO2=
KHVE 231815Z AUTO 30014G21KT 10SM SCT095 10/00 A2967 RMK AO2=
KLMO 231815Z AUTO 00000KT 7SM CLR 21/M02 A2932 RMK AO2
     T02061023=
KLUV 231815Z AUTO 21022G25KT 10SM CLR 29/09 A2975 RMK AO2=
KNOW 231815Z AUTO 01003KT 10SM CLR 10/07 A3013 RMK AO2
     T01030067=
KORG 231815Z AUTO 15013G18KT 10SM SCT035 BKN050 OVC070 30/18 A3001
     RMK AO2 T03030182=
KOZA 231815Z AUTO 18013G23KT 10SM CLR 25/15 A2986 RMK AO2=
KPPA 231815Z AUTO 21020G27KT 10SM CLR 26/12 A2963 RMK AO2
     T02610116=
KRBO 231815Z AUTO 10SM SCT001 SCT037 SCT055 29/20 A2986 RMK AO2
     T02940201=
KT20 231815Z AUTO 19015G20KT 10SM BKN040 BKN048 OVC055 30/19 A2987
     RMK AO2 T02960188=
KTMK 231815Z AUTO 00000KT 10SM CLR 12/08 A3018 RMK AO2=
KXBP 231815Z AUTO 19019G25KT 10SM CLR 29/14 A2979 RMK AO2
     T02900141=
KEVM 231821Z AUTO 14011KT 10SM SCT085 21/11 A2967 RMK AO2=
KOAR 231815Z AUTO 28006KT 7SM CLR M04/M16 A3001 RMK AO2=
KOSC 231815Z AUTO 16008G17KT 10SM CLR 22/11 A3009 RMK AO2
     T02170114=
