SAUS70 KWBC 232000 RRR
METAR
K1K1 231955Z AUTO 18017G33KT 10SM CLR 28/12 A2952 RMK AO2
     T02780120=
K1M5 231955Z AUTO 19010G16KT 10SM CLR 24/07 A3006 RMK A01=
K1V6 231955Z AUTO 23021G30KT 10SM SCT100 20/M02 A2941 RMK AO2=
K2A0 231955Z AUTO 26004KT 10SM CLR 24/04 A3012 RMK A01=
K2G2 231955Z AUTO VRB05KT 10SM CLR 23/02 A3017 RMK A01=
K2M2 231955Z AUTO 20007G14KT 160V230 10SM CLR 24/06 A3008 RMK
     A01=
K33N 231955Z AUTO 02010KT 1 1/4SM BR BKN006 BKN013 BKN020 15/15
     A3017 RMK A01=
K36K 231950Z AUTO 22032G48KT 10SM CLR 29/01 A2938 RMK AO2=
K3J7 231955Z AUTO 00000KT 10SM CLR 23/05 A3014 RMK AO2=
K3LF 231955Z AUTO 18023G29KT 10SM CLR 24/14 A2985 RMK AO2
     T02400138=
K3S8 231955Z AUTO 00000KT 10SM CLR 10/05 A3024 RMK AO2=
K46U 231955Z AUTO 34011KT 320V020 10SM BKN039 OVC045 02/M05 A2975
     RMK A01=
K4V0 231955Z AUTO 21004KT 10SM -SN SCT006 SCT023 OVC029 02/01
     A2968 RMK AO2 T00150005=
K54A 231955Z AUTO 07007KT 10SM CLR 30/17 A3002 RMK AO2=
K5T9 231955Z AUTO 15010G17KT 10SM CLR 27/19 A2976 RMK A01=
K65S 231955Z AUTO 16004KT 10SM FEW013 FEW019 SCT050 07/04 A3001
     RMK AO2=
K6A2 231955Z AUTO 04004KT 10SM CLR 22/02 A3016 RMK AO2=
K82V 231955Z AUTO 31030G36KT 10SM SCT120 11/M02 A2937 RMK AO2=
K8A3 231955Z AUTO VRB04KT 10SM CLR 23/05 A3011 RMK A01=
KAAS 231955Z AUTO 20011KT 10SM CLR 24/07 A3015 RMK AO1=
KACP 231955Z AUTO 14010G17KT 10SM BKN047 BKN060 30/16 A2998 RMK
     AO2=
KAEJ 231955Z AUTO 26022G29KT 5SM -SN 05/M01 A2955 RMK AO2
     T00481012=
KAGI 231955Z AUTO 14017KT 10SM CLR 28/17 A2998 RMK AO2
     T02760168=
KALX 231955Z AUTO 00000KT 10SM CLR 24/04 A3013 RMK AO2
     T02350044=
KANW 231955Z AUTO 23021G30KT 10SM CLR 28/M01 A2915 RMK AO2
     T02801014=
KSEM 231955Z AUTO 00000KT 10SM CLR 26/04 A3010 RMK AO2=
KSEZ 231955Z AUTO 30017G23KT 10SM 12/00 A2981 RMK AO2=
KSLO 231955Z AUTO 18014G22KT 10SM BKN042 26/14 A2990 RMK AO2
     T02550141=
KSNH 231950Z AUTO 17011KT 140V200 10SM CLR 25/07 A3005 RMK A01=
KSRB 231955Z AUTO 00000G10KT 10SM CLR 25/06 A3010 RMK A01=
KSRE 231955Z AUTO 10SM CLR 29/12 A2969 RMK AO2=
KSWW 231955Z AUTO 18022G28KT 10SM CLR 30/11 A2974 RMK AO2
     T03010111=
KSYF 231955Z AUTO 24027G40KT 4SM BKN034 OVC044 27/M05 A2925 RMK
     AO2 T02711052 PWINO=
KSYI 231955Z AUTO 19010KT 10SM CLR 25/07 A3010 RMK A01=
KSZT 231955Z AUTO 03006KT 10SM CLR 10/00 A3001 RMK AO2=
KSZY 231955Z AUTO 17009G16KT 10SM CLR 25/07 A3004 RMK A01=
KT89 231955Z AUTO VRB04KT 10SM CLR 31/06 A2974 RMK A01=
KTHA 231955Z AUTO 18006KT 10SM CLR 23/05 A3011 RMK A01=
KTNU 231955Z AUTO 16019G28KT 10SM CLR 25/14 A2955 RMK A01=
KTQH 231955Z AUTO 17020G29KT 10SM CLR 28/10 A2975 RMK AO2=
KTQV 231955Z AUTO 02007G13KT 10SM CLR 19/04 A3016 RMK A01=
KU68 231955Z AUTO 31025G30KT 10SM BKN070 OVC090 03/00 A2963 RMK
     AO2=
KUCY 231955Z AUTO 19015G23KT 10SM CLR 27/11 A2997 RMK A01=
KUSE 231955Z AUTO 18013KT 10SM CLR 25/10 A3006 RMK AO2=
KUVA 231955Z AUTO 15012KT 10SM CLR 28/17 A2981 RMK AO2
     T02780171=
KVCV 231955Z AUTO 30010G16KT 10SM CLR 16/M04 A2992 RMK AO2=
KXLL 231955Z AUTO 04006KT 10SM CLR 17/09 A3026 RMK AO2=
PAAD 231955Z AUTO 11008KT 10SM OVC005 M07/M08 A3003 RMK AO2
     T10711078=
PAUT 231955Z AUTO 21017KT 10SM SCT046 BKN065 OVC085 07/05 A3018
     RMK AO2=
KKLS 231956Z AUTO 16004KT 10SM FEW026 BKN038 OVC047 13/07 A3018
     RMK AO2 SLP222 T01330072=
KLCG 231955Z AUTO 17022G34KT 10SM CLR 30/11 A2927 RMK AO2
     T02990112=
KLGD 231956Z AUTO 31010KT 10SM FEW028 BKN038 BKN047 07/00 A3007
     RMK AO2 SLP195 T00670000=
KLNA 231955Z AUTO 01014G18KT 10SM CLR 29/18 A3003 RMK AO2
     T02870182 PNO=
