SAUS80 KWBC 231622
METAR
K77S 231635Z AUTO 21006KT 10SM BKN050 08/08 A3015 RMK A01=
K9V9 231615Z AUTO 14017G22KT 10SM CLR 17/11 A2921 RMK AO2
     T01740110=
KAYS 231615Z AUTO 09003KT 10SM CLR 23/13 A3018 RMK AO2=
KCUL 231615Z AUTO 18019G25KT 10SM CLR 25/12 A3003 RMK AO2=
KGIC 231615Z AUTO 25006KT 10SM BKN031 OVC040 02/00 A2995 RMK
     AO1=
KIZA 231615Z AUTO 00000KT 10SM CLR 11/08 A2990 RMK AO2=
KSOA 231615Z AUTO 16011G18KT 10SM CLR 23/17 A2991 RMK AO2=
KCBE 231615Z AUTO 00000KT 10SM CLR 11/05 A3035 RMK AO2
     T01140054=
K9V9 231615Z AUTO 14017G22KT 10SM CLR 17/11 A2921 RMK AO2
     T01740110=
KCUL 231615Z AUTO 18019G25KT 10SM CLR 25/12 A3003 RMK AO2=
KCBE 231615Z AUTO 00000KT 10SM CLR 11/05 A3035 RMK AO2
     T01140054=
KCKP 231615Z AUTO 16018G26KT 10SM CLR 21/13 A2944 RMK AO2
     T02110134=
K40U 231615Z AUTO 29010KT 7SM SCT043 BKN050 OVC065 00/M03 A2965
     RMK AO2 T00041032=
KIZA 231615Z AUTO 00000KT 10SM CLR 11/08 A2990 RMK AO2=
KPSN 231615Z AUTO 18014G21KT 10SM BKN034 BKN041 OVC049 26/19 A2993
     RMK AO2=
K4BM 231615Z AUTO 18009KT 160V230 M1/4SM SN OVC002 M01/M02 A2964
     RMK AO2=
K77S 231635Z AUTO 21006KT 10SM BKN050 08/08 A3015 RMK A01=
KGIC 231615Z AUTO 25006KT 10SM BKN031 OVC040 02/00 A2995 RMK
     AO1=
KSOA 231615Z AUTO 16011G18KT 10SM CLR 23/17 A2991 RMK AO2=
