SACA31 KWBC 232100
METAR
MBJT NIL=
MBPV NIL=
MBSC NIL=
MKJP NIL=
MKJS NIL=
MUCM 232051Z 36010KT 9000 SCT020 BKN080 26/23 Q1013=
MUCU 232050Z 33007KT 8000 -RA SCT020CB SCT070 25/22 Q1012 RMK CB
     AT IV QUAD AD=
MUCU 232050Z 33007KT 8000 -RA SCT020CB SCT070 25/22 Q1012=
MUHA 232050Z 06016KT 9000 SCT030 29/21 Q1014=
MUVR 232050Z 06014KT 9999 SCT025 28/21 Q1015=
MWCB 232100Z 05008KT 9999 FEW018 30/24 Q1012=
MWCR 232100Z 05011KT 9999 SCT018 31/25 Q1012=
MYAM NIL=
MYEG NIL=
MYEH NIL=
MYGF 232100Z 02010KT 9999 FEW030 27/21 A3002=
MYNN 232100Z 05010KT 020V080 9999 FEW020 SCT040 28/18 A3000=
