SAUS80 KWBC 231832
METAR
KGNT 231835Z AUTO 24010G18KT 10SM SCT033 BKN039 OVC049 12/04 A2979
     RMK AO2 T01200038=
KNY0 231820Z AUTO 23003KT 10SM CLR 15/06 A3030 RMK AO2=
KROS 231823Z AUTO 13009G20KT 10SM CLR 25/13 A2958 RMK AO2=
