SAUS70 KWBC 231700 RRN
METAR
KWVI 231653Z AUTO VRB03KT 10SM CLR 12/08 A3000 RMK AO2 SLP158
     T01220078=
KX60 231655Z AUTO 32004KT 10SM CLR 26/14 A3014 RMK AO2
     T02570140=
KXNA 231653Z 17024G35KT 10SM FEW110 25/15 A2983 RMK AO2 PK WND
     17035/1652 SLP087 T02500150=
KXSA 231655Z AUTO 33008KT 4SM BR OVC003 14/14 A3020 RMK AO2
     T01350135=
KYIP 231653Z 17006KT 10SM FEW065 24/11 A3014 RMK AO2 SLP201
     T02440106=
KZZV 231653Z AUTO 00000KT 10SM CLR 21/09 A3020 RMK AO2 SLP226
     T02110094=
KRUE 231653Z AUTO 16009G15KT 140V200 10SM OVC031 23/16 A2994 RMK
     AO2 SLP131 T02280161=
KRWF 231653Z AUTO 13023G31KT 10SM CLR 22/12 A2947 RMK AO2 PK WND
     14032/1633 SLP977 T02170122=
KRWI 231653Z AUTO 36012KT 10SM OVC022 21/12 A3016 RMK AO2 SLP214
     T02060122=
KSAC 231653Z 32014KT 10SM CLR 16/01 A2998 RMK AO2 SLP152
     T01560011=
KSFF 231653Z 26003KT 10SM OVC046 04/01 A3000 RMK AO2 SLP168
     T00440011=
KSGS 231655Z AUTO 14008G16KT 10SM CLR 21/11 A2960 RMK AO2
     T02100112=
KSHD 231655Z AUTO 00000KT 10SM CLR 12/05 A3029 RMK AO2
     T01200048=
KSHN 231653Z AUTO 00000KT M1/4SM FG VV002 03/03 A3011 RMK AO2
     SLP199 T00330033=
KSIY 231653Z AUTO 00000KT 10SM CLR 04/03 A3014 RMK AO2 SLP223
     T00440033=
KSJC 231653Z 31009KT 10SM CLR 14/04 A3001 RMK AO2 SLP162
     T01440039=
KSMF 231653Z 32017KT 10SM CLR 16/01 A2998 RMK AO2 SLP151
     T01610006=
KSNS 231653Z 27005KT 10SM CLR 14/07 A2999 RMK AO2 SLP165
     T01390072=
KSPB 231653Z AUTO 07003KT 10SM BKN005 OVC055 10/08 A3012 RMK AO2
     SLP200 T01000078=
KSPW 231653Z AUTO 15024G33KT 10SM CLR 23/12 A2945 RMK AO2 PK WND
     15036/1610 SLP967 T02330117=
KSRR 231655Z AUTO 24034G47KT 10SM 16/05 A2982 RMK AO2=
KSTP 231653Z 14016G24KT 10SM CLR 21/12 A2961 RMK AO2 SLP023
     T02110122=
KSTS 231653Z AUTO 35013KT 10SM CLR 15/02 A3004 RMK AO2 SLP165
     T01500017=
KSUX 231652Z 16019G28KT 10SM CLR 24/13 A2936 RMK AO2 PK WND
     16030/1623 SLP939 T02390133=
KTCL 231653Z 20010KT 10SM CLR 23/09 A3019 RMK AO2 SLP220
     T02330089=
KTDZ 231653Z AUTO 18013G17KT 10SM CLR 24/12 A3014 RMK AO2 SLP205
     T02440117=
KTEW 231655Z AUTO 14012G16KT 10SM CLR 23/11 A3010 RMK AO2
     T02270108=
KTIW 231653Z 15003KT 8SM OVC003 07/06 A3012 RMK AO2 SLP200
     T00720061=
KTOI 231653Z AUTO 00000KT 10SM CLR 25/05 A3020 RMK AO2 SLP222
     T02500050=
KTQE 231654Z AUTO 17025G34KT 10SM CLR 27/13 A2938 RMK AO2 PK WND
     17034/1654 SLP939 T02670133=
KTTD 231653Z 12004KT 10SM FEW028 OVC055 11/08 A3014 RMK AO2 SLP205
     T01060078=
KTVC 231653Z 14008G16KT 10SM FEW200 SCT250 23/11 A2998 RMK AO2
     SLP149 T02280111=
KTVL 231653Z AUTO 00000KT 10SM SCT030 BKN040 BKN048 02/M04 A2997
     RMK AO2 SLP146 T00221044=
KTVR 231653Z AUTO 17011G21KT 10SM CLR 28/15 A3008 RMK AO2 SLP193
     T02780150=
KMSP 231653Z 14016G29KT 10SM CLR 22/12 A2959 RMK AO2 PK WND
     15032/1636 SLP018 T02170117=
KMVE 231655Z AUTO 14019G25KT 10SM CLR 21/12 A2944 RMK AO2=
KMYV 231653Z AUTO 33014KT 10SM CLR 15/01 A3000 RMK AO2 SLP162
     T01500006 $=
KOAK 231653Z 31009KT 10SM CLR 15/04 A3002 RMK AO2 SLP165
     T01500039=
KOIN 231655Z AUTO 22025G35KT 7SM CLR 28/07 A2934 RMK AO1
     T02760069=
KOMK 231653Z AUTO 00000KT 10SM CLR 08/M02 A3004 RMK AO2 SLP180
     T00831017=
KOVE 231653Z AUTO 32007KT 10SM CLR 16/M01 A3002 RMK AO2 SLP168
     T01611006=
KPAE 231653Z 15006KT 4SM BR FEW007 BKN009 BKN050 08/06 A3011 RMK
     AO2 SLP198 T00830061=
KPAH 231653Z 20012G26KT 10SM BKN055 24/13 A3003 RMK AO2 PK WND
     20026/1644 SLP165 T02440133=
KPBF 231653Z AUTO 20017KT 10SM CLR 27/15 A3001 RMK AO2 SLP160
     T02670150=
