SAUS70 KWBC 232136 RRA
METAR
K10G 232135Z AUTO 16006KT 10SM CLR 22/04 A3013 RMK AO2=
