SAUS70 KWBC 232038 RRD
METAR
KOVL 232035Z AUTO 15021G32KT 5SM HZ CLR 25/12 A2938 RMK AO2=
KPCZ 232035Z AUTO 12012G18KT 10SM SCT049 24/13 A2977 RMK AO2
     T02360125=
KPWC 232035Z AUTO 12019G28KT 10SM CLR 23/13 A2952 RMK AO2=
KRGK 232035Z AUTO 15015G20KT 10SM CLR 24/12 A2953 RMK AO2=
KTEW 232035Z AUTO 15015G22KT 10SM SCT060 25/08 A3004 RMK AO2
     T02470084=
KLWA 232035Z AUTO 16017G22KT 10SM SCT055 26/11 A2993 RMK AO2
     T02580114=
KLXL 232035Z AUTO 13015G25KT 10SM CLR 24/13 A2946 RMK AO2=
KMCD 232035Z AUTO 10006KT 10SM SCT060 15/10 A2999 RMK AO2
     T01460095=
KMOX 232035Z AUTO 14025G36KT 10SM CLR 23/09 A2935 RMK AO2=
KMQJ 232035Z AUTO RMK AO1=
KMWM 232035Z AUTO 14025G30KT 10SM CLR 26/12 A2938 RMK AO2=
KMZH 232035Z AUTO 12004KT 10SM SCT049 23/11 A2957 RMK AO2=
KOEB 232035Z AUTO 19011G18KT 10SM CLR 24/10 A3002 RMK AO2
     T02350098=
KONZ 232035Z AUTO 14006KT 10SM SCT110 22/04 A3008 RMK AO2
     T02230035=
KOXD 232035Z AUTO 18004G15KT 10SM CLR 26/04 A3007 RMK AO2
     T02620035=
KPJC 232035Z AUTO RMK AO2 TSNO PWINO=
KPNM 232035Z AUTO 13015G24KT 10SM CLR 24/13 A2949 RMK AO2 TSNO=
KRMY 232035Z AUTO 17010G17KT 10SM SCT055 24/10 A3002 RMK AO2
     T02350102=
KRQB 232035Z AUTO 17014G29KT 10SM SCT055 24/11 A2997 RMK AO2
     T02370107=
KRZT 232035Z AUTO 18004KT 10SM CLR 25/03 A3011 RMK AO2 PWINO=
KSJX 232035Z AUTO 15009G14KT 10SM CLR 24/11 A2995 RMK AO2
     T02400109=
KSYM 232035Z AUTO VRB04G12KT 10SM CLR 24/02 A3013 RMK AO2=
KTOB 232035Z AUTO 14028G35KT 10SM CLR 24/12 A2954 RMK AO2=
KTTF 232035Z AUTO 13007KT 10SM CLR 20/10 A3008 RMK AO2
     T01950095=
KULM 232035Z AUTO 16023G33KT 10SM CLR 26/11 A2941 RMK AO2=
KVLL 232035Z AUTO 16010G15KT 10SM CLR 24/08 A3011 RMK AO2
     T02400082=
KVWU 232035Z AUTO 11013G18KT 10SM CLR 26/13 A2950 RMK AO2=
KY70 232035Z AUTO 15015G21KT 10SM CLR 24/09 A3000 RMK AO2
     T02400086=
KS24 232035Z AUTO 16010G16KT 10SM CLR 24/08 A3009 RMK AO2=
K04W 232035Z AUTO 12010G18KT 10SM SCT046 23/13 A2956 RMK AO2=
K21D 232035Z AUTO 15014KT 10SM CLR 23/12 A2953 RMK AO2=
K22N 232035Z AUTO 00000KT 10SM BKN050 BKN120 17/08 A3026 RMK
     AO2=
K3N8 232035Z AUTO 12018G26KT 10SM CLR 23/12 A2939 RMK AO2
     T02330118=
K6B0 232035Z AUTO 00000KT 10SM CLR 17/08 A3029 RMK AO2
     T01720075=
KACB 232035Z AUTO 15011G20KT 10SM BKN060 24/11 A2996 RMK AO2
     T02430111=
KAEL 232035Z AUTO 16022G35KT 10SM CLR 24/13 A2950 RMK AO2=
KAXV 232035Z AUTO 15012KT 10SM CLR 24/08 A3007 RMK AO2=
KBBB 232035Z AUTO 16019G29KT 10SM CLR 24/12 A2935 RMK AO2=
KBVI 232035Z AUTO 12003KT 10SM CLR 24/02 A3018 RMK AO2
     T02400015=
KCAD 232035Z AUTO 15013G22KT 10SM BKN050 OVC060 22/10 A2997 RMK
     AO2 T02200103=
KCDA 232035Z AUTO 13004KT 10SM 17/04 A3035 RMK AO2 T01700043=
KCDI 232035Z AUTO 17005KT 10SM CLR 24/08 A3014 RMK AO2
     T02400078=
KCKC 232035Z AUTO 09008G15KT 10SM CLR 18/11 A2975 RMK AO2=
KCNB 232035Z AUTO 10022G31KT 10SM CLR 25/11 A2931 RMK AO2
     T02530111=
KCVX 232035Z AUTO 15010G17KT 10SM CLR 24/12 A2996 RMK AO2
     T02350115=
KD95 232035Z AUTO 13011G14KT 10SM SCT060 23/05 A3008 RMK AO2
     T02310052=
KDTL 232035Z AUTO 13018G27KT 10SM CLR 23/12 A2938 RMK AO2=
KDUH 232035Z AUTO 16011G15KT 130V210 10SM SCT060 25/07 A3007 RMK
     AO2 T02450068=
KEFK 232035Z AUTO 00000KT 10SM CLR 17/07 A3032 RMK AO2
     T01690072=
KFFX 232035Z AUTO 15014G20KT 10SM OVC050 26/11 A2994 RMK AO2
     T02580111=
KFGN 232035Z AUTO 04006KT 10SM CLR 14/08 A2957 RMK AO2=
KFKA 232035Z AUTO 15016G24KT 7SM CLR 23/13 A2960 RMK AO2
     T02270127=
KFKS 232035Z AUTO 16010G14KT 10SM SCT050 BKN080 23/13 A2991 RMK
     AO2 T02270125=
