SAUS70 KWBC 231700 RRD
METAR
KTYL 231655Z AUTO 25020G26KT 10SM OVC020 09/09 A2983 RMK AO2
     P0001=
KVCV 231655Z AUTO 27014G20KT 10SM CLR 13/M02 A2993 RMK AO2=
K33N 231655Z AUTO 04008G15KT 10SM FEW060 SCT070 17/13 A3020 RMK
     A01=
K3LF 231655Z AUTO 17022G29KT 10SM SCT120 22/13 A2991 RMK AO2
     T02180133=
KANW 231655Z AUTO 19014KT 10SM CLR 21/01 A2920 RMK AO2
     T02070005=
KBAX 231655Z AUTO 17011G16KT 10SM CLR 22/12 A3013 RMK AO2
     T02170118=
KBBB 231656Z AUTO 15015G23KT 10SM CLR 21/12 A2945 RMK AO2=
KBTA 231655Z AUTO 17021G30KT 10SM CLR 25/13 A2941 RMK AO2
     T02530130=
KCKZ 231655Z AUTO 07008G14KT 10SM FEW110 16/09 A3027 RMK AO2=
KDSF 231655Z AUTO 10006KT 10SM CLR 24/14 A3013 RMK A01=
KEGV 231655Z AUTO 14007KT 110V180 10SM CLR 19/11 A2984 RMK AO2
     T01900108=
KGRN 231655Z AUTO 32014G20KT 10SM CLR 10/01 A2924 RMK AO2
     T00970008=
KHSB 231655Z AUTO 19018G27KT 10SM SCT041 25/17 A3001 RMK AO2
     T02500170=
KHZX 231655Z AUTO 15009G14KT 101V161 10SM SCT060 BKN075 20/11
     A2964 RMK AO2=
KI67 231655Z AUTO 18009KT 10SM CLR 23/10 A3014 RMK AO1=
KIMS 231655Z AUTO 20011G15KT 10SM CLR 23/10 A3015 RMK AO2=
KMOP 231655Z AUTO 15012G17KT 10SM CLR 22/11 A3006 RMK AO2
     T02150106=
KTNU 231655Z AUTO 17020G28KT 10SM CLR 24/14 A2960 RMK A01=
KUSE 231655Z AUTO 18012G18KT 10SM CLR 24/11 A3012 RMK AO2=
KVAF 231655Z AUTO 18018G23KT 10SM CLR 28/16 A3000 RMK A01=
KWBF 231655Z AUTO VRB04G10KT 10SM 27/18 A3009 RMK A01=
KXLL 231655Z AUTO 06005KT 10SM SCT050 SCT060 SCT095 15/08 A3028
     RMK AO2=
KY31 231655Z AUTO 18008KT 10SM CLR 22/10 A3008 RMK AO2
     T02230104=
KY49 231655Z AUTO 09005KT 10SM CLR 17/09 A2958 RMK AO2
     T01710091=
K05U 231655Z AUTO 00000KT 4SM BR M01/M03 A2994 RMK A01=
K3S8 231655Z AUTO 00000KT 9SM OVC004 06/06 A3022 RMK AO2=
KAWO 231656Z AUTO 00000KT 10SM FEW027 OVC050 08/06 A3012 RMK AO2
     SLP205 T00780061=
KBOK 231656Z AUTO VRB03KT 10SM CLR 12/05 A3018 RMK AO2 SLP221
     T01220050 $=
KC07 231655Z AUTO 28004KT 1/2SM -SN OVC001 M03/M03 A2958 RMK
     AO2=
KC83 231655Z AUTO 34019KT 10SM CLR 17/00 A2999 RMK AO2=
KCWC 231655Z AUTO 18021G27KT 10SM CLR 26/16 A2975 RMK AO2
     T02640155=
KDSF 231655Z AUTO 10006KT 10SM CLR 24/14 A3013 RMK A01=
KEIK 231655Z AUTO 07005KT 10SM CLR 18/M07 A2932 RMK AO2 T01801068
     PWINO=
KFTN 231655Z AUTO 14010G15KT 10SM CLR 26/19 A2986 RMK A01=
KGOO 231655Z AUTO VRB06KT 10SM CLR 10/M06 A2996 RMK A01=
KHHF 231655Z AUTO 22016G21KT 10SM CLR 25/12 A2961 RMK AO2
     T02480117=
KJTC 231650Z AUTO 23025G34KT 10SM CLR 14/M00 A2982 RMK AO2=
KKLS 231656Z AUTO 15005KT 10SM FEW020 SCT050 10/08 A3013 RMK AO2
     SLP208 T01000078=
KMHV 231700Z AUTO 25016G22KT 10SM CLR 13/M00 A2990 RMK A01=
KPYX 231655Z AUTO 23028G36KT 5SM CLR 28/08 A2958 RMK AO2
     T02760075=
KSXU 231655Z AUTO 22026G35KT 10SM CLR 23/03 A2966 RMK AO2
     T02250027=
KBNW 231655Z AUTO 16023G29KT 10SM CLR 23/14 A2956 RMK AO2=
KC09 231655Z AUTO 17015G23KT 10SM CLR 24/14 A2989 RMK AO2
     T02350136=
KCCY 231655Z AUTO 15020G27KT 10SM CLR 22/13 A2963 RMK AO2=
KCKC 231656Z AUTO 13007G15KT 10SM CLR 17/10 A2979 RMK AO2=
KCSQ 231655Z AUTO 17022G30KT 9SM CLR 25/14 A2953 RMK AO2=
KD39 231655Z AUTO 11014G20KT 10SM CLR 20/12 A2952 RMK AO2
     T02000115=
KGGI 231655Z AUTO 15018G23KT 10SM CLR 25/15 A2965 RMK AO2
     T02450145=
KGVQ 231656Z AUTO 09005KT 10SM CLR 20/07 A3025 RMK AO2 SLP242
     T02000067=
KI68 231655Z AUTO 19012G16KT 10SM CLR 23/11 A3016 RMK AO1
     T02320106=
KIFA 231655Z AUTO 16021G25KT 10SM CLR 23/14 A2960 RMK AO2
     T02300140=
