SACA32 KWBC 231800
METAR
MDLR NIL=
MDPC 231800Z 09008KT 9999 FEW020CB FEW022 31/24 Q1012 CB/W=
MDPP 231800Z 06014KT 9999 FEW020 31/26 Q1012=
MDSD 231800Z 14004KT 9999 FEW020CB FEW022 32/25 Q1013 CB/NE/SE=
MDST 231800Z 08004KT 9999 FEW020CB FEW022 SCT300 33/22 Q1012
     CB/S/SW=
MTCH NIL=
MTPP 231800Z VRB02KT 9999 SCT028 31/22 Q1011 A2987=
MTPP 231752Z VRB02KT 9999 SCT028 31/22 Q1011 A2987=
TAPA NIL=
TIST 231753Z VRB06KT 10SM SCT030 30/24 A2989 RMK AO2 SLP123
     T03000239 10317 20283 56018=
TJBQ 231750Z 06010KT 10SM CLR 30/24 A2991=
TJMZ NIL=
TJPS NIL=
TJSJ 231756Z 06010KT 10SM FEW034 SCT050 SCT085 31/24 A2990 RMK AO2
     SLP124 T03060244 10311 20261 56021 $=
TKPK 231800Z 07008KT 9999 FEW024 30/23 Q1012=
TKPN NIL=
TQPF 231800Z 09009KT 9999 SCT020 30/23 Q1013=
TRPM NIL=
TUPJ 231800Z 06005KT 10SM SCT021 29/25 A2991 RMK Q1012 VIS16KM=
TUPW NIL=
