SAUS70 KWBC 231740 RRE
METAR
KF70 231735Z AUTO 18007KT 10SM CLR 16/06 A2989 RMK AO2=
KHAF 231735Z AUTO 33013KT 7SM 15/09 A3002 RMK AO2=
KL35 231735Z AUTO 25005KT 10SM CLR 06/M06 A2993 RMK AO2=
KL52 231735Z AUTO 32006KT 7SM CLR 18/06 A2993 RMK A01=
KO32 231735Z AUTO 32004KT 10SM CLR 14/03 A2993 RMK AO2 T01420034
     $=
KONM 231735Z AUTO 21014G24KT 10SM CLR 21/M01 A2974 RMK AO2
     T02111006=
KORS 231735Z AUTO 18005KT 10SM BKN014 OVC038 10/09 A3011 RMK
     AO2=
KPAN 231735Z AUTO 21011G17KT 10SM FEW019 SCT029 BKN035 12/07 A2986
     RMK AO2 PWINO TSNO=
KPVF 231735Z AUTO 00000KT 10SM CLR 12/M05 A2997 RMK AO1=
KTSP 231735Z AUTO 28012KT 9SM CLR 09/00 A2995 RMK AO2=
KU42 231735Z AUTO 32018G23KT 10SM SCT023 SCT043 BKN060 04/02 A2978
     RMK AO1 T00440024=
K14Y 231735Z AUTO 13010G15KT 10SM CLR 20/11 A2952 RMK AO2=
KACQ 231735Z AUTO 13020G27KT 10SM CLR 22/12 A2957 RMK AO2=
KAIT 231735Z AUTO 14011G15KT 10SM BKN065 21/11 A2959 RMK AO2=
KAUM 231735Z AUTO 14016G22KT 10SM CLR 22/13 A2959 RMK AO2=
KAXV 231735Z AUTO 18011G17KT 10SM CLR 23/10 A3012 RMK AO2=
KCOQ 231735Z AUTO 10011KT 10SM SCT070 16/09 A2966 RMK AO2 TSNO=
KDRM 231735Z AUTO 13007KT 10SM CLR 19/11 A3006 RMK AO2
     T01850107=
KFBL 231735Z AUTO 12019G25KT 10SM CLR 23/13 A2957 RMK AO2=
KFFM 231735Z AUTO 12017KT 10SM CLR 21/12 A2942 RMK AO2=
KFGN 231735Z AUTO 08009KT 10SM CLR 12/06 A2964 RMK AO2=
KFSO 231735Z AUTO 24004KT 10SM CLR 20/06 A3031 RMK AO2
     T01960055=
KGHW 231735Z AUTO 12019G25KT 10SM CLR 22/12 A2947 RMK AO2=
KHCO 231735Z AUTO 06013G18KT 10SM CLR 15/08 A2953 RMK AO2=
KI69 231735Z AUTO 21006G09KT 10SM CLR 24/09 A3016 RMK AO2
     T02350092=
KJKJ 231735Z AUTO 11010G16KT 10SM CLR 22/11 A2943 RMK AO2 TSNO=
KJMR 231735Z AUTO 12009G15KT 10SM CLR 22/12 A2964 RMK AO2=
KLDM 231735Z AUTO 18013G17KT 10SM CLR 23/11 A2995 RMK AO2
     T02310109=
KMGN 231735Z AUTO 19006G16KT 10SM SCT050 22/11 A3001 RMK AO2
     T02300115=
KRZL 231735Z AUTO 17021G28KT 10SM CLR 24/12 A2997 RMK AO2=
KSAR 231735Z AUTO 19020G28KT 10SM BKN031 22/15 A2994 RMK AO2
     T02230145=
KVAF 231735Z AUTO 18016KT 10SM CLR 28/15 A2999 RMK A01=
KWBF 231735Z AUTO 00000KT 10SM 26/18 A3007 RMK A01=
KXLL 231735Z AUTO 03007KT 10SM SCT065 SCT080 BKN095 16/08 A3028
     RMK AO2=
KY31 231735Z AUTO 16011G16KT 130V190 10SM CLR 23/10 A3006 RMK AO2
     T02310101=
KY49 231735Z AUTO 09006KT 10SM CLR 18/10 A2957 RMK AO2
     T01800095=
KFOT 231730Z AUTO 33010KT 9SM CLR 12/08 A3016 RMK AO1=
KFTN 231735Z AUTO 12012KT 10SM CLR 27/19 A2984 RMK A01=
KGOO 231735Z AUTO 05007G15KT 360V090 10SM CLR 11/M08 A2996 RMK
     A01=
KGZN 231720Z AUTO 18020G28KT 10SM CLR 26/15 A2978 RMK AO2=
KHHV 231735Z AUTO 16010G20KT 10SM CLR 26/17 A2995 RMK A01=
KMNZ 231735Z AUTO 20023G28KT 10SM CLR 27/16 A2986 RMK AO2
     T02730156=
KO69 231735Z AUTO VRB06G11KT 10SM CLR 15/02 A3003 RMK A01=
KOAR 231735Z AUTO 00000KT 10SM CLR M03/M13 A3000 RMK AO2=
KP08 231735Z AUTO 26009KT 10SM SCT039 BKN047 OVC050 20/13 A2981
     RMK AO2=
KPRS 231735Z AUTO 18007KT 10SM CLR 28/11 A2986 RMK AO2
     T02810112=
KSEZ 231735Z AUTO 28017G22KT 10SM 12/04 A2981 RMK AO2=
KSVC 231735Z AUTO 26012G21KT 10SM SCT050 18/06 A2988 RMK AO2
     T01810059=
KSWW 231735Z AUTO 18020G29KT 10SM CLR 27/14 A2979 RMK AO2
     T02650138=
KSXU 231735Z AUTO 20025G35KT 10SM SCT075 SCT085 23/04 A2965 RMK
     AO2 T02290041=
KSZT 231735Z AUTO 05005KT 7SM SCT018 07/02 A2998 RMK AO2=
KT89 231735Z AUTO 10007KT 10SM CLR 29/06 A2982 RMK A01=
KTYL 231735Z AUTO 25016G22KT 10SM FEW027 BKN034 OVC060 11/06 A2983
     RMK AO2=
KU68 231735Z AUTO 31023G29KT 10SM BKN046 OVC055 03/00 A2961 RMK
     AO2=
