SAUS70 KWBC 231700 RRQ
METAR
KFIN 231650Z 05007KT 10SM CLR 26/17 A3013=
KWHP 231650Z 32017G27KT 10SM SKC 18/00 A2990 RMK OBSERVER HT=
KWWR 231650Z AUTO 20017G26KT 10SM SCT049 SCT080 SCT110 25/12 A2961
     RMK AO2 LTG DSNT NE=
KX26 231655Z AUTO 02014KT 7SM CLR 26/19 A3011 RMK AO2 LTG DSNT SE
     T02620188=
K19S 231655Z AUTO 21033G44KT 3SM HZ CLR 28/03 A2944 RMK AO2
     T02840028=
K20V 231655Z AUTO 00000KT 10SM BKN018 BKN025 02/01 A2956 RMK
     AO2=
K2J5 231655Z AUTO 03004KT 10SM CLR 23/10 A3020 RMK AO2
     T02270105=
KADH 231655Z AUTO 17020G25KT 10SM SCT025 25/16 A2981 RMK AO2=
KADT 231655Z AUTO 22025G39KT 7SM CLR 27/03 A2933 RMK AO2
     T02680028=
KANK 231650Z AUTO 27011G14KT 10SM SCT028 BKN041 OVC049 06/02 A2961
     RMK AO1 T00640021=
KBMC 231655Z AUTO 10SM SCT040 SCT048 OVC090 05/M02 A2977 RMK AO1
     T00451017=
KC99 231651Z AUTO 30014G20KT 1 1/2SM BKN002 OVC011 00/M01 A2954
     RMK AO2 VIS 1/2V5=
KCHK 231650Z AUTO 16016G23KT 10SM CLR 23/17 A2970 RMK AO2
     T02320170=
KDCY 231655Z AUTO 18016G21KT 10SM CLR 24/12 A3005 RMK AO2
     T02410116=
KDUB 231654Z AUTO 29020G24KT 10SM SCT034 OVC110 00/M08 A2957 RMK
     AO2=
KEAN 231650Z AUTO 27012G17KT 10SM SCT075 BKN085 BKN110 11/00 A2941
     RMK AO2 T01061004=
KEBS 231655Z AUTO 15024G31KT 10SM CLR 23/14 A2951 RMK AO2=
KGNB 231655Z AUTO 22006KT 10SM BKN017 OVC022 03/00 A2956 RMK AO2
     T00330002=
KGNC 231655Z AUTO 21017G21KT 10SM CLR 26/10 A2981 RMK AO2
     T02640095=
KHBV 231650Z AUTO 17018G24KT 10SM CLR 28/18 A2987 RMK AO2
     T02830175=
KHEQ 231655Z AUTO 23019G26KT 10SM CLR 26/M03 A2922 RMK AO2=
KHSG 231650Z AUTO 35006KT 1 3/4SM -SN BKN010 OVC014 00/00 A2961
     RMK AO2 P0002 T00030000=
KMHP 231655Z AUTO 06006KT 10SM CLR 23/12 A3018 RMK AO2
     T02350118=
KMMH 231654Z AUTO 34011G15KT 10SM CLR 03/M08 A2995 RMK AO2=
KMPZ 231650Z AUTO 16018G25KT 10SM CLR 24/17 A2973 RMK AO2=
KMYZ 231650Z AUTO 20022G31KT 10SM CLR 27/13 A2946 RMK AO2=
KOSA 231650Z AUTO 19013KT 10SM BKN032 OVC041 26/18 A2993 RMK AO2
     T02560180=
KOZA 231655Z AUTO 18014G24KT 10SM CLR 23/15 A2989 RMK AO2=
KPEQ 231655Z AUTO 22012G17KT 10SM CLR 30/08 A2977 RMK AO2
     T03000079=
KPEZ 231700Z AUTO 17015G21KT 10SM SCT038 28/18 A2990 RMK AO2
     T02840181=
KPVW 231650Z AUTO 23020G31KT 10SM BKN120 25/10 A2970 RMK AO2
     T02520101=
KSLR 231650Z AUTO 17015G20KT 10SM BKN034 BKN041 26/17 A2992 RMK
     AO2 T02640166=
KTOC 231655Z AUTO 25003KT 10SM CLR 21/02 A3023 RMK AO2
     T02110017=
KTXW 231650Z AUTO 16016G21KT 1SM HZ BKN037 30/19 A2986 RMK AO2 VIS
     1/2V3 T03030190=
KULS 231655Z AUTO 22034G46KT 2SM HZ CLR 27/02 A2941 RMK AO2=
K11R 231655Z AUTO 18015KT 10SM SCT035 SCT046 SCT050 28/19 A2994
     RMK AO2 LTG DSNT SE T02840192=
KAXX 231655Z AUTO 24030G42KT 10SM BKN055 BKN075 OVC085 10/M03
     A2971 RMK AO2 T01041026=
KBMT 231655Z AUTO 14012G19KT 10SM SCT043 SCT050 BKN060 29/17 A3000
     RMK AO2 T02910171=
KCPW 231655Z AUTO 1/4SM SN OVC001 M04/M04 A2970 RMK AO2 P0004=
KCZT 231655Z AUTO 14009G15KT 10SM CLR 25/18 A2984 RMK AO2=
KDUX 231655Z AUTO 20025G30KT 10SM CLR 25/09 A2963 RMK AO2
     T02530094=
KE38 231655Z AUTO 21016G21KT 10SM CLR 25/07 A2998 RMK AO2
     T02450071=
KGLE 231655Z AUTO 18020G27KT 10SM CLR 26/16 A2983 RMK AO2
     T02580157=
KHVE 231655Z AUTO 00000KT 10SM CLR 07/01 A2966 RMK AO2=
KLMO 231655Z AUTO 07006KT 10SM SCT100 18/M03 A2934 RMK AO2
     T01771032=
KNOW 231655Z AUTO 00000KT 10SM CLR 09/06 A3011 RMK AO2
     T00930060=
KPOY 231655Z AUTO 35020G25KT 4SM -SN SCT017 SCT026 00/M02 A2957
     RMK AO2=
