SACA33 KWBC 231700 RRA
METAR
TTCP 231700Z 11008KT 9999 FEW022 31/26 Q1010 NOSIG=
TTPP 231700Z 12009KT 9999 VCSH SCT027 33/24 Q1010 NOSIG RMK VCSH N
     DIST CB SW W=
