SAUS70 KWBC 231940
METAR
K21D 231935Z AUTO 13010G19KT 10SM CLR 24/12 A2955 RMK AO2=
KACQ 231935Z AUTO 13024G28KT 10SM CLR 23/12 A2951 RMK AO2=
KAIT 231935Z AUTO 12013G20KT 10SM CLR 24/12 A2953 RMK AO2=
KBDH 231935Z AUTO 14026G34KT 7SM CLR 24/12 A2943 RMK AO2=
KCFE 231935Z AUTO 13023G28KT 10SM CLR 24/13 A2947 RMK AO2=
KCOQ 231935Z AUTO 10011G20KT 10SM CLR 18/09 A2960 RMK AO2 TSNO=
KDLZ 231935Z AUTO 17010KT 10SM CLR 23/08 A3013 RMK AO2=
KEDJ 231935Z AUTO 20010G16KT 160V230 10SM SCT055 24/09 A3011 RMK
     A01=
KELO 231935Z AUTO 13013G17KT 10SM SCT090 21/09 A2967 RMK AO2=
KFFM 231935Z AUTO 12023G29KT 10SM CLR 23/12 A2935 RMK AO2=
KGHW 231935Z AUTO 11024G31KT 10SM CLR 23/12 A2940 RMK AO2=
KGYL 231935Z AUTO 13021G30KT 7SM CLR 24/13 A2945 RMK AO2
     T02440125=
KI69 231935Z AUTO 17004KT 10SM SCT060 25/08 A3011 RMK AO2
     T02450083=
KJKJ 231935Z AUTO 12019G26KT 10SM CLR 24/12 A2935 RMK AO2 TSNO=
KJMR 231935Z AUTO 13008G17KT 10SM SCT043 24/12 A2957 RMK AO2=
KMGG 231935Z AUTO 12013G21KT 10SM CLR 24/12 A2948 RMK AO2
     T02400115 PWINO=
KMVE 231935Z AUTO 15020G30KT 10SM CLR 24/13 A2935 RMK AO2=
KOZW 231935Z AUTO 17016G21KT 10SM SCT055 24/10 A3007 RMK AO2
     T02350096=
KRGK 231935Z AUTO 13013KT 10SM CLR 24/12 A2954 RMK AO2=
KSGS 231935Z AUTO 14013G20KT 10SM CLR 24/12 A2952 RMK AO2
     T02440116=
KTWM 231935Z AUTO 07015G18KT 10SM CLR 19/11 A2965 RMK AO2=
KUKT 231935Z AUTO 09006G13KT 10SM BKN046 17/10 A3024 RMK A01=
KVVV 231935Z 14028G33KT 10SM 23/13 A2931 RMK AO2=
KY63 231935Z AUTO 13016G30KT 10SM CLR 22/12 A2936 RMK AO2
     T02180120=
KY49 231935Z AUTO 09006KT 070V130 10SM CLR 20/11 A2951 RMK AO2
     T02010108=
KADC 231936Z AUTO 13021G28KT 10SM CLR 24/11 A2943 RMK AO2 TSNO=
KATP 231935Z AUTO 11013KT 10SM SCT036 25/17 A3004 RMK A01=
KBAX 231935Z AUTO 18012G27KT 10SM SCT050 23/10 A3009 RMK AO2
     T02280104=
KBQX 231935Z AUTO 16012G20KT 9SM 28/18 A2991 RMK A01=
KCDD 231933Z AUTO 15005KT 10SM SCT100 22/09 A2965 RMK AO2=
KD39 231935Z AUTO 12018G24KT 10SM CLR 23/12 A2944 RMK AO2
     T02260122=
KDSF 231930Z AUTO 07005KT 10SM CLR 25/14 A3007 RMK A01=
KERY 231935Z AUTO 16016G24KT 10SM CLR 21/11 A2996 RMK AO2
     T02130107=
KGHB 231940Z AUTO 11008G16KT 8SM FEW048 26/18 A3000 RMK A01=
KGLX 231935Z AUTO 05010KT 10SM CLR 26/13 A3006 RMK A01=
KGRY 231935Z AUTO 10013KT 10SM FEW036 FEW042 24/16 A3004 RMK
     A01=
KHCD 231935Z AUTO 13021G29KT 10SM CLR 25/12 A2945 RMK AO2
     T02450122=
KHHV 231935Z AUTO 15019KT 10SM CLR 26/19 A2989 RMK A01=
KHYX 231935Z AUTO 17017G22KT 10SM CLR 23/10 A3006 RMK AO2
     T02340096=
KHZX 231935Z AUTO 10015G19KT 10SM SCT044 23/12 A2956 RMK AO2=
KIMS 231935Z AUTO 15011G15KT 10SM CLR 25/08 A3008 RMK AO2=
KLVN 231935Z AUTO 16019G28KT 7SM CLR 24/11 A2951 RMK AO2=
KLXL 231935Z AUTO 13018G28KT 10SM CLR 24/13 A2948 RMK AO2=
KMJQ 231935Z AUTO 16020G30KT 10SM CLR 25/11 A2943 RMK AO2=
KMOP 231935Z AUTO 16011G20KT 10SM SCT055 24/10 A3002 RMK AO2
     T02350101=
KMZH 231935Z AUTO 12007KT 072V162 10SM SCT047 24/11 A2958 RMK
     AO2=
KONA 231935Z AUTO 15018G24KT 10SM CLR 25/12 A2960 RMK AO2=
KOSC 231935Z AUTO 11006KT 10SM CLR 19/12 A3008 RMK AO2
     T01910116=
KPEX 231935Z AUTO 14019G23KT 10SM CLR 23/12 A2944 RMK AO2=
KPMH 231935Z AUTO 00000KT 10SM CLR 26/02 A3013 RMK AO2
     T02640024=
KPZZ 231935Z AUTO 12016KT 9SM CLR 25/16 A3003 RMK A01=
KRRT 231935Z AUTO 04013G18KT 10SM CLR 13/10 A2956 RMK AO2=
KVAF 231935Z AUTO 15017KT 10SM CLR 28/17 A2994 RMK A01=
KVOA 231940Z AUTO 09011KT 10SM CLR 25/16 A3008 RMK A01=
KWBF 231935Z AUTO VRB04G10KT 10SM 26/18 A3003 RMK A01=
