SANZ31 NZKL 231800
METAR NZAA 231800Z AUTO 12001KT 9999 NCD 11/11 Q1029 NOSIG=
METAR NZWN 231800Z AUTO 02017KT 9999 NCD 14/09 Q1023 NOSIG=
METAR NZCH 231800Z AUTO 32004KT 270V350 9999 NCD 12/03 Q1019 NOSIG=
