SAUS80 KWBC 232000
METAR
KSXT 231956Z AUTO 00000KT 10SM FEW002 SCT010 BKN026 04/01 A3016
     RMK AO2 SLP229 T00390011=
PAQT 231953Z AUTO 10009KT 3SM BR OVC004 M07/M07 A3003 RMK AO2
     SLP168 I1000 T10671072 TSNO=
K9MN 231955Z AUTO 12019G27KT 10SM CLR 23/12 A2957 RMK AO1
     T02310117=
KBZN 231956Z 24008KT 1SM SN BR SCT009 SCT015 OVC022 01/M01 A2981
     RMK AO2 SLP119 P0005 T00061006=
KCAE 231956Z 03005KT 10SM FEW200 FEW250 24/08 A3013 RMK AO2 SLP202
     T02440083=
KCHS 231956Z 32008KT 10SM CLR 24/11 A3012 RMK AO2 SLP199
     T02390106=
KELY 231953Z AUTO 03011KT 10SM FEW044 SCT050 SCT060 02/M03 A2990
     RMK AO2 WSHFT 1933 SLP119 T00171028=
KFSD 231956Z 15017G33KT 10SM SCT250 28/12 A2926 RMK AO2 PK WND
     17035/1945 SLP901 T02780117=
KINW 231956Z AUTO VRB03KT 10SM BKN055 BKN070 OVC090 13/01 A2978
     RMK AO2 RAE1859 SLP040 P0000 T01280011=
KJAX 231956Z 04012G18KT 10SM SCT038 SCT250 26/17 A3010 RMK AO2
     SLP194 T02560167=
KMOB 231956Z 10SM FEW250 27/07 A3010 RMK AO2 SLP189 T02670067
     $=
KOFK 231956Z AUTO 17024G34KT 10SM OVC031 31/11 A2924 RMK AO2 PK
     WND 17037/1903 SLP887 T03110106=
KTKC 231955Z AUTO 15024G32KT 10SM 25/10 A2936 RMK AO2
     T02490100=
KTLH 231953Z COR VRB06KT 10SM FEW250 27/07 A3010 RMK AO2 SLP191
     T02670067=
KWMC 231956Z AUTO A3003 RMK AO2 SLPNO PWINO FZRANO $=
TJSJ 231956Z 05011KT 10SM SCT033 SCT080 30/24 A2988 RMK AO2 SLP117
     VCSH S SW T03000239 $=
KGNR 231956Z AUTO VRB04KT 18/06 A3034 RMK AO1 SLP279 T01780056=
KGPZ 231956Z AUTO VRB06G15KT 10SM CLR 21/12 A2958 RMK AO2 SLP020
     T02110117=
KHON 231955Z AUTO 14018G33KT 10SM CLR 26/11 A2916 RMK AO2 PK WND
     13033/1905 SLP870 T02560111=
KANJ 231955Z AUTO 11009G18KT 10SM CLR 20/12 A3001 RMK AO2 SLP162
     T02000117=
KDLH 231955Z 10016G26KT 10SM FEW085 20/11 A2963 RMK AO2 PK WND
     09026/1952 SLP036 T02000106=
KDVL 231956Z AUTO 07021G27KT 10SM CLR 16/07 A2938 RMK AO2 PK WND
     07027/1955 SLP967 T01560072=
KEAR 231956Z AUTO 20025G29KT 9SM FEW038 31/08 A2921 RMK AO2 PK WND
     19038/1934 SLP874 T03060083=
KGPI 231955Z 34006KT 10SM BKN046 OVC050 08/M02 A2994 RMK AO2
     SLP153 T00781022=
KSYN 231955Z AUTO 16020G27KT 10SM CLR 25/12 A2952 RMK AO2
     T02500120=
KPHP 231955Z AUTO 34015KT 10SM CLR 13/04 A2924 RMK AO2 SLP901
     T01280044=
KMKG 231955Z 16012G24KT 10SM FEW055 SCT250 26/13 A2993 RMK AO2 PK
     WND 17026/1916 SLP132 T02610128=
KCTY 231955Z AUTO 32008KT 10SM CLR 28/11 A3009 RMK AO2
     T02780106=
KJNX 231955Z AUTO 02007KT 10SM CLR 22/11 A3012 RMK AO2=
KLWS 231956Z 24004KT 10SM CLR 10/03 A3005 RMK AO2 SLP182
     T01000028=
KSFO 231956Z 30010KT 10SM CLR 19/05 A3000 RMK AO2 SLP160 T01940050
     $=
K2WX 231956Z AUTO 32020G35KT 08/03 A2931 RMK AO1 PK WND 31035/1948
     SLP931 T00830033=
K40U 231955Z AUTO 29017G22KT 10SM -RA BKN041 BKN047 OVC060 02/M04
     A2970 RMK AO2 T00191040=
KBIH 231956Z AUTO 36020G26KT 10SM CLR 13/M09 A2992 RMK AO2 PK WND
     35027/1912 SLP110 T01331094=
KAST 231955Z AUTO 23008KT 10SM SCT027 13/07 A3017 RMK AO2 SLP214
     T01280067=
KMWN 231953Z 12019KT 80SM FEW030 SCT060 BKN100 OVC150 09/M09
     RMK=
KVTI 231955Z AUTO 15018G26KT 10SM CLR 25/13 A2961 RMK AO2
     T02460126=
KCIR 231955Z AUTO 23015G19KT 10SM BKN048 27/14 A2996 RMK AO2
     T02700142=
KRLD 231955Z AUTO 27005KT 10SM CLR 15/00 A3010 RMK AO2
     T01491002=
KAAT 231955Z AUTO VRB05KT 10SM BKN070 07/M05 A3007 RMK AO2 SLP188
     T00721050=
KRNO 231955Z 05005G15KT 10SM BKN065 08/M07 A3005 RMK AO2 SLP167
     T00831067=
KS39 231955Z AUTO VRB06G12KT 10SM BKN036 08/M02 A3010 RMK AO2=
