SAUS70 KWBC 231700
METAR
KAFN 231652Z AUTO 01003KT 10SM CLR 14/06 A3035 RMK AO2 SLP288
     T01390056=
KANE 231645Z 14014G24KT 10SM CLR 22/12 A2959=
KAQW 231652Z AUTO 00000KT 10SM CLR 14/06 A3033 RMK AO2 SLP274
     T01390061=
KARR 231652Z 16020G31KT 9SM CLR 22/13 A2989 RMK AO2 PK WND
     16031/1648 SLP118 T02220128=
KBLF 231652Z AUTO VRB04KT 10SM CLR 18/01 A3026 RMK AO2 SLP229
     T01780011=
KBML 231652Z AUTO 00000KT 10SM CLR 18/04 A3035 RMK AO2 SLP285
     T01830039=
KBRL 231653Z AUTO 16013G23KT 10SM CLR 22/13 A2976 RMK AO2 PK WND
     17029/1601 SLP074 T02220133=
KCFV 231652Z AUTO 18019G37KT 10SM CLR 27/16 A2968 RMK AO2 PK WND
     20037/1649 SLP041 T02670156 PWINO $=
KCQX 231652Z AUTO 06006KT 9SM -RA OVC100 16/13 A3033 RMK AO2 RAB37
     SLP271 P0000 T01560133=
KCVG 231652Z 20012G20KT 10SM FEW070 23/10 A3014 RMK AO2 SLP200
     T02330100=
KDCA 231652Z 35008KT 10SM BKN045 OVC050 18/12 A3024 RMK AO2 SLP240
     T01780117 $=
KDDC 231652Z AUTO 22034G54KT 4SM HZ CLR 29/06 A2943 RMK AO2 PK WND
     20054/1651 SLP932 T02940061 $=
KDPA 231652Z 17019G28KT 10SM CLR 22/13 A2990 RMK AO2 PK WND
     18029/1559 SLP119 T02220128=
KDVN 231652Z AUTO 16015G24KT 10SM CLR 24/13 A2979 RMK AO2 SLP081
     T02390128=
KDVP 231653Z AUTO 14024G30KT 10SM CLR 20/12 A2943 RMK AO2
     T01960121=
KFIT 231652Z AUTO 36004KT 10SM CLR 15/04 A3035 RMK AO2 SLP280
     T01500044=
KGLS 231652Z 17010KT 10SM SCT041 BKN049 BKN060 27/20 A3000 RMK AO2
     SLP158 T02720200=
KHIE 231652Z AUTO 00000KT 10SM CLR 17/06 A3034 RMK AO2 SLP282
     T01720061=
KHQZ 231650Z 17019G31KT 10SM BKN034 26/17 A2988=
KHRL 231652Z 18023G31KT 10SM FEW034 SCT045 31/19 A2987 RMK AO2 PK
     WND 16034/1639 SLP114 T03110189 $=
KHUT 231652Z 17028G40KT 9SM CLR 27/13 A2950 RMK AO2 PK WND
     17040/1651 SLP968 T02720128=
KIAD 231652Z 36006KT 10SM BKN021 OVC028 17/11 A3025 RMK AO2 SLP244
     T01670106=
KIEN 231652Z AUTO 31011G18KT 10SM CLR 09/02 A2926 RMK AO2 SLP903
     T00940022=
KIJD 231652Z AUTO 03005KT 10SM CLR 16/07 A3032 RMK AO2 SLP268
     T01560072=
KIOW 231652Z AUTO 17020G29KT 10SM CLR 24/13 A2973 RMK AO2 PK WND
     16031/1607 SLP063 T02390133=
KITR 231653Z AUTO 24035G52KT 1 3/4SM HZ BKN023 OVC034 24/M04 A2936
     RMK AO2 PK WND 23056/1635 SLPNO T02391039 $=
KLWC 231652Z AUTO 17024G34KT 10SM CLR 27/14 A2959 RMK AO1 PK WND
     19038/1600 SLP011 T02720144=
KLXT 231653Z AUTO 19020G31KT 10SM CLR 26/14 A2964 RMK AO2 PK WND
     21037/1629 SLP029 T02610144=
KMDH 231652Z 18018G32KT 10SM FEW035 25/14 A2997 RMK AO2 PK WND
     18038/1633 SLP144 T02500144=
KMEB 231652Z AUTO 01009KT 10SM CLR 23/06 A3018 RMK AO2 SLP219
     T02280056=
KMKE 231652Z 13014KT 10SM CLR 19/12 A2990 RMK AO2 SLP121 T01890122
     $=
KMLI 231652Z 16018G25KT 10SM CLR 23/13 A2977 RMK AO2 PK WND
     15026/1635 SLP078 T02330133=
KOKB 231652Z AUTO 12007KT 8SM BKN049 18/12 A2986 RMK AO2 SLP112
     T01830117=
KOKC 231652Z 18023G30KT 10SM FEW010 FEW090 BKN130 BKN250 23/17
     A2971 RMK AO2 PK WND 17031/1556 SLP046 T02330167=
KORB 231653Z AUTO 15010G14KT 10SM CLR 21/10 A2965 RMK AO2=
KORE 231652Z AUTO 00000KT 10SM CLR 14/07 A3035 RMK AO2 SLP280
     T01390072=
KPPF 231652Z AUTO 19018G34KT 10SM CLR 26/14 A2970 RMK AO2 PK WND
     19034/1627 SLP045 T02610144 PWINO $=
KPWK 231652Z 17012G23KT 10SM CLR 23/13 A2992 RMK AO2 PK WND
     17027/1637 SLP127 T02280128=
KPYM 231652Z AUTO 06007KT 10SM BKN120 16/12 A3033 RMK AO2 SLP272
     T01560122=
KRAP 231652Z 35027G36KT 10SM CLR 11/03 A2925 RMK AO2 PK WND
     35036/1652 SLP901 T01060028 $=
