SAUS80 KWBC 231800 CCB
METAR
K8D3 231756Z AUTO 13018G27KT 22/11 A2934 RMK AO1 PK WND 14029/1736
     SLP931 T02220111 10222 20022 58036=
KP58 231755Z AUTO 12012KT 16/12 A3010 RMK AO1 SLP191 T01560122
     10189 20133 58012=
KP28 231756Z AUTO 18022G34KT 29/13 A2947 RMK AO1 PK WND 19037/1738
     SLP963 T02890128 10294 20200 58021 $=
KMEH 231756Z AUTO 00000KT 10SM BKN013 BKN022 02/00 A3002 RMK AO2
     SLP184 60001 T00220000 10022 20006 51022=
