SAUS80 KWBC 231822
METAR
K77S 231835Z AUTO VRB05KT 10SM CLR 12/08 A3019 RMK A01=
K9V9 231815Z AUTO 15015KT 10SM CLR 22/10 A2917 RMK AO2
     T02190096=
KAYS 231815Z AUTO 00000KT 10SM CLR 26/12 A3014 RMK AO2
     T02560115=
KCBE 231815Z AUTO 32003KT 10SM CLR 18/06 A3030 RMK AO2
     T01750065=
KGIC 231815Z AUTO 24003KT 10SM BKN021 OVC029 03/00 A3000 RMK
     AO1=
K40U 231815Z AUTO 30011G20KT 10SM SCT050 SCT065 01/M04 A2968 RMK
     AO2 T00121041=
K9V9 231815Z AUTO 15015KT 10SM CLR 22/10 A2917 RMK AO2
     T02190096=
KCBE 231815Z AUTO 32003KT 10SM CLR 18/06 A3030 RMK AO2
     T01750065=
KCKP 231815Z AUTO 17018G26KT 10SM CLR 26/12 A2939 RMK AO2
     T02610120=
K77S 231835Z AUTO VRB05KT 10SM CLR 12/08 A3019 RMK A01=
KIZA 231815Z AUTO 26004KT 10SM CLR 18/05 A2990 RMK AO2=
KPSN 231815Z AUTO 16016G21KT 120V180 10SM SCT049 BKN060 29/16
     A2990 RMK AO2=
KSOA 231815Z AUTO 17015G21KT 10SM 26/16 A2987 RMK AO2=
KSFY 231823Z AUTO 16015G21KT 10SM CLR 24/13 A2976 RMK AO2=
