SACA45 KWBC 231800
METAR
MGFL NIL=
MGGT 231800Z 04008KT 9999 FEW020 24/17 Q1021 A3015=
MGHT NIL=
MHAM NIL=
MHCA 231800Z 09003KT 9999 2000N BKN030TCU 30/24=
MHCH 231800Z 04010KT 9999 SCT034 33/26=
MHLE 231800Z 05004KT 9999 BKN022 19/15=
MHNJ NIL=
MHNO 231800Z 35004KT 9999 FEW040 27/18=
MHPL 231800Z NIL=
MHRO 231800Z 23004KT 9999 FEW020TCU 28/24 Q1014 A2995 NOSIG=
MHSR 231800Z 00000KT 9999 BKN020 23/20=
MHTE 231800Z 36006KT 9999 SCT024TCU FEW028CB SCT070 29/26
     Q1012=
MHYR 231800Z 09008KT 9999 SCT024TCU SCT080 27/21=
MNMG NIL=
MNPC NIL=
MPSA NIL=
MRCH NIL=
MSAC NIL=
