SAUS70 KWBC 231738 RRE
METAR
KN38 231735Z AUTO 17005G10KT 10SM CLR 16/03 A3028 RMK AO2=
KO22 231735Z AUTO 29005KT 10SM CLR 14/M03 A2994 RMK A01=
KO32 231735Z AUTO 32004KT 10SM CLR 14/03 A2993 RMK AO2 T01420034
     $=
KOEB 231735Z AUTO 18009G17KT 10SM CLR 23/11 A3007 RMK AO2
     T02250109=
KOEO 231735Z AUTO 13015G21KT 10SM CLR 23/15 A2964 RMK AO2
     T02260150=
KOKV 231735Z AUTO 08003KT 10SM BKN028 OVC036 16/06 A3024 RMK
     AO2=
KOMH 231735Z AUTO 03006KT 10SM OVC025 17/08 A3024 RMK AO2=
KONM 231735Z AUTO 21014G24KT 10SM CLR 21/M01 A2974 RMK AO2
     T02111006=
KS24 231735Z AUTO 15009G15KT 120V180 10SM CLR 24/10 A3013 RMK
     AO2=
PAAD 231735Z AUTO 11010KT 10SM BKN007 OVC039 M09/M10 A3003 RMK AO2
     T10921102=
PAUT 231735Z AUTO 19006KT 10SM BKN013 OVC085 06/04 A3023 RMK
     AO2=
KCXU 231735Z AUTO 00000KT 10SM CLR 23/05 A3017 RMK AO1
     T02330047=
KCXW 231735Z AUTO 20014G23KT 9SM OVC040 25/16 A2994 RMK A01=
KCZL 231735Z AUTO 21005KT 10SM CLR 22/05 A3022 RMK AO2=
KD39 231735Z AUTO 12013G22KT 10SM CLR 21/12 A2950 RMK AO2
     T02090119=
KDCM 231735Z AUTO 03004KT 10SM CLR 21/06 A3020 RMK AO2=
KDEH 231735Z AUTO 15011G24KT 10SM CLR 22/13 A2966 RMK AO2=
KDKX 231735Z AUTO 00000KT 10SM CLR 22/05 A3021 RMK A01=
KDSF 231735Z AUTO 08006KT 10SM CLR 25/13 A3012 RMK A01=
KDTA 231735Z AUTO 34020G26KT 10SM OVC090 03/M02 A2981 RMK AO1=
KDUA 231735Z AUTO 18020G28KT 10SM SCT032 27/15 A2986 RMK AO2=
KDZB 231735Z AUTO 18015G26KT 10SM SCT040 28/15 A2988 RMK AO2
     T02780148=
KECS 231735Z AUTO 33026G33KT 10SM SCT015 SCT100 06/01 A2937 RMK
     AO2=
KEDN 231735Z AUTO 00000KT 10SM CLR 23/05 A3017 RMK AO2
     T02290051=
KEGV 231735Z AUTO 16010G16KT 130V200 10SM SCT034 20/10 A2982 RMK
     AO2 T02030103=
KEIK 231735Z AUTO 33010KT 10SM SCT110 19/M05 A2932 RMK AO2
     T01911054 PWINO=
KEKS 231735Z AUTO 32005KT 2 1/2SM -SN FEW003 FEW026 SCT044 M01/M02
     A2980 RMK AO2=
KERV 231735Z AUTO 16015G23KT 10SM BKN033 25/16 A2990 RMK AO2
     T02470163=
KERY 231735Z AUTO 16015G19KT 10SM CLR 20/11 A3000 RMK AO2
     T01970113=
KF05 231735Z AUTO 20023G30KT 10SM CLR 32/12 A2967 RMK AO2
     T03190121=
KF17 231735Z AUTO 16013G22KT 10SM BKN050 28/13 A2998 RMK AO2=
KF44 231735Z AUTO 18013G24KT 10SM SCT041 BKN048 28/16 A2990 RMK
     AO2=
KF46 231735Z AUTO 20022G29KT 10SM BKN037 27/16 A2987 RMK AO2
     T02690164=
KFGX 231735Z AUTO 19008KT 170V230 10SM CLR 23/08 A3018 RMK AO2
     T02340082=
KFKN 231735Z AUTO 33006KT 10SM OVC007 15/13 A3015 RMK AO2
     T01450126=
KFLY 231735Z AUTO 24028G38KT CLR 15/M02 A2946 RMK AO2 T01481021
     PWINO=
KFOT 231730Z AUTO 33010KT 9SM CLR 12/08 A3016 RMK AO1=
KFTN 231735Z AUTO 12012KT 10SM CLR 27/19 A2984 RMK A01=
KFYE 231735Z AUTO 18008G19KT 10SM BKN041 25/14 A3005 RMK A01=
KFYM 231740Z AUTO 17011KT 140V200 10SM CLR 22/05 A3019 RMK A01=
KGAO 231735Z AUTO 11009G16KT 10SM CLR 27/15 A3012 RMK AO2
     T02650148=
KGCY 231735Z AUTO 06004KT 10SM CLR 19/03 A3021 RMK A01=
KGDJ 231735Z AUTO 18021G28KT 10SM CLR 28/16 A2983 RMK AO2
     T02760157=
KGGI 231735Z AUTO 15019G26KT 10SM CLR 25/15 A2963 RMK AO2
     T02500145=
KGHB 231740Z AUTO VRB03G12KT 9SM FEW043 BKN050 OVC060 26/17 A3005
     RMK A01=
KGKT 231735Z AUTO VRB04KT 10SM CLR 22/05 A3020 RMK A01=
KGLX 231735Z AUTO VRB05KT 10SM FEW044 25/13 A3012 RMK A01=
KGOO 231735Z AUTO 05007G15KT 360V090 10SM CLR 11/M08 A2996 RMK
     A01=
KGRY 231735Z AUTO 10010KT 10SM FEW041 24/15 A3009 RMK A01=
KGYB 231735Z AUTO 18013G21KT 10SM SCT034 SCT041 BKN050 28/18 A2991
     RMK AO2 T02780180=
KGZN 231720Z AUTO 18020G28KT 10SM CLR 26/15 A2978 RMK AO2=
