SASA31 KWBC 232000
METAR
SEGU 232000Z 16003KT 9999 BKN026 OVC100 27/19 Q1009 NOSIG RMK
     A2980=
SEQM NIL=
SEQU NIL=
SKBO 232000Z 30013KT 8000 VCSH SCT015TCU SCT017 16/13 Q1023 NOSIG
     RMK TCU VCSH/E/N A3023=
SKBQ 232000Z VRB02KT 9999 FEW015 SCT100 30/24 Q1008 NOSIG RMK
     A2978=
SKCG 232000Z 27005KT 220V300 9999 FEW017 SCT200 30/24 Q1007 RMK
     A2976=
SKCL 232000Z 31012KT 9999 SCT020TCU 30/20 Q1011 NOSIG RMK TCU/E
     A2987=
SKLT 232000Z 25003KT 9999 FEW013 BKN200 28/24 Q1009 RMK A2980=
SKRG NIL=
SKSP 232000Z 07009KT 030V100 9999 FEW018 BKN200 32/25 Q1009 RMK
     A2982=
SMNI NIL=
SMZO NIL=
SMZY NIL=
SOCA 232000Z AUTO 08009KT 050V130 CAVOK 30/24 Q1009 TEMPO 3000
     SHRA BKN015CB=
SPJC 232000Z 18012KT 9999 SCT014 18/13 Q1013 NOSIG RMK PP000=
SPQT 232000Z VRB03KT 9999 BKN017 BKN100 29/25 Q1009 NOSIG
     PP000=
SPQU 232000Z 25013KT 220V280 CAVOK 19/M04 Q1026 NOSIG RMK
     PP000=
SPSO 232000Z 22017KT CAVOK 21/14 Q1012 RMK BIRD HAZARD RWY 22/04
     PP000=
SPTN 232000Z 23009KT 200V260 CAVOK 20/10 Q1015 RMK PP000=
SPYL 232000Z 18016KT CAVOK 22/15 Q1010 RMK BIRD HAZARD RWY 17/35
     PP000=
SPZO NIL=
SVBC NIL=
SVMC NIL=
SVMG NIL=
SVMI NIL=
SYCJ NIL=
SYTM NIL=
