SAUS70 KWBC 232100 RRK
METAR
K3N8 232055Z AUTO 12018G24KT 10SM CLR 23/12 A2939 RMK AO2
     T02330118=
K6B0 232055Z AUTO 00000KT 10SM CLR 17/09 A3029 RMK AO2
     T01650085=
K7N0 232056Z AUTO VRB06KT 10SM CLR 27/14 A3006 RMK AO2 SLP179
     6//// T02670139 56016 PNO $=
KACB 232055Z AUTO 16016G21KT 10SM BKN060 24/11 A2996 RMK AO2
     T02390109=
KADF 232056Z AUTO 17013G19KT 10SM FEW060 29/14 A2988 RMK AO2
     SLP115 T02940144 56025=
KAEL 232055Z AUTO 17023G33KT 10SM CLR 24/13 A2950 RMK AO2 LTG DSNT
     SE=
KAFJ 232056Z AUTO 12005KT 10SM CLR 22/05 A3020 RMK AO2 SLP226
     T02170050 56013=
KAIZ 232056Z AUTO 17014G21KT 10SM CLR 29/14 RMK AO2 SLPNO
     T02940144 $=
KAJO 232056Z AUTO VRB05KT 10SM CLR 22/09 A2984 RMK AO2 SLP098
     T02220094 58014=
KARG 232056Z AUTO 18019G24KT 10SM BKN048 27/15 A2991 RMK AO2 PK
     WND 20028/2027 SLP128 T02670150 55015=
KASH 232056Z 00000KT 10SM BKN110 13/12 A3035 RMK AO2 SLP281
     T01330117 55001 $=
KAUM 232056Z AUTO 16017G25KT 10SM CLR 24/13 A2954 RMK AO2 LTG DSNT
     SE=
KAUO 232056Z AUTO 09006KT 10SM CLR 23/06 A3014 RMK AO2 SLP224
     T02330056 56019=
KAWO 232056Z AUTO 19005KT 10SM FEW025 12/06 A3017 RMK AO2 SLP221
     T01170061 51009=
KAXV 232055Z AUTO 16010G17KT 10SM CLR 23/08 A3006 RMK AO2=
KBHB 232056Z AUTO 00000KT 10SM CLR 15/12 A3037 RMK AO2 SLP284
     6//// T01500122 50000 PNO $=
KBID 232056Z AUTO 04015G25KT 10SM FEW038 OVC110 13/09 A3023 RMK
     AO2 RAE54 PRESFR SLP238 P0003 60007 T01280094 58011=
KBKX 232056Z AUTO 14026G32KT 10SM CLR A2926 RMK AO2 PK WND
     14035/2000 SLPNO 6//// 56023 FZRANO $=
KBLM 232056Z AUTO 03007KT 6SM -RA BKN007 BKN013 OVC033 13/ A3022
     RMK AO2 SLP235 P0002 60004 T0133 55002=
KBMI 232056Z 17026G35KT 10SM CLR 24/15 A2983 RMK AO2 PK WND
     16035/2053 SLP093 T02390150 58017=
KBOK 232056Z AUTO 30009G14KT 10SM CLR 14/06 A3018 RMK AO2 SLP224
     T01390061 50001 $=
KBTP 232056Z AUTO 11005KT 10SM CLR 21/03 A3019 RMK AO2 SLP231
     T02060028 56011 TSNO=
KBVI 232055Z AUTO 13006KT 10SM CLR 23/01 A3018 RMK AO2
     T02330005=
KBVX 232056Z AUTO 20012G18KT 10SM FEW042 26/15 A2990 RMK AO2
     SLP121 T02560150 56019=
KCAD 232055Z AUTO 15011G17KT 10SM OVC050 22/10 A2997 RMK AO2
     T02190104=
KCDA 232055Z AUTO 13004KT 10SM 16/04 A3034 RMK AO2 T01620040=
KCDI 232055Z AUTO 16003KT 10SM CLR 24/08 A3014 RMK AO2
     T02380079=
KCGZ 232056Z AUTO 29015G18KT 10SM SCT080 23/08 A2976 RMK AO2
     SLP066 6//// T02280083 58014 $=
KCIU 232056Z AUTO 13014KT 10SM CLR 21/12 A3000 RMK AO2 SLP159
     T02060117 58010=
KCMA 232055Z 23010KT 10SM CLR 21/09 A2985 RMK AO2 SLP116 T02110094
     58006=
KCNB 232055Z AUTO 09024G32KT 10SM CLR 26/11 A2930 RMK AO2 LTG DSNT
     SE T02570111=
KCOD 232056Z AUTO 02013KT 10SM SCT030 04/M04 A2963 RMK AO2 SLP038
     60000 T00391039 53002=
KCOE 232056Z AUTO 23007KT 10SM BKN038 BKN046 09/01 A3004 RMK AO2
     SLP200 6//// T00940011 53012 PNO $=
KCQM 232056Z AUTO 12008G15KT 10SM SCT070 23/11 A2960 RMK AO2 LTG
     DSNT S=
KCVN 232056Z AUTO 21026G33KT 10SM CLR 23/09 A2962 RMK AO2 PK WND
     21038/2027 SLP993 T02280094 56025=
KCVO 232056Z AUTO 30007KT 10SM FEW039 15/03 A3020 RMK AO2 SLP227
     T01500028 51003=
KCVX 232055Z AUTO 17011G17KT 10SM SCT060 23/12 A2996 RMK AO2
     T02300116=
KCWI 232056Z AUTO 16020G23KT 10SM CLR 24/14 A2971 RMK AO2 PK WND
     15026/2022 SLP061 T02390144 56017=
KD95 232055Z AUTO 14008G15KT 10SM CLR 24/05 A3007 RMK AO2
     T02370051=
KDIJ 232056Z AUTO 30015KT 3SM -SN BR FEW011 BKN028 OVC033 M01/M02
     A2978 RMK AO2 RAB40E42SNB42 SLP107 P0001 60001 T10061022
     53010=
