SAUS70 KWBC 231924 RRB
METAR
KEAN 231910Z AUTO 35018G24KT 10SM CLR 08/02 A2941 RMK AO2
     T00800015=
KEBS 231915Z AUTO 15026G31KT 10SM CLR 26/14 A2947 RMK AO2=
KETN 231910Z AUTO 16021G30KT 10SM CLR 28/15 A2974 RMK AO2
     T02780149=
KEVM 231921Z AUTO 12010G17KT 10SM CLR 21/11 A2965 RMK AO2=
KGLE 231915Z AUTO 18021G28KT 10SM CLR 28/15 A2976 RMK AO2
     T02830147=
KGNB 231915Z AUTO 26007KT 10SM SCT024 BKN030 OVC055 05/M01 A2956
     RMK AO2 T00471010=
KGNC 231915Z AUTO 22018G25KT 10SM CLR 29/10 A2974 RMK AO2
     T02890100=
KHBV 231910Z AUTO 16013G20KT 10SM CLR 31/17 A2980 RMK AO2
     T03050171=
KHEQ 231915Z AUTO 33018G24KT 10SM CLR 26/M02 A2924 RMK AO2=
KHSG 231910Z AUTO 01009KT 10SM -SN BKN010 OVC017 02/00 A2962 RMK
     AO2 T00150002=
KMHP 231915Z AUTO 08005KT 10SM CLR 25/11 A3013 RMK AO2
     T02500107=
KMMH 231914Z AUTO 35012G19KT 10SM CLR 06/M11 A2997 RMK AO2=
KMPZ 231910Z AUTO 18020G25KT 10SM CLR 24/17 A2968 RMK AO2=
KMYZ 231910Z AUTO 18023G31KT 10SM SCT043 SCT070 BKN120 27/13 A2943
     RMK AO2 LTG DSNT E AND SE=
KOSA 231910Z AUTO 16012KT 10SM BKN050 29/16 A2987 RMK AO2
     T02930160=
KOZA 231915Z AUTO 18013G18KT 10SM CLR 26/14 A2981 RMK AO2=
KPEQ 231915Z AUTO 22020G26KT 10SM CLR 32/07 A2969 RMK AO2
     T03190074=
KPVW 231910Z AUTO 21025G33KT 10SM CLR 28/09 A2965 RMK AO2
     T02840090=
KRBW 231915Z AUTO 01008KT 10SM CLR 23/10 A3014 RMK AO2=
KBYL 231915Z AUTO 12005KT 10SM CLR 23/02 A3015 RMK AO1=
KDLL 231935Z AUTO 14012G21KT 10SM CLR 22/12 A2975 RMK AO2
     T02200116=
KGAF 231935Z AUTO 06011KT 8SM CLR 18/08 A2946 RMK AO2=
KUKF 231915Z AUTO 00000KT 10SM CLR 21/03 A3022 RMK AO2=
KUYF 231915Z AUTO 19012G17KT 130V200 10SM CLR 24/05 A3012 RMK
     AO2=
KW63 231935Z AUTO 31003KT 10SM SCT029 20/09 A3016 RMK AO1=
K11R 231915Z AUTO 16014G22KT 10SM SCT049 BKN060 BKN065 30/17 A2987
     RMK AO2 T02950172=
K20V 231915Z AUTO 22012G21KT 10SM UP SCT023 BKN032 OVC043 04/M01
     A2955 RMK AO2=
KANK 231910Z AUTO 27016G21KT 10SM SCT024 SCT040 OVC055 07/M01
     A2961 RMK AO1 T00691012=
KBMC 231910Z AUTO 10SM BKN070 OVC085 06/M02 A2982 RMK AO1
     T00561020=
KDKB 231910Z AUTO 16017G25KT 10SM SCT120 23/15 A2983 RMK AO2
     T02300150=
KDUB 231914Z AUTO 28025G31KT 10SM SCT040 SCT050 01/M09 A2957 RMK
     AO2=
KEAN 231910Z AUTO 35018G24KT 10SM CLR 08/02 A2941 RMK AO2
     T00800015=
KETN 231910Z AUTO 16021G30KT 10SM CLR 28/15 A2974 RMK AO2
     T02780149=
KGNB 231915Z AUTO 26007KT 10SM SCT024 BKN030 OVC055 05/M01 A2956
     RMK AO2 T00471010=
KGNC 231915Z AUTO 22018G25KT 10SM CLR 29/10 A2974 RMK AO2
     T02890100=
KHBV 231910Z AUTO 16013G20KT 10SM CLR 31/17 A2980 RMK AO2
     T03050171=
KHEQ 231915Z AUTO 33018G24KT 10SM CLR 26/M02 A2924 RMK AO2=
KHVE 231915Z AUTO 30015G22KT 10SM BKN070 BKN095 BKN110 10/M01
     A2969 RMK AO2=
KMMH 231914Z AUTO 35012G19KT 10SM CLR 06/M11 A2997 RMK AO2=
KOSA 231910Z AUTO 16012KT 10SM BKN050 29/16 A2987 RMK AO2
     T02930160=
KPVW 231910Z AUTO 21025G33KT 10SM CLR 28/09 A2965 RMK AO2
     T02840090=
KRCV 231915Z AUTO 24017G20KT 10SM -RA SCT045 BKN049 OVC070 06/M01
     A2962 RMK AO2 T00621011=
KSLR 231910Z AUTO 18016G24KT 10SM BKN048 29/15 A2986 RMK AO2
     T02860146=
KTXW 231910Z AUTO 16022G30KT 3/4SM HZ VV005 31/17 A2980 RMK AO2
     VIS 1/4V2 1/2 T03120173=
