SAUS80 KWBC 231900 CCA
METAR
KNYC 231851Z AUTO 05006KT 10SM SCT065 OVC110 16/08 A3028 RMK AO2
     RAE03 SLP245 P0000 T01610078 $=
KNYC 231851Z AUTO 05006KT 10SM SCT065 OVC110 16/08 A3028 RMK AO2
     RAE03 SLP245 P0000 T01610078 $=
KNYC 231851Z AUTO 05006KT 10SM SCT065 OVC110 16/08 A3028 RMK AO2
     RAE03 SLP245 P0000 T01610078 $=
