SAUS70 KWBC 232040 RRA
METAR
KEBG 232035Z AUTO 15019G24KT 10SM CLR 32/18 A2977 RMK AO2
     T03190184 PWINO=
KEGV 232035Z AUTO 16011G18KT 10SM BKN040 21/11 A2977 RMK AO2
     T02070105=
KELA 232035Z AUTO 17013G21KT 10SM SCT050 OVC070 29/17 A2986 RMK
     AO2 T02890171=
KEMM 232035Z AUTO 29021G27KT 10SM SCT019 SCT044 00/M05 A2972 RMK
     AO2=
KEQA 232035Z AUTO 19028G38KT 10SM CLR 29/13 A2953 RMK AO2=
KETC 232035Z AUTO 34005KT 10SM OVC017 18/14 A3012 RMK AO2
     T01770140=
KEZZ 232035Z AUTO 18023G30KT 10SM SCT120 27/14 A2958 RMK AO2 LTG
     DSNT S THRU NW T02740140=
KF00 232035Z AUTO 18018G30KT 10SM CLR 29/15 A2977 RMK AO2
     T02850150=
KFET 232035Z AUTO 17017G30KT 5SM HZ SCT042 30/13 A2931 RMK AO2
     T03020132=
KFHB 232035Z AUTO 06011KT 10SM CLR 23/17 A3013 RMK AO2=
KFOA 232035Z AUTO 18020G28KT 10SM SCT050 26/14 A2993 RMK AO2=
KFSW 232035Z AUTO 15014G21KT 10SM OVC001 26/15 A2967 RMK AO2=
KFWC 232035Z AUTO 18021G26KT SCT050 26/11 A2993 RMK AO1 T02610111
     PWINO=
KGPC 232035Z AUTO 18020KT 10SM CLR 25/11 A2998 RMK AO2
     T02530107=
KGWB 232035Z AUTO 17006KT 10SM CLR 23/10 A3003 RMK AO2=
KHJH 232035Z AUTO 17022G35KT 7SM SCT055 29/11 A2932 RMK AO2
     T02870109=
KHLX 232035Z AUTO 02003KT 10SM CLR 20/M12 A3019 RMK AO2
     T01951119=
KHMP 232035Z AUTO 14003KT 10SM CLR 23/04 A3018 RMK AO2
     T02300039=
KHQU 232035Z AUTO 07004KT 10SM CLR 24/09 A3014 RMK AO2
     T02410090=
KIDP 232035Z AUTO 17028G32KT 10SM CLR 28/16 A2960 RMK AO2
     T02780156=
KIIY 232035Z AUTO 13003KT 10SM CLR 24/06 A3015 RMK AO2
     T02420062=
KIYA 232035Z AUTO 13014G21KT 10SM BKN070 27/13 A3001 RMK AO2
     T02650133=
KJCA 232035Z AUTO 35006KT 10SM CLR 23/03 A3015 RMK AO2
     T02330032=
KJDD 232035Z AUTO 19010G16KT 10SM SCT050 29/16 A2983 RMK AO2=
KK88 232035Z AUTO 17021G30KT 10SM CLR 28/13 A2960 RMK AO1
     T02770127=
KLHB 232035Z AUTO 15016G21KT 10SM SCT055 BKN065 32/16 A2983 RMK
     AO2 T03150162=
KLHM 232035Z AUTO 32017G23KT 10SM CLR 21/M03 A2993 RMK AO1=
KLNN 232035Z AUTO 14005KT 10SM CLR 21/03 A3013 RMK AO1
     T02130025=
KLUA 232035Z AUTO 04003KT 10SM OVC029 17/08 A3022 RMK AO2=
KLUD 232035Z AUTO 17019G28KT 10SM CLR 29/15 A2972 RMK AO2
     T02850147=
KLUL 232035Z AUTO 18008KT 10SM CLR 27/09 A3006 RMK A02
     T02700089=
KMDD 232035Z AUTO 17016G25KT 10SM CLR 29/12 A2969 RMK AO2
     T02880123=
KMGR 232035Z AUTO 00000KT 10SM CLR 25/08 A3012 RMK AO2=
KMKS 232035Z AUTO 00000KT 10SM CLR 22/09 A3013 RMK AO2=
KMPR 232035Z AUTO 18034G43KT 2 1/2SM HZ CLR 28/12 A2943 RMK AO2
     T02850123=
KMWK 232035Z AUTO 09004KT 10SM CLR 21/06 A3019 RMK AO2
     T02120055=
KMWO 232035Z AUTO 14009KT 10SM CLR 25/08 A3008 RMK AO2
     T02490076=
KMZZ 232035Z AUTO 18018G23KT 10SM CLR 25/10 A3003 RMK AO2
     T02450103=
KOEL 232035Z AUTO 24032G40KT 7SM CLR 30/M07 A2928 RMK AO1
     T03011073=
KOKM 232035Z AUTO 18021G34KT 10SM CLR 30/15 A2968 RMK AO2
     T02960146=
KOLY 232035Z AUTO 17020G24KT 10SM CLR 26/10 A2994 RMK AO2
     T02640099=
KONX 232035Z AUTO 33007G14KT 5SM BR OVC008 16/16 A3007 RMK AO2
     T01600160=
KPCD 232035Z AUTO 18023G30KT 10SM SCT046 27/16 A2987 RMK AO2
     T02650164=
KPMV 232035Z AUTO 17024G33KT 10SM CLR 29/13 A2936 RMK AO2
     T02940133=
KPPO 232035Z AUTO 17013G24KT 10SM SCT055 25/15 A2993 RMK AO2
     T02500146=
KPRG 232035Z AUTO 17020G28KT 10SM CLR 24/12 A2994 RMK AO2
     T02420121=
KPSO 232035Z AUTO 26014G25KT 10SM BKN050 BKN065 OVC100 04/M06
     A2975 RMK AO2 T00431065=
KRAS 232035Z AUTO 14016KT 10SM CLR A2985 RMK AO2=
KRPJ 232035Z AUTO 17026G32KT 10SM SCT044 24/16 A2977 RMK AO2
     T02440156 TSNO=
