SAUS70 KWBC 231818 RRI
METAR
K3N8 231815Z AUTO 12011G17KT 10SM CLR 21/11 A2946 RMK AO2
     T02130110=
K46D 231815Z AUTO 08017G24KT 10SM CLR 16/07 A2938 RMK AO2=
K6B9 231815Z AUTO 10007KT 10SM CLR 20/03 A3026 RMK AO2=
K7L2 231815Z AUTO 09013G19KT 10SM CLR 17/09 A2927 RMK AO2=
KAIG 231815Z AUTO 13020G25KT 10SM CLR 20/12 A2983 RMK AO2
     T02010121=
KBVI 231815Z AUTO 14003KT 10SM CLR 24/02 A3021 RMK AO2
     T02390016=
KBWW 231815Z AUTO 34008KT 10SM OVC014 07/05 A2936 RMK AO2=
KCDA 231815Z AUTO 09003KT 10SM 18/06 A3035 RMK AO2 T01800059=
KCDI 231815Z AUTO 17003KT 10SM CLR 23/09 A3018 RMK AO2
     T02260090=
KCFE 231815Z AUTO 13016G26KT 10SM CLR 23/12 A2951 RMK AO2=
KCFJ 231815Z AUTO 18017G24KT 10SM CLR 24/07 A2999 RMK AO2
     T02360068=
KD60 231815Z AUTO 05016KT 10SM OVC008 05/05 A2949 RMK AO2=
KD95 231815Z AUTO 16009KT 10SM CLR 23/06 A3011 RMK AO2
     T02340061=
KDLZ 231815Z AUTO 17007KT 10SM CLR 22/09 A3015 RMK AO2=
KEDJ 231815Z AUTO 17010G16KT 10SM SCT050 23/10 A3014 RMK A01=
KEKM 231815Z AUTO 16015G20KT 9SM CLR 24/14 A3000 RMK AO2
     T02440135=
KELO 231815Z AUTO 13008KT 10SM CLR 21/09 A2970 RMK AO2=
KFKS 231815Z AUTO 18010KT 10SM CLR 23/12 A2994 RMK AO2
     T02290116=
KFSO 231815Z AUTO 21003KT 10SM CLR 20/04 A3030 RMK AO2
     T01990043=
KGWR 231815Z AUTO 10019G25KT 9SM CLR 20/12 A2933 RMK A01=
KHCO 231815Z AUTO 06015G19KT 10SM CLR 17/09 A2950 RMK AO2=
KLDM 231815Z AUTO 17010KT 10SM CLR 24/11 A2993 RMK AO2
     T02400113=
KS24 231815Z AUTO 17008G18KT 10SM FEW060 25/09 A3012 RMK AO2=
K0E0 231815Z AUTO 22023G29KT 10SM SCT075 SCT090 19/M01 A2974 RMK
     AO2 T01881009 TSNO=
K0S9 231815Z AUTO VRB05KT 10SM CLR 11/07 A3012 RMK AO2=
K3N8 231815Z AUTO 12011G17KT 10SM CLR 21/11 A2946 RMK AO2
     T02130110=
K4S2 231815Z AUTO 29003KT 10SM CLR 11/04 A3012 RMK AO2=
K6S2 231815Z AUTO 19004KT 10SM FEW012 11/11 A3020 RMK AO2=
KAQP 231813Z AUTO 17017G30KT 10SM SCT095 23/11 A2937 RMK AO2=
KBEA 231815Z AUTO 17020G27KT 10SM BKN047 BKN050 31/16 A2985 RMK
     AO2 T03080161=
KBVU 231815Z AUTO 31014G23KT 10SM CLR 17/M14 A2985 RMK AO2=
KBXK 231815Z AUTO 27012G17KT 10SM FEW050 SCT065 SCT075 23/08 A2979
     RMK A01=
KCLS 231815Z AUTO 23003KT 10SM FEW006 08/07 A3016 RMK AO2=
KCMR 231815Z AUTO 28014G22KT 10SM FEW055 06/M01 A2986 RMK AO2=
KCPT 231815Z AUTO 18021G29KT 10SM FEW041 28/16 A2983 RMK A01=
KCVH 231815Z AUTO 00000KT 10SM CLR 15/05 A3001 RMK A01=
KDNA 231815Z AUTO 26023G32KT 10SM CLR 24/08 A2981 RMK AO2=
KF70 231815Z AUTO 21006KT 10SM SCT030 17/08 A2989 RMK AO2=
KHAF 231815Z AUTO 8SM CLR 15/08 A3002 RMK AO2=
KJAQ 231815Z AUTO 34004KT 10SM CLR 14/M03 A2996 RMK AO1
     T01411029=
KJSO 231815Z AUTO 20017G24KT 10SM SCT039 SCT046 BKN050 27/16 A2996
     RMK AO2 T02740156 TSNO=
KL18 231815Z AUTO 15005KT 10SM BKN035 18/09 A2988 RMK AO2
     P0001=
KL35 231815Z AUTO 00000KT 10SM CLR 07/M08 A2993 RMK AO2=
KONM 231815Z AUTO 19019G25KT 10SM CLR 22/M01 A2972 RMK AO2
     T02161008=
KSNK 231815Z AUTO 19018G25KT 10SM CLR 28/12 A2975 RMK AO2
     T02750117=
KSRR 231815Z AUTO 25035G60KT 10SM 16/02 A2978 RMK AO2=
KTVY 231815Z AUTO 31014G18KT 10SM SCT036 SCT044 OVC050 02/00 A2982
     RMK AO2=
