SAUS70 KWBC 232000 RRH
METAR
KEWB 231953Z 02006KT 9SM -RA SCT041 BKN055 OVC100 14/14 A3029 RMK
     AO2 RAB06E23B47 SLP255 P0001 T01440144=
KEYE 231953Z AUTO 19012G23KT 10SM CLR 26/09 A2999 RMK AO2 SLP152
     T02560094 $=
KFAY 231953Z 36014G20KT 10SM CLR 23/04 A3013 RMK AO2 SLP197
     T02280039 $=
KFCM 231953Z 13025G33KT 10SM CLR 26/13 A2948 RMK AO2 PK WND
     14033/1947 SLP978 T02560128 $=
KFFT 231953Z AUTO 18011G16KT 10SM CLR 25/06 A3008 RMK AO2 SLP181
     T02500061=
KFLD 231953Z AUTO 13013G22KT 10SM CLR 23/12 A2979 RMK AO2 SLP086
     T02280117=
KFLO 231953Z VRB03KT 10SM CLR 23/06 A3013 RMK AO2 SLP201 T02330061
     $=
KFOE 231953Z 18026G36KT 10SM FEW039 FEW075 SCT110 26/18 A2950 RMK
     AO2 LTG DSNT N AND NE RAB22E49 TSB17E46 SLP979 P0004
     T02560178 $=
KFRG 231953Z 04009KT 10SM OVC039 15/09 A3025 RMK AO2 SLP241
     T01500094 $=
KFSM 231953Z 19015G25KT 10SM CLR 28/15 A2979 RMK AO2 SLP083
     T02780150=
KFST 231953Z AUTO 21010G19KT 10SM CLR 31/07 A2972 RMK AO2 SLP017
     T03060072 $=
KFTW 231953Z 16027G42KT 10SM CLR 29/16 A2974 RMK AO2 PK WND
     18042/1948 SLP061 T02940156 $=
KFVE 231953Z AUTO 18004KT 10SM CLR 21/07 A3030 RMK AO2 SLP261
     T02060067=
KFYV 231953Z 18019G30KT 10SM CLR 28/15 A2979 RMK AO2 PK WND
     19034/1916 SLP073 T02780150=
KGAG 231953Z AUTO 18025G32KT 10SM CLR 27/11 A2953 RMK AO2 PK WND
     19036/1902 SLP969 T02670111=
KGEZ 231953Z AUTO 16015G25KT 10SM CLR 27/11 A3002 RMK AO2 SLP161
     T02670106=
KHLG 231953Z 09006KT 10SM CLR 23/03 A3017 RMK AO2 SLP215
     T02280033=
KHOT 231953Z AUTO 19011G20KT 10SM SCT048 27/15 A2989 RMK AO2
     SLP115 T02720150=
KHOU 231953Z 16019G29KT 10SM FEW055 BKN250 30/15 A2989 RMK AO2 PK
     WND 15029/1943 SLP126 T03000150=
KHRO 231953Z AUTO 17017G23KT 10SM CLR 24/14 A2984 RMK AO2 PK WND
     18027/1937 SLP092 T02440144=
KHSI 231953Z AUTO 19020G36KT 9SM CLR 31/09 A2926 RMK AO2 PK WND
     19038/1933 SLP891 T03060089 $=
KHUF 231953Z 19017G27KT 9SM SCT055 26/12 A2996 RMK AO2 PK WND
     18032/1855 SLP141 T02610122=
KHUL 231953Z AUTO VRB03KT 10SM CLR 20/09 A3033 RMK AO2 SLP272
     T02000094=
KHXD 231950Z 04005G11KT 10SM CLR 24/12 A3013=
KHYR 231953Z AUTO 13017G28KT 10SM CLR 23/13 A2963 RMK AO2 PK WND
     12028/1948 SLP032 T02330128=
KIAH 231953Z 16019G25KT 10SM SCT060 BKN250 29/16 A2989 RMK AO2 PK
     WND 15033/1915 SLP122 T02940161=
KICR 231953Z AUTO 22007KT CLR 27/02 A2913 RMK AO2 SLP849
     T02720022=
KICT 231953Z 18031G42KT 6SM BLDU SCT150 SCT190 28/14 A2950 RMK AO2
     PK WND 17047/1924 SLP974 T02830139=
KILM 231953Z 32010KT 10SM CLR 24/12 A3007 RMK AO2 SLP183 T02390122
     PWINO=
KIML 231953Z AUTO 23024G39KT 10SM CLR 28/M03 A2919 RMK AO2 PK WND
     21041/1904 SLP857 T02831033 $=
KINK 231953Z AUTO 23017G30KT 10SM CLR 32/07 A2966 RMK AO2 PK WND
     22030/1946 SLP999 T03170072 $=
KITR 231953Z AUTO 22037G54KT 6SM HZ FEW037 27/M05 A2932 RMK AO2 PK
     WND 22056/1915 SLP870 T02671050 $=
KIWI 231953Z AUTO 00000KT 10SM CLR 17/11 A3037 RMK AO2 SLP285
     T01720106=
KIXD 231953Z 16020G35KT 10SM FEW095 SCT110 27/15 A2956 RMK AO2 PK
     WND 18040/1900 LTG DSNT NW-E RAB41E51 SLP996 P0000 T02670150
     $=
KJEF 231953Z 16010G30KT 10SM CLR 29/14 A2969 RMK AO2 PK WND
     18030/1944 SLP040 T02940144 $=
KJKL 231953Z AUTO VRB04KT 10SM CLR 24/04 A3014 RMK AO2 SLP196
     T02440039=
KLAR 231953Z AUTO 33017G25KT 10SM BKN050 BKN080 OVC100 05/M04
     A2945 RMK AO2 SLP916 T00501044 $=
KLAW 231953Z 17024G31KT 10SM CLR 32/14 A2963 RMK AO2 PK WND
     18033/1934 SLP021 T03170139=
