SAUS70 KWBC 231800 RRX
METAR
KHRX 231755Z AUTO 21013KT 10SM CLR 24/11 A2970 RMK AO2 T02350108
     10241 20163=
KHSB 231755Z AUTO 19018G23KT 10SM BKN047 25/17 A2999 RMK AO2
     T02500165 10259 20168=
KHSD 231755Z AUTO 18019G34KT 10SM CLR 26/16 A2966 RMK A01=
KHYW 231755Z AUTO 02007KT 10SM CLR 22/07 A3014 RMK AO2=
KHZD 231745Z AUTO 19013G21KT 10SM CLR 25/09 A3006 RMK A01=
KI35 231755Z AUTO 00000KT 10SM CLR 21/05 A3020 RMK AO2 T02140049
     10221 20039=
KI67 231755Z AUTO 19009G15KT 10SM CLR 24/09 A3011 RMK AO1=
KIER 231755Z AUTO 19010G18KT 10SM SCT046 BKN055 29/16 A3000 RMK
     AO2 T02860158 10291 20166=
KIFA 231755Z AUTO 15023G29KT 10SM CLR 25/14 A2956 RMK AO2
     T02450142 10245 20150=
KIGQ 231755Z AUTO 17018G23KT 10SM SCT060 25/14 A2991 RMK AO2
     T02450138 10245 20154=
KIMT 231754Z AUTO 15013G20KT 10SM CLR 21/12 A2986 RMK AO2 SLP113
     T02060122 10211 20078 58015=
KINJ 231755Z AUTO 20025G31KT 10SM BKN042 28/17 A2986 RMK AO2
     T02840169 10284 20212=
KJAU 231745Z AUTO 22005KT 10SM CLR 21/07 A3025 RMK A01=
KJHW 231756Z AUTO VRB03KT 10SM CLR 20/04 A3024 RMK AO2 SLP244
     T02000044 10200 20078 58012=
KJPX 231755Z AUTO 06007KT 7SM RA SCT050 BKN080 OVC110 14/14 A3026
     RMK AO2 P0010 60010 T01360136 10152 20130=
KJTC 231755Z AUTO 23023G38KT 10SM BKN041 BKN047 BKN085 14/02 A2981
     RMK AO2=
KJWG 231755Z AUTO 19021G26KT 10SM CLR 27/14 A2968 RMK AO2
     T02690138 10274 20191=
KJWY 231755Z AUTO 18023G29KT 10SM BKN040 28/17 A2987 RMK AO2
     T02770171 10277 20208=
KJYL 231755Z AUTO 36005KT 10SM CLR 25/11 A3016 RMK AO2 T02460111
     10246 20064=
KK70 231755Z AUTO 05008G13KT 020V080 10SM FEW037 29/21 A3003 RMK
     AO2=
KKLS 231756Z AUTO 16007KT 10SM SCT020 OVC050 11/08 A3017 RMK AO2
     SLP219 T01060078 10106 20072 52014=
KLCG 231755Z AUTO 17021G29KT 10SM CLR 27/12 A2932 RMK AO2
     T02680117 10268 20126=
KLGD 231756Z AUTO 29009KT 10SM FEW025 BKN047 06/01 A3005 RMK AO2
     SLP191 60004 T00610011 10061 20022 51023=
KOEL 231755Z AUTO 24029G41KT 5SM HZ CLR 29/M04 A2932 RMK AO1 6////
     T02881040=
KOJA 231755Z AUTO 20018G30KT 10SM CLR 27/13 A2966 RMK AO2
     T02710126 10272 20192=
KOKK 231756Z AUTO 18018G25KT 10SM CLR 24/12 A3004 RMK AO2 SLP170
     6//// T02440122 10244 20144 58012 PNO $=
KONX 231755Z AUTO 32007KT 10SM -DZ BKN006 BKN034 OVC048 16/16
     A3006 RMK AO2 P0006 60034 T01600160 10324 20023=
KOTG 231756Z AUTO 15021G31KT 10SM CLR 22/13 A2940 RMK AO2 PK WND
     13031/1753 SLP952 T02220128 10222 20122 56027=
KOTH 231756Z 14006KT 10SM CLR 11/09 A3022 RMK AO2 SLP232 60001
     T01060094 10106 20061 51020=
KOWB 231756Z 18016G22KT 10SM CLR 26/11 A3005 RMK AO2 SLP173
     T02610106 10261 20156 58020=
KOXI 231755Z AUTO 17016G23KT 10SM CLR 25/12 A2997 RMK AO1=
KOXV 231755Z AUTO 16019G28KT 10SM CLR 25/13 A2958 RMK AO2=
KP08 231755Z AUTO 27011KT 10SM BKN050 BKN060 21/11 A2980 RMK
     AO2=
KPCD 231755Z AUTO 20016G27KT 180V240 10SM OVC032 23/16 A2993 RMK
     AO2 T02300163 10230 20173=
KPCW 231755Z AUTO 7.66666708KT 10SM CLR 24/10 A3012 RMK AO2=
KPHT 231745Z AUTO 19014G22KT 10SM CLR 25/10 A3006 RMK A01=
KPIB 231756Z AUTO 16009KT 120V200 10SM CLR 25/13 A3013 RMK AO2
     SLP200 6//// T02500128 10256 20094 58020 PNO $=
KPKV 231755Z AUTO 16019G24KT 10SM SCT034 BKN055 OVC065 29/20 A2992
     RMK AO2 T02890200 10301 20216=
KPRO 231755Z AUTO 16022G29KT 10SM CLR 27/13 A2950 RMK AO2
     T02700127 10270 20158=
KPRS 231755Z AUTO 18010KT 10SM CLR 29/11 A2985 RMK AO2 T02900106
     10290 20178=
KPTD 231755Z AUTO 00000KT 10SM CLR 22/03 A3026 RMK AO2=
KPUJ 231755Z AUTO 11004KT 5SM HZ CLR 21/04 A3021 RMK AO2=
