SAUS70 KWBC 231836
METAR
KDVP 231833Z AUTO 14025G30KT 10SM CLR 23/12 A2938 RMK AO2
     T02270121=
KFOZ 231833Z AUTO 11009G15KT 10SM CLR 23/11 A2965 RMK AO2=
KOWA 231833Z AUTO 14021G27KT 10SM CLR 23/13 A2953 RMK AO2=
KAQP 231833Z AUTO 17016G28KT 10SM SCT085 23/11 A2937 RMK AO2=
KETH 231833Z AUTO 11026G30KT 10SM 23/12 A2936 RMK AO2=
KXVG 231833Z AUTO 10009G14KT 084V144 10SM SCT065 21/11 A2955 RMK
     AO2=
KL18 231835Z AUTO 14005KT 10SM SCT035 18/09 A2988 RMK AO2
     P0001=
KL35 231835Z AUTO 27007KT 10SM CLR 07/M08 A2993 RMK AO2=
KLKU 231835Z AUTO 03008KT 2SM HZ OVC022 16/11 A3020 RMK AO2
     T01580113=
KLNL 231835Z AUTO 17013G21KT 10SM SCT039 22/10 A2982 RMK AO2
     T02150103=
KMAW 231835Z AUTO 20021G24KT 10SM SCT044 BKN050 27/13 A2997 RMK
     AO1=
KMBY 231835Z AUTO 17018G27KT 10SM CLR 27/12 A2970 RMK AO2=
KMNI 231835Z AUTO 35011G17KT 300V020 10SM CLR 22/07 A3014 RMK
     AO2=
KMTV 231835Z AUTO 07006KT 2 1/2SM HZ CLR 21/03 A3022 RMK AO2
     T02060025=
KOKV 231835Z AUTO 06003KT 10SM OVC028 16/08 A3023 RMK AO2=
KOMH 231835Z AUTO 36009KT 320V030 10SM BKN025 OVC030 17/10 A3022
     RMK AO2=
KPCZ 231835Z AUTO 12014KT 10SM CLR 24/12 A2980 RMK AO2
     T02360121=
KPSK 231835Z AUTO 13004KT 10SM CLR 19/05 A3021 RMK AO2
     T01890051=
KRCM 231835Z AUTO 18014G27KT 10SM CLR 28/12 A2964 RMK AO2=
KRCX 231835Z AUTO 14012G18KT 10SM CLR 23/16 A2971 RMK AO2
     T02250155=
KRCZ 231835Z AUTO 03007KT 10SM CLR 22/06 A3016 RMK AO2
     T02230058=
KRHP 231835Z AUTO 15003KT 10SM CLR 24/M01 A3017 RMK AO2
     T02371006=
KRPD 231835Z AUTO 11013G18KT 10SM CLR 22/16 A2966 RMK AO2
     T02220157=
KSDC 231835Z AUTO 14006KT 10SM CLR 21/01 A3024 RMK AO2=
KSHD 231835Z AUTO 00000KT 10SM BKN033 18/06 A3025 RMK AO2
     T01770060=
KSNK 231835Z AUTO 20018G23KT 10SM CLR 28/11 A2974 RMK AO2
     T02790114=
KSRR 231835Z AUTO 24037G53KT 10SM 17/02 A2976 RMK AO2=
KTVY 231835Z AUTO 30013G19KT 10SM OVC050 02/00 A2984 RMK AO2=
KVDF 231835Z AUTO 07004KT 10SM CLR 30/17 A3007 RMK AO2=
KVGC 231835Z AUTO 18004KT 10SM CLR 18/05 A3029 RMK AO2=
KX60 231835Z AUTO 34006KT 10SM CLR 27/12 A3010 RMK AO2
     T02740120=
KXSA 231835Z AUTO 34004KT 10SM OVC009 15/15 A3018 RMK AO2
     T01460146=
K0E0 231835Z AUTO 24025G30KT 10SM SCT070 BKN090 19/M02 A2974 RMK
     AO2 T01861018 TSNO=
K10G 231835Z AUTO 14010KT 10SM CLR 23/05 A3018 RMK AO2=
K1P1 231835Z AUTO 00000KT 10SM CLR 17/05 A3034 RMK AO2
     T01730046=
K20U 231835Z AUTO 04013KT 10SM OVC009 06/05 A2941 RMK AO2=
K24A 231835Z AUTO 00000KT 10SM CLR 21/M02 A3020 RMK AO2
     T02111021=
K27K 231835Z AUTO 18011G16KT 10SM CLR 23/06 A3014 RMK AO1=
K2P2 231835Z AUTO 18012G18KT 10SM SCT110 17/12 A2992 RMK AO2
     T01700116=
K35A 231835Z AUTO 14003KT 10SM CLR 22/07 A3021 RMK A02
     T02210073=
K3D2 231835Z AUTO 17015G26KT 130V200 10SM CLR 17/11 A2990 RMK AO2
     T01650105=
K4S2 231835Z AUTO 30004KT 10SM CLR 12/04 A3012 RMK AO2=
K54J 231835Z AUTO 00000KT 10SM CLR 25/04 A3015 RMK AO2
     T02500035=
K6L4 231835Z AUTO VRB05KT 10SM CLR 23/05 A3018 RMK AO2=
K6S2 231835Z AUTO 21005KT 8SM FEW012 SCT038 12/11 A3020 RMK
     AO2=
KANQ 231835Z AUTO 16015G21KT 10SM FEW050 23/11 A3005 RMK AO2=
KBEA 231835Z AUTO 15017G24KT 10SM SCT038 BKN044 BKN050 29/18 A2984
     RMK AO2 T02880180=
KCKI 231835Z AUTO 33008KT 10SM CLR 23/05 A3014 RMK AO2=
KCLW 231835Z AUTO 07006KT 10SM CLR 27/14 A3007 RMK AO2=
KCQW 231835Z AUTO VRB04G12KT 10SM CLR 23/05 A3016 RMK AO2
     PWINO=
KD25 231835Z AUTO 15016G22KT 10SM CLR 21/12 A2977 RMK AO2
     T02110119=
KD55 231835Z AUTO 05019G26KT 10SM BKN012 11/11 A2950 RMK AO2=
