SAUS70 KWBC 232036 RRB
METAR
KRHP 232035Z AUTO 23004KT 10SM CLR 25/M03 A3014 RMK AO2
     T02451030=
KROX 232035Z AUTO 07019G22KT 10SM CLR 18/09 A2950 RMK AO2=
KSAZ 232035Z AUTO 13015G21KT 10SM CLR 24/12 A2944 RMK AO2=
KSGS 232035Z AUTO 15013G23KT 10SM CLR 25/12 A2950 RMK AO2
     T02470116=
KSHD 232035Z AUTO 09006KT 10SM OVC036 18/07 A3023 RMK AO2
     T01820065=
KSLH 232035Z AUTO 15010KT 10SM CLR 23/11 A2998 RMK AO2=
KSRR 232035Z AUTO 25036G52KT 10SM 17/02 A2975 RMK AO2=
KTEW 232035Z AUTO 15015G22KT 10SM SCT060 25/08 A3004 RMK AO2
     T02470084=
KTVY 232035Z AUTO 31016G20KT 10SM BKN038 BKN044 OVC070 04/00 A2986
     RMK AO2=
KTWM 232035Z AUTO 07014G22KT 10SM CLR 19/11 A2964 RMK AO2=
KUKT 232035Z AUTO 06003KT 10SM BKN055 17/10 A3024 RMK A01=
KVDF 232035Z AUTO 00000KT 10SM CLR 29/17 A3006 RMK AO2=
KVGC 232035Z AUTO 00000KT 10SM CLR 17/07 A3028 RMK AO2=
KVVV 232035Z 14024G34KT 10SM 23/13 A2930 RMK AO2=
KX60 232035Z AUTO 03005KT 10SM CLR 28/11 A3008 RMK AO2
     T02760110=
KXSA 232035Z AUTO 33004KT 10SM -RA OVC020 15/15 A3017 RMK AO2
     T01480148=
KY63 232035Z AUTO 14022G32KT 10SM CLR 23/12 A2935 RMK AO2
     T02250121=
K10G 232035Z AUTO 15006KT 10SM CLR 22/04 A3015 RMK AO2=
