SAUS70 KWBC 232138 RRD
METAR
KOKV 232135Z AUTO 03004KT 10SM OVC044 17/08 A3020 RMK AO2=
KOLG 232135Z AUTO 14012G17KT 10SM BKN048 23/11 A2960 RMK AO1=
KSUZ 232135Z AUTO 16013G21KT 10SM FEW055 28/14 A2988 RMK A01=
KSYM 232135Z AUTO 14006KT 10SM CLR 24/01 A3012 RMK AO2=
KT69 232135Z AUTO 16023KT 9SM FEW037 FEW047 28/22 A2981 RMK
     A01=
KTKX 232135Z AUTO 18015G25KT 9SM SCT050 26/14 A2994 RMK AO2
     TSNO=
KTME 232135Z AUTO 16011G21KT 10SM BKN060 29/15 A2986 RMK AO2=
KTOB 232135Z AUTO 15027G32KT 10SM CLR 24/12 A2954 RMK AO2=
KTSP 232135Z AUTO 32015KT 7SM CLR 11/M02 A2993 RMK AO2=
KTTF 232135Z AUTO 11006KT 10SM CLR 20/09 A3007 RMK AO2
     T01980090=
KTWT 232135Z AUTO 18012KT 10SM CLR 26/07 A2998 RMK AO2=
KU42 232135Z AUTO 29011G16KT 4SM OVC039 03/00 A2987 RMK AO1
     T00270002=
KULM 232135Z AUTO 15022G30KT 10SM CLR 25/11 A2941 RMK AO2=
KUOX 232135Z AUTO 17009G18KT 140V210 10SM CLR 26/11 A3002 RMK AO2
     PWINO=
KUTA 232135Z AUTO 16017G22KT 10SM CLR 27/13 A2995 RMK AO2
     T02710130 $=
KVGC 232135Z AUTO 00000KT 10SM CLR 15/08 A3027 RMK AO2=
KVJI 232135Z AUTO 00000KT 10SM CLR 24/M03 A3016 RMK AO2
     T02411027=
KVLL 232135Z AUTO 15006KT 10SM CLR 23/08 A3010 RMK AO2
     T02290080=
KVWU 232135Z AUTO 12015G20KT 10SM CLR 24/13 A2949 RMK AO2=
KW78 232135Z AUTO 34004KT 10SM CLR 19/06 A3015 RMK AO1
     T01930059=
KW81 232135Z AUTO 36006KT 10SM OVC023 17/09 A3016 RMK AO1
     T01650092=
KX07 232135Z AUTO 04007KT 10SM CLR 27/15 A3006 RMK A01=
KX60 232135Z AUTO 06004KT 10SM CLR 27/11 A3009 RMK AO2
     T02690112=
KXNX 232135Z AUTO VRB04G11KT 10SM CLR 25/06 A3008 RMK A01=
KY19 232135Z AUTO 05008G15KT 10SM BKN042 17/10 A2928 RMK AO2=
KY70 232135Z AUTO 15010G17KT 10SM CLR 23/08 A2999 RMK AO2
     T02320084=
KOMH 232135Z AUTO 03006KT 10SM OVC039 17/10 A3020 RMK AO2=
KONM 232135Z AUTO 16013G20KT 10SM CLR 23/M03 A2967 RMK AO2
     T02311031=
KONZ 232135Z AUTO 12008KT 10SM SCT100 21/03 A3007 RMK AO2
     T02120028=
KORS 232135Z AUTO 17006KT 10SM CLR 11/08 A3012 RMK AO2=
KOSC 232135Z AUTO 13004KT 10SM CLR 19/11 A3006 RMK AO2
     T01850113=
KOXD 232135Z AUTO 19011G14KT 10SM CLR 26/03 A3007 RMK AO2
     T02560029=
KOZS 232135Z AUTO 18020G26KT 10SM SCT120 28/12 A2974 RMK AO2=
KPAN 232135Z AUTO 22017G22KT 10SM BKN040 BKN049 BKN055 14/03 A2982
     RMK AO2 PWINO TSNO=
KPCM 232135Z AUTO 06005KT 10SM BKN055 29/16 A3007 RMK AO2=
KPEX 232135Z AUTO 13015G20KT 10SM SCT048 23/12 A2942 RMK AO2=
KPGV 232135Z AUTO 35005KT 10SM BKN018 18/16 A3011 RMK AO2=
KPJC 232135Z AUTO RMK AO2 TSNO PWINO=
KPLR 232135Z AUTO 00000KT 10SM CLR 25/04 A3011 RMK A01=
KPNM 232135Z AUTO 12016G24KT 10SM SCT049 24/13 A2948 RMK AO2
     TSNO=
KPVF 232135Z AUTO 31006KT 10SM CLR 15/M06 A2996 RMK AO1=
KRCE 232135Z AUTO 17023G29KT 10SM CLR 27/15 A2962 RMK AO2=
KRMN 232135Z AUTO 35004KT 10SM OVC029 19/12 A3021 RMK AO2
     T01910121=
KRMY 232135Z AUTO 16010G17KT 10SM CLR 23/10 A3001 RMK AO2
     T02280098=
KRNP 232135Z AUTO 15009G15KT 10SM CLR 23/08 A3003 RMK AO2
     T02330081=
KRPH 232135Z AUTO 16015G24KT 130V200 10SM CLR 30/14 A2966 RMK AO2
     T03050142 $=
KRQB 232135Z AUTO 17016G21KT 10SM SCT055 23/10 A2997 RMK AO2
     T02340103=
KRUG 232135Z AUTO 06025G32KT 10SM CLR 12/07 A2938 RMK AO2=
KRVL 232135Z AUTO 00000KT 9SM BKN035 OVC042 17/09 A3024 RMK
     AO2=
KRYV 232135Z AUTO 16012KT 10SM SCT047 SCT120 24/13 A2977 RMK AO2
     T02360125=
KRZN 232135Z AUTO 13011G20KT 10SM CLR 24/12 A2956 RMK AO2
     T02360116=
KRZT 232135Z AUTO 16007KT 137V197 10SM CLR 23/03 A3010 RMK AO2
     PWINO=
KS25 232135Z AUTO 36014KT 10SM OVC015 07/06 A2946 RMK AO2=
