SAUS70 KWBC 232120 RRH
METAR
KHNR 232115Z AUTO 17028G36KT 9SM CLR 29/16 A2936 RMK A01=
KHPT 232115Z AUTO 15018G24KT 10SM SCT032 SCT046 SCT120 23/13 A2954
     RMK AO2=
KI63 232115Z AUTO 16019G25KT 10SM CLR 24/14 A2973 RMK AO2
     T02400140=
KI74 232115Z AUTO 15007KT 10SM CLR 22/09 A3009 RMK AO2=
KIBM 232115Z AUTO 34021G27KT 10SM BKN110 10/01 A2940 RMK AO2
     T01040005=
KICL 232115Z AUTO 18021G31KT 10SM CLR 28/14 A2944 RMK AO2=
KIKK 232115Z AUTO 19016G28KT 10SM CLR 25/12 A2988 RMK AO2
     T02510115=
KIKV 232115Z AUTO 17011G24KT 10SM CLR 28/14 A2950 RMK AO2=
KUMP 232115Z AUTO 18014G20KT 10SM CLR 25/11 A3001 RMK AO2
     T02520110=
