SAUS70 KWBC 232140 RRA
METAR
KVVS 232135Z AUTO 11004KT 10SM CLR 21/00 A3017 RMK AO2
     T02141004=
KVYS 232135Z AUTO 15018G23KT 10SM CLR 24/14 A2978 RMK AO2
     T02400141=
KZPH 232135Z AUTO 01007KT 10SM SCT055 28/14 A3007 RMK A02
     T02750139=
KBEC 232135Z AUTO 19031G38KT 10SM CLR 26/14 A2951 RMK AO2
     T02620135=
KBGE 232135Z AUTO 08009KT 040V100 10SM CLR 26/06 A3010 RMK AO2
     T02570063=
KBIE 232135Z AUTO 17026G33KT 10SM SCT080 28/13 A2936 RMK AO2
     T02830134=
KBPG 232135Z AUTO 18019G23KT 10SM CLR 30/11 A2968 RMK AO2
     T02990106=
KBQP 232135Z AUTO 20008G14KT 10SM CLR 28/14 A2996 RMK AO2
     T02790136=
KBVN 232135Z AUTO 18022G32KT 10SM CLR 31/07 A2920 RMK AO2
     T03060071=
KC35 232135Z AUTO 15011G18KT 10SM SCT046 23/13 A2970 RMK AO2
     T02300133 PWINO=
KC75 232135Z AUTO 19014G34KT 10SM CLR 25/16 A2977 RMK AO2
     T02470161=
KCAV 232135Z AUTO 14021G35KT 10SM CLR 24/15 A2947 RMK A01=
KCBF 232135Z AUTO 18026G35KT 9SM FEW110 29/10 A2934 RMK AO2=
KCBK 232135Z AUTO 22028G35KT 10SM CLR A2929 RMK AO2=
KCFD 232135Z AUTO 14016G23KT 10SM SCT055 SCT065 29/16 A2984 RMK
     AO2 T02920156=
KCFS 232135Z AUTO 14009KT 10SM CLR 23/08 A3005 RMK AO2
     T02320080=
KCIN 232135Z AUTO 16021G31KT 10SM CLR 27/14 A2941 RMK AO2=
KCKF 232135Z AUTO 00000KT 10SM CLR 25/07 A3013 RMK AO2
     T02520065=
KCKN 232135Z AUTO 12016G22KT 10SM CLR 24/11 A2938 RMK AO2=
KCQF 232135Z AUTO 11009KT 10SM CLR 24/10 A3008 RMK AO2=
KDNV 232135Z AUTO 17016G26KT 10SM CLR 24/11 A2993 RMK AO2
     T02430111=
KDUC 232135Z AUTO 16021G29KT 10SM CLR 29/15 A2968 RMK AO2
     T02940148=
KDZJ 232135Z AUTO 00000KT 10SM CLR 22/00 A3015 RMK AO2
     T02201002=
KE42 232135Z AUTO 19025G32KT 10SM CLR 26/10 A2951 RMK AO2
     T02640103=
KEBA 232135Z AUTO 07004KT 10SM CLR 24/04 A3014 RMK AO2
     T02380038=
KEBG 232135Z AUTO 14021G27KT 10SM CLR 30/18 A2977 RMK AO2
     T03030182 PWINO=
KELA 232135Z AUTO 16016G23KT 10SM SCT050 BKN060 29/17 A2985 RMK
     AO2 T02880169=
KEMM 232135Z AUTO 29027G33KT 10SM CLR 00/M07 A2974 RMK AO2=
KEQA 232135Z AUTO 19031G39KT 10SM CLR 28/13 A2953 RMK AO2=
KETC 232135Z AUTO 34007KT 10SM OVC019 18/14 A3012 RMK AO2
     T01760136=
KEZZ 232135Z AUTO 16019G24KT 10SM CLR 27/16 A2955 RMK AO2 LTG DSNT
     N AND SW T02710155=
KF00 232135Z AUTO 17019G30KT 10SM CLR 29/15 A2977 RMK AO2
     T02880154=
KFET 232135Z AUTO 17015G27KT 5SM HZ SCT035 SCT041 29/13 A2932 RMK
     AO2 T02920128=
KFHB 232135Z AUTO 06010KT 10SM CLR 22/16 A3012 RMK AO2=
KFOA 232135Z AUTO 19018G29KT 10SM CLR 26/12 A2992 RMK AO2=
KFSW 232135Z AUTO 14014G20KT 10SM OVC001 26/15 A2966 RMK AO2=
KFWC 232135Z AUTO 16016KT CLR 26/10 A2992 RMK AO1 T02580098
     PWINO=
KGDB 232135Z AUTO 12020G30KT 10SM CLR 26/13 A2935 RMK AO2
     T02600131=
KGPC 232135Z AUTO 10SM CLR 23/10 A2998 RMK AO2 T02340102=
KGWB 232135Z AUTO 00000KT 10SM CLR 23/10 A3003 RMK AO2=
KHJH 232135Z AUTO 18023G31KT 7SM SCT033 BKN039 OVC045 29/11 A2931
     RMK AO2 T02880113=
KHMP 232135Z AUTO 00000KT 10SM CLR 22/04 A3018 RMK AO2
     T02250040=
KHQU 232135Z AUTO 08007KT 10SM CLR 23/10 A3014 RMK AO2
     T02340096=
KIIY 232135Z AUTO 00000KT 10SM CLR 24/06 A3014 RMK AO2
     T02380062=
KIYA 232135Z AUTO 13012G19KT 10SM OVC070 25/14 A3001 RMK AO2
     T02520135=
KJCA 232135Z AUTO 15004KT 10SM CLR 23/03 A3015 RMK AO2
     T02330030=
KJDD 232135Z AUTO 17008G20KT 120V210 10SM CLR 29/15 A2981 RMK
     AO2=
KJYG 232137Z AUTO 15021G35KT 10SM CLR 25/12 A2940 RMK AO2=
KK88 232135Z AUTO 18020G36KT 10SM CLR 28/13 A2961 RMK AO1
     T02750133=
KLHB 232135Z AUTO 15012G23KT 10SM BKN065 30/17 A2982 RMK AO2
     T03000165=
