SAUS80 KWBC 232000 RRD
METAR
KHTL 231953Z AUTO 16011G20KT 10SM FEW050 22/11 A3002 RMK AO2
     SLP165 T02220106 $=
KBIL 231953Z 30015KT 10SM -RA FEW010 OVC035 03/01 A2965 RMK AO2
     RAB03 SLP053 P0001 T00280011=
KMBG 231952Z AUTO 14014G22KT 10SM BKN036 21/11 A2917 RMK AO2
     SLP874 T02110106=
KMFD 231952Z 16008KT 10SM CLR 22/08 A3014 RMK AO2 SLP201
     T02170078=
KTOL 231952Z 17009G15KT 10SM BKN060 26/10 A3007 RMK AO2 SLP182
     T02560100=
K12N 231954Z AUTO 00000KT 19/09 A3027 RMK AO1 SLP249 T01890094=
KMTP 231954Z AUTO 04008KT 15/13 A3026 RMK AO1 SLP245 P0005
     T01500128=
KSAN 231951Z 17007KT 110V210 10SM BKN039 21/09 A2988 RMK AO2
     SLP117 T02060089=
KFNB 231953Z AUTO 19025G39KT 10SM -RA FEW070 FEW090 BKN110 27/15
     A2947 RMK AO2 PK WND 17040/1911 LTG DSNT SE AND S RAB37
     SLP971 P0000 T02670150=
KRQE 231953Z AUTO 27017G22KT 10SM BKN034 OVC044 07/M01 A2979 RMK
     AO2 SLP018 T00671011 $=
KTCS 231953Z AUTO 21022G32KT 10SM CLR 21/M01 A2972 RMK AO2 PK WND
     22036/1924 SLP992 T02111011=
KTUS 231953Z 28009G17KT 10SM CLR 23/08 A2980 RMK AO2 SLP052
     T02330083=
KFMN 231953Z 25015KT 10SM OVC070 08/M05 A2973 RMK AO2 PK WND
     26026/1854 SLP037 T00781050=
KGCC 231953Z AUTO 10SM OVC009 02/ A2948 RMK AO2 CIG 009V015 SLP987
     T0017 $=
KLBB 231953Z 21022G28KT 10SM FEW060 FEW120 BKN200 BKN220 BKN260
     28/10 A2966 RMK AO2 PK WND 23034/1916 SLP991 T02780100=
K1V4 231954Z AUTO 18/05 A3030 RMK AO1 SLP261 T01830050 PNO=
KMSN 231953Z 16020G29KT 10SM FEW045 FEW120 24/13 A2975 RMK AO2 PK
     WND 15030/1940 SLP070 T02390128=
KSTC 231953Z 13016G32KT 10SM CLR 24/12 A2946 RMK AO2 PK WND
     14032/1948 SLP981 T02390122=
KCLL 231953Z 16020G30KT 10SM FEW050 BKN065 31/16 A2984 RMK AO2 PK
     WND 16033/1926 SLP101 T03060161=
KDMN 231953Z AUTO 25020G31KT 10SM CLR 22/03 A2978 RMK AO2 PK WND
     25035/1907 SLP019 T02220028=
KLXV 231953Z AUTO 30010G20KT 5SM -SN FEW032 BKN041 OVC070 M02/M04
     A2957 RMK AO2 PK WND 27026/1909 SNB1855E18B51 SLP924 P0000
     T10171044 $=
KODX 231953Z AUTO 20026G43KT 10SM FEW038 31/02 A2917 RMK AO2 PK
     WND 19043/1944 SLP868 T03110022=
KCDR 231953Z AUTO 30023G39KT 10SM CLR 12/03 A2933 RMK AO2 PK WND
     31042/1939 SLP937 T01170028=
KCUT 231953Z AUTO 29014G23KT 10SM SCT100 10/01 A2934 RMK AO2
     SLP892 T01000011=
KDBQ 231953Z 16022G31KT 10SM CLR 24/14 A2969 RMK AO2 PK WND
     16031/1951 SLP050 T02440139=
KLWD 231953Z AUTO 18019G30KT 10SM -RA CLR 28/14 A2953 RMK AO2 PK
     WND 15031/1858 SLP990 P0000 T02780139=
KNAK 231954Z AUTO 01007KT 9SM -RA OVC029 17/11 A3019 RMK AO2 RAB17
     SLP226 P0000 T01720111=
