SAUS70 KWBC 231700 RRT
METAR
PASH 231656Z AUTO 17009KT 10SM CLR M02/M03 A2979 RMK AO2 SLP090
     T10171028 FZRANO PNO $=
PASK 231656Z AUTO 15008KT 10SM OVC022 M01/M01 A2991 RMK AO2 SLP126
     T10061011 FZRANO=
PASL 231656Z AUTO 00000KT 10SM CLR M06/M06 A3011 RMK AO2 SLP190
     T10561061 FZRANO=
PASM 231656Z AUTO 15010G15KT 10SM BKN004 BKN042 M01/M01 A2994 RMK
     AO2 SLP150 T10061011 FZRANO=
PASX 231656Z AUTO 00000KT 10SM CLR M08/M08 A2993 RMK AO2 SLP141
     T10831083 FZRANO=
PATE 231656Z AUTO 08010KT 9SM -SN FEW029 OVC036 M01/M02 A2974 RMK
     AO2 SLP077 P0000 T10061022 FZRANO=
PATG 231656Z AUTO 36005KT 10SM CLR M05/M06 A3012 RMK AO2 SLP199
     T10501056 FZRANO=
PATQ 231656Z AUTO 11010KT 10SM CLR M09/M11 A2992 RMK AO2 SLP137
     T10941106 FZRANO TSNO=
PAUN 231656Z AUTO 07011KT 10SM FEW060 M02/M03 A2997 RMK AO2 SLP152
     T10171033 FZRANO=
PAUT 231655Z AUTO 21010KT 10SM SCT095 06/03 A3024 RMK AO2=
PAVD 231656Z 04014G25KT 10SM FEW065 FEW150 SCT300 A2980 RMK AO2 PK
     WND 07026/1631 SLPNO 04/M07 PNO $=
PAWG 231656Z 09012G18KT 10SM -RA BKN035 OVC040 06/05 A2960 RMK AO2
     SLP025 T00600050 $=
PAWS 231656Z AUTO 26003KT 10SM CLR M07/M08 A2987 RMK AO2 SLP121
     T10671078 FZRANO=
PAZK 231656Z AUTO 00000KT 9SM -SN OVC022 M07/M09 A2975 RMK AO2
     SLP141 P0000 T10671089 FZRANO=
PFCL 231656Z AUTO 00000KT 10SM CLR A3010 RMK AO2 SLPNO FZRANO TSNO
     $=
PFKW 231656Z AUTO 14009KT 1/2SM -SN FZFG OVC003 M02/M02 A3004 RMK
     AO2 SNB25 SLP171 P0000 T10221022 FZRANO=
PFYU 231656Z 00000KT 8SM OVC050 M12/M13 A3003 RMK AO2 SLP186
     T11221133=
PPIZ 231656Z AUTO 09006KT 10SM BKN040 OVC060 M05/M07 A2977 RMK AO2
     SNB05E24 SLP086 P0000 T10501067 FZRANO=
PAAD 231655Z AUTO 11011KT 10SM OVC007 M09/M10 A3003 RMK AO2
     T10951105=
PAAK 231656Z AUTO 21006KT 10SM -RA FEW018 OVC024 A3022 RMK AO2
     SLPNO P0000 FZRANO $=
PABL 231656Z AUTO 17010KT 10SM CLR 02/00 A2988 RMK AO2 SLP120
     T00170000 FZRANO $=
PABV 231656Z AUTO 21005KT 10SM CLR M04/M06 A2988 RMK AO2 SLP126
     T10441056 FZRANO=
PADL 231656Z 00000KT 10SM CLR M04/M05 A3010 RMK AO2 SLP195
     T10441050=
PADM 231656Z AUTO 12013G18KT 10SM BKN028 OVC110 01/M02 A3003 RMK
     AO2 SLP177 T00061017 FZRANO=
PADU 231656Z 21006KT 10SM BKN036 OVC075 07/02 A3025 RMK AO2 SLP250
     P0001 T00720017=
PAFM 231656Z AUTO 12009KT 5SM -SN BR OVC006 M02/M02 A2998 RMK AO2
     SLP159 P0000 T10171022 FZRANO=
PAGA 231656Z AUTO 9SM -SN FEW020 SCT026 OVC045 M02/M02 A3002 RMK
     AO2 UPB27E30SNB30 SLP169 P0000 T10171022 FZRANO $=
PAGL 231656Z AUTO 18020KT 10SM OVC013 03/02 A2986 RMK AO2 SLP107
     T00330017 PWINO $=
PAGN 231656Z AUTO 08010G14KT 10SM -RA FEW017 BKN024 OVC035 04/03
     A2950 RMK AO2 SLP980 P0005 T00390033=
PAGS 231656Z AUTO 02005KT 10SM FEW045 OVC055 06/M01 A2954 RMK AO2
     RAE08 SLP001 P0000 T00611006=
PAHL 231656Z AUTO 14003KT 7SM -SN OVC026 M03/M03 A3000 RMK AO2
     SLP164 P0000 T10281033 FZRANO=
PAHY 231656Z AUTO 10022G31KT 4SM RA BR BKN014 OVC020 08/06 A2944
     RMK AO2 PK WND 13034/1557 SLP966 P0017 T00780056 $=
PAIG 231656Z AUTO 19005KT 10SM CLR M03/M04 A3007 RMK AO2 SLP192
     T10331039 FZRANO $=
PAIK 231656Z AUTO 10005KT 10SM OVC010 M01/M01 A2991 RMK AO2 CIG
     007V013 SLP132 T10061011 FZRANO=
PAIN 231656Z AUTO 00000KT 9SM -SN OVC015 M07/M08 A2996 RMK AO2
     SLP186 P0000 T10721083 FZRANO $=
PAJZ 231656Z AUTO 18003KT 7SM CLR M06/M07 A3013 RMK AO2 SLP211
     T10611072 FZRANO $=
PAKI 231656Z AUTO 19010KT 10SM -RA FEW008 BKN025 OVC032 04/ A2996
     RMK AO2 RAB21 SLP148 T0039 PNO $=
