SAUS80 KWBC 231700 RRA
METAR
KRQE 231653Z AUTO 26017G28KT 6SM -RA FEW020 OVC039 06/02 A2977 RMK
     AO2 PK WND 25040/1607 SLP010 P0000 T00610022 $=
KCLL 231653Z 18015G31KT 10SM SCT035 SCT047 BKN055 27/18 A2993 RMK
     AO2 PK WND 16031/1645 SLP129 T02670178=
KDAL 231653Z 17018G29KT 10SM FEW032 SCT038 BKN250 26/17 A2985 RMK
     AO2 PK WND 17035/1622 SLP103 T02610167=
KTUS 231653Z 35007G16KT 10SM OVC048 22/09 A2985 RMK AO2 SLP069
     T02170094=
KHVR 231653Z AUTO 01012G23KT FEW009 BKN018 OVC023 02/01 A2971 RMK
     AO2 SLP082 T00170006 $=
KRIW 231653Z AUTO 35007KT 1 1/2SM -SN BR FEW007 OVC012 01/00 A2957
     RMK AO2 SLP006 P0003 T00060000 $=
KRNM 231653Z VRB04KT 10SM OVC032 14/10 A2989 RMK AO2 SLP113
     T01440100=
KSDM 231653Z 23005KT 10SM BKN036 17/10 A2989 RMK AO2 SLP118
     T01720100=
KPGA 231653Z AUTO 25014G23KT 10SM SCT055 09/M04 A2974 RMK AO2
     SLP031 T00941039 $=
KBIL 231653Z 30013G24KT 10SM BKN050 OVC055 04/M02 A2961 RMK AO2
     SLP035 SHRASN DSNT N-S T00391017=
KDMN 231653Z AUTO 25019G33KT 10SM CLR 20/08 A2984 RMK AO2 PK WND
     23034/1643 SLP042 T02000078=
KDRT 231653Z AUTO 13010KT 10SM OVC012 22/18 A2985 RMK AO2 SLP101
     T02170183=
KLBB 231653Z 22016KT 10SM FEW120 SCT210 BKN260 26/12 A2973 RMK AO2
     PK WND 22028/1642 SLP016 T02610117=
KFMN 231653Z 29016G26KT 10SM SCT018 BKN040 OVC060 07/02 A2973 RMK
     AO2 PK WND 29028/1628 RAE01 SLP035 P0000 T00670022=
KGCC 231653Z AUTO 3/4SM -SN VV016 01/ A2945 RMK AO2 SLP971 P0005
     T0006 $=
KLAX 231653Z 00000KT 10SM FEW024 SCT052 19/12 A2987 RMK AO2 SLP112
     T01890122=
KMSO 231653Z 32009KT 10SM OVC036 04/02 A2989 RMK AO2 SLP140
     T00390017 $=
KBFF 231653Z AUTO 29022G30KT 10SM CLR 14/02 A2930 RMK AO2 PK WND
     30031/1621 SLP895 T01440017=
KFNB 231653Z AUTO 18019G33KT 10SM CLR 27/14 A2949 RMK AO2 PK WND
     17041/1559 SLP976 T02670139=
KMSN 231653Z 17014G23KT 10SM CLR 21/12 A2982 RMK AO2 SLP095
     T02060117=
KSAN 231651Z 24004KT 10SM SCT030 BKN042 18/10 A2989 RMK AO2 SLP123
     T01830100=
PHMK 231654Z 04003KT 10SM FEW049 23/20 A3002 RMK AO2 SLP166
     T02330200=
PHOG 231654Z 05008KT 10SM FEW030 23/16 A2999 RMK AO2 SLP159
     T02280161=
KOQT 231653Z AUTO 29003KT 10SM CLR 19/07 A3024 RMK AO2 SLP238
     T01890067=
KFAR 231653Z AUTO 11014KT 10SM CLR 19/10 A2944 RMK AO2 SLP972
     T01940100 TSNO $=
KGDP 231651Z AUTO 24044G58KT 8SM CLR 22/09 A2982 RMK AO2 PK WND
     25058/1646 SLP024 T02220089=
KINL 231654Z AUTO 14006KT 10SM CLR 19/09 A2965 RMK AO2 SLP042
     T01890094=
KJAN 231654Z 19011KT 10SM FEW025 26/13 A3012 RMK AO2 SLP194
     T02560133=
KM21 231655Z AUTO 18016G20KT 10SM CLR 24/10 A3010 RMK AO2
     T02430096=
KN60 231652Z AUTO 07014G28KT 09/05 A2941 RMK AO1 PK WND 07030/1557
     SLP968 T00890050=
KBUF 231654Z 07006KT 10SM FEW200 FEW250 23/06 A3023 RMK AO2 SLP234
     T02280056 $=
KCLI 231655Z AUTO 14009KT 10SM CLR 20/12 A2987 RMK AO2
     T02030124=
KEKX 231655Z AUTO 21009G15KT 10SM CLR 24/08 A3014 RMK AO2
     T02350077=
KPIA 231654Z 18014G28KT 10SM CLR 23/13 A2985 RMK AO2 PK WND
     20030/1623 SLP103 T02330133=
KPZQ 231655Z AUTO 17008KT 130V190 10SM CLR 23/13 A3008 RMK AO2
     T02270126=
KCOS 231654Z 21032G40KT 10SM FEW060 FEW250 18/M03 A2945 RMK AO2 PK
     WND 21049/1627 SLP897 VCSH OMTNS W-NW T01781028 $=
KDRA 231653Z AUTO 02012KT 10SM CLR 12/M07 A2988 RMK AO2 SLP097
     T01171072=
KLND 231653Z AUTO 36007KT 10SM SCT006 BKN010 OVC070 02/00 A2957
     RMK AO2 SNE44 SLP006 P0002 T00170000=
KLXV 231653Z AUTO 02004KT 10SM FEW010 BKN055 OVC070 01/M02 A2956
     RMK AO2 SNE16 SLP898 P0002 T00061022 $=
