SAHA31 KWBC 231700
METAR
KQHA NIL=
MTCA NIL=
MTCH NIL=
MTEG NIL=
MTJA NIL=
MTJE NIL=
MTPP 231700Z VRB02KT 9999 SCT028TCU SCT200 31/22 Q1012 A2990
     RMK/TCU/N=
MTPP 231700Z VRB02KT 9999 SCT028TCU SCT200 31/22 Q1012 A2990
     RMK:TCU/N=
MTPP 231658Z VRB02KT 9999 SCT028TCU SCT200 31/22 Q1012 A2990
     RMK/TCU/N=
MTPP 231658Z VRB02KT 9999 SCT028TCU SCT200 31/22 Q1012 A2990
     RMK:TCU/N=
MTPX NIL=
MTTP NIL=
