SAUS80 KWBC 232100
METAR
KESN 232045Z 36006KT 5SM -RA BKN006 OVC015 16/15 A3021=
KCQT 232047Z AUTO 25004KT 10SM CLR 21/10 A2984 RMK AO2 SLP103
     T02110100 57007=
KGNT 232055Z AUTO 28011G20KT 10SM SCT024 SCT030 BKN035 12/03 A2980
     RMK AO2 T01150033=
KJDN 232048Z AUTO 32015KT 02/01 A2958 RMK AO1 SLP032 P0004 60022
     T00220011 51015=
KSNT 232051Z AUTO 32009G15KT 00/M08 A2990 RMK AO1 SLP115 T00001078
     53010=
KCDJ 232051Z AUTO 18016G37KT 29/14 A2959 RMK AO1 PK WND 17037/2045
     SLP005 T02940144 55011=
KABE 232051Z AUTO 03009KT 10SM OVC065 16/09 A3024 RMK AO2 SLP240
     T01610089 56009 $=
KALB 232051Z 31003KT 10SM FEW080 FEW160 BKN190 BKN250 16/08 A3030
     RMK AO2 SLP260 T01610078 56006=
KBDL 232051Z 34004KT 8SM -RA OVC100 12/08 A3030 RMK AO2 SLP261
     P0004 60004 T01170083 56003=
KBKW 232051Z AUTO 10SM CLR 22/01 A3018 RMK AO2 SLP207 T02170006
     56014=
KCAK 232051Z 15007KT 10SM FEW210 FEW250 24/03 A3014 RMK AO2 SLP203
     T02390033 56017=
KCON 232051Z AUTO 10009KT 10SM CLR 13/09 A3033 RMK AO2 SLP274
     T01330089 58004=
KCRP 232051Z 15022G33KT 10SM FEW026 SCT034 SCT055 BKN250 30/22
     A2981 RMK AO2 PK WND 15034/1956 SLP091 T03000222 56027=
KEKN 232051Z AUTO VRB05KT 4SM HZ CLR 23/00 A3017 RMK AO2 SLP223
     T02280000 56014=
KELP 232051Z 26017G29KT 10SM FEW060 SCT080 BKN170 BKN210 26/07
     A2973 RMK AO2 PK WND 24034/2017 SLP996 T02560072 56017=
KHSE 232051Z AUTO 36009G22KT 340V040 10SM OVC007 17/17 A3000 RMK
     AO2 PK WND 01026/2013 SLP159 T01720167 51001 $=
KHTS 232051Z VRB03KT 10SM CLR 24/05 A3011 RMK AO2 SLP194 T02440050
     56019=
KIGM 232051Z AUTO 35015G23KT 10SM CLR 17/M08 A2984 RMK AO2 SLP056
     T01671078 58004=
KMYL 232051Z AUTO 35007KT 300V010 10SM BKN046 OVC055 03/M07 A2995
     RMK AO2 SLP155 60000 T00331072 53014=
KORF 232051Z 35013G21KT 9SM OVC007 15/15 A3009 RMK AO2 RAE09
     SLP188 P0000 60010 T01500150 56010=
KOXR 232051Z 28011KT 10SM FEW030 20/10 A2986 RMK AO2 SLP110
     T02000100 58004=
KPVD 232051Z 03010KT 10SM -RA FEW050 SCT100 BKN120 13/11 A3030 RMK
     AO2 RAB11 SLP260 P0001 60003 T01330111 56003=
KROW 232051Z 23023G34KT 10SM CLR 26/07 A2964 RMK AO2 PK WND
     22034/2044 SLP975 T02560067 55008=
KSAD 232051Z AUTO 31021G34KT 10SM SCT085 22/08 A2970 RMK AO2 PK
     WND 33035/2024 SLP017 T02170083 56018=
KSAN 232051Z 19007KT 10SM SCT039 21/09 A2987 RMK AO2 SLP114
     T02060089 58007=
KSAT 232051Z 16013G23KT 10SM SCT055 BKN200 30/16 A2980 RMK AO2 PK
     WND 14031/2016 SLP073 T03000161 56026=
KSMX 232051Z 29017KT 10SM CLR 19/07 A2988 RMK AO2 SLP120 T01940072
     58016=
KTEB 232051Z 03006KT 10SM -RA BKN049 OVC060 15/08 A3024 RMK AO2
     DZB07E14RAB14 SLP240 P0001 60001 T01500078 58007=
KVCT 232051Z 15019G28KT 10SM FEW043 SCT060 32/19 A2983 RMK AO2 PK
     WND 16029/1955 SLP101 T03170194 56024=
KYNG 232051Z 13008KT 10SM FEW200 SCT250 23/03 A3016 RMK AO2 SLP213
     T02280033 56017=
KNYC 232051Z AUTO 06010G15KT 030V090 10SM OVC046 14/09 A3027 RMK
     AO2 RAB01E38 SLP240 P0000 60000 T01440089 57009 $=
KGDP 232051Z AUTO 24033G46KT 8SM CLR 22/08 A2977 RMK AO2 PK WND
     24046/1952 SLP009 T02170078 58016=
KREO 232052Z AUTO 32010KT 07/M07 A3002 RMK AO1 SLP174 T00671072
     53008=
KSVE 232055Z AUTO 07008KT 10SM BKN060 M22/M52 A3006 RMK AO2=
