SAUS70 KWBC 232118 RRL
METAR
KF70 232115Z AUTO 24008KT 10SM CLR 20/06 A2984 RMK AO2=
KL08 232115Z AUTO 00000KT 10SM CLR 24/00 A2976 RMK AO2=
KL35 232115Z AUTO 26007KT 10SM CLR 08/M10 A2993 RMK AO2=
KL52 232115Z AUTO 28010G19KT 4SM HZ CLR 18/11 A2989 RMK A01=
KLRU 232115Z AUTO 24027G35KT 10SM CLR 23/M01 A2978 RMK AO2
     T02281010=
KMAN 232115Z AUTO 32010G18KT 290V350 10SM CLR 11/M03 A3001 RMK
     A01=
KO22 232115Z AUTO 24010KT 10SM CLR 17/M06 A2991 RMK A01=
KO32 232115Z AUTO 30005KT 10SM CLR 20/01 A2990 RMK AO2 T01950010
     $=
KONM 232115Z AUTO 20013G20KT 10SM CLR 24/M03 A2967 RMK AO2
     T02431029=
KORS 232115Z AUTO 17005KT 10SM CLR 12/08 A3013 RMK AO2=
KPAN 232115Z AUTO 22015KT 10SM BKN040 BKN049 BKN060 13/03 A2982
     RMK AO2 PWINO TSNO=
KPVF 232115Z AUTO 29007KT 10SM CLR 15/M06 A2995 RMK AO1=
KRPH 232115Z AUTO 16013G25KT 130V210 10SM CLR 31/14 A2965 RMK AO2
     T03060144 $=
KTSP 232115Z AUTO 32016G22KT 7SM CLR 11/M02 A2994 RMK AO2=
KU42 232115Z AUTO 33013G17KT 10SM SCT037 BKN044 OVC070 05/00 A2986
     RMK AO1 T00450000=
