SAUS70 KWBC 231900 RRJ
METAR
KLXN 231855Z AUTO 22029G37KT 5SM HZ CLR 30/02 A2922 RMK AO2
     T03020015=
KMGC 231855Z AUTO 19011G22KT 10SM CLR 25/12 A2993 RMK AO2=
KMJD 231855Z AUTO 15010KT 10SM CLR 26/14 A3008 RMK AO2=
KMLJ 231855Z AUTO 07004KT 10SM CLR 24/09 A3015 RMK AO2=
KMNH 231855Z AUTO 26023G29KT 10SM CLR 14/00 A2947 RMK AO2=
KMQI 231855Z AUTO 01013G20KT 4SM -DZ OVC003 16/16 A3005 RMK AO2
     P0002 T01610157=
KNSE 231856Z AUTO 14006KT 10SM CLR 26/02 A3012 RMK AO2 SLP185
     T02610017 PNO $=
PAEL 231854Z 30017G25KT 10SM -RA OVC021 04/03 A2943 RMK SPB
     E01025KT FIRST SNOW DOWN TO 1500 FEET NOSPECI=
PAEL 231854Z COR 30015KT 10SM -RA OVC021 04/03 A2943 RMK SPB
     E01030KT FIRST SNOW DOWN TO 1500 FEET NOSPECI=
