SACA35 KWBC 232100
METAR
MGGI NIL=
MGPB NIL=
MGSJ NIL=
MHLC 232100Z VRB02KT 9999 SCT024TCU OVC080 27/23 Q1011 A2986
     NOSIG=
MHLM 232100Z 04006KT 9999 SCT028 SCT080 30/22 Q1010 A2983
     NOSIG=
MHTG 232100Z 36006KT 9999 FEW030 SCT034TCU 25/18 Q1015 A2997
     NOSIG=
MNPC NIL=
MPBO NIL=
MPCH NIL=
MPDA 232100Z 21009KT 7000 +RA SCT005 SCT012CB BKN070 26/25
     Q1009=
MPMG NIL=
MPSA NIL=
MPTO 232100Z 29004KT 9000 VCSH SCT008 SCT016CB BKN080 26/24 Q1009
     RETSRA NOSIG=
MRLB NIL=
MRLM 232100Z 09005KT 9999 VCSH FEW020TCU BKN120 29/23 A2980=
MROC 232100Z 24010KT 9999 RA SCT005 BKN010 22/20 A2999 NOSIG=
MRPV 232100Z 13015KT 9999 RA FEW010 SCT025TCU BKN090 23/16 A2995
     NOSIG=
MSLP 232050Z 20004KT 160V240 9999 SCT027 FEW033TCU 30/24 Q1008
     A2978 NOSIG RMK TCU NE NW=
MSSS NIL=
MZBZ NIL=
