SAUS80 KWBC 232126
METAR
KROS 232122Z AUTO 14008G17KT 10SM SCT050 26/14 A2952 RMK AO2=
