SAUS70 KWBC 231800 RRT
METAR
KSAZ 231755Z AUTO 11010G14KT 10SM CLR 22/11 A2951 RMK AO2=
KTWM 231755Z AUTO 09009KT 10SM SCT090 19/11 A2969 RMK AO2=
KUIN 231754Z AUTO 17015G27KT 10SM FEW120 24/14 A2976 RMK AO2 PK
     WND 19029/1739 SLP070 T02390144 10239 20172 58012=
KVTA 231754Z AUTO 19008KT 10SM CLR 25/09 A3016 RMK AO2 SLPNO
     T02500089 10256 20089 58016=
KBLH 231752Z AUTO 34008G16KT 10SM CLR 23/04 A2979 RMK AO2 SLP083
     T02330044 10233 20172 51018 TSNO=
KEPH 231753Z AUTO 34014KT 10SM 11/M04 A3002 RMK AO2 SLP171
     T01111039 10111 20022 51019 $=
KHJO 231753Z AUTO 33018G23KT 2 1/2SM HZ CLR 17/02 A2995 RMK AO2
     VIS 1 1/4V3 SLP143 T01670017 10172 20089 51018=
KLOL 231753Z AUTO 01010KT 10SM FEW060 08/M07 A3004 RMK AO2 SLPNO
     T00781072 51021 $=
KOAK 231753Z 31011KT 10SM CLR 17/04 A3002 RMK AO2 SLP164 T01670039
     10167 20094 50015=
KOVE 231753Z AUTO 32010G18KT 10SM CLR 18/M01 A3002 RMK AO2 SLP169
     T01831011 10183 20094 51017=
KSIY 231753Z AUTO 04006KT 10SM BKN039 08/02 A3015 RMK AO2 SLP226
     I6000 T00830017 10089 21006 51021=
KVGT 231753Z 33019G31KT 10SM CLR 17/M08 A2983 RMK AO2 PK WND
     34032/1714 SLP107 T01671083 10167 20128 50017 $=
KVUO 231753Z AUTO 13004KT 10SM FEW028 FEW055 11/07 A3017 RMK AO2
     SLP216 T01110067 10117 20089 53014 $=
KWVI 231753Z AUTO 19004KT 10SM CLR 14/07 A3001 RMK AO2 SLP161
     T01440072 10144 20050 51017=
KBRO 231753Z 15019G32KT 10SM CLR 33/19 A2985 RMK AO2 PK WND
     16033/1717 SLP107 T03280189 10328 20211 58012=
KFLL 231753Z 07010KT 10SM FEW041 FEW060 28/19 A3004 RMK AO2 SLP171
     T02830194 10289 20206 58012 $=
KJFK 231751Z 02009KT 10SM FEW047 BKN065 OVC120 15/11 A3027 RMK AO2
     RAE46 SLP250 P0001 60001 T01500106 10161 20144 55006=
KMCO 231753Z 35007KT 10SM FEW050 29/14 A3009 RMK AO2 SLP187
     T02890144 10289 20172 58016 $=
KPBI 231753Z 04011KT 10SM SCT045 BKN070 28/18 A3006 RMK AO2 SLP178
     T02830178 10294 20206 58013 $=
TIST 231753Z VRB06KT 10SM SCT030 30/24 A2989 RMK AO2 SLP123
     T03000239 10317 20283 56018=
KEVV 231754Z 18019G26KT 10SM CLR 26/09 A3003 RMK AO2 PK WND
     19028/1732 SLP165 T02610094 10261 20172 58016=
KFBL 231755Z AUTO 14020G25KT 10SM CLR 23/13 A2956 RMK AO2=
KFFM 231755Z AUTO 12017G20KT 10SM CLR 21/12 A2941 RMK AO2=
KGHW 231755Z AUTO 10020G27KT 10SM CLR 22/12 A2946 RMK AO2=
KILN 231754Z AUTO 20011KT 10SM FEW050 24/09 A3014 RMK AO2 SLP201
     T02390089 10239 20133 58016=
KIND 231754Z 19016KT 10SM FEW050 FEW250 24/11 A3003 RMK AO2 PK WND
     19026/1742 SLP165 T02440111 10244 20139 58014 $=
KIPT 231754Z 00000KT 10SM OVC033 17/06 A3027 RMK AO2 SLP250
     T01720061 10172 20017 58016=
KJKJ 231755Z AUTO 10011KT 10SM CLR 22/11 A2942 RMK AO2 TSNO=
KJMR 231755Z AUTO 14010KT 10SM CLR 22/12 A2963 RMK AO2=
KLAF 231754Z 19008G26KT 140V210 10SM CLR 26/12 A2996 RMK AO2 PK
     WND 18028/1721 SLP143 T02560117 10256 20167 58018=
KLDM 231755Z AUTO 16009G16KT 10SM CLR 24/11 A2994 RMK AO2
     T02350111 10235 20132=
KLJF 231755Z AUTO 13020G25KT 10SM CLR 22/11 A2949 RMK AO2=
KLWM 231754Z 08004KT 10SM CLR 16/09 A3036 RMK AO2 SLP282 T01560089
     10156 20067 56008=
KACQ 231755Z AUTO 13020G26KT 10SM CLR 22/12 A2955 RMK AO2=
KAIT 231755Z AUTO 13009G14KT 10SM SCT065 22/11 A2958 RMK AO2=
KAMN 231755Z AUTO 17015G21KT 10SM BKN060 25/09 A3005 RMK AO2
     T02460085 10246 20106=
KBDH 231755Z AUTO 13024G28KT 10SM CLR 23/12 A2947 RMK AO2=
KCOQ 231755Z AUTO 09008KT 10SM CLR 17/09 A2965 RMK AO2 TSNO=
KDXR 231753Z 06006KT 10SM FEW110 16/06 A3029 RMK AO2 SLP256
     T01610056 10161 20106 58017=
KDXX 231755Z AUTO 13021G27KT 10SM CLR 23/12 A2938 RMK AO2=
