SAUS70 KWBC 231622 RRA
METAR
KSLB 231615Z AUTO 16023KT 10SM CLR 21/13 A2946 RMK AO2=
KSNL 231615Z AUTO 18022G29KT 10SM SCT023 23/15 A2976 RMK AO2
     T02340145=
KT35 231615Z AUTO 19018G24KT 10SM SCT050 26/18 A2992 RMK AO2
     T02620179=
KTAZ 231615Z AUTO 18018G24KT 10SM CLR 22/14 A2992 RMK AO2
     T02150135=
KTBR 231615Z AUTO 04005KT 10SM CLR 22/10 A3020 RMK AO2
     T02200103=
KTIF 231615Z AUTO 19015G21KT 10SM CLR 21/01 A2921 RMK AO2
     T02060013=
KTIP 231615Z AUTO 18021G28KT 10SM CLR 23/13 A2995 RMK AO2
     T02260125=
KTQK 231615Z AUTO 22028G40KT 2 1/2SM HZ SCT021 SCT027 26/09 A2939
     RMK AO2 T02650088=
KTVI 231615Z AUTO 08003KT 10SM CLR 21/11 A3020 RMK AO2=
KUNI 231615Z AUTO 00000KT 10SM RA CLR 22/08 A3021 RMK AO2
     T02240082=
KVDI 231615Z AUTO 04005KT 10SM CLR 25/12 A3020 RMK AO2=
KVKS 231615Z AUTO 18013KT 10SM CLR 26/15 A3008 RMK A01=
KVPC 231615Z AUTO 09003KT 10SM CLR 19/05 A3025 RMK AO2=
KVUJ 231615Z AUTO 35007KT 10SM CLR 20/07 A3026 RMK AO2
     T01990067=
KW22 231615Z AUTO 00000KT 1 1/4SM HZ CLR 23/02 A3025 RMK AO2=
KWDR 231615Z AUTO 00000KT 10SM CLR 19/02 A3026 RMK AO2=
KUMP 231615Z AUTO 18014G18KT 10SM CLR 23/13 A3009 RMK AO2
     T02250131=
K2W6 231619Z AUTO 00000KT 10SM SCT015 OVC039 14/12 A3021 RMK
     AO1=
KCGE 231615Z AUTO 01008G15KT 10SM SCT120 17/14 A3018 RMK A01=
KDMW 231615Z AUTO 01006KT 10SM OVC037 16/10 A3027 RMK AO2 LTG DSNT
     S=
KFME 231619Z AUTO 05006KT 10SM BKN050 OVC060 17/08 A3027 RMK
     AO1=
K11R 231615Z AUTO 16010G21KT 10SM SCT060 27/19 A2994 RMK AO2
     T02690192=
K20V 231615Z AUTO 07003KT 10SM SCT014 BKN029 OVC070 02/02 A2953
     RMK AO2=
K2J5 231615Z AUTO 01007KT 10SM CLR 22/11 A3021 RMK AO2
     T02230111=
K8A0 231615Z AUTO 21006KT 10SM CLR 21/03 A3022 RMK AO2=
KAXX 231615Z AUTO 24027G40KT 10SM BKN055 BKN070 OVC090 10/M04
     A2971 RMK AO2 T00991038=
KBMT 231615Z AUTO 14009G14KT 10SM SCT037 BKN046 BKN060 28/17 A3001
     RMK AO2 T02750170=
KCNI 231615Z AUTO 15004KT 10SM CLR 20/03 A3025 RMK AO2
     T01960031=
KDCY 231615Z AUTO 18014G19KT 10SM CLR 23/12 A3006 RMK AO2
     T02320116=
KDED 231615Z AUTO 34007KT 10SM CLR 26/15 A3015 RMK AO2
     T02600154=
KDUX 231615Z AUTO 21023G29KT 10SM CLR 24/10 A2965 RMK AO2
     T02380097=
KETN 231615Z AUTO 18019G26KT 10SM CLR 24/15 A2982 RMK AO2
     T02440154=
KGNB 231615Z AUTO 00000KT 10SM SCT012 BKN017 OVC031 03/02 A2954
     RMK AO2 T00260015=
KHEQ 231615Z AUTO 23016G23KT 10SM CLR 26/00 A2923 RMK AO2=
KHVE 231615Z AUTO 00000KT 10SM SCT043 BKN060 OVC110 05/01 A2964
     RMK AO2=
KHZR 231615Z AUTO 16010G18KT 10SM OVC042 25/15 A3010 RMK AO2
     T02480152=
KJES 231615Z AUTO 09003KT 10SM CLR 20/09 A3020 RMK AO2=
KMHP 231615Z AUTO 08006KT 10SM CLR 23/12 A3020 RMK AO2
     T02270117=
KMQW 231615Z AUTO 13005KT 7SM CLR 23/11 A3020 RMK AO2
     T02320114=
KPEQ 231615Z AUTO 19010G15KT 10SM CLR 28/09 A2977 RMK AO2
     T02760090=
KPXE 231615Z AUTO 02005KT 10SM CLR 23/07 A3022 RMK AO2
     T02260074=
KT20 231615Z AUTO 18017G24KT 10SM BKN030 BKN045 BKN055 27/20 A2992
     RMK AO2 T02730195=
KTMK 231615Z AUTO 00000KT 10SM CLR 06/06 A3014 RMK AO2=
KUKL 231615Z AUTO 19023G33KT 10SM CLR A2963 RMK AO2=
KULS 231615Z AUTO 22035G42KT 4SM HZ CLR 26/05 A2942 RMK AO2=
KVES 231615Z AUTO 19006KT 10SM CLR 21/08 A3015 RMK AO2=
KX26 231615Z AUTO CLR 26/18 A3012 RMK AO2 T02610182=
KADU 231615Z AUTO 16019G27KT 10SM SCT030 SCT050 BKN070 23/13 A2950
     RMK AO2 PWINO=
KAJG 231615Z AUTO 18020G26KT 10SM CLR 25/12 A3002 RMK AO2
     T02460115=
KASW 231615Z AUTO 18008G16KT 130V210 10SM CLR 21/11 A3006 RMK AO2
     T02190117=
