SAUS70 KWBC 231938 RRI
METAR
KRPD 231935Z AUTO 11015G22KT 10SM CLR 23/16 A2963 RMK AO2
     T02310160=
KSDC 231935Z AUTO 12005KT 10SM CLR 20/02 A3023 RMK AO2=
KXVG 231933Z AUTO 12011G17KT 094V154 10SM CLR 23/11 A2952 RMK
     AO2=
K5H4 231935Z AUTO 06018G24KT 10SM CLR 13/01 A2937 RMK AO2=
K7L2 231935Z AUTO 10015KT 10SM CLR 18/10 A2925 RMK AO2=
K9D7 231935Z AUTO 05018G25KT 10SM CLR 13/08 A2944 RMK AO2 TSNO=
KACB 231935Z AUTO 15010G17KT 10SM SCT060 24/11 A2996 RMK AO2
     T02380110=
KAIG 231935Z AUTO 14019G26KT 10SM CLR 21/12 A2980 RMK AO2
     T02070122=
KBAC 231935Z AUTO 09021KT 9SM CLR 22/12 A2933 RMK AO2=
KBBB 231935Z AUTO 17022G30KT 10SM CLR 24/12 A2937 RMK AO2=
KFFX 231935Z AUTO 17009G15KT 10SM SCT050 BKN070 26/12 A2995 RMK
     AO2 T02550115=
KFGN 231935Z AUTO 03010KT 10SM CLR 13/07 A2959 RMK AO2=
KFKA 231935Z AUTO 16022G28KT 10SM CLR 23/13 A2960 RMK AO2
     T02310127=
KFKS 231935Z AUTO 23006G19KT 10SM BKN050 22/12 A2993 RMK AO2
     T02240116=
KFSO 231935Z AUTO 00000KT 10SM CLR 20/06 A3029 RMK AO2
     T01960056=
KHAI 231935Z AUTO 16014G18KT 10SM SCT050 25/11 A3000 RMK AO2
     T02450112=
KHZE 231935Z AUTO 06014G22KT 10SM CLR 12/06 A2933 RMK AO2=
KI68 231935Z AUTO 16009KT 10SM CLR 25/09 A3010 RMK AO1
     T02470092=
KIRS 231935Z AUTO 18016G20KT 10SM CLR 23/09 A3001 RMK AO2
     T02300091=
KISQ 231935Z AUTO 14007KT 10SM SCT050 19/12 A2994 RMK AO2
     T01870115=
KMWM 231935Z AUTO 13022G31KT 10SM CLR 24/12 A2939 RMK AO2=
KPJC 231935Z AUTO RMK AO2 TSNO PWINO=
KPVB 231935Z AUTO 15017G21KT 10SM CLR 24/12 A2971 RMK AO1
     T02410123=
KRNH 231935Z AUTO 14017G25KT 10SM CLR 24/16 A2957 RMK AO2
     T02370163=
KRZL 231935Z AUTO 17016G26KT 10SM CLR 26/11 A2994 RMK AO2=
KRZN 231935Z AUTO 14011G24KT 10SM CLR 23/12 A2959 RMK AO2
     T02310116=
KSLH 231935Z AUTO 16009G15KT 10SM SCT060 23/11 A2999 RMK AO2=
KSPF 231935Z AUTO 30018G29KT 10SM OVC015 05/01 A2938 RMK AO2=
KY19 231935Z AUTO 06013KT 10SM CLR 15/08 A2928 RMK AO2=
K6B9 231935Z AUTO 11006KT 10SM CLR 20/00 A3025 RMK AO2=
KBVI 231935Z AUTO 13004KT 10SM CLR 24/01 A3019 RMK AO2
     T02370006=
KBWP 231935Z AUTO 14023G34KT 9SM CLR 24/12 A2930 RMK AO2=
KBWW 231935Z AUTO 36015KT 10SM OVC012 07/05 A2935 RMK AO2=
KCAD 231935Z AUTO 16014G22KT 10SM SCT048 SCT060 23/11 A2998 RMK
     AO2 T02310107=
KCDI 231935Z AUTO 00000KT 10SM CLR 24/08 A3015 RMK AO2
     T02380079=
KCFJ 231935Z AUTO 19020G25KT 10SM CLR 24/06 A2998 RMK AO2
     T02400063=
KCNB 231935Z AUTO 10024G31KT 10SM CLR 25/11 A2933 RMK AO2
     T02470113=
KD57 231935Z AUTO 05011G19KT 10SM CLR 14/04 A2929 RMK AO2=
KD60 231935Z AUTO 04018KT 10SM OVC009 05/05 A2946 RMK AO2=
KD95 231935Z AUTO 16012G18KT 10SM CLR 24/05 A3010 RMK AO2
     T02440045=
KDTL 231935Z AUTO 13016G28KT 10SM CLR 23/12 A2940 RMK AO2=
KDUH 231935Z AUTO 16007G17KT 10SM CLR 24/06 A3008 RMK AO2
     T02380063=
KEFK 231935Z AUTO 36003KT 10SM CLR 18/07 A3032 RMK AO2
     T01830068=
KGWR 231935Z AUTO 12022G35KT 7SM CLR 23/13 A2928 RMK A01=
KI23 231935Z AUTO 18009G14KT 10SM CLR 24/06 A3012 RMK AO1=
KIDI 231935Z AUTO 00000KT 10SM CLR 21/03 A3025 RMK A01=
KMOX 231935Z AUTO 13028G33KT 10SM CLR 23/09 A2937 RMK AO2=
KONZ 231935Z AUTO 16006KT 10SM BKN100 OVC110 22/05 A3010 RMK AO2
     T02240049=
KOXD 231935Z AUTO 20006KT 10SM CLR 26/05 A3008 RMK AO2
     T02620046=
KRNP 231935Z AUTO 15015G21KT 10SM CLR 24/08 A3005 RMK AO2
     T02410079=
KRYV 231935Z AUTO 15013G23KT 10SM SCT043 23/12 A2979 RMK AO2
     T02280117=
KS32 231935Z AUTO 09020G25KT 10SM CLR 20/09 A2936 RMK AO2 TSNO=
KTOB 231935Z AUTO 15024G31KT 10SM CLR 24/12 A2956 RMK AO2=
