SAUS70 KWBC 231618 RRD
METAR
KSLH 231615Z AUTO 15008KT 10SM CLR 21/12 A3004 RMK AO2=
K0E0 231615Z AUTO 24022G29KT 10SM SCT065 17/00 A2977 RMK AO2
     T01710000 TSNO=
K6S2 231615Z AUTO 00000KT 10SM FEW002 06/06 A3016 RMK AO2=
KAQP 231613Z AUTO 18017G23KT 10SM CLR 20/11 A2944 RMK AO2=
KBEA 231615Z AUTO 16018G23KT 10SM SCT033 SCT050 28/18 A2990 RMK
     AO2 T02830176=
KBVU 231615Z AUTO 34011KT 10SM CLR 15/M00 A2984 RMK AO2=
KCLS 231615Z AUTO 00000KT 10SM OVC006 03/03 A3012 RMK AO2=
KCVH 231615Z AUTO 00000KT 10SM CLR 11/06 A3001 RMK A01=
KF70 231615Z AUTO 17009KT 10SM SCT033 14/08 A2989 RMK AO2=
KHAF 231615Z AUTO 35010KT 7SM CLR 13/08 A3001 RMK AO2=
KJAQ 231615Z AUTO 00000KT 10SM CLR 11/00 A2993 RMK AO1
     T01091005=
KJSO 231615Z AUTO 19010G22KT 10SM BKN029 BKN035 BKN045 25/18 A2998
     RMK AO2 T02450177 TSNO=
KL08 231615Z AUTO 16007KT 10SM CLR 20/02 A2980 RMK AO2=
KL18 231615Z AUTO 15005KT 10SM SCT040 SCT048 15/12 A2989 RMK
     AO2=
KL35 231615Z AUTO 26006KT 10SM CLR 04/M03 A2992 RMK AO2=
KL52 231615Z AUTO 35004KT 9SM CLR 15/07 A2993 RMK A01=
KLRU 231615Z AUTO 24022G29KT 10SM SCT042 SCT049 SCT070 22/08 A2984
     RMK AO2 T02190082=
KO32 231615Z AUTO 33005KT 8SM CLR 11/04 A2991 RMK AO2 T01090037
     $=
KSNK 231615Z AUTO 19017G23KT 10SM CLR 23/12 A2978 RMK AO2
     T02330123=
KSRR 231615Z AUTO 25027G42KT 10SM 16/05 A2982 RMK AO2=
KTVY 231615Z AUTO 09005KT 4SM -SN BKN029 BKN034 OVC048 01/01 A2978
     RMK AO2 P0001=
K20U 231615Z AUTO 06014KT 10SM OVC009 06/05 A2943 RMK AO2=
K3D2 231615Z AUTO 19009G19KT 10SM CLR 16/11 A2994 RMK AO2
     T01570106=
KAIT 231615Z AUTO 14006KT 10SM SCT065 18/11 A2962 RMK AO2=
KAMN 231615Z AUTO 17008KT 10SM SCT055 21/11 A3008 RMK AO2
     T02090106=
KBDH 231615Z AUTO 13022G26KT 10SM CLR 21/12 A2953 RMK AO2=
KBWP 231615Z AUTO 15020G25KT 10SM CLR 19/11 A2942 RMK AO2=
KC29 231615Z AUTO 16013G17KT 10SM CLR 21/12 A2983 RMK AO1
     T02060119=
KCBG 231615Z AUTO 00000KT 10SM CLR 22/11 A2962 RMK AO2=
KCFJ 231615Z AUTO 16014G21KT 10SM CLR 22/08 A3004 RMK AO2
     T02200080=
KCOQ 231615Z AUTO 11006KT 10SM BKN080 14/09 A2967 RMK AO2 TSNO=
KD25 231615Z AUTO 13007G16KT 100V160 10SM BKN110 17/12 A2982 RMK
     AO2 T01740115=
KD57 231615Z AUTO 11/70833312G21KT 10SM FEW014 08/03 A2936 RMK
     AO2=
KD60 231615Z AUTO 07017KT 10SM OVC008 04/04 A2953 RMK AO2=
KDLZ 231615Z AUTO 17006KT 10SM CLR 20/09 A3019 RMK AO2=
KDRM 231615Z AUTO 17006KT 10SM CLR 18/11 A3008 RMK AO2
     T01770107=
KDXX 231615Z AUTO 14022G26KT 10SM CLR 20/12 A2944 RMK AO2=
KEKM 231615Z AUTO 17010G20KT 110V200 9SM CLR 21/13 A3005 RMK AO2
     T02110130=
KELO 231615Z AUTO 14010KT 10SM CLR 18/08 A2971 RMK AO2=
KFBL 231615Z AUTO 14015G19KT 10SM CLR 21/12 A2961 RMK AO2=
KFFM 231615Z AUTO 13017G20KT 10SM CLR 18/11 A2946 RMK AO2=
KFSE 231615Z AUTO 14009KT 10SM CLR 17/08 A2953 RMK AO2=
KGYL 231615Z AUTO 12016G21KT 7SM CLR 21/12 A2956 RMK AO2
     T02050119=
KJMR 231615Z AUTO 15010G14KT 10SM SCT060 20/11 A2967 RMK AO2=
KMDS 231615Z AUTO 14024G33KT 10SM CLR 18/14 A2935 RMK AO2=
KN38 231615Z AUTO 17009KT 10SM CLR 15/04 A3029 RMK AO2=
KOCQ 231615Z AUTO 16011KT 10SM CLR 18/12 A2990 RMK AO1
     T01770123=
PAAD 231615Z AUTO 10016KT 10SM OVC005 M08/M09 A3002 RMK AO2
     T10851093=
PAUT 231615Z AUTO 19006KT 10SM CLR 05/03 A3025 RMK AO2=
K06D 231615Z AUTO 07017G23KT 10SM OVC005 06/06 A2957 RMK AO2=
K2D5 231615Z AUTO 08017KT 8SM CLR 14/07 A2939 RMK AO2=
K2P2 231615Z AUTO 19009G15KT 10SM CLR 14/12 A2996 RMK AO2
     T01440119=
K46D 231615Z AUTO 07014G22KT 10SM CLR 12/06 A2946 RMK AO2=
K5H4 231615Z AUTO 07017G25KT 10SM CLR 09/M03 A2948 RMK AO2=
