SAUS80 KWBC 232100
METAR
KM25 232055Z AUTO 19010G17KT 10SM CLR 26/06 A3000 RMK AO2
     PWINO=
