SAUS70 KWBC 232000 RRA
METAR
KY49 231955Z AUTO 08007KT 050V120 10SM CLR 20/11 A2950 RMK AO2
     T02030109=
PAJC 231957Z AUTO 23008KT 10SM BKN036 07/00 A3018 RMK AO2 SLP220
     T00720000 PNO $=
KAFJ 231956Z AUTO VRB03KT 10SM CLR 23/04 A3021 RMK AO2 SLP228
     T02280039=
KAXV 231955Z AUTO 15012G15KT 10SM CLR 23/08 A3008 RMK AO2=
KBVI 231955Z AUTO 12003KT 10SM CLR 24/01 A3018 RMK AO2
     T02410014=
KCDI 231955Z AUTO 08003KT 10SM CLR 24/08 A3014 RMK AO2
     T02380078=
KD95 231955Z AUTO 17014G21KT 10SM CLR 24/04 A3009 RMK AO2
     T02400038=
KEDJ 231955Z AUTO 17012KT 10SM FEW055 24/09 A3011 RMK A01=
KEEN 231956Z AUTO 00000KT 10SM CLR 13/09 A3033 RMK AO2 SLP279
     T01280089 $=
KESC 231956Z AUTO 16012KT 10SM FEW065 16/11 A2992 RMK AO2 SLP135
     T01610111 PNO $=
KFRM 231956Z AUTO 15030G36KT 10SM CLR 25/13 A2941 RMK AO2 PK WND
     15036/1956 SLP958 T02500133=
KHAI 231955Z AUTO 17012G23KT 140V200 10SM SCT050 24/11 A3000 RMK
     AO2 T02420110=
KI69 231955Z AUTO 17009G14KT 10SM CLR 25/08 A3011 RMK AO2
     T02470079=
KRNP 231955Z AUTO 16011G18KT 10SM CLR 24/08 A3005 RMK AO2
     T02400080=
KSFZ 231956Z AUTO 03007KT 10SM -RA FEW047 SCT070 OVC120 13/12
     A3031 RMK AO2 SLP265 P0001 T01280117=
KUCP 231956Z AUTO 10006KT 10SM CLR 23/03 A3018 RMK AO2 SLP234
     T02330033=
KUGN 231955Z 15008KT 10SM CLR 21/13 A2983 RMK AO2 SLP094
     T02110128=
KWVL 231956Z AUTO 00000KT 10SM CLR 17/09 A3034 RMK AO2 SLP302
     T01670089=
KWWD 231956Z AUTO 04014G20KT 5SM -RA BR 16/15 A3016 RMK AO2 SLP214
     P0000 T01560150 $=
K3N8 231955Z AUTO 11015G23KT 10SM CLR 23/12 A2940 RMK AO2
     T02310116=
KAJO 231956Z AUTO 31004KT 10SM FEW043 21/09 A2985 RMK AO2 SLP104
     T02060094=
KCGZ 231956Z AUTO 27013G20KT 10SM FEW055 23/08 A2977 RMK AO2
     SLP070 T02280083 $=
KCMA 231955Z 24007G15KT 10SM FEW040 SCT047 22/11 A2986 RMK AO2
     SLP118 T02170106=
KCTB 231956Z AUTO 34022KT 5SM -SN BR BKN010 BKN014 OVC019 00/M01
     A2991 RMK AO2 PK WND 34030/1931 CIG 007V011 SLP156 P0003
     T00001006 $=
KDIJ 231956Z AUTO 30006KT 10SM BKN026 OVC047 01/M04 A2976 RMK AO2
     SNE01 SLP094 P0000 T00061044=
KENV 231956Z AUTO 31022G32KT 10SM CLR 08/M09 A2987 RMK AO2 PK WND
     31032/1956 SLP117 T00831089=
KGUC 231956Z AUTO 26021G29KT 10SM BKN060 04/M07 A2960 RMK AO2 PK
     WND 24031/1940 SLP977 T00441072=
KHND 231956Z 35017KT 10SM CLR 18/M11 A2987 RMK AO2 SLP120
     T01781111=
KMRF 231956Z AUTO 21010G20KT 10SM CLR 27/07 A2987 RMK AO2 SLP052
     T02720067=
KOCH 231956Z AUTO 16014G21KT 10SM BKN065 28/14 A2990 RMK AO2
     SLP125 T02830139=
KPRX 231956Z AUTO 18018G24KT 10SM BKN048 30/16 A2981 RMK AO2 PK
     WND 17029/1929 SLP089 T03000161=
KPWG 231956Z AUTO 16022G29KT 10SM BKN050 30/17 A2980 RMK AO2 PK
     WND 15030/1859 SLPNO T03000167=
KSDY 231956Z AUTO 02010KT 9SM OVC007 06/04 A2948 RMK AO2 SLP996
     T00560044 PNO $=
KSKX 231956Z AUTO 29018G23KT 10SM -RA FEW016 BKN037 OVC045 06/03
     A2973 RMK AO2 PK WND 28028/1922 SLP035 P0001 T00560033=
KWHP 231950Z 28023G30KT 10SM SKC 22/M02 A2987 RMK OBSERVER HT=
K3N8 231955Z AUTO 11015G23KT 10SM CLR 23/12 A2940 RMK AO2
     T02310116=
K6B0 231955Z AUTO 00000KT 10SM CLR 18/08 A3030 RMK AO2
     T01830077=
KAEL 231955Z AUTO 15019G30KT 10SM CLR 24/13 A2951 RMK AO2=
KBID 231956Z AUTO 05012G19KT 7SM -RA BKN070 OVC100 13/10 A3027 RMK
     AO2 SLP250 P0004 T01280100=
KBLM 231956Z AUTO 02009KT 7SM -RA OVC030 14/14 A3023 RMK AO2
     SLP236 P0001 T01390139=
KBMI 231956Z 17025G31KT 10SM FEW041 24/15 A2984 RMK AO2 PK WND
     16032/1918 SLP098 T02390150=
