SAUS70 KWBC 232000 RRQ
METAR
KUIN 231954Z AUTO 17014G27KT 10SM CLR 26/14 A2970 RMK AO2 PK WND
     17027/1912 SLP052 T02610144=
KFBL 231955Z AUTO 14021G29KT 10SM CLR 24/13 A2951 RMK AO2=
KGYL 231955Z AUTO 13022G30KT 7SM CLR 24/13 A2945 RMK AO2
     T02430126=
KIPT 231954Z 28003KT 10SM OVC043 18/08 A3024 RMK AO2 SLP242
     T01830083=
KISW 231954Z AUTO 14015G30KT 10SM CLR 23/12 A2974 RMK AO2 PK WND
     14030/1946 SLP066 T02330122=
KMFI 231954Z AUTO 16016G27KT 10SM CLR 23/13 A2971 RMK AO2 PK WND
     17031/1903 SLP057 T02280128=
KMGG 231955Z AUTO 11011G25KT 10SM SCT048 SCT055 24/12 A2948 RMK
     AO2 T02410115 PWINO=
KMOT 231954Z 03019G27KT 10SM BKN020 11/05 A2941 RMK AO2 PK WND
     03028/1935 SLP965 T01110050 $=
KOVL 231955Z AUTO 14026G33KT 5SM HZ CLR 24/12 A2939 RMK AO2=
KPHL 231954Z 05013G20KT 10SM -RA SCT030 BKN044 OVC095 16/12 A3021
     RMK AO2 RAB49 SLP229 P0000 T01610122 $=
KPSF 231954Z AUTO 00000KT 10SM CLR 16/01 A3029 RMK AO2 SLP250
     T01610011=
KRDG 231954Z 03007KT 10SM R36/3000V4000FT FEW060 17/09 A3023 RMK
     AO2 SLP244 T01720089 $=
KROX 231955Z AUTO 07019KT 10SM CLR 17/09 A2952 RMK AO2=
KSGS 231955Z AUTO 14015G21KT 10SM CLR 25/12 A2952 RMK AO2
     T02480116=
KTEW 231955Z AUTO 16014KT 10SM SCT060 25/09 A3005 RMK AO2
     T02450093=
KVAY 231954Z AUTO 02006KT 3SM -RA BR OVC025 15/13 A3021 RMK AO2
     RAB16 SLP230 P0004 T01500128 $=
KVSF 231954Z AUTO 00000KT 10SM CLR 16/07 A3033 RMK AO2 SLP276
     T01610072=
KGCN 231954Z 27010G22KT 240V310 10SM FEW050 FEW060 06/M06 A2982
     RMK AO2 SLP051 T00611056=
KHAF 231955Z AUTO 33016KT 8SM CLR 15/08 A3002 RMK AO2=
KLWT 231954Z AUTO 29016G27KT 3/4SM -SN BR BKN003 OVC007 M01/M02
     A2970 RMK AO2 PK WND 29028/1940 SLP079 P0000 T10061017 $=
KOLS 231954Z AUTO 23012G18KT 10SM CLR 21/07 A2986 RMK AO2 SLP056
     T02060072=
KOMK 231953Z AUTO 02010KT 10SM CLR 13/M02 A3004 RMK AO2 SLP179
     T01331022=
KONO 231953Z AUTO 32016G23KT 10SM CLR 13/M02 A3002 RMK AO2 SLP170
     T01281022=
KRKS 231954Z AUTO 29013G24KT 10SM FEW044 SCT055 BKN110 02/M04
     A2964 RMK AO2 SLP035 T00171039=
KSLC 231954Z 33016KT 10SM FEW030 BKN047 06/M02 A2982 RMK AO2
     SLP089 VIRGA SH DSNT S T00611017 $=
KTAD 231954Z AUTO 25025G38KT 10SM BKN095 21/M01 A2948 RMK AO2 PK
     WND 25038/1949 SLP901 T02111011=
KFSE 231955Z AUTO 12013G20KT 10SM CLR 23/10 A2944 RMK AO2=
KHCO 231955Z AUTO 08015KT 10SM CLR 19/10 A2946 RMK AO2=
KILN 231954Z AUTO 16005KT 10SM CLR 24/08 A3010 RMK AO2 SLP190
     T02390078=
KIND 231954Z 18017KT 10SM FEW055 26/09 A3000 RMK AO2 PK WND
     19028/1939 SLP153 T02560094 $=
KIZG 231954Z AUTO 00000KT 10SM CLR 17/07 A3036 RMK AO2 SLP282
     T01670072=
KJMR 231955Z AUTO 14013G20KT 10SM SCT045 24/12 A2957 RMK AO2=
KMGJ 231954Z AUTO 01005KT 10SM CLR 14/07 A3028 RMK AO2 SLP254
     T01440067=
KMIC 231953Z 13016G42KT 10SM CLR 25/13 A2949 RMK AO2 PK WND
     15042/1950 SLP981 T02500128=
KMVE 231955Z AUTO 15016G31KT 10SM CLR 24/13 A2935 RMK AO2=
KPNE 231954Z 05010KT 10SM -RA SCT040 BKN047 OVC110 17/10 A3024 RMK
     AO2 RAB47 SLP238 P0000 T01670100=
KRGK 231955Z AUTO 13014KT 10SM CLR 24/12 A2954 RMK AO2=
KTWM 231955Z AUTO 07016G20KT 10SM CLR 19/11 A2965 RMK AO2=
K05U 231955Z AUTO 33013KT 1 1/2SM HZ 00/M02 A2999 RMK A01
     P0001=
K0A0 231955Z AUTO 22021G30KT 10SM FEW070 22/04 A2975 RMK AO2=
K0A9 231955Z AUTO 27006KT 6SM HZ CLR 23/04 A3015 RMK A01=
K0F2 231955Z AUTO 18019G31KT 10SM CLR 29/15 A2970 RMK AO2 P0001
     T02910148=
K0R0 231955Z AUTO 16005G14KT 10SM CLR 29/10 A3007 RMK AO2=
K1A9 231955Z AUTO 06003KT 10SM CLR 25/06 A3011 RMK AO2
     T02510056=
