SAUS70 KWBC 231640 RRC
METAR
KJCA 231635Z AUTO 13006KT 10SM CLR 21/05 A3024 RMK AO2
     T02080052=
KJDD 231635Z AUTO 16009KT 10SM BKN028 OVC034 25/18 A2992 RMK
     AO2=
KJYG 231637Z AUTO 15019G27KT 10SM CLR 21/12 A2949 RMK AO2=
KK88 231635Z AUTO 17023G31KT 10SM CLR 25/14 A2968 RMK AO1
     T02490140=
KLHB 231635Z AUTO 16015G22KT 10SM BKN028 BKN033 BKN049 27/19 A2994
     RMK AO2 T02720193=
KLHM 231635Z AUTO 34011KT 10SM CLR 12/01 A2997 RMK AO1=
KLNN 231635Z AUTO 10SM CLR 24/04 A3019 RMK AO1 T02350037=
KLUA 231635Z AUTO 04004KT 10SM CLR 16/05 A3027 RMK AO2=
KLUD 231635Z AUTO 17018G27KT 7SM CLR 25/16 A2981 RMK AO2
     T02530157=
KLUL 231635Z AUTO 14009KT 10SM CLR 24/13 A3017 RMK A02
     T02390128=
KMGR 231635Z AUTO 04005KT 10SM CLR 22/11 A3019 RMK AO2=
KMKS 231635Z AUTO 36004KT 10SM CLR 20/10 A3017 RMK AO2=
KMPR 231635Z AUTO 17027G33KT 7SM CLR 25/13 A2953 RMK AO2
     T02540126=
KMWK 231635Z AUTO 33003KT 10SM CLR 19/05 A3025 RMK AO2
     T01850051=
KMWO 231635Z AUTO 19011KT 10SM CLR 23/09 A3016 RMK AO2
     T02270089=
KMZZ 231635Z AUTO 20017G22KT 7SM CLR 23/12 A3009 RMK AO2
     T02260116=
KN03 231635Z AUTO 15005KT 10SM CLR 17/02 A3031 RMK AO2=
KOLE 231635Z AUTO 19005KT 10SM CLR 15/02 A3028 RMK AO2=
KOLY 231635Z AUTO 17016G23KT 10SM BKN039 23/11 A3001 RMK AO2
     T02340112=
KONX 231635Z AUTO 33007KT 2SM RA OVC004 16/16 A3011 RMK AO2 P0022
     T01600160=
KOQN 231635Z AUTO 05005KT 10SM SCT080 SCT120 16/08 A3025 RMK
     AO2=
KBVU 231635Z AUTO 34011KT 10SM CLR 15/M04 A2984 RMK AO2=
KBXK 231635Z AUTO 24009KT 10SM BKN070 20/10 A2980 RMK A01=
KCLS 231635Z AUTO 00000KT 3SM BR OVC005 03/03 A3012 RMK AO2=
KF70 231635Z AUTO 18011KT 10SM CLR 15/07 A2988 RMK AO2=
KJTC 231635Z AUTO 23024G31KT 10SM CLR 14/M02 A2982 RMK AO2=
KL08 231635Z AUTO 15006KT 3SM HZ CLR 20/01 A2980 RMK AO2=
KL35 231635Z AUTO 25007KT 10SM CLR 04/M05 A2992 RMK AO2=
KL52 231635Z AUTO 00000KT 8SM CLR 15/07 A2993 RMK A01=
KLRU 231635Z AUTO 25025G32KT 10SM SCT049 SCT055 22/08 A2984 RMK
     AO2 T02150076=
KMAN 231635Z AUTO 31009G14KT 10SM CLR 06/00 A2997 RMK A01=
KO22 231635Z AUTO VRB03KT 10SM CLR 12/M02 A2993 RMK A01=
KO32 231635Z AUTO 31004KT 8SM CLR 12/04 A2992 RMK AO2 T01200036
     $=
KONM 231635Z AUTO 19009KT 10SM CLR 20/00 A2976 RMK AO2
     T02030004=
KORS 231635Z AUTO 00000KT 10SM SCT015 SCT028 08/08 A3009 RMK
     AO2=
KPAN 231635Z AUTO 22007KT 10SM BKN019 BKN029 OVC039 11/07 A2986
     RMK AO2 PWINO TSNO=
KPVF 231635Z AUTO 00000KT 10SM CLR 10/M05 A2996 RMK AO1=
KRPH 231635Z AUTO 17015G22KT 140V220 6SM HZ CLR 26/16 A2976 RMK
     AO2 T02580159 $=
KTME 231635Z AUTO 17015G21KT 10SM FEW044 SCT049 BKN060 29/17 A2997
     RMK AO2=
KTSP 231635Z AUTO 28011KT 8SM CLR 07/01 A2994 RMK AO2=
KU42 231635Z AUTO 32014KT 10SM BKN075 03/02 A2975 RMK AO1
     T00250021=
K1V6 231635Z AUTO 27011G19KT 10SM SCT080 SCT100 20/00 A2942 RMK
     AO2=
K5T9 231635Z AUTO 13011KT 10SM OVC017 24/20 A2984 RMK A01=
K82V 231635Z AUTO 32022G26KT 10SM SCT120 13/M01 A2933 RMK AO2=
KAVQ 231635Z AUTO 19003KT 10SM CLR 21/10 A2982 RMK AO2
     T02120098=
KAXH 231635Z AUTO 16010G17KT 10SM CLR 30/14 A2998 RMK AO2
     T02980138=
KBDU 231635Z AUTO 35009KT 10SM SCT095 17/M02 A2931 RMK AO2=
KCXP 231635Z AUTO 00000KT 10SM CLR 02/M03 A3004 RMK AO2=
KDZB 231635Z AUTO 19011G19KT 10SM SCT029 OVC036 25/17 A2991 RMK
     AO2 T02460166=
KERV 231635Z AUTO 16015G23KT 10SM BKN025 23/17 A2992 RMK AO2
     T02340171=
KF05 231635Z AUTO 20024G30KT 10SM CLR 29/12 A2969 RMK AO2
     T02900124=
KF17 231635Z AUTO 18016G23KT 10SM SCT050 27/13 A3000 RMK AO2=
KFOT 231630Z AUTO 30005KT 6SM CLR 10/10 A3014 RMK AO1=
