SAUS70 KWBC 231800 RRB
METAR
K3N8 231755Z AUTO 12009G17KT 10SM CLR 21/11 A2947 RMK AO2
     T02050106 10205 20058=
KAJO 231756Z AUTO 00000KT 10SM FEW026 19/12 A2988 RMK AO2 SLP111
     T01890117 10189 20111 50010=
KCMA 231755Z 00000KT 10SM CLR 20/08 A2987 RMK AO2 SLP122 T02000083
     10206 20106 50014=
KFNL 231756Z 12013KT 10SM BKN090 21/M02 A2930 RMK AO2 SLP870
     T02061022 10206 20067 58002=
KGDV 231756Z AUTO 02010KT 10SM OVC008 07/06 A2945 RMK AO2 SLP979
     60001 T00670056 10067 20061 55001=
KGTU 231756Z 17017G25KT 10SM BKN044 28/16 A2989 RMK AO2 PK WND
     18027/1743 SLP116 T02780161 10278 20206 58012=
KGXY 231756Z 04009G20KT 5SM HZ FEW120 20/M02 A2930 RMK AO2 SLP899
     T02001022 10206 20039 58000 $=
KHDN 231756Z AUTO 28010KT 1SM -SN BR BKN003 OVC009 00/00 A2959 RMK
     AO2 SLP011 P0001 60005 T00000000 10011 21006 53003 FZRANO=
KHYI 231756Z 18019G26KT 10SM OVC015 28/18 A2989 RMK AO2 PK WND
     17027/1746 SLPNO T02800180 $=
KJAC 231756Z 28011G16KT 10SM BKN030 OVC070 01/M06 A2967 RMK AO2
     UPB09E18SNE09 SLP066 6//// T00061056 10011 21017 51017 PNO
     $=
KLVS 231753Z AUTO 23035G48KT 10SM FEW085 16/M02 A2970 RMK AO2 PK
     WND 22051/1713 SLP958 T01611017 10167 20111 55008=
KVIS 231756Z AUTO 32007KT 10SM CLR 16/04 A2996 RMK AO2 SLP152
     T01560039 10156 20072 51018=
K06D 231755Z AUTO 05020G27KT 10SM BKN009 OVC013 08/06 A2953 RMK
     AO2=
K2D5 231755Z AUTO 08020G28KT 9SM CLR 17/09 A2933 RMK AO2=
K46D 231755Z AUTO 08017G22KT 10SM CLR 15/06 A2940 RMK AO2=
K5H4 231755Z AUTO 06018G23KT 10SM CLR 11/M02 A2943 RMK AO2=
K6B9 231755Z AUTO VRB05KT 10SM CLR 19/03 A3026 RMK AO2=
K96D 231755Z AUTO 03011G16KT 10SM OVC016 11/11 A2955 RMK AO2=
K9D7 231755Z AUTO 06018G25KT 10SM CLR 11/07 A2950 RMK AO2 TSNO=
KAIG 231755Z AUTO 14015G19KT 10SM CLR 20/12 A2983 RMK AO2
     T02030123 10203 20096=
KAKR 231754Z AUTO VRB04KT 9SM CLR 24/04 A3018 RMK AO2 SLP216
     T02390044 10239 20089 58010=
KAUM 231756Z AUTO 16013G23KT 10SM CLR 23/13 A2958 RMK AO2=
KGAI 231756Z AUTO VRB04KT 10SM FEW047 OVC060 17/11 A3024 RMK AO2
     SLP253 T01720111 10172 20061 58011=
KMDS 231755Z AUTO 15021G30KT 10SM CLR 21/13 A2931 RMK AO2=
KMOT 231754Z 04018G26KT 10SM OVC008 08/05 A2946 RMK AO2 PK WND
     03027/1740 SLP986 T00830050 10083 20061 58017 $=
KN38 231755Z AUTO 19006G11KT 10SM CLR 16/03 A3027 RMK AO2=
KOCQ 231755Z AUTO 15012G16KT 10SM CLR 19/12 A2988 RMK AO1
     T01880121 10189 20102=
KOLG 231755Z AUTO 15009G14KT 10SM SCT070 22/10 A2967 RMK AO1=
KPLN 231754Z AUTO 18014G21KT 10SM CLR 24/11 A3002 RMK AO2 SLP163
     T02390106 10239 20072 58009 $=
KPVB 231755Z AUTO 15018KT 10SM CLR 23/12 A2976 RMK AO1 T02260120
     10229 20143=
KRNH 231755Z AUTO 13012G19KT 10SM CLR 23/16 A2962 RMK AO2
     T02250161 10225 20137=
K04W 231755Z AUTO 11012G16KT 10SM CLR 22/12 A2961 RMK AO2=
K21D 231755Z AUTO 15012G22KT 10SM CLR 22/12 A2961 RMK AO2=
K22N 231755Z AUTO 00000KT 10SM OVC050 15/05 A3028 RMK AO2=
KAXV 231755Z AUTO 19012G20KT 10SM CLR 23/10 A3011 RMK AO2=
KBHB 231756Z AUTO 12004KT 10SM CLR 17/11 A3037 RMK AO2 SLP285
     6//// T01670111 10167 20067 58012 PNO $=
KBID 231756Z AUTO 04013G18KT 10SM -RA FEW033 SCT041 BKN047 14/12
     A3026 RMK AO2 SLP249 P0001 60002 T01390117 10144 20139
     58018=
KCAD 231755Z AUTO 16008KT 10SM SCT047 BKN050 22/11 A2999 RMK AO2
     T02180112 10220 20126=
KFOD 231756Z AUTO 15020G29KT 10SM CLR 24/13 A2950 RMK AO2 PK WND
     15029/1756 SLP995 T02440133 10244 20150 58021=
KHAI 231755Z AUTO 17014G17KT 10SM CLR 24/12 A3003 RMK AO2
     T02390116 10239 20155=
KI69 231755Z AUTO 20008G14KT 10SM CLR 24/09 A3015 RMK AO2
     T02350091 10240 20135=
