SACA35 KWBC 231900
METAR
MGGI NIL=
MGPB NIL=
MGSJ NIL=
MHLC 231900Z 33007KT 9999 FEW030 BKN080 29/22 Q1012 A2989
     NOSIG=
MHLM 231900Z 03005KT 9999 SCT028 BKN080 29/22 Q1012 A2989
     NOSIG=
MHTG 231900Z 36006KT 9999 SCT030 SCT034TCU 26/18 Q1017 A3003
     NOSIG=
MNPC NIL=
MPBO NIL=
MPCH NIL=
MPDA NIL=
MPMG NIL=
MPSA NIL=
MPTO 231900Z 24009KT 5000 +TSRA SCT005 SCT014CB BKN070 25/24 Q1011
     TEMPO 4800 TSRA=
MRLB 231900Z 10006KT 040V160 9999 FEW040 33/24 A2978=
MRLM 231900Z 13006KT CAVOK 28/23 A2984=
MROC 231900Z 12006KT 060V200 9999 BKN040 27/18 A2999 NOSIG=
MRPV 231900Z 10009KT 9999 FEW030 BKN080 25/16 A2998 NOSIG=
MSLP 231850Z 18005KT 120V240 9999 SCT045 SCT070 31/24 Q1010 A2983
     NOSIG=
MSSS NIL=
MZBZ 231900Z 06005KT 9999 FEW027 SCT045 29/23 A2991 Q1013
     NOSIG=
