SAUS70 KWBC 232100 RRN
METAR
KHPN 232056Z 06011KT 10SM -DZ OVC046 15/07 A3025 RMK AO2
     RAB17E56DZB56 SLP243 P0000 60000 T01500072 58004 $=
KHPT 232055Z AUTO 15013G24KT 10SM SCT033 SCT050 SCT080 23/12 A2954
     RMK AO2=
KHWV 232056Z AUTO VRB06KT 8SM -RA FEW030 BKN036 OVC055 13/11 A3024
     RMK AO2 RAE13B50 SLP240 P0000 60027 T01330106 58007=
KI63 232055Z AUTO 16019G26KT 10SM CLR 24/14 A2973 RMK AO2 LTG DSNT
     NW T02420140=
KI74 232055Z AUTO 17008KT 10SM CLR 23/09 A3009 RMK AO2=
KIBM 232055Z AUTO 33020G27KT 10SM BKN110 11/01 A2941 RMK AO2
     T01110007=
KICL 232055Z AUTO 18016G35KT 10SM CLR 27/14 A2942 RMK AO2=
KIDP 232055Z AUTO 17029G35KT 10SM CLR 28/16 A2961 RMK AO2 LTG DSNT
     N T02810156=
KIKK 232055Z AUTO 18019G27KT 10SM CLR 26/12 A2988 RMK AO2 LTG DSNT
     NW T02550117=
KIKV 232055Z AUTO 15013KT 10SM FEW110 28/14 A2948 RMK AO2=
KISP 232056Z 04012KT 10SM FEW036 BKN045 OVC055 13/12 A3023 RMK AO2
     RAB1957E47 SLP236 P0000 60000 T01330117 58007=
K06C 232055Z AUTO 17017G26KT 10SM SCT120 25/16 A2982 RMK AO2
     T02460158=
K0R4 232055Z AUTO 15012KT 10SM SCT065 28/15 A2999 RMK AO2
     T02840148=
K1R8 232055Z AUTO VRB05KT 10SM CLR 27/07 A3006 RMK AO2=
K33V 232055Z AUTO 34017G22KT 1/4SM OVC002 M03/M03 A2955 RMK
     AO1=
K3K3 232055Z AUTO 22031G38KT 7SM SCT028 BKN037 BKN046 28/02 A2936
     RMK AO2=
K49A 232055Z AUTO 00000KT 10SM CLR 23/01 A3017 RMK AO2
     T02320011=
K4O4 232055Z AUTO 15014G23KT 8SM BKN050 OVC055 28/15 A2981 RMK
     AO2=
K66R 232055Z AUTO 15011G17KT 10SM SCT047 SCT055 OVC065 29/17 A2986
     RMK AO2 T02900173=
K74V 232055Z AUTO 14006KT 10SM 06/00 A2971 RMK AO2=
KADU 232055Z AUTO 16019G26KT 10SM SCT002 SCT033 BKN055 27/13 A2943
     RMK AO2 PWINO=
KAFK 232055Z AUTO 19031G37KT 10SM SCT120 28/14 A2940 RMK AO2 LTG
     DSNT NE AND E T02780139=
KAIO 232055Z AUTO 17023G34KT 9SM CLR 28/16 A2941 RMK AO2=
KAJG 232055Z AUTO 16019G26KT 10SM CLR 26/09 A2995 RMK AO2
     T02600094=
KAJR 232055Z AUTO 00000KT 7SM CLR 23/03 A3015 RMK AO2
     T02340025=
KAJZ 232055Z AUTO 28017G22KT 10SM SCT060 SCT075 08/03 A2966 RMK
     AO2 LTG DSNT NE P0002 60002 T00750029=
KAQO 232055Z AUTO 18014G22KT 10SM CLR 29/14 A2977 RMK AO2=
KASL 232055Z AUTO 00000KT 10SM CLR 29/13 A2984 RMK AO2 T02900132
     TSNO $=
KASW 232055Z AUTO 18008G19KT 10SM CLR 24/10 A2999 RMK AO2
     T02420100=
KAUN 232055Z AUTO 23014KT 10SM CLR 19/M05 A2993 RMK A01=
KAWG 232055Z AUTO 15019G28KT 10SM CLR 26/16 A2962 RMK AO2=
KAXA 232055Z AUTO 15022G33KT 9SM CLR 26/15 A2942 RMK A01=
KBAF 232053Z 01007KT 10SM -RA OVC110 12/08 A3029 RMK AO2 RAB03
     SLP262 P0000 60000 T01170083 58006=
KBBD 232055Z AUTO 19014G20KT 10SM CLR 29/13 A2976 RMK AO2=
KBBP 232055Z AUTO 01003KT 10SM CLR 23/07 A3012 RMK AO2=
KBDG 232055Z AUTO 25014G19KT 10SM 06/M03 A2979 RMK AO1
     T00631035=
KBEC 232055Z AUTO 17029G39KT 10SM CLR 27/14 A2951 RMK AO2
     T02730135=
KBGE 232055Z AUTO 09004KT 10SM CLR 26/07 A3012 RMK AO2
     T02590066=
KBQK 232055Z AUTO 08011KT 10SM CLR 23/13 A3013 RMK AO2
     T02350132=
KBUU 232055Z AUTO 17010G17KT 10SM SCT048 SCT120 25/14 A2980 RMK
     AO2 T02460138 PWINO=
KBVS 232055Z AUTO 15005KT 10SM CLR 12/07 A3015 RMK A01=
KBYY 232055Z AUTO 16015KT 10SM CLR 27/16 A2988 RMK AO2
     T02750167=
KC65 232055Z AUTO 16014G21KT 10SM CLR 24/11 A2995 RMK A01=
KC75 232055Z AUTO 18017G26KT 10SM CLR 24/16 A2976 RMK AO2 LTG DSNT
     W T02400160=
KCAV 232055Z AUTO 14019G27KT 8SM FEW110 23/17 A2948 RMK A01=
KCBF 232055Z AUTO 17026G33KT 9SM CLR 30/10 A2932 RMK AO2=
KCCU 232055Z AUTO 23007G20KT 180V260 1/4SM SN OVC002 M04/M07 A2964
     RMK AO2=
