SASA41 KWBC 231700
METAR
SEMT 231700Z 23008KT 9999 BKN016 OVC100 23/21 Q1013 RMK A2994=
SEPA NIL=
SKBG 231700Z 32006KT 9999 SCT017 SCT270 25/20 Q1015 RMK A2999=
SKMD NIL=
SKPE 231700Z 32004KT 9999 SCT020 26/20 Q1017 RMK A3004=
SKSM NIL=
SKVG NIL=
SMJP 231700Z 08005KT 9999 BKN030 34/23 Q1009 NOSIG=
