SAKA31 PTRO 231900
METAR PTRO 231850Z 25006KT 12SM BKN014CB BKN110 OVC280 25/24 A2969
RMK CB ALQDS=
