SAUS70 KWBC 231838 RRG
METAR
KSGS 231835Z AUTO 13006G16KT 10SM CLR 24/12 A2955 RMK AO2
     T02350117=
KTWM 231835Z AUTO 08012KT 10SM SCT070 BKN080 18/11 A2968 RMK
     AO2=
KVVV 231835Z 13025G30KT 10SM 23/13 A2935 RMK AO2=
KEDN 231835Z AUTO 00000KT 10SM CLR 24/04 A3015 RMK AO2
     T02360042=
KEGV 231835Z AUTO 17012G22KT 10SM SCT040 21/10 A2980 RMK AO2
     T02090101=
KEIK 231835Z AUTO 36006KT 10SM CLR 18/M04 A2931 RMK AO2 T01821045
     PWINO=
KEKS 231835Z AUTO 32006KT M01/M02 A2981 RMK AO2 PWINO TSNO=
KERV 231835Z AUTO 15019G25KT 10SM SCT039 27/16 A2986 RMK AO2
     T02650164=
KETC 231835Z AUTO 33007KT 10SM OVC017 18/14 A3012 RMK AO2
     T01790136=
KF05 231835Z AUTO 19019G28KT 10SM CLR 32/12 A2965 RMK AO2
     T03220122=
KF17 231835Z AUTO 18013G19KT 10SM BKN060 28/12 A2996 RMK AO2=
KF44 231835Z AUTO 17019G25KT 10SM SCT044 BKN050 28/17 A2987 RMK
     AO2=
KF46 231835Z AUTO 20020G25KT 10SM BKN045 27/16 A2984 RMK AO2
     T02720160=
KFGX 231835Z AUTO 24005KT 10SM CLR 24/07 A3016 RMK AO2
     T02390074=
KFKN 231835Z AUTO 34008KT 10SM OVC007 15/13 A3013 RMK AO2
     T01480126=
KFLY 231835Z AUTO 24015G25KT CLR 16/M02 A2949 RMK AO2 T01601020
     PWINO=
KFOT 231830Z AUTO 34008KT 9SM FEW026 13/07 A3015 RMK AO1=
KFTN 231835Z AUTO 14010G16KT 10SM CLR 29/19 A2982 RMK A01=
KFYM 231825Z AUTO 20008KT 10SM CLR 22/06 A3017 RMK A01=
KGAO 231835Z AUTO 11010KT 060V130 10SM CLR 27/15 A3009 RMK AO2
     T02680150=
KGDJ 231835Z AUTO 18022G29KT 10SM CLR 28/16 A2980 RMK AO2
     T02790157=
KGGI 231835Z AUTO 16019G25KT 10SM CLR 25/15 A2961 RMK AO2
     T02450145=
KGOO 231835Z AUTO 03008KT 350V070 10SM CLR 12/M08 A2996 RMK
     A01=
KGRN 231835Z AUTO 32012G18KT 10SM CLR 11/01 A2925 RMK AO2
     T01140006=
KGYB 231835Z AUTO 19010G18KT 10SM SCT044 SCT049 BKN060 28/18 A2989
     RMK AO2 T02800178=
KGZN 231820Z AUTO 17018G29KT 10SM CLR 28/15 A2976 RMK AO2=
KGZS 231820Z AUTO 17009G16KT 10SM CLR 24/08 A3013 RMK A01=
KH71 231835Z AUTO 15024G34KT 10SM CLR 27/16 A2971 RMK AO2=
KHFJ 231835Z AUTO 18023G30KT 10SM CLR 27/13 A2975 RMK AO2=
KHHF 231835Z AUTO 20018G23KT 10SM CLR 28/11 A2956 RMK AO2
     T02820112=
KHLB 231835Z AUTO 17010G21KT 160V220 10SM CLR 23/09 A3008 RMK
     A01=
KHLX 231835Z AUTO 36006KT 10SM CLR 19/M15 A3021 RMK AO2
     T01851149=
KHOE 231835Z AUTO 02005KT 10SM CLR 25/11 A3013 RMK AO2
     T02550111=
KHQG 231835Z AUTO 22033G42KT 5SM HZ BKN001 OVC007 29/05 A2946 RMK
     AO2 T02850053=
KHRX 231835Z AUTO 22015G23KT 10SM CLR 24/11 A2967 RMK AO2
     T02380107=
KASN 231835Z AUTO 18006KT 10SM CLR 25/05 A3017 RMK AO2
     T02490052=
KAVK 231835Z AUTO 20034G40KT 9SM CLR 28/12 A2953 RMK AO2 PWINO=
KAVQ 231835Z AUTO 25012G17KT 10SM SCT050 SCT055 24/08 A2980 RMK
     AO2 T02410079=
KAXH 231835Z AUTO 19006G17KT 10SM SCT060 30/15 A2993 RMK AO2
     T03010145=
KAXS 231835Z AUTO 18021G27KT 7SM CLR 29/12 A2966 RMK AO2
     T02930115=
KAZC 231835Z AUTO 31015G25KT 10SM SCT043 SCT049 07/M01 A2986 RMK
     AO2=
KBAM 231835Z AUTO 31010G14KT 10SM SCT027 BKN035 OVC055 03/00 A3002
     RMK AO1=
KBCK 231835Z AUTO 13009G15KT 100V160 10SM CLR 25/12 A2968 RMK AO2
     T02470123=
KBDU 231835Z AUTO 23010G19KT 10SM CLR 18/M03 A2932 RMK AO2=
KBGF 231820Z AUTO 25010KT 10SM CLR 24/05 A3015 RMK A01=
KBKD 231835Z AUTO 19020G26KT 10SM CLR 29/15 A2975 RMK AO2
     T02940145=
KBPC 231835Z AUTO 22022G32KT 10SM CLR 28/08 A2958 RMK AO2=
KBTA 231835Z AUTO 17022G31KT 10SM CLR 28/13 A2937 RMK AO2
     T02810126=
KBTN 231835Z AUTO 13019G25KT 10SM CLR 21/11 A2929 RMK AO2=
KBXA 231835Z AUTO 16007KT 10SM CLR 27/13 A3009 RMK AO2
     T02740132=
