SAUS80 KWBC 232000 RRC
METAR
KDVK 231950Z AUTO 16009KT 10SM CLR 23/04 A3012 RMK AO2=
KCUL 231957Z AUTO 17017G21KT 10SM CLR 28/09 A2996 RMK AO2=
KMEH 231956Z AUTO 26004KT 10SM SCT019 SCT024 BKN044 04/00 A3005
     RMK AO2 SLP192 T00390000=
KSOW 231955Z AUTO 22023G38KT 10SM SCT032 BKN038 OVC055 11/04 A2983
     RMK AO2=
