SAUS70 KWBC 231900 RRT
METAR
KGOV 231858Z AUTO 17012G25KT 10SM CLR 23/10 A3001 RMK AO2 PK WND
     17026/02 SLP166 T02280103 $=
