SAUS80 KWBC 232114
METAR
KSVE 232115Z AUTO 02004KT 10SM BKN060 M22/M51 A3007 RMK AO2=
