SASA31 KWBC 231600 RRD
METAR
SKBO 231600Z 02006KT 9999 FEW017TCU SCT020 18/10 Q1027 NOSIG=
SKCL 231600Z VRB03KT 9000 BKN020 SCT300 26/19 Q1016 NOSIG=
SOCA 231630Z AUTO 07010KT 9999 SCT032 BKN038 BKN048 32/24 Q1010
     TEMPO 3000 SHRA BKN015CB=
