SAUS70 KWBC 232140 RRD
METAR
KHSB 232135Z AUTO 19014G19KT 10SM CLR 27/14 A2994 RMK AO2
     T02650139=
KI67 232135Z AUTO 17007KT 10SM CLR 25/07 A3005 RMK AO1=
KI68 232135Z AUTO 18008G17KT 10SM CLR 24/08 A3008 RMK AO1
     T02410080=
KIFA 232135Z AUTO 12014G22KT 10SM SCT120 24/15 A2953 RMK AO2
     T02370150=
KIGQ 232135Z AUTO 17021G29KT 10SM CLR 25/12 A2988 RMK AO2
     T02500121=
KJPX 232135Z AUTO 03007KT 7SM DZ SCT015 OVC028 13/13 A3025 RMK AO2
     P0004 T01310131=
KLCG 232135Z AUTO 19025G33KT 10SM CLR 31/10 A2925 RMK AO2
     T03070103=
KMUT 232135Z AUTO 16020G26KT 10SM CLR 25/15 A2967 RMK AO2=
KOXI 232135Z AUTO 16014G23KT 10SM CLR 24/10 A2993 RMK AO1=
KOXV 232135Z AUTO 18020G30KT 10SM FEW130 28/13 A2954 RMK AO2=
KPCW 232135Z AUTO 17009KT 10SM CLR 23/08 A3007 RMK AO2=
KPMH 232135Z AUTO 18004KT 10SM CLR 25/01 A3011 RMK AO2
     T02480011=
KPRO 232135Z AUTO 16019G28KT 10SM CLR 28/13 A2946 RMK AO2
     T02820130=
KPTD 232135Z AUTO 05004KT 10SM CLR 19/05 A3025 RMK AO2=
KPVB 232135Z AUTO 15014KT 10SM CLR 23/13 A2970 RMK AO1
     T02280130=
KRNH 232135Z AUTO 14016G24KT 10SM CLR 24/16 A2954 RMK AO2
     T02400162=
KRZL 232135Z AUTO 16018G25KT 10SM SCT120 25/10 A2993 RMK AO2=
KSAR 232135Z AUTO 19016G25KT 10SM CLR 26/14 A2988 RMK AO2
     T02580142=
KTNU 232135Z AUTO 15023G30KT 9SM CLR 27/14 A2952 RMK A01=
KY49 232135Z AUTO 09007KT 060V120 10SM BKN048 BKN055 20/11 A2947
     RMK AO2 T01990113=
KBTN 232135Z AUTO 12016G30KT 10SM CLR 22/11 A2923 RMK AO2=
KD60 232135Z AUTO 05019G25KT 10SM OVC010 05/05 A2947 RMK AO2=
KIRS 232135Z AUTO 16014G19KT 10SM CLR 23/08 A2999 RMK AO2
     T02300083=
KM30 232135Z AUTO 19010G18KT 10SM CLR 26/10 A2996 RMK AO2
     T02600097=
KOLG 232135Z AUTO 14012G17KT 10SM BKN048 23/11 A2960 RMK AO1=
KONZ 232135Z AUTO 12008KT 10SM SCT100 21/03 A3007 RMK AO2
     T02120028=
KOSC 232135Z AUTO 13004KT 10SM CLR 19/11 A3006 RMK AO2
     T01850113=
KOXD 232135Z AUTO 19011G14KT 10SM CLR 26/03 A3007 RMK AO2
     T02560029=
KPEX 232135Z AUTO 13015G20KT 10SM SCT048 23/12 A2942 RMK AO2=
KPNM 232135Z AUTO 12016G24KT 10SM SCT049 24/13 A2948 RMK AO2
     TSNO=
KRMY 232135Z AUTO 16010G17KT 10SM CLR 23/10 A3001 RMK AO2
     T02280098=
KRQB 232135Z AUTO 17016G21KT 10SM SCT055 23/10 A2997 RMK AO2
     T02340103=
KRVL 232135Z AUTO 00000KT 9SM BKN035 OVC042 17/09 A3024 RMK
     AO2=
KRYV 232135Z AUTO 16012KT 10SM SCT047 SCT120 24/13 A2977 RMK AO2
     T02360125=
KRZN 232135Z AUTO 13011G20KT 10SM CLR 24/12 A2956 RMK AO2
     T02360116=
KRZT 232135Z AUTO 16007KT 137V197 10SM CLR 23/03 A3010 RMK AO2
     PWINO=
KS24 232135Z AUTO 16007KT 140V200 10SM CLR 24/08 A3007 RMK AO2=
KS32 232135Z AUTO 11018G27KT 10SM CLR 22/11 A2933 RMK AO2 TSNO=
KSJX 232135Z AUTO 14005KT 10SM BKN055 OVC080 22/11 A2995 RMK AO2
     T02200111=
KSLH 232135Z AUTO 15006KT 10SM SCT080 22/11 A2998 RMK AO2=
KSLO 232135Z AUTO 17017G26KT 10SM SCT045 26/13 A2989 RMK AO2
     T02600132=
KSPF 232135Z AUTO 29019G25KT 10SM -UP OVC016 04/00 A2947 RMK
     AO2=
K05U 232135Z AUTO 34014KT 10SM 02/M04 A3001 RMK A01=
K0F2 232135Z AUTO 16018G28KT 10SM CLR 29/15 A2970 RMK AO2
     T02870153=
K1V6 232135Z AUTO 29013G27KT 10SM SCT110 16/M02 A2944 RMK AO2=
K3S8 232135Z AUTO VRB04KT 10SM BKN044 BKN049 13/01 A3023 RMK
     AO2=
K65S 232135Z AUTO 00000KT 10SM -RA SCT030 BKN040 OVC048 08/04
     A3003 RMK AO2=
KAEJ 232135Z AUTO 27015KT 10SM 02/M03 A2961 RMK AO2 T00181030=
KATA 232135Z AUTO 16015KT 10SM CLR 29/13 A2983 RMK AO2 SLP002
     T02900134 $=
KBDU 232135Z AUTO 27017G29KT 10SM SCT060 SCT070 BKN095 15/M05
     A2936 RMK AO2=
