SAUS70 KWBC 232100 RRA
METAR
KOFP 232054Z AUTO 00000KT 3SM -RA BR OVC021 15/14 A3018 RMK AO2
     RAB02E14B54 SLP219 P0000 60001 T01500144 56010=
KOLS 232054Z AUTO 21014G20KT 10SM CLR 21/06 A2984 RMK AO2 SLP050
     T02060061 56018=
KOVL 232055Z AUTO 14023G32KT 3SM HZ CLR 25/12 A2938 RMK AO2=
KOZW 232055Z AUTO 15007G17KT 10SM SCT055 23/10 A3006 RMK AO2
     T02290096=
KPHF 232054Z 35007G14KT 8SM -RA BKN007 OVC015 14/14 A3011 RMK AO2
     SLP194 P0006 60011 T01440139 58008=
KPSF 232054Z AUTO 06004KT 10SM FEW120 14/02 A3029 RMK AO2 SLP254
     T01440017 55001=
KPVG 232055Z VRB04KT 10SM OVC006 14/14 A3012 RMK AO2 SLP301 57003
     PWINO PNO FZRANO RVRNO=
KPWC 232055Z AUTO 13016G26KT 10SM CLR 23/13 A2952 RMK AO2 LTG DSNT
     S=
KRGK 232055Z AUTO 14018G22KT 10SM CLR 24/12 A2952 RMK AO2 LTG DSNT
     S=
KRNP 232053Z AUTO 15013G18KT 10SM SCT060 A3004 RMK AO2=
KROX 232055Z AUTO 07020KT 10SM CLR 18/09 A2949 RMK AO2=
KRST 232054Z 15026G32KT 10SM CLR 24/12 A2956 RMK AO2 PK WND
     14035/2006 SLP004 T02390122 56016=
KSAZ 232055Z AUTO 12009G21KT 10SM CLR 24/12 A2943 RMK AO2=
KECG 232054Z 33011KT 3SM BR OVC005 16/15 A3008 RMK AO2
     RAB03E19B30E54 SLP185 P0000 60000 T01560150 51003=
KELO 232055Z AUTO 13011KT 10SM SCT090 20/10 A2966 RMK AO2 LTG DSNT
     SE=
KEVV 232054Z 18009KT 10SM CLR 26/08 A2999 RMK AO2 SLP152 T02610083
     56013=
KFBL 232055Z AUTO 14023G30KT 10SM CLR 24/13 A2950 RMK AO2=
KFFM 232055Z AUTO 12019G26KT 10SM CLR 23/12 A2934 RMK AO2 LTG DSNT
     SE=
KFSE 232055Z AUTO 11011G22KT 10SM CLR 23/10 A2942 RMK AO2=
KGCK 232054Z 22033G53KT 5SM BLDU CLR 29/03 A2936 RMK AO2 PK WND
     23054/2029 SLP904 T02940033 55011=
KGCN 232054Z 29011G20KT 240V310 10SM BKN050 BKN070 06/M08 A2982
     RMK AO2 PK WND 27027/2000 SLP053 T00611078 55000=
KGHW 232055Z AUTO 12020G28KT 10SM CLR 23/12 A2939 RMK AO2 LTG DSNT
     SE=
KGYL 232055Z AUTO 14020G28KT 7SM CLR 25/13 A2944 RMK AO2 LTG DSNT
     SE T02470127=
KHAF 232055Z AUTO 34014KT 7SM CLR 16/09 A3001 RMK AO2=
KHCO 232055Z AUTO 06012G18KT 10SM CLR 20/09 A2942 RMK AO2=
KHUL 232053Z AUTO 00000KT 10SM CLR 18/08 A3033 RMK AO2 SLP274
     T01780083 55000=
KILN 232054Z AUTO 15008KT 6SM HZ CLR 24/08 A3009 RMK AO2 SLP187
     T02440078 56016=
KIND 232054Z 18014G23KT 10SM FEW060 FEW100 SCT250 25/09 A2998 RMK
     AO2 PK WND 19027/2041 SLP149 T02500089 56015 $=
KIZG 232054Z AUTO 00000KT 10SM CLR 14/09 A3035 RMK AO2 SLP281
     T01440094 58003=
KJKJ 232055Z AUTO 13014G25KT 10SM CLR 24/12 A2933 RMK AO2 TSNO=
KJMR 232055Z AUTO 12012G18KT 10SM CLR 24/12 A2955 RMK AO2=
KJST 232054Z COR 10SM=
KLAF 232054Z 18013G31KT 10SM CLR 26/11 A2993 RMK AO2 PK WND
     18031/2051 SLP131 T02610106 56012=
KLBF 232053Z AUTO 30023G28KT 10SM FEW045 27/M01 A2919 RMK AO2 PK
     WND 20037/2011 WSHFT 2039 SLP865 60000 T02721006 55002=
KLDM 232055Z AUTO 16009KT 10SM BKN060 OVC090 24/12 A2990 RMK AO2
     T02400119=
KLJF 232055Z AUTO 14021G27KT 10SM CLR 24/11 A2942 RMK AO2=
KLNK 232054Z 18027G43KT 8SM BKN038 OVC047 29/13 A2932 RMK AO2 PK
     WND 18046/2019 SLP915 T02940128 56014=
KLWM 232054Z 09005KT 10SM -RA BKN120 14/10 A3035 RMK AO2 RAB34
     SLP279 P0000 60000 T01390100 55003=
KBEA 232055Z AUTO 14016G26KT 10SM BKN032 BKN042 BKN050 29/19 A2979
     RMK AO2 T02890191=
KCNO 232053Z 25006KT 10SM SCT040 21/08 A2984 RMK AO2 SLP101
     T02110078 58012=
KDRO 232053Z AUTO 25015G23KT 10SM BKN080 OVC100 05/M03 A2974 RMK
     AO2 SLP031 T00501028 53003 $=
KFST 232053Z AUTO 20011G24KT 10SM CLR 31/07 A2970 RMK AO2 SLP005
     T03110072 56031 $=
KGLS 232052Z 16012KT 10SM CLR 28/20 A2991 RMK AO2 SLP128 T02830200
     56027=
