SACA35 KWBC 232000 RRA
METAR
MPDA 232000Z 22012KT 8000 -RA SCT012CB SCT090 25/25 Q1009=
MPTO 232000Z 28004KT 5000 TSRA SCT007 SCT015CB BKN070 25/24 Q1010
     TEMPO 9000 -RA=
