SAUS70 KWBC 232100
METAR
PAKU 232045Z 11010KT 10SM R06/P6000FT SKC M08/M09 A3001=
KASG 232048Z 18016G25KT 10SM CLR 27/17 A2977=
KOUN 232045Z 16025G35KT 10SM CLR 28/15 A2965=
PAKU 232045Z 11010KT 10SM R06/P6000FT SKC M08/M09 A3001=
KCNW 232055Z 17018G25KT 10SM BKN055 30/14 A2979=
KANE 232045Z 14014G24KT 10SM FEW045 26/12 A2949=
KDLL 232055Z AUTO 16019G29KT 10SM CLR 22/12 A2972 RMK AO2
     T02210120=
KGAF 232055Z AUTO 05014G19KT 8SM CLR 20/09 A2940 RMK AO2=
KGYY 232045Z 17017G28KT 10SM CLR 25/12 A2987=
KLBE 232047Z 09006KT 20SM CLR 21/M01 A3019=
KSWF 232045Z 00000KT 10SM OVC120 14/09 A3028=
K1S5 232055Z AUTO 00000KT 10SM CLR 14/01 A3010 RMK AO2
     T01380005=
KAEG 232047Z 29021G28KT 10SM BKN075 15/03 A2972=
KBCT 232053Z 03015G23KT 10SM SCT043 28/18 A3003=
KCGF 232045Z 15006KT 10SM SCT150 23/06 A3013=
KCHD 232047Z 24006G15KT 10SM CLR 24/07 A2975=
KCPF 232055Z AUTO 00000KT 10SM CLR 25/04 A3013 RMK AO2=
KEMV 232055Z AUTO 33006KT 10SM OVC012 16/13 A3016 RMK AO2 6////
     T01550130=
KFFA 232055Z AUTO 35008G18KT 4SM BR OVC003 17/17 A3003 RMK AO2
     60003 T01650165=
KGYR 232047Z 24009KT 10SM BKN070 24/08 A2974=
KMCJ 232055Z AUTO 17018G28KT 10SM FEW055 28/14 A2987 RMK A01=
KMMU 232045Z 04007KT 10SM SCT045 OVC060 17/12 A3024=
KSUW 232055Z AUTO 06013G21KT 10SM BKN050 13/09 A2963 RMK AO2
     T01320093=
KADS 232047Z 17022G29KT 13SM FEW050 29/13 A2975 RMK LLWS=
KHUM 232047Z 13013KT 7SM CLR 26/17 A3004=
KHXD 232050Z 00000KT 10SM CLR 24/12 A3014=
KSAW 232047Z 17015G23KT 10SM CLR 18/11 A2988=
