SAUS70 KWBC 231700 CCA
METAR
TISX 231653Z 12011KT 10SM SCT034 SCT047 31/24 A2992 RMK AO2
     RAB16E30 SLP130 P0000 T03110244 $=
TISX 231653Z 12011KT 10SM SCT034 SCT047 31/24 A2992 RMK AO2
     RAB16E30 SLP130 P0000 T03110244 $=
