SACA32 KWBC 232000
METAR
MDLR NIL=
MDPC NIL=
MDPP NIL=
MDSD NIL=
MDST NIL=
MTCH NIL=
MTPP 232000Z 29007KT 270V330 9999 SCT027 31/22 Q1010 A2982=
MTPP 231953Z 29007KT 270V330 9999 SCT027 31/22 Q1010 A2982=
TAPA 232000Z 10007KT 9999 FEW022 28/23 Q1012 NOSIG=
TIST 231953Z 08007KT 10SM SCT033 31/23 A2988 RMK AO2 SLP117
     T03060228=
TJBQ 231950Z 07012KT 10SM SCT022 SCT055 29/23 A2990 RMK LTG DSNT
     SE=
TJMZ NIL=
TJNR 231953Z AUTO 05006KT 10SM CLR 30/23 A2990 RMK AO2 SLP124
     T03000233=
TJPS NIL=
TJSJ 231956Z 05011KT 10SM SCT033 SCT080 30/24 A2988 RMK AO2 SLP117
     VCSH S SW T03000239 $=
TKPK 232000Z 06008KT 9999 SCT019 29/24 Q1012=
TKPN NIL=
TQPF 232000Z 12009KT 9999 FEW021 29/23 Q1012=
TRPM NIL=
TUPJ 232000Z 10008KT 10SM SCT019 29/24 A2990 RMK Q1012 VIS16KM=
TUPW NIL=
