SAUS70 KWBC 231846
METAR
KEVM 231842Z AUTO 12011G15KT 10SM CLR 20/11 A2966 RMK AO2=
KJVY 231835Z AUTO 16010G14KT 10SM CLR 26/09 A3007 RMK AO2
     PWINO=
KTNB 231830Z AUTO 15003KT 10SM CLR 20/01 A3021 RMK AO2
     T02030014=
KUKF 231835Z AUTO 33003KT 10SM CLR 21/03 A3023 RMK AO2=
