SACA31 KWBC 231900 RRB
METAR
MYGF 231900Z 36010KT 9999 SCT030 27/20 A3002=
