SACA32 KWBC 231800 RRB
METAR
TKPN 231800Z 08007KT 9999 SCT022 30/25 Q1012=
