SAUS70 KWBC 232100 RRL
METAR
KOCH 232056Z AUTO 18013G22KT 10SM SCT065 29/14 A2988 RMK AO2
     SLP119 T02940144 56025=
KPRX 232056Z AUTO 16020G30KT 10SM BKN055 29/16 A2979 RMK AO2 PK
     WND 19030/2050 SLP083 T02940156 56027=
KSMN 232056Z AUTO 34007G17KT 10SM OVC050 06/M05 A2991 RMK AO2
     SLP826 T00561050 53009=
KVIS 232056Z AUTO 35008KT 10SM CLR 20/02 A2992 RMK AO2 SLP139
     T02000017 58012=
KBQX 232055Z AUTO 15013G21KT 9SM 28/18 A2989 RMK A01=
KCMA 232055Z 23010KT 10SM CLR 21/09 A2985 RMK AO2 SLP116 T02110094
     58006=
KCOD 232056Z AUTO 02013KT 10SM SCT030 04/M04 A2963 RMK AO2 SLP038
     60000 T00391039 53002=
KDIJ 232056Z AUTO 30015KT 3SM -SN BR FEW011 BKN028 OVC033 M01/M02
     A2978 RMK AO2 RAB40E42SNB42 SLP107 P0001 60001 T10061022
     53010=
KFNL 232056Z 04007KT 10SM SCT075 BKN100 BKN120 18/02 A2932 RMK AO2
     LTG DSNT N AND E TSB38E53RAB36E50 SLPNO 6//// T01780017=
KGTU 232056Z 17012G21KT 10SM OVC055 29/16 A2981 RMK AO2 SLP087
     T02890156 56028=
KHYI 232056Z 15020KT 10SM BKN055 32/16 A2980 RMK AO2 PK WND
     16027/2035 SLPNO T03200160 58030 $=
KILE 232056Z AUTO 16020G26KT 10SM FEW050 29/16 A2978 RMK AO2 PK
     WND 18031/2012 SLP074 T02940161 56028=
KJAC 232056Z 30010G18KT 10SM BKN047 OVC055 02/M07 A2971 RMK AO2
     SLP078 6//// T00171072 53009 PNO $=
KLPC 232056Z AUTO 29015KT 10SM CLR 21/07 A2988 RMK AO2 SLP120
     T02060072 58010=
KLRD 232056Z 15013G23KT 10SM CLR 33/17 A2972 RMK AO2 SLP062
     T03330172 56028=
KOTH 232056Z 28006KT 10SM FEW036 14/08 A3022 RMK AO2 SLP234
     T01390083 50002=
KPWG 232056Z AUTO 17018G30KT 10SM BKN055 31/17 A2978 RMK AO2 PK
     WND 15033/2031 SLPNO 6//// T03060167=
KPWT 232056Z AUTO 22004KT 10SM FEW008 09/07 A3017 RMK AO2 SLP221
     T00940072 50007=
KSGU 232056Z AUTO 32011KT 10SM BKN065 OVC085 12/M02 A2987 RMK AO2
     PK WND 31028/2002 WSHFT 1958 SLP105 60001 T01221022 53006=
K2DP 232055Z AUTO 36013G22KT 10SM OVC009 18/18 A3002 RMK AO2 SLPNO
     60000 T01800180 55003 $=
KSGH 232056Z AUTO 17007G14KT 10SM CLR 23/08 A3009 RMK AO2 SLP188
     T02330083 56015=
KWJF 232056Z 29018G27KT 10SM CLR 19/M04 A2988 RMK AO2 PK WND
     26027/2048 SLP109 T01891039 58010=
KHCD 232055Z AUTO 14023G31KT 10SM CLR 25/12 A2944 RMK AO2 LTG DSNT
     SE T02490123=
KHVN 232053Z 02006KT 8SM BKN048 BKN060 OVC110 13/11 A3027 RMK AO2
     RAE47 SLP249 P0002 60004 T01280111 58002=
KHYA 232056Z 35010KT 3SM -RA BR BKN007 OVC019 14/13 A3027 RMK AO2
     SLP249 P0010 60013 T01390133 55008=
KHYX 232055Z AUTO 17011G17KT 10SM SCT060 23/09 A3004 RMK AO2
     T02310093=
KHZX 232055Z AUTO 10009G17KT 10SM BKN046 BKN050 22/12 A2954 RMK
     AO2 LTG DSNT S=
KJMS 232056Z AUTO 12021G30KT 10SM CLR 23/11 A2927 RMK AO2 PK WND
     11032/2044 SLP911 T02280111 56027=
KLVN 232055Z AUTO 15018G26KT 7SM CLR 24/11 A2949 RMK AO2 LTG DSNT
     SE=
KLXL 232055Z AUTO 14016G22KT 10SM SCT050 24/13 A2945 RMK AO2 LTG
     DSNT SE=
KMDT 232056Z 04003KT 10SM BKN060 OVC120 17/10 A3023 RMK AO2 SLP237
     T01720100 56007=
KPEX 232055Z AUTO 13019G26KT 10SM SCT045 23/12 A2942 RMK AO2=
KRRT 232055Z AUTO 03013G17KT 10SM CLR 14/11 A2952 RMK AO2=
KVAF 232055Z AUTO 14018KT 10SM CLR 28/17 A2991 RMK A01=
KWBF 232055Z AUTO 00000KT 10SM 27/18 A3001 RMK A01=
KY31 232055Z AUTO 16010G21KT 10SM CLR 24/08 A3002 RMK AO2
     T02350084=
K22N 232055Z AUTO 00000KT 10SM BKN050 17/08 A3026 RMK AO2=
K3N8 232055Z AUTO 12018G24KT 10SM CLR 23/12 A2939 RMK AO2
     T02330118=
KBJJ 232056Z AUTO 16008KT 10SM CLR 22/08 A3014 RMK AO2 SLP205
     T02220078 56015=
KCDI 232055Z AUTO 16003KT 10SM CLR 24/08 A3014 RMK AO2
     T02380079=
