SAUS70 KWBC 232100 RRE
METAR
KAUG 232053Z AUTO 00000KT 10SM CLR 17/09 A3036 RMK AO2 SLP282
     T01670094 58002=
KAZO 232053Z 16010G20KT 130V190 10SM CLR 24/11 A2998 RMK AO2
     SLP150 T02440106 56012=
KBBW 232053Z AUTO 20022G39KT 10SM BKN034 OVC043 29/M01 A2919 RMK
     AO2 PK WND 19045/2030 SLP862 T02941011 55009=
KBEH 232053Z AUTO 16018G28KT 10SM FEW060 26/12 A2991 RMK AO2 PK
     WND 17030/2025 SLP126 T02560122 56013=
KBFD 232053Z AUTO 13006KT 10SM CLR 19/M01 A3024 RMK AO2 SLP240
     T01941011 56006=
KBGR 232053Z 16003KT 10SM FEW100 OVC150 17/09 A3036 RMK AO2 SLP279
     T01670094 50000=
KBIV 232053Z AUTO 15018G25KT 10SM SCT055 24/12 A2993 RMK AO2 PK
     WND 14029/2034 SLP134 T02390122 56013=
KBKV 232053Z 06007KT 10SM CLR 29/15 A3007 RMK AO2 SLP180 T02890150
     56012=
KBMG 232053Z 16010G24KT 10SM CLR 26/09 A3000 RMK AO2 PK WND
     14027/2003 SLP152 T02560094 56014 $=
KBRL 232053Z AUTO 16016G27KT 10SM CLR 24/14 A2968 RMK AO2 PK WND
     18033/2010 SLP046 T02440144 56019=
KBTL 232053Z 17018G25KT 10SM CLR 24/11 A3001 RMK AO2 PK WND
     16028/2009 SLP157 T02390106 56011=
KBUR 232053Z VRB04KT 10SM CLR 24/M02 A2982 RMK AO2 SLP087
     T02391017 58009=
KBVY 232053Z VRB03KT 9SM -RA FEW110 13/12 A3033 RMK AO2 SLP266
     P0002 60002 T01280117 55004=
KBYG 232053Z AUTO 33027G47KT 10SM OVC075 03/M02 A2950 RMK AO2 PK
     WND 34047/2037 SLP984 60000 T00281022 53001=
KGEZ 232053Z AUTO 16014G23KT 10SM CLR 26/09 A3002 RMK AO2 PK WND
     15027/2010 SLP161 T02610094 56014=
KGGG 232053Z AUTO 18018G23KT 10SM SCT065 29/13 A2985 RMK AO2 PK
     WND 17031/2001 SLP101 T02940128 56026=
KGJT 232053Z 02007KT 5SM RA BR OVC010 01/01 A2969 RMK AO2 SLP042
     P0008 60027 T00110006 51033=
KGKY 232053Z 15018G32KT 10SM CLR 30/15 A2974 RMK AO2 PK WND
     15034/2009 SLP062 T03000150 56029=
KGLD 232053Z AUTO 23031G43KT 9SM FEW032 28/M04 A2929 RMK AO2 PK
     WND 23047/2013 SLP870 T02781044 55003=
KGNV 232053Z 36003KT 10SM CLR 28/10 A3011 RMK AO2 SLP193 T02780100
     56010=
KGOK 232053Z AUTO 17016G31KT 10SM CLR 27/14 A2962 RMK AO2 PK WND
     19031/2046 SLP018 T02720144 56016=
KGSH 232053Z AUTO 16019G25KT 10SM CLR 24/11 A2997 RMK AO2 PK WND
     15029/2026 SLP146 T02440106 56013=
KGUP 232053Z AUTO 25009KT 10SM -RA OVC033 05/01 A2979 RMK AO2
     SLP020 P0001 60002 T00500011 51001=
KGUY 232053Z AUTO 22031G51KT 10SM 30/02 A2941 RMK AO2 PK WND
     23053/2042 SLP908 T03000017 56021 $=
KGZH 232053Z AUTO VRB04KT 10SM CLR 26/04 A3009 RMK AO2 SLP186
     T02610039 56023=
KHAO 232053Z AUTO VRB06KT 10SM CLR 26/07 A3007 RMK AO2 SLP180
     T02560072 56017=
KHBR 232053Z AUTO 18021G26KT 10SM CLR 28/14 A2960 RMK AO2 PK WND
     18028/1958 SLP006 T02830139 56019=
KHFD 232053Z 00000KT 3SM RA BR OVC100 12/09 A3029 RMK AO2 SLP258
     P0011 60013 T01170094 58002=
KHGR 232053Z 36008KT 10SM OVC049 17/10 A3022 RMK AO2 SLP245
     T01670100 56011 $=
KHKS 232053Z 19010G17KT 10SM FEW060 28/12 A3002 RMK AO2 SLP158
     T02830122 56023=
KHLG 232053Z 10005KT 10SM CLR 22/04 A3016 RMK AO2 SLP212 T02220039
     56016=
KHUF 232053Z AUTO 17019G27KT 10SM CLR 25/11 A2995 RMK AO2 PK WND
     18032/2029 SLP138 T02500106 56010=
KHWO 232053Z AUTO 06013G19KT 10SM SCT040 28/18 A3003 RMK AO2
     SLP168 T02780183 55009=
KICT 232053Z 19029G42KT 5SM BLDU FEW025 SCT120 BKN150 BKN190 27/14
     A2949 RMK AO2 PK WND 19048/2033 SLP970 BLDU FEW025 T02720144
     56018=
KILM 232053Z 31008KT 10SM CLR 23/12 A3007 RMK AO2 SLP184 T02330122
     55005 PWINO=
KIML 232053Z AUTO 33020G27KT 10SM CLR 22/M03 A2925 RMK AO2 PK WND
     25054/2001 WSHFT 2003 SLP884 T02171028 53009 $=
