SAUS70 KWBC 232002
METAR
KW75 232015Z AUTO 33007KT 7SM BKN009 OVC015 15/14 A3014 RMK AO1
     P0002 T01450135=
