SAUS70 KWBC 231744 RRB
METAR
KT35 231735Z AUTO 19013G22KT 10SM SCT039 SCT045 BKN050 27/17 A2990
     RMK AO2 T02740172=
KEVM 231741Z AUTO 14009KT 10SM SCT075 SCT095 19/11 A2968 RMK
     AO2=
KOAR 231735Z AUTO 00000KT 10SM CLR M03/M13 A3000 RMK AO2=
KOSC 231735Z AUTO 13008KT 10SM CLR 22/12 A3010 RMK AO2
     T02210115=
K5SM 231733Z AUTO 1/2SM -SN OVC004 M04/M06 A2963 RMK AO2=
KANK 231730Z AUTO 24012G20KT 10SM SCT034 BKN043 OVC110 08/01 A2962
     RMK AO1 T00800011=
KBMC 231730Z AUTO 10SM SCT045 OVC090 05/M01 A2978 RMK AO1
     T00481015=
KDUB 231734Z AUTO 28021G28KT 10SM SCT020 SCT029 OVC110 M01/M07
     A2957 RMK AO2=
KEAN 231730Z AUTO 28008KT 10SM RA SCT042 OVC048 09/01 A2942 RMK
     AO2 T00850014=
KGNB 231735Z AUTO 27003KT 10SM SCT014 BKN023 OVC070 03/00 A2957
     RMK AO2 T00280002=
KGNC 231735Z AUTO 22016G24KT 10SM CLR 27/10 A2981 RMK AO2
     T02730097=
KHBV 231730Z AUTO 18014G26KT 10SM CLR 29/18 A2985 RMK AO2
     T02900175=
KHEQ 231735Z AUTO 24020G25KT 10SM CLR 27/M03 A2923 RMK AO2=
KHSG 231730Z AUTO 01007KT 1SM -SN OVC008 00/00 A2961 RMK AO2 P0002
     T00001001=
KHVE 231735Z AUTO 31012G15KT 10SM SCT047 OVC095 08/01 A2966 RMK
     AO2=
KMMH 231734Z AUTO 35011KT 10SM CLR 04/M10 A2996 RMK AO2=
KOSA 231730Z AUTO 19017G22KT 10SM BKN039 OVC044 27/17 A2993 RMK
     AO2 T02660168=
KOZA 231735Z AUTO 19021G24KT 10SM CLR 23/15 A2987 RMK AO2=
KPEQ 231735Z AUTO 23020G23KT 10SM CLR 31/08 A2975 RMK AO2
     T03110076=
KPVW 231730Z AUTO 22020G30KT 10SM CLR 28/10 A2969 RMK AO2
     T02780095=
KSLR 231730Z AUTO 19015G23KT 10SM BKN042 27/15 A2990 RMK AO2
     T02720153=
KT20 231735Z AUTO 17012G19KT 10SM SCT036 SCT043 BKN055 28/19 A2989
     RMK AO2 T02830193=
KTMK 231735Z AUTO 00000KT 10SM CLR 10/08 A3018 RMK AO2=
KTXW 231730Z AUTO 15019G28KT 1/4SM HZ VV002 31/19 A2984 RMK AO2
     T03090186=
KCPC 231735Z AUTO 35007KT 320V020 10SM CLR 21/04 A3015 RMK AO2
     T02100036=
KRBW 231735Z AUTO 33008KT 10SM CLR 23/10 A3017 RMK AO2=
KUYF 231735Z AUTO 15006G15KT 10SM SCT049 23/07 A3015 RMK AO2=
