SAKA31 PTYA 232000
METAR PTYA 231951Z 13007KT 11SM -RA SCT016CB OVC120 25/25 A2973 RMK
SHRAE20RAB20 CB ALQDS SLP068 T02500247=
