SAUS70 KWBC 231934
METAR
K2C8 231935Z AUTO 04010KT 9SM CLR 16/09 A2948 RMK AO2=
KCLK 231935Z AUTO 17019G27KT 10SM CLR 26/13 A2962 RMK AO2=
KD50 231935Z AUTO 04013G22KT 10SM OVC013 05/03 A2952 RMK AO2=
KFRR 231935Z AUTO 00000KT 10SM OVC026 16/07 A3023 RMK AO1=
KLQK 231935Z AUTO 10SM CLR 24/03 A3015 RMK AO2 T02380029=
KY51 231935Z AUTO 14019G25KT 10SM CLR 23/15 A2967 RMK AO1
     T02250145=
K2J9 231935Z AUTO 09005KT 10SM CLR 27/06 A3012 RMK AO2=
K4R5 231935Z AUTO 14004KT 10SM BKN110 21/13 A2967 RMK AO2
     T02140125=
K8W2 231935Z AUTO 04007KT 10SM BKN035 BKN050 20/02 A3022 RMK AO1
     T02010015=
KARV 231935Z AUTO 15014G22KT 10SM BKN039 22/12 A2976 RMK AO2
     T02170119=
KCCA 231935Z AUTO 20012KT 10SM OVC036 26/16 A2989 RMK AO2=
KCDH 231935Z AUTO 18014G21KT 140V200 7SM SCT055 30/16 A2991 RMK
     AO2=
KCPK 231935Z AUTO 34005KT 15/14 A3009 RMK AO2 P0001 T01500140=
KEOE 231935Z AUTO 03004KT 10SM CLR 23/06 A3018 RMK AO2=
KFDW 231935Z AUTO 32007KT 304V004 10SM CLR 23/06 A3015 RMK AO1=
KHFY 231935Z AUTO 17014G21KT 10SM SCT060 26/12 A3003 RMK AO2
     T02580121=
KIUA 231935Z AUTO 15008KT 10SM CLR 21/04 A3023 RMK AO2
     T02100040=
KIXA 231935Z AUTO 36010KT 10SM OVC017 16/15 A3013 RMK AO2=
KJAQ 231935Z AUTO 29009KT 10SM CLR 15/M03 A2995 RMK AO1
     T01491030=
KMDZ 231935Z AUTO 14014G24KT 10SM SCT039 22/12 A2972 RMK AO2
     T02170124 PWINO=
KSPA 231935Z AUTO 00000KT 10SM CLR 22/01 A3016 RMK AO2=
KVER 231935Z AUTO 18015G24KT 10SM SCT110 30/16 A2967 RMK AO2 LTG
     DSNT E T03000161=
