SAUS70 KWBC 231700 RRG
METAR
KLOT 231655Z AUTO 17019G25KT 10SM CLR 23/13 A2992 RMK AO2=
KLRJ 231655Z AUTO 16024G30KT 10SM CLR 23/13 A2935 RMK AO2=
KLXN 231655Z AUTO 18019G24KT 10SM CLR 27/07 A2926 RMK AO2
     T02660074=
KMGC 231655Z AUTO 16012G19KT 140V200 10SM CLR 23/12 A2998 RMK
     AO2=
KMJD 231655Z AUTO 14011G17KT 10SM FEW040 25/14 A3013 RMK AO2=
KMLJ 231655Z AUTO 13003KT 10SM CLR 23/09 A3020 RMK AO2=
KMNH 231655Z AUTO 23023G31KT 10SM CLR 16/M04 A2943 RMK AO2=
KMQI 231655Z AUTO 01014G20KT 4SM BR OVC004 17/16 A3006 RMK AO2
     P0003 T01650161=
KMQS 231655Z AUTO 05003G14KT 10SM SCT075 16/10 A3027 RMK AO2=
KOBE 231655Z AUTO 04009KT 10SM FEW040 FEW046 FEW070 28/19 A3009
     RMK AO2=
KOGA 231655Z AUTO 21010G17KT 10SM CLR 24/00 A2922 RMK AO2
     T02400000=
KOGS 231655Z AUTO 00000KT 10SM CLR 21/04 A3027 RMK AO2=
KOKM 231655Z AUTO 19023G35KT 10SM CLR 25/16 A2977 RMK AO2
     T02490160=
KOKZ 231655Z AUTO 11005KT 10SM CLR 23/10 A3020 RMK AO2
     T02290100=
KOLZ 231655Z AUTO 15023G29KT 10SM CLR 22/13 A2968 RMK A01=
KONL 231655Z AUTO 16022G25KT 10SM CLR 23/05 A2924 RMK AO2
     T02250048=
KOOA 231655Z AUTO 17018G28KT 10SM CLR 25/18 A2966 RMK AO2
     T02520176=
KOPL 231655Z AUTO 15015G20KT 10SM SCT065 26/16 A3006 RMK AO2
     T02640158=
KOPN 231655Z AUTO 14005KT 10SM CLR 24/01 A3023 RMK AO2=
KOWP 231655Z AUTO 18015G22KT 10SM CLR 27/16 A2976 RMK AO2
     T02740159=
KPBX 231655Z AUTO 00000KT 10SM CLR 20/06 A3023 RMK AO2
     T01960062=
KPEA 231655Z AUTO 16015G24KT 10SM CLR 24/14 A2962 RMK AO2
     T02450138=
KPIM 231655Z AUTO 22004KT 10SM CLR 22/01 A3022 RMK AO2
     T02190011=
KPLU 231655Z AUTO 00000KT 10SM -DZ FEW003 07/07 A3012 RMK AO2=
KPMU 231655Z AUTO 20010G19KT 10SM CLR 25/14 A3008 RMK AO2=
KPNA 231655Z AUTO 31022G29KT 10SM OVC120 00/M06 A2959 RMK AO2=
KPNT 231655Z AUTO 16022G28KT 10SM CLR 24/16 A2991 RMK AO2
     T02350156=
KROG 231658Z 10SM CLR 26/14 A2983 RMK AO2 SLP088 T02560144 $=
KSUT 231655Z AUTO 01012KT 10SM CLR 20/08 A3012 RMK AO2
     T02030078=
K06C 231655Z AUTO 17010G19KT 140V200 10SM CLR 22/16 A2990 RMK AO2
     T02220157=
K0R4 231655Z AUTO 14013KT 10SM CLR 27/15 A3007 RMK AO2
     T02660154=
K1R8 231655Z AUTO 14005KT 10SM CLR 25/08 A3016 RMK AO2=
K33V 231655Z AUTO 19011G16KT 10SM CLR 03/M02 A2951 RMK AO1=
K3K3 231655Z AUTO 22028G35KT 5SM HZ SCT016 BKN025 OVC034 26/07
     A2941 RMK AO2=
K49A 231655Z AUTO 00000KT 10SM CLR 20/01 A3026 RMK AO2
     T02040011=
K4O4 231655Z AUTO 17017G24KT 8SM BKN030 OVC035 25/17 A2993 RMK
     AO2=
K4S2 231655Z AUTO 00000KT 10SM CLR 10/04 A3010 RMK AO2=
K66R 231655Z AUTO 17009G16KT 10SM SCT042 OVC060 28/18 A2995 RMK
     AO2 T02760175=
KADU 231655Z AUTO 17018G25KT 10SM SCT002 BKN028 OVC075 24/13 A2949
     RMK AO2 PWINO=
KAFK 231655Z AUTO 18027G32KT 10SM CLR 27/13 A2945 RMK AO2
     T02680128=
KAIO 231655Z AUTO 18019G30KT 8SM CLR 25/15 A2946 RMK AO2=
KAJG 231655Z AUTO 16022G29KT 10SM CLR 26/11 A3001 RMK AO2
     T02550110=
KAJR 231655Z AUTO 11003KT 10SM CLR 22/04 A3023 RMK AO2
     T02150037=
KAJZ 231655Z AUTO 19006KT 10SM SCT033 BKN045 BKN090 07/04 A2964
     RMK AO2 T00650036=
KAQO 231655Z AUTO 20017G23KT 10SM BKN036 26/16 A2988 RMK AO2=
KASL 231655Z AUTO 00000KT 10SM BKN038 BKN046 27/16 A2995 RMK AO2
     T02690163 TSNO $=
KASW 231655Z AUTO 18007G15KT 150V220 10SM CLR 22/11 A3005 RMK AO2
     T02300115=
KAUH 231655Z AUTO 19018G25KT 10SM CLR 25/11 A2934 RMK AO2
     T02510113=
KAUN 231655Z AUTO VRB04KT 10SM CLR 13/M03 A2996 RMK A01=
KAWG 231655Z AUTO 16017G29KT 10SM CLR 24/15 A2970 RMK AO2=
KAXA 231655Z AUTO 15025G32KT 10SM CLR 22/14 A2950 RMK A01=
