SAUS80 KWBC 231922
METAR
K4BM 231915Z AUTO 16015G23KT 1/2SM -SN OVC002 M02/M02 A2962 RMK
     AO2=
KIZA 231915Z AUTO VRB06KT 10SM CLR 21/M00 A2988 RMK AO2=
KPSN 231915Z AUTO 17015G23KT 10SM SCT055 BKN065 30/15 A2986 RMK
     AO2=
K77S 231935Z AUTO VRB05KT 10SM SCT043 SCT050 13/06 A3019 RMK
     A01=
K9V9 231915Z AUTO 14014KT 10SM CLR 23/08 A2913 RMK AO2
     T02320078=
KAYS 231915Z AUTO 01004KT 10SM CLR 26/12 A3012 RMK AO2
     T02620117=
KCBE 231915Z AUTO 34003KT 10SM CLR 18/05 A3028 RMK AO2
     T01830053=
KGIC 231915Z AUTO 01004KT 10SM BKN016 OVC023 03/00 A3001 RMK
     AO1=
KSOA 231915Z AUTO 15014G20KT 10SM 28/14 A2983 RMK AO2=
