SAUS70 KWBC 231638 RRA
METAR
KBVU 231635Z AUTO 34011KT 10SM CLR 15/M04 A2984 RMK AO2=
KBWP 231635Z AUTO 14020G27KT 10SM CLR 20/11 A2941 RMK AO2=
KBWW 231635Z AUTO 05015KT 10SM OVC010 07/05 A2935 RMK AO2=
KBXK 231635Z AUTO 24009KT 10SM BKN070 20/10 A2980 RMK A01=
KC29 231635Z AUTO 17010G16KT 10SM CLR 21/12 A2983 RMK AO1
     T02130120=
KCAD 231635Z AUTO 13010KT 10SM CLR 21/11 A3003 RMK AO2
     T02080109=
KCDA 231635Z AUTO 13004KT 10SM 17/05 A3037 RMK AO2 T01680052=
KCDI 231635Z AUTO 00000KT 10SM CLR 20/09 A3022 RMK AO2
     T01960089=
KCDN 231635Z AUTO 04008KT 10SM CLR 22/07 A3020 RMK AO2=
KCEY 231635Z AUTO 18010G20KT 140V220 10SM CLR 24/11 A3009 RMK
     A01=
KCFJ 231635Z AUTO 18019G25KT 10SM CLR 22/08 A3004 RMK AO2
     T02220080=
KCGC 231635Z AUTO 06004KT 10SM CLR 27/15 A3014 RMK AO2=
KCJR 231635Z AUTO 02005KT 10SM OVC024 18/07 A3026 RMK AO2
     T01760068=
KCKC 231635Z AUTO 13008KT 110V180 10SM CLR 16/10 A2979 RMK AO2=
KCKM 231635Z AUTO 17017G23KT 10SM CLR 25/15 A3007 RMK A01=
KCLS 231635Z AUTO 00000KT 3SM BR OVC005 03/03 A3012 RMK AO2=
KCLW 231635Z AUTO 06005KT 10SM CLR 26/15 A3012 RMK AO2 PWINO=
KCMR 231635Z AUTO 25008G13KT 10SM OVC028 02/M00 A2985 RMK AO2=
KCNB 231635Z AUTO 10018G23KT 10SM CLR 20/12 A2942 RMK AO2
     T02010115=
KCPT 231635Z AUTO 19013G22KT 10SM BKN033 26/17 A2986 RMK A01=
KCTZ 231635Z AUTO 33006KT 10SM CLR 19/11 A3017 RMK AO2
     T01870113=
KCVX 231635Z AUTO 15006G10KT 10SM CLR 22/12 A3001 RMK AO2
     T02150119=
KD57 231635Z AUTO 07016KT 10SM CLR 08/03 A2935 RMK AO2=
KD60 231635Z AUTO 07016KT 10SM OVC008 04/04 A2952 RMK AO2=
KD95 231635Z AUTO 17009G15KT 10SM CLR 22/07 A3014 RMK AO2
     T02230066=
KDNA 231635Z AUTO 24021G27KT 10SM FEW049 FEW055 FEW075 24/11 A2983
     RMK AO2=
KDNN 231635Z AUTO 00000KT 9SM FEW250 20/05 A3023 RMK AO2
     T01960049=
KDRI 231635Z AUTO 16012G16KT 9SM FEW042 26/18 A3004 RMK AO2
     T02630182 $=
KDTL 231635Z AUTO 13016KT 10SM CLR 17/09 A2950 RMK AO2=
KDUH 231635Z AUTO 14006KT 10SM CLR 23/09 A3014 RMK AO2
     T02250091=
KDYB 231635Z AUTO 34007KT 300V020 10SM CLR 22/11 A3017 RMK AO2=
KEFK 231635Z AUTO 00000KT 10SM CLR 19/03 A3035 RMK AO2
     T01870032=
KEKM 231635Z AUTO 16014KT 9SM CLR 22/13 A3004 RMK AO2
     T02210133=
KELK 231635Z AUTO 20021G27KT 9SM CLR 23/12 A2968 RMK AO2 PK WND
     17030/1621 SLP341 T02310124 $=
KEVU 231635Z AUTO 19018G30KT 10SM CLR 27/15 A2953 RMK AO2
     T02720151=
KEXX 231635Z AUTO 00000KT 10SM CLR 19/08 A3021 RMK AO2
     T01920077=
KEZF 231635Z AUTO 34005KT 7SM -RA OVC016 13/12 A3022 RMK AO2
     T01330117=
KEZM 231635Z AUTO 06004KT 10SM CLR 23/11 A3020 RMK AO2=
KF70 231635Z AUTO 18011KT 10SM CLR 15/07 A2988 RMK AO2=
KFFX 231635Z AUTO 17007G14KT 10SM SCT050 SCT070 22/11 A3001 RMK
     AO2 T02230108=
KFGN 231635Z AUTO 09007KT 10SM CLR 11/06 A2965 RMK AO2=
KFKA 231635Z AUTO 16017G21KT 10SM CLR 20/12 A2968 RMK AO2
     T02000124=
KFKS 231635Z AUTO 18010G14KT 10SM CLR 21/11 A2998 RMK AO2
     T02130113=
KFPK 231635Z AUTO 17011G14KT 10SM CLR 21/11 A3007 RMK AO2
     T02140112=
KFVX 231635Z AUTO 02008KT 340V050 10SM CLR 17/08 A3021 RMK AO2
     T01720075=
KFWB 231635Z AUTO VRB06KT 130V240 10SM CLR 25/15 A2985 RMK AO2=
KGLY 231635Z AUTO 19015G26KT 160V220 10SM CLR 27/15 A2971 RMK
     AO2=
KGWR 231635Z AUTO 11014KT 9SM CLR 14/09 A2941 RMK A01=
KHAI 231635Z AUTO 16011G16KT 10SM CLR 22/12 A3006 RMK AO2
     T02220116=
KHBI 231635Z AUTO 01005KT 10SM CLR 19/05 A3024 RMK AO2
     T01860047=
KHRJ 231635Z AUTO 35012G16KT 10SM CLR 20/06 A3019 RMK AO2
     T01990064=
KHVS 231635Z AUTO VRB04G11KT 10SM CLR 21/08 A3019 RMK AO2=
