SAUS70 KWBC 232000 RRC
METAR
KJAQ 231955Z AUTO 33007KT 10SM CLR 16/M04 A2995 RMK AO1
     T01571036=
KLGU 231951Z AUTO 31019KT 10SM SCT031 BKN042 OVC070 04/M02 A2981
     RMK AO2 SLP096 T00441017=
KOKB 231952Z AUTO 24007KT 190V270 8SM BKN041 21/11 A2985 RMK AO2
     SLP106 T02110111=
KPHX 231951Z 24010KT 10SM FEW050 SCT080 SCT110 24/07 A2972 RMK AO2
     SLP049 T02440072 $=
KACT 231951Z 18018G31KT 10SM FEW055 31/17 A2979 RMK AO2 PK WND
     18033/1941 SLP081 T03110167 $=
KAEG 231947Z 24021G34KT 10SM BKN085 19/00 A2969=
KBAZ 231951Z 15018G27KT 10SM OVC050 30/17 A2980 RMK AO2 PK WND
     17028/1932 SLP082 T03000172=
KBHK 231951Z AUTO 32016KT 8SM OVC012 07/04 A2940 RMK AO2 SLP958
     T00670039=
KBJC 231947Z 36004KT 10SM VCSH BKN080 BKN120 14/00 A3034=
KCNW 231955Z 17022G27KT 10SM BKN050 29/15 A2980=
KDAG 231950Z AUTO 00000KT 10SM CLR 18/M07 A2987 RMK AO2 SLP101
     T01781067=
KEMT 231945Z 13003KT 10SM SCT043 21/08 A2985=
KGYI 231950Z 17024G34KT 10SM SKC 29/14 A2976=
KHOB 231950Z 22022G31KT 10SM SKC 29/07 A2969=
KIFP 231950Z 35012KT 10SM FEW160 22/M02 A2980=
KLVM 231949Z AUTO 26015KT 1SM -SN BR FEW008 BKN016 OVC034 01/M01
     A2973 RMK AO2 SLP090 P0001 T00111011 $=
KPAO 231947Z 28008G16KT 10SM SKC 18/03 A3001=
KRHV 231947Z 30012KT 10SM SKC 18/03 A2999=
KSBA 231953Z 19006KTKT 10SM CLR 22/04 A2986=
KSEE 231947Z VRB06KT 10SM BKN044 20/08 A2987=
KSUN 231951Z 33010G21KT 10SM SCT080 06/M10 A2983=
KTPL 231951Z AUTO 15020G28KT 10SM BKN050 30/17 A2981 RMK AO2 PK
     WND 16032/1908 SLP082 T03000172=
KAFN 231952Z AUTO 00000KT 10SM CLR 14/08 A3033 RMK AO2 SLP282
     T01440083=
KAQW 231952Z AUTO VRB04KT 10SM CLR 17/03 A3029 RMK AO2 SLP261
     T01720028=
KARR 231952Z 16019G33KT 10SM CLR 25/14 A2980 RMK AO2 PK WND
     18035/1936 SLP088 T02500139=
KBML 231952Z AUTO 19004KT 10SM CLR 18/06 A3034 RMK AO2 SLP280
     T01830061=
KBRL 231953Z AUTO 17017G28KT 10SM CLR 24/14 A2969 RMK AO2 PK WND
     18028/1953 SLP050 T02440144=
KDPA 231952Z 17019G34KT 10SM CLR 26/13 A2982 RMK AO2 PK WND
     18034/1943 SLP092 T02560133=
KDVN 231952Z AUTO 15020G30KT 10SM CLR 25/14 A2972 RMK AO2 PK WND
     16030/1951 SLP057 T02500139=
KFOZ 231953Z AUTO 12012G17KT 10SM CLR 23/11 A2962 RMK AO2=
KIOW 231952Z AUTO 16021G32KT 10SM CLR 25/14 A2967 RMK AO2 PK WND
     16032/1947 SLP044 T02500139=
KMDH 231952Z 18023G33KT 10SM FEW049 26/14 A2991 RMK AO2 PK WND
     19043/1932 SLP126 T02610139=
KORB 231953Z AUTO 10SM SCT095 22/11 A2960 RMK AO2=
KORE 231952Z AUTO 00000KT 10SM CLR 14/09 A3033 RMK AO2 SLP272
     T01440089=
KPYM 231952Z AUTO 02008KT 10SM BKN070 OVC090 14/12 A3029 RMK AO2
     SLP261 T01440122=
KSLK 231951Z AUTO 00000KT 10SM CLR 20/03 A3028 RMK AO2 SLP259
     T02000028=
KSPI 231952Z 17016G32KT 10SM CLR 24/14 A2980 RMK AO2 PK WND
     18036/1919 SLP088 T02390139=
KABR 231953Z AUTO 13018G30KT 10SM CLR 24/12 A2922 RMK AO2 PK WND
     11032/1907 RAE46 SLP894 P0000 T02390122=
KABY 231953Z AUTO 06005KT 10SM CLR 26/08 A3013 RMK AO2 SLP202
     T02560078=
KACK 231953Z 03019G26KT 4SM -RA BR BKN005 OVC030 16/15 A3023 RMK
     AO2 PK WND 03026/1952 SLP235 P0008 T01560150=
KAEX 231953Z 19013G21KT 10SM FEW050 BKN065 29/15 A2996 RMK AO2 PK
     WND 19026/1913 SLP147 T02940150=
KAFW 231953Z 18025G36KT 10SM FEW035 FEW250 29/15 A2972 RMK AO2 PK
     WND 16040/1911 SLP050 T02940150=
KAIA 231953Z AUTO 30022G28KT 10SM CLR 17/03 A2930 RMK AO2 PK WND
     33034/1901 SLP906 T01670033=
KAKO 231953Z AUTO 36019G27KT 10SM BKN120 19/00 A2929 RMK AO2 PK
     WND 01027/1953 SLP871 T01940000 $=
