SACA32 KWBC 231800 RRA
METAR
TAPA 231800Z 08010KT 040V180 9999 FEW022 29/23 Q1012 NOSIG=
