SAUS80 KWBC 231900
METAR
K77S 231855Z AUTO 16006KT 10SM FEW021 SCT031 12/08 A3019 RMK
     A01=
