SAUS80 KWBC 231734
METAR
KSVE 231735Z AUTO 09003KT 10SM FEW042 OVC050 M33/M44 A3007 RMK
     AO2=
