SAUS80 KWBC 232000 RRA
METAR
KSCK 231955Z 32017G23KT 10SM CLR 21/M01 A2995 RMK AO2 SLP141
     T02111011=
PHJR 231953Z VRB06G16KT 10SM FEW036 30/21 A3005 RMK AO2 SLP182
     T03000206=
PHKO 231953Z 29005KT 10SM SCT070 28/22 A3001 RMK AO2 SLP162
     T02780217=
PHMK 231954Z COR 04011G18KT 10SM SCT046 27/20 A3006 RMK AO2 SLP179
     T02670200=
PHMK 231954Z 04011G18KT 10SM BKN046 BKN050 27/20 A3006 RMK AO2
     SLP179 T02670200=
PHNL 231953Z 06011G17KT 10SM FEW024 SCT045 BKN060 29/21 A3004 RMK
     AO2 SLP172 VCSH NE T02940206=
PHNY 231956Z AUTO 25006KT 10SM SCT036 BKN044 26/19 A3010 RMK AO2
     SLP173 T02560194 $=
PHOG 231954Z VRB04KT 10SM CLR 32/18 A3002 RMK AO2 SLP169
     T03170178=
PHTO 231953Z 01006KT 10SM SCT045 BKN060 OVC075 27/19 A3005 RMK AO2
     SLP175 T02670194=
KGNG 231955Z AUTO 28025G30KT 10SM CLR 08/M01 A2990 RMK AO2=
KINW 231956Z AUTO VRB03KT 10SM BKN055 BKN070 OVC090 13/01 A2978
     RMK AO2 RAE1859 SLP040 P0000 T01280011=
KMHS 231956Z AUTO VRB04G19KT 10SM SCT038 09/M01 A3012 RMK AO2
     SLP220 T00941011=
KP60 231956Z AUTO 30011G24KT 250V330 M03/M08 A2968 RMK AO1 SLP059
     T10281078=
KEDU 231955Z AUTO 34012G25KT 10SM CLR 19/M02 A2999 RMK AO1=
KMKN 231955Z AUTO 18018G28KT 10SM CLR 30/15 A2976 RMK AO2
     T03000147=
KSEP 231955Z AUTO 17018G25KT 10SM CLR 29/14 A2978 RMK AO2
     T02910136=
KWMC 231956Z AUTO A3003 RMK AO2 SLPNO PWINO FZRANO $=
TJSJ 231956Z 05011KT 10SM SCT033 SCT080 30/24 A2988 RMK AO2 SLP117
     VCSH S SW T03000239 $=
KFAR 231954Z COR 12020G28KT 10SM CLR 24/12 A2933=
KFLG 231957Z 24011G26KT 10SM FEW034 BKN044 OVC055 06/M02 A2982 RMK
     AO2 PK WND 23028/1929 SLP038 T00611017=
K2WX 231956Z AUTO 32020G35KT 08/03 A2931 RMK AO1 PK WND 31035/1948
     SLP931 T00830033=
K9MN 231955Z AUTO 12019G27KT 10SM CLR 23/12 A2957 RMK AO1
     T02310117=
KFSD 231956Z 15017G33KT 10SM SCT250 28/12 A2926 RMK AO2 PK WND
     17035/1945 SLP901 T02780117=
KGNA 231956Z AUTO 07013KT 14/09 A2974 RMK AO1 SLP073 T01390094=
KOFK 231956Z AUTO 17024G34KT 10SM OVC031 31/11 A2924 RMK AO2 PK
     WND 17037/1903 SLP887 T03110106=
KTKC 231955Z AUTO 15024G32KT 10SM 25/10 A2936 RMK AO2
     T02490100=
KD07 231956Z AUTO 35013KT 12/04 A2926 RMK AO1 SLP915 T01170039=
K6R6 231951Z AUTO 10007KT 19/16 A2982 RMK AO1 SLP072 T01890161=
KALK 231956Z AUTO 26019G27KT 10SM CLR 19/04 A2987 RMK AO2 PK WND
     28030/1900 SLP033 T01940044=
KBZN 231956Z 24008KT 1SM SN BR SCT009 SCT015 OVC022 01/M01 A2981
     RMK AO2 SLP119 P0005 T00061006=
KELY 231953Z AUTO 03011KT 10SM FEW044 SCT050 SCT060 02/M03 A2990
     RMK AO2 WSHFT 1933 SLP119 T00171028=
KSPD 231956Z AUTO 21030G51KT 26/M01 A2943 RMK AO1 PK WND
     22051/1955 SLP897 T02611006=
K40U 231955Z AUTO 29017G22KT 10SM -RA BKN041 BKN047 OVC060 02/M04
     A2970 RMK AO2 T00191040=
KSFO 231956Z 30010KT 10SM CLR 19/05 A3000 RMK AO2 SLP160 T01940050
     $=
KBIH 231956Z AUTO 36020G26KT 10SM CLR 13/M09 A2992 RMK AO2 PK WND
     35027/1912 SLP110 T01331094=
KLWS 231956Z 24004KT 10SM CLR 10/03 A3005 RMK AO2 SLP182
     T01000028=
K48A 231955Z AUTO 10004KT 10SM CLR 25/09 A3014 RMK AO2
     T02470095=
K4BM 231955Z AUTO 15007G17KT 110V180 10SM SCT008 SCT014 SCT021
     00/M02 A2962 RMK AO2=
KCKP 231955Z AUTO 16022G29KT 10SM CLR 28/12 A2936 RMK AO2
     T02750116=
KDBN 231955Z AUTO 00000KT 10SM CLR 26/07 A3016 RMK AO2=
KEHA 231955Z AUTO 22033G41KT 10SM SCT090 27/04 A2946 RMK AO2
     T02710040=
KIZA 231955Z AUTO 00000G12KT 10SM CLR 22/M03 A2987 RMK AO2=
KP58 231955Z AUTO 14011G18KT 20/12 A3008 RMK AO1 SLP183
     T02000122=
