SANZ31 NZKL 231630
METAR NZAA 231630Z AUTO 16002KT 3600 BCFG SCT019/// 11/11 Q1029 BECMG
9999 NSW=
METAR NZWN 231630Z AUTO 02017G27KT 9999 NCD 15/09 Q1022 NOSIG=
METAR NZCH 231630Z AUTO 20007KT 9999 NCD 11/03 Q1019 NOSIG=
