SASA31 KWBC 231800 RRC
METAR
SKCL 231800Z 31006KT 9999 SCT020TCU SCT300 29/19 Q1013 NOSIG RMK
     TCUS/SW A2993=
SKRG 231800Z 10009KT 9999 VCSH BKN017TCU 21/13 Q1024 NOSIG RMK
     TCUSE/NW VCSH/NE A3024=
SVMC 231800Z 00000KT 9999 SCT060 XX/XX Q1010=
