SAUS70 KWBC 232120 RRD
METAR
KF46 232115Z AUTO 18016G25KT 10SM BKN050 30/15 A2977 RMK AO2
     T02970154=
KGDJ 232115Z AUTO 17013G26KT 10SM CLR 30/14 A2974 RMK AO2
     T02960143=
KGYB 232115Z AUTO 16015G23KT 10SM SCT048 30/17 A2982 RMK AO2
     T02950174=
KLXY 232115Z AUTO 17016G25KT 10SM BKN060 30/16 A2980 RMK AO2
     T02980156=
KSEZ 232115Z AUTO 27014G17KT 10SM 13/01 A2979 RMK AO2=
KSVC 232115Z AUTO 25011G20KT 10SM CLR 21/06 A2982 RMK AO2
     T02060055=
KVCV 232115Z AUTO 31007G16KT 10SM CLR 17/M08 A2990 RMK AO2=
K82C 232115Z AUTO 16018G22KT 10SM SCT047 24/14 A2969 RMK AO2
     T02400135=
KADC 232115Z AUTO 13018G30KT 10SM CLR 23/11 A2941 RMK AO2 TSNO=
KBTA 232115Z AUTO 17024G35KT 10SM CLR 30/13 A2934 RMK AO2
     T02950127=
KDYT 232115Z AUTO 07017G23KT 10SM SCT055 12/10 A2961 RMK AO2=
KEFK 232115Z AUTO 00000KT 10SM CLR 16/04 A3031 RMK AO2
     T01640042=
KFFX 232115Z AUTO 15013G22KT 10SM SCT050 25/11 A2994 RMK AO2
     T02510105=
KFGN 232115Z AUTO 06009KT 10SM CLR 17/08 A2956 RMK AO2=
KFKA 232115Z AUTO 16017G29KT 7SM CLR 23/13 A2960 RMK AO2 LTG DSNT
     S T02320127=
KFSO 232115Z AUTO 00000KT 10SM CLR 17/06 A3029 RMK AO2
     T01720056=
KHZE 232115Z AUTO 03013KT 10SM FEW029 OVC038 12/06 A2936 RMK
     AO2=
KHZL 232115Z AUTO 00000KT 10SM SCT110 16/09 A3028 RMK AO2=
KMWM 232115Z AUTO 14026G33KT 10SM CLR 25/12 A2937 RMK AO2=
KMZH 232115Z AUTO 14005KT 10SM BKN049 BKN055 23/12 A2956 RMK
     AO2=
KOSC 232115Z AUTO 11006KT 10SM CLR 19/12 A3006 RMK AO2
     T01930115=
KPNM 232115Z AUTO 12019G27KT 10SM CLR 24/13 A2948 RMK AO2 TSNO=
KRNP 232115Z AUTO 17010G18KT 10SM CLR 24/08 A3004 RMK AO2
     T02350081=
KRQB 232115Z AUTO 16013G23KT 120V190 10SM SCT055 23/11 A2997 RMK
     AO2 T02310105=
KRYV 232115Z AUTO 15017G24KT 10SM SCT047 SCT120 24/12 A2977 RMK
     AO2 T02370124=
KRZN 232115Z AUTO 14009G20KT 10SM SCT047 24/12 A2957 RMK AO2
     T02370117=
KS25 232115Z AUTO 01009G18KT 10SM OVC015 07/06 A2944 RMK AO2=
KSJX 232115Z AUTO 15006KT 10SM SCT055 BKN080 23/11 A2995 RMK AO2
     T02250110=
K46U 232115Z AUTO 33010G16KT 10SM BKN030 OVC037 02/M04 A2978 RMK
     A01=
KC83 232115Z AUTO 33019G25KT 10SM CLR 21/M04 A2996 RMK AO2=
KCWC 232115Z AUTO 18022G31KT 10SM CLR 32/14 A2965 RMK AO2
     T03180135=
KDSF 232115Z AUTO 06006KT 10SM CLR 26/15 A3005 RMK A01=
KECS 232115Z AUTO 32017G24KT 10SM -RA BKN010 BKN075 OVC090 01/00
     A2947 RMK AO2=
KEKS 232110Z AUTO 02018KT M01/M02 A2986 RMK AO2 PWINO TSNO=
KF44 232115Z AUTO 17016G22KT 10SM BKN055 28/14 A2981 RMK AO2=
KFOT 232110Z AUTO 34014KT 9SM CLR 14/06 A3014 RMK AO1=
KGOO 232115Z AUTO 01007G14KT 340V050 10SM CLR 14/M08 A2997 RMK
     A01=
KLNC 232115Z AUTO 17022G29KT 10SM SCT055 29/15 A2978 RMK AO2
     T02880147=
KMNZ 232115Z AUTO 16020G28KT 10SM CLR 30/13 A2977 RMK AO2
     T03000131=
KSXU 232115Z AUTO 22023G33KT 10SM SCT100 22/00 A2960 RMK AO2
     T02231001=
KSZT 232115Z AUTO 25004KT 10SM CLR 07/02 A3004 RMK AO2=
KT89 232115Z AUTO 19012G17KT 10SM CLR 31/04 A2971 RMK A01=
KU68 232115Z AUTO 31025G34KT 10SM SCT080 BKN110 04/M01 A2965 RMK
     AO2=
KUVA 232115Z AUTO 15013KT 10SM CLR 28/16 A2980 RMK AO2
     T02810164=
K2G2 232115Z AUTO 13005KT 10SM CLR 22/02 A3015 RMK A01=
KBAX 232115Z AUTO 17014G23KT 10SM CLR 23/09 A3007 RMK AO2
     T02250085=
KD39 232115Z AUTO 13019G25KT 10SM CLR 23/12 A2941 RMK AO2
     T02290124=
KDSF 232115Z AUTO 06006KT 10SM CLR 26/15 A3005 RMK A01=
KHHV 232115Z AUTO 15018G30KT 10SM FEW034 27/19 A2987 RMK A01=
KHLB 232115Z AUTO 16010G16KT 10SM CLR 23/08 A3006 RMK A01=
KHSB 232115Z AUTO 19017G22KT 10SM CLR 26/14 A2995 RMK AO2
     T02640144=
