SAUS70 KWBC 232000 RRB
METAR
KPNE 231954Z 05010KT 10SM -RA SCT040 BKN047 OVC110 17/10 A3024 RMK
     AO2 RAB47 SLP238 P0000 T01670100=
KPSF 231954Z AUTO 00000KT 10SM CLR 16/01 A3029 RMK AO2 SLP250
     T01610011=
KPTW 231954Z AUTO 05006KT 10SM OVC047 16/09 A3025 RMK AO2 SLP241
     T01610094=
KPVG 231955Z VRB06KT 10SM OVC006 14/14 A3012 RMK AO2 SLP301 PWINO
     PNO FZRANO RVRNO=
KRDG 231954Z 03007KT 10SM R36/3000V4000FT FEW060 17/09 A3023 RMK
     AO2 SLP244 T01720089 $=
KBRO 231953Z 16022G36KT 10SM SCT043 32/20 A2981 RMK AO2 PK WND
     17036/1946 SLP091 T03170200=
KJFK 231951Z 04012KT 10SM -RA BKN050 BKN120 BKN150 15/10 A3025 RMK
     AO2 RAB10 SLP241 P0001 T01500100=
KBMQ 231953Z AUTO 17013G28KT 10SM CLR 29/16 A2981 RMK AO2 PK WND
     19031/1916 SLP078 T02890156=
KBPT 231953Z AUTO 14013G24KT 10SM FEW038 BKN055 OVC080 28/20 A2993
     RMK AO2 SLP136 T02780200=
KBRO 231953Z 16022G36KT 10SM SCT043 32/20 A2981 RMK AO2 PK WND
     17036/1946 SLP091 T03170200=
KBYG 231953Z AUTO 34031G43KT 10SM OVC075 02/M01 A2948 RMK AO2 PK
     WND 34047/1916 SLP978 T00221011=
KCAG 231953Z AUTO 29013KT 1SM -SN BR SCT007 BKN016 OVC024 01/M02
     A2964 RMK AO2 SLP049 P0004 T00061017=
KCDS 231953Z AUTO 18012G22KT 10SM CLR 28/11 A2960 RMK AO2 PK WND
     18027/1904 SLP996 T02830111=
KCPR 231953Z 30009KT 10SM -RA SCT012 BKN019 OVC046 04/02 A2951 RMK
     AO2 RAB28 SLP975 P0000 T00390022=
KDEN 231953Z 24021G35KT 10SM SCT070 SCT110 BKN200 19/M01 A2933 RMK
     AO2 PK WND 21037/1929 SLP860 SHRA DSNT NW T01891011=
KDRO 231953Z AUTO 25015G21KT 10SM OVC075 06/M02 A2973 RMK AO2
     SLP030 T00561022 $=
KLBX 231953Z AUTO 17019G25KT 10SM CLR 29/15 A2989 RMK AO2 PK WND
     15027/1855 SLP122 T02940150=
KLVJ 231953Z AUTO 15017G26KT 10SM FEW050 29/17 A2991 RMK AO2 PK
     WND 19026/1857 SLP128 T02890167=
KUTS 231953Z AUTO 10SM SCT065 31/12 A2988 RMK AO2 SLP111
     T03060122=
KBGR 231953Z 19003KT 10SM OVC150 19/09 A3036 RMK AO2 SLP279 BINOVC
     T01890089=
KBTL 231953Z 16016G22KT 10SM SCT055 24/11 A3001 RMK AO2 PK WND
     20030/1921 SLP158 T02440111=
KCMI 231953Z 17025G34KT 10SM FEW039 FEW100 24/13 A2989 RMK AO2 PK
     WND 18039/1923 SLP119 T02390128=
KCMX 231953Z AUTO 10011KT 10SM CLR 20/11 A2978 RMK AO2 SLP085
     T02000111=
KCPS 231953Z 17016G26KT 10SM FEW035 25/15 A2981 RMK AO2 PK WND
     18036/1857 SLP093 T02500150 $=
KLHQ 231953Z AUTO 19008KT 10SM CLR 24/08 A3012 RMK AO2 SLP197
     T02440078=
KLNS 231953Z 04008KT 10SM FEW050 SCT075 18/10 A3023 RMK AO2 SLP238
     T01780100=
KLUK 231953Z 16011KT 10SM CLR 26/08 A3008 RMK AO2 SLP184
     T02560078=
KMCK 231953Z AUTO 22029G40KT 5SM HZ OVC035 30/M02 A2922 RMK AO2 PK
     WND 21047/1859 SLP868 T03001017=
KMCW 231953Z AUTO 15025G38KT 10SM FEW044 24/13 A2953 RMK AO2 PK
     WND 15039/1941 SLP990 T02390128=
KMDW 231953Z 18018G33KT 10SM FEW050 SCT130 27/12 A2985 RMK AO2 PK
     WND 17036/1940 SLP099 T02720122=
KMGY 231953Z AUTO 15012G17KT 10SM CLR 24/09 A3009 RMK AO2 SLP183
     T02440089=
KMHT 231953Z 00000KT 10SM OVC170 17/07 A3032 RMK AO2 SLP282
     T01670067=
KWST 231953Z AUTO 04007KT 10SM -RA FEW040 BKN060 BKN110 14/12
     A3027 RMK AO2 RAE04B50 SLP248 P0000 T01390122=
PAHN 231954Z AUTO 30013KT 10SM OVC110 05/02 A2958 RMK AO2 SLP020
     T00500017 TSNO $=
PAKN 231954Z 00000KT 10SM CLR M01/M02 A3009 RMK AO2 SLP191
     T10061022=
PASC 231953Z 10009KT 10SM BKN033 M11/M12 A3001 RMK AO2 SLP164
     I1000 T11061117 PNO $=
KAKR 231954Z AUTO VRB05KT 9SM CLR 24/02 A3014 RMK AO2 SLP203
     T02440022=
KALM 231955Z AUTO 22017KT 10SM CLR 23/06 A2975 RMK AO2=
