SAUS80 KWBC 231828
METAR
KCUL 231813Z AUTO 18020G29KT 10SM SCT049 27/11 A2998 RMK AO2=
KSFY 231823Z AUTO 16015G21KT 10SM CLR 24/13 A2976 RMK AO2=
KNY0 231820Z AUTO 23003KT 10SM CLR 15/06 A3030 RMK AO2=
K4BM 231809Z AUTO 17021G31KT M1/4SM +SN OVC002 M02/M03 A2962 RMK
     AO2=
