SAUS70 KWBC 231618 RRI
METAR
KMCD 231615Z AUTO 00000KT 10SM CLR 18/11 A3005 RMK AO2
     T01820114=
KMEV 231615Z AUTO 00000KT 10SM CLR M01/M03 A3003 RMK AO2=
KMHV 231620Z AUTO 26019KT 10SM CLR 11/M00 A2988 RMK A01=
KMIO 231615Z AUTO 17025G33KT 10SM CLR 26/15 A2974 RMK AO2=
KMJQ 231615Z AUTO 15017G26KT 10SM CLR 19/11 A2949 RMK AO2=
KMMI 231615Z AUTO 00000KT 10SM CLR 20/04 A3025 RMK A01=
KMNE 231615Z AUTO 17006KT 140V210 10SM CLR 26/18 A3002 RMK AO2
     T02560175=
KMNV 231615Z AUTO 00000KT 10SM 20/05 A3024 RMK A01=
KMNZ 231615Z AUTO 19021G27KT 10SM OVC028 26/16 A2988 RMK AO2
     T02550162=
KMOP 231615Z AUTO 14010KT 10SM SCT055 21/11 A3007 RMK AO2
     T02090109=
KMOR 231615Z AUTO 00000KT 10SM CLR 19/04 A3024 RMK A01=
KMOX 231615Z AUTO 14022G28KT 10SM CLR 19/09 A2946 RMK AO2=
KMRC 231610Z AUTO 21013KT 10SM CLR 22/09 A3015 RMK A01=
KMUT 231615Z AUTO 16019G25KT 10SM CLR 23/14 A2976 RMK AO2=
KMVH 231615Z AUTO 30021G27KT 5SM HZ FEW050 M00/M02 A2957 RMK AO2
     PWINO=
KMWM 231615Z AUTO 13018G29KT 10SM CLR 19/12 A2947 RMK AO2=
KMZH 231615Z AUTO 04003KT 10SM SCT070 OVC075 16/10 A2966 RMK
     AO2=
