SAUS70 KWBC 231800 RRX
METAR
KGZN 231800Z AUTO 18019G28KT 10SM CLR 27/15 A2977 RMK AO2=
