SAUS70 KWBC 231638 RRH
METAR
KSYF 231635Z AUTO 22033G41KT 4SM CLR 24/M02 A2927 RMK AO2
     T02431022 PWINO=
KSYI 231635Z AUTO 20013G18KT 10SM CLR 23/06 A3018 RMK A01=
KSZT 231635Z AUTO 00000KT 10SM SCT100 06/02 A2997 RMK AO2=
KSZY 231635Z AUTO 18013G22KT 10SM CLR 23/09 A3013 RMK A01=
KT89 231635Z AUTO 11008KT 10SM CLR 27/05 A2985 RMK A01=
KLNQ 231635Z AUTO 10004KT 10SM BKN041 BKN050 27/14 A3015 RMK AO2
     T02690141=
KLUG 231635Z AUTO 19016KT 10SM CLR 22/08 A3017 RMK A01=
KLUX 231635Z AUTO 01003KT 10SM CLR 20/08 A3022 RMK AO2=
KLXY 231635Z AUTO 17015G31KT 10SM OVC037 27/17 A2990 RMK AO2
     T02650169=
KLYO 231635Z AUTO 19025G32KT 3SM HZ CLR 26/12 A2951 RMK AO2
     T02560119=
KM02 231635Z AUTO 19014G20KT 10SM 23/08 A3013 RMK A01=
KM04 231635Z AUTO 21015G22KT 10SM FEW034 24/15 A3006 RMK A01=
KM08 231635Z AUTO 13010KT 10SM CLR 23/13 A3010 RMK A01=
KM30 231635Z AUTO 20015G18KT 10SM BKN049 24/13 A3005 RMK AO2
     T02410129=
KM54 231630Z AUTO 21013G19KT 10SM CLR 23/06 A3015 RMK A01=
KM75 231635Z AUTO 02015KT 3SM BR OVC016 02/02 A2958 RMK A01=
KM91 231635Z AUTO 22014KT 10SM CLR 23/09 A3013 RMK A01=
KMBT 231635Z AUTO 23011KT 10SM CLR 23/05 A3016 RMK A01=
KMEV 231635Z AUTO 00000KT 10SM CLR 00/M02 A3004 RMK AO2=
KMHV 231640Z AUTO 26018KT 10SM CLR 12/M00 A2990 RMK A01=
KMIO 231635Z AUTO 18023G33KT 10SM CLR 26/15 A2974 RMK AO2=
KMMI 231635Z AUTO 24003KT 10SM CLR 21/04 A3024 RMK A01=
KMNE 231635Z AUTO 17008G19KT 10SM CLR 26/17 A3002 RMK AO2
     T02600171=
KMNV 231635Z AUTO 00000KT 10SM 20/05 A3023 RMK A01=
KMNZ 231635Z AUTO 20023G27KT 10SM BKN028 26/16 A2989 RMK AO2
     T02590159=
KMOR 231635Z AUTO 00000KT 10SM CLR 19/04 A3023 RMK A01=
KMRC 231630Z AUTO 21013KT 10SM CLR 23/08 A3014 RMK A01=
KMUT 231635Z AUTO 17018G25KT 10SM CLR 23/14 A2975 RMK AO2=
KMVH 231635Z AUTO 30020KT 7SM FEW055 FEW065 M00/M03 A2958 RMK AO2
     PWINO=
KO69 231635Z AUTO VRB06G12KT 10SM CLR 13/02 A3003 RMK A01=
KOEL 231635Z AUTO 24028G36KT 5SM HZ CLR 27/02 A2934 RMK AO1
     T02700023=
KOJA 231635Z AUTO 19019G29KT 10SM CLR 23/13 A2968 RMK AO2
     T02320129=
KOXI 231635Z AUTO 18015G21KT 10SM BKN075 22/11 A3000 RMK AO1=
KOXV 231635Z AUTO 18015G25KT 10SM CLR 24/13 A2961 RMK AO2=
KP08 231635Z AUTO 24012KT 10SM BKN033 BKN039 BKN045 20/14 A2980
     RMK AO2=
KPCW 231635Z AUTO 13005KT 10SM CLR 23/11 A3015 RMK AO2=
KPHT 231635Z AUTO 17013G19KT 10SM FEW110 24/12 A3009 RMK A01=
KPKV 231635Z AUTO 16018G24KT 10SM SCT032 BKN039 OVC060 29/20 A2994
     RMK AO2 T02910201=
KPRO 231635Z AUTO 16021G27KT 10SM CLR 25/13 A2953 RMK AO2
     T02450125=
KPRS 231635Z AUTO 20005KT 10SM CLR 26/12 A2988 RMK AO2
     T02630117=
KTDF 231635Z AUTO 02010G16KT 10SM 16/06 A3024 RMK AO2=
KTHA 231635Z AUTO 16008G14KT 10SM CLR 22/05 A3019 RMK A01=
KTNU 231635Z AUTO 17019G27KT 10SM CLR 24/14 A2961 RMK A01=
KTQH 231635Z AUTO 16012G20KT 10SM SCT029 25/13 A2983 RMK AO2=
KTQV 231635Z AUTO 03008G18KT 10SM CLR 18/05 A3021 RMK A01=
KTYL 231635Z AUTO 24014G24KT 7SM -RA BKN020 OVC027 09/09 A2981 RMK
     AO2 P0001=
KU68 231635Z AUTO 30021G30KT 10SM BKN048 OVC055 03/M01 A2958 RMK
     AO2=
KUBE 231635Z AUTO 14015G18KT 10SM CLR 19/15 A2970 RMK AO2=
KUCY 231635Z AUTO 19020KT 8SM SCT036 SCT042 25/14 A3005 RMK
     A01=
KUSE 231635Z AUTO 19012KT 10SM CLR 23/11 A3012 RMK AO2=
KUVA 231635Z AUTO 15009KT 10SM SCT017 23/20 A2991 RMK AO2
     T02310197=
KUXL 231635Z AUTO 13013KT 10SM SCT065 28/17 A3004 RMK AO2
     T02790170=
KVCV 231635Z AUTO 27014G20KT 10SM CLR 13/M02 A2992 RMK AO2=
KXLL 231635Z AUTO 03006KT 10SM BKN050 BKN060 BKN075 15/07 A3029
     RMK AO2=
