SAUS70 KWBC 231720 RRG
METAR
KCUH 231715Z AUTO 18017G23KT 10SM CLR 24/16 A2971 RMK AO2
     T02440159=
KCWV 231715Z AUTO 06005KT 10SM CLR 25/11 A3017 RMK AO2
     T02500114=
KD73 231715Z AUTO 01003KT 10SM CLR 21/05 A3023 RMK AO2
     T02110055=
KDKB 231715Z AUTO 16018G23KT 10SM CLR 22/14 A2989 RMK AO2
     T02190143=
KDKR 231715Z AUTO 16016KT 10SM FEW038 SCT047 BKN055 28/17 A2994
     RMK AO2=
KDNS 231715Z AUTO 10SM RMK AO2 PNO PWINO=
KDNV 231715Z AUTO 17017G23KT 10SM CLR 25/12 A2997 RMK AO2
     T02490120=
KDVO 231715Z AUTO 32010G15KT 10SM CLR 17/02 A3002 RMK AO2=
KE11 231715Z AUTO 21015G18KT 10SM CLR 26/09 A2979 RMK AO2
     T02620093=
KE16 231715Z AUTO 33015G21KT 10SM CLR 14/04 A3001 RMK AO2=
KE41 231715Z AUTO 19012G19KT 10SM CLR 23/15 A2986 RMK AO2
     T02270152=
KECU 231715Z AUTO 15018G24KT 10SM 23/17 A2993 RMK AO2=
KEZZ 231715Z AUTO 19023G29KT 10SM CLR 27/14 A2961 RMK AO2
     T02680142=
KFEP 231715Z AUTO 16014G22KT 10SM CLR 22/15 A2984 RMK AO2
     T02230149=
KFFL 231715Z AUTO 16018G24KT 10SM CLR 24/13 A2968 RMK A01=
KFKR 231715Z AUTO 18014KT 10SM CLR 24/12 A3002 RMK AO2=
KFMM 231715Z AUTO 30015G24KT 10SM CLR 20/M03 A2927 RMK AO2=
KFPY 231715Z AUTO 33005KT 10SM CLR 25/10 A3015 RMK AO2 T02530097
     TSNO=
KFSK 231715Z AUTO 19028G34KT 10SM CLR 27/15 A2968 RMK AO2
     T02720146=
KFZG 231715Z AUTO 00000KT 10SM CLR 23/11 A3019 RMK AO2
     T02340114=
KGBG 231715Z AUTO 16014G22KT 10SM CLR 22/15 A2980 RMK AO2
     T02200146=
KGCD 231715Z AUTO 00000KT 10SM SCT020 BKN029 OVC047 02/00 A3005
     RMK AO2 T00210002=
KGCM 231715Z AUTO 18017G24KT 10SM SCT035 26/12 A2977 RMK AO2=
KGGF 231715Z AUTO 22012G18KT 10SM CLR 24/M00 A2921 RMK AO2=
KGGP 231715Z AUTO 18016G19KT 10SM CLR 23/11 A3003 RMK AO2=
KGHG 231715Z AUTO 06006KT 10SM CLR 15/12 A3034 RMK AO2=
KGMJ 231715Z AUTO 18021G32KT 10SM CLR 21/06 A2975 RMK AO2=
KGOP 231715Z AUTO 10SM SCT037 SCT120 26/16 A2989 RMK AO2=
KGVT 231715Z AUTO 18024G32KT 10SM SCT039 27/16 A2988 RMK AO2 TSNO
     T02710159=
KGZL 231715Z AUTO 19013G20KT 10SM SCT029 24/17 A2982 RMK AO2 LTG
     DSNT S=
KHDE 231715Z AUTO 18020G28KT 10SM CLR 27/10 A2929 RMK AO2
     T02670096=
KHDL 231715Z AUTO VRB04KT 10SM CLR 23/03 A3017 RMK AO2=
KHHG 231715Z AUTO 18013G17KT 10SM CLR A3008 RMK AO2=
KHII 231715Z AUTO 33015G24KT 10SM CLR 21/M03 A2978 RMK AO2=
KHMZ 231715Z AUTO 00000KT 10SM CLR 15/04 A3028 RMK AO2
     T01510040=
KHNR 231715Z AUTO 18017G30KT 10SM CLR 24/15 A2944 RMK A01=
KHPT 231715Z AUTO 15015G23KT 10SM CLR 23/12 A2959 RMK AO2=
KI63 231715Z AUTO 16017KT 10SM SCT120 22/13 A2979 RMK AO2
     T02160134=
KI74 231715Z AUTO 17004KT 10SM CLR 21/12 A3015 RMK AO2=
KIBM 231715Z AUTO 34025G31KT 10SM CLR 15/01 A2930 RMK AO2
     T01460007=
KICL 231715Z AUTO 18020G30KT 10SM CLR 27/13 A2951 RMK AO2=
KIDP 231715Z AUTO 18023G37KT 10SM CLR 25/15 A2969 RMK AO2
     T02550152=
KIKK 231715Z AUTO 18019G25KT 10SM CLR 24/13 A2994 RMK AO2
     T02400131=
KIKV 231715Z AUTO 17017G23KT 10SM CLR 24/14 A2956 RMK AO2=
KJAS 231715Z AUTO 17007G13KT 130V200 9SM SCT040 BKN046 27/19 A2999
     RMK AO2=
KJOT 231715Z AUTO 17013G22KT 10SM CLR 24/14 A2990 RMK AO2
     T02410136=
KJYR 231715Z AUTO 19022G29KT 9SM 26/12 A2934 RMK AO2=
KK88 231715Z AUTO 18021G31KT 10SM CLR 26/14 A2968 RMK AO1
     T02590139=
KLAM 231715Z AUTO 18016G23KT 10SM SCT055 OVC065 11/M01 A2972 RMK
     AO2 T01111012=
KLCQ 231715Z AUTO 04004KT 10SM CLR 24/11 A3015 RMK AO2=
KLGC 231715Z AUTO 20003KT 10SM CLR 22/02 A3021 RMK AO2
     T02200024=
KLLN 231715Z AUTO 20020G25KT 10SM CLR 27/10 A2974 RMK AO2=
