SAUS70 KWBC 232010
METAR
K1A5 232015Z AUTO 00000KT 10SM CLR 24/M04 A3017 RMK AO2
     T02441043=
KEFT 232015Z AUTO 17020G27KT 10SM CLR 24/13 A2975 RMK AO2
     T02380127=
KHNZ 232015Z AUTO 36004KT 10SM SCT027 18/10 A3015 RMK AO2
     T01760096=
KJXI 232015Z AUTO 15014G25KT 10SM CLR 28/14 A2986 RMK AO2
     T02760135=
KPDC 232015Z AUTO 15014G21KT 110V180 10SM CLR 25/12 A2964 RMK AO2
     T02480117=
KW31 232015Z AUTO 36007KT 10SM BKN025 19/11 A3015 RMK AO1
     T01870111=
KW96 232015Z AUTO 32004KT 10SM OVC007 14/13 A3016 RMK AO1
     T01400130=
KEZS 232015Z AUTO 13011G20KT 10SM CLR 23/14 A2980 RMK AO2
     T02300140=
KBNL 232015Z AUTO VRB06KT 10SM CLR 25/09 A3013 RMK AO2=
KC62 232035Z AUTO 17017G23KT 10SM SCT050 23/12 A3003 RMK AO2
     T02370120=
KETB 232015Z AUTO 14011G16KT 10SM CLR 20/12 A2983 RMK AO2=
KLHZ 232015Z AUTO 35007KT 10SM CLR 18/11 A3015 RMK AO2=
KRRL 232015Z AUTO 15014G21KT 10SM SCT042 22/13 A2974 RMK AO2
     T02230127 TSNO=
KUNU 232015Z AUTO 15015G23KT 10SM CLR 23/13 A2980 RMK AO2
     T02280131=
PAHX 232008Z AUTO 18004KT 10SM BKN008 M02/M02 A3003 RMK AO2 SLP169
     T10221022 FZRANO=
