SACA41 KWBC 231800 RRB
METAR
TDCF 231800Z 31002KT 9999 SCT017 32/24 Q1010=
