SAUS70 KWBC 232038 RRC
METAR
KDRM 232035Z AUTO 14007KT 10SM CLR 17/10 A3004 RMK AO2
     T01650104=
KDVP 232033Z AUTO 13026G32KT 10SM CLR 25/13 A2934 RMK AO2
     T02540125=
KFOZ 232033Z AUTO 12010G21KT 10SM CLR 23/12 A2961 RMK AO2=
KHFY 232035Z AUTO 17013G20KT 10SM CLR 26/11 A3003 RMK AO2
     T02560113=
KIUA 232035Z AUTO 14005KT 10SM CLR 20/06 A3023 RMK AO2
     T02000064=
KLDJ 232035Z AUTO 06009G16KT 10SM -DZ OVC050 17/07 A3024 RMK AO2
     T01650071=
KLUM 232035Z AUTO 13013G27KT 10SM CLR 26/17 A2960 RMK AO2
     T02550173 PWINO=
KMDZ 232035Z AUTO 14013G18KT 10SM SCT043 23/13 A2971 RMK AO2
     T02250125 PWINO=
KMRJ 232035Z AUTO 16016G24KT 10SM CLR 22/10 A2972 RMK AO2=
KORB 232033Z AUTO 14007KT 090V170 10SM CLR 23/11 A2958 RMK AO2=
KOWA 232033Z AUTO 14022G30KT 10SM CLR 24/13 A2950 RMK AO2=
KOZW 232035Z AUTO 16014G17KT 10SM SCT055 23/10 A3006 RMK AO2
     T02340098=
KRPD 232035Z AUTO 13023G30KT 7SM SCT046 23/16 A2962 RMK AO2
     T02310159=
KSDC 232035Z AUTO 11003KT 10SM CLR 20/03 A3023 RMK AO2=
KY51 232035Z AUTO 15016G25KT 10SM CLR 23/15 A2966 RMK AO1
     T02320145=
K1P1 232035Z AUTO 00000KT 3/4SM HZ VV005 16/07 A3033 RMK AO2
     T01560068=
K6L4 232035Z AUTO 00000KT 10SM CLR 23/04 A3015 RMK AO2=
KACQ 232035Z AUTO 14024G34KT 10SM CLR 24/12 A2950 RMK AO2=
KAIT 232035Z AUTO 12010G19KT 10SM SCT047 23/12 A2952 RMK AO2=
KANQ 232035Z AUTO 16015G20KT 10SM CLR 24/10 A3002 RMK AO2=
KC29 232035Z AUTO 17020G25KT 10SM SCT044 25/13 A2974 RMK AO1
     T02460129=
KCBG 232035Z AUTO 13009G25KT 103V163 10SM CLR 26/13 A2950 RMK
     AO2=
KCOQ 232035Z AUTO 09012G19KT 10SM CLR 18/09 A2960 RMK AO2 TSNO=
KDLZ 232035Z AUTO 17009KT 10SM CLR 23/07 A3011 RMK AO2=
KDYT 232035Z AUTO 06021G28KT 10SM BKN050 12/10 A2961 RMK AO2=
KFBL 232035Z AUTO 14023G28KT 10SM CLR 25/13 A2950 RMK AO2=
KFFM 232035Z AUTO 13019G30KT 10SM CLR 23/12 A2934 RMK AO2=
KGHW 232035Z AUTO 11025G31KT 10SM CLR 23/12 A2939 RMK AO2=
KJMR 232035Z AUTO 13013G17KT 10SM SCT046 23/12 A2956 RMK AO2=
KLJF 232035Z AUTO 14017G25KT 10SM CLR 24/11 A2942 RMK AO2=
KRCX 232035Z AUTO 14019G23KT 10SM SCT043 23/16 A2968 RMK AO2
     T02310155=
KROX 232035Z AUTO 07019G22KT 10SM CLR 18/09 A2950 RMK AO2=
KSGS 232035Z AUTO 15013G23KT 10SM CLR 25/12 A2950 RMK AO2
     T02470116=
KTWM 232035Z AUTO 07014G22KT 10SM CLR 19/11 A2964 RMK AO2=
KUKT 232035Z AUTO 06003KT 10SM BKN055 17/10 A3024 RMK A01=
KVVV 232035Z 14024G34KT 10SM 23/13 A2930 RMK AO2=
KY63 232035Z AUTO 14022G32KT 10SM CLR 23/12 A2935 RMK AO2
     T02250121=
K10G 232035Z AUTO 15006KT 10SM CLR 22/04 A3015 RMK AO2=
K20U 232035Z AUTO 36012KT 10SM OVC008 06/06 A2942 RMK AO2=
K3D2 232035Z AUTO 17013G25KT 10SM CLR 18/11 A2988 RMK AO2
     T01760111=
KAMN 232035Z AUTO 15011G21KT 10SM SCT055 24/08 A3002 RMK AO2
     T02420081=
KAUM 232035Z AUTO 16018G26KT 10SM CLR 24/13 A2954 RMK AO2=
KBDH 232035Z AUTO 14021G32KT 10SM CLR 25/12 A2941 RMK AO2=
KD25 232035Z AUTO 15013G17KT 10SM SCT041 21/12 A2973 RMK AO2
     T02120120=
KD55 232035Z AUTO 06023G31KT 10SM CLR 13/12 A2944 RMK AO2=
KDXX 232035Z AUTO 14025G31KT 10SM CLR 26/12 A2931 RMK AO2=
KEDJ 232035Z AUTO 17010G16KT 10SM CLR 24/09 A3010 RMK A01=
KELO 232035Z AUTO 12013G16KT 10SM CLR 20/10 A2966 RMK AO2=
KGYL 232035Z AUTO 14022G30KT 7SM CLR 25/13 A2944 RMK AO2
     T02450125=
KHCO 232035Z AUTO 08015G21KT 10SM CLR 20/10 A2943 RMK AO2=
KMGG 232035Z AUTO 13008G19KT 090V150 10SM SCT048 25/12 A2947 RMK
     AO2 T02460115 PWINO=
KMGN 232035Z AUTO 17005KT 10SM BKN075 22/11 A2997 RMK AO2
     T02260109=
KMVE 232035Z AUTO 14025G32KT 10SM CLR 25/12 A2934 RMK AO2=
