SAUS70 KWBC 231900 RRK
METAR
K81R 231855Z AUTO 17016G22KT 10SM CLR 28/15 A2982 RMK AO2
     T02800151=
KBJC 231855Z 27027G33KT 10SM BKN120 BKN200 17/M04 A2934=
KBPG 231855Z AUTO 20020G25KT 10SM CLR 29/12 A2975 RMK AO2
     T02870119=
KCEC 231856Z AUTO 33008KT 6SM HZ CLR 13/08 A3019 RMK AO2 SLP225
     T01330078=
KCFD 231855Z AUTO 16015G22KT 10SM SCT050 BKN055 30/17 A2990 RMK
     AO2 T02950165=
KJDD 231855Z AUTO 18010G17KT 10SM OVC048 27/17 A2987 RMK AO2=
KLAS 231856Z 35017G27KT 10SM FEW130 17/M11 A2986 RMK AO2 PK WND
     33028/1844 SLP101 T01721106=
KLHB 231855Z AUTO 16014G20KT 10SM SCT049 BKN060 30/17 A2987 RMK
     AO2 T02980169=
KLHM 231855Z AUTO 33016G22KT 10SM CLR 20/M02 A2996 RMK AO1=
KLUD 231855Z AUTO 17017G26KT 7SM CLR 29/15 A2976 RMK AO2
     T02860148=
KMDD 231855Z AUTO 18014G23KT 10SM CLR 27/12 A2975 RMK AO2
     T02710123=
KOLM 231854Z 18006KT 10SM SCT009 09/07 A3017 RMK AO2 SLP216
     T00940067 $=
KS33 231855Z AUTO 30003KT 10SM CLR 08/00 A3013 RMK AO2=
KSLE 231856Z 16008KT 10SM BKN060 12/07 A3017 RMK AO2 SLP218
     T01220067=
KTEX 231855Z AUTO 26009G20KT 210V300 10SM SCT055 BKN070 BKN085
     01/M10 A2970 RMK AO2=
KTPH 231856Z AUTO 34020G33KT 10SM CLR 07/M08 A2995 RMK AO2 PK WND
     33033/1847 SLP135 T00671083=
KTYL 231855Z AUTO 23023G30KT 10SM FEW042 SCT050 SCT065 14/02 A2982
     RMK AO2=
KVHN 231855Z AUTO 24014G24KT 10SM CLR 28/07 A2982 RMK AO2
     T02840073=
KWHP 231850Z 31023G33KT 10SM SKC 20/M02 A2989 RMK OBSERVER HT=
KAAA 231855Z AUTO 17023G31KT 10SM CLR 25/15 A2984 RMK AO2
     T02460149=
KAHQ 231855Z AUTO 18024G34KT 5SM HZ CLR 30/12 A2934 RMK AO2
     T03000118=
KBNW 231855Z AUTO 16019G27KT 10SM CLR 26/14 A2951 RMK AO2=
KCDD 231854Z AUTO 14004KT 10SM CLR 22/09 A2966 RMK AO2=
KCFS 231855Z AUTO 17013G19KT 10SM CLR 24/09 A3008 RMK AO2
     T02430094=
KDIK 231856Z AUTO 02012G20KT 10SM OVC016 09/04 A2932 RMK AO2
     SLP933 T00940044=
KEAU 231856Z 14015G27KT 10SM CLR 24/13 A2963 RMK AO2 PK WND
     15027/1848 SLP029 T02440128=
KFET 231855Z AUTO 17019G28KT 10SM CLR 30/13 A2934 RMK AO2
     T02950132=
KFOA 231855Z AUTO 19022G31KT 10SM BKN049 BKN055 26/14 A2995 RMK
     AO2=
KFSW 231855Z AUTO 15012KT 10SM OVC001 23/14 A2970 RMK AO2=
KFWC 231855Z AUTO 18019G25KT BKN050 25/13 A2995 RMK AO1 T02490125
     PWINO=
KGDB 231855Z AUTO 12019G29KT 10SM CLR 24/13 A2939 RMK AO2
     T02440130=
KGPC 231855Z AUTO 16021G25KT 10SM CLR 25/11 A3000 RMK AO2
     T02530112=
KPHN 231855Z AUTO 15009KT 10SM CLR 24/07 A3012 RMK AO2=
KPPO 231855Z AUTO 17018G28KT 10SM CLR 25/15 A2995 RMK AO2
     T02480154=
KPRG 231855Z AUTO 17023G30KT 10SM CLR 27/14 A2996 RMK AO2
     T02650135=
KRPJ 231855Z AUTO 16022G29KT 10SM CLR 24/16 A2981 RMK AO2
     T02420155 TSNO=
KRSV 231855Z AUTO 19019G28KT 10SM CLR 26/11 A2998 RMK AO2
     T02610106=
KSTE 231855Z AUTO 12014G19KT 10SM CLR 23/10 A2978 RMK AO2
     T02320100=
KSXK 231855Z AUTO 16026G33KT 10SM CLR 27/13 A2931 RMK AO2=
KTYQ 231855Z AUTO 18014G21KT 10SM SCT050 25/11 A3002 RMK AO2
     T02490110=
KVVS 231855Z AUTO 00000KT 10SM CLR 22/02 A3021 RMK AO2
     T02210023=
KVYS 231855Z AUTO 15023G28KT 10SM SCT042 25/14 A2980 RMK AO2
     T02510140=
K57C 231855Z AUTO 14012G18KT 10SM CLR 23/13 A2983 RMK AO2
     T02310130=
KADC 231857Z AUTO 11017G25KT 10SM CLR 24/11 A2944 RMK AO2 TSNO=
KART 231856Z AUTO 26006KT 10SM CLR 21/06 A3025 RMK AO2 SLP241
     T02110061=
KBAF 231853Z 35006KT 10SM CLR 13/07 A3031 RMK AO2 SLP267
     T01280067=
KBCK 231855Z AUTO 14005G18KT 10SM SCT047 24/12 A2968 RMK AO2
     T02440121=
KBIE 231855Z AUTO 19029G35KT 10SM CLR 29/13 A2938 RMK AO2
     T02940128=
