SAUS70 KWBC 231838 RRD
METAR
KDUH 231835Z AUTO 15010G16KT 10SM SCT055 25/07 A3010 RMK AO2
     T02450070=
KDYT 231835Z AUTO 07011KT 10SM FEW070 12/10 A2967 RMK AO2=
KEFK 231835Z AUTO 02004KT 10SM CLR 19/06 A3033 RMK AO2
     T01900063=
KFFX 231835Z AUTO 17009G14KT 10SM BKN055 BKN065 24/12 A2996 RMK
     AO2 T02430116=
KFKA 231835Z AUTO 15022G26KT 7SM CLR 23/13 A2962 RMK AO2
     T02260127=
KFKS 231835Z AUTO 15012G17KT 10SM CLR 24/12 A2993 RMK AO2
     T02350116=
KFPK 231835Z AUTO 18015G23KT 10SM SCT055 24/10 A3003 RMK AO2
     T02370102=
KHAI 231835Z AUTO 15012G19KT 020V180 10SM SCT050 24/12 A3002 RMK
     AO2 T02430116=
KI23 231835Z AUTO 15009G16KT 10SM CLR 24/07 A3013 RMK AO1=
KIRS 231835Z AUTO 19019G24KT 10SM CLR 24/09 A3002 RMK AO2
     T02360094=
KISQ 231835Z AUTO 14009G15KT 10SM CLR 17/11 A2996 RMK AO2
     T01660111=
KJYM 231835Z AUTO 17014G18KT 10SM SCT050 23/08 A3007 RMK AO2
     T02260080=
KLWA 231835Z AUTO 15014G20KT 10SM CLR 25/12 A2995 RMK AO2
     T02540123=
KMWM 231835Z AUTO 14017G29KT 10SM CLR 23/12 A2941 RMK AO2=
KS24 231835Z AUTO 17012KT 10SM FEW060 25/10 A3012 RMK AO2=
KOEB 231835Z AUTO 18013G20KT 10SM SCT055 24/11 A3005 RMK AO2
     T02400105=
KONZ 231835Z AUTO 14005KT 10SM CLR 19/05 A3011 RMK AO2
     T01940051=
KOXD 231835Z AUTO 19008G17KT 10SM SCT050 26/05 A3011 RMK AO2
     T02640051=
KPJC 231835Z AUTO RMK AO2 TSNO PWINO=
KPNM 231835Z AUTO 12012G24KT 10SM CLR 24/13 A2954 RMK AO2 TSNO=
KRNP 231835Z AUTO 15015G20KT 5SM HZ CLR 24/09 A3007 RMK AO2
     T02350090=
KRQB 231835Z AUTO 19010G23KT 10SM CLR 24/11 A2999 RMK AO2
     T02350112=
KSJX 231835Z AUTO 16009KT 10SM CLR 24/12 A2998 RMK AO2
     T02350115=
KSLH 231835Z AUTO 16006G15KT 10SM CLR 23/11 A3000 RMK AO2=
KTOB 231835Z AUTO 14022G28KT 10SM CLR 23/12 A2957 RMK AO2=
KTTF 231835Z AUTO 13009G14KT 110V170 10SM CLR 24/10 A3011 RMK AO2
     T02370104=
KUKT 231835Z AUTO 05005KT 10SM CLR 17/10 A3025 RMK A01=
KULM 231835Z AUTO 15022G28KT 10SM CLR 24/11 A2945 RMK AO2=
KVLL 231835Z AUTO 15010KT 10SM CLR 23/11 A3014 RMK AO2
     T02280105=
KVWU 231835Z AUTO 12010G21KT 10SM CLR 25/12 A2955 RMK AO2=
KY70 231835Z AUTO 16018G23KT 10SM CLR 24/09 A3002 RMK AO2
     T02420089=
K0E0 231835Z AUTO 24025G30KT 10SM SCT070 BKN090 19/M02 A2974 RMK
     AO2 T01861018 TSNO=
K4S2 231835Z AUTO 30004KT 10SM CLR 12/04 A3012 RMK AO2=
K6S2 231835Z AUTO 21005KT 8SM FEW012 SCT038 12/11 A3020 RMK
     AO2=
K6S8 231825Z AUTO 26017G24KT 10SM 04/01 A2965 RMK A01 LAUREL=
KAQP 231833Z AUTO 17016G28KT 10SM SCT085 23/11 A2937 RMK AO2=
KBEA 231835Z AUTO 15017G24KT 10SM SCT038 BKN044 BKN050 29/18 A2984
     RMK AO2 T02880180=
KJAQ 231835Z AUTO 33007KT 10SM CLR 14/M03 A2996 RMK AO1
     T01361028=
KJSO 231835Z AUTO 19011G20KT 10SM SCT050 27/15 A2994 RMK AO2
     T02740147 TSNO=
KL18 231835Z AUTO 14005KT 10SM SCT035 18/09 A2988 RMK AO2
     P0001=
KL35 231835Z AUTO 27007KT 10SM CLR 07/M08 A2993 RMK AO2=
KSNK 231835Z AUTO 20018G23KT 10SM CLR 28/11 A2974 RMK AO2
     T02790114=
KSRR 231835Z AUTO 24037G53KT 10SM 17/02 A2976 RMK AO2=
KTVY 231835Z AUTO 30013G19KT 10SM OVC050 02/00 A2984 RMK AO2=
KBXK 231835Z AUTO 29011KT 10SM FEW050 FEW060 FEW075 23/08 A2979
     RMK A01=
KCLS 231835Z AUTO 00000KT 10SM CLR 10/07 A3016 RMK AO2=
KCMR 231835Z AUTO 28011G20KT 10SM CLR 07/M01 A2986 RMK AO2=
KCPT 231835Z AUTO 17021G27KT 10SM FEW043 29/16 A2981 RMK A01=
KDNA 231835Z AUTO 27011G25KT 10SM SCT065 SCT090 23/08 A2981 RMK
     AO2=
KL08 231835Z AUTO 00000KT 10SM CLR 22/00 A2980 RMK AO2=
KL52 231835Z AUTO 31008G13KT 9SM CLR 19/05 A2992 RMK A01=
