SACA35 KWBC 231900 CCA
METAR
MROC COR 231900Z 12006KT 060V200 9999 BKN040 27/18 A2999 TEMPO
     24006KT=
