SAUS70 KWBC 232100 RRG
METAR
KI68 232055Z AUTO 17012G15KT 10SM CLR 25/09 A3008 RMK AO1
     T02460086=
KIDI 232055Z AUTO 14008KT 120V180 10SM CLR 20/01 A3024 RMK A01=
KIFA 232055Z AUTO 14022G26KT 10SM SCT120 24/15 A2954 RMK AO2
     T02400147=
KIGQ 232055Z AUTO 17020G29KT 10SM CLR 25/13 A2987 RMK AO2
     T02500125=
KIPT 232054Z 22003KT 10SM OVC042 18/09 A3024 RMK AO2 SLP241
     T01780094 56009=
KISW 232054Z AUTO 15011G20KT 110V180 10SM CLR 23/12 A2973 RMK AO2
     PK WND 16030/2031 SLP064 T02330122 56017=
KJPX 232055Z AUTO 04008KT 10SM -RA OVC028 13/13 A3024 RMK AO2
     P0012 60074 T01330130=
KM30 232055Z AUTO 16010G20KT 10SM CLR 26/10 A2997 RMK AO2
     T02630103=
KMUT 232055Z AUTO 15016G29KT 10SM CLR 25/15 A2967 RMK AO2=
KS24 232055Z AUTO 17010KT 10SM CLR 24/07 A3008 RMK AO2 LTG DSNT
     W=
KTQE 232054Z AUTO 17029G42KT 10SM CLR 31/13 A2930 RMK AO2 PK WND
     16042/2049 SLP910 T03060128 55019=
KUBE 232055Z AUTO 14016G22KT 10SM SCT044 23/16 A2960 RMK AO2 LTG
     DSNT S=
KVAY 232054Z AUTO 02007KT 10SM -RA BKN029 OVC034 14/12 A3021 RMK
     AO2 SLP228 P0003 60007 T01440122 56002 $=
KVGC 232055Z AUTO 00000KT 10SM CLR 17/07 A3027 RMK AO2=
KY19 232055Z AUTO 08007G14KT 10SM CLR 16/09 A2928 RMK AO2=
KINJ 232055Z AUTO 18028G34KT 10SM SCT050 30/16 A2977 RMK AO2
     T03020157=
KIWA 232051Z 25014KT 10SM SCT070 24/06 A2976=
KJTC 232055Z AUTO 26025G34KT 10SM FEW037 FEW043 FEW050 14/03 A2980
     RMK AO2=
KJWY 232055Z AUTO 18018G23KT 10SM SCT050 30/16 A2978 RMK AO2
     T02950159=
KL35 232055Z AUTO 24008KT 10SM CLR 09/M10 A2992 RMK AO2=
KLRU 232055Z AUTO 24026G32KT 10SM CLR 23/02 A2978 RMK AO2
     T02340019=
KLXY 232055Z AUTO 16016G29KT 10SM BKN060 30/15 A2981 RMK AO2
     T03010154=
KM75 232055Z AUTO 02019G27KT 1/4SM FG VV002 00/00 A2967 RMK A01
     P0002=
KMEV 232055Z AUTO 01010G20KT 10SM SCT065 09/M08 A3004 RMK AO2=
KMHV 232100Z AUTO 27015G23KT 10SM CLR 18/M05 A2987 RMK A01=
KO69 232055Z AUTO 02013G21KT 340V050 10SM CLR 20/M05 A2999 RMK
     A01=
KOAR 232055Z AUTO 29011G16KT 10SM CLR M07/M21 A2998 RMK AO2=
KPRS 232055Z AUTO 19008G16KT 10SM CLR 32/11 A2974 RMK AO2
     T03170105=
KTME 232055Z AUTO 15012G18KT 10SM BKN065 30/15 A2987 RMK AO2=
KTSP 232055Z AUTO 31014G19KT 8SM CLR 12/M03 A2994 RMK AO2=
KU42 232055Z AUTO 33010G17KT 10SM SCT039 BKN046 OVC070 05/00 A2985
     RMK AO1 T00460003=
KIWA 232051Z 25014KT 10SM SCT070 24/06 A2976=
PPIZ 232056Z AUTO 11011KT 10SM SCT035 BKN055 M03/M06 A2976 RMK AO2
     SLP080 60000 T10331056 55001 FZRANO=
KECS 232055Z AUTO 33019G28KT 10SM -RA SCT012 BKN075 OVC090 01/00
     A2944 RMK AO2=
KEKS 232050Z AUTO 01015KT M01/M02 A2984 RMK AO2 PWINO TSNO=
KERV 232055Z AUTO 17016G21KT 10SM CLR 27/16 A2981 RMK AO2
     T02650160=
KFOT 232050Z AUTO 33015KT 9SM CLR 14/06 A3014 RMK AO1=
KFTN 232055Z AUTO 15009G16KT 10SM CLR 30/17 A2976 RMK A01=
KGDJ 232055Z AUTO 16018G26KT 10SM CLR 30/15 A2974 RMK AO2
     T02950147=
KGOO 232055Z AUTO 36007G17KT 320V060 10SM CLR 14/M07 A2996 RMK
     A01=
KP08 232055Z AUTO 28009G15KT 10SM BKN060 BKN070 23/08 A2976 RMK
     AO2=
KPKV 232055Z AUTO 16018G21KT 10SM SCT036 BKN046 OVC060 29/20 A2985
     RMK AO2 T02940199=
KRTS 232055Z AUTO 05006G14KT 10SM FEW050 06/M10 A3006 RMK AO2=
KSEZ 232055Z AUTO 28010G15KT 10SM 12/00 A2980 RMK AO2=
KSWW 232055Z AUTO 19019KT 10SM CLR 30/12 A2972 RMK AO2
     T03030115=
KSZT 232055Z AUTO 25005KT 10SM CLR 08/01 A3002 RMK AO2=
KT89 232055Z AUTO 17011G17KT 10SM CLR 31/04 A2971 RMK A01=
KU68 232055Z AUTO 31023G34KT 10SM BKN080 04/M01 A2964 RMK AO2=
K5H4 232055Z AUTO 06018G24KT 9SM CLR 14/02 A2936 RMK AO2=
