SAUS80 KWBC 231700
METAR
KABI 231652Z 18017G30KT 10SM CLR 26/15 A2978 RMK AO2 PK WND
     16033/1636 SLP058 T02610150=
KABQ 231652Z 21022G31KT 10SM FEW020 FEW040 SCT080 19/00 A2973 RMK
     AO2 PK WND 23031/1554 SLP001 MTNS OBSC NE-SE T01890000=
KALS 231652Z AUTO 20024G36KT 10SM SCT032 BKN045 10/02 A2958 RMK
     AO2 PK WND 21040/1606 RAB07E22 SLP949 P0000 T01000022=
KCID 231652Z 16019G29KT 10SM CLR 23/13 A2969 RMK AO2 PK WND
     16032/1639 SLP048 T02330128 $=
KCNU 231652Z AUTO 18023G33KT 10SM CLR 27/15 A2968 RMK AO2 PK WND
     19037/1553 SLP039 T02720150 $=
KCNY 231653Z AUTO 32014KT 6SM -RA BR FEW009 BKN015 OVC031 03/02
     A2960 RMK AO2 PK WND 31045/1631 WSHFT 1621 RAB35 SLP011 P0002
     T00280017=
KMHK 231652Z 20018G31KT 10SM CLR 29/13 A2949 RMK AO2 PK WND
     21039/1620 SLP976 T02890128=
KMLF 231652Z AUTO 01005KT 1 3/4SM -SN BR SCT003 BKN010 OVC015
     01/00 A2982 RMK AO2 SLP102 P0002 T00060000 $=
KSAV 231653Z 01008KT 10SM FEW050 24/11 A3018 RMK AO2 SLP217
     T02390111=
KSPS 231652Z 17021G30KT 10SM FEW120 SCT250 27/16 A2972 RMK AO2 PK
     WND 18030/1649 SLP049 T02720161=
KGDP 231651Z AUTO 24044G58KT 8SM CLR 22/09 A2982 RMK AO2 PK WND
     25058/1646 SLP024 T02220089=
KP59 231651Z AUTO 22011G24KT 17/11 A2983 RMK AO1 SLP101 T01720111
     $=
KN60 231652Z AUTO 07014G28KT 09/05 A2941 RMK AO1 PK WND 07030/1557
     SLP968 T00890050=
KATT 231651Z AUTO 18007G24KT 140V220 10SM FEW033 FEW041 SCT050
     27/17 A2991 RMK AO2 SLP117 T02670172=
KBLU 231652Z AUTO VRB06KT 10SM CLR 04/M06 A2997 RMK AO2 SLP133
     T00441061 $=
KCDJ 231651Z AUTO 18012G28KT 27/14 A2963 RMK AO1 PK WND 19030/1605
     SLP022 T02720144=
KMBG 231652Z AUTO 10014KT 10SM CLR 17/08 A2923 RMK AO2 SLP896
     T01670083=
KMFD 231652Z 14007KT 10SM CLR 22/09 A3019 RMK AO2 SLP219
     T02220094=
KNYC 231651Z AUTO VRB06KT 10SM -RA OVC120 14/08 A3029 RMK AO2
     RAB07 SLP247 P0000 T01440083 $=
K6R6 231651Z AUTO 13010KT 18/16 A2988 RMK AO1 SLP094 T01780161=
KTOL 231652Z 15008KT 120V180 10SM CLR 23/11 A3013 RMK AO2 SLP201
     T02330111=
KABI 231652Z 18017G30KT 10SM CLR 26/15 A2978 RMK AO2 PK WND
     16033/1636 SLP058 T02610150=
KALS 231652Z AUTO 20024G36KT 10SM SCT032 BKN045 10/02 A2958 RMK
     AO2 PK WND 21040/1606 RAB07E22 SLP949 P0000 T01000022=
KCNY 231653Z AUTO 32014KT 6SM -RA BR FEW009 BKN015 OVC031 03/02
     A2960 RMK AO2 PK WND 31045/1631 WSHFT 1621 RAB35 SLP011 P0002
     T00280017=
KJDN 231648Z AUTO 33008KT 06/05 A2951 RMK AO1 SLP005 P0006
     T00610050=
KMYL 231651Z AUTO 00000KT 10SM FEW040 SCT049 BKN070 01/M04 A2989
     RMK AO2 SLP140 T00061039=
KOXR 231651Z 00000KT 10SM FEW020 17/13 A2987 RMK AO2 SLP114
     T01720128=
KROW 231651Z 20023G36KT 10SM CLR 25/11 A2968 RMK AO2 PK WND
     21037/1623 SLP990 T02500111=
KSAD 231651Z AUTO 31017G25KT 10SM CLR 21/08 A2978 RMK AO2 SLP038
     T02110078=
KSAN 231651Z 24004KT 10SM SCT030 BKN042 18/10 A2989 RMK AO2 SLP123
     T01830100=
KSAT 231651Z 16018G28KT 10SM SCT032 BKN250 27/17 A2991 RMK AO2 PK
     WND 16028/1645 SLP109 T02720167=
KVCT 231651Z 15016G24KT 10SM FEW042 FEW050 BKN065 29/21 A2993 RMK
     AO2 PK WND 15030/1616 SLP132 T02890206=
KCRP 231651Z 16022G30KT 10SM FEW029 SCT039 BKN060 BKN170 BKN250
     29/21 A2990 RMK AO2 PK WND 17030/1649 SLP123 T02890211=
KELP 231651Z 25017G21KT 10SM SCT047 SCT075 BKN160 BKN190 24/11
     A2981 RMK AO2 SLP025 T02390106=
KIGM 231651Z AUTO 02010KT 10SM CLR 14/01 A2985 RMK AO2 SLP057
     T01440011=
KSMX 231651Z 30007KT 10SM CLR 14/07 A2993 RMK AO2 SLP137
     T01440072=
KSVE 231655Z AUTO 14005KT 10SM CLR 04/M03 A3006 RMK AO2=
