SAUS80 KWBC 232000 RRE
METAR
KLZZ 231955Z AUTO 15015G20KT 10SM CLR 29/15 A2976 RMK AO2
     T02890145=
