SAUS70 KWBC 231820 RRJ
METAR
KC83 231815Z AUTO 32016KT 10SM CLR 19/00 A3000 RMK AO2=
KCFD 231815Z AUTO 17013G19KT 10SM BKN055 29/17 A2992 RMK AO2
     T02910171=
KCWC 231815Z AUTO 18024G35KT 10SM CLR 30/14 A2971 RMK AO2
     T02990142=
KDSF 231810Z AUTO 06006KT 10SM CLR 26/14 A3010 RMK A01=
KDTA 231815Z AUTO 34010G19KT 10SM BKN100 OVC120 03/M02 A2983 RMK
     AO1=
KDVO 231815Z AUTO 33008G18KT 10SM CLR 19/00 A3002 RMK AO2=
KE42 231815Z AUTO 21029G38KT 10SM CLR 30/09 A2956 RMK AO2
     T02980092=
KF00 231815Z AUTO 19021G28KT 10SM CLR 27/16 A2985 RMK AO2
     T02720161=
KGLX 231815Z AUTO 06009KT 10SM CLR 27/13 A3009 RMK A01=
KHHV 231815Z AUTO 15017KT 10SM CLR 26/19 A2993 RMK A01=
KLHM 231815Z AUTO 32015G22KT 10SM CLR 18/M02 A2996 RMK AO1=
KOAR 231815Z AUTO 28006KT 7SM CLR M04/M16 A3001 RMK AO2=
KSTK 231815Z AUTO 32015G24KT 10SM CLR 21/01 A2927 RMK AO2=
KVAF 231815Z AUTO 18016KT 10SM CLR 28/15 A2997 RMK A01=
KWBF 231815Z AUTO 00000G10KT 10SM 28/18 A3005 RMK A01=
KBVS 231815Z AUTO 18003KT 10SM BKN018 BKN024 OVC044 10/08 A3014
     RMK A01=
KBYY 231815Z AUTO 16016G20KT 10SM SCT060 SCT075 29/16 A2993 RMK
     AO2 T02950163=
KCOM 231815Z AUTO 16019G25KT 10SM CLR 28/14 A2980 RMK AO2
     T02810140=
KE11 231815Z AUTO 22016G22KT 10SM CLR 28/09 A2977 RMK AO2
     T02790091=
KEBG 231815Z AUTO 14020G27KT 10SM CLR 32/19 A2983 RMK AO2
     T03150187 PWINO=
KECU 231815Z AUTO 15016G24KT 10SM CLR 24/16 A2991 RMK AO2=
KJDD 231815Z AUTO 18011G16KT 130V200 10SM SCT046 28/17 A2989 RMK
     AO2=
KLUD 231815Z AUTO 18018G25KT 10SM CLR 28/15 A2979 RMK AO2
     T02790149=
KPEZ 231815Z AUTO 16015G20KT 10SM SCT041 BKN050 30/18 A2986 RMK
     AO2 T02980182=
KPSO 231815Z AUTO 23019G24KT 10SM OVC085 05/00 A2971 RMK AO2
     T00480003=
KRAS 231815Z AUTO 15016G20KT 10SM SCT060 A2991 RMK AO2=
KRWV 231815Z AUTO 17016G22KT 10SM SCT040 SCT047 BKN055 29/17 A2990
     RMK AO2 T02880168=
KSAA 231815Z AUTO 28007KT 10SM OVC040 00/M02 A2957 RMK AO2=
KT82 231815Z AUTO 17018G24KT 10SM BKN038 26/15 A2987 RMK AO2
     T02620149=
KTEX 231815Z AUTO 22016G26KT 5SM -SN SCT009 BKN030 OVC060 00/M07
     A2971 RMK AO2=
KVTP 231815Z AUTO 23022G31KT 2SM -SN OVC006 M11/M13 A2959 RMK
     AO2=
KUMP 231815Z AUTO 20012G22KT 10SM CLR 25/13 A3004 RMK AO2
     T02520126=
