SAUS70 KWBC 231800 RRK
METAR
KCGC 231755Z AUTO 03004KT 10SM SCT050 27/14 A3010 RMK AO2=
KCKB 231753Z 33004KT 10SM CLR 23/04 A3021 RMK AO2 SLP222 T02330044
     10233 20028 58015=
KCKI 231755Z AUTO 01006KT 10SM CLR 22/05 A3016 RMK AO2=
KCLM 231753Z AUTO VRB04KT 10SM CLR 12/06 A3012 RMK AO2 SLP200
     T01170056 10117 20044 53014=
KCLW 231755Z AUTO 10006KT 10SM CLR 27/13 A3008 RMK AO2=
KCMX 231753Z AUTO 14009G18KT 10SM CLR 20/12 A2983 RMK AO2 SLP100
     T02000117 10200 20100 50000=
KCNO 231753Z 00000KT 10SM BKN040 20/11 A2988 RMK AO2 SLP114
     T02000106 10200 20122 50012=
KCPS 231753Z 18012G28KT 10SM BKN032 22/14 A2987 RMK AO2 PK WND
     18031/1654 SLP112 60000 T02220144 10233 20167 58008 $=
KD25 231755Z AUTO 15016G24KT 10SM CLR 21/12 A2978 RMK AO2
     T02060118 10206 20112=
KDCU 231753Z AUTO 16009G14KT 10SM CLR 24/07 A3017 RMK AO2 SLP212
     T02390067 10239 20111 58015=
KDEW 231753Z AUTO 19003KT 10SM CLR 07/03 A3000 RMK AO2 SLP172
     T00670028 10072 20011 51022=
KDLN 231753Z AUTO 16005KT 10SM SCT032 BKN049 OVC055 M01/M02 A2977
     RMK AO2 SLP104 60000 T10061017 11006 21022 51021=
KDLS 231753Z AUTO 30012KT 10SM CLR 14/03 A3010 RMK AO2 SLP193
     T01390028 10139 20067 51020=
KDNL 231753Z AUTO 10SM CLR 24/09 A3017 RMK AO2 SLP214 T02390089
     10239 20100 58019=
KDVT 231753Z 30008G14KT 10SM FEW044 BKN075 21/09 A2978 RMK AO2
     SLP068 T02060089 10211 20183 51010=
KEDE 231755Z AUTO 35011G17KT 10SM -RA OVC006 16/16 A3010 RMK AO2
     T01600160 10165 20151=
KEET 231753Z AUTO 17006KT 10SM CLR 23/05 A3018 RMK AO2 SLP214
     T02330050 10244 20094 58014=
KELM 231753Z 00000KT 10SM CLR 19/04 A3025 RMK AO2 SLP247 T01940044
     10200 21017 58022=
KELN 231753Z AUTO 31012KT 10SM CLR 11/M01 A3004 RMK AO2 SLP179
     T01061006 10106 20028 51018 $=
KEPH 231753Z AUTO 34014KT 10SM 11/M04 A3002 RMK AO2 SLP171
     T01111039 10111 20022 51019 $=
KEQY 231753Z AUTO 03009KT 10SM CLR 22/05 A3018 RMK AO2 SLP226
     T02170050 10222 20078 58021=
KESF 231753Z AUTO 15013G21KT 10SM SCT047 SCT055 28/16 A3002 RMK
     AO2 SLP162 T02830161 10283 20139 58015=
KEYF 231755Z AUTO 36008KT 330V030 10SM CLR 22/04 A3013 RMK AO2
     T02220038 10224 20116=
KEZM 231755Z AUTO 08004KT 10SM CLR 24/09 A3017 RMK AO2=
KF70 231755Z AUTO 20004KT 10SM SCT030 16/07 A2989 RMK AO2=
KFCM 231753Z 14018G30KT 10SM CLR 23/12 A2954 RMK AO2 PK WND
     14030/1747 SLP000 T02330122 10239 20150 58024 $=
KFFC 231753Z AUTO 01005KT 10SM CLR 23/03 A3020 RMK AO2 SLP227
     T02330028 10233 20039 58013=
KFHR 231753Z AUTO VRB03KT 10SM FEW006 11/09 A3013 RMK AO2 SLP203
     T01060089 10106 20039 53016=
KFSM 231753Z 16011G21KT 10SM CLR 27/17 A2984 RMK AO2 SLP099
     T02720167 10283 20178 58013=
KFTY 231753Z 21004KT 10SM CLR 22/03 A3020 RMK AO2 SLP223 T02170028
     10222 20044 58013=
KFYV 231753Z 18010G23KT 10SM FEW033 SCT120 26/16 A2985 RMK AO2 PK
     WND 19033/1714 SLP094 T02560156 10267 20194 56005=
KGFK 231753Z 08007KT 050V110 10SM FEW250 17/07 A2947 RMK AO2
     SLP983 T01720072 10172 20017 58022 $=
KGGE 231755Z AUTO 36008KT 10SM CLR 22/07 A3014 RMK AO2=
KGKJ 231753Z AUTO VRB04KT 10SM CLR 21/03 A3022 RMK AO2 SLP229
     T02110033 10211 20094 58011=
KGLH 231753Z 19017G23KT 10SM FEW046 28/14 A3003 RMK AO2 SLP173
     T02830139 10289 20167 58016=
KGLR 231753Z AUTO 18016G21KT 10SM FEW046 23/10 A3003 RMK AO2
     SLP166 T02280100 10228 20106 58013=
KGMU 231753Z VRB03KT 10SM CLR 22/04 A3020 RMK AO2 SLP220 T02220039
     10228 20056 58018=
KGRB 231753Z 14010G18KT 10SM CLR 22/13 A2987 RMK AO2 SLP113
     T02170128 10217 20117 58011 $=
