SASA41 KWBC 232000 RRB
METAR
SKBG 232000Z 31005KT 9999 SCT015TCU 24/20 Q1012 RMK TCUNE/SE
     A2990=
SKMD 232000Z 36015KT 9999 SCT040CB SCT100 26/16 Q1015 RMK CB/E/SE
     A3000=
SKPE 232000Z 32006KT 9999 VCSH SCT020TCU 26/19 Q1014 RMK
     TCUVCSH/SE A2994=
SKSM 232000Z 32006KT 9999 FEW020 SCT070 32/25 Q1009 RMK A2981=
