SAPA31 KWBC 232000 RRD
METAR
AYPY 232000Z VRB04KT 9999 FG FEW050 24/24 Q1009=
