SAUS70 KWBC 232200
METAR
KRID 232155Z AUTO 18010G16KT 7SM CLR 22/11 A3008 RMK AO2=
KMCX 232155Z AUTO 17009G15KT 10SM CLR 24/10 A2994 RMK AO2
     T02370095=
