SACA33 KWBC 231900 RRE
METAR
TGPY 231900Z COR 100015KT 9999 SCT018 32/26 Q1009 NOSIG RMK
     VCSH-NE+E=
