SAUS70 KWBC 231900 RRA
METAR
KPIT 231851Z 10005KT 10SM FEW130 FEW250 21/04 A3019 RMK AO2 SLP230
     T02110039=
KPPF 231852Z AUTO 18017G32KT 10SM FEW095 BKN120 26/15 A2967 RMK
     AO2 PK WND 18038/1800 LTG DSNT N AND NE SLP036 T02610150
     PWINO $=
KSMO 231851Z 34005KT 10SM CLR 23/M02 A2986 RMK AO2 SLP109
     T02331017=
KSPA 231855Z AUTO 00000KT 10SM CLR 21/03 A3017 RMK AO2=
KSTL 231851Z 17015G25KT 10SM FEW034 BKN250 25/14 A2984 RMK AO2 PK
     WND 15032/1839 SLP095 T02500144 $=
KVER 231855Z AUTO 17016G28KT 10SM CLR 29/16 A2968 RMK AO2
     T02900161=
KVNY 231851Z 35012G20KT 10SM CLR 22/M02 A2985 RMK AO2 SLP102
     T02221017 $=
KXWA 231851Z AUTO 04017G23KT 10SM OVC006 04/03 A2948 RMK AO2 PK
     WND 05026/1759 SLP003 T00440028=
K4R5 231855Z AUTO 06004KT 10SM SCT110 21/12 A2969 RMK AO2
     T02070122=
K8W2 231855Z AUTO 02005KT 10SM SCT035 19/01 A3022 RMK AO1
     T01930007=
KAHN 231851Z VRB03KT 10SM CLR 23/05 A3016 RMK AO2 SLP212
     T02330050=
KARV 231855Z AUTO 16016G23KT 10SM SCT039 21/12 A2977 RMK AO2
     T02140117=
KAVX 231851Z AUTO 04006KT 10SM CLR 17/11 A2989 RMK AO2 SLP112
     T01720111=
KBHK 231851Z AUTO 33010KT 10SM OVC014 07/04 A2941 RMK AO2 SLP964
     T00670039=
KCCA 231855Z AUTO 16007G16KT 10SM OVC032 24/16 A2991 RMK AO2=
KCDH 231855Z AUTO 15013KT 9SM BKN048 28/17 A2993 RMK AO2=
KCLE 231851Z 15011G16KT 10SM SCT250 24/08 A3013 RMK AO2 SLP216
     T02440078 $=
KCMH 231851Z 17008KT 10SM FEW060 FEW240 25/08 A3013 RMK AO2 SLP198
     T02500078 $=
KCPK 231855Z AUTO 33006KT 15/14 A3008 RMK AO2 P0005 T01480139=
KCSG 231851Z 00000KT 10SM CLR 24/03 A3015 RMK AO2 SLP205
     T02390033=
KEOE 231855Z AUTO 32005KT 10SM CLR 22/05 A3019 RMK AO2=
KERI 231851Z 02007KT 10SM CLR 21/09 A3018 RMK AO2 SLP220
     T02060089=
KEST 231852Z AUTO 16023G42KT 10SM CLR 25/13 A2943 RMK AO2 PK WND
     17042/1848 SLP960 T02500128=
KEWR 231851Z 02009KT 10SM FEW045 SCT060 BKN110 OVC140 17/09 A3025
     RMK AO2 RAE1759 SLP244 P0000 T01670089=
KFDW 231855Z AUTO 33005KT 10SM CLR 23/06 A3016 RMK AO1=
KHFY 231855Z AUTO 17017G22KT 10SM SCT050 26/13 A3003 RMK AO2
     T02570125=
KILG 231851Z 05009KT 10SM OVC045 18/12 A3021 RMK AO2 RAE40 SLP230
     P0000 T01780117=
KIUA 231855Z AUTO 13006KT 10SM CLR 23/07 A3023 RMK AO2
     T02270067=
KIXA 231855Z AUTO 35009G14KT 10SM OVC017 16/15 A3014 RMK AO2=
KJAQ 231855Z AUTO 32007KT 10SM CLR 14/M02 A2996 RMK AO1
     T01411023=
KJFK 231851Z 03009KT 10SM BKN060 BKN120 OVC150 16/11 A3025 RMK AO2
     SLP245 T01610106=
KLBE 231847Z 04008KT 20SM CLR 22/01 A3021=
KLGA 231851Z 06010KT 10SM BKN045 BKN065 BKN120 OVC250 17/07 RMK
     AO2 RAE1757 SLPNO P0000 T01670072 $=
KMDZ 231855Z AUTO 14013G22KT 10SM CLR 22/13 A2973 RMK AO2
     T02200125 PWINO=
PABA 231852Z AUTO 09021KT 10SM OVC008 M04/M06 A3006 RMK AO2 PK WND
     09027/1848 SLP185 T10391056 FZRANO PNO $=
KACT 231851Z 18022G31KT 10SM SCT050 29/16 A2982 RMK AO2 PK WND
     18038/1809 SLP091 T02890161 $=
KBAZ 231851Z 16021G26KT 10SM BKN049 BKN055 30/17 A2983 RMK AO2 PK
     WND 18028/1800 SLP093 T03000172=
KCHD 231847Z 24009KT 10SM CLR 23/08 A2978=
KDAG 231850Z AUTO VRB03KT 10SM CLR 18/M06 A2988 RMK AO2 SLP103
     T01781056=
KHDN 231851Z AUTO 27018KT 1 1/4SM -SN BR BKN005 OVC011 M01/M01
     A2959 RMK AO2 CIG 003V007 SLP019 P0000 T10061006 FZRANO=
KHDO 231851Z AUTO 16015G23KT 10SM CLR 29/18 A2983 RMK AO2
     RAB1756E44 SLP087 P0000 T02890178=
KHOB 231850Z 21022G29KT 10SM SKC 28/09 A2972=
KHQZ 231850Z 17018G30KT 10SM SCT049 29/14 A2983=
KLGU 231851Z AUTO 34011KT 10SM FEW026 SCT039 OVC049 04/M01 A2980
     RMK AO2 SLP091 T00391011=
