SAUS70 KWBC 231946
METAR
KJVY 231935Z AUTO 18012KT 10SM CLR 26/08 A3005 RMK AO2 PWINO=
KW99 231942Z AUTO 00000KT 10SM CLR 18/06 A3023 RMK AO2=
KTNB 231930Z AUTO 11003KT 10SM CLR 20/01 A3021 RMK AO2
     T01960007=
