SAUS70 KWBC 232100 RRR
METAR
KILN 232054Z AUTO 15008KT 6SM HZ CLR 24/08 A3009 RMK AO2 SLP187
     T02440078 56016=
KIND 232054Z 18014G23KT 10SM FEW060 FEW100 SCT250 25/09 A2998 RMK
     AO2 PK WND 19027/2041 SLP149 T02500089 56015 $=
KIZG 232054Z AUTO 00000KT 10SM CLR 14/09 A3035 RMK AO2 SLP281
     T01440094 58003=
KLAF 232054Z 18013G31KT 10SM CLR 26/11 A2993 RMK AO2 PK WND
     18031/2051 SLP131 T02610106 56012=
KLDM 232055Z AUTO 16009KT 10SM BKN060 OVC090 24/12 A2990 RMK AO2
     T02400119=
KLPR 232053Z AUTO 17007KT 10SM CLR 23/08 A3012 RMK AO2 SLP195
     T02330083 58015=
KLWM 232054Z 09005KT 10SM -RA BKN120 14/10 A3035 RMK AO2 RAB34
     SLP279 P0000 60000 T01390100 55003=
KBLH 232052Z AUTO 29012G17KT 10SM CLR 26/M01 A2975 RMK AO2 SLP069
     T02561011 58014 TSNO=
KEPH 232053Z AUTO 36004KT 10SM CLR 14/M04 A3005 RMK AO2 SLP179
     T01391044 51008 $=
KFHR 232053Z AUTO 12003KT 10SM FEW015 11/07 A3015 RMK AO2 SLP210
     T01110072 51007=
KIAH 232053Z 17016G29KT 10SM SCT060 BKN250 29/16 A2987 RMK AO2 PK
     WND 17029/2048 SLP116 T02940161 56024=
KIDA 232053Z 28008G18KT 10SM SCT049 OVC060 04/M04 A2982 RMK AO2
     SLP106 60000 T00391044 53013=
KLVK 232053Z 36008G15KT 340V040 10SM CLR 20/M04 A2996 RMK AO2
     SLP142 T02001044 58016=
KLVM 232053Z AUTO 32007KT 1/4SM +SN FG OVC003 00/M01 A2977 RMK AO2
     SLP103 P0003 60004 T00001011 53008 $=
KMYV 232053Z AUTO 33019G28KT 10SM CLR 22/M03 A2997 RMK AO2 PK WND
     31028/2053 SLP152 T02171028 58012 $=
KSGR 232053Z 17015G22KT 10SM FEW065 31/14 A2987 RMK AO2 SLP115
     T03060144 56025=
KSSF 232053Z 16014G27KT 10SM FEW055 31/17 A2976 RMK AO2 PK WND
     16027/2046 SLP068 T03110167 56028=
KUTS 232053Z AUTO 17012G25KT 10SM BKN065 31/13 A2986 RMK AO2 PK
     WND 18029/2024 SLP105 T03060133 56027=
KFRG 232053Z 05007G16KT 10SM OVC033 15/09 A3024 RMK AO2 SLP239
     T01500094 56009 $=
KGKJ 232053Z AUTO VRB04KT 10SM CLR 22/02 A3017 RMK AO2 SLP216
     T02170017 56014=
KGYL 232055Z AUTO 14020G28KT 7SM CLR 25/13 A2944 RMK AO2 LTG DSNT
     SE T02470127=
KHEI 232053Z AUTO 34012G21KT 10SM OVC025 11/04 A2933 RMK AO2
     SLP934 T01060044 53008=
KHSI 232053Z AUTO 17023G41KT 9SM FEW042 29/09 A2926 RMK AO2 PK WND
     15041/2053 SLP889 T02940094 $=
KJKJ 232055Z AUTO 13014G25KT 10SM CLR 24/12 A2933 RMK AO2 TSNO=
KLNK 232054Z 18027G43KT 8SM BKN038 OVC047 29/13 A2932 RMK AO2 PK
     WND 18046/2019 SLP915 T02940128 56014=
KMIC 232053Z AUTO 13013G42KT 10SM CLR 26/13 A2947 RMK AO2 PK WND
     15043/1959 SLP976 T02560128 56025=
PASC 232053Z 10010KT 10SM OVC035 M08/M10 A3001 RMK AO2 SLP164
     6//// I3000 T10831100 53000 PNO $=
KELM 232053Z 13007KT 10SM CLR 18/07 A3023 RMK AO2 SLP240 T01830072
     56007=
KFDY 232053Z AUTO 16012KT 10SM FEW060 24/10 A3007 RMK AO2 SLP175
     T02440100 56015=
KGLR 232053Z AUTO 16014G28KT 10SM CLR 23/09 A3000 RMK AO2 PK WND
     18028/2046 SLP156 T02330094 56009=
KPCZ 232055Z AUTO 10015KT 10SM SCT049 23/13 A2977 RMK AO2
     T02250125=
KPEO 232053Z AUTO 14006KT 10SM CLR 19/03 A3024 RMK AO2 SLP240
     T01940028 58006=
KPKD 232053Z AUTO 13015G28KT 10SM CLR 22/12 A2944 RMK AO2 PK WND
     13028/2048 SLP968 T02220117 56026=
KRCX 232055Z AUTO 14014G19KT 10SM BKN043 23/15 A2968 RMK AO2 LTG
     DSNT S T02310154=
KSEG 232053Z AUTO 00000KT 10SM OVC050 17/09 A3025 RMK AO2 SLP246
     T01670089 56009=
KSMQ 232053Z AUTO 04005KT 10SM OVC055 17/08 A3021 RMK AO2 SLP232
     T01720078 58010=
KTDZ 232053Z AUTO 16013KT 10SM CLR 24/10 A3008 RMK AO2 SLP182
     T02440100 56016=
KTHV 232053Z AUTO 01004KT 10SM FEW049 BKN065 16/09 A3023 RMK AO2
     SLP240 T01610094 56008=
