SAZS31 NSTU 231855
MTRPPG
METAR NSTU 231850Z 34009KT 12SM SCT016TCU SCT100 BKN220 25/24 A2986
RMK SHRAE40 TCU N SLP113 T02510241=