SACA33 KWBC 232000 RRA
METAR
TDPD 232000Z 12004KT 9999 SCT017 29/25 Q1012=
TTCP 232000Z 10009KT 9999 FEW022 30/25 Q1009 NOSIG=
TTPP 232000Z 11010KT 9999 VCSH FEW016CB FEW018TCU SCT025 30/25
     Q1009 NOSIG RMK CB ESE TCU S=
