SAUS70 KWBC 231700 RRJ
METAR
KAOH 231653Z AUTO 16009G19KT 10SM CLR 22/11 A3014 RMK AO2 SLP201
     T02220111=
KBCT 231653Z 03010G17KT 10SM FEW028 29/18 A3007=
KBJI 231655Z AUTO 12012KT 10SM CLR 18/09 A2956 RMK AO2
     T01770094=
KMEI 231658Z 18010KT 10SM CLR 24/13 A3016 RMK AO2 SLP211
     T02390133=
KOWX 231655Z AUTO 20011G15KT 10SM CLR 25/08 A3015 RMK AO1=
K7BM 231655Z AUTO 26014G21KT 1/2SM VCTSSN OVC004 00/00 A2958 RMK
     AO2=
KCEC 231656Z AUTO 05004KT 8SM CLR 12/07 A3017 RMK AO2 SLP219
     T01170067=
KEED 231656Z AUTO 35012G20KT 10SM CLR 22/M05 A2980 RMK AO2 SLP068
     T02171050 $=
KEKO 231656Z AUTO 30009KT 10SM SCT042 BKN100 02/M03 A2991 RMK AO2
     SLP136 T00221033=
KMVH 231655Z AUTO 30016G30KT 7SM FEW055 FEW065 M00/M03 A2959 RMK
     AO2 PWINO=
KRDM 231656Z 00000KT 10SM CLR 07/01 A3006 RMK AO2 SLP187 T00670006
     $=
KSLE 231656Z 18005KT 10SM OVC055 10/08 A3014 RMK AO2 SLP208
     T01000078=
KTPH 231656Z AUTO 33019G28KT 10SM CLR 04/M06 A2993 RMK AO2 PK WND
     34030/1643 SLP129 T00391056=
KUKI 231656Z AUTO VRB06KT 10SM CLR 13/02 A3007 RMK AO2 SLP178
     T01330022=
K1H2 231655Z AUTO 17015G23KT 10SM SCT039 23/14 A2998 RMK AO2
     T02290140=
K57C 231655Z AUTO 17007G17KT 10SM CLR 21/12 A2987 RMK AO2
     T02130121=
KAAA 231655Z AUTO 17020G26KT 10SM CLR 22/14 A2988 RMK AO2
     T02230143=
KADC 231657Z AUTO 13014G19KT 10SM CLR 21/10 A2952 RMK AO2 TSNO=
KAHQ 231655Z AUTO 18019G29KT 10SM CLR 27/12 A2938 RMK AO2
     T02650121=
KBAF 231653Z 02004KT 10SM CLR 13/06 A3033 RMK AO2 SLP275
     T01280061=
KBIE 231655Z AUTO 19023G32KT 10SM CLR 27/13 A2941 RMK AO2
     T02700127=
KBVN 231655Z AUTO 18015G25KT 10SM CLR 24/09 A2931 RMK AO2
     T02390091 PWINO=
KC35 231655Z AUTO 14008G14KT 10SM CLR 20/12 A2979 RMK AO2
     T02040120 PWINO=
KCDD 231654Z AUTO 14003KT 10SM CLR 19/09 A2969 RMK AO2=
KCFS 231655Z AUTO 17009KT 10SM CLR 23/11 A3011 RMK AO2
     T02250107=
KCKN 231655Z AUTO 09005KT 10SM CLR 19/08 A2950 RMK AO2=
KDAY 231656Z 18011KT 10SM FEW250 23/10 A3015 RMK AO2 SLP205
     T02330100=
KELZ 231656Z AUTO VRB04KT 10SM CLR 18/03 A3028 RMK AO2 SLP254
     T01830028=
KGDB 231655Z AUTO 11020G27KT 10SM CLR 22/13 A2945 RMK AO2
     T02160128=
KGON 231656Z 01005KT 10SM -RA SCT055 BKN070 OVC090 16/09 A3030 RMK
     AO2 RAB45 SLP259 P0000 T01560089=
KJMS 231656Z AUTO 09013G21KT 10SM CLR 14/06 A2939 RMK AO2 SLP958
     T01440061=
KLCK 231655Z AUTO 18004KT 10SM CLR 23/11 A3018 RMK AO2
     T02310105=
KLNN 231655Z AUTO 10SM CLR 24/05 A3019 RMK AO1 T02370045=
KMZZ 231655Z AUTO 19016G20KT 10SM CLR 23/12 A3009 RMK AO2
     T02300116=
KN03 231655Z AUTO 11007KT 10SM CLR 17/00 A3030 RMK AO2=
KOLE 231655Z AUTO 21003KT 10SM CLR 16/03 A3028 RMK AO2=
KPMV 231655Z AUTO 17021G29KT 10SM CLR 26/13 A2944 RMK AO2
     T02600128 PWINO=
K33V 231655Z AUTO 19011G16KT 10SM CLR 03/M02 A2951 RMK AO1=
KASL 231655Z AUTO 00000KT 10SM BKN038 BKN046 27/16 A2995 RMK AO2
     T02690163 TSNO $=
KAUN 231655Z AUTO VRB04KT 10SM CLR 13/M03 A2996 RMK A01=
KBDG 231655Z AUTO 21009G14KT 10SM 05/02 A2975 RMK AO1
     T00460018=
KBVS 231655Z AUTO 07003KT 10SM BKN014 OVC021 08/07 A3011 RMK
     A01=
KCOM 231655Z AUTO 18018G23KT 10SM CLR 26/15 A2984 RMK AO2
     T02570150 PWINO=
KDVO 231655Z AUTO 33012G18KT 10SM CLR 16/02 A3002 RMK AO2=
KE11 231655Z AUTO 20014G17KT 10SM CLR 26/10 A2979 RMK AO2
     T02560096=
KECU 231655Z AUTO 15018G25KT 10SM SCT014 22/17 A2994 RMK AO2=
KFFZ 231654Z 27011KT 10SM OVC065 21/09 A2978 RMK AO2 SLP064
     T02110089=
KGOP 231655Z AUTO 10SM SCT035 25/17 A2989 RMK AO2=
KHII 231655Z AUTO 33017G22KT 10SM CLR 21/M05 A2978 RMK AO2=
