SAUS70 KWBC 231900 RRA
METAR
KOKC 231852Z 18025G32KT 10SM FEW090 BKN130 BKN250 26/16 A2967 RMK
     AO2 PK WND 18034/1827 SLP030 T02610156=
KOMN 231850Z 02008KT 10SM CLR 25/17 A3009=
KORE 231852Z AUTO 00000KT 10SM CLR 16/08 A3033 RMK AO2 SLP272
     T01560078=
KOWA 231853Z AUTO 13018G28KT 10SM CLR 24/13 A2953 RMK AO2=
KPWK 231852Z 18022G28KT 10SM CLR 26/13 A2987 RMK AO2 PK WND
     18033/1804 SLP111 T02560133=
KPYM 231852Z AUTO 04008KT 10SM FEW070 SCT090 BKN110 14/13 A3030
     RMK AO2 RAB07E38 SLP262 P0001 T01440128=
KRAP 231852Z 34028G44KT 10SM CLR 11/03 A2924 RMK AO2 PK WND
     34046/1801 SLP901 T01110033 $=
KRVS 231853Z 17018G28KT 10SM CLR 28/15 A2969 RMK AO2 PK WND
     18032/1830 SLP056 T02780150=
KSGF 231852Z 10SM FEW120 28/13 A2975 RMK AO2 PK WND 19033/1843
     SLP060 T02780133 $=
KSPI 231852Z 17019G33KT 10SM CLR 24/14 A2983 RMK AO2 PK WND
     17033/1851 SLP097 T02440139=
KBLH 231852Z AUTO 35012G21KT 10SM CLR 24/03 A2978 RMK AO2 SLP079
     T02440028 TSNO=
PATA 231852Z 00000KT 10SM OVC005 M03/M04 A3005 RMK AO2 SLP181 VIS
     NW 5 N 5 NE 6 E 3 S10 VCFG E OVR LAKES T10281039 $=
K08D 231855Z AUTO 06017G26KT 10SM OVC011 07/06 A2944 RMK AO2=
K0E0 231855Z AUTO 23027G33KT 10SM SCT080 18/M02 A2973 RMK AO2
     T01821025 TSNO=
K2J9 231855Z AUTO 09006KT 10SM CLR 26/06 A3013 RMK AO2=
KANE 231855Z 14019G26KT 10SM FEW045 24/12 A2952=
KATL 231852Z VRB04KT 10SM FEW200 FEW250 22/03 A3017 RMK AO2 SLP214
     T02220028 $=
KBEA 231855Z AUTO 14017G23KT 10SM SCT037 BKN046 BKN050 29/18 A2983
     RMK AO2 T02880183=
KBIS 231852Z 07012KT 10SM CLR 14/06 A2929 RMK AO2 SLP922
     T01440056=
KCMX 231853Z AUTO 14013KT 10SM CLR 21/12 A2980 RMK AO2 SLP091
     T02060117=
KCQW 231855Z AUTO 03007KT 10SM CLR 24/05 A3015 RMK AO2 PWINO=
KEHO 231855Z AUTO 02005KT 10SM CLR 22/03 A3017 RMK AO2
     T02170034=
KETH 231853Z AUTO 12026G33KT 10SM 23/12 A2935 RMK AO2=
KJHN 231855Z AUTO 21036G48KT 2SM HZ OVC001 28/00 A2940 RMK AO2
     T02820002=
KLDJ 231855Z AUTO 09010KT 10SM SCT060 BKN120 17/07 A3026 RMK AO2
     T01680072=
KLKV 231853Z AUTO VRB04KT 10SM BKN034 OVC049 05/M03 A3008 RMK AO2
     SLP209 T00501033=
KLUM 231855Z AUTO 11016G22KT 10SM SCT045 25/18 A2962 RMK AO2
     T02500175 PWINO=
KMAW 231855Z AUTO 20019G26KT 10SM SCT044 BKN050 27/13 A2996 RMK
     AO1=
KMHL 231855Z AUTO 17018G22KT 10SM CLR 29/15 A2964 RMK AO2=
KMRJ 231855Z AUTO 14016G22KT 10SM CLR 22/10 A2974 RMK AO2=
KMWH 231852Z 30008KT 270V350 10SM CLR 12/M02 A3005 RMK AO2 SLP229
     T01221022=
KOKB 231852Z AUTO 20008KT 8SM OVC040 21/11 A2986 RMK AO2 SLP110
     T02060111=
KOMA 231852Z 17023G35KT 10SM FEW170 FEW200 29/13 A2937 RMK AO2 PK
     WND 17038/1812 SLP935 T02890133=
KPOC 231847Z VRB05KT 10SM BKN025 A2987=
KRAW 231855Z AUTO 20014G24KT 10SM CLR 28/12 A2969 RMK AO2=
KRCZ 231855Z AUTO 02006KT 10SM CLR 22/06 A3016 RMK AO2
     T02220059=
KRNV 231855Z AUTO 18010G23KT 10SM BKN050 A3001 RMK AO2 TSNO=
KRPD 231855Z AUTO 11015G19KT 10SM CLR 23/16 A2965 RMK AO2
     T02260160=
KSDC 231855Z AUTO 00000KT 10SM CLR 22/01 A3024 RMK AO2=
KSNK 231855Z AUTO 19019G24KT 10SM CLR 28/11 A2973 RMK AO2
     T02820113=
KSUX 231852Z 17024G30KT 10SM CLR 29/13 A2932 RMK AO2 PK WND
     16032/1821 SLP920 T02890133=
KTRM 231852Z AUTO 26007KT 10SM CLR 24/06 A2978 RMK AO2 SLP085
     T02390056=
TJBQ 231850Z 07010KT 10SM CLR 29/23 A2990=
KCLE 231851Z 15011G16KT 10SM SCT250 24/08 A3013 RMK AO2 SLP216
     T02440078 $=
KCMH 231851Z 17008KT 10SM FEW060 FEW240 25/08 A3013 RMK AO2 SLP198
     T02500078 $=
KERI 231851Z 02007KT 10SM CLR 21/09 A3018 RMK AO2 SLP220
     T02060089=
