SAUS70 KWBC 231800 RRF
METAR
KFGN 231755Z AUTO 09006KT 10SM CLR 13/06 A2963 RMK AO2=
KFKA 231755Z AUTO 14016G24KT 7SM 22/13 A2964 RMK AO2 6////
     T02200125=
KMOX 231755Z AUTO 14024G30KT 10SM CLR 22/09 A2940 RMK AO2=
KMQJ 231755Z AUTO RMK AO1=
KMSV 231756Z AUTO 10005KT 10SM BKN030 OVC050 16/09 A3029 RMK AO2
     SLP262 T01610094 10161 20039 58013=
KOLU 231756Z AUTO 17021G31KT 10SM CLR 28/12 A2932 RMK AO2 PK WND
     17034/1744 SLP919 T02780122 10278 20150 56019=
KPJC 231755Z AUTO RMK AO2 TSNO PWINO=
KPNM 231755Z AUTO 11013G18KT 10SM CLR 23/13 A2956 RMK AO2 TS=
KPVC 231756Z AUTO 06007KT 10SM -RA CLR 14/13 A3033 RMK AO2 RAB35
     SLP269 P0000 60000 T01440128 10150 20133 56012=
KRUT 231756Z AUTO 12009KT 10SM CLR 19/03 A3031 RMK AO2 SLP261
     T01890028 10189 20039 58016 $=
KSFZ 231756Z AUTO 05007KT 10SM CLR 14/10 A3032 RMK AO2 SLP269
     T01390100 10139 20089 58010=
KSLH 231755Z AUTO 16009G15KT 130V210 10SM CLR 23/12 A3001 RMK
     AO2=
KSUE 231756Z AUTO 18016G24KT 10SM CLR 17/12 A2990 RMK AO2 PK WND
     18028/1716 SLP124 T01670117 10167 20122 58010=
KCOD 231756Z AUTO 04010KT 10SM FEW016 BKN027 OVC047 02/M01 A2962
     RMK AO2 RAE08 SLP033 P0000 60000 T00171011 10022 20006 53012
     FZRANO=
KCVN 231756Z AUTO 21022G29KT 10SM CLR 22/11 A2970 RMK AO2 PK WND
     21032/1737 SLP020 T02220106 10228 20144 58012=
KDIJ 231756Z AUTO 32009KT 9SM -SN OVC026 M01/M04 A2974 RMK AO2
     SLP089 P0000 60000 T10061039 11006 21017 51019=
KOCH 231756Z AUTO 16015G23KT 10SM BKN055 28/14 A2996 RMK AO2
     SLP144 T02780144 10294 20183 58010=
KPRX 231756Z AUTO 18023G27KT 10SM BKN040 28/16 A2987 RMK AO2 PK
     WND 19027/1747 SLP111 T02780161 10278 20194 58010=
KPTV 231756Z AUTO VRB04KT 10SM CLR 14/03 A2997 RMK AO2 SLP147
     T01440033 10156 20050 51018=
KPVU 231756Z 32023G28KT 10SM SCT024 06/00 A2976 RMK AO2 PK WND
     31029/1712 SLP077 60002 T00560000 10056 20022 51025=
KPWG 231756Z AUTO RMK AO2 SLPNO 6//// PWINO FZRANO $=
KSGU 231756Z AUTO 30012KT 10SM FEW065 11/M02 A2985 RMK AO2 SLP098
     T01111017 10117 20083 51019=
KSMN 231756Z AUTO 15004KT 10SM SCT043 OVC055 04/M05 A2987 RMK AO2
     SLP816 T00441050 10044 20022 51021=
KOSC 231755Z AUTO 16007G15KT 10SM CLR 22/11 A3009 RMK AO2
     T02150112 10222 20094=
KTTS 231755Z AUTO 01008KT 10SM CLR 26/15 A3007 RMK AO2 VIS 5/8
     RWY15/33 SLP187 T02590153 10262 20175 58013 $=
K0CO 231755Z AUTO 23005G15KT 1/2SM -SN OVC003 M05/M06 A2962 RMK
     AO2 P0001=
K13K 231755Z AUTO 18026G36KT 10SM -RA SCT031 SCT060 BKN120 24/16
     A2962 RMK AO2 LTG DSNT E THRU S T02380162 10273 20205=
K18A 231755Z AUTO 07004KT 10SM CLR 23/03 A3020 RMK AO2 T02260028
     10230 20042=
K1F0 231755Z AUTO 16014G27KT 10SM CLR 27/17 A2977 RMK AO2
     T02680169 10271 20194=
K1H2 231755Z AUTO 14013G23KT 10SM BKN038 23/14 A2996 RMK AO2
     T02340143 10240 20163=
K2J3 231755Z AUTO 03005KT 10SM CLR 23/11 A3017 RMK AO2 T02350107
     10245 20052=
K2R9 231755Z AUTO 16014G20KT 10SM BKN044 30/17 A2988 RMK AO2
     T02950175 10299 20171=
K2V5 231755Z AUTO 23021G32KT 10SM CLR 27/M05 A2924 RMK AO2=
K3F3 231755Z AUTO 17012G20KT 140V200 10SM BKN050 29/15 A3001 RMK
     AO2 T02870153 10290 20175=
K4A9 231755Z AUTO 21004KT 10SM CLR 22/03 A3018 RMK AO2 T02230028
     10227 20061=
K5M9 231755Z AUTO 20006G18KT 10SM CLR 26/10 A3003 RMK AO2
     T02580098 10259 20163=
K7BM 231755Z AUTO 28010G21KT 1/2SM SN OVC004 00/M01 A2959 RMK
     AO2=
K81R 231755Z AUTO 16017G22KT 10SM CLR 27/16 A2985 RMK AO2
     T02720160 10275 20199=
K9A5 231755Z AUTO 23004KT 10SM CLR 22/04 A3020 RMK AO2 T02200036
     10220 20045=
