SAUS70 KWBC 231618 RRF
METAR
KLCG 231615Z AUTO 16017G24KT 10SM CLR 22/13 A2935 RMK AO2
     T02170125=
KLNA 231615Z AUTO 04007KT 010V080 10SM CLR 29/18 A3009 RMK AO2
     T02870184 PNO=
K04W 231615Z AUTO 12009KT 10SM CLR 20/11 A2965 RMK AO2=
K05U 231615Z AUTO 00000KT 10SM M01/M03 A2991 RMK A01=
K0A0 231615Z AUTO 24013KT 10SM CLR 19/08 A2982 RMK AO2=
K0A9 231615Z AUTO VRB05KT 9SM CLR 19/04 A3024 RMK A01=
K0CO 231615Z AUTO 25022G31KT 1/2SM -SN OVC007 M05/M06 A2962 RMK
     AO2=
K0F2 231615Z AUTO 17020G27KT 10SM CLR 25/17 A2979 RMK AO2
     T02460167=
K0R0 231615Z AUTO 19008KT 10SM CLR 26/14 A3017 RMK AO2=
K13K 231615Z AUTO 18025G31KT 10SM CLR 24/15 A2964 RMK AO2
     T02430145=
K1A9 231615Z AUTO 00000KT 10SM CLR 20/07 A3021 RMK AO2
     T02010068=
K1F0 231615Z AUTO 17014G23KT 10SM SCT024 25/17 A2981 RMK AO2
     T02450173=
K1K1 231615Z AUTO 19022G36KT 10SM CLR 25/11 A2960 RMK AO2
     T02490112=
K1M5 231615Z AUTO 19012G19KT 10SM CLR 22/07 A3016 RMK A01=
K1V6 231615Z AUTO 26013G18KT 10SM SCT080 20/00 A2942 RMK AO2=
K22N 231615Z AUTO 00000KT 10SM OVC041 12/05 A3031 RMK AO2=
K2A0 231615Z AUTO 24004KT 10SM CLR 19/08 A3023 RMK A01=
K2G2 231615Z AUTO 00000KT 10SM CLR 18/05 A3023 RMK A01=
K2J3 231615Z AUTO 06007KT 10SM CLR 22/11 A3022 RMK AO2
     T02240110=
K2M2 231615Z AUTO 16008KT 10SM CLR 20/10 A3018 RMK A01=
K2R9 231615Z AUTO 18013G21KT 10SM SCT031 27/19 A2992 RMK AO2
     T02720192=
K2V5 231615Z AUTO 21029G39KT 10SM CLR 25/M03 A2924 RMK AO2=
K33N 231615Z AUTO 04009G15KT 10SM SCT070 17/13 A3021 RMK A01=
K36K 231610Z AUTO 22029G44KT 10SM CLR 26/07 A2944 RMK AO2=
K3F3 231615Z AUTO 17011G21KT 10SM CLR 27/16 A3003 RMK AO2
     T02680157=
K3J7 231615Z AUTO 00000KT 10SM CLR 21/04 A3023 RMK AO2=
K3LF 231615Z AUTO 17023G29KT 10SM CLR 21/13 A2992 RMK AO2
     T02130133=
K3N8 231615Z AUTO 13012G18KT 10SM CLR 17/09 A2952 RMK AO2
     T01710090=
K3S8 231615Z AUTO 00000KT 8SM OVC003 06/05 A3020 RMK AO2=
K46U 231615Z AUTO 32011G17KT 10SM BKN038 OVC046 01/M04 A2970 RMK
     A01=
K4V0 231615Z AUTO 08006KT 5SM -RA OVC011 01/01 A2959 RMK AO2
     T00100005=
K54A 231615Z AUTO 07011KT 10SM CLR 27/20 A3009 RMK AO2=
K5T9 231615Z AUTO 13007G15KT 100V160 10SM OVC014 24/20 A2984 RMK
     A01=
K65S 231615Z AUTO 00000KT 1/4SM FG BKN003 BKN070 OVC095 03/03
     A2997 RMK AO2=
K6A2 231615Z AUTO 00000KT 10SM CLR 19/04 A3024 RMK AO2=
K6B0 231615Z AUTO 00000KT 10SM CLR 17/06 A3034 RMK AO2
     T01730057=
K7W4 231615Z AUTO 35003KT 10SM OVC018 15/09 A3024 RMK AO1
     T01510091=
K82V 231615Z AUTO 33020G27KT 10SM SCT120 13/00 A2931 RMK AO2=
K8A3 231615Z AUTO 24007G12KT 10SM CLR 21/04 A3020 RMK A01=
KAAS 231615Z AUTO 21010G16KT 10SM CLR 21/05 A3023 RMK AO1=
KACB 231615Z AUTO 16009G16KT 10SM CLR 22/12 A3002 RMK AO2
     T02200118=
KACP 231615Z AUTO 13009KT 10SM CLR 27/16 A3005 RMK AO2=
KADC 231615Z AUTO 14013G17KT 10SM CLR 19/09 A2954 RMK AO2 TSNO=
KAEJ 231615Z AUTO 33006KT 7SM -RA 04/02 A2955 RMK AO2
     T00370020=
KAEL 231615Z AUTO 15020G27KT 10SM CLR 20/13 A2959 RMK AO2=
KAFP 231615Z AUTO 31004KT 10SM CLR 20/07 A3021 RMK AO2
     T02000070=
KAGI 231615Z AUTO 12019KT 10SM CLR 28/16 A3004 RMK AO2
     T02830162=
KALX 231615Z AUTO 00000KT 10SM CLR 20/06 A3022 RMK AO2
     T02010055=
KANW 231615Z AUTO 16013KT 10SM CLR 17/02 A2920 RMK AO2
     T01670020=
KARM 231615Z AUTO 15016G21KT 10SM SCT040 BKN060 28/17 A2996 RMK
     AO2 T02790166 TSNO=
KASN 231615Z AUTO 00000KT 10SM CLR 20/07 A3023 RMK AO2
     T02020068=
KATA 231615Z AUTO 17009G16KT 10SM SCT035 25/18 A2996 RMK AO2
     SLP043 T02500181 $=
