SAUS80 KWBC 231616
METAR
KLYV 231615Z AUTO 15018G26KT 10SM CLR 18/11 A2941 RMK AO2=
KPOV 231615Z AUTO 00000KT 10SM CLR 18/04 A3022 RMK AO2 T01780044
     PWINO=
KPZQ 231615Z AUTO 16008KT 10SM CLR 21/12 A3009 RMK AO2
     T02110122=
KIKW 231615Z AUTO 14007KT 10SM CLR 22/12 A3009 RMK AO2
     T02200120=
