SAUS70 KWBC 231700 RRT
METAR
KASG 231648Z 17020G26KT 10SM FEW120 25/18 A2986=
KGOV 231658Z AUTO 17014G19KT 10SM CLR 22/11 A3004 RMK AO2 SLP176
     T02190107 $=
KNSE 231656Z AUTO 14003KT 10SM CLR 24/ A3018 RMK AO2 SLP206 T0239
     PNO $=
