SAUS70 KWBC 232000 RRV
METAR
KPEQ 231955Z AUTO 21014G19KT 10SM CLR 32/08 A2966 RMK AO2
     T03210075=
KPVW 231950Z AUTO 21025G30KT 10SM SCT080 28/09 A2964 RMK AO2
     T02820087=
KSBD 231958Z 25008KT 10SM CLR 21/03 A2984=
KSLR 231950Z AUTO 19019G25KT 10SM OVC050 29/14 A2985 RMK AO2
     T02880142=
KT20 231955Z AUTO 16013G20KT 10SM SCT046 SCT060 30/18 A2982 RMK
     AO2 T03000178=
KGOV 231958Z AUTO 19016G19KT 10SM CLR 22/10 A3000 RMK AO2 SLP165
     T02200103 $=
TJBQ 231950Z 07012KT 10SM SCT022 SCT055 29/23 A2990 RMK LTG DSNT
     SE=
