SAUS70 KWBC 232100 RRX
METAR
KSUA 232045Z 01012G22KT 10SM CLR 27/17 A3006=
