SAUS70 KWBC 231752
METAR
K6S8 231740Z AUTO 29016G26KT 10SM 05/M01 A2964 RMK A01 LAUREL=
KTFP 231715Z AUTO 18015KT 10SM CLR 30/22 A2989 RMK AO2
     T02960216=
