SAUS80 KWBC 232054
METAR
KROS 232043Z AUTO 12012G19KT 10SM SCT049 27/14 A2953 RMK AO2=
KLZZ 232035Z AUTO 18013G18KT 10SM CLR 28/14 RMK AO2 T02800142=
