SAUS80 KWBC 232022
METAR
K77S 232035Z AUTO 00000KT 10SM FEW048 SCT055 14/03 A3019 RMK
     A01=
K9V9 232015Z AUTO 17008KT 10SM CLR 26/05 A2913 RMK AO2
     T02640048=
KAYS 232015Z AUTO 00000KT 10SM CLR 26/09 A3011 RMK AO2
     T02620094=
KGIC 232015Z AUTO 36003KT 10SM SCT016 OVC037 03/00 A3003 RMK
     AO1=
KPSN 232015Z AUTO 18013G19KT 140V210 10SM SCT065 29/14 A2984 RMK
     AO2=
KRFI 232015Z AUTO 16011G20KT 10SM BKN060 30/08 A2988 RMK AO2
     T02990084=
KSOA 232015Z AUTO 16014KT 10SM 27/14 A2982 RMK AO2=
K4BM 232015Z AUTO 13006G18KT 10SM BKN008 BKN014 OVC037 M01/M02
     A2961 RMK AO2=
KCKP 232015Z AUTO 17020G28KT 10SM SCT120 27/12 A2935 RMK AO2
     T02700117=
KCBE 232015Z AUTO 00000KT 10SM CLR 19/04 A3027 RMK AO2
     T01880043=
KSFY 232023Z AUTO 16019G27KT 7SM CLR 26/13 A2972 RMK AO2=
KGIC 232015Z AUTO 36003KT 10SM SCT016 OVC037 03/00 A3003 RMK
     AO1=
KIZA 232015Z AUTO 05008G14KT 10SM CLR 23/M05 A2986 RMK AO2=
KPSN 232015Z AUTO 18013G19KT 140V210 10SM SCT065 29/14 A2984 RMK
     AO2=
KRFI 232015Z AUTO 16011G20KT 10SM BKN060 30/08 A2988 RMK AO2
     T02990084=
KSOA 232015Z AUTO 16014KT 10SM 27/14 A2982 RMK AO2=
