SAUS70 KWBC 231620 RRK
METAR
KBJI 231615Z AUTO 13013KT 10SM CLR 17/09 A2957 RMK AO2
     T01650089=
KBQK 231615Z AUTO 02008KT 10SM CLR 24/12 A3017 RMK AO2
     T02450124=
KBUU 231615Z AUTO 19009KT 160V220 10SM CLR 22/13 A2989 RMK AO2
     T02160125 PWINO=
KBVS 231615Z AUTO 00000KT 10SM OVC014 07/07 A3010 RMK A01=
KBYY 231615Z AUTO 17019G22KT 10SM SCT039 OVC060 27/17 A2997 RMK
     AO2 T02760179=
KC65 231615Z AUTO 17011G19KT 10SM CLR 23/12 A3003 RMK A01=
KC75 231615Z AUTO 18016G22KT 10SM CLR 22/15 A2986 RMK AO2
     T02190147=
KCAV 231615Z AUTO 16023G30KT 10SM CLR 22/14 A2956 RMK A01=
KCBF 231615Z AUTO 18022G30KT 10SM CLR 24/12 A2942 RMK AO2=
KCCU 231615Z AUTO 30010KT 1/4SM SN OVC003 M01/M04 A2963 RMK
     AO2=
KCDD 231615Z AUTO 17005KT 10SM CLR 18/08 A2970 RMK AO2=
KCIN 231615Z AUTO 16023G31KT 8SM CLR 23/15 A2948 RMK AO2=
KCKF 231615Z AUTO 03007KT 10SM CLR 22/09 A3021 RMK AO2
     T02190090=
