SAUS80 KWBC 232120
METAR
K9MN 232115Z AUTO 12020G33KT 10SM CLR 23/12 A2956 RMK AO1
     T02330117=
KTKC 232115Z AUTO 15024G30KT 10SM 26/10 A2934 RMK AO2
     T02600100=
K40U 232115Z AUTO 31015G26KT 10SM SCT038 BKN050 03/M06 A2972 RMK
     AO2 T00261057=
K48A 232115Z AUTO 11006KT 10SM CLR 24/09 A3013 RMK AO2
     T02430085=
K4BM 232115Z AUTO 16015G23KT 10SM SCT013 BKN025 OVC046 M01/M04
     A2962 RMK AO2=
KCTY 232115Z AUTO 31007KT 230V350 10SM CLR 27/09 A3009 RMK AO2
     T02710094=
KGNG 232115Z AUTO 28021G27KT 10SM CLR 09/M08 A2990 RMK AO2=
KCIR 232115Z AUTO 22010G20KT 10SM SCT050 27/13 A2994 RMK AO2
     T02670134=
KVTI 232115Z AUTO 16018G26KT 10SM CLR 25/13 A2961 RMK AO2
     T02450134=
KEDU 232120Z AUTO 34012G23KT 10SM CLR 20/M03 A2998 RMK AO1=
KRFI 232115Z AUTO 16016G22KT 10SM SCT060 30/07 A2987 RMK AO2
     T02990073=
KS39 232115Z AUTO 36007KT 10SM FEW045 08/M03 A3011 RMK AO2=
KRLD 232115Z AUTO 21005KT 10SM CLR 15/00 A3011 RMK AO2
     T01540001=
KSEP 232115Z AUTO 16018G26KT 10SM CLR 30/13 A2977 RMK AO2
     T02960129=
K40B 232116Z AUTO 00000KT 14/10 A3032 RMK AO1 SLP270 T01440100
     54001=
KTKV 232115Z AUTO 14006KT 10SM OVC043 22/12 A2974 RMK AO2
     T02180120 PWINO=
KMKN 232115Z AUTO 17019G24KT 10SM CLR 30/14 A2975 RMK AO2
     T03040138=
KCKP 232115Z AUTO 17019G28KT 10SM CLR 28/12 A2935 RMK AO2
     T02750117=
KDBN 232115Z AUTO 00000KT 10SM CLR 26/07 A3014 RMK AO2=
KPSN 232115Z AUTO 16011G20KT 10SM BKN070 30/12 A2983 RMK AO2=
KSOA 232115Z AUTO 17019G24KT 10SM 25/14 A2983 RMK AO2=
KEHA 232115Z AUTO 21035G41KT 10SM SCT110 27/03 A2945 RMK AO2
     T02690032=
KIZA 232115Z AUTO 34009KT 10SM CLR 23/M07 A2985 RMK AO2=
