SAUS70 KWBC 231900
METAR
KC62 231855Z AUTO 16015G18KT 10SM SCT050 23/12 A3006 RMK AO2
     T02330129=
