SAUS70 KWBC 231718 RRI
METAR
KBGF 231715Z AUTO 17008KT 140V200 9SM CLR 22/04 A3018 RMK A01=
KBKD 231715Z AUTO 18020G27KT 10SM CLR 28/15 A2979 RMK AO2
     T02750150=
KBNW 231715Z AUTO 15023G28KT 10SM CLR 23/14 A2955 RMK AO2=
KBPC 231715Z AUTO 22023G27KT 10SM CLR 28/08 A2960 RMK AO2 PNO=
KBQX 231715Z AUTO 16021KT 9SM 27/17 A2997 RMK A01=
KBRG 231715Z AUTO 23027G34KT 10SM CLR 20/M02 A2974 RMK AO2
     T01981019=
KBTA 231715Z AUTO 17017G28KT 10SM CLR 26/13 A2941 RMK AO2
     T02640128=
KBTN 231715Z AUTO 10013G19KT 10SM CLR 20/10 A2932 RMK AO2=
KBWP 231715Z AUTO 14019KT 10SM CLR 21/11 A2940 RMK AO2=
KBXA 231715Z AUTO 16007KT 10SM CLR 27/13 A3014 RMK AO2
     T02710131=
KC07 231715Z AUTO 27006KT 1/2SM -SN OVC001 M02/M02 A2958 RMK
     AO2=
KC09 231715Z AUTO 17015G23KT 10SM CLR 24/14 A2988 RMK AO2
     T02410138=
KC83 231715Z AUTO 32013G22KT 10SM CLR 17/00 A2999 RMK AO2=
KCCY 231715Z AUTO 15023G29KT 10SM CLR 22/13 A2962 RMK AO2=
KCKZ 231715Z AUTO 07008KT 10SM CLR 17/10 A3027 RMK AO2=
KCQM 231716Z AUTO 13005KT 10SM CLR 20/09 A2967 RMK AO2=
KCRX 231715Z AUTO 18009G19KT 10SM CLR 23/09 A3013 RMK AO2=
KCSQ 231715Z AUTO 18021G29KT 9SM CLR 25/14 A2953 RMK AO2=
KINJ 231715Z AUTO 18023G32KT 10SM BKN038 BKN043 27/17 A2987 RMK
     AO2 T02730170=
KIOB 231715Z AUTO 20006KT 10SM CLR 23/08 A3020 RMK AO2 PWINO=
KJAU 231715Z AUTO VRB04KT 10SM CLR 20/07 A3026 RMK A01=
KJPX 231715Z AUTO 05006KT 10SM -RA SCT039 BKN050 OVC070 14/14
     A3027 RMK AO2 T01410140=
KJTC 231715Z AUTO 23026G40KT 10SM FEW047 FEW100 14/00 A2981 RMK
     AO2=
KJWG 231715Z AUTO 18022G28KT 10SM CLR 24/14 A2969 RMK AO2
     T02390137=
KJWY 231715Z AUTO 19024G31KT 10SM SCT034 27/17 A2988 RMK AO2
     T02650174=
KJYG 231716Z AUTO 15020G26KT 10SM CLR 22/12 A2947 RMK AO2=
KJYL 231715Z AUTO 02003KT 10SM CLR 24/11 A3019 RMK AO2
     T02420113=
KK70 231715Z AUTO 35007G13KT 310V010 10SM SCT035 SCT044 28/22
     A3004 RMK AO2=
KLCG 231715Z AUTO 17021G29KT 10SM CLR 25/12 A2933 RMK AO2
     T02480122=
KLNA 231715Z AUTO 03011KT 10SM SCT040 29/19 A3008 RMK AO2
     T02920194 PNO=
KLNC 231715Z AUTO 19019G27KT 10SM SCT039 27/16 A2987 RMK AO2
     T02660160=
KLNP 231715Z AUTO 02006KT 10SM CLR 18/03 A3026 RMK AO2=
KLNQ 231715Z AUTO 10004KT 10SM SCT042 SCT048 27/13 A3014 RMK AO2
     T02670134=
KLUG 231715Z AUTO 20012G18KT 10SM CLR 23/08 A3016 RMK A01=
KLUX 231715Z AUTO 35003KT 10SM CLR 21/07 A3021 RMK AO2=
KLVN 231715Z AUTO 13014G23KT 10SM CLR 22/11 A2958 RMK AO2=
KLXL 231715Z AUTO 12011G16KT 10SM CLR 21/12 A2955 RMK AO2=
KLXY 231715Z AUTO 18023G28KT 10SM SCT043 BKN049 27/16 A2990 RMK
     AO2 T02680157=
KLYO 231715Z AUTO 18025G34KT 1 1/4SM HZ VV007 27/12 A2949 RMK AO2
     VIS 1/2V3 1/2 T02660120=
KM02 231715Z AUTO 20011G18KT 10SM 23/07 A3012 RMK A01=
KM04 231715Z AUTO 22014KT 10SM SCT038 25/15 A3005 RMK A01=
KM08 231715Z AUTO 17009G17KT 140V210 10SM CLR 24/13 A3009 RMK
     A01=
KM30 231715Z AUTO 20014G22KT 10SM BKN055 24/12 A3004 RMK AO2
     T02420121=
KM54 231710Z AUTO 20013KT 10SM CLR 24/07 A3013 RMK A01=
KM75 231715Z AUTO 02012KT 5SM BR BKN020 BKN027 02/02 A2960 RMK
     A01=
KM91 231715Z AUTO 17007G15KT 130V200 10SM CLR 24/09 A3012 RMK
     A01=
KMBT 231715Z AUTO 21010G15KT 10SM CLR 24/06 A3014 RMK A01=
KMEV 231715Z AUTO 00000KT 10SM CLR 02/M03 A3004 RMK AO2=
KMHV 231720Z AUTO 26013G18KT 10SM CLR 13/M01 A2990 RMK A01=
KMIO 231715Z AUTO 16023G32KT 10SM CLR 28/15 A2973 RMK AO2=
KMJQ 231715Z AUTO 15018G24KT 10SM CLR 22/11 A2947 RMK AO2=
KBTN 231715Z AUTO 10013G19KT 10SM CLR 20/10 A2932 RMK AO2=
KOAR 231715Z AUTO 00000KT 10SM CLR M06/M16 A3000 RMK AO2=
