SAUS70 KWBC 232104
METAR
PAFS 232101Z AUTO VRB03KT 10SM OVC009 M02/M04 A3006 RMK AO2 CIG
     006V012 SLP188 T10221044 50001 FZRANO=
KDLL 232115Z AUTO 15016G22KT 10SM SCT046 23/12 A2972 RMK AO2 LTG
     DSNT SW T02260122=
KW13 232115Z AUTO 10SM BKN030 BKN035 17/07 A3021 RMK AO1
     T01690065=
PAHX 232102Z AUTO 19003KT 10SM BKN006 M02/M02 A3001 RMK AO2 SLP165
     T10171017 58001 FZRANO=
K4I3 232102Z AUTO 18006KT 10SM CLR 23/07 A3013 RMK AO2=
KEVM 232101Z AUTO 13009G15KT 10SM CLR 21/12 A2962 RMK AO2 LTG DSNT
     S=
KW99 232101Z AUTO 11003KT 5SM HZ CLR 18/07 A3022 RMK AO2=
