SAUS70 KWBC 231800 RRC
METAR
KIWI 231753Z AUTO VRB03KT 10SM CLR 18/11 A3037 RMK AO2 SLP285
     T01780106 10183 20072 56012=
KLBF 231753Z AUTO 21023G35KT 10SM FEW043 28/M01 A2920 RMK AO2 PK
     WND 21037/1722 SLP864 T02831006 10283 20044 56016=
KLUK 231753Z 21007G16KT 10SM CLR 24/09 A3012 RMK AO2 SLP199
     T02440094 10244 20067 58020=
KMHT 231753Z 31003KT 10SM SCT130 OVC200 16/07 A3033 RMK AO2 SLP285
     T01610067 10161 20050 58012=
KMIE 231753Z 19014G23KT 10SM CLR 25/09 A3007 RMK AO2 PK WND
     18027/1727 SLP173 T02500094 10250 20156 58013=
KMSS 231753Z AUTO 06005KT 10SM CLR 22/06 A3029 RMK AO2 SLP257
     T02170061 10217 20017 58016=
KPHD 231753Z AUTO 18005KT 10SM CLR 23/07 A3019 RMK AO2 SLP223
     T02280067 10228 20056 58013=
KPKB 231753Z 00000KT 10SM CLR 23/08 A3020 RMK AO2 SLP222 T02330083
     10239 20056 58013=
KTDZ 231753Z AUTO 19011G21KT 10SM FEW055 24/11 A3013 RMK AO2
     SLP199 T02390106 10250 20122 58013=
KBGM 231753Z VRB03KT 10SM FEW026 16/08 A3029 RMK AO2 SLP259
     T01610083 10161 20050 56010=
KBGR 231753Z 00000KT 10SM SCT150 OVC200 18/10 A3036 RMK AO2 SLP278
     T01780100 10178 20078 58016=
KBIV 231753Z AUTO 16015G27KT 10SM FEW060 24/13 A2997 RMK AO2 PK
     WND 15027/1747 SLP147 T02390128 10239 20133 58018=
KBKL 231753Z 14008KT 10SM CLR 24/08 A3015 RMK AO2 SLP207 T02440078
     10244 20139 58011=
KBMG 231753Z 15013G22KT 10SM CLR 24/11 A3004 RMK AO2 SLP166
     T02440111 10256 20144 58014 $=
KBTL 231753Z 16013G24KT 10SM CLR 24/11 A3004 RMK AO2 SLP167
     T02390111 10239 20139 58015=
KBVY 231753Z 03005KT 10SM CLR 14/10 A3034 RMK AO2 SLP270 T01390100
     10139 20067 56009=
KCDW 231753Z 07007KT 10SM BKN060 OVC100 17/07 A3027 RMK AO2 SLP257
     T01720072 10172 20100 56010=
KFLD 231753Z AUTO 15013G22KT 10SM CLR 23/12 A2983 RMK AO2 SLP099
     T02330117 10233 20139 58017=
KGFL 231753Z AUTO 00000KT 10SM CLR 17/06 A3031 RMK AO2 SLP266
     T01720061 10172 20000 58019=
KLWV 231753Z AUTO 19024G34KT 10SM CLR 27/11 A3000 RMK AO2 PK WND
     18035/1725 SLP155 T02670111 10267 20167 58016 $=
KMCW 231753Z AUTO 15017G34KT 10SM CLR 23/13 A2956 RMK AO2 PK WND
     16035/1733 SLP999 T02330128 10233 20133 58024=
KOSH 231753Z 14011G20KT 10SM CLR 22/13 A2983 RMK AO2 SLP091
     T02220128 10222 20111 58015=
KPTK 231753Z 15007G17KT 10SM FEW040 BKN190 22/11 A3012 RMK AO2
     SLP197 T02170106 10222 20072 58014 $=
KAFN 231752Z AUTO 00000KT 10SM CLR 15/06 A3034 RMK AO2 SLP284
     T01500061 10150 20033 58010=
KBLF 231752Z AUTO 03007KT 10SM CLR 18/00 A3024 RMK AO2 SLP220
     T01830000 10189 20044 58015=
KCQX 231752Z AUTO 04007KT 10SM FEW065 BKN080 OVC090 15/13 A3031
     RMK AO2 RAE43 SLP264 P0004 60004 T01500133 10161 20150
     56014=
KDVP 231753Z AUTO 14023G30KT 10SM CLR 22/12 A2941 RMK AO2
     T02180122 10218 20082=
KFIT 231752Z AUTO 08004KT 10SM CLR 16/05 A3034 RMK AO2 SLP278
     T01560050 10156 20050 57014=
KIOW 231752Z AUTO 16020G31KT 10SM CLR 25/13 A2970 RMK AO2 PK WND
     15033/1724 SLP052 T02500133 10250 20150 58018=
KMDH 231752Z 19020G34KT 10SM BKN041 26/14 A2995 RMK AO2 PK WND
     19034/1743 SLP140 T02560144 10256 20172 58010=
KMGY 231753Z AUTO 17011G19KT 10SM FEW050 24/10 A3013 RMK AO2
     SLP197 T02390100 10239 20133 58014=
KMLI 231752Z 16017G25KT 10SM CLR 24/13 A2975 RMK AO2 PK WND
     16031/1715 SLP070 T02440133 10244 20167 58015=
KMLT 231753Z AUTO 00000KT 10SM CLR 19/09 A3036 RMK AO2 SLP287
     T01940094 10194 20033 58013=
KOWA 231753Z AUTO 14019G23KT 10SM CLR 23/13 A2956 RMK AO2=
KPYM 231752Z AUTO 05005KT 10SM FEW009 FEW080 OVC110 15/12 A3032
     RMK AO2 SLP270 T01500122 10156 20139 56007=
