SAUS80 KWBC 231700
METAR
KJDN 231648Z AUTO 33008KT 06/05 A2951 RMK AO1 SLP005 P0006
     T00610050=
KESN 231650Z 02009KT 7SM -RA SCT008 16/13 A3023=
KSNT 231651Z AUTO 35003KT M03/M07 A2984 RMK AO1 SLP102
     T10331067=
KCQT 231647Z AUTO 00000KT 10SM SCT018 BKN027 17/13 A2987 RMK AO2
     SLP115 T01720128=
KGNT 231655Z AUTO 22017G29KT 190V260 10SM SCT050 OVC060 13/01
     A2978 RMK AO2 T01260014=
KCDJ 231651Z AUTO 18012G28KT 27/14 A2963 RMK AO1 PK WND 19030/1605
     SLP022 T02720144=
KABE 231651Z 06009KT 10SM BKN050 OVC100 16/07 A3027 RMK AO2 SLP252
     T01560072 $=
KALB 231651Z 00000KT 10SM FEW180 OVC250 16/07 A3034 RMK AO2 SLP273
     T01560067=
KBDL 231651Z 02005KT 10SM FEW050 BKN170 OVC200 14/06 A3033 RMK AO2
     SLP272 T01390061=
KBKW 231651Z AUTO VRB03KT 10SM CLR 19/02 A3025 RMK AO2 SLP227
     T01940017=
KCAK 231651Z 13003KT 10SM FEW250 20/07 A3022 RMK AO2 SLP230
     T02000067=
KCON 231651Z AUTO 36005KT 10SM CLR 14/06 A3036 RMK AO2 SLP284
     T01390056=
KCRP 231651Z 16022G30KT 10SM FEW029 SCT039 BKN060 BKN170 BKN250
     29/21 A2990 RMK AO2 PK WND 17030/1649 SLP123 T02890211=
KEKN 231651Z AUTO 36004KT 10SM CLR 19/03 A3025 RMK AO2 SLP249
     T01940028=
KELP 231651Z 25017G21KT 10SM SCT047 SCT075 BKN160 BKN190 24/11
     A2981 RMK AO2 SLP025 T02390106=
KROW 231651Z 20023G36KT 10SM CLR 25/11 A2968 RMK AO2 PK WND
     21037/1623 SLP990 T02500111=
KSAD 231651Z AUTO 31017G25KT 10SM CLR 21/08 A2978 RMK AO2 SLP038
     T02110078=
KSAN 231651Z 24004KT 10SM SCT030 BKN042 18/10 A2989 RMK AO2 SLP123
     T01830100=
KSAT 231651Z 16018G28KT 10SM SCT032 BKN250 27/17 A2991 RMK AO2 PK
     WND 16028/1645 SLP109 T02720167=
KSMX 231651Z 30007KT 10SM CLR 14/07 A2993 RMK AO2 SLP137
     T01440072=
KSVE 231655Z AUTO 14005KT 10SM CLR 04/M03 A3006 RMK AO2=
KTEB 231651Z 02005KT 10SM -RA FEW060 SCT070 BKN110 16/08 A3026 RMK
     AO2 DZE28RAB48 SLP247 P0000 T01560078=
KVCT 231651Z 15016G24KT 10SM FEW042 FEW050 BKN065 29/21 A2993 RMK
     AO2 PK WND 15030/1616 SLP132 T02890206=
KYNG 231651Z 12008KT 10SM FEW200 SCT250 21/04 A3023 RMK AO2 SLP235
     T02060044=
KHSE 231651Z AUTO 35007KT 310V030 8SM -RA OVC005 17/17 A3002 RMK
     AO2 RAB47 SLP165 P0000 T01720172 $=
KHTS 231651Z 00000KT 10SM CLR 23/06 A3020 RMK AO2 SLP222
     T02280061=
KIGM 231651Z AUTO 02010KT 10SM CLR 14/01 A2985 RMK AO2 SLP057
     T01440011=
KMYL 231651Z AUTO 00000KT 10SM FEW040 SCT049 BKN070 01/M04 A2989
     RMK AO2 SLP140 T00061039=
KORF 231651Z 36012G19KT 320V030 5SM -RA BR OVC004 16/15 A3014 RMK
     AO2 RAB46 SLP204 P0000 T01560150=
KOXR 231651Z 00000KT 10SM FEW020 17/13 A2987 RMK AO2 SLP114
     T01720128=
KPVD 231651Z 03007KT 10SM SCT090 SCT110 OVC140 15/11 A3033 RMK AO2
     SLP270 T01500106=
KREO 231652Z AUTO 31014KT 04/M04 A2999 RMK AO1 SLP163
     T00441044=
KATT 231651Z AUTO 18007G24KT 140V220 10SM FEW033 FEW041 SCT050
     27/17 A2991 RMK AO2 SLP117 T02670172=
KP69 231652Z AUTO 00000KT 05/03 A3001 RMK AO1 SLP175 T00500033=
KNYC 231651Z AUTO VRB06KT 10SM -RA OVC120 14/08 A3029 RMK AO2
     RAB07 SLP247 P0000 T01440083 $=
