SAUS70 KWBC 231954
METAR
K6S8 231940Z AUTO 29013KT 10SM 04/02 A2967 RMK A01 LAUREL=
KTFP 231915Z AUTO 16021G25KT 10SM CLR 29/22 A2983 RMK AO2
     T02940217=
