SAUS70 KWBC 231800 RRP
METAR
KPNT 231755Z AUTO 17023G31KT 10SM CLR 25/16 A2988 RMK AO2
     T02460160 10246 20162=
KPOY 231755Z AUTO 33025G32KT 2SM -SN 00/M02 A2959 RMK AO2 SKY
     OBSCURED=
KPPQ 231755Z AUTO 17014G22KT 10SM CLR 23/15 A2981 RMK AO2 LTG DSNT
     W T02270148 10237 20161=
KRCR 231755Z AUTO 17014G20KT 10SM CLR 24/13 A3001 RMK AO2=
KRCV 231755Z AUTO 22011G14KT 10SM -DZ SCT023 SCT038 OVC046 05/01
     A2962 RMK AO2 T00470012 10085 20038=
KRDK 231755Z AUTO 18023G29KT CLR 27/13 A2946 RMK AO2=
KSBD 231759Z 25004KT 10SM SCT031 18/08 A2987=
KSWF 231745Z VRB04KT 10SM BKN100 13/09 A3028=
K1H2 231755Z AUTO 14013G23KT 10SM BKN038 23/14 A2996 RMK AO2
     T02340143 10240 20163=
KAAA 231755Z AUTO 18020G25KT 10SM CLR 23/15 A2986 RMK AO2
     T02330146 10239 20165=
KAUH 231755Z AUTO 18022G29KT 10SM CLR 28/12 A2930 RMK AO2
     T02840117 10284 20124=
KBNW 231755Z AUTO 16021G29KT 10SM CLR 24/14 A2954 RMK AO2=
KCFS 231755Z AUTO 16017G20KT 10SM CLR 24/10 A3010 RMK AO2
     T02400103 10240 20103=
KCKN 231755Z AUTO 12011G15KT 10SM CLR 22/09 A2947 RMK AO2=
KDIK 231756Z AUTO 03012KT 10SM BKN013 08/04 A2935 RMK AO2 SLP946
     T00780039 10078 20056 58012=
KFOA 231755Z AUTO 17019G27KT 10SM BKN043 25/14 A2996 RMK AO2=
KFSW 231755Z AUTO 17015G22KT 10SM OVC001 23/14 A2973 RMK AO2=
KFWC 231755Z AUTO 17015G22KT BKN046 OVC055 24/13 A2996 RMK AO1
     T02440125 10250 20167 PWINO=
KGPC 231755Z AUTO 18017G22KT 10SM SCT050 25/12 A3002 RMK AO2
     T02520117 10254 20155=
KJMS 231756Z AUTO 08017G24KT 10SM CLR 18/08 A2935 RMK AO2 SLP942
     T01780078 10178 20022 58031=
KJXN 231756Z 14014G23KT 10SM CLR 23/11 A3008 RMK AO2 SLP182
     T02330111 10233 20117 58015=
KPHN 231755Z AUTO 18012G19KT 10SM CLR 24/08 A3013 RMK AO2=
KPMV 231755Z AUTO 18023G30KT 10SM CLR 27/13 A2943 RMK AO2
     T02710127 10275 20171=
KRSV 231755Z AUTO 19023G28KT 10SM CLR 26/11 A3000 RMK AO2
     T02570106 10257 20165=
KVVS 231755Z AUTO 07005KT 10SM CLR 21/02 A3022 RMK AO2 T02140022
     10215 20090=
K2R9 231755Z AUTO 16014G20KT 10SM BKN044 30/17 A2988 RMK AO2
     T02950175 10299 20171=
K2V5 231755Z AUTO 23021G32KT 10SM CLR 27/M05 A2924 RMK AO2=
K81R 231755Z AUTO 16017G22KT 10SM CLR 27/16 A2985 RMK AO2
     T02720160 10275 20199=
KELA 231755Z AUTO 18013G23KT 10SM BKN045 OVC065 29/18 A2992 RMK
     AO2 T02900175 10304 20171=
KLUD 231755Z AUTO 19019G25KT 10SM CLR 28/15 A2980 RMK AO2
     T02750148 10275 20193=
KMDD 231755Z AUTO 19013KT 10SM CLR 28/12 A2979 RMK AO2 T02760115
     10278 20175=
KOLM 231754Z 00000KT 3SM BR BKN002 06/06 A3015 RMK AO2 SLP212
     T00560056 10056 21006 53019 $=
KPEZ 231755Z AUTO 15011G18KT 10SM SCT038 SCT046 30/19 A2987 RMK
     AO2 T02960186 10296 20190=
KPSO 231755Z AUTO 24017G29KT 10SM SCT021 BKN048 OVC070 05/01 A2970
     RMK AO2 T00460008 10092 20035=
KRAS 231755Z AUTO 15014G19KT 10SM OVC060 A2992 RMK AO2=
KT82 231755Z AUTO 16014G22KT 10SM BKN036 26/15 A2989 RMK AO2 6////
     T02630154 10263 20196 PNO=
KU68 231755Z AUTO 31024G30KT 10SM SCT048 OVC055 03/M01 A2962 RMK
     AO2=
KVHN 231755Z AUTO 22010G19KT 10SM CLR 27/08 A2986 RMK AO2
     T02690079 10270 20172=
KADC 231757Z AUTO 11015G20KT 10SM CLR 22/11 A2949 RMK AO2 TSNO=
KC35 231755Z AUTO 16009G14KT 10SM CLR 22/12 A2976 RMK AO2
     T02210124 10223 20138 PWINO=
KCDD 231754Z AUTO 00000KT 10SM CLR 21/09 A2969 RMK AO2=
KDNV 231755Z AUTO 19018G26KT 10SM CLR 26/12 A2996 RMK AO2
     T02570122 10257 20180=
KEAU 231756Z 14011KT 10SM CLR 23/13 A2966 RMK AO2 SLP040 T02330128
     10233 20139 58019=
KELZ 231756Z AUTO 19004KT 10SM CLR 19/02 A3027 RMK AO2 SLP247
     T01940017 10200 20056 58014=
