SAUS70 KWBC 232038 RRA
METAR
KMAN 232035Z AUTO 31013G21KT 10SM CLR 10/M02 A3000 RMK A01=
KMAO 232035Z AUTO 02007KT 10SM CLR 22/M01 A3012 RMK AO2=
KMBO 232035Z AUTO 00000G10KT 10SM FEW060 27/13 A3002 RMK AO2=
KMDS 232035Z AUTO 14020G31KT 10SM CLR 25/12 A2924 RMK AO2=
KMEZ 232035Z AUTO 19008KT 100V260 10SM BKN040 25/15 A2985 RMK AO2
     T02510152 $=
KMKJ 232035Z AUTO 12005KT 10SM CLR 20/00 A3021 RMK AO2
     T02030000=
KN38 232035Z AUTO 19007KT 10SM CLR 17/08 A3025 RMK AO2=
KO22 232035Z AUTO 25010KT 10SM CLR 17/M06 A2991 RMK A01=
KO32 232035Z AUTO 28004KT 10SM CLR 19/02 A2991 RMK AO2 T01910021
     $=
KOCQ 232035Z AUTO 16013G17KT 10SM CLR 18/12 A2984 RMK AO1
     T01800119=
KOLG 232035Z AUTO 16013G24KT 10SM SCT046 23/11 A2961 RMK AO1=
KORS 232035Z AUTO 18006KT 10SM CLR 11/08 A3013 RMK AO2=
KOZS 232035Z AUTO 18018G22KT 10SM CLR 29/11 A2972 RMK AO2=
KPAN 232035Z AUTO 26013G20KT 10SM FEW036 BKN043 BKN060 14/02 A2982
     RMK AO2 PWINO TSNO=
KPGV 232035Z AUTO 35007KT 10SM OVC018 18/16 A3011 RMK AO2=
K06D 232035Z AUTO 02019G25KT 10SM BKN018 10/07 A2947 RMK AO2=
K0S9 232035Z AUTO 11008G14KT 10SM SCT025 12/07 A3013 RMK AO2=
K0VG 232035Z AUTO VRB04KT 10SM CLR 24/04 A3015 RMK AO2=
K15M 232035Z AUTO 17009KT 9SM CLR 25/06 A3006 RMK AO2 T02500060
     $=
K1R7 232035Z AUTO 13008KT 10SM FEW055 27/15 A3004 RMK AO2
     PWINO=
K24J 232035Z AUTO VRB04KT 10SM 27/08 A3009 RMK A01=
K28J 232035Z AUTO 07010KT 9SM SCT049 SCT055 25/15 A3009 RMK AO2
     TSNO=
K2D5 232035Z AUTO 12022KT 9SM CLR 21/12 A2926 RMK AO2=
K3AU 232035Z AUTO 17025G38KT 10SM CLR 28/10 A2952 RMK AO2=
K42J 232035Z AUTO VRB03KT 10SM CLR 27/09 A3008 RMK A01=
K46D 232035Z AUTO 09019G26KT 10SM CLR 19/09 A2934 RMK AO2=
K4A6 232035Z AUTO VRB03G10KT 10SM CLR 24/06 A3011 RMK AO2=
K4M9 232035Z AUTO 18016G23KT 10SM SCT049 28/17 A2991 RMK AO2
     PWINO=
K5H4 232035Z AUTO 07020G30KT 10SM CLR 15/02 A2936 RMK AO2=
K6B9 232035Z AUTO 12005KT 10SM CLR 20/00 A3025 RMK AO2=
K7L2 232035Z AUTO 10016KT 10SM CLR 20/11 A2924 RMK AO2=
K7W4 232035Z AUTO 00000KT 10SM BKN023 OVC034 16/13 A3018 RMK AO1
     T01570125=
K7W6 232035Z AUTO 33011G15KT 10SM OVC006 17/17 A3004 RMK AO2
     T01700170=
K96D 232035Z AUTO 03013KT 10SM CLR 15/09 A2948 RMK AO2=
K9D7 232035Z AUTO 05018G26KT 10SM CLR 14/08 A2943 RMK AO2 TSNO=
KACJ 232035Z AUTO 00000KT 9SM CLR 24/06 A3012 RMK AO2
     T02440062=
KAFP 232035Z AUTO 34004KT 10SM CLR 23/03 A3014 RMK AO2
     T02330026=
KAGO 232035Z AUTO 18013G20KT 10SM BKN055 28/15 A2989 RMK A01=
KAIG 232035Z AUTO 12015G20KT 10SM CLR 21/13 A2979 RMK AO2
     T02080125=
KAIK 232035Z AUTO 02008KT 10SM CLR 24/08 A3014 RMK AO2
     T02360084=
KALM 232035Z AUTO 23019KT 10SM CLR 23/06 A2974 RMK AO2=
KAQX 232035Z AUTO 36007KT 10SM CLR 25/09 A3012 RMK AO2=
KARW 232035Z AUTO 36006KT 10SM CLR 23/10 A3012 RMK AO2=
KASJ 232035Z AUTO 34009G14KT 10SM OVC012 15/14 A3012 RMK AO2
     T01510139=
KATA 232035Z AUTO 17010G17KT 140V200 10SM BKN060 29/14 A2985 RMK
     AO2 SLP008 T02890144 $=
KATS 232035Z AUTO 22013G22KT 10SM CLR 25/11 A2969 RMK AO2=
KAVC 232035Z AUTO 01005KT 10SM OVC026 20/13 A3020 RMK AO2
     T01950127=
KBAC 232035Z AUTO 11018G25KT 10SM CLR 23/13 A2931 RMK AO2=
KBCB 232035Z AUTO 10007KT 7SM CLR 20/05 A3022 RMK AO2
     T01980046=
KBKS 232035Z AUTO 16018G26KT 10SM CLR 33/18 A2976 RMK AO2 PK WND
     17026/2034 SLP037 T03320178 $=
KBKT 232035Z AUTO 01007KT 10SM OVC023 17/12 A3016 RMK AO1
     T01730115=
KBRG 232035Z AUTO 22019G28KT 10SM SCT090 22/M02 A2967 RMK AO2
     T02191025=
KBRY 232035Z AUTO 17007KT 10SM CLR 25/07 A3005 RMK AO2
     T02500071=
