SACA45 KWBC 231900
METAR
MGFL NIL=
MGGT 231900Z 04008KT 9999 SCT020TCU 24/17 Q1020 A3012 TCU
     E/ESE=
MGHT NIL=
MHAM NIL=
MHCA 231900Z VRB02KT 9999 4000SE RA SCT028TCU FEW030CB SCT080
     28/22 CB N W=
MHCH 231900Z 03010KT 9999 SCT034 34/26=
MHLE 231900Z 03004KT 9999 BKN022 20/15=
MHNJ NIL=
MHNO 231900Z 35006KT 9999 FEW040 28/19=
MHPL 231900Z 02005KT 9999 SCT024TCU SCT080 26/23 Q1012 RERA=
MHRO 231900Z 22006KT 9999 SCT020 28/24 Q1013 A2992 NOSIG=
MHSR 231900Z 00000KT 9999 BKN025 25/20=
MHTE 231900Z 01006KT 9999 SCT028TCU FEW032CB BKN080 30/25
     Q1011=
MHYR 231900Z 05004KT 9999 SCT024TCU SCT080 28/21=
MNMG NIL=
MNPC NIL=
MPSA NIL=
MRCH NIL=
MSAC 231850Z 20005KT 9999 FEW030 33/23 Q1010 A2984=
