SAUS70 KWBC 231900 RRG
METAR
KGWB 231855Z AUTO 18003G14KT 10SM SCT055 23/11 A3005 RMK AO2=
KHHV 231855Z AUTO 16016G25KT 10SM SCT032 SCT040 26/19 A2991 RMK
     A01=
KHJH 231855Z AUTO 18023G31KT 10SM CLR 29/12 A2935 RMK AO2
     T02920115=
KHYA 231856Z 04009KT 10SM BKN055 BKN070 OVC085 14/13 A3026 RMK AO2
     RAE48 SLP249 P0000 T01390133=
KVPZ 231856Z AUTO 18015G28KT 10SM CLR 27/12 A2993 RMK AO2 PK WND
     20034/1812 SLP132 T02720122 $=
KBQX 231855Z AUTO 16015G20KT 9SM 28/16 A2993 RMK A01=
KDSF 231855Z AUTO 06006KT 10SM CLR 25/14 A3008 RMK A01=
KE42 231855Z AUTO 20025G35KT 10SM CLR 28/09 A2954 RMK AO2
     T02840090=
KEBG 231855Z AUTO 15018G27KT 10SM CLR 32/19 A2981 RMK AO2
     T03210187 PWINO=
KEED 231856Z AUTO 06009G18KT 10SM CLR 22/01 A2980 RMK AO2 SLP068
     T02220006 $=
KEKO 231856Z AUTO 32017G26KT 10SM SCT065 BKN085 05/M04 A2994 RMK
     AO2 PK WND 31026/1853 SLP143 T00501044=
KELA 231855Z AUTO 18017G21KT 10SM SCT049 BKN055 OVC070 30/17 A2989
     RMK AO2 T03000170=
KEMM 231855Z AUTO 29018G24KT 10SM BKN022 OVC033 M01/M05 A2969 RMK
     AO2=
KF00 231855Z AUTO 18019G26KT 10SM SCT044 28/16 A2983 RMK AO2
     T02820162=
KGLX 231855Z AUTO 04012KT 10SM CLR 26/13 A3008 RMK A01=
KHHV 231855Z AUTO 16016G25KT 10SM SCT032 SCT040 26/19 A2991 RMK
     A01=
KSBP 231856Z 34012KT 10SM CLR 20/04 A2993 RMK AO2 SLP135
     T02000039=
KWJF 231856Z 28015KT 10SM CLR 17/M02 A2991 RMK AO2 SLP120
     T01721017=
KPSO 231855Z AUTO 24012G23KT 10SM SCT030 BKN039 OVC046 05/00 A2972
     RMK AO2 T00511005=
KRAS 231855Z AUTO 14017KT 10SM CLR A2989 RMK AO2=
KRDM 231856Z 36006KT 10SM FEW033 09/M01 A3009 RMK AO2 SLP193
     T00941006 $=
KRWV 231855Z AUTO 19014G20KT 140V200 10SM SCT049 BKN055 30/17
     A2987 RMK AO2 T03030169=
KRYW 231855Z AUTO 17011G22KT 140V200 10SM SCT046 28/15 A2986 RMK
     AO2 T02820153=
KSAA 231855Z AUTO 26012KT 7SM SCT028 OVC042 00/M02 A2958 RMK
     AO2=
KSTK 231855Z AUTO 33018G22KT 10SM CLR 20/02 A2927 RMK AO2=
KT41 231855Z AUTO 10SM SCT046 29/17 A2994 RMK AO2 T02920172=
KT74 231855Z AUTO 17020G28KT 10SM SCT042 SCT050 SCT055 29/17 A2984
     RMK AO2 T02920174=
KT82 231855Z AUTO 17014G21KT 10SM SCT040 28/15 A2985 RMK AO2
     T02750152=
KUKI 231856Z AUTO 35006KT 10SM CLR 17/01 A3005 RMK AO2 SLP171
     T01720006=
KVTP 231855Z AUTO 24019G26KT 1/4SM -SN OVC001 M11/M13 A2960 RMK
     AO2=
KMQS 231855Z AUTO 06006G21KT 10SM SCT044 16/11 A3024 RMK AO2=
KN03 231855Z AUTO 12004KT 10SM CLR 18/05 A3028 RMK AO2=
KOBE 231855Z AUTO 05007KT 10SM FEW049 SCT060 28/17 A3004 RMK
     AO2=
KOGA 231855Z AUTO 32018G25KT 10SM CLR 23/M03 A2923 RMK AO2
     T02311030=
KOGS 231855Z AUTO VRB03KT 10SM CLR 22/04 A3023 RMK AO2=
KOKM 231855Z AUTO 18023G31KT 10SM CLR 29/16 A2971 RMK AO2
     T02870156=
KOKZ 231855Z AUTO 23004KT 10SM CLR 24/09 A3015 RMK AO2
     T02390091=
KOLE 231855Z AUTO 20005KT 10SM CLR 18/01 A3025 RMK AO2=
KOLZ 231855Z AUTO 15024G30KT 10SM CLR 24/13 A2962 RMK A01=
KONL 231855Z AUTO 18024G30KT 10SM CLR 28/04 A2920 RMK AO2
     T02810039=
KOOA 231855Z AUTO 16021G25KT 10SM CLR 25/18 A2962 RMK AO2
     T02520180=
KOPL 231855Z AUTO 17015G19KT 10SM CLR 28/15 A3001 RMK AO2
     T02820152=
KOPN 231855Z AUTO 00000KT 10SM CLR 26/03 A3018 RMK AO2=
KOQN 231855Z AUTO 05008KT 10SM BKN039 BKN046 BKN120 17/11 A3023
     RMK AO2=
KOWP 231855Z AUTO 19018G22KT 10SM CLR 29/15 A2971 RMK AO2
     T02890150=
KOWX 231855Z AUTO 19012G20KT 10SM CLR 26/06 A3011 RMK AO1=
KPBX 231855Z AUTO 00000KT 10SM CLR 23/07 A3018 RMK AO2
     T02250067=
KPEA 231855Z AUTO 15016G23KT 10SM CLR 26/14 A2957 RMK AO2
     T02570141=
