SAUS70 KWBC 231900 RRP
METAR
KDKB 231855Z AUTO 16021G28KT 7SM CLR 24/15 A2984 RMK AO2
     T02360152=
KLAM 231855Z AUTO 22016G24KT 10SM RA OVC060 10/00 A2971 RMK AO2
     T01020000=
KLLN 231855Z AUTO 22026G36KT 10SM CLR 29/09 A2971 RMK AO2=
KNSE 231856Z AUTO 14006KT 10SM CLR 26/02 A3012 RMK AO2 SLP185
     T02610017 PNO $=
KOAR 231855Z AUTO 27007KT 10SM CLR M06/M21 A3000 RMK AO2=
KOSC 231855Z AUTO 13007KT 10SM CLR 21/12 A3008 RMK AO2
     T02140118=
K6S8 231855Z AUTO 27013G18KT 7SM 04/02 A2966 RMK A01 Laurel=
K2W6 231859Z AUTO 02003KT 10SM BKN021 OVC026 15/11 A3018 RMK
     AO1=
KCGE 231855Z AUTO 34007KT 8SM OVC017 16/16 A3016 RMK A01=
KDMW 231855Z AUTO 02003KT 10SM OVC048 17/10 A3023 RMK AO2=
KFME 231859Z AUTO 01004KT 10SM OVC046 17/08 A3022 RMK AO1=
KNFE 231856Z AUTO 35009G17KT 10SM OVC006 17/15 A3009 RMK AO2 RAE49
     SLP190 P0006 T01670150=
KNSE 231856Z AUTO 14006KT 10SM CLR 26/02 A3012 RMK AO2 SLP185
     T02610017 PNO $=
TISX 231853Z 10011KT 10SM SCT028 31/23 A2989 RMK AO2 SLP120
     T03110233 $=
K54J 231855Z AUTO 00000KT 10SM CLR 25/04 A3013 RMK AO2
     T02520037=
K6I2 231855Z AUTO 17011G15KT 10SM CLR 24/07 A3012 RMK AO2=
K9D7 231855Z AUTO 06019G25KT 10SM CLR 13/08 A2946 RMK AO2 TSNO=
KGLE 231855Z AUTO 18025G30KT 10SM CLR 28/14 A2977 RMK AO2
     T02810143=
KK62 231855Z AUTO 14007KT 120V190 10SM CLR 25/06 A3011 RMK AO2=
KNSE 231856Z AUTO 14006KT 10SM CLR 26/02 A3012 RMK AO2 SLP185
     T02610017 PNO $=
