SAUS80 KWBC 231844
METAR
KCUL 231833Z AUTO 19018G25KT 10SM CLR 27/11 A2997 RMK AO2=
KDVK 231830Z AUTO 00000KT 10SM CLR 23/05 A3015 RMK AO2=
KNY0 231834Z AUTO 00000KT 10SM CLR 15/06 A3030 RMK AO2=
K9V9 231835Z AUTO 14018G22KT 10SM CLR 23/09 A2916 RMK AO2
     T02310085=
KCBE 231835Z AUTO 24005KT 10SM CLR 18/06 A3029 RMK AO2
     T01790065=
KNY0 231834Z AUTO 00000KT 10SM CLR 15/06 A3030 RMK AO2=
KSFY 231843Z AUTO 15020G24KT 10SM CLR 25/13 A2974 RMK AO2=
