SACA33 KWBC 231800 RRB
METAR
TFFF 231830Z AUTO 11012KT 070V130 9999 FEW028 SCT048 32/25 Q1011
     TEMPO 4000 SHRA SCT018TCU=
TFFR 231830Z AUTO 08008KT 050V120 7000 1600 FEW017 SCT032 BKN040
     28/25 Q1011 TEMPO 4000 SHRA SCT018TCU=
