SAUS70 KWBC 232100 RRA
METAR
KPNC 232053Z AUTO 18016G26KT 10SM CLR 29/14 A2957 RMK AO2 PK WND
     17032/2031 SLP997 T02890144 55019=
KPUC 232053Z AUTO 33009G23KT 10SM BKN046 07/M07 A2971 RMK AO2
     SLP059 T00671067 51024=
KPWK 232052Z 17018G33KT 10SM CLR 26/13 A2983 RMK AO2 PK WND
     17034/2042 SLP098 T02560128 56019=
KPYM 232052Z AUTO 01006KT 6SM RA BR FEW075 OVC100 14/12 A3030 RMK
     AO2 RAB08 SLP262 P0004 60005 T01390122 55008=
KRAP 232052Z 34032G42KT 10SM CLR 09/02 A2933 RMK AO2 PK WND
     34046/2028 SLP932 T00890022 53025 $=
KRCZ 232055Z AUTO 02004KT 10SM CLR 23/06 A3013 RMK AO2
     T02260058=
KRNV 232055Z AUTO 17021G25KT 10SM SCT060 A2996 RMK AO2 TSNO=
KRPD 232055Z AUTO 14018G26KT 7SM CLR 24/16 A2962 RMK AO2
     T02380161=
KSGF 232052Z 18021G30KT 10SM CLR 29/13 A2972 RMK AO2 PK WND
     19033/2010 SLP051 T02890133 56018 $=
KSNK 232055Z AUTO 19015G25KT 10SM CLR 30/11 A2967 RMK AO2
     T03020107=
KSPI 232052Z 17021G31KT 10SM FEW100 25/14 A2979 RMK AO2 PK WND
     18037/2033 SLP083 T02500144 56019=
KSPW 232053Z AUTO 15026G41KT 10SM FEW120 28/12 A2937 RMK AO2 PK
     WND 14041/2050 SLP937 T02780122 56018=
KSUX 232052Z 16021G34KT 9SM CLR 30/13 A2928 RMK AO2 PK WND
     18037/2001 SLP907 T03000128 56020=
KTAN 232052Z AUTO A3030 RMK AO2 SLPNO 56003 PWINO FZRANO TSNO
     $=
KTRM 232052Z AUTO 25006KT 10SM CLR 26/04 A2974 RMK AO2 SLP073
     T02560044 58014=
K08D 232055Z AUTO 04018G26KT 10SM OVC010 07/06 A2943 RMK AO2=
K0E0 232055Z AUTO 23026G35KT 10SM BKN090 18/M03 A2971 RMK AO2
     T01761031 TSNO=
K2J9 232055Z AUTO VRB05KT 10SM CLR 26/05 A3012 RMK AO2=
KAFN 232052Z AUTO 00000KT 10SM CLR 13/08 A3034 RMK AO2 SLP284
     T01330083 55001=
KARR 232052Z 16020G33KT 10SM FEW050 25/14 A2980 RMK AO2 PK WND
     17039/2031 SLP086 T02500139 56020=
KATL 232052Z 15003KT 10SM FEW150 FEW250 23/02 A3015 RMK AO2 SLP205
     T02330022 56020 $=
KBEA 232055Z AUTO 14016G26KT 10SM BKN032 BKN042 BKN050 29/19 A2979
     RMK AO2 T02890191=
KBIS 232052Z AUTO 08014KT 10SM CLR 18/08 A2927 RMK AO2 SLP910
     T01830078 55017=
KBLF 232052Z AUTO 03007KT 10SM CLR 19/M03 A3020 RMK AO2 SLP212
     T01941028 56010=
KBML 232052Z AUTO 00000KT 10SM CLR 17/07 A3033 RMK AO2 SLP280
     T01670067 56002=
KCFV 232052Z AUTO 18025G38KT 10SM CLR 28/16 A2961 RMK AO2 PK WND
     18042/2000 SLP019 T02830156 55016 PWINO $=
KCLT 232052Z VRB03KT 10SM FEW250 23/03 A3016 RMK SLP208 T02280033
     56010 $=
KCMX 232053Z AUTO 09009KT 10SM CLR 19/11 A2978 RMK AO2 SLP084
     T01890111 56016=
KCPS 232053Z 19013G33KT 150V220 10SM CLR 26/14 A2982 RMK AO2 PK
     WND 18033/2050 SLP093 T02560144 55018 $=
KCQW 232055Z AUTO 04008KT 10SM CLR 24/05 A3013 RMK AO2 PWINO=
KCQX 232052Z AUTO 03008KT 2SM RA BR BKN004 OVC026 14/13 A3026 RMK
     AO2 SLP248 P0017 60022 T01440133 58008=
KCVG 232052Z 19008KT 10SM FEW055 FEW120 24/07 A3007 RMK AO2 SLP175
     T02440072 56018=
KDCA 232052Z 03007KT 10SM OVC030 18/11 A3019 RMK AO2 SLP222 VIRGA
     OHD T01830111 56009 $=
KDDC 232052Z AUTO 21035G51KT 4SM HZ FEW027 32/04 A2937 RMK AO2 PK
     WND 20060/2007 SLP909 T03170044 55009 $=
KDPA 232052Z AUTO 16013G29KT 10SM CLR 26/13 A2981 RMK AO2 PK WND
     18038/1953 SLP090 T02560133 56018=
KDVN 232052Z AUTO 17016G26KT 10SM CLR 23/14 A2971 RMK AO2 PK WND
     16032/1953 SLP054 T02330139 56019=
PATA 232052Z 12004KT 10SM OVC004 M02/M04 A3005 RMK AO2 SLP182 VIS
     NW 5 N 5 NE 4 E 4 VCFG E OVR LAKES T10221039 50001 $=
KEHO 232055Z AUTO 00000KT 10SM CLR 22/03 A3016 RMK AO2
     T02230034=
KEST 232052Z AUTO 16028G37KT 10SM CLR 26/13 A2940 RMK AO2 PK WND
     15040/2013 SLP949 T02560128 56019=
