SAUS70 KWBC 231900 RRN
METAR
KMCK 231853Z AUTO 21026G38KT 6SM HZ SCT033 29/01 A2923 RMK AO2 PK
     WND 20050/1811 SLP871 T02940006=
KMCO 231853Z 33009KT 10SM FEW050 29/14 A3006 RMK AO2 SLP179
     T02890139 $=
KMCW 231853Z AUTO 14026G35KT 10SM CLR 24/13 A2954 RMK AO2 PK WND
     15036/1813 SLP992 T02440128=
KMDW 231853Z 18020G34KT 10SM SCT055 27/13 A2987 RMK AO2 PK WND
     18034/1851 SLP105 T02670128=
KMFE 231853Z 16019G28KT 10SM CLR 32/18 A2980 RMK AO2 PK WND
     13035/1800 SLP089 T03220183 $=
KMFR 231853Z 10SM SCT029 SCT034 BKN044 11/04 A3019 RMK AO2 SLP225
     T01110039=
KMGW 231853Z 05005KT 10SM CLR 23/04 A3020 RMK AO2 SLP224
     T02280044=
KMGY 231853Z AUTO 18013G21KT 10SM CLR 24/09 A3011 RMK AO2 SLP191
     T02440094=
KMHE 231853Z AUTO 15022G34KT 10SM CLR 26/11 A2919 RMK AO2 PK WND
     15037/1823 SLP879 T02560106=
KMHT 231853Z 32003KT 10SM OVC180 16/07 A3032 RMK AO2 SLP282
     T01610072=
KMIA 231853Z 07011G15KT 10SM SCT044 SCT065 SCT250 29/18 A3002 RMK
     AO2 SLP165 T02940183 $=
KMIC 231853Z 12017G35KT 10SM CLR 24/13 A2951 RMK AO2 PK WND
     15035/1845 SLP988 T02440128=
KMIE 231853Z 18014G22KT 10SM SCT055 25/09 A3004 RMK AO2 SLP164
     T02500089=
KMIW 231853Z AUTO 16019G32KT 10SM CLR 24/13 A2956 RMK AO2 PK WND
     16034/1754 SLP005 T02390133=
KMKL 231853Z 20016G21KT 10SM CLR 25/12 A3005 RMK AO2 SLP171
     T02500117 $=
KMKO 231853Z AUTO 16017G34KT 10SM CLR 28/16 A2976 RMK AO2 PK WND
     18034/1847 SLP071 T02780161=
KMLB 231853Z 02013KT 10SM SCT060 27/17 A3007 RMK AO2 SLP181
     T02720172=
KMLC 231853Z AUTO 17012G29KT 120V200 10SM CLR 28/16 A2975 RMK AO2
     PK WND 19033/1809 SLP065 T02830161=
KMLS 231853Z AUTO 30019G24KT 5SM RA BR OVC008 05/04 A2948 RMK AO2
     CIG 006V015 SLP992 P0011 T00500039=
KMLT 231853Z AUTO VRB03KT 10SM CLR 20/09 A3035 RMK AO2 SLP285
     T02000094=
KMMK 231853Z AUTO 04004KT 10SM -RA BKN110 12/08 A3029 RMK AO2
     RAB08 SLP258 P0001 T01220078=
KMNI 231855Z AUTO 02005KT 10SM CLR 23/07 A3014 RMK AO2=
KMNN 231853Z AUTO 20012KT 7SM CLR 23/09 A3013 RMK AO2 SLP201
     T02330094=
KMOD 231853Z 32014KT 10SM CLR 17/M01 A2997 RMK AO2 SLP147
     T01721006 $=
KMPO 231853Z AUTO 07007KT 10SM BKN045 BKN100 15/09 A3028 RMK AO2
     SLP260 T01500089=
KMRB 231853Z 01005KT 10SM FEW029 OVC039 18/08 A3023 RMK AO2 SLP237
     T01780078 $=
K10G 231855Z AUTO 20007KT 10SM CLR 23/06 A3018 RMK AO2=
K14Y 231855Z AUTO 13016G24KT 10SM CLR 22/12 A2947 RMK AO2=
K20U 231855Z AUTO 03006KT 10SM OVC008 06/06 A2944 RMK AO2=
K21D 231855Z AUTO 15017G24KT 10SM CLR 23/12 A2956 RMK AO2=
K27K 231855Z AUTO 23008KT 10SM CLR 24/06 A3013 RMK AO1=
KACQ 231855Z AUTO 13022G28KT 10SM CLR 23/12 A2954 RMK AO2=
KAIT 231855Z AUTO 13013G17KT 10SM CLR 23/12 A2954 RMK AO2=
KAMN 231855Z AUTO 15013G20KT 10SM CLR 25/09 A3004 RMK AO2
     T02450089=
KAQP 231853Z AUTO 18022G30KT 10SM SCT085 24/11 A2935 RMK AO2=
KBDH 231855Z AUTO 13027G31KT 10SM CLR 24/12 A2944 RMK AO2=
KCBG 231855Z AUTO 11009G19KT 10SM CLR 24/12 A2954 RMK AO2=
KCFE 231855Z AUTO 13023G29KT 10SM CLR 24/13 A2949 RMK AO2=
KCKI 231855Z AUTO 36007KT 320V050 10SM CLR 23/04 A3014 RMK AO2=
KCOQ 231855Z AUTO 08008G15KT 10SM CLR 17/09 A2962 RMK AO2 TSNO=
KCVH 231855Z AUTO 00000KT 10SM CLR 17/05 A3000 RMK A01=
KD55 231855Z AUTO 05019G28KT 10SM FEW013 12/12 A2948 RMK AO2=
KDLZ 231855Z AUTO 18009KT 10SM CLR 22/09 A3014 RMK AO2=
KDRM 231855Z AUTO 14009G14KT 10SM CLR 19/11 A3005 RMK AO2
     T01850106=
KDXX 231855Z AUTO 14028G33KT 10SM CLR 25/12 A2935 RMK AO2=
KEDE 231855Z AUTO 35011KT 10SM OVC006 17/17 A3010 RMK AO2
     T01680165=
KEDJ 231855Z AUTO 17009G16KT 9SM SCT050 23/10 A3013 RMK A01=
