SAUS70 KWBC 231742 RRB
METAR
KJAS 231735Z AUTO VRB05G17KT 9SM SCT039 BKN047 BKN055 27/19 A2998
     RMK AO2=
KLLN 231735Z AUTO 19021G26KT 10SM CLR 27/10 A2973 RMK AO2=
KMNH 231735Z AUTO 21024G33KT 10SM SCT080 15/M03 A2943 RMK AO2=
KPNA 231735Z AUTO 30023G32KT 10SM SCT120 00/M06 A2959 RMK AO2=
KC65 231735Z AUTO 16012G23KT 10SM CLR 24/12 A2999 RMK A01=
KC75 231735Z AUTO 19011G19KT 10SM CLR 24/16 A2983 RMK AO2
     T02370156=
KCAV 231735Z AUTO 15024G31KT 10SM CLR 24/14 A2952 RMK A01=
KCBF 231735Z AUTO 19020G32KT 10SM CLR 27/11 A2941 RMK AO2=
KCIN 231735Z AUTO 17021G30KT 10SM CLR 25/15 A2945 RMK AO2=
KCNC 231735Z AUTO 16021G28KT 10SM CLR 24/15 A2959 RMK AO2=
KDKB 231735Z AUTO 16016G26KT 10SM CLR 22/15 A2987 RMK AO2
     T02210146=
KDNS 231735Z AUTO RMK AO2 PNO PWINO=
KGGF 231735Z AUTO 22021G30KT 9SM CLR 26/M02 A2920 RMK AO2=
KGGP 231735Z AUTO 19016G19KT 10SM CLR 24/11 A3003 RMK AO2=
KHDE 231735Z AUTO 19025G30KT 10SM CLR 28/09 A2929 RMK AO2
     T02770092=
KI63 231735Z AUTO 17015G24KT 10SM CLR 22/14 A2978 RMK AO2
     T02200135=
KI74 231735Z AUTO 18008KT 10SM SCT047 22/11 A3015 RMK AO2=
KICL 231735Z AUTO 18024G31KT 10SM CLR 27/13 A2950 RMK AO2=
KIKK 231735Z AUTO 18017G22KT 10SM CLR 24/13 A2993 RMK AO2
     T02430131=
KJOT 231735Z AUTO 18015G24KT 10SM CLR 25/14 A2989 RMK AO2
     T02470137=
KJYR 231735Z AUTO 19020G30KT 9SM 27/12 A2934 RMK AO2=
KLOM 231735Z AUTO 07008G17KT 10SM CLR 17/11 A3025 RMK AO2
     T01700109=
KLXN 231735Z AUTO 20027G35KT 7SM CLR 29/06 A2925 RMK AO2
     T02890061=
KMGC 231735Z AUTO 17015G21KT 150V210 10SM CLR 24/12 A2996 RMK
     AO2=
KMQS 231735Z AUTO 06007G14KT 10SM CLR 17/10 A3025 RMK AO2=
KOGA 231735Z AUTO 24012G17KT 10SM CLR 25/00 A2922 RMK AO2
     T02471003=
KOGS 231735Z AUTO 00000KT 10SM CLR 22/05 A3025 RMK AO2=
KOLE 231735Z AUTO 20004KT 10SM CLR 17/02 A3027 RMK AO2=
KOOA 231735Z AUTO 17021G32KT 10SM CLR 25/18 A2965 RMK AO2
     T02540176=
KOWX 231735Z AUTO 17010G17KT 10SM CLR 25/08 A3013 RMK AO1=
KPEA 231735Z AUTO 16017G28KT 10SM CLR 24/14 A2960 RMK AO2
     T02440136=
KPNT 231735Z AUTO 17025G30KT 10SM CLR 24/16 A2989 RMK AO2
     T02410159=
K1H2 231735Z AUTO 14017G24KT 10SM BKN038 24/14 A2997 RMK AO2
     T02350144=
KAAA 231735Z AUTO 17017G27KT 10SM SCT120 23/15 A2986 RMK AO2
     T02340146=
KAHQ 231735Z AUTO 17023G31KT 10SM CLR 28/12 A2938 RMK AO2
     T02760122=
KBVN 231735Z AUTO 17019G26KT 10SM CLR 26/09 A2929 RMK AO2
     T02550093 PWINO=
KDNV 231735Z AUTO 16018G25KT 10SM CLR 25/12 A2997 RMK AO2
     T02520120=
KFET 231735Z AUTO 17015G22KT 10SM CLR 27/13 A2938 RMK AO2
     T02660134=
KHHG 231735Z AUTO 19011G17KT 10SM CLR A3007 RMK AO2=
KHMZ 231735Z AUTO 00000KT 10SM CLR 16/04 A3027 RMK AO2
     T01620039=
KHPT 231735Z AUTO 15017G26KT 7SM CLR 24/12 A2957 RMK AO2=
KIBM 231735Z AUTO 33020G30KT 10SM CLR 15/00 A2931 RMK AO2
     T01490004=
KLRJ 231735Z AUTO 17024G32KT 9SM CLR 25/13 A2933 RMK AO2=
KMZZ 231735Z AUTO 19014G18KT 10SM CLR 24/12 A3007 RMK AO2
     T02390116=
KN03 231735Z AUTO 13004KT 10SM CLR 17/01 A3029 RMK AO2=
KOLY 231735Z AUTO 17016G27KT 10SM SCT045 25/11 A2999 RMK AO2
     T02530111=
KONL 231735Z AUTO 17020G27KT 10SM CLR 25/04 A2923 RMK AO2
     T02520036=
KPMV 231735Z AUTO 17022G30KT 10SM CLR 27/13 A2944 RMK AO2
     T02710127=
KPPO 231735Z AUTO 18011KT 10SM CLR 24/16 A2998 RMK AO2
     T02410156=
KPRG 231735Z AUTO 17023G27KT 10SM SCT110 25/14 A2999 RMK AO2
     T02530142=
KRPJ 231735Z AUTO 17018G23KT 10SM CLR 23/15 A2984 RMK AO2
     T02300150 TSNO=
KSTE 231735Z AUTO 13007G10KT 10SM CLR 22/10 A2981 RMK AO2
     T02180101=
