SAUS80 KWBC 232034
METAR
KGNT 232035Z AUTO 27012G21KT 250V310 10SM -RA SCT021 BKN029 OVC060
     10/05 A2980 RMK AO2 T00970048=
KLZZ 232015Z AUTO 18010G19KT 10SM CLR 29/15 RMK AO2 T02920145=
KSVE 232035Z AUTO 06006KT 10SM BKN060 M22/M45 A3006 RMK AO2=
