SAUS70 KWBC 231800 RRP
METAR
KOLU 231756Z AUTO 17021G31KT 10SM CLR 28/12 A2932 RMK AO2 PK WND
     17034/1744 SLP919 T02780122 10278 20150 56019=
KONZ 231755Z AUTO 17003KT 10SM CLR 18/06 A3013 RMK AO2 T01800062
     10184 20107=
KOSC 231755Z AUTO 16007G15KT 10SM CLR 22/11 A3009 RMK AO2
     T02150112 10222 20094=
KOXD 231755Z AUTO 16010KT 10SM SCT050 26/07 A3012 RMK AO2
     T02570070 10257 20135=
KPJC 231755Z AUTO RMK AO2 TSNO PWINO=
KPNM 231755Z AUTO 11013G18KT 10SM CLR 23/13 A2956 RMK AO2 TS=
KPQI 231756Z AUTO 19005KT 10SM CLR 21/07 A3033 RMK AO2 SLP296
     T02110067 10217 20028 58015=
KPRX 231756Z AUTO 18023G27KT 10SM BKN040 28/16 A2987 RMK AO2 PK
     WND 19027/1747 SLP111 T02780161 10278 20194 58010=
KPTN 231756Z AUTO 14010G18KT 100V170 10SM FEW070 27/16 A3007 RMK
     AO2 SLP184 6//// T02670161 10272 20172 58010 $=
KPTV 231756Z AUTO VRB04KT 10SM CLR 14/03 A2997 RMK AO2 SLP147
     T01440033 10156 20050 51018=
KPVC 231756Z AUTO 06007KT 10SM -RA CLR 14/13 A3033 RMK AO2 RAB35
     SLP269 P0000 60000 T01440128 10150 20133 56012=
KPVG 231756Z AUTO VRB03KT 2 1/2SM -RA BR OVC002 14/14 A3013 RMK
     AO2 RAB31 SLP205 6//// T01440144 10144 20139 58006 PNO $=
KPVU 231756Z 32023G28KT 10SM SCT024 06/00 A2976 RMK AO2 PK WND
     31029/1712 SLP077 60002 T00560000 10056 20022 51025=
KPWG 231756Z AUTO RMK AO2 SLPNO 6//// PWINO FZRANO $=
KRKD 231756Z AUTO 08003KT 10SM CLR 16/12 A3037 RMK AO2 SLP283
     T01560122 10156 20061 58010=
K1P1 231755Z AUTO 00000KT 10SM CLR 17/05 A3034 RMK AO2 T01710046
     10171 20000=
K20U 231755Z AUTO 05012KT 10SM OVC011 06/05 A2943 RMK AO2=
K2P2 231755Z AUTO 18011G19KT 150V210 10SM SCT110 17/12 A2993 RMK
     AO2 T01660116 10166 20105=
K3D2 231755Z AUTO 18014G24KT 10SM CLR 16/11 A2991 RMK AO2
     T01630105 10165 20107=
K6L4 231755Z AUTO VRB04KT 10SM CLR 22/05 A3019 RMK AO2=
K82C 231755Z AUTO 13011G19KT 10SM CLR 22/13 A2975 RMK AO2
     T02230130 10223 20136=
KAMW 231753Z AUTO 16017G29KT 10SM CLR 24/14 A2954 RMK AO2 PK WND
     17032/1730 SLP995 T02440139 10244 20144 58019=
KASX 231753Z AUTO 13011G16KT 10SM CLR 24/12 A2971 RMK AO2 SLP063
     T02390122 10239 20044 58010=
KATY 231753Z AUTO 13020G31KT 10SM -RA CLR 22/12 A2932 RMK AO2 PK
     WND 14031/1753 RAB1656 SLP925 P0000 60000 T02170122 10217
     20128 56027=
KBRL 231753Z AUTO 18019G27KT 10SM CLR 22/13 A2974 RMK AO2 PK WND
     19029/1711 SLP065 T02220133 10233 20161 58015=
KCKB 231753Z 33004KT 10SM CLR 23/04 A3021 RMK AO2 SLP222 T02330044
     10233 20028 58015=
KGFK 231753Z 08007KT 050V110 10SM FEW250 17/07 A2947 RMK AO2
     SLP983 T01720072 10172 20017 58022 $=
KLSE 231753Z 13014G25KT 10SM CLR 24/13 A2967 RMK AO2 SLP038
     T02390128 10239 20156 58022 $=
KSTP 231753Z 13016G22KT 10SM CLR 23/13 A2958 RMK AO2 PK WND
     15026/1730 SLP012 T02280128 10233 20156 58023=
KACV 231753Z AUTO 26004KT 10SM CLR 12/08 A3015 RMK AO2 SLP216
     T01220078 10122 20033 51013=
KBKE 231753Z AUTO 34015G24KT 10SM FEW032 05/M02 A3002 RMK AO2
     SLP182 T00501017 10056 21033 51021=
KBTM 231753Z AUTO 30008KT 5SM -SN BR BKN022 BKN026 OVC040 M01/M03
     A2979 RMK AO2 SLP113 P0000 60000 T10061028 11006 21017
     53019=
KBYG 231753Z AUTO 33023G34KT 5SM -SN BR FEW005 OVC060 02/00 A2950
     RMK AO2 PK WND 34037/1715 UPE1659SNB1659 SLP983 P0000 60025
     T00170000 10050 20011 53010=
KDLN 231753Z AUTO 16005KT 10SM SCT032 BKN049 OVC055 M01/M02 A2977
     RMK AO2 SLP104 60000 T10061017 11006 21022 51021=
KJSO 231755Z AUTO 21012G19KT 10SM SCT037 BKN048 27/17 A2996 RMK
     AO2 T02660168 10267 20185 TSNO=
