SAUS80 KWBC 231714
METAR
KGNT 231715Z AUTO 23018G26KT 10SM SCT040 BKN048 OVC050 14/01 A2977
     RMK AO2 T01360009=
KFAR 231706Z 09012KT 10SM CLR 20/10 A2943=
KSVE 231715Z AUTO 36004KT 10SM FEW039 BKN050 04/M04 A3007 RMK
     AO2=
