SAUS70 KWBC 231900 RRM
METAR
KFWZ 231855Z AUTO 34014G19KT 10SM BKN036 OVC045 M01/M04 A2956 RMK
     AO2=
KFXY 231855Z AUTO 13022G29KT 10SM CLR 25/13 A2951 RMK AO2=
KFYJ 231855Z AUTO 00000KT 10SM OVC011 15/13 A3017 RMK AO1
     T01470130=
KGEV 231855Z AUTO 09006KT 10SM CLR 19/00 A3022 RMK AO2
     T01911005=
KGLW 231855Z AUTO 21008G15KT 10SM CLR 25/09 A3011 RMK AO2
     T02450090=
KHCR 231855Z AUTO 35009KT 10SM BKN055 05/M07 A2972 RMK AO2=
KHDC 231859Z AUTO 14013G16KT 10SM CLR 27/14 A3007 RMK AO2 TSNO=
KHHW 231855Z AUTO 18019G26KT 10SM BKN043 27/15 A2983 RMK AO2=
KHVE 231855Z AUTO 30014G17KT 10SM SCT080 OVC095 11/M01 A2968 RMK
     AO2=
KHZR 231855Z AUTO 15008KT 10SM BKN048 OVC065 27/16 A3004 RMK AO2
     T02730156=
KI75 231855Z AUTO 16021G30KT 10SM CLR 29/14 A2954 RMK AO2
     T02850140=
KIIB 231855Z AUTO 16022G27KT 10SM CLR 24/14 A2963 RMK AO2
     T02430138=
KIJX 231855Z AUTO 17017G23KT 10SM CLR 24/14 A2980 RMK AO2
     T02400143=
KJES 231855Z AUTO 00000KT 10SM CLR 21/06 A3015 RMK AO2=
KLMO 231855Z AUTO 32004KT 7SM CLR 22/M02 A2933 RMK AO2
     T02161024=
KLUV 231855Z AUTO 21021G30KT 10SM CLR 30/09 A2972 RMK AO2=
KMEI 231858Z 20007KT 10SM CLR 26/12 A3010 RMK AO2 SLP190
     T02610117=
KMLE 231855Z AUTO 18018G25KT 10SM CLR 30/13 A2936 RMK AO2
     T02950126=
KMQB 231855Z AUTO 17019G26KT 10SM SCT120 22/12 A2978 RMK AO2
     T02160122=
KMQW 231855Z AUTO 32004KT 10SM CLR 25/11 A3014 RMK AO2
     T02520106=
KMRH 231858Z AUTO 34011KT 10SM BKN011 OVC065 17/15 A3006 RMK AO2
     RAE47 SLP178 P0001 T01670150=
KMYP 231857Z AUTO OVC002 M05/M06 A2971 RMK AO2 PWINO=
KNOW 231855Z AUTO 05005KT 10SM CLR 10/07 A3013 RMK AO2
     T01010071=
KNRN 231855Z AUTO 24023G40KT 7SM OVC030 31/02 A2928 RMK AO2=
KORG 231855Z AUTO 15013KT 10SM BKN050 OVC055 29/18 A3000 RMK AO2
     T02900184=
KPNT 231855Z AUTO 18023G33KT 10SM CLR 25/16 A2986 RMK AO2
     T02520161=
KPOY 231855Z AUTO 33023G28KT 5SM -SN BKN022 01/M02 A2959 RMK
     AO2=
KPPA 231855Z AUTO 22012G19KT 10SM CLR 27/12 A2962 RMK AO2
     T02690119=
KPPQ 231855Z AUTO 14015G18KT 10SM CLR 23/15 A2978 RMK AO2
     T02330151=
KPTT 231855Z AUTO 18026G35KT 7SM CLR 31/11 A2944 RMK AO2
     T03110107=
KPXE 231855Z AUTO 05005KT 10SM CLR 25/07 A3015 RMK AO2
     T02490074=
KRBO 231855Z AUTO 10SM SCT035 SCT044 30/20 A2983 RMK AO2
     T02990203=
KRCR 231855Z AUTO 16016KT 10SM FEW050 24/12 A2998 RMK AO2=
KRCV 231855Z AUTO 22015G23KT 10SM SCT047 OVC060 06/M01 A2962 RMK
     AO2 T00601009=
KRDK 231855Z AUTO 18025G31KT CLR 29/14 A2943 RMK AO2=
KREG 231855Z AUTO 13007KT 10SM BKN049 BKN055 28/15 A3004 RMK AO2
     T02760150=
KSBO 231855Z AUTO 08006KT 10SM CLR 25/10 A3016 RMK AO2=
KSBS 231855Z AUTO 22008KT 2SM OVC007 01/01 A2954 RMK AO1
     T00050005=
KSDA 231855Z AUTO 17022G33KT 10SM CLR 29/14 A2941 RMK AO2=
KSEF 231855Z AUTO 05009KT 10SM SCT044 SCT055 A3006 RMK AO2=
KSFF 231853Z COR 24005KT 10SM SCT030 08/02 A3003 RMK AO2 SLP176
     T00780017=
KSHL 231855Z AUTO 16023G33KT 10SM CLR 26/13 A2934 RMK AO2=
KSJS 231855Z AUTO 00000KT 10SM CLR 24/07 A3017 RMK AO2
     T02370073=
KSLB 231855Z AUTO 16022G31KT 10SM CLR 25/13 A2941 RMK AO2=
KSNL 231855Z AUTO 18024G29KT 10SM CLR 28/13 A2968 RMK AO2
     T02780125=
KT20 231855Z AUTO 18015G25KT 10SM BKN044 BKN060 BKN070 30/19 A2984
     RMK AO2 T03020186=
KT35 231855Z AUTO 19016KT 10SM SCT047 BKN060 30/17 A2985 RMK AO2
     T02960172=
KTAZ 231855Z AUTO 17019G27KT 10SM SCT037 SCT100 23/14 A2987 RMK
     AO2 T02310140=
KTBR 231855Z AUTO 06003KT 10SM CLR 24/09 A3013 RMK AO2
     T02420091=
