SAUS80 KWBC 231800 RRE
METAR
K4BM 231754Z AUTO 17015G25KT 1/4SM SN OVC002 M01/M02 A2963 RMK
     AO2=
KMEH 231756Z AUTO 00000KT 10SM BKN013 BKN022 02/00 A3002 RMK AO2
     SLP184 60001 T00220000 10022 20006 51022=
