SAUS70 KWBC 231842 RRE
METAR
KGCD 231835Z AUTO 26005KT 10SM SCT016 BKN038 OVC044 03/00 A3006
     RMK AO2 T00310001=
KLMO 231835Z AUTO 00000KT 10SM CLR 20/M02 A2932 RMK AO2
     T01991024=
KLUV 231835Z AUTO 21022G28KT 10SM CLR 29/09 A2973 RMK AO2=
KNOW 231835Z AUTO 04005KT 10SM CLR 10/07 A3013 RMK AO2
     T01030072=
KPNA 231835Z AUTO 30025G28KT 10SM CLR 01/M07 A2961 RMK AO2=
KPPA 231835Z AUTO 23018G25KT 10SM CLR 27/12 A2962 RMK AO2
     T02660116=
KRBO 231835Z AUTO 10SM SCT001 SCT035 SCT042 30/21 A2985 RMK AO2
     T03010206=
KRCV 231835Z AUTO 24021G30KT 10SM -RA SCT041 SCT047 OVC060 05/00
     A2962 RMK AO2 T00511003=
KXBP 231835Z AUTO 18017G26KT 10SM CLR 29/14 A2977 RMK AO2
     T02890139=
