SAUS70 KWBC 231700 RRL
METAR
KCKB 231653Z 00000KT 10SM CLR 21/04 A3024 RMK AO2 SLP231
     T02110039=
KD25 231655Z AUTO 14011G19KT 10SM BKN100 18/12 A2981 RMK AO2
     T01820118=
KDFI 231653Z AUTO 18011G20KT 10SM CLR 23/11 A3011 RMK AO2 SLP194
     T02280111=
KDKK 231653Z AUTO 35005KT 10SM CLR 21/05 A3023 RMK AO2 SLP234
     T02060050=
KDTW 231653Z 17005KT 10SM FEW080 BKN220 23/11 A3015 RMK AO2 SLP207
     T02280106 $=
KFBL 231655Z AUTO 13017G25KT 10SM CLR 22/12 A2959 RMK AO2=
KFOK 231653Z 04010KT 10SM -RA BKN110 14/13 A3026 RMK AO2 PRESFR
     SLP246 P0002 T01440133 $=
KFSE 231655Z AUTO 12006KT 10SM CLR 19/09 A2952 RMK AO2=
KIPT 231654Z 00000KT 10SM BKN034 14/06 A3029 RMK AO2 SLP258
     T01440061=
KLWM 231654Z 05005KT 10SM CLR 15/08 A3037 RMK AO2 SLP283
     T01500083=
KPNE 231654Z 05010KT 10SM FEW034 SCT048 BKN055 17/11 A3026 RMK AO2
     SLP246 T01720106=
KRDG 231654Z 02009KT 10SM R36/4000VP6000FT BKN049 BKN080 16/08
     A3026 RMK AO2 SLP252 T01610078 $=
KUKT 231655Z AUTO VRB04KT 10SM FEW100 16/09 A3027 RMK A01=
KYIP 231653Z 17006KT 10SM FEW065 24/11 A3014 RMK AO2 SLP201
     T02440106=
KZZV 231653Z AUTO 00000KT 10SM CLR 21/09 A3020 RMK AO2 SLP226
     T02110094=
KUOX 231655Z AUTO 22008G14KT 10SM FEW039 24/14 A3012 RMK AO2
     PWINO=
KUTA 231655Z AUTO 20017G21KT 10SM CLR 26/16 A3006 RMK AO2
     T02570159 $=
KUZA 231654Z AUTO 01008KT 10SM CLR 21/08 A3022 RMK AO2 SLP228
     T02110083=
KVGC 231655Z AUTO 16005KT 10SM CLR 16/04 A3031 RMK AO2=
KVJI 231655Z AUTO 00000KT 10SM CLR 21/04 A3025 RMK AO2
     T02130035=
KW78 231655Z AUTO 36004KT 10SM CLR 17/05 A3022 RMK AO1
     T01650050=
KW81 231655Z AUTO 02006KT 10SM OVC025 16/07 A3021 RMK AO1
     T01640070=
KX07 231655Z AUTO 33006KT 10SM SCT042 BKN050 27/17 A3012 RMK
     A01=
KXNX 231655Z AUTO 22010G15KT 10SM CLR 24/06 A3018 RMK A01=
KY19 231655Z AUTO 07014KT 10SM CLR 10/05 A2935 RMK AO2=
K6S2 231655Z AUTO 11004KT 10SM SCT002 08/08 A3017 RMK AO2=
KACV 231653Z AUTO 00000KT 10SM CLR 11/07 A3015 RMK AO2 SLP215
     T01110072=
KBRO 231653Z 18020G31KT 10SM FEW036 31/21 A2988 RMK AO2 PK WND
     15034/1638 SLP118 T03110206=
KCCR 231653Z VRB03KT 10SM CLR 14/03 A3001 RMK AO2 SLP149
     T01440033=
KCLM 231653Z AUTO 24003KT 10SM CLR 09/04 A3010 RMK AO2 SLP195
     T00940039=
KDEW 231653Z AUTO 16003KT 10SM FEW055 06/02 A2999 RMK AO2 SLP166
     T00560022=
KDLS 231653Z AUTO 31007KT 10SM CLR 12/04 A3009 RMK AO2 SLP190
     T01220044=
KELN 231653Z AUTO 31013KT 10SM CLR 08/00 A3003 RMK AO2 SLP176
     T00830000 $=
KEPH 231653Z AUTO 33011KT 10SM 10/M03 A3000 RMK AO2 SLP166
     T01001033 $=
KTVL 231653Z AUTO 00000KT 10SM SCT030 BKN040 BKN048 02/M04 A2997
     RMK AO2 SLP146 T00221044=
KVCB 231653Z AUTO 36018G27KT 10SM CLR 18/M01 A3000 RMK AO2 PK WND
     36028/1625 SLP159 T01781011=
KVUO 231653Z AUTO 14003KT 10SM OVC055 11/07 A3014 RMK AO2 SLP207
     T01060067 $=
KWVI 231653Z AUTO VRB03KT 10SM CLR 12/08 A3000 RMK AO2 SLP158
     T01220078=
KAIT 231655Z AUTO 11009KT 10SM SCT065 20/11 A2961 RMK AO2=
KAMW 231653Z AUTO 17020G33KT 10SM CLR 24/13 A2956 RMK AO2 PK WND
     18033/1650 SLP002 T02440133=
KARB 231653Z 17010KT 10SM CLR 23/11 A3013 RMK AO2 SLP201
     T02280111=
KASX 231653Z AUTO 14007G15KT 10SM CLR 22/12 A2973 RMK AO2 SLP070
     T02220122=
KATY 231653Z AUTO 13018G29KT 10SM CLR 21/12 A2934 RMK AO2 PK WND
     14029/1650 SLP933 T02060122=
KBDE 231653Z AUTO 10009KT 10SM CLR 16/08 A2962 RMK AO2 SLP034
     T01610078=
KGFK 231653Z 05008KT 10SM FEW250 13/06 A2950 RMK AO2 SLP995
     T01330061 $=
KGRB 231653Z 14013KT 10SM CLR 22/13 A2988 RMK AO2 SLP119 T02170128
     $=
