SAUS70 KWBC 231900 RRD
METAR
KCPT 231855Z AUTO 17023G34KT 10SM CLR 28/15 A2980 RMK A01=
KCTZ 231855Z AUTO 31007KT 10SM CLR 22/10 A3012 RMK AO2
     T02190098=
KCXE 231855Z AUTO 00000KT 10SM BKN026 20/11 A3017 RMK AO1
     T02040110=
KD57 231855Z AUTO 04013KT 10SM CLR 12/03 A2929 RMK AO2=
KD60 231855Z AUTO 06018KT 10SM OVC009 05/05 A2947 RMK AO2=
KDEC 231854Z 18021G29KT 10SM CLR 24/15 A2988 RMK AO2 PK WND
     18035/1838 SLP113 T02390150=
KDLN 231853Z AUTO 24005KT 10SM FEW020 FEW046 OVC055 01/M02 A2979
     RMK AO2 SNB1754E14 SLP105 P0000 T00061022=
KDNA 231855Z AUTO 25015G23KT 10SM FEW065 FEW090 24/08 A2980 RMK
     AO2=
KDNN 231855Z AUTO 15004KT 9SM CLR 23/03 A3017 RMK AO2
     T02290028=
KDRI 231855Z AUTO 16013KT 9SM SCT049 BKN065 28/17 A2999 RMK AO2
     T02830167 $=
KDSV 231854Z AUTO 00000KT 10SM CLR 23/04 A3022 RMK AO2 SLP241
     T02330044=
KDXR 231853Z 00000KT 10SM -RA OVC100 16/07 A3030 RMK AO2 RAB05
     SLP259 P0000 T01610072=
KDYB 231855Z AUTO 35009KT 330V040 10SM CLR 24/11 A3013 RMK AO2=
KDYL 231854Z AUTO 04008KT 10SM BKN047 OVC055 18/09 A3023 RMK AO2
     SLP237 T01780089=
KECG 231854Z 34011KT 10SM OVC007 17/16 A3008 RMK AO2 RAE10 SLP186
     P0000 T01670156=
KEGV 231855Z AUTO 16013G21KT 130V190 10SM SCT038 21/11 A2979 RMK
     AO2 T02140105=
KEKM 231855Z AUTO 18015G23KT 9SM CLR 25/13 A2999 RMK AO2
     T02480129=
KELK 231855Z AUTO 19017KT 9SM FEW170 SCT210 24/12 A2964 RMK AO2
     SLP328 T02390116 $=
KEUG 231854Z 00000KT 10SM FEW027 13/06 A3020 RMK AO2 SLP226
     T01330056 $=
KEVU 231855Z AUTO 18021G29KT 10SM CLR 28/15 A2949 RMK AO2
     T02820156=
KEVV 231854Z 20015G24KT 10SM CLR 27/09 A3000 RMK AO2 PK WND
     19027/1801 SLP154 T02720089=
KEWN 231854Z 33008KT 10SM OVC017 18/14 A3009 RMK AO2 SLP188
     T01830139=
KEXX 231855Z AUTO 06006KT 10SM CLR 21/05 A3016 RMK AO2
     T02120053=
KEZF 231855Z AUTO 01003KT 10SM -DZ SCT021 SCT028 OVC034 17/12
     A3018 RMK AO2 T01700121=
KFGX 231855Z AUTO 19005KT 10SM CLR 24/08 A3015 RMK AO2
     T02380077=
KFIG 231854Z AUTO 10009KT 10SM CLR 19/01 A3025 RMK AO2 SLP247
     T01940011=
KFKN 231855Z AUTO 34008KT 10SM OVC007 15/13 A3012 RMK AO2
     T01470127=
KFOK 231853Z 03010KT 4SM RA BR BKN070 OVC090 13/13 A3026 RMK AO2
     SLP245 P0021 T01330128 $=
KFVX 231855Z AUTO 02006KT 7SM OVC027 20/11 A3017 RMK AO2
     T01950106=
K06D 231855Z AUTO 04019G25KT 10SM BKN013 09/07 A2950 RMK AO2=
K0S9 231855Z AUTO VRB06G11KT 10SM CLR 12/07 A3013 RMK AO2=
K0VG 231855Z AUTO 00000KT 10SM CLR 23/04 A3018 RMK AO2=
K15M 231855Z AUTO 17009KT 10SM CLR 25/07 A3009 RMK AO2 T02460069
     $=
K1R7 231855Z AUTO VRB05G12KT 10SM BKN050 26/16 A3007 RMK AO2
     PWINO=
K24J 231855Z AUTO 00000KT 10SM 27/08 A3010 RMK A01=
K28J 231855Z AUTO 08006G12KT 9SM CLR 25/13 A3009 RMK AO2 TSNO=
K2D5 231855Z AUTO 10023KT 9SM CLR 21/11 A2929 RMK AO2=
K3AU 231855Z AUTO 17026G35KT 10SM CLR 28/10 A2953 RMK AO2=
K42J 231855Z AUTO 03004KT 10SM CLR 26/09 A3009 RMK A01=
K46D 231855Z AUTO 08019G24KT 10SM CLR 17/07 A2936 RMK AO2=
K4A6 231855Z AUTO VRB06KT 10SM CLR 23/07 A3016 RMK AO2=
K4M9 231855Z AUTO 18020G26KT 10SM BKN042 25/17 A2994 RMK AO2
     PWINO=
K5H4 231855Z AUTO 06018G24KT 10SM CLR 13/00 A2939 RMK AO2=
K6B9 231855Z AUTO 11007KT 10SM CLR 20/03 A3026 RMK AO2=
K7L2 231855Z AUTO 10017KT 10SM CLR 18/10 A2926 RMK AO2=
K7W4 231855Z AUTO 34004KT 4SM OVC015 15/13 A3020 RMK AO1
     T01460127=
K7W6 231855Z AUTO 35011G19KT 10SM OVC004 17/17 A3003 RMK AO2
     T01670167=
K96D 231855Z AUTO 04011G17KT 10SM FEW019 13/11 A2952 RMK AO2=
