SAUS70 KWBC 232000 RRX
METAR
KBJC 231947Z COR 36004KT 10SM VCSH BKN080 BKN120 14/00 A2934=
