SAUS80 KWBC 231726
METAR
KROS 231723Z AUTO 12010KT 10SM CLR 24/13 A2962 RMK AO2=
