SAUS70 KWBC 231800
METAR
KMCX 231755Z AUTO 17014G20KT 10SM CLR 24/12 A2999 RMK AO2
     T02430115 10243 20164=
KRID 231755Z AUTO 18013G18KT 10SM CLR 23/12 A3013 RMK AO2=
KGYY 231745Z 16014G28KT 10SM CLR 24/13 A2992=
KW75 231755Z AUTO 10SM OVC011 15/14 A3016 RMK AO1 T01520135 10152
     20135=
