SAUS70 KWBC 232100
METAR
KMCX 232055Z AUTO 17015G19KT 10SM CLR 25/09 A2994 RMK AO2
     T02500094=
KRID 232055Z AUTO 19013G18KT 7SM CLR 23/11 A3008 RMK AO2=
KSWF 232045Z 00000KT 10SM OVC120 14/09 A3028=
KW75 232055Z AUTO 33006KT 10SM OVC009 15/14 A3013 RMK AO1 P0005
     60016 T01450136=
