SAUS70 KWBC 232038 RRI
METAR
KI35 232035Z AUTO 10005KT 10SM CLR 23/04 A3015 RMK AO2
     T02260036=
KIER 232035Z AUTO 19013G17KT 10SM SCT055 BKN065 30/16 A2993 RMK
     AO2 T02970156=
KIFA 232035Z AUTO 14016G27KT 10SM SCT100 SCT120 24/15 A2953 RMK
     AO2 T02410146=
KIGQ 232035Z AUTO 17019G26KT 10SM CLR 25/13 A2988 RMK AO2
     T02520128=
KIMS 232035Z AUTO 16007KT 10SM CLR 25/08 A3008 RMK AO2=
KINJ 232035Z AUTO 18020G28KT 10SM BKN050 30/16 A2978 RMK AO2
     T03000158=
KJAU 232035Z AUTO 18005KT 10SM CLR 23/02 A3017 RMK A01=
KJPX 232035Z AUTO 04008KT 10SM -RA BKN030 BKN036 OVC070 13/13
     A3024 RMK AO2 P0010 T01330133=
KJTC 232035Z AUTO 26024G30KT 10SM FEW038 SCT045 SCT060 15/03 A2980
     RMK AO2=
KJWG 232035Z AUTO 17017G32KT 10SM CLR 25/15 A2961 RMK AO2
     T02550152=
KJWY 232035Z AUTO 17020G25KT 10SM SCT050 29/16 A2979 RMK AO2
     T02900158=
KJYL 232035Z AUTO 04003KT 10SM CLR 26/10 A3014 RMK AO2
     T02590099=
KK70 232035Z AUTO 05009KT 10SM CLR 29/21 A3000 RMK AO2=
KLCG 232035Z AUTO 18026G32KT 10SM CLR 30/11 A2926 RMK AO2
     T03040112=
KLNA 232035Z AUTO 36012G15KT 10SM CLR 29/19 A3003 RMK AO2
     T02850193 PNO=
KLNC 232035Z AUTO 16018G26KT 10SM SCT055 30/15 A2978 RMK AO2
     T02970145=
KLNQ 232035Z AUTO 07008KT 10SM CLR 27/16 A3007 RMK AO2
     T02720156=
KLUG 232035Z AUTO 17008G16KT 10SM CLR 24/06 A3007 RMK A01=
KLVN 232035Z AUTO 14020G27KT 7SM CLR 24/11 A2949 RMK AO2=
KPKV 232035Z AUTO 15014G24KT 10SM SCT034 SCT039 BKN048 30/20 A2985
     RMK AO2 T02970200=
KPMH 232035Z AUTO 17004KT 10SM CLR 26/01 A3012 RMK AO2
     T02600013=
KPRO 232035Z AUTO 16025G29KT 10SM CLR 29/13 A2945 RMK AO2
     T02900130=
KPRS 232035Z AUTO 22007KT 10SM CLR 31/10 A2975 RMK AO2
     T03100103=
KPTD 232035Z AUTO 06005KT 10SM CLR 22/04 A3025 RMK AO2=
KPUJ 232035Z AUTO 00000KT 7SM CLR 22/02 A3015 RMK AO2=
KPVJ 232035Z AUTO 16016G24KT 10SM CLR 28/15 A2968 RMK AO2
     T02840146=
KPYX 232035Z AUTO 20029G36KT 10SM CLR 26/08 A2950 RMK AO2
     T02630082=
KPZZ 232035Z AUTO 11016KT 9SM CLR 25/17 A3003 RMK A01=
KRKR 232035Z AUTO 17017G25KT 10SM SCT050 28/13 A2978 RMK AO2=
KRNC 232035Z AUTO VRB06KT 10SM CLR 24/05 A3009 RMK A01=
KRRT 232035Z AUTO 04011G18KT 10SM CLR 14/11 A2954 RMK AO2=
KRSN 232035Z AUTO 19014G18KT 10SM SCT060 28/13 A2998 RMK AO2
     T02810133=
KRTS 232035Z AUTO 06009G15KT 10SM BKN055 06/M09 A3006 RMK AO2=
KRZR 232035Z AUTO 00000KT 10SM CLR 24/01 A3010 RMK A01=
KSAR 232035Z AUTO 19023G28KT 10SM CLR 25/15 A2987 RMK AO2
     T02530145=
KSCD 232035Z AUTO 16004KT 10SM BKN110 25/05 A3011 RMK AO2
     T02490046=
KSCX 232035Z AUTO VRB05KT 10SM CLR 23/02 A3012 RMK A01=
KSEM 232035Z AUTO 15007KT 10SM CLR 27/05 A3008 RMK AO2=
KSEZ 232035Z AUTO 29009G15KT 10SM 12/00 A2981 RMK AO2=
KSLO 232035Z AUTO 18021G28KT 10SM SCT044 26/14 A2989 RMK AO2
     T02590138=
KSNH 232030Z AUTO 18012G17KT 10SM CLR 26/06 A3003 RMK A01=
KSRB 232035Z AUTO 20007KT 10SM CLR 25/06 A3010 RMK A01=
KSRE 232035Z AUTO 10SM CLR 29/13 A2968 RMK AO2=
KSWW 232035Z AUTO 18018G24KT 10SM CLR 30/12 A2972 RMK AO2
     T03030118=
KSYF 232035Z AUTO 23030G42KT 7SM SCT039 SCT046 27/M04 A2925 RMK
     AO2 T02701045 PWINO=
KSYI 232035Z AUTO 20010KT 10SM CLR 24/07 A3008 RMK A01=
KSZT 232035Z AUTO 36005KT 10SM CLR 10/00 A3002 RMK AO2=
KSZY 232035Z AUTO 18008G14KT 150V210 10SM CLR 25/07 A3003 RMK
     A01=
KT89 232035Z AUTO 20010G16KT 10SM CLR 32/05 A2972 RMK A01=
KTHA 232035Z AUTO 18009KT 10SM CLR 23/06 A3009 RMK A01=
KTNU 232035Z AUTO 15016G24KT 9SM CLR 26/14 A2954 RMK A01=
KTQH 232035Z AUTO 17020G25KT 10SM CLR 28/10 A2974 RMK AO2=
