SAUS70 KWBC 232000 RRH
METAR
KBMI 231956Z 17025G31KT 10SM FEW041 24/15 A2984 RMK AO2 PK WND
     16032/1918 SLP098 T02390150=
KBTP 231956Z AUTO 12007KT 9SM CLR 21/04 A3020 RMK AO2 SLP233
     T02110044 TSNO=
KBVI 231955Z AUTO 12003KT 10SM CLR 24/01 A3018 RMK AO2
     T02410014=
KBVX 231956Z AUTO 20014G23KT 10SM BKN040 25/16 A2992 RMK AO2
     SLP127 T02500156=
KCAD 231955Z AUTO 16012G18KT 10SM SCT050 BKN060 23/10 A2997 RMK
     AO2 T02250104=
KCDA 231955Z AUTO 13006KT 10SM 18/04 A3035 RMK AO2 T01750036=
KCDI 231955Z AUTO 08003KT 10SM CLR 24/08 A3014 RMK AO2
     T02380078=
KCGZ 231956Z AUTO 27013G20KT 10SM FEW055 23/08 A2977 RMK AO2
     SLP070 T02280083 $=
KCIU 231956Z AUTO 14015KT 10SM CLR 21/12 A3001 RMK AO2 SLP164
     T02110117=
KCMA 231955Z 24007G15KT 10SM FEW040 SCT047 22/11 A2986 RMK AO2
     SLP118 T02170106=
KILE 231956Z AUTO 18019G25KT 10SM CLR 30/16 A2979 RMK AO2 PK WND
     17030/1923 SLP078 T03000161=
KIRS 231955Z AUTO 18015G21KT 10SM CLR 24/09 A3000 RMK AO2
     T02400091=
KISQ 231955Z AUTO 15007KT 10SM SCT050 19/12 A2994 RMK AO2
     T01930116=
KITH 231956Z 14007KT 10SM CLR 19/07 A3026 RMK AO2 SLP249
     T01940072=
KIWD 231956Z AUTO 14015G21KT 10SM CLR 23/13 A2971 RMK AO2 SLP056
     T02280128=
KJAC 231956Z 29013KT 10SM SCT050 BKN065 02/M07 A2968 RMK AO2
     SLP068 T00171067 PNO $=
KJHW 231956Z AUTO 20003KT 10SM CLR 21/04 A3022 RMK AO2 SLP235
     T02110039=
KJRB 231956Z AUTO 03008KT 10SM UP OVC055 A3025 RMK AO2
     RAB45E54UPB54 SLPNO P0000 FZRANO $=
KJYG 231955Z AUTO 14023G30KT 10SM CLR 24/12 A2941 RMK AO2=
KJYM 231955Z AUTO 16012G20KT 10SM BKN050 24/07 A3005 RMK AO2
     T02350071=
KLBL 231956Z AUTO 22038G46KT 1SM HZ FEW008 BKN019 OVC030 31/04
     A2944 RMK AO2 PK WND 22050/1939 SLP933 T03060039=
KLCI 231956Z AUTO 00000KT 10SM CLR 15/08 A3035 RMK AO2 SLP280
     T01500083=
KLEW 231956Z AUTO 00000KT 10SM CLR 18/09 A3036 RMK AO2 SLP289
     T01780089=
KLGA 231951Z COR 05012KT 10SM -RA BKN045 BKN070 BKN110 OVC150
     16/08 A3025 RMK AO2 RAB46 SLPNO P0000 T01610078 $=
KLLJ 231955Z AUTO 31012G17KT 10SM BKN060 OVC075 04/M09 A2987 RMK
     AO2 SLP115 T00391089 $=
KLPC 231956Z AUTO 31011G19KT 10SM CLR 22/06 A2990 RMK AO2 SLP125
     T02170061=
KLRD 231956Z 14016G25KT 10SM CLR 33/17 A2974 RMK AO2 SLP067
     T03280172=
KLVS 231953Z AUTO 23033G54KT 10SM BKN085 18/M02 A2965 RMK AO2 PK
     WND 21054/1949 SLP943 T01781022=
KLWA 231955Z AUTO 15014G24KT 10SM SCT055 26/12 A2993 RMK AO2
     T02560115=
KM19 231956Z AUTO 18025KT 10SM FEW046 27/15 A2991 RMK AO2 PK WND
     20029/1926 SLP124 T02670150 PNO $=
KMBL 231956Z AUTO 15011G14KT 10SM SCT055 25/13 A2991 RMK AO2
     SLP126 T02500133=
KMKT 231956Z AUTO 15027G32KT 10SM CLR 24/13 A2945 RMK AO2 PK WND
     14035/1941 SLP971 T02440128=
KMKY 231956Z AUTO 04008KT 10SM CLR 30/17 A3002 RMK AO2 SLP166
     T03000167 TSNO $=
KMML 231956Z AUTO 14028G32KT 10SM CLR 24/13 A2933 RMK AO2 PK WND
     15038/1919 SLP928 T02440128=
KMNM 231956Z AUTO 18009G14KT 10SM CLR 18/12 A2988 RMK AO2 SLP117
     T01780117 PNO $=
KMQJ 231955Z AUTO RMK AO1=
KMQY 231956Z 16010G14KT 10SM CLR 24/08 A3010 RMK AO2 SLP196
     T02440083=
KFFX 231955Z AUTO 15011G21KT 7SM BKN050 BKN070 26/11 A2995 RMK AO2
     T02570112=
KFGN 231955Z AUTO 05009KT 10SM CLR 14/07 A2957 RMK AO2=
KFKA 231955Z AUTO 15013G20KT 7SM CLR 23/13 A2960 RMK AO2
     T02320128=
KFKL 231956Z AUTO 11008KT 10SM CLR 22/03 A3021 RMK AO2 SLP229
     T02170028=
KFKS 231955Z AUTO 25005KT 10SM SCT050 BKN080 23/12 A2992 RMK AO2
     T02250119=
KFLP 231956Z AUTO 19013G23KT 150V220 10SM FEW037 26/16 A2984 RMK
     AO2 SLP097 T02560161=
