SAUS80 KWBC 231700
METAR
KFWA 231654Z 19015KT 10SM FEW060 FEW180 SCT250 23/11 A3009 RMK AO2
     SLP188 T02330111 $=
KGSO 231654Z 01007KT 10SM SCT250 19/06 A3021 RMK AO2 SLP227
     T01940056=
KIKW 231655Z AUTO 15008G15KT 10SM CLR 24/12 A3007 RMK AO2
     T02360116=
KLEX 231654Z 20007KT 10SM CLR 24/07 A3017 RMK AO2 SLP211
     T02390067=
KLYH 231654Z 05006KT 10SM CLR 19/04 A3023 RMK AO2 SLP232
     T01940044=
KLYV 231655Z AUTO 15019G27KT 10SM CLR 20/11 A2939 RMK AO2=
KMVL 231654Z AUTO VRB05KT 10SM CLR 19/05 A3034 RMK AO2 SLP279
     T01890050=
KORH 231654Z 04005KT 10SM CLR 14/05 A3034 RMK AO2 SLP276
     T01440050=
KACY 231654Z 05014G23KT 4SM -RA BR SCT010 BKN015 OVC036 16/14
     A3020 RMK AO2 PK WND 08029/1631 RAB36 SLP225 P0000
     T01610144=
KAKQ 231654Z AUTO VRB04KT 10SM OVC009 14/12 A3017 RMK AO2 SLP215
     T01440122=
KAVP 231654Z 10SM A3029 RMK AO2 SLPNO $=
KBTV 231654Z 22003KT 10SM BKN150 BKN250 19/05 A3032 RMK AO2 SLP267
     T01890050=
KCAR 231654Z AUTO VRB06KT 10SM CLR 19/06 A3033 RMK AO2 SLP277
     T01890061=
KCOS 231654Z 21032G40KT 10SM FEW060 FEW250 18/M03 A2945 RMK AO2 PK
     WND 21049/1627 SLP897 VCSH OMTNS W-NW T01781028 $=
KCOU 231654Z 18011G24KT 10SM -RA FEW023 24/15 A2977 RMK AO2 PK WND
     17032/1619 RAB50 SLP073 P0000 T02440150=
KCRW 231654Z VRB03KT 10SM FEW100 FEW230 22/07 A3021 RMK AO2 SLP228
     T02170072=
KDSM 231654Z 16017G28KT 10SM FEW120 FEW180 SCT250 23/13 A2956 RMK
     AO2 PK WND 16032/1624 SLP003 T02330133=
KPIA 231654Z 18014G28KT 10SM CLR 23/13 A2985 RMK AO2 PK WND
     20030/1623 SLP103 T02330133=
KPZQ 231655Z AUTO 17008KT 130V190 10SM CLR 23/13 A3008 RMK AO2
     T02270126=
KRFD 231654Z 17014G26KT 10SM CLR 22/13 A2987 RMK AO2 PK WND
     15029/1640 SLP111 T02170128=
KRIC 231654Z 35008KT 10SM OVC011 15/12 A3019 RMK AO2 RAE03B36E46
     SLP229 P0000 T01500122 $=
KROA 231654Z 00000KT 10SM FEW200 19/05 A3025 RMK AO2 SLP242
     T01890050 $=
KSBN 231654Z 17015G21KT 10SM SCT075 23/13 A3002 RMK AO2 SLP160
     T02330128=
KSUS 231654Z 19014G26KT 10SM SCT200 23/14 A2984 RMK AO2 PK WND
     18026/1641 SLP099 T02330144=
KSYR 231654Z 08006KT 10SM FEW150 FEW200 BKN250 19/06 A3028 RMK AO2
     SLP252 T01890056 $=
KWAL 231654Z AUTO 03015G24KT 10SM -RA OVC010 17/16 A3012 RMK AO2
     RAE11B28 CIG 009V014 SLP198 P0000 T01720156=
KDMH 231654Z AUTO 19/09 A3024 RMK AO1 SLP239 T01890094=
KMBG 231652Z AUTO 10014KT 10SM CLR 17/08 A2923 RMK AO2 SLP896
     T01670083=
KMFD 231652Z 14007KT 10SM CLR 22/09 A3019 RMK AO2 SLP219
     T02220094=
KTOL 231652Z 15008KT 120V180 10SM CLR 23/11 A3013 RMK AO2 SLP201
     T02330111=
KCDR 231653Z AUTO 31012G24KT 10SM CLR 13/03 A2928 RMK AO2 PK WND
     29026/1641 SLP913 T01330028=
KCRQ 231653Z 09007KT 10SM BKN044 18/10 A2987 RMK AO2 SLP111
     T01780100=
KTCS 231653Z AUTO 20017G29KT 10SM CLR 19/04 A2978 RMK AO2 PK WND
     19029/1648 SLP014 T01940039=
KBLU 231652Z AUTO VRB06KT 10SM CLR 04/M06 A2997 RMK AO2 SLP133
     T00441061 $=
KBDR 231652Z 02010KT 10SM FEW075 BKN100 BKN120 15/07 A3028 RMK AO2
     SLP253 T01500067=
KCUT 231653Z AUTO 28007KT 10SM SCT120 15/00 A2931 RMK AO2 SLP878
     T01500000=
KDBQ 231653Z 16020G27KT 10SM CLR 22/13 A2976 RMK AO2 PK WND
     16028/1559 SLP075 T02170128=
KGRR 231653Z 16016KT 10SM FEW055 SCT070 SCT200 BKN250 23/12 A3004
     RMK AO2 SLP168 T02280117 $=
KLWD 231653Z AUTO 17014G32KT 10SM -RA CLR 24/13 A2958 RMK AO2 PK
     WND 18032/1644 SLP009 P0000 T02440133=
KVTN 231652Z AUTO 18011KT 10SM CLR 18/M01 A2918 RMK AO2 SLP869
     T01781011=
