SAUS70 KWBC 231840 RRC
METAR
KMVH 231835Z AUTO 30019G26KT 2 1/2SM HZ CLR 00/M02 A2962 RMK AO2
     PWINO=
KEKS 231835Z AUTO 32006KT M01/M02 A2981 RMK AO2 PWINO TSNO=
KERV 231835Z AUTO 15019G25KT 10SM SCT039 27/16 A2986 RMK AO2
     T02650164=
KF17 231835Z AUTO 18013G19KT 10SM BKN060 28/12 A2996 RMK AO2=
KF44 231835Z AUTO 17019G25KT 10SM SCT044 BKN050 28/17 A2987 RMK
     AO2=
KF46 231835Z AUTO 20020G25KT 10SM BKN045 27/16 A2984 RMK AO2
     T02720160=
KFTN 231835Z AUTO 14010G16KT 10SM CLR 29/19 A2982 RMK A01=
KGYB 231835Z AUTO 19010G18KT 10SM SCT044 SCT049 BKN060 28/18 A2989
     RMK AO2 T02800178=
KGZN 231820Z AUTO 17018G29KT 10SM CLR 28/15 A2976 RMK AO2=
KHHF 231835Z AUTO 20018G23KT 10SM CLR 28/11 A2956 RMK AO2
     T02820112=
KHRX 231835Z AUTO 22015G23KT 10SM CLR 24/11 A2967 RMK AO2
     T02380107=
KMHV 231840Z AUTO 27014G21KT 10SM CLR 16/M04 A2988 RMK A01=
KO69 231835Z AUTO 33009G14KT 10SM CLR 18/01 A3001 RMK A01=
KOAR 231835Z AUTO 27004KT 10SM CLR M06/M20 A3000 RMK AO2=
KP08 231835Z AUTO 27014KT 10SM OVC055 21/09 A2980 RMK AO2=
KPKV 231835Z AUTO 16018G23KT 10SM SCT037 SCT044 SCT060 30/20 A2990
     RMK AO2 T03040198=
KPRS 231835Z AUTO 17007KT 140V220 10SM CLR 30/12 A2983 RMK AO2
     T02950115=
KPYX 231835Z AUTO 21027G37KT 7SM CLR 29/07 A2953 RMK AO2
     T02850070=
KBCK 231835Z AUTO 13009G15KT 100V160 10SM CLR 25/12 A2968 RMK AO2
     T02470123=
KBTA 231835Z AUTO 17022G31KT 10SM CLR 28/13 A2937 RMK AO2
     T02810126=
KBTN 231835Z AUTO 13019G25KT 10SM CLR 21/11 A2929 RMK AO2=
KC09 231835Z AUTO 17017G22KT 10SM CLR 26/14 A2985 RMK AO2
     T02610143=
KCCY 231835Z AUTO 14022G30KT 8SM CLR 24/13 A2957 RMK AO2=
KCSQ 231835Z AUTO 18022G30KT 9SM CLR 27/14 A2950 RMK AO2=
KDEH 231835Z AUTO 16014G26KT 10SM CLR 23/13 A2963 RMK AO2=
KEGV 231835Z AUTO 17012G22KT 10SM SCT040 21/10 A2980 RMK AO2
     T02090101=
KGRN 231835Z AUTO 32012G18KT 10SM CLR 11/01 A2925 RMK AO2
     T01140006=
KHLB 231835Z AUTO 17010G21KT 160V220 10SM CLR 23/09 A3008 RMK
     A01=
KI67 231835Z AUTO 21009KT 10SM CLR 25/08 A3010 RMK AO1=
KM30 231835Z AUTO 19012G19KT 10SM SCT049 27/12 A3000 RMK AO2
     T02660121=
KMOX 231835Z AUTO 13026G32KT 10SM CLR 23/09 A2939 RMK AO2=
KMUT 231835Z AUTO 16018G29KT 10SM CLR 25/14 A2970 RMK AO2=
KOEO 231835Z AUTO 11022G25KT 10SM CLR 24/15 A2960 RMK AO2
     T02380153=
KOXI 231835Z AUTO 18019G25KT 10SM CLR 25/11 A2995 RMK AO1=
KOXV 231835Z AUTO 16017G30KT 10SM CLR 25/13 A2956 RMK AO2=
KPCW 231835Z AUTO 18011G17KT 10SM CLR 25/08 A3011 RMK AO2=
KPRO 231835Z AUTO 16024G28KT 10SM CLR 27/13 A2948 RMK AO2
     T02720126=
KPTD 231835Z AUTO 02004KT 10SM CLR 22/04 A3026 RMK AO2=
KRRT 231835Z AUTO 04011G18KT 10SM CLR 12/09 A2959 RMK AO2=
KSAR 231835Z AUTO 19018G29KT 10SM BKN037 24/15 A2992 RMK AO2
     T02390149=
KSTE 231835Z AUTO 14012G20KT 10SM CLR 23/10 A2978 RMK AO2
     T02300100=
KAJG 231835Z AUTO 17019G29KT 10SM CLR 27/10 A2998 RMK AO2
     T02700102=
KAJR 231835Z AUTO 10003KT 7SM CLR 23/02 A3017 RMK AO2
     T02300021=
KAJZ 231835Z AUTO 00000KT 10SM BKN019 OVC040 08/03 A2964 RMK AO2
     T00760033=
KAQO 231835Z AUTO 19011G21KT 10SM CLR 29/14 A2981 RMK AO2=
KASL 231835Z AUTO 00000KT 10SM SCT055 29/15 A2991 RMK AO2
     T02860147 TSNO $=
KAUH 231835Z AUTO 19025G32KT 5SM HZ CLR 30/12 A2929 RMK AO2
     T02950116=
KBGE 231835Z AUTO 05006KT 10SM CLR 25/05 A3013 RMK AO2
     T02500048=
KBIE 231835Z AUTO 19022G33KT 10SM CLR 30/13 A2939 RMK AO2
     T02950130=
KBNW 231835Z AUTO 17021G27KT 10SM CLR 25/14 A2951 RMK AO2=
KBPG 231835Z AUTO 20022KT 10SM CLR 29/11 A2976 RMK AO2
     T02890114=
