SAPA31 KWBC 231700 RRE
METAR
PHJR 231741Z 09006KT 1 3/4SM RA SCT024 BKN030 OVC037 24/21 A3004
     RMK AO2 RAB35 P0001 T02390206=
