SAUS70 KWBC 231700 RRB
METAR
KBEH 231653Z AUTO 16013G20KT 130V190 10SM CLR 23/13 A2998 RMK AO2
     SLP150 T02280133=
KFOZ 231653Z AUTO 13006KT 10SM CLR 19/10 A2969 RMK AO2=
KFVE 231653Z AUTO 14004KT 10SM CLR 17/06 A3033 RMK AO2 SLP271
     T01670061=
KFWN 231653Z AUTO 03005KT 10SM BKN120 14/07 A3030 RMK AO2 SLP262
     T01440072 $=
KHAO 231653Z AUTO 21008KT 10SM CLR 24/09 A3015 RMK AO2 SLP208
     T02390094=
KHFD 231653Z 36004KT 10SM SCT050 OVC150 13/07 A3033 RMK AO2 SLP269
     T01280067=
KHUF 231653Z 19020G31KT 10SM CLR 25/11 A3000 RMK AO2 PK WND
     17034/1641 SLP156 T02500111=
KHUL 231653Z AUTO 19004KT 10SM CLR 18/09 A3035 RMK AO2 SLP280
     T01830094=
KMRB 231653Z 36004KT 10SM OVC031 17/07 A3027 RMK AO2 SLP250
     T01670067 $=
KOVS 231653Z AUTO 13007G16KT 100V190 10SM CLR 23/13 A2976 RMK AO2
     SLP074 T02280128 $=
KOWD 231653Z 05005KT 10SM CLR 15/12 A3035 RMK AO2 SLP275
     T01500117=
KPBG 231653Z AUTO 12003KT 10SM CLR 14/07 A3032 RMK AO2 SLP269
     T01440067=
KSEG 231653Z AUTO VRB03KT 10SM OVC032 14/07 A3031 RMK AO2 SLP264
     T01390072=
KSNY 231653Z AUTO 36010KT 10SM CLR 18/M02 A2926 RMK AO2 SLP875
     T01781017=
KXVG 231653Z AUTO 11007G15KT 084V144 10SM CLR 19/10 A2960 RMK
     AO2=
KACK 231653Z 06007KT 10SM -RA OVC046 16/14 A3029 RMK AO2 SLP258
     P0005 T01610144=
KAZO 231653Z 16010G18KT 10SM CLR 23/12 A3006 RMK AO2 SLP175
     T02280117 $=
KBMG 231653Z 17011KT 10SM CLR 24/12 A3007 RMK AO2 SLP176 T02390117
     $=
KENW 231653Z 17014G20KT 10SM CLR 23/13 A2990 RMK AO2 SLP121
     T02280128=
KEYE 231653Z AUTO 20011G20KT 10SM CLR 24/12 A3006 RMK AO2 SLP173
     T02390117 $=
KGSH 231653Z AUTO 16016G28KT 10SM CLR 23/12 A3004 RMK AO2 PK WND
     18028/1647 SLP168 T02330117=
KHGR 231653Z 08003KT 10SM OVC027 17/06 A3027 RMK AO2 SLP262
     T01720061 $=
KIML 231653Z AUTO 23029G44KT 10SM BKN020 26/M01 A2922 RMK AO2 PK
     WND 21045/1637 SLP869 T02561006 $=
KMLT 231653Z AUTO 07003KT 10SM CLR 18/10 A3037 RMK AO2 SLP289
     T01830100=
KMSS 231653Z AUTO 00000KT 10SM CLR 20/04 A3030 RMK AO2 SLP264
     T02000039=
KOSH 231653Z 17014G21KT 10SM CLR 21/13 A2985 RMK AO2 SLP100
     T02110128=
KRME 231653Z 13006KT 10SM CLR 16/06 A3032 RMK AO2 SLP268
     T01610056=
KTTN 231653Z 05010KT 10SM FEW035 BKN045 OVC060 16/11 A3024 RMK AO2
     SLP235 T01610106=
KUUU 231653Z AUTO 03007KT 10SM OVC110 15/11 A3031 RMK AO2 SLP262
     T01500111=
KWST 231653Z AUTO 03007KT 10SM OVC080 16/09 A3030 RMK AO2 SLP260
     T01560094=
KBPT 231653Z 17015G22KT 10SM FEW050 BKN065 29/19 A3000 RMK AO2
     SLP158 T02890189=
KBYI 231653Z AUTO 27015G29KT 10SM CLR 03/M02 A2981 RMK AO2 PK WND
     27031/1637 SLP101 T00281022=
KCEZ 231653Z AUTO 26012G18KT 8SM -RA FEW023 OVC034 04/01 A2973 RMK
     AO2 RAB03E14B21 SLP022 P0000 T00390011 $=
KCNO 231653Z 00000KT 10SM BKN040 17/12 A2988 RMK AO2 SLP116
     T01720117=
KCRS 231653Z AUTO 18021G31KT 10SM BKN040 27/16 A2991 RMK AO2 PK
     WND 17034/1558 SLP122 T02720156 $=
KCYS 231653Z 31015G27KT 10SM BKN100 BKN120 11/01 A2936 RMK AO2 PK
     WND 33028/1556 SLP882 T01060006=
KDGW 231653Z AUTO 31023G35KT 8SM -RA OVC017 04/01 A2947 RMK AO2 PK
     WND 30035/1650 RAB51 SLP953 P0000 T00390011=
KDRO 231653Z AUTO 26021G29KT 10SM FEW028 BKN048 BKN060 06/05 A2969
     RMK AO2 PK WND 25029/1648 RAE06 SLP008 P0001 T00610050 $=
KIDA 231653Z 00000KT 10SM OVC080 03/M03 A2976 RMK AO2 SLP085
     T00281033=
KINK 231653Z AUTO 16012KT 10SM CLR 27/11 A2976 RMK AO2 SLP036
     T02670106 $=
KMFE 231653Z 15021G29KT 10SM CLR 31/18 A2985 RMK AO2 PK WND
     17034/1612 SLP106 T03060183 $=
