SAPA31 KWBC 231700 RRC
METAR
PTRO 231650Z 28006KT 7SM -SHRA BKN014CB OVC110 24/23 A2972 RMK CB
     ALQDS AND OHD=
