SAUS70 KWBC 231800 RRT
METAR
KMLE 231755Z AUTO 16015G26KT 10SM CLR 27/13 A2940 RMK AO2
     T02720127 10277 20165=
KMQB 231755Z AUTO 17020G23KT 10SM CLR 22/12 A2980 RMK AO2
     T02240122 10228 20145=
KMRH 231758Z AUTO 32013KT 10SM -RA FEW011 BKN034 OVC095 16/15
     A3006 RMK AO2 RAB12 SLP179 P0002 60005 T01610150 10167 20156
     56007=
KNOW 231755Z AUTO 00000KT 10SM CLR 10/06 A3012 RMK AO2 T01020064
     10107 20075=
KNRN 231755Z AUTO 23024G31KT 10SM SCT044 30/07 A2931 RMK AO2=
KOBE 231755Z AUTO 04009G15KT 10SM FEW045 BKN060 27/19 A3006 RMK
     AO2=
KORG 231755Z AUTO 15011G18KT 10SM BKN060 BKN070 30/18 A3001 RMK
     AO2 T03010182 10308 20210=
KPPA 231755Z AUTO 22022G25KT 10SM CLR 26/12 A2964 RMK AO2
     T02600115 10269 20180=
KPTT 231755Z AUTO 20023G34KT 10SM CLR 31/09 A2947 RMK AO2
     T03110093 10311 20188=
KRBO 231755Z AUTO 10SM SCT001 BKN037 30/20 A2988 RMK AO2 T02980200
     10300 20225=
KREG 231755Z AUTO 16010G16KT 10SM BKN045 BKN050 29/15 A3007 RMK
     AO2 T02850152 10287 20175=
KRGA 231757Z AUTO 14006KT 10SM CLR 24/07 A3017 RMK AO2=
KRQO 231755Z AUTO 17025G32KT CLR 25/16 A2970 RMK AO2 PWINO 10255
     20187=
KSBO 231755Z AUTO 00000KT 10SM CLR 25/10 A3017 RMK AO2=
KSBS 231755Z AUTO 22005KT 5SM BKN007 BKN014 OVC023 01/01 A2954 RMK
     AO1 T00060006 10007 21006=
KSDA 231755Z AUTO 18024G31KT 10SM CLR 27/13 A2945 RMK AO2=
KSEF 231755Z AUTO 01009KT 10SM SCT050 SCT070 28/18 A3008 RMK AO2
     T02820175 10299 20174=
KSHL 231755Z AUTO 16024G32KT 10SM CLR 24/13 A2937 RMK AO2=
KSJS 231755Z AUTO 12003KT 10SM CLR 23/08 A3019 RMK AO2 T02310084
     10231 20073=
KSLB 231755Z AUTO 17027G34KT 9SM CLR 25/13 A2942 RMK AO2=
KSNL 231755Z AUTO 18020G32KT 10SM CLR 26/14 A2972 RMK AO2
     T02610139 10261 20190=
KSUT 231755Z AUTO 36008G14KT 10SM CLR 24/07 A3010 RMK AO2
     T02350069 10235 20136=
KT35 231755Z AUTO 18018G22KT 10SM SCT037 SCT048 BKN050 28/18 A2989
     RMK AO2 T02750177 10280 20180=
KTAZ 231755Z AUTO 16018G24KT 10SM CLR 23/14 A2988 RMK AO2
     T02250138 10236 20162=
KTBR 231755Z AUTO 34005KT 10SM CLR 24/10 A3015 RMK AO2 T02360101
     10236 20066=
KTIF 231755Z AUTO 18018G30KT 10SM CLR 25/02 A2919 RMK AO2
     T02500020 10250 20005=
KTIP 231755Z AUTO 17024G32KT 10SM CLR 25/13 A2993 RMK AO2
     T02490126 10249 20155=
KTQK 231755Z AUTO 22036G43KT 2 1/2SM HZ SCT028 BKN036 BKN045 28/05
     A2935 RMK AO2 VIS 2V3 T02840049 10288 20126=
KTVI 231755Z AUTO 04008KT 10SM CLR 24/09 A3016 RMK AO2=
KUNI 231755Z AUTO 21003KT 10SM CLR 26/06 A3017 RMK AO2 T02560063
     10259 20038=
KVDI 231755Z AUTO 00000KT 10SM CLR 25/11 A3016 RMK AO2=
KVPC 231755Z AUTO 00000KT 10SM CLR 22/02 A3020 RMK AO2=
KVUJ 231755Z AUTO 36004KT 10SM CLR 22/06 A3022 RMK AO2 T02170062
     10223 20052=
KW22 231755Z AUTO VRB04KT 2SM HZ CLR 24/02 A3021 RMK AO2 VIS 1
     1/2V3=
KWDR 231755Z AUTO 00000KT 10SM CLR 22/02 A3021 RMK AO2=
KXBP 231755Z AUTO 19018G24KT 10SM CLR 29/14 A2980 RMK AO2
     T02900143 10291 20197=
KZER 231755Z AUTO 09005KT 10SM OVC031 15/08 A3028 RMK AO2=
KUMP 231755Z AUTO 17013G19KT 10SM CLR 25/13 A3005 RMK AO2
     T02510130 10251 20152=
K06C 231755Z AUTO 18012G20KT 10SM CLR 23/16 A2987 RMK AO2
     T02340161 10234 20162=
KAJG 231755Z AUTO 18021G30KT 10SM CLR 27/10 A2999 RMK AO2
     T02670104 10269 20177=
KC65 231755Z AUTO 17018G23KT 10SM CLR 25/13 A2999 RMK A01=
KC75 231755Z AUTO 17013G24KT 10SM CLR 24/16 A2982 RMK AO2
     T02430158 10243 20171=
KCBF 231755Z AUTO 18021G31KT 9SM CLR 27/11 A2940 RMK AO2=
KCNC 231755Z AUTO 16019G27KT 10SM CLR 24/15 A2957 RMK AO2=
KDNS 231755Z AUTO RMK AO2 PNO PWINO=
