SAUS80 KWBC 232100 RRC
METAR
KCAO 232055Z AUTO 21027G47KT 10SM SCT100 23/M01 A2950 RMK AO2 PK
     WND 21049/2010 SLP926 T02331011 55016=
KFLG 232057Z 25018G26KT 10SM FEW040 BKN060 08/M03 A2982 RMK AO2 PK
     WND 24030/2035 SLP035 T00781028 58006=
KIZA 232055Z AUTO 02009G15KT 10SM CLR 23/M05 A2985 RMK AO2=
K4BM 232056Z AUTO 16015G24KT 10SM BKN010 BKN022 OVC039 M02/M05
     A2961 RMK AO2=
K9V9 232055Z AUTO 17005KT 10SM CLR 28/04 A2912 RMK AO2
     T02770040=
KAYS 232055Z AUTO 02003KT 10SM CLR 26/10 A3011 RMK AO2
     T02640099=
KCBE 232055Z AUTO 00000KT 10SM OVC035 19/05 A3026 RMK AO2
     T01850051=
KD07 232056Z AUTO 34016KT 12/04 A2928 RMK AO1 SLP924 T01170039
     53010=
KSOA 232055Z AUTO 17016G21KT 10SM 26/14 A2982 RMK AO2=
KGIC 232055Z AUTO 03005KT 10SM SCT018 OVC036 03/00 A3004 RMK
     AO1=
KPSN 232055Z AUTO 17011G20KT 10SM SCT065 29/13 A2983 RMK AO2=
KMWN 232050Z 14013KT 100SM BKN080 OVC100 09/M11 RMK=
