SANZ31 NZKL 231700
METAR NZAA 231700Z AUTO 14001KT 9999 FEW020/// 11/11 Q1029 NOSIG=
METAR NZWN 231700Z AUTO 02017KT 9999 NCD 14/09 Q1022 NOSIG=
METAR NZCH 231700Z AUTO 22009KT 9999 NCD 13/03 Q1019 NOSIG=
