SASA31 KWBC 232100
METAR
SEGU 232100Z 15006KT 9999 BKN026 OVC100 26/19 Q1009 NOSIG RMK
     A2979=
SEQM NIL=
SEQU NIL=
SKBO 232100Z 30007KT 9000 TS SCT013CB SCT017 16/13 Q1023 TEMPO
     TSRA RMK CB VCSH/E/N A3023=
SKBQ 232100Z 08005KT 030V110 9999 FEW015 SCT100 29/24 Q1008 NOSIG
     RMK A2977=
SKCG 232100Z 27008KT 200V310 9999 SCT017 SCT200 30/24 Q1007 RMK
     A2976=
SKCL NIL=
SKLT 232100Z 22004KT 9999 FEW015 SCT200 28/24 Q1008 RMK A2977=
SKRG 232100Z 01009KT 9999 -TSRA BKN012 SCT015CB 17/16 Q1023 BECMG
     FM2120 DZ RMK A3019=
SKSP 232100Z 07009KT 040V120 9999 FEW018 BKN200 31/25 Q1009 RMK
     A2981=
SMNI NIL=
SMZO NIL=
SMZY NIL=
SOCA 232100Z AUTO 08007KT CAVOK 29/24 Q1010 NOSIG=
SPJC 232100Z 17019KT 9999 SCT014 17/12 Q1013 NOSIG RMK DU W
     PP000=
SPQT 232100Z 13007KT 110V170 9999 BKN012 BKN100 27/23 Q1009 NOSIG
     PP000=
SPQU 232100Z 26010KT 220V300 CAVOK 18/M03 Q1026 NOSIG RMK
     PP000=
SPSO 232100Z 22017KT CAVOK 20/13 Q1012 RMK BIRD HAZARD RWY 22/04
     PP000=
SPTN 232100Z 23012KT 200V260 CAVOK 19/11 Q1015 RMK PP000=
SPYL 232100Z 17017KT CAVOK 21/15 Q1010 RMK BIRD HAZARD RWY 17/35
     PP000=
SPZO 232100Z 02013KT 340V050 9999 SCT100 20/04 Q1025 NOSIG RMK
     BIRD HAZARD RWY 10/28 PP000=
SVBC NIL=
SVMC NIL=
SVMG 232100Z 12010KT 9999 SCT040 ///// Q1009=
SVMI 232100Z 07004KT 9999 SCT016 SCT080 31/24 Q1009=
SYCJ NIL=
SYTM NIL=
