SACA45 KWBC 232100 RRC
METAR
MNMG 232100Z 19004KT 6000 TSRA FEW020CB SCT070 25/25 Q1008 A2979
     CB/N/NE/E/W/NW 2CU022 TEMPO 7000 TSRA/DZ=
