SAUS70 KWBC 232000 RRI
METAR
KLGD 231956Z AUTO 31010KT 10SM FEW028 BKN038 BKN047 07/00 A3007
     RMK AO2 SLP195 T00670000=
KLNC 231955Z AUTO 17021G25KT 10SM SCT055 29/14 A2980 RMK AO2
     T02940144=
KLXY 231955Z AUTO 18021G30KT 10SM BKN050 30/15 A2982 RMK AO2
     T02990148=
KOTH 231956Z 34003KT 10SM SCT055 13/09 A3023 RMK AO2 SLP235
     T01330089=
KP08 231955Z AUTO 29011G18KT 10SM BKN055 BKN060 22/08 A2978 RMK
     AO2=
KPOC 231947Z 22005KT 10SM SCT022 A2987=
KPWT 231956Z AUTO 24004KT 10SM OVC004 08/07 A3017 RMK AO2 SLP223
     T00830072=
KEAT 231955Z AUTO 27007KT 10SM CLR 12/M03 A3005 RMK AO2 SLP179
     T01171028=
KEKS 231950Z AUTO 35016KT M01/M02 A2982 RMK AO2 PWINO TSNO=
KF17 231955Z AUTO 16011G21KT 10SM BKN055 28/13 A2993 RMK AO2=
KF44 231955Z AUTO 18017G22KT 10SM BKN050 28/16 A2983 RMK AO2=
KFTN 231955Z AUTO 12007G17KT 090V150 10SM CLR 30/18 A2978 RMK
     A01=
KHHV 231955Z AUTO 15018KT 10SM CLR 27/19 A2988 RMK A01=
KLAS 231956Z 36022G31KT 10SM FEW130 18/M11 A2986 RMK AO2 PK WND
     01031/1955 SLP098 T01781106=
KMHV 232000Z AUTO 29013KT 260V320 10SM CLR 17/M05 A2988 RMK
     A01=
KMNZ 231955Z AUTO 19017G26KT 10SM CLR 30/14 A2980 RMK AO2
     T02970140=
KSBP 231956Z 01012G19KT 10SM CLR 22/01 A2991 RMK AO2 SLP128
     T02170011=
KT89 231955Z AUTO VRB04KT 10SM CLR 31/06 A2974 RMK A01=
KU68 231955Z AUTO 31025G30KT 10SM BKN070 OVC090 03/00 A2963 RMK
     AO2=
KVAF 231955Z AUTO 15017KT 10SM CLR 27/17 A2993 RMK A01=
KDTA 231955Z AUTO 33011G17KT 10SM SCT041 OVC070 04/M03 A2986 RMK
     AO1=
KDZB 231955Z AUTO 18018G27KT 10SM CLR 30/13 A2980 RMK AO2
     T03020133=
KECS 231955Z AUTO 33020G31KT 10SM -DZ OVC013 03/00 A2942 RMK
     AO2=
KEIK 231955Z AUTO 23006KT 10SM SCT060 BKN090 OVC120 16/M03 A2933
     RMK AO2 T01591034 PWINO=
KERV 231955Z AUTO 16018G23KT 10SM SCT041 27/17 A2982 RMK AO2
     T02670165=
KF05 231955Z AUTO 20020G30KT 10SM CLR 33/12 A2961 RMK AO2
     T03330115=
KF46 231955Z AUTO 21019G30KT 10SM SCT055 29/15 A2979 RMK AO2
     T02920152=
KFLY 231955Z AUTO 21022G32KT CLR 17/M02 A2946 RMK AO2 T01651017
     PWINO=
KFOT 231950Z AUTO 34011KT 9SM CLR 15/06 A3014 RMK AO1=
KGDJ 231955Z AUTO 18017G32KT 10SM CLR 29/15 A2976 RMK AO2
     T02890153=
KGOO 231955Z AUTO VRB06G14KT 10SM CLR 14/M08 A2996 RMK A01=
KMVH 231955Z AUTO 31025G35KT 2SM HZ CLR M00/M03 A2963 RMK AO2
     PWINO=
KSWW 231955Z AUTO 18022G28KT 10SM CLR 30/11 A2974 RMK AO2
     T03010111=
KSZT 231955Z AUTO 03006KT 10SM CLR 10/00 A3001 RMK AO2=
KVCV 231955Z AUTO 30010G16KT 10SM CLR 16/M04 A2992 RMK AO2=
KWBF 231955Z AUTO VRB06G12KT 10SM 27/18 A3002 RMK A01=
KWJF 231956Z 29017KT 10SM CLR 18/M03 A2989 RMK AO2 SLP115
     T01831028=
KNFE 231956Z AUTO 34008G16KT 3SM BR OVC008 17/15 A3008 RMK AO2
     SLP187 T01670150=
KWJF 231956Z 29017KT 10SM CLR 18/M03 A2989 RMK AO2 SLP115
     T01831028=
PAGA 231956Z AUTO 9SM -SN FEW028 OVC037 M01/M02 A3002 RMK AO2
     UPB15E18SNB18 SLP167 P0000 T10061017 FZRANO $=
KBAF 231953Z 35005KT 10SM FEW075 SCT090 OVC110 13/07 A3031 RMK AO2
     SLP267 T01280067=
KCKV 231952Z AUTO 15010G22KT 10SM CLR 27/07 A3003 RMK AO2 SLP163
     T02670067=
KFFZ 231954Z 25008KT 10SM FEW045 23/07 A2974 RMK AO2 SLP052
     T02280072=
KHPN 231956Z 06006KT 10SM SCT065 BKN120 16/07 A3026 RMK AO2 RAE51
     SLP247 P0000 T01560067 $=
KHWV 231956Z AUTO 01007KT 320V050 9SM -RA OVC034 13/11 A3026 RMK
     AO2 SLP246 P0017 T01280111=
KISP 231956Z 05011KT 10SM OVC032 14/11 A3025 RMK AO2 RAB22E35
     SLP242 P0000 T01390111=
KMER 231953Z 31018G23KT 7SM CLR 21/M01 A2994=
KROG 231958Z 10SM CLR 27/14 A2977 RMK AO2 SLP066 T02720139 $=
