SAUS70 KWBC 231916
METAR
KDVP 231913Z AUTO 14029G34KT 10SM CLR 23/12 A2937 RMK AO2
     T02340122=
KORB 231913Z AUTO 14006KT SCT060 22/11 A2961 RMK AO2=
KTFP 231835Z AUTO 16017G22KT 10SM SCT027 SCT032 SCT043 30/22 A2985
     RMK AO2 T02960216=
K2C8 231915Z AUTO 05011G17KT 10SM CLR 16/08 A2948 RMK AO2=
KD50 231915Z AUTO 05020KT 10SM OVC013 05/03 A2952 RMK AO2=
KEFT 231915Z AUTO 16016G26KT 10SM CLR 23/13 A2976 RMK AO2
     T02320125=
KETB 231915Z AUTO 14011G17KT 10SM CLR 20/12 A2984 RMK AO2=
KFRH 231915Z AUTO 18008G18KT 10SM CLR 25/07 A3003 RMK AO1=
KOIC 231915Z AUTO 18004KT 10SM CLR 18/09 A3030 RMK AO2
     T01810092=
KPBH 231915Z AUTO 15011G18KT 10SM SCT041 22/13 A2972 RMK AO2
     T02220127=
KPDC 231915Z AUTO 13013G21KT 10SM CLR 24/12 A2966 RMK AO2
     T02420117=
KRRL 231915Z AUTO 15014G21KT 10SM SCT040 22/13 A2976 RMK AO2
     T02230127 TSNO=
KSUW 231915Z AUTO 05011G15KT 10SM CLR 14/09 A2966 RMK AO2
     T01400093=
KUNU 231915Z AUTO 13016G20KT 10SM CLR 23/13 A2981 RMK AO2
     T02260129=
KVNW 231915Z AUTO 19009G19KT 10SM SCT060 25/08 A3007 RMK AO2=
KY51 231915Z AUTO 14014G26KT 10SM CLR 23/15 A2968 RMK AO1
     T02270145=
K08D 231915Z AUTO 05015G25KT 10SM OVC012 07/06 A2943 RMK AO2=
K0E0 231915Z AUTO 24021G34KT 10SM SCT075 SCT090 18/M03 A2972 RMK
     AO2 T01811035 TSNO=
K2J9 231915Z AUTO VRB04KT 10SM CLR 26/06 A3013 RMK AO2=
KAQP 231913Z AUTO 17022G28KT 10SM CLR 24/11 A2934 RMK AO2=
KBEA 231915Z AUTO 16016G22KT 10SM SCT037 SCT047 BKN050 30/18 A2982
     RMK AO2 T02960183=
KCQW 231915Z AUTO 03005G11KT 10SM CLR 24/05 A3014 RMK AO2
     PWINO=
KEHO 231915Z AUTO 00000KT 10SM CLR 22/03 A3017 RMK AO2
     T02220033=
KETH 231913Z AUTO 12025G33KT 10SM 23/12 A2933 RMK AO2=
KFOZ 231913Z AUTO 12012KT 10SM SCT080 23/11 A2963 RMK AO2=
KJHN 231915Z AUTO 22040G48KT 3SM HZ OVC001 28/00 A2940 RMK AO2
     T02840004=
KLDJ 231915Z AUTO 05007KT 10SM BKN060 OVC120 17/07 A3025 RMK AO2
     T01670074=
KLUM 231915Z AUTO 11017G26KT 10SM SCT045 25/17 A2961 RMK AO2
     T02500174 PWINO=
KMAW 231915Z AUTO 20018G26KT 10SM SCT046 BKN050 28/13 A2995 RMK
     AO1=
KMHL 231915Z AUTO 17019G27KT 10SM CLR 29/15 A2964 RMK AO2=
KMRJ 231915Z AUTO 16020KT 10SM CLR 22/10 A2974 RMK AO2=
KOWA 231913Z AUTO 15019G26KT 10SM CLR 24/13 A2953 RMK AO2=
KRAW 231915Z AUTO 21015G24KT 10SM SCT110 28/12 A2968 RMK AO2=
KRCZ 231915Z AUTO 33005KT 10SM CLR 23/06 A3015 RMK AO2
     T02260057=
KRID 231935Z AUTO 16015G20KT 5SM HZ SCT055 23/12 A3010 RMK AO2=
KRNV 231915Z AUTO 18015G24KT 10SM BKN050 A3000 RMK AO2 TSNO=
KRPD 231915Z AUTO 11016G19KT 10SM CLR 23/16 A2964 RMK AO2
     T02300161=
KSDC 231915Z AUTO 17005KT 10SM CLR 22/01 A3024 RMK AO2=
KSNK 231915Z AUTO 19017G24KT 10SM CLR 29/11 A2972 RMK AO2
     T02870113=
KXVG 231913Z AUTO 12010G20KT 084V144 10SM CLR 22/11 A2953 RMK
     AO2=
K10G 231915Z AUTO 19008KT 10SM CLR 23/06 A3017 RMK AO2=
K1P1 231915Z AUTO 11004KT 10SM CLR 17/04 A3034 RMK AO2
     T01740044=
K20U 231915Z AUTO 01006G13KT 10SM OVC008 06/06 A2943 RMK AO2=
K24A 231915Z AUTO 00000KT 10SM CLR 22/M02 A3019 RMK AO2
     T02221015=
K27K 231915Z AUTO 22005KT 10SM CLR 23/05 A3012 RMK AO1=
K2P2 231915Z AUTO 18012G20KT 10SM BKN110 17/12 A2991 RMK AO2
     T01720116=
K35A 231915Z AUTO 31005KT 10SM CLR 22/06 A3020 RMK A02
     T02240065=
K3D2 231915Z AUTO 17018G25KT 10SM SCT080 17/11 A2989 RMK AO2
     T01660106=
K4S2 231915Z AUTO 30007KT 10SM CLR 12/02 A3013 RMK AO2=
K54J 231915Z AUTO 00000KT 10SM CLR 25/04 A3013 RMK AO2
     T02520035=
K6L4 231915Z AUTO 00000G10KT 10SM CLR 23/05 A3017 RMK AO2=
