SAUS70 KWBC 231718
METAR
K14Y 231715Z AUTO 13011G18KT 10SM CLR 20/11 A2954 RMK AO2=
K21D 231715Z AUTO 15011G14KT 10SM CLR 21/12 A2962 RMK AO2=
KACQ 231715Z AUTO 14021G26KT 10SM CLR 21/12 A2958 RMK AO2=
KAIT 231715Z AUTO 12010G14KT 10SM SCT065 21/11 A2960 RMK AO2=
KAMN 231715Z AUTO 15011G17KT 10SM CLR 23/09 A3006 RMK AO2
     T02320094=
KAXV 231715Z AUTO 17012G17KT 10SM CLR 22/10 A3013 RMK AO2=
KBDH 231715Z AUTO 14022G29KT 10SM CLR 22/12 A2950 RMK AO2=
KCBG 231715Z AUTO 13009G14KT 10SM CLR 23/11 A2959 RMK AO2=
KCFE 231715Z AUTO 13016KT 10SM CLR 22/12 A2955 RMK AO2=
KCOQ 231715Z AUTO 08007KT 10SM BKN070 15/09 A2967 RMK AO2 TSNO=
KDLZ 231715Z AUTO 16006KT 10SM CLR 21/10 A3018 RMK AO2=
KDXX 231715Z AUTO 13021G28KT 10SM CLR 22/12 A2940 RMK AO2=
KEDJ 231715Z AUTO 19011KT 10SM CLR 22/11 A3016 RMK A01=
KFBL 231715Z AUTO 13020G26KT 10SM CLR 22/13 A2958 RMK AO2=
KFFM 231715Z AUTO 12015G18KT 10SM CLR 21/11 A2944 RMK AO2=
KFSE 231715Z AUTO 13006KT 10SM CLR 21/09 A2951 RMK AO2=
KFSO 231715Z AUTO 22003KT 10SM CLR 20/07 A3032 RMK AO2
     T01990066=
KGHW 231715Z AUTO 11015G22KT 10SM CLR 21/12 A2948 RMK AO2=
KGYL 231715Z AUTO 14017G22KT 7SM CLR 22/12 A2953 RMK AO2
     T02190121=
KI69 231715Z AUTO 18010G15KT 150V210 10SM CLR 24/10 A3017 RMK AO2
     T02350095=
KJKJ 231715Z AUTO 12012KT 10SM CLR 21/11 A2944 RMK AO2 TSNO=
KJMR 231715Z AUTO 12010G17KT 10SM CLR 21/11 A2965 RMK AO2=
KLDM 231715Z AUTO 19015KT 10SM CLR 23/11 A2995 RMK AO2
     T02300110=
KLJF 231715Z AUTO 13016G25KT 10SM CLR 22/11 A2951 RMK AO2=
KMGG 231715Z AUTO 10009G15KT 10SM CLR 22/11 A2956 RMK AO2
     T02150110 PWINO=
KMGN 231715Z AUTO 16010G17KT 10SM CLR 22/11 A3002 RMK AO2
     T02300113=
KMQJ 231715Z AUTO RMK AO1=
KOVL 231715Z AUTO 14019G26KT 10SM CLR 21/12 A2947 RMK AO2=
KOZW 231715Z AUTO 14012G15KT 10SM CLR 21/12 A3011 RMK AO2
     T02050118=
KRGK 231715Z AUTO 13011KT 10SM CLR 22/12 A2962 RMK AO2=
KROX 231715Z AUTO 07017KT 10SM CLR 13/08 A2959 RMK AO2=
KRZT 231715Z AUTO 14006KT 10SM CLR 23/08 A3018 RMK AO2 PWINO=
KSAZ 231715Z AUTO 13009G14KT 10SM CLR 21/11 A2953 RMK AO2=
KSGS 231715Z AUTO 15011G18KT 10SM CLR 22/12 A2960 RMK AO2
     T02150115=
KTEW 231715Z AUTO 14014G19KT 10SM CLR 24/11 A3009 RMK AO2
     T02350106=
KTWM 231715Z AUTO 08007KT 10SM SCT090 17/10 A2970 RMK AO2=
KUKT 231715Z AUTO 03004KT 10SM FEW110 16/09 A3027 RMK A01=
KY63 231715Z AUTO 13016G21KT 10SM CLR 20/12 A2945 RMK AO2
     T02010115=
KBKS 231715Z AUTO 17015G21KT 10SM SCT036 SCT044 30/21 A2985 RMK
     AO2 SLP070 T02970211 $=
KBKT 231715Z AUTO 02006KT 10SM OVC021 17/10 A3020 RMK AO1
     T01670098=
KBRY 231715Z AUTO 19007G15KT 10SM CLR 24/08 A3012 RMK AO2
     T02450077=
KBVU 231715Z AUTO 32013KT 10SM CLR 16/M11 A2985 RMK AO2=
KBWW 231715Z AUTO 04010KT 10SM OVC012 07/05 A2936 RMK AO2=
KBXK 231715Z AUTO 26011KT 10SM FEW065 SCT075 22/09 A2979 RMK
     A01=
KC29 231715Z AUTO 17013KT 10SM CLR 22/12 A2982 RMK AO1
     T02210121=
KCDN 231715Z AUTO 29004G11KT 10SM CLR 23/07 A3018 RMK AO2=
KCEY 231715Z AUTO 18016G23KT 140V210 10SM CLR 24/11 A3008 RMK
     A01=
KCFJ 231715Z AUTO 17015G23KT 10SM CLR 23/07 A3002 RMK AO2
     T02310073=
KCGC 231715Z AUTO 00000KT 10SM CLR 27/14 A3013 RMK AO2=
KCJR 231715Z AUTO 35009KT 10SM OVC026 18/07 A3024 RMK AO2
     T01820073=
KCKM 231715Z AUTO 18011G21KT 10SM CLR 27/15 A3006 RMK A01=
KCLS 231715Z AUTO 24003KT 4SM BR OVC005 04/04 A3014 RMK AO2=
KCLW 231715Z AUTO 07006KT 10SM CLR 26/14 A3010 RMK AO2 PWINO=
KCMR 231715Z AUTO 26009G15KT 10SM OVC035 03/M01 A2986 RMK AO2=
KCPT 231715Z AUTO 17017G29KT 10SM SCT037 27/16 A2986 RMK A01=
