SAUS70 KWBC 231918 RRE
METAR
KFKS 231915Z AUTO 16013G18KT 130V190 10SM CLR 24/12 A2993 RMK AO2
     T02350119=
KFPK 231915Z AUTO 18015G20KT 10SM SCT055 23/10 A3002 RMK AO2
     T02310100=
KFSO 231915Z AUTO 00000KT 10SM CLR 20/05 A3030 RMK AO2
     T02000051=
KHAI 231915Z AUTO 17012G19KT 10SM SCT050 24/11 A3000 RMK AO2
     T02390112=
KHZL 231915Z AUTO 00000KT 10SM SCT034 BKN044 OVC090 17/09 A3029
     RMK AO2=
KI23 231915Z AUTO 14012G15KT 10SM CLR 24/07 A3012 RMK AO1=
KI69 231915Z AUTO 14008KT 110V180 10SM SCT060 25/09 A3012 RMK AO2
     T02450086=
KIRS 231915Z AUTO 19016G23KT 10SM CLR 24/09 A3001 RMK AO2
     T02400093=
KISQ 231915Z AUTO 14009KT 10SM CLR 18/11 A2995 RMK AO2
     T01800114=
KS24 231915Z AUTO 16009KT 10SM CLR 25/09 A3010 RMK AO2=
KHSD 231915Z AUTO 18024G30KT 10SM CLR 26/15 A2963 RMK A01=
KHYX 231915Z AUTO 17015G20KT 10SM CLR 25/09 A3006 RMK AO2
     T02450090=
KHZD 231915Z AUTO 18016G22KT 10SM CLR 26/06 A3002 RMK A01=
KI35 231915Z AUTO 10003KT 10SM CLR 23/04 A3017 RMK AO2
     T02310042=
KIER 231915Z AUTO 18008G16KT 10SM BKN050 OVC060 28/16 A2997 RMK
     AO2 T02830157=
KIFA 231915Z AUTO 14017G24KT 10SM CLR 24/15 A2954 RMK AO2
     T02410145=
KIGQ 231915Z AUTO 19020G27KT 10SM SCT050 26/14 A2989 RMK AO2
     T02580135=
KIMS 231915Z AUTO 17009G16KT 10SM CLR 25/09 A3009 RMK AO2=
KINJ 231915Z AUTO 18024G34KT 10SM BKN046 29/16 A2981 RMK AO2
     T02870162=
KJAU 231915Z AUTO VRB06KT 10SM CLR 23/01 A3020 RMK A01=
KJPX 231915Z AUTO 03006KT 10SM -RA SCT037 SCT055 OVC065 13/13
     A3024 RMK AO2 P0004 T01320132=
KJTC 231915Z AUTO 25016G29KT 9SM FEW027 SCT038 BKN043 14/04 A2981
     RMK AO2=
KJWG 231915Z AUTO 18020G25KT 10SM CLR 26/15 A2963 RMK AO2
     T02550150=
KJWY 231915Z AUTO 18020G27KT 10SM BKN048 28/16 A2982 RMK AO2
     T02800157=
KJYL 231915Z AUTO 00000KT 10SM CLR 25/11 A3014 RMK AO2
     T02540105=
KK70 231915Z AUTO 03013G18KT 10SM CLR 29/21 A3000 RMK AO2=
KLCG 231915Z AUTO 18024G31KT 10SM CLR 29/12 A2929 RMK AO2
     T02940115=
KLNA 231915Z AUTO 02013G17KT 10SM CLR 29/18 A3004 RMK AO2
     T02870184 PNO=
KLNC 231915Z AUTO 17019G30KT 10SM SCT049 29/15 A2982 RMK AO2
     T02870146=
KLNQ 231915Z AUTO 10008KT 070V130 10SM 28/13 A3008 RMK AO2
     T02840127=
KLUG 231915Z AUTO 20011KT 10SM CLR 24/07 A3010 RMK A01=
KLXY 231915Z AUTO 18018G30KT 10SM SCT060 30/15 A2984 RMK AO2
     T03000151=
KLYO 231915Z AUTO 18030G35KT 1SM HZ SCT014 OVC022 30/12 A2941 RMK
     AO2 VIS 1/2V2 1/2 T03010117=
KM02 231915Z AUTO 19010G16KT 10SM 24/06 A3006 RMK A01=
KM04 231915Z AUTO 19013KT 10SM SCT050 26/13 A2999 RMK A01=
KM08 231915Z AUTO 16011G18KT 140V200 10SM CLR 25/12 A3003 RMK
     A01=
KM30 231915Z AUTO 20016G22KT 10SM SCT055 26/12 A2999 RMK AO2
     T02630117=
KM54 231910Z AUTO 19007G15KT 10SM CLR 25/07 A3007 RMK A01=
KM75 231915Z AUTO 01014KT 1 1/4SM BR VV007 01/01 A2964 RMK A01=
KM91 231910Z AUTO 16008G16KT 10SM CLR 24/09 A3006 RMK A01=
KMBT 231915Z AUTO 23009G15KT 10SM CLR 24/06 A3009 RMK A01=
KMEV 231915Z AUTO VRB03KT 10SM CLR 06/M04 A3004 RMK AO2=
K05U 231915Z AUTO 00000G21KT 1/2SM HZ 00/M03 A2999 RMK A01=
K0A0 231915Z AUTO 22019G26KT 10SM FEW060 22/05 A2977 RMK AO2=
K0A9 231915Z AUTO 23008KT 5SM HZ CLR 22/03 A3015 RMK A01=
K0F2 231915Z AUTO 15015G29KT 10SM CLR 29/15 A2971 RMK AO2
     T02850152=
K0R0 231915Z AUTO VRB06KT 10SM CLR 29/11 A3009 RMK AO2=
K18A 231915Z AUTO 09003KT 10SM CLR 23/00 A3017 RMK AO2
     T02350004=
K1A9 231915Z AUTO 00000KT 10SM CLR 25/06 A3013 RMK AO2
     T02460059=
K1H2 231915Z AUTO 14014G27KT 10SM OVC044 24/14 A2994 RMK AO2
     T02430141=
