SAUS70 KWBC 231638 RRG
METAR
K1K1 231635Z AUTO 19025G32KT 10SM CLR 26/11 A2960 RMK AO2
     T02550113=
K1M5 231635Z AUTO 20015KT 10SM CLR 23/07 A3016 RMK A01=
K1V6 231635Z AUTO 27011G19KT 10SM SCT080 SCT100 20/00 A2942 RMK
     AO2=
K2A0 231635Z AUTO 00000KT 10SM CLR 20/06 A3022 RMK A01=
K2G2 231630Z AUTO 00000KT 10SM CLR 19/05 A3023 RMK A01=
K2M2 231635Z AUTO VRB05G13KT 10SM CLR 21/10 A3017 RMK A01=
K33N 231635Z AUTO 04009G15KT 10SM SCT070 17/13 A3021 RMK A01=
K36K 231630Z AUTO 22031G42KT 10SM CLR 27/07 A2944 RMK AO2=
K3J7 231635Z AUTO 00000KT 10SM CLR 21/07 A3022 RMK AO2=
K3LF 231635Z AUTO 16021G26KT 10SM CLR 21/13 A2991 RMK AO2
     T02140131=
K3S8 231635Z AUTO 00000KT 3SM BR OVC004 06/05 A3021 RMK AO2=
K46U 231635Z AUTO 32013KT 10SM BKN041 OVC047 01/M04 A2971 RMK
     A01=
K4A9 231635Z AUTO 19006KT 10SM CLR 22/04 A3021 RMK AO2
     T02150035=
K4V0 231635Z AUTO 06005KT 1 3/4SM -SN OVC009 01/00 A2960 RMK AO2
     T00050000=
K54A 231635Z AUTO 07010KT 10SM CLR 28/19 A3009 RMK AO2=
K5T9 231635Z AUTO 13011KT 10SM OVC017 24/20 A2984 RMK A01=
K65S 231635Z AUTO 00000KT 1/2SM FG BKN003 BKN075 OVC095 03/03
     A2998 RMK AO2=
K6A2 231635Z AUTO 11003KT 10SM CLR 20/05 A3023 RMK AO2=
K7W4 231635Z AUTO 35004KT 10SM BKN020 OVC027 16/10 A3023 RMK AO1
     T01550095=
K82V 231635Z AUTO 32022G26KT 10SM SCT120 13/M01 A2933 RMK AO2=
K8A3 231635Z AUTO 22007G14KT 190V270 10SM CLR 21/04 A3019 RMK
     A01=
K9A5 231635Z AUTO 00000KT 10SM CLR 20/04 A3024 RMK AO2
     T01950042=
KAAA 231635Z AUTO 17016G25KT 10SM CLR 22/14 A2989 RMK AO2
     T02230143=
KAAS 231635Z AUTO 20009KT 10SM CLR 22/06 A3023 RMK AO1=
KACP 231635Z AUTO 15008G14KT 10SM SCT041 28/16 A3005 RMK AO2=
KBTN 231635Z AUTO 09014KT 10SM CLR 20/12 A2933 RMK AO2=
KOAR 231635Z AUTO 00000KT 7SM CLR M07/M15 A2999 RMK AO2 PWINO=
KPTD 231635Z AUTO 00000KT 10SM CLR 21/03 A3030 RMK AO2=
KPUJ 231635Z AUTO 00000KT 5SM HZ CLR 17/04 A3024 RMK AO2=
KPVB 231635Z AUTO 15016G22KT 10SM CLR 21/12 A2980 RMK AO1
     T02080119=
KPVJ 231635Z AUTO 19015G23KT 10SM SCT026 25/17 A2977 RMK AO2
     T02500166=
KPYX 231635Z AUTO 22023G29KT 10SM CLR 26/08 A2958 RMK AO2
     T02630083=
KRKR 231635Z AUTO 18019G28KT 10SM SCT035 26/15 A2987 RMK AO2=
KRNC 231635Z AUTO 21007G14KT 10SM CLR 22/04 A3019 RMK A01=
KRSN 231635Z AUTO 19011G17KT 10SM CLR 26/15 A3007 RMK AO2
     T02570149=
KRTS 231635Z AUTO 31007KT 10SM BKN035 02/M06 A3003 RMK AO2=
KRUQ 231635Z AUTO 35006KT 10SM CLR 18/07 A3022 RMK AO2
     T01830067=
KRZL 231635Z AUTO 17015G24KT 10SM OVC060 22/12 A3000 RMK AO2=
KRZR 231635Z AUTO 18006KT 10SM CLR 20/03 A3021 RMK A01=
KSAR 231635Z AUTO 19018G23KT 10SM BKN027 22/15 A2995 RMK AO2
     T02170145=
KSCD 231635Z AUTO 17004KT 10SM BKN110 22/05 A3022 RMK AO2
     T02200054=
KSCX 231635Z AUTO 19007G13KT 10SM CLR 21/03 A3022 RMK A01=
KSEM 231635Z AUTO 14005KT 10SM CLR 23/05 A3019 RMK AO2=
KSEZ 231635Z AUTO 19008KT 10SM 11/07 A2982 RMK AO2=
KSFQ 231635Z AUTO 34006KT 2SM BR OVC005 15/15 A3016 RMK AO2
     T01480148=
KSIF 231635Z AUTO 36004KT 10SM CLR 19/06 A3023 RMK AO2
     T01920056=
KSLO 231635Z AUTO 18017G24KT 10SM SCT032 23/14 A2997 RMK AO2
     T02310138=
KSNH 231630Z AUTO 18010G19KT 10SM CLR 22/12 A3014 RMK A01=
KSRB 231635Z AUTO 19005G12KT 10SM CLR 22/05 A3020 RMK A01=
KSRE 231635Z AUTO 10SM SCT022 23/16 A2978 RMK AO2=
KSVC 231635Z AUTO 26013G24KT 10SM SCT050 17/08 A2990 RMK AO2 P0001
     T01740075=
KSVH 231635Z AUTO 04003KT 10SM CLR 20/07 A3023 RMK AO2
     T01960068=
KSWW 231635Z AUTO 18021G26KT 10SM CLR 26/14 A2981 RMK AO2
     T02560143=
KSXU 231635Z AUTO 22028G36KT 10SM CLR 22/04 A2966 RMK AO2
     T02200037=
