SACA45 KWBC 232000 RRA
METAR
MNMG 232000Z 10012KT 7000 -DZ FEW021CB 32/24 Q1008 A2977
     CB/NE/E/NW NOSIG=
