SAHA31 KWBC 232000
METAR
KQHA NIL=
MTCA NIL=
MTCH NIL=
MTEG NIL=
MTJA NIL=
MTJE NIL=
MTPP 232000Z 29007KT 270V330 9999 SCT027 31/22 Q1010 A2982=
MTPX NIL=
MTTP NIL=
