SAUS80 KWBC 231900 RRE
METAR
KVCT 231851Z COR 16019G32KT 10SM SCT045 30/19 A2987 RMK AO2 PK WND
     16032/1843 SLP111 T03000189=
KLZZ 231855Z AUTO 17015G22KT 10SM CLR 28/15 RMK AO2 T02810151=
