SAUS70 KWBC 232000
METAR
KADS 231947Z 18017G29KT 13SM FEW045 29/14 A2977=
KFWS 231946Z 16020G29KT 10SM FEW045 30/14 A2979=
KSAW 231947Z 16020G24KT 10SM CLR 18/11 A2988=
K1A5 231955Z AUTO 00000KT 10SM CLR 24/M05 A3018 RMK AO2
     T02421046=
KCGF 231945Z 16006KT 10SM SCT150 23/08 A3014=
KEFT 231955Z AUTO 17021G28KT 10SM CLR 24/13 A2974 RMK AO2
     T02400127=
KGYH 231947Z 12005KT 10SM CLR 23/04 A3016=
KHNZ 231955Z AUTO 36003KT 10SM OVC027 18/09 A3016 RMK AO2
     T01750088=
KJXI 231955Z AUTO 15014G21KT 10SM SCT055 28/14 A2987 RMK AO2
     T02810137=
KMMU 231945Z 06008KT 10SM BKB060 OVC110 18/11 A3026=
KPDC 231955Z AUTO 12012G22KT 10SM CLR 25/12 A2964 RMK AO2
     T02490117=
KSCH 231947Z 00000KT 15SM SCT180 BKN250 16/07 A3030=
KTRK 231945Z 35012G18KT 10SM CLR 06/M09 A3002=
KW31 231955Z AUTO 33008KT 10SM SCT028 18/11 A3015 RMK AO1
     T01840107=
KW96 231955Z AUTO 32005KT 5SM OVC007 14/13 A3016 RMK AO1
     T01400130=
KWDG 231945Z 18025G32KT 10 SM BKN150 26/16 A2959=
KANE 231945Z 14019G26KT 10SM FEW045 25/12 A2951=
KBAK 231945Z 18015G25KT 10SM CLR 25/08 A3004=
KCWA 231947Z 14015G22KT 10SM FEW040 22/12 A2976=
KDLL 231955Z AUTO 15016G22KT 10SM CLR 22/12 A2974 RMK AO2
     T02220116=
KEZS 231955Z AUTO 13010KT 10SM CLR 23/14 A2980 RMK AO2
     T02310142=
KFDK 231947Z 04009KT 7SM BKN050 19/12 A3022=
KFMH 231945Z 04011KT 6SM -RA BR SCT029 14/13 A3028=
KGAF 231955Z AUTO 06011KT 9SM CLR 19/09 A2945 RMK AO2=
KGYY 231945Z 16014G28KT 10SM FEW050 26/13 A2988=
KMWC 231945Z 14010G16KT 10SM CLR 21/11 A2984=
KSUW 231955Z AUTO 07012G20KT 10SM CLR 14/10 A2963 RMK AO2
     T01410095=
KTZR 231947Z 16010G16KT 10SM CLR 24/08 A3012=
KCHD 231947Z 25011KT 10SM CLR 24/07 A2975=
KCIC 231947Z 31020G29KT 10SM CLR 19/M03 A3001=
KLAL 231950Z 07005KT 10SM SCT050 28/14 A3006=
KMWA 231945Z 20021G28KT 20SM BKN043 25/15 A2993=
KVQQ 231950Z VB03KT 10SM CLR 29/15 A3011=
KBNL 231955Z AUTO 00000G11KT 10SM CLR 24/09 A3013 RMK AO2=
KETB 231955Z AUTO 14012G20KT 10SM CLR 20/12 A2983 RMK AO2=
KLHZ 231955Z AUTO 34006KT 10SM SCT025 18/11 A3015 RMK AO2=
KRRL 231955Z AUTO 14014G17KT 110V180 10SM SCT042 23/13 A2974 RMK
     AO2 T02260127 TSNO=
KUNU 231955Z AUTO 13018G23KT 10SM CLR 23/13 A2980 RMK AO2
     T02260131=
