SACA33 KWBC 231500 RRF
METAR
TLPL 231500Z 10013KT 9999 FEW027 30/24 Q1013 NOSIG=
