SAUS80 KWBC 231700 RRD
METAR
KMTP 231654Z AUTO 05006KT 16/13 A3029 RMK AO1 SLP257 P0001
     T01560128=
K1V4 231654Z AUTO 17/06 A3033 RMK AO1 SLP272 T01670061 PNO=
K12N 231654Z AUTO VRB03KT 16/07 A3029 RMK AO1 SLP258 T01560072=
