SAUS70 KWBC 231600 RRX
METAR
KHQZ 231555Z 15017G29KT 10SM BKN027 25/17 A2988=
