SAUS70 KWBC 231800 RRX
METAR
PAIN 231756Z AUTO 00000KT 9SM -SN SCT013 OVC022 M07/M08 A2996 RMK
     AO2 SLP188 P0000 60000 T10721083 11072 21078 51007 FZRANO
     $=
PAJZ 231756Z AUTO 00000KT 8SM CLR M06/M07 A3013 RMK AO2 SLP212
     T10611067 11022 21067 51010 FZRANO $=
PAKI 231756Z AUTO 18007KT 10SM FEW018 OVC038 03/ A2994 RMK AO2
     RAE1658 SLP144 6//// T0033 10039 20017 58009 PNO $=
K05U 231755Z AUTO 34010KT 10SM 00/M02 A2997 RMK A01=
K0A0 231755Z AUTO 23021G31KT 10SM CLR 20/05 A2980 RMK AO2=
K0A9 231745Z AUTO 24007KT 8SM CLR 21/04 A3019 RMK A01=
K0F2 231755Z AUTO 17020G26KT 10SM CLR 27/16 A2977 RMK AO2
     T02740155 10276 20186=
K0R0 231755Z AUTO 16009KT 130V210 10SM CLR 28/11 A3013 RMK AO2=
K1A9 231755Z AUTO 00000KT 10SM CLR 23/05 A3017 RMK AO2 T02330046
     10233 20055=
K1K1 231755Z AUTO 20026G39KT 10SM CLR 27/11 A2957 RMK AO2
     T02720111 10272 20207=
K1M5 231745Z AUTO 19014KT 10SM CLR 24/08 A3013 RMK A01=
K1V6 231755Z AUTO 22017G21KT 10SM SCT060 SCT070 SCT080 19/01 A2942
     RMK AO2=
K2A0 231745Z AUTO VRB06KT 10SM CLR 22/06 A3018 RMK A01=
K2G2 231755Z AUTO VRB05KT 10SM CLR 22/03 A3020 RMK A01=
K2M2 231745Z AUTO 16010KT 10SM CLR 23/07 A3014 RMK A01=
K33N 231755Z AUTO 04010G16KT 10SM OVC020 17/13 A3019 RMK A01=
K36K 231750Z AUTO 22032G41KT 10SM CLR 29/03 A2941 RMK AO2=
K3J7 231755Z AUTO 13003KT 10SM CLR 22/07 A3019 RMK AO2=
K3LF 231755Z AUTO 17023G30KT 10SM SCT031 22/14 A2990 RMK AO2
     T02180135 10230 20157=
K3S8 231755Z AUTO 00000KT 10SM OVC006 08/06 A3022 RMK AO2=
K46U 231755Z AUTO 31013KT 10SM FEW030 BKN034 OVC042 02/M04 A2973
     RMK A01=
K4V0 231755Z AUTO 00000KT 1/2SM -SN OVC006 00/00 A2965 RMK AO2
     T00000000 10013 20000=
K54A 231755Z AUTO 06008G13KT 10SM CLR 29/19 A3005 RMK AO2=
K57C 231755Z AUTO 16014G19KT 10SM CLR 22/13 A2985 RMK AO2
     T02230125 10223 20131=
K5T9 231755Z AUTO 14006G13KT 10SM FEW025 27/20 A2980 RMK A01=
K65S 231755Z AUTO 00000KT 10SM SCT003 SCT007 BKN011 05/05 A2999
     RMK AO2=
K6A2 231755Z AUTO 05003KT 10SM CLR 21/03 A3020 RMK AO2=
K82V 231755Z AUTO 35019G23KT 10SM CLR 16/M01 A2932 RMK AO2=
K8A3 231745Z AUTO 21007KT 180V240 10SM CLR 22/05 A3016 RMK A01=
KAAS 231755Z AUTO 17010KT 10SM CLR 23/07 A3019 RMK AO1=
KACP 231755Z AUTO 16007KT 10SM SCT042 BKN048 BKN055 28/16 A3003
     RMK AO2=
PAKP 231756Z AUTO 21009KT 8SM -SN OVC005 M09/M11 A2989 RMK AO2
     SNB13 SLP179 P0000 60000 T10941106 11078 21094 51002
     FZRANO=
PALG 231756Z AUTO 10006KT 2 1/2SM BR OVC003 M03/M03 A3004 RMK AO2
     SNE1657 SLP176 60000 T10281033 11022 21028 58006 FZRANO=
PAMB 231756Z AUTO 00000KT 8SM CLR M04/M05 A3010 RMK AO2 SLP198
     T10391050 11011 21039 51009 FZRANO $=
PAMH 231756Z AUTO 00000KT 10SM OVC018 M06/M06 A3003 RMK AO2 SLP176
     T10561061 11028 21056 51007 FZRANO=
PAMK 231756Z AUTO 17011KT 10SM OVC090 01/M01 A2992 RMK AO2 SLP132
     T00061011 10011 21006 58009 FZRANO=
PANA 231756Z AUTO 15009KT 10SM SCT031 M02/M02 A3001 RMK AO2 SLP161
     T10171017 11011 21028 58014 FZRANO TSNO $=
PANI 231756Z AUTO 13006KT 2 1/2SM BR OVC003 M02/M02 A3011 RMK AO2
     VIS 1 3/4V5 SLP189 T10221022 11022 21033 58004 FZRANO $=
PANW 231756Z AUTO 35005KT 10SM CLR M04/M04 A3010 RMK AO2 SLP200
     T10391044 11011 21039 51010 FZRANO=
PAOH 231756Z AUTO 07008G15KT 10SM -RA BKN018 OVC023 05/02 A2949
     RMK AO2 SLP987 6//// T00500022 10056 20044 56027 PNO $=
PAOO 231756Z AUTO 17010KT OVC033 03/03 A2992 RMK AO2 SLP138
     T00280028 10039 21006 56008 PWINO TSNO $=
PAOU 231756Z AUTO 20009KT 10SM OVC038 04/03 A3021 RMK AO2 SLP229
     6//// T00440028 10056 20039 50002 PNO $=
