SAPA31 KWBC 231800
METAR
AGGG NIL=
AGGH 231800Z 18003KT 9999 FEW013 FEW014CB SCT300 23/23 Q1008=
ANAU NIL=
AYPY NIL=
PGNT NIL=
PGRO NIL=
PGSN 231754Z 07009KT 10SM FEW016 FEW022 27/24 A2980 RMK AO2 SLP112
     60000 T02720244 10283 20256 56010=
PGUA 231755Z AUTO 12009KT 10SM BKN012 26/24 A2979 RMK AO2 SLP078
     60012 T02590235 10260 20242 56014 $=
PGUM 231754Z 09008KT 10SM FEW021 27/24 A2979 RMK AO2 SLP079 60001
     T02670244 10272 20261 56013=
PGWT NIL=
PHJH NIL=
PHJR 231753Z 00000KT 5SM -RA BR FEW025 BKN036 OVC050 23/21 A3004
     RMK AO2 RAB35 SLP178 P0001 60001 T02330211 10244 20228
     53016=
PHMK 231754Z 36003KT 10SM CLR 26/20 A3004 RMK AO2 SLP172 60001
     T02610200 10267 20233 53017=
PJON NIL=
PKMJ NIL=
PKMR 231752Z 09005KT 15SM FEW015 SCT050 BKN120 OVC300 27/24 A2982
     RMK SLP100 8/871 T02730239 10278 20273 53008=
PKWA 231800Z AUTO 06006KT 10SM OVC047 25/23 A2983 RMK AO2
     T02500233=
PLCH 231800Z 11009KT 9999 FEW020 27/21 Q1011=
PMDY 231756Z AUTO 00000KT 10SM CLR 22/19 A3012 RMK AO2 SLP199
     T02170189 10228 20211 53012 TSNO=
PTKK NIL=
PTKR NIL=
PTPN NIL=
PTRO NIL=
PTSA NIL=
PTTP 231753Z 13003KT 15SM FEW018 BKN300 25/24 A2978 RMK SLP083
     8/101 T02480237 10254 20240 56008=
PTYA 231753Z 17008KT 12SM -SHRA SCT016CB OVC120 25/25 A2972 RMK
     SHRAE25 CB ALQS SLP064 60199 8/32/ T02500247 10257 20255
     55014=
PWAK 231755Z AUTO 07012G18KT 9999 CLR 27/24 A2992 RMK AO2 SLP138
     60000 T02730235 10279 20266 53004 $=
