SAUS80 KWBC 231712
METAR
KFAR 231706Z 09012KT 10SM CLR 20/10 A2943=
