SAUS70 KWBC 231900
METAR
KNFE 231856Z AUTO 35009G17KT 10SM OVC006 17/15 A3009 RMK AO2 RAE49
     SLP190 P0006 T01670150=
KHVN 231853Z 36006KT 9SM OVC110 13/10 A3027 RMK AO2 RAE27 SLP251
     P0000 T01330100=
KHYA 231856Z 04009KT 10SM BKN055 BKN070 OVC085 14/13 A3026 RMK AO2
     RAE48 SLP249 P0000 T01390133=
KHYX 231855Z AUTO 17017G22KT 10SM CLR 24/10 A3006 RMK AO2
     T02410095=
KLNR 231856Z AUTO 14014G22KT 10SM CLR 27/13 A2972 RMK AO2 PK WND
     15026/1822 SLP056 T02670128=
KLVN 231855Z AUTO 14016G26KT 10SM CLR 24/11 A2952 RMK AO2=
KMDT 231856Z 00000KT 6SM HZ FEW042 OVC050 16/09 A3024 RMK AO2
     SLP242 T01610089=
KONA 231855Z AUTO 14013G24KT 10SM CLR 25/12 A2961 RMK AO2=
KOSC 231855Z AUTO 13007KT 10SM CLR 21/12 A3008 RMK AO2
     T02140118=
KPEX 231855Z AUTO 11018G25KT 10SM CLR 23/12 A2946 RMK AO2=
KPMH 231855Z AUTO 00000KT 10SM CLR 26/04 A3015 RMK AO2
     T02580043=
KPZZ 231855Z AUTO 11018KT 9SM CLR 26/17 A3005 RMK A01=
KSDF 231856Z 16019G23KT 10SM FEW070 FEW250 26/08 A3007 RMK AO2
     SLP179 T02610083=
KTTS 231855Z AUTO 36011G18KT 10SM CLR 26/13 A3006 RMK AO2 VIS 3/4
     RWY15/33 SLP184 T02610132 $=
KVAF 231855Z AUTO 17018KT 10SM CLR 28/16 A2995 RMK A01=
KVOA 231900Z AUTO 08011KT 10SM CLR 25/16 A3010 RMK A01=
KVPZ 231856Z AUTO 18015G28KT 10SM CLR 27/12 A2993 RMK AO2 PK WND
     20034/1812 SLP132 T02720122 $=
KWBF 231855Z AUTO VRB04KT 10SM 27/18 A3004 RMK A01=
KWJF 231856Z 28015KT 10SM CLR 17/M02 A2991 RMK AO2 SLP120
     T01721017=
KATP 231855Z AUTO 11014KT 10SM SCT038 SCT044 25/17 A3005 RMK
     A01=
KBQX 231855Z AUTO 16015G20KT 9SM 28/16 A2993 RMK A01=
KCXY 231856Z 00000KT 10SM BKN041 OVC047 18/09 A3025 RMK AO2 SLP244
     T01830089=
KDAY 231856Z 17015G19KT 10SM SCT055 24/09 A3012 RMK AO2 SLP192
     T02390089=
KDDH 231854Z AUTO 00000KT 10SM CLR 18/02 A3030 RMK AO2 SLP261
     T01830017=
KDSF 231855Z AUTO 06006KT 10SM CLR 25/14 A3008 RMK A01=
KERY 231855Z AUTO 16016G22KT 10SM CLR 21/11 A2997 RMK AO2
     T02120111=
KFDR 231853Z AUTO 18022G29KT 10SM CLR 31/13 A2962 RMK AO2 PK WND
     18032/1814 SLP009 T03060133=
KGHB 231855Z AUTO VRB05G14KT 9SM SCT065 26/16 A3001 RMK A01=
KGLX 231855Z AUTO 04012KT 10SM CLR 26/13 A3008 RMK A01=
KGON 231856Z 01005KT 5SM -RA SCT055 BKN070 OVC090 14/11 A3027 RMK
     AO2 SLP250 P0004 T01440106=
KGRY 231855Z AUTO 12011KT 10SM CLR 24/16 A3005 RMK A01=
KHFF 231855Z AUTO 03009KT 10SM CLR 23/07 A3013 RMK AO2 SLP205
     T02250067 $=
KHHV 231855Z AUTO 16016G25KT 10SM SCT032 SCT040 26/19 A2991 RMK
     A01=
KLBT 231856Z AUTO 35010KT 10SM CLR 23/05 A3013 RMK AO2 SLP201
     T02330050 TSNO $=
K2J3 231855Z AUTO 06006KT 10SM CLR 24/10 A3015 RMK AO2
     T02440100=
K2R9 231855Z AUTO 15015G20KT 10SM SCT050 31/17 A2984 RMK AO2
     T03060173=
K2V5 231855Z AUTO 21024G35KT 10SM CLR 27/M05 A2923 RMK AO2=
K3F3 231855Z AUTO 15013G18KT 10SM SCT048 BKN060 29/16 A2999 RMK
     AO2 T02900160=
K4A9 231855Z AUTO 08005KT 10SM CLR 23/03 A3015 RMK AO2
     T02280032=
K57C 231855Z AUTO 14012G18KT 10SM CLR 23/13 A2983 RMK AO2
     T02310130=
K5M9 231855Z AUTO 18007G19KT 10SM CLR 25/10 A3001 RMK AO2
     T02500101=
K5SM 231855Z AUTO 1/4SM SN OVC002 M04/M06 A2964 RMK AO2 LTG DSNT
     W=
K7BM 231855Z AUTO 23009G19KT 10SM SCT026 BKN032 OVC038 01/M03
     A2958 RMK AO2=
K81R 231855Z AUTO 17016G22KT 10SM CLR 28/15 A2982 RMK AO2
     T02800151=
K9A5 231855Z AUTO 28004KT 10SM CLR 23/03 A3017 RMK AO2
     T02290028=
KAAA 231855Z AUTO 17023G31KT 10SM CLR 25/15 A2984 RMK AO2
     T02460149=
KADC 231857Z AUTO 11017G25KT 10SM CLR 24/11 A2944 RMK AO2 TSNO=
