SAUS70 KWBC 232000 RRX
METAR
KGZN 232000Z AUTO 18017G30KT 10SM CLR 29/14 A2971 RMK AO2=
