SAUS70 KWBC 231938 RRF
METAR
K2G2 231930Z AUTO VRB05KT 10SM CLR 23/03 A3017 RMK A01=
K2M2 231935Z AUTO 21006G14KT 10SM CLR 24/06 A3009 RMK A01=
K33N 231935Z AUTO 03007KT 1 1/4SM BR FEW007 BKN020 BKN024 15/15
     A3017 RMK A01=
K36K 231930Z AUTO 22038G47KT 10SM CLR 29/01 A2939 RMK AO2=
K3J7 231935Z AUTO 00000KT 10SM CLR 24/06 A3015 RMK AO2=
K3LF 231935Z AUTO 17022G33KT 10SM CLR 24/14 A2985 RMK AO2 LTG DSNT
     W T02360138=
K3S8 231935Z AUTO 00000KT 10SM CLR 10/06 A3024 RMK AO2=
K46U 231935Z AUTO 33014KT 10SM BKN037 OVC043 02/M06 A2974 RMK
     A01=
K4V0 231935Z AUTO 22003KT 10SM -RA SCT006 BKN023 OVC028 01/01
     A2968 RMK AO2 T00110006=
K54A 231935Z AUTO 06009KT 040V100 10SM CLR 30/17 A3002 RMK AO2=
K5T9 231935Z AUTO 14011G16KT CLR 27/19 A2977 RMK A01=
K65S 231930Z AUTO 00000KT 10SM BKN014 BKN020 07/04 A3000 RMK
     AO2=
K6A2 231935Z AUTO 00000KT 10SM CLR 22/02 A3016 RMK AO2=
K82V 231935Z AUTO 32024G31KT 10SM CLR 14/M02 A2936 RMK AO2=
K8A3 231935Z AUTO 24008KT 10SM CLR 23/05 A3011 RMK A01=
KAAS 231935Z AUTO 19009KT 10SM CLR 24/07 A3015 RMK AO1=
KACP 231935Z AUTO 14006KT 10SM BKN047 BKN060 30/16 A2998 RMK
     AO2=
KAEJ 231935Z AUTO 30005KT 10SM 07/00 A2953 RMK AO2 T00680000=
KAGI 231935Z AUTO 15017KT 10SM CLR 28/16 A2998 RMK AO2
     T02760161=
KALX 231935Z AUTO 11003KT 10SM CLR 24/05 A3015 RMK AO2
     T02380048=
KANW 231935Z AUTO 21019G27KT 10SM CLR 28/M01 A2915 RMK AO2
     T02781010=
KARM 231935Z AUTO 15017G23KT 10SM SCT046 SCT050 OVC055 28/16 A2989
     RMK AO2 T02820160 TSNO=
KEIK 231935Z AUTO 22009G17KT 10SM BKN110 17/M04 A2933 RMK AO2
     T01711045 PWINO=
KEKS 231930Z AUTO 02009KT M01/M02 A2982 RMK AO2 PWINO TSNO=
KERV 231935Z AUTO 16015G20KT 10SM SCT041 27/16 A2983 RMK AO2
     T02720162=
KF05 231935Z AUTO 21019G27KT 10SM CLR 33/12 A2962 RMK AO2
     T03270115=
KF17 231935Z AUTO 18010G17KT 140V220 10SM SCT055 OVC065 29/13
     A2994 RMK AO2=
KF44 231935Z AUTO 18017G22KT 10SM SCT048 BKN060 29/16 A2983 RMK
     AO2=
KF46 231935Z AUTO 20022G31KT 10SM SCT049 30/15 A2980 RMK AO2
     T02950154=
KFLY 231935Z AUTO 22022G29KT SCT085 17/M02 A2947 RMK AO2 T01651017
     PWINO=
KFOT 231930Z AUTO 33012KT 10SM FEW029 14/06 A3015 RMK AO1=
KFTN 231935Z AUTO 14013G22KT 080V180 10SM CLR 30/18 A2979 RMK
     A01=
KFYE 231935Z AUTO 19013G20KT 10SM FEW050 26/13 A3000 RMK A01=
KFYM 231940Z AUTO 21006G11KT 9SM CLR 23/06 A3013 RMK A01=
KGAO 231935Z AUTO 11010G16KT 10SM CLR 27/15 A3007 RMK AO2
     T02650151=
KGCY 231935Z AUTO 03003KT 1 1/2SM HZ CLR 21/03 A3016 RMK A01=
KGDJ 231935Z AUTO 16020G27KT 10SM CLR 29/16 A2977 RMK AO2
     T02860156=
KGGI 231935Z AUTO 15019G29KT 10SM CLR 25/15 A2960 RMK AO2
     T02450147=
KGKT 231935Z AUTO 00000KT 10SM CLR 23/05 A3015 RMK A01=
KGOO 231935Z AUTO VRB07G13KT 10SM CLR 13/M08 A2997 RMK A01=
KGRN 231935Z AUTO 32015G20KT 10SM SCT110 14/01 A2928 RMK AO2
     T01400010=
KGYB 231935Z AUTO 18011G19KT 10SM SCT044 SCT050 BKN060 29/18 A2986
     RMK AO2 T02870176=
KGZN 231920Z AUTO 17022G28KT 10SM CLR 29/14 A2972 RMK AO2=
KGZS 231935Z AUTO 17007G14KT 10SM CLR 25/08 A3010 RMK A01=
KH71 231935Z AUTO 17019G29KT 10SM CLR 27/15 A2970 RMK AO2=
KHFJ 231935Z AUTO 18015G29KT 10SM CLR 28/13 A2973 RMK AO2=
KHHF 231935Z AUTO 17019G24KT 10SM CLR 27/12 A2955 RMK AO2
     T02660119=
KHLB 231935Z AUTO 17009G15KT 140V200 10SM CLR 24/09 A3006 RMK
     A01=
KHOE 231935Z AUTO 00000KT 10SM CLR 26/10 A3012 RMK AO2
     T02600101=
KHQG 231935Z AUTO 22035G47KT 4SM HZ BKN001 OVC006 29/04 A2945 RMK
     AO2 T02900041=
KHRX 231935Z AUTO 21022G28KT 10SM CLR 24/10 A2963 RMK AO2
     T02440100=
