SAUS70 KWBC 231700 RRN
METAR
KMYF 231653Z COR 15003KT 10SM BKN039 17/11 A2988 RMK AO2 SLP116
     T01670106=
KOLS 231654Z AUTO 22008KT 10SM SCT030 BKN036 19/09 A2990 RMK AO2
     SLP068 T01940094=
KY50 231656Z AUTO 16011G14KT 10SM CLR 21/13 A2983 RMK AO2 SLP094
     T02110128 $=
KY70 231655Z AUTO 16013G18KT 10SM CLR 21/10 A3006 RMK AO2
     T02140102=
KYKN 231656Z AUTO 14023G28KT 10SM CLR 23/12 A2929 RMK AO2 PK WND
     14028/1656 SLP923 T02280122=
PAAK 231656Z AUTO 21006KT 10SM -RA FEW018 OVC024 A3022 RMK AO2
     SLPNO P0000 FZRANO $=
PABV 231656Z AUTO 21005KT 10SM CLR M04/M06 A2988 RMK AO2 SLP126
     T10441056 FZRANO=
PAFM 231656Z AUTO 12009KT 5SM -SN BR OVC006 M02/M02 A2998 RMK AO2
     SLP159 P0000 T10171022 FZRANO=
PAGL 231656Z AUTO 18020KT 10SM OVC013 03/02 A2986 RMK AO2 SLP107
     T00330017 PWINO $=
PAGN 231656Z AUTO 08010G14KT 10SM -RA FEW017 BKN024 OVC035 04/03
     A2950 RMK AO2 SLP980 P0005 T00390033=
PAKP 231656Z AUTO 21010KT 10SM OVC005 M09/M10 A2989 RMK AO2 SLP178
     T10891100 FZRANO=
PANA 231656Z AUTO 15008KT 1SM BR OVC003 M01/M02 A3003 RMK AO2
     SLP169 T10111017 FZRANO TSNO $=
PANV 231656Z AUTO 12006KT 10SM FEW001 BKN075 M03/M03 A3000 RMK AO2
     SLP263 T10331033 FZRANO TSNO=
PAOH 231656Z AUTO 08010G17KT 10SM -RA BKN018 OVC024 05/03 A2951
     RMK AO2 SLP993 P0000 T00500028=
PAQH 231656Z AUTO 11008KT 10SM CLR M04/M04 A3005 RMK AO2 SLP177
     T10391039 FZRANO=
PASL 231656Z AUTO 00000KT 10SM CLR M06/M06 A3011 RMK AO2 SLP190
     T10561061 FZRANO=
PATQ 231656Z AUTO 11010KT 10SM CLR M09/M11 A2992 RMK AO2 SLP137
     T10941106 FZRANO TSNO=
PAZK 231656Z AUTO 00000KT 9SM -SN OVC022 M07/M09 A2975 RMK AO2
     SLP141 P0000 T10671089 FZRANO=
PFCL 231656Z AUTO 00000KT 10SM CLR A3010 RMK AO2 SLPNO FZRANO TSNO
     $=
PFKW 231656Z AUTO 14009KT 1/2SM -SN FZFG OVC003 M02/M02 A3004 RMK
     AO2 SNB25 SLP171 P0000 T10221022 FZRANO=
PFSH 231656Z AUTO 17020KT 10SM FEW019 02/M01 A2994 RMK AO2 SLP137
     T00221006 FZRANO=
PFWS 231656Z AUTO 00000KT 10SM CLR M02/M03 A3011 RMK AO2 SLP240
     T10221033 FZRANO=
KISQ 231655Z AUTO 13007KT 10SM CLR 15/11 A2999 RMK AO2
     T01490107=
KITH 231656Z 17006KT 10SM CLR 18/05 A3029 RMK AO2 SLP259
     T01830050=
KIWD 231656Z AUTO 17010G18KT 10SM CLR 19/12 A2977 RMK AO2 SLP078
     T01940122=
KJAC 231656Z 25007KT 9SM -SN BKN013 OVC060 M01/M04 A2966 RMK AO2
     SLP064 T10061044 PNO $=
KJHW 231656Z AUTO 14005KT 10SM CLR 19/04 A3026 RMK AO2 SLP250
     T01890044=
KJRB 231656Z AUTO 02008G15KT 10SM -RA FEW055 SCT070 OVC095 A3027
     RMK AO2 RAB50 SLPNO P0000 FZRANO $=
KJYG 231655Z AUTO 15021G27KT 10SM CLR 22/12 A2949 RMK AO2=
KJYM 231655Z AUTO 15012G17KT 10SM CLR 22/10 A3010 RMK AO2
     T02200096=
KLBL 231656Z AUTO 21032G42KT 4SM HZ FEW016 28/07 A2950 RMK AO2 PK
     WND 22044/1621 SLP953 T02830067=
KLCI 231656Z AUTO 07004KT 10SM CLR 15/08 A3037 RMK AO2 SLP286
     T01500078=
KLEW 231656Z AUTO 00000KT 10SM CLR 16/08 A3038 RMK AO2 SLP294
     T01560078=
KLGA 231651Z COR 04015KT 10SM -RA BKN040 BKN075 BKN120 BKN160
     OVC250 16/08 A3025=
KLLJ 231655Z AUTO 10004KT 10SM BKN060 02/M07 A2982 RMK AO2 SLP103
     T00171067 $=
KLPC 231656Z AUTO VRB05KT 10SM CLR 16/08 A2992 RMK AO2 SLP133
     T01610078=
KLRD 231656Z 16019G25KT 10SM CLR 28/19 A2982 RMK AO2 SLP095
     T02830189=
KLVS 231653Z AUTO 23032G48KT 10SM FEW065 16/M01 A2970 RMK AO2 PK
     WND 23056/1625 SLP958 T01611011=
KLWA 231655Z AUTO 14011G18KT 130V190 10SM SCT070 23/12 A2999 RMK
     AO2 T02260116=
KLXL 231655Z AUTO 11011G18KT 10SM CLR 20/11 A2956 RMK AO2=
