SAUS70 KWBC 231618 RRE
METAR
K6B9 231615Z AUTO VRB05KT 10SM CLR 18/05 A3029 RMK AO2=
K7L2 231615Z AUTO 07011KT 10SM CLR 13/06 A2935 RMK AO2=
K82C 231615Z AUTO 15013G16KT 10SM CLR 20/13 A2979 RMK AO2
     T02000127=
K96D 231615Z AUTO 05011G17KT 10SM OVC012 09/09 A2959 RMK AO2=
K9D7 231615Z AUTO 07017KT 10SM OVC009 07/06 A2955 RMK AO2 TSNO=
KAIG 231615Z AUTO 15011KT 10SM CLR 17/12 A2987 RMK AO2
     T01700118=
KANQ 231615Z AUTO 14012G18KT 10SM CLR 20/11 A3009 RMK AO2=
KBAC 231615Z AUTO 09009G14KT 10SM CLR 12/07 A2945 RMK AO2=
KBWW 231615Z AUTO 05015KT 10SM OVC010 06/05 A2934 RMK AO2=
KGWR 231615Z AUTO 10014KT 9SM CLR 13/10 A2941 RMK A01=
KHZE 231615Z AUTO 08014G22KT 10SM FEW016 09/05 A2942 RMK AO2=
KIDI 231615Z AUTO VRB05KT 10SM CLR 18/05 A3030 RMK A01=
KOEO 231615Z AUTO 14012G16KT 10SM CLR 21/14 A2967 RMK AO2
     T02100144=
KOLG 231615Z AUTO 15006KT 10SM CLR 18/10 A2970 RMK AO1=
KRNH 231615Z AUTO 15013G16KT 10SM CLR 20/15 A2966 RMK AO2
     T02040151=
KRUG 231615Z AUTO 07025KT 10SM OVC009 07/06 A2949 RMK AO2=
KRYV 231615Z AUTO 17013G18KT 10SM CLR 20/11 A2986 RMK AO2
     T02040107=
KS25 231615Z AUTO 06013KT 10SM OVC009 06/06 A2948 RMK AO2=
KS32 231615Z AUTO 08017KT 10SM CLR 12/05 A2948 RMK AO2 TSNO=
KSPF 231615Z AUTO 30016KT 10SM CLR 08/02 A2934 RMK AO2=
KTME 231615Z AUTO 17012G19KT 10SM BKN060 28/18 A2997 RMK AO2=
KVGC 231615Z AUTO 16005KT 10SM CLR 15/05 A3033 RMK AO2=
KHOE 231615Z AUTO 04003KT 10SM CLR 23/12 A3018 RMK AO2
     T02340125=
KHQG 231615Z AUTO 22029G39KT 7SM OVC001 26/06 A2950 RMK AO2
     T02610060=
KHRX 231615Z AUTO 23017G22KT 10SM CLR 24/10 A2972 RMK AO2
     T02390103=
KHSB 231615Z AUTO 21016G25KT 10SM CLR 24/17 A3002 RMK AO2
     T02350165=
KHSD 231615Z AUTO 18027G34KT 10SM 23/16 A2968 RMK A01=
KHYW 231615Z AUTO 34009G15KT 310V010 10SM CLR 20/07 A3017 RMK
     AO2=
KHYX 231615Z AUTO 16008KT 10SM CLR 23/11 A3010 RMK AO2
     T02250110=
KHZD 231615Z AUTO 19012G20KT 10SM CLR 23/13 A3009 RMK A01=
KHZL 231615Z AUTO 08005KT 10SM OVC028 17/07 A3033 RMK AO2=
KHZX 231615Z AUTO 13011G17KT 10SM SCT075 18/10 A2964 RMK AO2=
KI23 231615Z AUTO 18006KT 10SM CLR 21/09 A3019 RMK AO1=
KI35 231615Z AUTO 00000KT 10SM CLR 18/06 A3025 RMK AO2
     T01840056=
KI67 231615Z AUTO 19009G15KT 10SM CLR 22/10 A3015 RMK AO1=
KI68 231615Z AUTO 17009KT 10SM CLR 22/11 A3017 RMK AO1
     T02240107=
KIER 231615Z AUTO 17015G19KT 10SM CLR 27/17 A3003 RMK AO2
     T02730166=
KIFA 231615Z AUTO 15020G29KT 10SM CLR 22/14 A2961 RMK AO2
     T02170138=
KIGQ 231615Z AUTO 17015G18KT 10SM CLR 22/13 A2996 RMK AO2
     T02200127=
KIMS 231615Z AUTO 17010G18KT 10SM CLR 22/10 A3016 RMK AO2=
KINJ 231615Z AUTO 19024G34KT 10SM SCT025 BKN033 24/18 A2988 RMK
     AO2 T02430177=
KIOB 231615Z AUTO 24004KT 10SM CLR 21/08 A3022 RMK AO2 PWINO=
KIRS 231615Z AUTO 17012KT 10SM CLR 21/10 A3007 RMK AO2
     T02110103=
KISQ 231615Z AUTO 13007G15KT 10SM CLR 15/11 A2999 RMK AO2
     T01470108=
KJAU 231615Z AUTO VRB03KT 10SM CLR 18/09 A3029 RMK A01=
KJPX 231615Z AUTO 06006KT 10SM -DZ SCT050 BKN070 OVC080 15/12
     A3030 RMK AO2 T01500122=
KJTC 231615Z AUTO 23015G31KT 10SM SCT050 SCT055 13/M01 A2983 RMK
     AO2=
KJWG 231615Z AUTO 18020G28KT 10SM CLR 23/13 A2969 RMK AO2
     T02330130=
KJWY 231615Z AUTO 19021G31KT 10SM SCT028 25/18 A2988 RMK AO2
     T02470175=
KJYG 231616Z AUTO 15020G27KT 10SM CLR 21/12 A2950 RMK AO2=
KJYL 231615Z AUTO 03003KT 10SM CLR 23/11 A3021 RMK AO2
     T02250114=
KJYM 231615Z AUTO 15008KT 10SM CLR 20/10 A3012 RMK AO2
     T02010101=
KK70 231615Z AUTO 35007KT 330V030 10SM CLR 27/22 A3006 RMK AO2=
