SAUS70 KWBC 231948
METAR
K6S8 231940Z AUTO 29013KT 10SM 04/02 A2967 RMK A01 Laurel=
KDCY 231935Z AUTO 16014G19KT 10SM CLR 26/10 A2999 RMK AO2
     T02590099=
KEBS 231935Z AUTO 15027G35KT 10SM CLR 26/14 A2947 RMK AO2=
KEVM 231941Z AUTO 11011G16KT 080V140 10SM BKN065 BKN075 BKN085
     21/12 A2964 RMK AO2=
KJVY 231935Z AUTO 18012KT 10SM CLR 26/08 A3005 RMK AO2 PWINO=
KMPZ 231930Z AUTO 16020G29KT 10SM CLR 26/18 A2968 RMK AO2=
KUBE 231935Z AUTO 14016G27KT 10SM SCT040 23/16 A2961 RMK AO2=
KUYF 231935Z AUTO 16007KT 10SM CLR 24/03 A3012 RMK AO2=
KVES 231935Z AUTO 15011G21KT 10SM SCT055 23/06 A3007 RMK AO2=
KW99 231942Z AUTO 00000KT 10SM CLR 18/06 A3023 RMK AO2=
KTFP 231915Z AUTO 16021G25KT 10SM CLR 29/22 A2983 RMK AO2
     T02940217=
