SAUS80 KWBC 231620
METAR
KRFI 231615Z AUTO 17016G23KT 10SM BKN032 BKN039 28/14 A2997 RMK
     AO2 T02750140=
KRLD 231615Z AUTO 00000KT 10SM OVC100 08/03 A3006 RMK AO2
     T00820026=
KVTI 231615Z AUTO 15017G23KT 10SM CLR 23/13 A2969 RMK AO2
     T02300126=
KS39 231615Z AUTO 00000KT 10SM CLR 03/01 A3006 RMK AO2=
KSEP 231615Z AUTO 17017G22KT 10SM SCT027 25/16 A2987 RMK AO2
     T02540157=
KTKC 231615Z AUTO 15019G26KT 10SM 20/11 A2946 RMK AO2
     T01970105=
KTKV 231615Z AUTO 15004KT 10SM CLR 19/12 A2982 RMK AO2 T01870118
     PWINO=
K40U 231615Z AUTO 29010KT 7SM SCT043 BKN050 OVC065 00/M03 A2965
     RMK AO2 T00041032=
KCTY 231615Z AUTO 02005KT 10SM CLR 25/13 A3016 RMK AO2
     T02450127=
KSOW 231615Z AUTO 22014G28KT 4SM -RA BKN020 OVC026 09/06 A2981 RMK
     AO2=
KGNG 231615Z AUTO 27014KT 10SM CLR 02/01 A2986 RMK AO2=
KMKN 231615Z AUTO 20021G28KT 10SM CLR 25/17 A2985 RMK AO2
     T02510167=
KRLD 231615Z AUTO 00000KT 10SM OVC100 08/03 A3006 RMK AO2
     T00820026=
KS39 231615Z AUTO 00000KT 10SM CLR 03/01 A3006 RMK AO2=
KTKC 231615Z AUTO 15019G26KT 10SM 20/11 A2946 RMK AO2
     T01970105=
KVTI 231615Z AUTO 15017G23KT 10SM CLR 23/13 A2969 RMK AO2
     T02300126=
KCIR 231615Z AUTO 21015G21KT 10SM BKN041 OVC048 22/15 A3004 RMK
     AO2 T02200145=
KTKV 231615Z AUTO 15004KT 10SM CLR 19/12 A2982 RMK AO2 T01870118
     PWINO=
K9MN 231615Z AUTO 12016G25KT 10SM CLR 19/11 A2966 RMK AO1
     T01910113=
KSYN 231615Z AUTO 15013KT 10SM CLR 21/12 A2962 RMK AO2
     T02100117=
KEDU 231620Z AUTO 34012G17KT 10SM CLR 15/00 A2999 RMK AO1=
KRFI 231615Z AUTO 17016G23KT 10SM BKN032 BKN039 28/14 A2997 RMK
     AO2 T02750140=
KSEP 231615Z AUTO 17017G22KT 10SM SCT027 25/16 A2987 RMK AO2
     T02540157=
K40B 231616Z AUTO VRB03KT 20/04 A3035 RMK AO1 SLP289 T02040045
     57004=
KPSN 231615Z AUTO 18014G21KT 10SM BKN034 BKN041 OVC049 26/19 A2993
     RMK AO2=
KCKP 231615Z AUTO 16018G26KT 10SM CLR 21/13 A2944 RMK AO2
     T02110134=
KDBN 231615Z AUTO 05004KT 10SM CLR 22/08 A3023 RMK AO2=
KEHA 231615Z AUTO 22033G41KT 10SM CLR 25/06 A2953 RMK AO2
     T02540057=
K48A 231615Z AUTO 06009KT 10SM CLR 23/11 A3021 RMK AO2
     T02250108=
K4BM 231615Z AUTO 18009KT 160V230 M1/4SM SN OVC002 M01/M02 A2964
     RMK AO2=
