SACA45 KWBC 232100 RRB
METAR
MGGT 232100Z 04012KT 9999 SCT020TCU FEW024CB 24/18 Q1018 A3006 CB
     ESE/SE TCU E/S/SSW=
MNPC 232100Z 09008KT 7000 SCT016 SCT300 30/24 Q1008 HZ=
