SAUS70 KWBC 231822 RRA
METAR
KCCO 231815Z AUTO 00000KT 10SM CLR 21/02 A3019 RMK AO2
     T02120018=
KCGE 231815Z AUTO 34008KT 10SM OVC019 16/16 A3016 RMK A01=
KCPW 231815Z AUTO 24032KT M1/4SM +SN OVC001 M06/M06 A2968 RMK
     AO2=
KCQB 231815Z AUTO 17019G27KT 10SM CLR 27/16 A2970 RMK AO2
     T02700161=
KCTJ 231815Z AUTO 07003KT 10SM CLR 21/03 A3022 RMK AO2
     T02140034=
KCZT 231815Z AUTO 13011G18KT 10SM CLR 27/18 A2981 RMK AO2=
KDMW 231815Z AUTO 05005KT 10SM BKN044 OVC050 18/10 A3024 RMK
     AO2=
KDPL 231815Z AUTO 01009G17KT 10SM CLR 22/13 A3011 RMK AO2=
KDQH 231815Z AUTO 00000KT 10SM CLR 25/12 A3015 RMK AO2
     T02450116=
KE38 231815Z AUTO 19012G15KT 10SM SCT120 26/08 A2994 RMK AO2
     T02620075=
KEGT 231815Z AUTO 18024G32KT 7SM CLR 29/13 A2956 RMK AO2
     T02910135=
KFME 231819Z AUTO 02006KT 340V050 10SM SCT042 OVC050 17/08 A3023
     RMK AO1=
KFQD 231815Z AUTO 00000KT 10SM CLR 21/03 A3019 RMK AO2=
KFWZ 231815Z AUTO 35014G19KT 10SM SCT009 SCT014 OVC033 M02/M04
     A2956 RMK AO2=
KFXY 231815Z AUTO 15024G30KT 10SM CLR 24/13 A2953 RMK AO2=
KFYJ 231815Z AUTO 34005KT 10SM OVC007 15/13 A3017 RMK AO1
     T01470130=
KGEV 231815Z AUTO 05007KT 10SM CLR 19/M01 A3023 RMK AO2
     T01861009=
KGLW 231815Z AUTO 22007KT 10SM CLR 24/09 A3012 RMK AO2
     T02410087=
KHCR 231815Z AUTO 35013G18KT 10SM BKN055 BKN065 05/M06 A2970 RMK
     AO2=
KHHW 231815Z AUTO 17020G25KT 10SM BKN041 27/15 A2985 RMK AO2=
KI75 231815Z AUTO 14018G23KT 10SM CLR 27/15 A2954 RMK AO2
     T02690146=
KIIB 231815Z AUTO 16020G27KT 7SM CLR 24/14 A2966 RMK AO2
     T02430137=
KIJX 231815Z AUTO 16019G26KT 10SM CLR 23/14 A2982 RMK AO2
     T02280140=
KLMO 231815Z AUTO 00000KT 7SM CLR 21/M02 A2932 RMK AO2
     T02061023=
KLUV 231815Z AUTO 21022G25KT 10SM CLR 29/09 A2975 RMK AO2=
KMLE 231815Z AUTO 16011G30KT 10SM CLR 28/13 A2938 RMK AO2
     T02840128=
KMNE 231820Z AUTO 15008G14KT 130V190 10SM BKN047 28/18 A2998 RMK
     AO2 T02790175=
KMQB 231815Z AUTO 16019G26KT 10SM CLR 21/12 A2980 RMK AO2
     T02140121=
KNOW 231815Z AUTO 01003KT 10SM CLR 10/07 A3013 RMK AO2
     T01030067=
KNRN 231815Z AUTO 24030G37KT 7SM SCT027 SCT032 BKN044 31/04 A2930
     RMK AO2=
KORG 231815Z AUTO 15013G18KT 10SM SCT035 BKN050 OVC070 30/18 A3001
     RMK AO2 T03030182=
KPPA 231815Z AUTO 21020G27KT 10SM CLR 26/12 A2963 RMK AO2
     T02610116=
KPTT 231815Z AUTO 21026G32KT 10SM CLR 31/10 A2947 RMK AO2
     T03060100=
KRBO 231815Z AUTO 10SM SCT001 SCT037 SCT055 29/20 A2986 RMK AO2
     T02940201=
KSNL 231815Z AUTO 17023G32KT 10SM CLR 27/13 A2971 RMK AO2
     T02680129=
KTAZ 231815Z AUTO 17017G25KT 10SM BKN120 24/14 A2988 RMK AO2
     T02360140=
KTBR 231815Z AUTO 32008KT 270V360 10SM CLR 24/10 A3015 RMK AO2
     T02380096=
KTIF 231815Z AUTO 20022G28KT 10SM CLR 25/02 A2918 RMK AO2
     T02540019=
KTQK 231815Z AUTO 22037G46KT 2 1/2SM HZ SCT030 BKN037 29/04 A2935
     RMK AO2 VIS 2V3 T02880037=
KTVI 231815Z AUTO 00000KT 10SM CLR 23/08 A3015 RMK AO2=
KVDI 231815Z AUTO 12003KT 10SM CLR 25/11 A3015 RMK AO2=
KVKS 231815Z AUTO 16009G16KT 10SM FEW049 28/15 A3004 RMK A01=
KVUJ 231815Z AUTO 01006KT 10SM CLR 23/07 A3022 RMK AO2 LTG DSNT E
     T02250066=
KXBP 231815Z AUTO 19019G25KT 10SM CLR 29/14 A2979 RMK AO2
     T02900141=
K06C 231815Z AUTO 16014G25KT 10SM CLR 24/16 A2987 RMK AO2
     T02360162=
K1H2 231815Z AUTO 15011G23KT 10SM OVC040 24/14 A2996 RMK AO2
     T02370144=
K57C 231815Z AUTO 15012G17KT 10SM CLR 23/13 A2985 RMK AO2
     T02260127=
KAFK 231815Z AUTO 20027G34KT 10SM CLR 29/13 A2943 RMK AO2
     T02870127=
