SAUS70 KWBC 231900 RRH
METAR
KLVJ 231853Z AUTO 17016G23KT 10SM SCT055 29/17 A2994 RMK AO2 PK
     WND 18026/1757 SLP137 T02890167=
KLVK 231853Z 35009KT 10SM CLR 19/M01 A2999 RMK AO2 SLP154
     T01891011=
KLVM 231853Z AUTO 29008KT 3/4SM -SN BR FEW010 BKN015 OVC022 01/M01
     A2974 RMK AO2 SLP093 P0000 T00061011 $=
KLWV 231853Z AUTO 19024G32KT 10SM FEW055 27/12 A2998 RMK AO2 PK
     WND 19033/1821 SLP149 T02720117 $=
KLXT 231853Z AUTO 18017G33KT 10SM CLR 29/14 A2960 RMK AO2 PK WND
     19036/1826 SLP013 T02890144=
KMAE 231853Z AUTO 31012KT 10SM CLR 18/01 A2994 RMK AO2 SLP138
     T01830011=
KMAF 231853Z 20017G25KT 10SM CLR 28/12 A2975 RMK AO2 SLP029
     T02780117=
KMAI 231853Z AUTO 06005KT 10SM CLR 25/05 A3012 RMK AO1 SLP198
     T02500050 $=
KMBS 231853Z 16017G24KT 10SM FEW055 24/11 A3006 RMK AO2 PK WND
     18028/1813 SLP177 T02390111=
KMBY 231855Z AUTO 17015G23KT 10SM CLR 27/12 A2968 RMK AO2=
KMCB 231853Z AUTO 14008KT 10SM BKN050 26/13 A3006 RMK AO2 SLP175
     T02610128=
KMCE 231853Z AUTO 31016G21KT 10SM CLR 19/M01 A2994 RMK AO2 SLP137
     T01941011=
KMSL 231853Z AUTO 20007KT 10SM CLR 25/07 A3011 RMK AO2 SLP190
     T02500067=
KMSP 231853Z 14020G36KT 10SM FEW045 24/12 A2952 RMK AO2 PK WND
     13036/1846 SLP993 T02390122=
KMSY 231853Z 15009KT 10SM SCT050 SCT250 27/14 A3007 RMK AO2 SLP185
     T02720144 $=
KMTH 231853Z AUTO 06008KT 10SM CLR 28/20 A3001 RMK AO2 SLP160
     T02830200 $=
KMTJ 231853Z AUTO 21011KT 10SM FEW070 BKN085 07/01 A2963 RMK AO2
     SLP982 T00720011 $=
KMTO 231853Z AUTO 15020G36KT 10SM SCT044 24/13 A2992 RMK AO2 PK
     WND 17037/1826 SLP125 T02440133=
KMTV 231855Z AUTO 10006KT 3SM HZ CLR 21/02 A3021 RMK AO2
     T02060024=
KMVY 231853Z 04010G19KT 2 1/2SM RA BR FEW011 SCT047 OVC070 14/12
     A3026 RMK AO2 SLP246 P0002 T01390122=
KMWL 231853Z AUTO 17019G30KT 10SM CLR 31/14 A2974 RMK AO2 PK WND
     16034/1821 SLP057 T03060144=
KMYF 231853Z 22009KT 10SM SCT032 19/09 A2987 RMK AO2 SLP112
     T01890089=
KMYV 231853Z AUTO 33013G23KT 10SM CLR 21/M02 A2999 RMK AO2 SLP160
     T02061022 $=
KNEW 231853Z 15013KT 10SM CLR 27/13 A3008 RMK AO2 SLP178
     T02720128=
KOAK 231853Z 34007G16KT 270V010 10SM CLR 19/03 A3001 RMK AO2
     SLP162 T01890028=
KODO 231853Z AUTO 18015G23KT 10SM CLR 27/12 A2976 RMK AO2 SLP033
     T02720122 $=
KOGB 231853Z AUTO 32006KT 10SM CLR 24/10 A3015 RMK AO2 SLP206
     T02390100=
KOGD 231853Z 33014G24KT 10SM FEW030 SCT055 BKN090 07/M01 A2978 RMK
     AO2 SLP073 T00721011=
KOJC 231853Z 18021G35KT 10SM CLR 28/14 A2958 RMK AO2 PK WND
     17035/1846 SLP002 T02830144=
KOKV 231855Z AUTO 03003KT 7SM OVC026 16/08 A3022 RMK AO2=
KOLF 231853Z AUTO 06017G25KT -RA BKN009 OVC012 05/04 A2953 RMK AO2
     CIG 005V010 SLP014 P0001 T00500039=
KOMH 231855Z AUTO 02005KT 10SM OVC027 17/10 A3022 RMK AO2=
KOMK 231853Z AUTO 35009KT 10SM CLR 12/M02 A3004 RMK AO2 SLP179
     T01221022=
KONM 231855Z AUTO 21018G27KT 10SM CLR 22/M01 A2971 RMK AO2
     T02221012=
KONO 231853Z AUTO 32013G20KT 10SM BKN095 12/M01 A3002 RMK AO2
     SLP171 T01171011=
KONT 231853Z 20005KT 10SM SCT022 SCT047 18/10 A2986 RMK AO2 SLP105
     T01830100 $=
KOPF 231853Z 06010KT 10SM FEW045 FEW060 29/18 A3002 RMK AO2 SLP167
     T02890178=
KORL 231853Z 02008G14KT 10SM CLR 28/14 A3007 RMK AO2 SLP186
     T02830139=
KOSH 231853Z 13015G23KT 10SM CLR 23/13 A2980 RMK AO2 SLP084
     T02280128=
KOSU 231853Z 12012KT 10SM CLR 24/09 A3013 RMK AO2 SLP200
     T02440094=
KPRC 231853Z 34009KT 10SM SCT046 BKN060 09/01 A2984 RMK AO2 SLP059
     T00940011=
KPSC 231853Z 29005KT 10SM CLR 14/00 A3008 RMK AO2 SLP188 T01390000
     $=
