SAUS70 KWBC 231818 RRC
METAR
KSPF 231815Z AUTO 30019G24KT 10SM OVC017 07/03 A2936 RMK AO2=
KSTF 231815Z AUTO 18012KT 10SM CLR 25/11 A3010 RMK AO2=
KSUZ 231815Z AUTO 20010G22KT 10SM BKN040 BKN045 25/16 A2995 RMK
     A01=
KSYM 231815Z AUTO VRB06KT 10SM CLR 25/06 A3017 RMK AO2=
KT69 231815Z AUTO 17016G24KT 10SM FEW041 FEW049 SCT055 29/22 A2987
     RMK A01=
KTKX 231815Z AUTO 21018G25KT 8SM FEW050 27/15 A2997 RMK AO2
     TSNO=
KTOB 231815Z AUTO 14020G26KT 10SM CLR 23/12 A2958 RMK AO2=
KTSP 231815Z AUTO 28010G18KT 9SM CLR 09/M00 A2995 RMK AO2=
KTWT 231815Z AUTO 19018G23KT 10SM CLR 27/10 A3001 RMK AO2=
KU42 231815Z AUTO 33018G21KT 10SM SCT043 SCT049 BKN065 05/01 A2979
     RMK AO1 T00450013=
KUOX 231815Z AUTO 20007G18KT 160V260 10SM FEW045 25/13 A3008 RMK
     AO2 PWINO=
KUTA 231815Z AUTO 18014KT 10SM CLR 27/15 A3001 RMK AO2 T02730150
     $=
KVJI 231815Z AUTO 06003KT 10SM CLR 24/01 A3020 RMK AO2
     T02360006=
KW78 231815Z AUTO 32006KT 10SM CLR 18/06 A3019 RMK AO1
     T01760055=
KW81 231815Z AUTO 34006KT 10SM OVC025 17/06 A3018 RMK AO1
     T01700064=
KX07 231815Z AUTO 05006KT 10SM SCT048 SCT055 28/16 A3008 RMK
     A01=
KXNX 231815Z AUTO 22007G14KT 10SM CLR 26/07 A3014 RMK A01=
KY19 231815Z AUTO 07014KT 10SM CLR 12/06 A2931 RMK AO2=
KBVI 231815Z AUTO 14003KT 10SM CLR 24/02 A3021 RMK AO2
     T02390016=
KBVU 231815Z AUTO 31014G23KT 10SM CLR 17/M14 A2985 RMK AO2=
KBWW 231815Z AUTO 34008KT 10SM OVC014 07/05 A2936 RMK AO2=
KBXK 231815Z AUTO 27012G17KT 10SM FEW050 SCT065 SCT075 23/08 A2979
     RMK A01=
KCDA 231815Z AUTO 09003KT 10SM 18/06 A3035 RMK AO2 T01800059=
KCDI 231815Z AUTO 17003KT 10SM CLR 23/09 A3018 RMK AO2
     T02260090=
KCDN 231815Z AUTO 03005G14KT 10SM CLR 23/06 A3016 RMK AO2=
KCEY 231815Z AUTO 18013G27KT 140V210 10SM CLR 25/10 A3004 RMK
     A01=
KCFJ 231815Z AUTO 18017G24KT 10SM CLR 24/07 A2999 RMK AO2
     T02360068=
KCJR 231815Z AUTO 01007KT 10SM SCT023 BKN030 OVC038 18/10 A3023
     RMK AO2 T01810101=
KCKM 231815Z AUTO 17014G20KT 10SM CLR 28/14 A3002 RMK A01=
KCLS 231815Z AUTO 23003KT 10SM FEW006 08/07 A3016 RMK AO2=
KCMR 231815Z AUTO 28014G22KT 10SM FEW055 06/M01 A2986 RMK AO2=
KCPT 231815Z AUTO 18021G29KT 10SM FEW041 28/16 A2983 RMK A01=
KCTZ 231815Z AUTO 30008KT 10SM CLR 22/11 A3012 RMK AO2
     T02170105=
KD57 231815Z AUTO 05017KT 10SM CLR 12/03 A2931 RMK AO2=
KD60 231815Z AUTO 05016KT 10SM OVC008 05/05 A2949 RMK AO2=
KD95 231815Z AUTO 16009KT 10SM CLR 23/06 A3011 RMK AO2
     T02340061=
KDNA 231815Z AUTO 26023G32KT 10SM CLR 24/08 A2981 RMK AO2=
KDNN 231815Z AUTO VRB03KT 10SM CLR 22/03 A3019 RMK AO2
     T02220029=
KDRI 231815Z AUTO 16011KT 120V180 9SM SCT046 BKN060 28/17 A3000
     RMK AO2 T02770172 $=
KDYB 231815Z AUTO 36007G13KT 10SM CLR 23/11 A3014 RMK AO2=
KEFK 231815Z AUTO 02003KT 10SM CLR 19/06 A3033 RMK AO2
     T01900060=
KEKM 231815Z AUTO 16015G20KT 9SM CLR 24/14 A3000 RMK AO2
     T02440135=
KELK 231815Z AUTO 19021G30KT 9SM FEW210 SCT370 24/11 A2965 RMK AO2
     PK WND 19030/1805 SLP331 T02370114 $=
KEVU 231815Z AUTO 18021G28KT 10SM CLR 27/15 A2951 RMK AO2
     T02700152=
KEXX 231815Z AUTO 05005KT 10SM CLR 22/07 A3018 RMK AO2
     T02150067=
KEZF 231815Z AUTO 33005KT 10SM SCT017 OVC036 16/12 A3019 RMK AO2
     T01620120=
KFFX 231815Z AUTO 16008G16KT 10SM BKN060 24/12 A2997 RMK AO2
     T02430115=
KFKS 231815Z AUTO 18010KT 10SM CLR 23/12 A2994 RMK AO2
     T02290116=
KFSO 231815Z AUTO 21003KT 10SM CLR 20/04 A3030 RMK AO2
     T01990043=
KFVX 231815Z AUTO 36003KT 10SM OVC025 19/10 A3018 RMK AO2
     T01930102=
KFWB 231815Z AUTO 17009G17KT 100V200 10SM SCT100 26/14 A2982 RMK
     AO2=
