SAUS70 KWBC 231648
METAR
K04V 231635Z AUTO 19008G14KT 10SM -RA BKN020 BKN027 OVC050 06/03
     A2961 RMK AO2=
K5C1 231635Z AUTO 18012G21KT 160V220 10SM BKN029 BKN041 23/16
     A2992 RMK AO1=
K5SM 231638Z AUTO 23011KT 170V270 1/4SM SN OVC002 M03/M05 A2964
     RMK AO2=
K6P9 231635Z AUTO 19014G23KT 10SM CLR 25/16 A2983 RMK AO2
     T02470155=
KAXX 231635Z AUTO 23023G42KT 190V250 10SM BKN055 BKN065 BKN075
     10/M03 A2971 RMK AO2 T01021028=
KBMT 231635Z AUTO 14008G15KT 10SM SCT050 SCT060 28/17 A3000 RMK
     AO2 T02820165=
KCPW 231635Z AUTO M1/4SM +SN OVC001 M03/M03 A2967 RMK AO2
     P0002=
KDUX 231635Z AUTO 20031G37KT 10SM CLR 25/10 A2964 RMK AO2
     T02490095=
KE38 231635Z AUTO 22014G18KT 10SM CLR 24/07 A2998 RMK AO2
     T02420070=
KHCR 231635Z AUTO 34005KT 10SM BKN110 04/M03 A2967 RMK AO2=
KHVE 231635Z AUTO 08003KT 10SM SCT060 SCT110 06/02 A2964 RMK
     AO2=
KLMO 231635Z AUTO 36007KT 10SM CLR 19/M04 A2932 RMK AO2
     T01861036=
KPPA 231635Z AUTO 22019G27KT 10SM CLR 25/12 A2967 RMK AO2
     T02540121=
KT35 231635Z AUTO 17012G19KT 10SM BKN034 BKN040 BKN050 25/18 A2992
     RMK AO2 T02540176=
KXBP 231635Z AUTO 19019G25KT 10SM CLR 27/15 A2982 RMK AO2
     T02650153=
K2W6 231639Z AUTO 01004KT 10SM SCT040 OVC046 15/12 A3020 RMK
     AO1=
KCGE 231635Z AUTO 01008G14KT 10SM SCT120 17/14 A3018 RMK A01=
KDMW 231635Z AUTO 01005KT 10SM BKN037 17/10 A3026 RMK AO2=
KFME 231639Z AUTO 05004KT 10SM BKN050 OVC060 17/08 A3026 RMK
     AO1=
KIIB 231635Z AUTO 16020G25KT 10SM CLR 22/13 A2971 RMK AO2
     T02190134=
KMLE 231635Z AUTO 16018G25KT 10SM CLR 25/13 A2941 RMK AO2
     T02530129=
KPPQ 231635Z AUTO 17015G19KT 10SM SCT120 22/14 A2983 RMK AO2
     T02160143=
KRDK 231635Z AUTO 18020G34KT CLR 25/13 A2947 RMK AO2=
KSDA 231635Z AUTO 18025G32KT 10SM CLR 26/13 A2945 RMK AO2=
KUMP 231635Z AUTO 18011G18KT 10SM CLR 23/13 A3008 RMK AO2
     T02310132=
KW22 231635Z AUTO 00000KT 1 3/4SM HZ CLR 24/03 A3024 RMK AO2 VIS
     1V4=
KZER 231635Z AUTO 10009KT 10SM BKN025 BKN030 16/08 A3030 RMK
     AO2=
K6S8 231640Z AUTO 26015G22KT 10SM 04/M00 A2962 RMK A01 Laurel=
KTFP 231615Z AUTO 18014G22KT 10SM CLR 29/21 A2991 RMK AO2
     T02930212=
