SAUS70 KWBC 232122 RRA
METAR
K1A6 232115Z AUTO 00000KT 10SM CLR 23/04 A3014 RMK AO2
     T02280043=
K2G9 232115Z AUTO 00000KT 10SM CLR 15/02 A3023 RMK AO2=
K5C1 232115Z AUTO 16013G17KT 10SM BKN046 27/15 A2982 RMK AO1=
K5R8 232115Z AUTO 13012KT 10SM SCT036 BKN060 OVC070 27/18 A2996
     RMK AO2 T02720181=
K6P9 232115Z AUTO 18018G27KT 10SM CLR 29/13 A2973 RMK AO2
     T02920134=
KAFO 232115Z AUTO 32012G17KT 10SM SCT033 SCT040 OVC055 00/M07
     A2977 RMK AO2=
KAXX 232115Z AUTO 26015G26KT 2SM RA OVC014 02/00 A2974 RMK AO2
     P0001 T00190000=
KBHC 232115Z AUTO 00000KT 10SM CLR A3012 RMK AO2=
KBIJ 232115Z AUTO 00000KT 10SM CLR 25/01 A3011 RMK AO2=
KBMT 232115Z AUTO 15008KT 10SM SCT025 SCT035 OVC048 24/21 A2993
     RMK AO2 T02440210=
KCCO 232115Z AUTO 00000KT 10SM CLR 23/02 A3015 RMK AO2
     T02300021=
KCPW 232115Z AUTO 3SM -SN OVC003 M09/M09 A2969 RMK AO2=
KCQB 232115Z AUTO 17015G26KT 7SM CLR 28/15 A2965 RMK AO2
     T02810149=
KCTJ 232115Z AUTO 00000KT 10SM CLR 22/04 A3018 RMK AO2
     T02180038=
KCZT 232115Z AUTO 16009G15KT 10SM CLR 31/16 A2974 RMK AO2=
KDED 232115Z AUTO 04010KT 10SM CLR 26/16 A3009 RMK AO2
     T02560158=
KDPL 232115Z AUTO 36009KT 10SM OVC029 21/13 A3011 RMK AO2=
KDQH 232115Z AUTO 05003KT 10SM CLR 25/10 A3013 RMK AO2
     T02520096=
KDUX 232115Z AUTO 20030G35KT 10SM CLR 26/08 A2954 RMK AO2
     T02580081=
KE38 232115Z AUTO 21010G18KT 10SM CLR 28/05 A2987 RMK AO2
     T02770047=
KETN 232115Z AUTO 17019G25KT 10SM CLR 29/14 A2972 RMK AO2
     T02950140=
KFQD 232115Z AUTO 12005KT 10SM CLR 22/04 A3016 RMK AO2=
KFXY 232115Z AUTO 14022G28KT 10SM SCT047 25/13 A2950 RMK AO2=
KFYJ 232115Z AUTO 35003KT 10SM BKN019 BKN027 16/13 A3014 RMK AO1
     T01550127=
KGEV 232115Z AUTO 00000KT 10SM CLR 17/03 A3021 RMK AO2
     T01720032=
KGLW 232115Z AUTO 20005KT 10SM CLR 25/08 A3007 RMK AO2
     T02460082=
KHCR 232115Z AUTO 30007KT 260V320 10SM SCT035 SCT060 OVC090 05/M06
     A2977 RMK AO2=
KAHQ 232115Z AUTO 19020G36KT 7SM CLR 30/11 A2932 RMK AO2
     T02960112=
KBBB 232117Z AUTO 17020G30KT 10SM CLR 24/12 A2935 RMK AO2=
KFFL 232115Z AUTO 16022G32KT 10SM CLR 26/14 A2960 RMK A01=
KFKR 232115Z AUTO 17015G21KT 10SM CLR 24/10 A2996 RMK AO2=
KFOA 232115Z AUTO 17023G27KT 10SM CLR 26/13 A2992 RMK AO2=
KGBG 232115Z AUTO 17018G24KT 10SM CLR 24/16 A2972 RMK AO2
     T02380155=
KGGP 232115Z AUTO 16017G23KT 10SM CLR 25/09 A2998 RMK AO2=
KGWB 232115Z AUTO 18006KT 10SM CLR 23/10 A3003 RMK AO2=
KHDE 232115Z AUTO 22022G34KT 7SM BKN035 OVC044 30/02 A2922 RMK AO2
     T02990017=
KHHG 232115Z AUTO 18012G17KT 10SM CLR A3001 RMK AO2=
KHMZ 232115Z AUTO 13003KT 10SM SCT033 18/07 A3022 RMK AO2
     T01840073=
KHNR 232115Z AUTO 17028G36KT 9SM CLR 29/16 A2936 RMK A01=
KHPT 232115Z AUTO 15018G24KT 10SM SCT032 SCT046 SCT120 23/13 A2954
     RMK AO2=
KI63 232115Z AUTO 16019G25KT 10SM CLR 24/14 A2973 RMK AO2
     T02400140=
KI74 232115Z AUTO 15007KT 10SM CLR 22/09 A3009 RMK AO2=
KIKK 232115Z AUTO 19016G28KT 10SM CLR 25/12 A2988 RMK AO2
     T02510115=
KLNN 232115Z AUTO 14006KT 10SM CLR 22/01 A3012 RMK AO1
     T02200006=
KMWO 232115Z AUTO 17009KT 10SM CLR 25/07 A3007 RMK AO2
     T02470068=
KN03 232115Z AUTO 13005KT 10SM CLR 17/08 A3026 RMK AO2=
KPMV 232115Z AUTO 17026G35KT 10SM BKN120 29/14 A2938 RMK AO2
     T02850136=
KRPJ 232115Z AUTO 17019G30KT 10SM SCT046 SCT110 23/15 A2979 RMK
     AO2 T02320153 TSNO=
KRSV 232115Z AUTO 18014G22KT 10SM CLR 25/09 A2995 RMK AO2
     T02510094=
KTME 232115Z AUTO 17014G20KT 10SM BKN060 BKN070 30/16 A2987 RMK
     AO2=
KTYQ 232115Z AUTO 17015G23KT 10SM CLR 25/10 A2999 RMK AO2
     T02450099=
