SAUS80 KWBC 231914
METAR
KGNT 231915Z AUTO 32009KT 10SM -RA SCT022 BKN048 OVC055 09/05
     A2981 RMK AO2 T00880052=
KSVE 231915Z AUTO 05008KT 10SM OVC060 M22/M55 A3007 RMK AO2=
