SAUS70 KWBC 232000 RRO
METAR
KT35 231955Z AUTO 17015G21KT 10SM BKN050 OVC055 29/17 A2981 RMK
     AO2 T02930169=
KTAZ 231955Z AUTO 18020G28KT 10SM CLR 24/14 A2984 RMK AO2
     T02370141=
KTBR 231955Z AUTO 33005KT 10SM CLR 25/08 A3013 RMK AO2
     T02450082=
KTIF 231955Z AUTO 27022G29KT 10SM CLR 27/01 A2919 RMK AO2
     T02660005=
KTIP 231955Z AUTO 18025G32KT 10SM BKN047 25/13 A2990 RMK AO2
     T02520130=
KTQK 231955Z AUTO 22037G46KT 1 1/2SM HZ SCT015 SCT021 OVC027 29/00
     A2933 RMK AO2 T02921001=
KTVI 231955Z AUTO 03005KT 10SM CLR 25/07 A3012 RMK AO2=
KUNI 231955Z AUTO 12006KT 2SM HZ CLR 25/06 A3013 RMK AO2
     T02530056=
KVDI 231955Z AUTO 05005KT 10SM CLR 26/10 A3014 RMK AO2=
KVPC 231955Z AUTO 08004KT 10SM CLR 24/02 A3015 RMK AO2=
KVUJ 231955Z AUTO 02008KT 10SM CLR 23/05 A3019 RMK AO2
     T02270048=
KW22 231955Z AUTO 00000KT 10SM CLR 23/02 A3018 RMK AO2=
KWDR 231955Z AUTO 00000KT 10SM CLR 23/00 A3017 RMK AO2=
KXBP 231955Z AUTO 17019G24KT 10SM CLR 30/14 A2972 RMK AO2
     T03010136=
KZER 231955Z AUTO 10006KT 10SM BKN042 OVC055 15/09 A3027 RMK
     AO2=
KHCR 231955Z AUTO 01008KT 10SM BKN055 BKN065 BKN080 04/M03 A2973
     RMK AO2=
KHHW 231955Z AUTO 17014G25KT 10SM OVC045 27/16 A2980 RMK AO2=
KI75 231955Z AUTO 16015G25KT 10SM SCT090 SCT110 27/14 A2953 RMK
     AO2 T02710144=
KIIB 231955Z AUTO 15021G27KT 10SM 23/14 A2963 RMK AO2
     T02300137=
KIJX 231955Z AUTO 16017G23KT 10SM CLR 24/14 A2978 RMK AO2
     T02370144=
KJST 231954Z COR 10SM=
KLMO 231955Z AUTO 23005KT 5SM HZ BKN110 19/M05 A2934 RMK AO2
     T01911052=
KLUV 231955Z AUTO 21018G28KT 10SM CLR 30/10 A2969 RMK AO2=
KMEI 231958Z 16008G17KT 130V190 10SM CLR 27/11 A3008 RMK AO2
     SLP182 T02670106=
KMLE 231955Z AUTO 16020G27KT 10SM CLR 30/13 A2934 RMK AO2
     T02960128=
KMQB 231955Z AUTO 17019G29KT 10SM CLR 24/13 A2975 RMK AO2
     T02420125=
KMRH 231958Z AUTO 32010KT 6SM BR FEW007 SCT013 OVC024 17/16 A3006
     RMK AO2 RAB10E46 SLP181 P0010 T01670156=
KNOW 231955Z AUTO 04006KT 10SM SCT070 10/08 A3015 RMK AO2
     T01020079=
KNRN 231955Z AUTO 24027G32KT 7SM SCT032 SCT038 BKN120 31/03 A2927
     RMK AO2=
KORG 231955Z AUTO 14008G16KT 10SM OVC050 29/20 A2997 RMK AO2
     T02870195=
KPPA 231955Z AUTO 22021G26KT 10SM CLR 27/11 A2959 RMK AO2
     T02680112=
KPPQ 231955Z AUTO 17019G25KT 10SM CLR 26/15 A2975 RMK AO2
     T02560152=
KPTT 231955Z AUTO 19030G38KT 5SM HZ CLR 31/11 A2942 RMK AO2
     T03060106=
KRBO 231955Z AUTO 10SM SCT001 SCT035 BKN042 30/21 A2981 RMK AO2
     T02970207=
KRCR 231955Z AUTO 17015G23KT 10SM CLR 24/11 A2997 RMK AO2=
KRCV 231955Z AUTO 23020G26KT 10SM SCT060 BKN070 BKN080 07/M04
     A2961 RMK AO2 T00731036=
KRDK 231955Z AUTO 18025G34KT CLR 29/14 A2941 RMK AO2=
KREG 231955Z AUTO 14009G14KT 10SM SCT049 OVC060 27/15 A3003 RMK
     AO2 T02730150=
KSBO 231955Z AUTO 00000KT 10SM CLR 25/09 A3015 RMK AO2=
KSBS 231955Z AUTO 24010G14KT 1 1/2SM OVC003 M01/M01 A2956 RMK AO1
     T10061006=
KSDA 231955Z AUTO 17028G41KT 10SM CLR 30/14 A2939 RMK AO2=
KSEF 231955Z AUTO 01006KT 10SM SCT049 BKN060 27/17 A3005 RMK AO2
     T02720170=
KSHL 231955Z AUTO 15024G36KT 10SM CLR 27/12 A2931 RMK AO2=
KSJS 231955Z AUTO 07003KT 10SM CLR 24/07 A3015 RMK AO2
     T02400071=
KSLB 231955Z AUTO 17026G37KT 10SM CLR 26/13 A2939 RMK AO2=
KSNL 231955Z AUTO 18017G28KT 10SM CLR 28/12 A2967 RMK AO2
     T02800120=
K04V 231955Z AUTO 25025G45KT 10SM CLR 11/M10 A2957 RMK AO2=
K17J 231955Z AUTO 04007KT 020V080 10SM CLR 25/04 A3012 RMK AO2
     T02540035=
K1A6 231955Z AUTO 00000KT 10SM CLR 23/04 A3015 RMK AO2
     T02300044=
