SAUS70 KWBC 231900 RRD
METAR
KHCD 231855Z AUTO 13021KT 10SM CLR 24/12 A2947 RMK AO2
     T02400122=
KHLB 231855Z AUTO 19008G17KT 10SM FEW055 24/09 A3008 RMK A01=
KHSB 231855Z AUTO 19018G27KT 10SM BKN049 26/17 A2998 RMK AO2
     T02640167=
KHZX 231855Z AUTO 12011G17KT 10SM CLR 22/12 A2957 RMK AO2=
KIGQ 231855Z AUTO 19023G28KT 10SM CLR 25/13 A2990 RMK AO2
     T02530134=
KJPX 231855Z AUTO 04007KT 10SM -RA SCT011 BKN035 OVC055 14/14
     A3025 RMK AO2 P0038 T01350135=
KMOP 231855Z AUTO 16015G23KT 10SM SCT060 24/10 A3002 RMK AO2
     T02360099=
KOXI 231855Z AUTO 18020G32KT 10SM CLR 25/11 A2995 RMK AO1=
KTVF 231856Z AUTO 08013KT 10SM CLR 22/12 A2947 RMK AO2 SLP982
     T02220117=
KUCP 231856Z AUTO 17005KT 10SM CLR 22/04 A3020 RMK AO2 SLP239
     T02220039=
KYKN 231856Z AUTO 16020G32KT 10SM CLR 28/11 A2924 RMK AO2 PK WND
     15032/1847 SLP903 T02830111=
KBDU 231855Z AUTO 22013G16KT 10SM CLR 18/M03 A2932 RMK AO2=
KBKD 231855Z AUTO 18016G24KT 10SM CLR 30/14 A2973 RMK AO2
     T02950143=
KCVO 231856Z AUTO 15003KT 10SM CLR 13/07 A3020 RMK AO2 SLP227
     T01280072=
KCXP 231855Z AUTO 06006G11KT 10SM FEW045 BKN060 07/M06 A3006 RMK
     AO2=
KDTA 231855Z AUTO 33009G16KT 10SM SCT037 SCT044 SCT070 04/M02
     A2985 RMK AO1=
KEAT 231855Z AUTO 24003KT 10SM CLR 09/M01 A3005 RMK AO2 SLP181
     T00941011=
KECS 231855Z AUTO 33024G31KT 10SM OVC009 03/00 A2940 RMK AO2=
KEIK 231855Z AUTO 00000KT 10SM CLR 19/M04 A2932 RMK AO2 T01851039
     PWINO=
KERV 231855Z AUTO 16020G26KT 10SM SCT039 28/16 A2985 RMK AO2
     T02750162=
KF05 231855Z AUTO 18017G22KT 10SM CLR 32/13 A2964 RMK AO2
     T03220130=
KF44 231855Z AUTO 17014G21KT 10SM BKN048 28/16 A2986 RMK AO2=
KFLY 231855Z AUTO 26015G24KT SCT070 SCT110 16/M01 A2948 RMK AO2
     T01571013 PWINO=
KFTN 231855Z AUTO 13009G17KT 10SM CLR 28/18 A2981 RMK A01=
KLNC 231855Z AUTO 18022G27KT 10SM BKN049 28/15 A2984 RMK AO2
     T02840152=
KLXY 231855Z AUTO 17022G30KT 10SM SCT060 29/16 A2986 RMK AO2
     T02880155=
KM75 231855Z AUTO 01014G20KT 1 1/2SM BR VV007 01/01 A2963 RMK A01
     P0005=
KMHV 231900Z AUTO 28013G21KT 10SM CLR 17/M04 A2989 RMK A01=
KGGI 231855Z AUTO 15020G27KT 10SM CLR 24/15 A2961 RMK AO2
     T02440146=
KMOX 231855Z AUTO 13028G32KT 10SM CLR 23/09 A2938 RMK AO2=
KMUT 231855Z AUTO 16020G28KT 10SM CLR 25/14 A2969 RMK AO2=
KMZH 231855Z AUTO 13005G14KT 10SM CLR 23/11 A2959 RMK AO2=
KN38 231855Z AUTO 18008KT 10SM CLR 17/03 A3026 RMK AO2=
KOTG 231856Z AUTO 15020G32KT 10SM CLR 24/13 A2938 RMK AO2 PK WND
     15032/1850 SLP945 T02390128=
KOXV 231855Z AUTO 17022G33KT 10SM CLR 26/13 A2955 RMK AO2=
KPCW 231855Z AUTO 17012G17KT 10SM CLR 25/09 A3010 RMK AO2=
KPHL 231854Z 04012KT 10SM FEW027 BKN044 BKN095 OVC140 17/13 A3022
     RMK AO2 RAB24E44 SLP231 P0000 T01670128 $=
KPNM 231855Z AUTO 11011G21KT 10SM CLR 24/13 A2953 RMK AO2 TSNO=
KPRO 231855Z AUTO 17025G28KT 10SM CLR 27/13 A2948 RMK AO2
     T02690127=
KPTD 231855Z AUTO 03005KT 10SM CLR 21/04 A3026 RMK AO2=
KRQB 231855Z AUTO 17013G22KT 120V190 10SM CLR 24/11 A2998 RMK AO2
     T02400111=
KRRT 231855Z AUTO 04011G18KT 10SM CLR 12/09 A2957 RMK AO2=
KSAR 231855Z AUTO 19022G27KT 10SM OVC037 24/15 A2991 RMK AO2
     T02410150=
KSGH 231856Z AUTO 18009G15KT 10SM BKN055 24/10 A3012 RMK AO2
     SLP197 T02440100=
KSLO 231855Z AUTO 17015G24KT 10SM BKN038 25/15 A2993 RMK AO2
     T02500145=
KTNU 231855Z AUTO 15023G30KT 10SM CLR 25/14 A2955 RMK A01=
KUSE 231855Z AUTO 20013G22KT 10SM FEW055 24/10 A3008 RMK AO2=
KXLL 231855Z AUTO 03008KT 10SM CLR 17/08 A3026 RMK AO2=
KY31 231855Z AUTO 14008G16KT 110V170 10SM OVC050 23/10 A3004 RMK
     AO2 T02320103=
