SAUS70 KWBC 231800 RRI
METAR
KOLY 231755Z AUTO 17017G23KT 10SM BKN047 25/11 A2998 RMK AO2
     T02540110 10257 20180=
KOQN 231755Z AUTO 04007KT 10SM SCT110 17/10 A3024 RMK AO2=
KPEZ 231755Z AUTO 15011G18KT 10SM SCT038 SCT046 30/19 A2987 RMK
     AO2 T02960186 10296 20190=
KPHN 231755Z AUTO 18012G19KT 10SM CLR 24/08 A3013 RMK AO2=
KPMV 231755Z AUTO 18023G30KT 10SM CLR 27/13 A2943 RMK AO2
     T02710127 10275 20171=
KPPO 231755Z AUTO 18016G21KT 10SM CLR 24/16 A2996 RMK AO2
     T02430156 10243 20142=
KPRG 231755Z AUTO 17022G27KT 10SM SCT110 26/14 A2998 RMK AO2
     T02560141 10256 20168=
KPSO 231755Z AUTO 24017G29KT 10SM SCT021 BKN048 OVC070 05/01 A2970
     RMK AO2 T00460008 10092 20035=
KRAS 231755Z AUTO 15014G19KT 10SM OVC060 A2992 RMK AO2=
KRDM 231756Z 00000KT 10SM FEW028 08/00 A3008 RMK AO2 SLP191 60000
     T00780000 10078 21017 51021 $=
KRPJ 231755Z AUTO 17017G25KT 10SM CLR 24/15 A2984 RMK AO2
     T02350152 10235 20137 TSNO=
KRSV 231755Z AUTO 19023G28KT 10SM CLR 26/11 A3000 RMK AO2
     T02570106 10257 20165=
KRVJ 231755Z AUTO 11005KT 10SM CLR 25/12 A3015 RMK AO2 T02460118
     10259 20058=
KRWV 231755Z AUTO 19013KT 10SM SCT042 SCT049 OVC055 28/17 A2991
     RMK AO2 T02760173 10285 20174=
KRYW 231755Z AUTO 19015G21KT 10SM SCT044 27/16 A2990 RMK AO2
     T02670156 10269 20206=
KSAA 231755Z AUTO 27007KT 10SM OVC036 00/M03 A2957 RMK AO2=
KSLE 231756Z 18007KT 10SM OVC055 11/07 A3016 RMK AO2 SLP215 60000
     T01060072 10106 20061 51021=
KSME 231755Z AUTO 15008KT 110V170 10SM CLR 24/06 A3014 RMK AO2=
KBAF 231753Z 36007KT 10SM FEW110 13/06 A3031 RMK AO2 SLP268
     T01330061 10133 20056 58017=
KCKV 231752Z AUTO 18013G18KT 10SM CLR 26/08 A3008 RMK AO2 SLP181
     T02610083 10267 20133 58019=
KFFZ 231754Z 25011G20KT 10SM CLR 21/08 A2978 RMK AO2 SLP065
     T02110083 10222 20200 51010=
KHFF 231755Z AUTO 06010KT 10SM CLR 22/07 A3014 RMK AO2 SLP208
     T02200070 10220 20076 57016 $=
KHPN 231756Z 04007KT 10SM -RA BKN110 16/07 A3026 RMK AO2
     DZE53RAB53 SLP247 P0000 60000 T01560072 10161 20128 56014
     $=
KHWV 231756Z AUTO VRB03KT 10SM SCT065 BKN110 14/11 A3026 RMK AO2
     RAE35 SLP247 P0001 60003 T01390106 10156 20139 55012=
KISP 231756Z 04010KT 10SM BKN065 OVC110 14/11 A3025 RMK AO2 RAE52
     SLP243 P0001 60003 T01440111 10161 20139 55013=
KROG 231758Z 10SM FEW110 26/15 A2982 RMK AO2 SLP084 T02610150
     10267 20194 58009 $=
KTTS 231755Z AUTO 01008KT 10SM CLR 26/15 A3007 RMK AO2 VIS 5/8
     RWY15/33 SLP187 T02590153 10262 20175 58013 $=
KEGE 231756Z 29004KT 10SM -RA BKN021 OVC037 04/01 A2959 RMK AO2
     RAB19 SLP957 P0000 60041 T00440011 10056 20022 51008=
KM75 231755Z AUTO 01011KT 4SM BR CLR 02/02 A2962 RMK A01 P0005=
KMHV 231800Z AUTO 25016G21KT 10SM CLR 14/M01 A2989 RMK A01=
KOTH 231756Z 14006KT 10SM CLR 11/09 A3022 RMK AO2 SLP232 60001
     T01060094 10106 20061 51020=
KP08 231755Z AUTO 27011KT 10SM BKN050 BKN060 21/11 A2980 RMK
     AO2=
KPKV 231755Z AUTO 16019G24KT 10SM SCT034 BKN055 OVC065 29/20 A2992
     RMK AO2 T02890200 10301 20216=
KPRS 231755Z AUTO 18010KT 10SM CLR 29/11 A2985 RMK AO2 T02900106
     10290 20178=
KPWT 231756Z AUTO 20004KT 1/4SM FG OVC002 07/07 A3014 RMK AO2
     SLP216 T00670067 10072 20000 53019=
KPYX 231755Z AUTO 22025G39KT 4SM CLR 29/07 A2955 RMK AO2 T02910073
     10291 20170=
KRTS 231755Z AUTO VRB04KT 10SM BKN038 BKN046 OVC055 04/M07 A3005
     RMK AO2=
K0A0 231755Z AUTO 23021G31KT 10SM CLR 20/05 A2980 RMK AO2=
K1V6 231755Z AUTO 22017G21KT 10SM SCT060 SCT070 SCT080 19/01 A2942
     RMK AO2=
K5T9 231755Z AUTO 14006G13KT 10SM FEW025 27/20 A2980 RMK A01=
