SAUS70 KWBC 231800 RRC
METAR
KIRS 231755Z AUTO 18015G25KT 10SM CLR 23/10 A3003 RMK AO2
     T02310096 10231 20135=
KJRB 231756Z AUTO 03010KT 10SM UP FEW030 BKN042 OVC050 A3027 RMK
     AO2 RAE39UPB1659E06B39 SLPNO P0000 60000 56007 FZRANO $=
KLCI 231756Z AUTO 00000KT 10SM CLR 15/07 A3035 RMK AO2 SLP280
     T01500072 10150 20044 58017=
KMNM 231756Z AUTO 18010G15KT 10SM CLR 17/12 A2990 RMK AO2 SLP126
     6//// T01720117 10178 20111 58011 PNO $=
KWVL 231756Z AUTO 00000KT 10SM CLR 16/08 A3034 RMK AO2 SLP302
     T01560083 10161 20061 58014=
K0S9 231755Z AUTO 13005KT 10SM CLR 11/06 A3011 RMK AO2=
KALM 231755Z AUTO 24015KT 10SM 24/07 A2981 RMK AO2=
KAPC 231754Z 35017KT 10SM CLR 20/01 A3000 RMK AO2 SLP149 T02000006
     10200 20028 50010=
KATA 231755Z AUTO 18009G18KT 140V210 10SM OVC042 27/17 A2993 RMK
     AO2 SLP033 T02690170 $=
KATS 231755Z AUTO 23025KT 10SM CLR 25/11 A2973 RMK AO2=
KCGZ 231756Z AUTO 27016KT 10SM OVC070 22/08 A2980 RMK AO2 SLP080
     6//// T02220083 10222 20189 51003 $=
KHND 231756Z 35012G17KT 10SM CLR 16/M09 A2988 RMK AO2 SLP121
     T01561089 10156 20128 51019=
KLLJ 231755Z AUTO 33013G16KT 10SM OVC055 03/M08 A2984 RMK AO2
     SLP110 T00331078 10033 21017 51016 $=
KMLP 231753Z AUTO 00000KT 1/4SM HZ VV001 M01/M03 A2989 RMK AO2 VIS
     M1/4V1 1/4 SNE11 SLP100 P0000 60005 T10061033 10000 21022
     51023=
KMRY 231754Z 33005KT 10SM CLR 14/06 A3002 RMK AO2 SLP176 T01440061
     10144 20078 51019=
KO22 231755Z AUTO VRB03KT 10SM CLR 15/M03 A2994 RMK A01=
KO32 231755Z AUTO VRB04KT 10SM CLR 15/03 A2994 RMK AO2 T01490034
     $=
KORS 231755Z AUTO 18007KT 10SM BKN012 10/09 A3012 RMK AO2
     P0003=
KPVF 231755Z AUTO 27003KT 10SM CLR 13/M04 A2997 RMK AO1=
KRBL 231754Z AUTO 34014KT 10SM CLR 17/M01 A3007 RMK AO2 SLP179
     T01671011 10172 20100 50014=
KRPH 231755Z AUTO 17013G21KT 10SM CLR 28/15 A2974 RMK AO2
     T02840151 $=
KBYS 231755Z AUTO 35010KT 10SM CLR 16/M10 A2985 RMK AO2 SLP094
     T01601098 10161 20083 50016=
KBKS 231755Z AUTO 15020KT 10SM SCT045 31/20 A2984 RMK AO2 SLP064
     T03110197 $=
KBVU 231755Z AUTO 30012G21KT 10SM CLR 17/M12 A2985 RMK AO2=
KBXK 231755Z AUTO 25010KT 10SM FEW050 SCT075 23/09 A2979 RMK
     A01=
KCMR 231755Z AUTO 27014KT 10SM SCT040 SCT047 SCT060 05/M01 A2985
     RMK AO2=
KGUC 231756Z AUTO 21009G15KT 10SM UP FEW010 SCT018 BKN030 02/00
     A2961 RMK AO2 RAE25B43E52UPB52 SLP994 P0000 60025 T00220000
     10072 20011 53009 FZRANO=
KILE 231756Z AUTO 18018G29KT 10SM BKN043 28/16 A2987 RMK AO2 PK
     WND 16029/1748 SLP103 T02780161 10278 20217 58010=
KL08 231755Z AUTO VRB04KT 9SM CLR 22/00 A2980 RMK AO2=
KL52 231755Z AUTO 32007G13KT 9SM CLR 18/05 A2993 RMK A01=
KLPC 231756Z AUTO 33010G16KT 10SM CLR 19/04 A2992 RMK AO2 SLP132
     T01890044 10189 20061 50009=
KLRD 231756Z 16018G22KT 10SM CLR 31/18 A2981 RMK AO2 PK WND
     14027/1718 SLP091 T03060183 10306 20206 58013=
KLRU 231755Z AUTO 25021G31KT 10SM SCT055 BKN070 OVC080 22/06 A2984
     RMK AO2 T02200062 10226 20170=
KMAN 231755Z AUTO 31015KT 10SM CLR 08/M00 A2999 RMK A01=
KPAN 231755Z AUTO 20010G17KT 10SM FEW016 SCT023 BKN029 11/06 A2986
     RMK AO2 PWINO TSNO=
KSXU 231755Z AUTO 21021G32KT 10SM SCT085 24/03 A2965 RMK AO2
     T02370032 10237 20136=
KTME 231755Z AUTO 17015G21KT 10SM BKN060 30/16 A2994 RMK AO2=
KBAC 231755Z AUTO 10019G25KT 9SM CLR 16/09 A2940 RMK AO2=
KBWP 231755Z AUTO 13020KT 10SM CLR 23/12 A2936 RMK AO2=
KBWW 231755Z AUTO 03015KT 10SM OVC013 07/05 A2933 RMK AO2=
KCFJ 231755Z AUTO 16020G24KT 10SM CLR 24/07 A3000 RMK AO2
     T02350070 10237 20140=
KD57 231755Z AUTO 06016KT 10SM CLR 11/03 A2932 RMK AO2=
