SAUS70 KWBC 231900 RRO
METAR
KE41 231855Z AUTO 18015G23KT 10SM CLR 25/15 A2980 RMK AO2
     T02500150=
KECU 231855Z AUTO 15018G27KT 10SM CLR 25/16 A2988 RMK AO2=
KGCD 231855Z AUTO 28005KT 10SM SCT037 OVC045 04/00 A3006 RMK AO2
     T00350000=
KGEU 231855Z 22011KT 10SM SCT050 BKN080 BKN200 23/09 A2976=
KGOP 231855Z AUTO 10SM FEW045 FEW090 FEW110 28/15 A2983 RMK
     AO2=
KGVT 231855Z AUTO 17023G29KT 10SM BKN045 29/16 A2984 RMK AO2 TSNO
     T02860157=
KHII 231855Z AUTO 32016G21KT 10SM CLR 23/M04 A2978 RMK AO2=
KJAS 231855Z AUTO 16012KT 120V190 9SM SCT045 SCT055 BKN065 28/18
     A2994 RMK AO2=
KMNH 231855Z AUTO 26023G29KT 10SM CLR 14/00 A2947 RMK AO2=
K2R9 231855Z AUTO 15015G20KT 10SM SCT050 31/17 A2984 RMK AO2
     T03060173=
K2V5 231855Z AUTO 21024G35KT 10SM CLR 27/M05 A2923 RMK AO2=
K5SM 231855Z AUTO 1/4SM SN OVC002 M04/M06 A2964 RMK AO2 LTG DSNT
     W=
K7BM 231855Z AUTO 23009G19KT 10SM SCT026 BKN032 OVC038 01/M03
     A2958 RMK AO2=
KC07 231855Z AUTO 00000KT 3/4SM -SN OVC003 M02/M02 A2958 RMK
     AO2=
KCCU 231855Z AUTO 28006G17KT 7SM -SN SCT003 BKN022 OVC029 M01/M05
     A2962 RMK AO2=
KFFZ 231854Z 27013G18KT 10SM FEW038 22/09 A2977 RMK AO2 SLP061
     T02220089=
KFMM 231855Z AUTO 01014G23KT 10SM CLR 21/M00 A2929 RMK AO2=
KPEZ 231855Z AUTO 15013G18KT 10SM BKN045 BKN050 30/18 A2983 RMK
     AO2 T02960179=
KPLU 231855Z AUTO 00000KT 10SM BKN017 BKN022 BKN026 11/07 A3016
     RMK AO2=
KPNA 231855Z AUTO 29023G28KT 10SM CLR 01/M07 A2961 RMK AO2=
KAFK 231855Z AUTO 19024G34KT 10SM CLR 30/13 A2942 RMK AO2
     T02950130=
KAIO 231855Z AUTO 19023G35KT 7SM CLR 27/15 A2943 RMK AO2=
KAJG 231855Z AUTO 17021G26KT 10SM CLR 27/10 A2997 RMK AO2
     T02730103=
KASW 231855Z AUTO 18012G17KT 150V210 10SM BKN050 23/11 A3001 RMK
     AO2 T02360116=
KAWG 231855Z AUTO 15022G28KT 10SM CLR 24/15 A2965 RMK AO2=
KAXA 231855Z AUTO 15024G34KT 10SM CLR 25/14 A2945 RMK A01=
KBJI 231855Z AUTO 12016G20KT 10SM CLR 21/11 A2951 RMK AO2
     T02050109=
KBUU 231855Z AUTO 17007G15KT 140V210 10SM CLR 24/13 A2983 RMK AO2
     T02390132 PWINO=
KC65 231855Z AUTO 18015G27KT 10SM FEW050 25/12 A2997 RMK A01=
KCAV 231855Z AUTO 15023G33KT 10SM CLR 25/15 A2950 RMK A01=
KCBF 231855Z AUTO 19022G32KT 9SM CLR 29/10 A2937 RMK AO2=
KCIN 231855Z AUTO 18025G33KT 10SM CLR 27/14 A2943 RMK AO2=
KCNC 231855Z AUTO 18022KT 10SM CLR 27/15 A2954 RMK AO2=
KDKB 231855Z AUTO 16021G28KT 7SM CLR 24/15 A2984 RMK AO2
     T02360152=
KFEP 231855Z AUTO 17014G25KT 10SM CLR 24/16 A2979 RMK AO2
     T02390156=
KGBG 231855Z AUTO 16016G23KT 10SM CLR 23/15 A2976 RMK AO2
     T02310152=
KGGF 231855Z AUTO 31017G24KT 10SM CLR 25/M02 A2920 RMK AO2=
KGGP 231855Z AUTO 16017G21KT 10SM SCT050 25/10 A3000 RMK AO2=
KGHG 231855Z AUTO VRB05KT 10SM CLR 14/12 A3031 RMK AO2=
KHHG 231855Z AUTO 18010G19KT 10SM SCT055 A3004 RMK AO2=
KHPT 231855Z AUTO 16014G23KT 10SM CLR 25/12 A2956 RMK AO2=
KI63 231855Z AUTO 16017G25KT 10SM CLR 24/14 A2975 RMK AO2
     T02400140=
KI74 231855Z AUTO 16007KT 10SM OVC060 22/10 A3012 RMK AO2=
KIKV 231855Z AUTO 17015G28KT 10SM CLR 26/14 A2952 RMK AO2=
KJOT 231855Z AUTO 18016G25KT 10SM CLR 26/14 A2986 RMK AO2
     T02580140=
KLRJ 231855Z AUTO 17025G35KT 10SM CLR 27/12 A2930 RMK AO2=
KLXN 231855Z AUTO 22029G37KT 5SM HZ CLR 30/02 A2922 RMK AO2
     T03020015=
K66R 231855Z AUTO 17011G18KT 10SM SCT045 BKN060 OVC065 29/17 A2989
     RMK AO2 T02880174=
KAUN 231855Z AUTO 28008G14KT 260V320 10SM CLR 17/M05 A2996 RMK
     A01=
KBDG 231855Z AUTO 25012G23KT 10SM 06/M03 A2977 RMK AO1
     T00631035=
KBVS 231855Z AUTO 22004KT 10SM SCT013 SCT021 BKN047 10/08 A3016
     RMK A01=
