SAUS70 KWBC 232034
METAR
K2C8 232035Z AUTO 05008G15KT 10SM CLR 18/09 A2945 RMK AO2=
KCLK 232035Z AUTO 17020G26KT 10SM CLR 27/12 A2961 RMK AO2=
KD50 232035Z AUTO 03014G19KT 10SM OVC012 05/03 A2953 RMK AO2=
KFRR 232035Z AUTO 00000KT 10SM OVC040 17/08 A3021 RMK AO1=
KLQK 232035Z AUTO 10SM CLR 24/03 A3015 RMK AO2 T02440030=
KY51 232035Z AUTO 15016G25KT 10SM CLR 23/15 A2966 RMK AO1
     T02320145=
K1S5 232035Z AUTO 11003KT 10SM CLR 13/02 A3009 RMK AO2
     T01340020=
KJXI 232035Z AUTO 16008G19KT 10SM SCT055 28/13 A2985 RMK AO2
     T02760130=
KMCJ 232035Z AUTO 17023G34KT 10SM FEW055 28/14 A2986 RMK A01=
KEFT 232035Z AUTO 17020G30KT 10SM SCT042 24/13 A2975 RMK AO2
     T02400128=
KETB 232035Z AUTO 13009G18KT 10SM CLR 20/12 A2982 RMK AO2=
KFRH 232035Z AUTO 17008G14KT 10SM CLR 25/06 A3002 RMK AO1=
KOIC 232035Z AUTO 16005KT 10SM CLR 18/10 A3029 RMK AO2
     T01770099=
KPBH 232035Z AUTO 15018G21KT 10SM SCT045 22/13 A2970 RMK AO2
     T02190126=
KPDC 232035Z AUTO 13013G19KT 10SM CLR 25/12 A2964 RMK AO2
     T02450118=
KRRL 232035Z AUTO 15012G23KT 10SM SCT042 23/13 A2973 RMK AO2
     T02260127 TSNO=
KSUW 232035Z AUTO 07015G18KT 10SM SCT050 14/10 A2963 RMK AO2
     T01410095=
KUNU 232035Z AUTO 15014G22KT 10SM CLR 23/13 A2979 RMK AO2
     T02250133=
KVNW 232035Z AUTO 17011KT 10SM CLR 25/07 A3006 RMK AO2=
K4R5 232035Z AUTO 00000KT 10SM BKN110 21/13 A2965 RMK AO2
     T02110126=
K8W2 232035Z AUTO 06008KT 10SM OVC035 19/08 A3022 RMK AO1
     T01920077=
KARV 232035Z AUTO 14016G22KT 10SM BKN043 22/12 A2974 RMK AO2
     T02170120=
KCCA 232035Z AUTO 17010G18KT 9SM OVC042 26/16 A2988 RMK AO2=
KCDH 232035Z AUTO 17013G18KT 8SM SCT055 28/16 A2990 RMK AO2=
KCPK 232035Z AUTO 32006KT 15/14 A3009 RMK AO2 T01480138=
KEOE 232035Z AUTO 05004KT 10SM CLR 23/05 A3017 RMK AO2=
KFDW 232035Z AUTO 01005KT 10SM CLR 23/06 A3014 RMK AO1=
KHFY 232035Z AUTO 17013G20KT 10SM CLR 26/11 A3003 RMK AO2
     T02560113=
KIUA 232035Z AUTO 14005KT 10SM CLR 20/06 A3023 RMK AO2
     T02000064=
KIXA 232035Z AUTO 36008KT 10SM OVC019 16/15 A3014 RMK AO2=
KJAQ 232035Z AUTO 32009G18KT 10SM CLR 16/M04 A2994 RMK AO1
     T01631038=
KMDZ 232035Z AUTO 14013G18KT 10SM SCT043 23/13 A2971 RMK AO2
     T02250125 PWINO=
KRAW 232035Z AUTO 22014KT 10SM BKN120 27/13 A2970 RMK AO2 LTG DSNT
     N AND NW=
KSPA 232035Z AUTO 00000KT 10SM CLR 22/00 A3015 RMK AO2=
KVER 232035Z AUTO 17021G26KT 10SM CLR 30/16 A2966 RMK AO2
     T03020156=
