SAKA31 PTYA 231900
METAR PTYA 231851Z 15007KT 11SM -SHRA SCT016CB OVC120 25/24 A2972
RMK CB ALQDS SLP064 T02530240=
