SAUS70 KWBC 231838
METAR
K14Y 231835Z AUTO 12016G22KT 7SM CLR 21/12 A2948 RMK AO2=
K21D 231835Z AUTO 14014G22KT 10SM CLR 22/12 A2957 RMK AO2=
K3N8 231835Z AUTO 12017G22KT 10SM CLR 22/11 A2945 RMK AO2
     T02180112=
KACQ 231835Z AUTO 14020G29KT 10SM CLR 23/12 A2954 RMK AO2=
KAIT 231835Z AUTO 12012G16KT 10SM CLR 23/12 A2956 RMK AO2=
KAMN 231835Z AUTO 16016G20KT 10SM CLR 24/09 A3004 RMK AO2
     T02420086=
KAUM 231835Z AUTO 16015G25KT 10SM CLR 23/13 A2956 RMK AO=
KAXV 231835Z AUTO 16013KT 10SM SCT055 23/09 A3010 RMK AO2=
KBDH 231835Z AUTO 13025G29KT 10SM CLR 24/12 A2945 RMK AO2=
KCBG 231835Z AUTO 12009G17KT 10SM CLR 24/12 A2955 RMK AO2=
KCDA 231835Z AUTO 13004KT 10SM 18/05 A3035 RMK AO2 T01800054=
KCFE 231835Z AUTO 13020G28KT 10SM CLR 23/13 A2949 RMK AO2=
KCOQ 231835Z AUTO 08010KT 10SM CLR 17/09 A2963 RMK AO2 TSNO=
KCVH 231835Z AUTO 15006KT 10SM CLR 16/05 A3000 RMK A01=
KDLZ 231835Z AUTO 15007KT 10SM CLR 22/09 A3015 RMK AO2=
KDRM 231835Z AUTO 15008G14KT 10SM CLR 19/11 A3005 RMK AO2
     T01890106=
KDXX 231835Z AUTO 14026G32KT 10SM CLR 24/12 A2936 RMK AO2=
KEDJ 231835Z AUTO 19011KT 9SM BKN050 SCT055 23/10 A3013 RMK
     A01=
KELO 231835Z AUTO 14013KT 10SM CLR 21/09 A2969 RMK AO2=
KFBL 231835Z AUTO 13019G28KT 10SM CLR 23/13 A2953 RMK AO2=
KFFM 231835Z AUTO 12018G28KT 10SM CLR 22/12 A2938 RMK AO2=
KFGN 231835Z AUTO 05009KT 10SM CLR 13/07 A2961 RMK AO2=
KFSE 231835Z AUTO 13011G16KT 10SM CLR 23/10 A2948 RMK AO2=
KFSO 231835Z AUTO 00000KT 10SM CLR 20/05 A3030 RMK AO2
     T02000047=
KGHW 231835Z AUTO 10022G31KT 10SM CLR 22/12 A2943 RMK AO2=
KGYL 231835Z AUTO 13020KT 7SM CLR 24/13 A2948 RMK AO2
     T02350125=
KHAF 231835Z AUTO 33015KT 8SM CLR 16/08 A3003 RMK AO2=
KHCO 231835Z AUTO 05014G20KT 10SM CLR 17/09 A2949 RMK AO2=
KHZL 231835Z AUTO 00000KT 10SM OVC038 16/08 A3030 RMK AO2=
KI69 231835Z AUTO 20007KT 10SM SCT055 24/09 A3013 RMK AO2
     T02430086=
KJKJ 231835Z AUTO 11017G20KT 10SM CLR 23/11 A2939 RMK AO2 TSNO=
KJMR 231835Z AUTO 14012G17KT 10SM CLR 22/11 A2960 RMK AO2=
KLDM 231835Z AUTO 17016G19KT 10SM CLR 24/11 A2993 RMK AO2
     T02400112=
KLJF 231835Z AUTO 13022G29KT 10SM CLR 23/11 A2946 RMK AO2=
KMGG 231835Z AUTO 12008G19KT 070V150 10SM CLR 23/11 A2951 RMK AO2
     T02290114 PWINO=
KMGN 231835Z AUTO 19011G17KT 10SM SCT060 24/10 A2999 RMK AO2
     T02410108=
KMQJ 231835Z AUTO RMK AO1=
KMVE 231835Z AUTO 14019G28KT 10SM CLR 23/13 A2938 RMK AO2=
KOVL 231835Z AUTO 14022G30KT 4SM HZ CLR 23/12 A2942 RMK AO2=
KOZW 231835Z AUTO 17014G21KT 10SM CLR 24/10 A3008 RMK AO2
     T02350099=
KPWC 231835Z AUTO 11014G20KT 10SM CLR 21/12 A2957 RMK AO2=
KRGK 231835Z AUTO 13012KT 10SM CLR 23/12 A2956 RMK AO2=
KROX 231835Z AUTO 08018KT 10SM CLR 15/08 A2955 RMK AO2=
KRZT 231835Z AUTO 13006KT 10SM CLR 24/06 A3014 RMK AO2 PWINO=
KSAZ 231835Z AUTO 12010G15KT 10SM CLR 23/12 A2949 RMK AO2=
KSGS 231835Z AUTO 13006G16KT 10SM CLR 24/12 A2955 RMK AO2
     T02350117=
KSYM 231835Z AUTO VRB06G13KT 10SM CLR 24/05 A3016 RMK AO2=
KTEW 231835Z AUTO 18010G22KT 130V220 10SM CLR 25/10 A3006 RMK AO2
     T02490098=
KTWM 231835Z AUTO 08012KT 10SM SCT070 BKN080 18/11 A2968 RMK
     AO2=
KVVV 231835Z 13025G30KT 10SM 23/13 A2935 RMK AO2=
KY63 231835Z AUTO 12017G28KT 10SM CLR 22/12 A2940 RMK AO2
     T02160120=
K06D 231835Z AUTO 04019KT 10SM OVC013 09/06 A2951 RMK AO2=
K0S9 231835Z AUTO 14006KT 10SM CLR 12/07 A3013 RMK AO2=
K0VG 231835Z AUTO 00000KT 10SM CLR 23/04 A3019 RMK AO2=
K15M 231835Z AUTO 18009G14KT 10SM CLR 24/07 A3010 RMK AO2
     T02420074 $=
K1R7 231835Z AUTO 13008KT 10SM SCT050 25/17 A3009 RMK AO2
     PWINO=
K24J 231835Z AUTO VRB05KT 10SM 27/09 A3011 RMK A01=
