SAUS80 KWBC 232000
METAR
K77S 231955Z AUTO 00000KT 10SM FEW055 12/05 A3019 RMK A01=
KESN 231945Z 35004KT 5SM -RA SCT008 BKN015 16/16 A3021=
