SAUS70 KWBC 231738 RRG
METAR
KTHA 231735Z AUTO 15007G14KT 10SM CLR 22/05 A3017 RMK A01=
KTNU 231735Z AUTO 17022G31KT 10SM CLR 25/14 A2958 RMK A01=
KTQH 231735Z AUTO 17015G24KT 10SM SCT030 25/13 A2982 RMK AO2=
KTQV 231735Z AUTO 02016KT 10SM CLR 19/03 A3018 RMK A01=
KTYL 231735Z AUTO 25016G22KT 10SM FEW027 BKN034 OVC060 11/06 A2983
     RMK AO2=
KU68 231735Z AUTO 31023G29KT 10SM BKN046 OVC055 03/00 A2961 RMK
     AO2=
KUCY 231735Z AUTO 19020KT 10SM FEW043 26/13 A3002 RMK A01=
KUSE 231735Z AUTO 18016G21KT 10SM CLR 25/11 A3010 RMK AO2=
K05U 231735Z AUTO 00000KT 4SM BR M01/M02 A2996 RMK A01=
K0A0 231735Z AUTO 23019G29KT 10SM CLR 19/04 A2981 RMK AO2=
K0A9 231735Z AUTO 29006G11KT 6SM HZ CLR 21/04 A3020 RMK A01=
K0F2 231735Z AUTO 17013G28KT 10SM CLR 27/16 A2977 RMK AO2
     T02710163=
K0R0 231735Z AUTO 17010KT 10SM CLR 28/12 A3014 RMK AO2=
K1A9 231735Z AUTO 15004KT 10SM CLR 23/04 A3018 RMK AO2
     T02300044=
K1K1 231735Z AUTO 18021G34KT 10SM CLR 27/11 A2958 RMK AO2
     T02670112=
K1M5 231735Z AUTO 18012G17KT 10SM CLR 24/08 A3013 RMK A01=
K1V6 231735Z AUTO 22014G18KT 10SM SCT085 SCT110 20/01 A2942 RMK
     AO2=
K2A0 231735Z AUTO 23004KT 10SM CLR 21/06 A3019 RMK A01=
K2G2 231735Z AUTO 00000KT 10SM CLR 22/04 A3021 RMK A01=
K2M2 231730Z AUTO 15012KT 130V190 10SM CLR 23/07 A3015 RMK A01=
K33N 231735Z AUTO 05011KT 10SM BKN021 BKN040 BKN055 17/13 A3019
     RMK A01=
K36K 231730Z AUTO 22033G43KT 10SM CLR 28/04 A2942 RMK AO2=
K3J7 231735Z AUTO 00000KT 10SM CLR 22/07 A3020 RMK AO2=
K3LF 231735Z AUTO 16023G32KT 10SM SCT031 BKN120 23/13 A2990 RMK
     AO2 T02260134=
K3S8 231735Z AUTO 00000KT 10SM OVC004 07/06 A3022 RMK AO2=
K46U 231735Z AUTO 34011KT 10SM SCT033 BKN041 OVC050 02/M05 A2972
     RMK A01=
K4V0 231735Z AUTO 00000KT 1SM -SN BKN003 OVC008 00/00 A2963 RMK
     AO2 T00000000=
K54A 231735Z AUTO 07009G14KT 10SM CLR 29/19 A3006 RMK AO2=
K5T9 231735Z AUTO 12009KT 10SM SCT023 26/20 A2981 RMK A01=
K65S 231735Z AUTO 00000KT 8SM BKN003 BKN100 04/04 A2998 RMK
     AO2=
K6A2 231735Z AUTO 04003KT 10SM CLR 20/03 A3022 RMK AO2=
K7W4 231735Z AUTO 01003KT 10SM OVC020 16/10 A3021 RMK AO1
     T01580103=
K82V 231735Z AUTO 35021G25KT 10SM CLR 16/M01 A2931 RMK AO2=
K8A3 231735Z AUTO VRB04G10KT 10SM CLR 22/05 A3017 RMK A01=
KAAS 231735Z AUTO 19010KT 10SM CLR 23/07 A3020 RMK AO1=
KACP 231735Z AUTO 19010KT 150V210 10SM BKN044 BKN050 28/16 A3003
     RMK AO2=
KADC 231736Z AUTO 12012G18KT 10SM CLR 22/11 A2950 RMK AO2 TSNO=
KAEJ 231735Z AUTO 27010G17KT 5SM -RA 04/02 A2955 RMK AO2
     T00360015=
KAFP 231735Z AUTO 35007KT 10SM CLR 22/05 A3018 RMK AO2
     T02200045=
KAGI 231735Z AUTO 14020KT 10SM CLR 27/17 A3002 RMK AO2
     T02750168=
KALX 231735Z AUTO 00000KT 10SM CLR 22/03 A3020 RMK AO2
     T02210032=
KANW 231735Z AUTO 17012G17KT 10SM CLR 23/00 A2919 RMK AO2
     T02280000=
KARM 231735Z AUTO 16018G23KT 10SM SCT045 BKN050 OVC065 29/16 A2995
     RMK AO2 T02850160 TSNO=
KASN 231735Z AUTO 00000KT 10SM CLR 23/05 A3020 RMK AO2
     T02340050=
KATA 231735Z AUTO 19012G20KT 160V220 10SM OVC041 27/17 A2994 RMK
     AO2 SLP036 T02660172 $=
KATP 231735Z AUTO 11014KT 10SM FEW036 SCT042 25/17 A3009 RMK
     A01=
KAVK 231735Z AUTO 19029G37KT 9SM CLR 28/12 A2954 RMK AO2 PWINO=
KAVQ 231735Z AUTO 22013G16KT 10SM SCT060 23/08 A2981 RMK AO2
     T02320078=
KAXH 231735Z AUTO 19008G17KT 150V220 10SM BKN060 29/14 A2997 RMK
     AO2 T02940140=
KAXS 231735Z AUTO 19022G27KT 10SM CLR 29/11 A2968 RMK AO2
     T02920108=
KAZC 231735Z AUTO 28014G25KT 10SM CLR 07/M01 A2984 RMK AO2=
KBAM 231735Z AUTO 36007KT 10SM SCT021 BKN034 OVC070 03/01 A3001
     RMK AO1=
