SAUS80 KWBC 231600 RRE
METAR
KP58 231555Z AUTO 12010KT 14/12 A3014 RMK AO1 SLP204 T01390117=
KLZZ 231555Z AUTO 20014G22KT 10SM BKN034 23/16 A2987 RMK AO2
     T02340161=
