SAUS80 KWBC 231824
METAR
K4BM 231809Z AUTO 17021G31KT M1/4SM +SN OVC002 M02/M03 A2962 RMK
     AO2=
KCUL 231813Z AUTO 18020G29KT 10SM SCT049 27/11 A2998 RMK AO2=
KDVK 231810Z AUTO 19007KT 10SM CLR 23/05 A3016 RMK AO2=
KGIC 231815Z AUTO 24003KT 10SM BKN021 OVC029 03/00 A3000 RMK
     AO1=
KM25 231835Z AUTO 21019G23KT 7SM CLR 25/08 A3003 RMK AO2 PWINO=
