SACA45 KWBC 231700 RRB
METAR
MGHT 231700Z 11008KT 9999 SCT015 22/15=
MNPC 231700Z 36008KT 6000 VCRA SCT016TCU SCT300 32/26 Q1011
     TCURA/NE=
