SAKA31 PTKK 231900
METAR PTKK 231851Z VRB04KT 15SM FEW014CB SCT120 BKN280 26/24 A2975
RMK
SHRAE15 CB NE SLP078 T02610237
