SAUS70 KWBC 232038 RRH
METAR
KCSQ 232035Z AUTO 16020G32KT 9SM CLR 28/14 A2948 RMK AO2=
KCVC 232035Z AUTO 00000KT 10SM CLR 23/01 A3014 RMK AO2=
KCWC 232035Z AUTO 18022G30KT 10SM CLR 32/13 A2965 RMK AO2
     T03210133=
KCXP 232035Z AUTO 06010KT 10SM BKN060 BKN070 08/M08 A3006 RMK
     AO2=
KCXU 232035Z AUTO 00000KT 10SM CLR 26/03 A3011 RMK AO1
     T02590033=
KCXW 232035Z AUTO 19013G21KT 10SM FEW048 28/15 A2986 RMK A01=
KCZL 232035Z AUTO 20003KT 10SM CLR 24/03 A3015 RMK AO2=
KD39 232035Z AUTO 13012G28KT 10SM SCT044 23/12 A2942 RMK AO2
     T02260123=
K05U 232035Z AUTO 34012G18KT 10SM 01/M03 A3000 RMK A01=
K0A0 232035Z AUTO 22019G29KT 10SM CLR 22/03 A2974 RMK AO2=
K0A9 232035Z AUTO VRB06KT 8SM CLR 23/04 A3014 RMK A01=
K0F2 232035Z AUTO 16020G27KT 10SM CLR 29/15 A2970 RMK AO2
     T02910150=
K0R0 232035Z AUTO 16008KT 10SM CLR 29/10 A3007 RMK AO2=
K1A9 232035Z AUTO 00000KT 10SM CLR 25/05 A3010 RMK AO2
     T02490048=
K1K1 232035Z AUTO 18028G40KT 10SM CLR 27/12 A2952 RMK AO2
     T02700122=
K1M5 232035Z AUTO 19009KT 10SM CLR 24/08 A3006 RMK A01=
K1V6 232035Z AUTO 23028G35KT 10SM SCT110 20/M06 A2941 RMK AO2=
K2A0 232035Z AUTO 27006KT 10SM CLR 24/04 A3011 RMK A01=
K2G2 232035Z AUTO 00000KT 10SM CLR 23/03 A3016 RMK A01=
K2M2 232030Z AUTO 16008G16KT 10SM CLR 25/06 A3007 RMK A01=
K33N 232030Z AUTO 02009KT 4SM BR BKN006 BKN009 BKN018 14/14 A3018
     RMK A01=
K36K 232030Z AUTO 22024G43KT 10SM CLR 30/01 A2939 RMK AO2=
K3J7 232035Z AUTO 00000KT 10SM CLR 24/05 A3014 RMK AO2=
K3LF 232035Z AUTO 18023G30KT 10SM CLR 25/14 A2984 RMK AO2
     T02460140=
K3S8 232035Z AUTO 00000KT 10SM SCT026 12/05 A3022 RMK AO2=
K46U 232035Z AUTO 33011G18KT 10SM BKN037 OVC044 02/M04 A2976 RMK
     A01=
K4V0 232035Z AUTO 00000KT 10SM SCT010 BKN070 OVC095 02/00 A2970
     RMK AO2 T00160004=
K54A 232035Z AUTO 05004KT 10SM FEW060 29/16 A3002 RMK AO2=
K5T9 232035Z AUTO 13009KT 10SM CLR 28/19 A2975 RMK A01=
K65S 232035Z AUTO 00000KT 10SM SCT050 BKN060 OVC090 09/04 A3001
     RMK AO2=
K6A2 232035Z AUTO 13003KT 10SM CLR 22/02 A3015 RMK AO2=
K82V 232035Z AUTO 33021G28KT 10SM SCT075 BKN090 OVC110 10/M02
     A2938 RMK AO2=
K8A3 232035Z AUTO 20004G10KT 10SM CLR 23/04 A3010 RMK A01=
KAAS 232035Z AUTO 21008KT 10SM CLR 23/06 A3013 RMK AO1=
KACP 232035Z AUTO 15008G14KT 10SM BKN050 OVC070 28/16 A2998 RMK
     AO2=
KADC 232036Z AUTO 13019G28KT 10SM CLR 24/11 A2941 RMK AO2 TSNO=
KAEJ 232035Z AUTO 24019G27KT 7SM 03/M03 A2958 RMK AO2
     T00301032=
KAGI 232035Z AUTO 13019KT 10SM CLR 29/16 A2997 RMK AO2
     T02870161=
KALX 232035Z AUTO 19003KT 10SM CLR 24/05 A3012 RMK AO2
     T02390053=
KGZS 232035Z AUTO 18007KT 150V210 10SM CLR 25/07 A3007 RMK A01=
KH71 232035Z AUTO 17024KT 10SM CLR 29/14 A2967 RMK AO2=
KHCD 232035Z AUTO 13023G28KT 10SM CLR 25/12 A2944 RMK AO2
     T02510124=
KHFJ 232035Z AUTO 17017G28KT 10SM CLR 28/12 A2971 RMK AO2=
KHHF 232035Z AUTO 17020G25KT 10SM CLR 26/12 A2953 RMK AO2
     T02640115=
KHHV 232035Z AUTO 14015G24KT 10SM FEW033 27/19 A2988 RMK A01=
KHLB 232035Z AUTO 16012G19KT 10SM CLR 24/08 A3006 RMK A01=
KHOE 232035Z AUTO 04003KT 10SM CLR 26/10 A3011 RMK AO2
     T02650107=
KHQG 232035Z AUTO 23037G45KT 4SM HZ OVC003 29/03 A2943 RMK AO2
     T02930025=
KHRX 232035Z AUTO 21022G31KT 10SM CLR 25/10 A2961 RMK AO2
     T02460096=
KHSB 232035Z AUTO 19016G21KT 10SM CLR 27/16 A2995 RMK AO2
     T02670161=
KHSD 232035Z AUTO 18020G28KT 10SM CLR 28/15 A2962 RMK A01=
KHYX 232035Z AUTO 15013KT 10SM SCT060 23/10 A3005 RMK AO2
     T02310096=
KHZD 232035Z AUTO 18016KT 10SM CLR 26/05 A3000 RMK A01=
KHZX 232035Z AUTO 10013G20KT 10SM BKN046 23/12 A2954 RMK AO2=
