SAUS70 KWBC 231940 RRA
METAR
KY31 231935Z AUTO 13007KT 10SM OVC055 22/10 A3004 RMK AO2
     T02230104=
K0F2 231935Z AUTO 16021G26KT 10SM CLR 29/15 A2971 RMK AO2 P0001
     T02900147=
K3S8 231935Z AUTO 00000KT 10SM CLR 10/06 A3024 RMK AO2=
K46U 231935Z AUTO 33014KT 10SM BKN037 OVC043 02/M06 A2974 RMK
     A01=
K4V0 231935Z AUTO 22003KT 10SM -RA SCT006 BKN023 OVC028 01/01
     A2968 RMK AO2 T00110006=
K65S 231930Z AUTO 00000KT 10SM BKN014 BKN020 07/04 A3000 RMK
     AO2=
KAEJ 231935Z AUTO 30005KT 10SM 07/00 A2953 RMK AO2 T00680000=
KAXH 231935Z AUTO 18012G20KT 10SM SCT060 31/13 A2990 RMK AO2
     T03060130=
KBAM 231935Z AUTO 32005KT 10SM BKN037 BKN046 OVC070 05/M01 A3003
     RMK AO1=
KBKD 231935Z AUTO 18018G25KT 7SM CLR 30/14 A2971 RMK AO2
     T02980138=
KBPC 231935Z AUTO 21017G26KT 10SM CLR 26/09 A2955 RMK AO2 PNO=
KC07 231935Z AUTO 29009G16KT 270V340 1/4SM +SN OVC001 M05/M05
     A2957 RMK AO2 P0002=
KEIK 231935Z AUTO 22009G17KT 10SM BKN110 17/M04 A2933 RMK AO2
     T01711045 PWINO=
KEKS 231930Z AUTO 02009KT M01/M02 A2982 RMK AO2 PWINO TSNO=
KFOT 231930Z AUTO 33012KT 10SM FEW029 14/06 A3015 RMK AO1=
KJTC 231935Z AUTO 25011G18KT 10SM SCT034 BKN039 BKN045 14/04 A2981
     RMK AO2=
KPKV 231935Z AUTO 15021G24KT 10SM SCT039 SCT046 SCT055 31/19 A2987
     RMK AO2 T03070188=
K2G2 231930Z AUTO VRB05KT 10SM CLR 23/03 A3017 RMK A01=
K3LF 231935Z AUTO 17022G33KT 10SM CLR 24/14 A2985 RMK AO2 LTG DSNT
     W T02360138=
KANW 231935Z AUTO 21019G27KT 10SM CLR 28/M01 A2915 RMK AO2
     T02781010=
KBNW 231935Z AUTO 16024G31KT 10SM CLR 24/14 A2953 RMK AO2=
KBTA 231935Z AUTO 17020G34KT 10SM CLR 30/13 A2935 RMK AO2
     T02990126=
KBTN 231935Z AUTO 11022G32KT 7SM CLR 22/11 A2924 RMK AO2=
KC09 231935Z AUTO 17020G32KT 10SM CLR 26/14 A2982 RMK AO2
     T02580143=
KCCY 231935Z AUTO 16019G26KT 10SM CLR 24/13 A2958 RMK AO2=
KCSQ 231935Z AUTO 16019G29KT 9SM CLR 27/14 A2948 RMK AO2=
KDEH 231935Z AUTO 14017G29KT 10SM CLR 24/13 A2960 RMK AO2=
KGGI 231935Z AUTO 15019G29KT 10SM CLR 25/15 A2960 RMK AO2
     T02450147=
KHSB 231935Z AUTO 18015G23KT 10SM SCT049 27/16 A2997 RMK AO2
     T02650163=
KIFA 231935Z AUTO 14023G28KT 10SM CLR 26/14 A2954 RMK AO2
     T02560144=
KMUT 231935Z AUTO 17021G30KT 10SM CLR 24/14 A2969 RMK AO2=
KOXI 231935Z AUTO 17015G28KT 10SM CLR 25/11 A2994 RMK AO1=
KPWC 231935Z AUTO 14011G19KT 10SM CLR 23/13 A2954 RMK AO2=
KROX 231935Z AUTO 07018G23KT 10SM CLR 17/08 A2953 RMK AO2=
KS24 231935Z AUTO 17008G16KT 10SM CLR 25/09 A3010 RMK AO2=
KSAZ 231935Z AUTO 14012G25KT 10SM CLR 24/12 A2946 RMK AO2=
KTEW 231935Z AUTO 17010G18KT 10SM SCT050 25/09 A3005 RMK AO2
     T02480094=
K5T9 231935Z AUTO 14011G16KT CLR 27/19 A2977 RMK A01=
KC83 231935Z AUTO 35018G24KT 10SM CLR 20/M03 A2998 RMK AO2=
KCWC 231935Z AUTO 18021G32KT 10SM CLR 31/14 A2967 RMK AO2
     T03130135=
KDZB 231935Z AUTO 18011G22KT 7SM CLR 30/13 A2981 RMK AO2
     T03000129=
KECS 231935Z AUTO 33022G32KT 10SM OVC011 03/00 A2941 RMK AO2=
KF05 231935Z AUTO 21019G27KT 10SM CLR 33/12 A2962 RMK AO2
     T03270115=
KF46 231935Z AUTO 20022G31KT 10SM SCT049 30/15 A2980 RMK AO2
     T02950154=
KGYB 231935Z AUTO 18011G19KT 10SM SCT044 SCT050 BKN060 29/18 A2986
     RMK AO2 T02870176=
KHRX 231935Z AUTO 21022G28KT 10SM CLR 24/10 A2963 RMK AO2
     T02440100=
KINJ 231935Z AUTO 16021G30KT 10SM BKN046 29/16 A2980 RMK AO2
     T02890163=
KMHV 231940Z AUTO 29013G19KT 10SM CLR 17/M04 A2988 RMK A01=
KMNZ 231935Z AUTO 19019G25KT 10SM CLR 30/14 A2981 RMK AO2
     T02950141=
KMVH 231935Z AUTO 31026G31KT 3SM HZ CLR 00/M03 A2962 RMK AO2
     PWINO=
