SANZ31 NZKL 231900
METAR NZAA 231900Z AUTO 15002KT 9999 NCD 13/12 Q1029 NOSIG=
METAR NZWN 231900Z AUTO 02018KT 9999 NCD 16/09 Q1023=
METAR NZCH 231900Z AUTO 27003KT 9999 NCD 10/04 Q1019 NOSIG=
