SAUS80 KWBC 232002
METAR
K77S 232015Z AUTO 00000KT 10SM SCT050 BKN055 12/05 A3019 RMK
     A01=
KSFY 232003Z AUTO 16019G24KT 10SM CLR 26/13 A2972 RMK AO2=
K77S 232015Z AUTO 00000KT 10SM SCT050 BKN055 12/05 A3019 RMK
     A01=
