SAUS80 KWBC 232200
METAR
K77S 232155Z AUTO VRB03KT 10SM FEW065 14/03 A3020 RMK A01=
