SAUS70 KWBC 231800 RRX
METAR
K11R 231755Z AUTO 18017KT 10SM SCT047 BKN060 30/17 A2991 RMK AO2
     T02960174 10297 20180=
K6S8 231755Z AUTO 29018G26KT 10SM 05/M02 A2964 RMK A01 LAUREL=
KANK 231755Z AUTO 26012G16KT 10SM SCT036 BKN050 OVC070 08/00 A2962
     RMK AO1 T00750000 10128 20063=
KDUB 231754Z AUTO 27023G29KT 10SM OVC110 00/M08 A2957 RMK AO2=
KGLE 231755Z AUTO 17019G29KT 10SM CLR 27/15 A2981 RMK AO2
     T02730150 10274 20191=
KHBV 231750Z AUTO 16017G22KT 10SM CLR 30/18 A2984 RMK AO2
     T02960175=
KHVE 231755Z AUTO 30013KT 10SM OVC095 09/00 A2967 RMK AO2=
KMMH 231754Z AUTO 02008G15KT 10SM CLR 05/M10 A2996 RMK AO2=
KOSA 231755Z AUTO 19015G20KT 10SM BKN041 OVC048 28/17 A2991 RMK
     AO2 T02800173 10283 20186=
KPVW 231755Z AUTO 23022G31KT 10SM CLR 27/09 A2968 RMK AO2
     T02710092 10279 20149=
KWHP 231750Z 33020G34KT 10SM SKC 19/M02 A2990 RMK OBSERVER HT=
KNSE 231756Z AUTO 00000KT 10SM CLR 26/ A3015 RMK AO2 SLP195 6////
     T0256 10256 20061 58013 PNO $=
KIWA 231757Z 28012KT 10SM SCT075 21/09 A2980=
KJVY 231755Z AUTO 23009G17KT 10SM CLR 25/10 A3009 RMK AO2
     PWINO=
KGOV 231758Z AUTO 17016G22KT 10SM CLR 22/11 A3003 RMK AO2 SLP172
     T02230105 10226 20038 57015 $=
KFIN 231750Z 03009KT 000V060 10SM CLR 26/17 A3011=
KSUA 231755Z 36010G17KT 10SM SCT036 27/19 A3008=
KTNB 231750Z AUTO 00000KT 10SM CLR 20/02 A3023 RMK AO2 T01980018
     10198 21011=
