SAUS70 KWBC 232142 RRA
METAR
KONA 232135Z AUTO 16013G26KT 10SM CLR 24/12 A2959 RMK AO2=
KXLL 232135Z AUTO 05004KT 10SM CLR 16/10 A3024 RMK AO2=
K0A0 232135Z AUTO 23016G28KT 10SM CLR 21/03 A2974 RMK AO2=
K0CO 232135Z AUTO 28019G26KT 1SM -SN BKN005 OVC009 M08/M10 A2960
     RMK AO2=
K2V5 232135Z AUTO 01018G24KT 10SM SCT120 21/M01 A2930 RMK AO2=
K46U 232135Z AUTO 32011KT 10SM BKN031 OVC039 03/M04 A2978 RMK
     A01=
K74V 232135Z AUTO 15007KT 10SM 06/00 A2972 RMK AO2=
K82V 232135Z AUTO 33019G28KT 10SM SCT044 BKN060 OVC100 08/00 A2944
     RMK AO2=
KARM 232135Z AUTO 16016G21KT 10SM SCT050 BKN065 27/15 A2988 RMK
     AO2 T02720152 TSNO=
KAXH 232135Z AUTO 17009G18KT 10SM CLR 29/13 A2989 RMK AO2
     T02920129=
KAZC 232135Z AUTO 32012G16KT 10SM SCT090 SCT110 07/M01 A2990 RMK
     AO2=
KCWC 232135Z AUTO 17024G35KT 10SM CLR 32/13 A2964 RMK AO2
     T03160134=
KECS 232135Z AUTO 34018G24KT 10SM -DZ BKN010 BKN044 OVC090 01/00
     A2947 RMK AO2=
KF05 232135Z AUTO 19024G27KT 10SM CLR 34/12 A2959 RMK AO2
     T03390117=
KF46 232135Z AUTO 18015G26KT 10SM BKN050 29/15 A2977 RMK AO2
     T02850151=
KGLX 232135Z AUTO 06008KT 10SM CLR 24/13 A3005 RMK A01=
KHHV 232135Z AUTO 14017G23KT 10SM FEW034 27/19 A2987 RMK A01=
KLHB 232135Z AUTO 15012G23KT 10SM BKN065 30/17 A2982 RMK AO2
     T03000165=
KLHM 232135Z AUTO 33018G29KT 10SM CLR 21/M03 A2994 RMK AO1=
KU68 232135Z AUTO 31024G31KT 10SM OVC090 03/M01 A2967 RMK AO2=
KUVA 232135Z AUTO 14012KT 10SM CLR 28/17 A2980 RMK AO2
     T02780166=
KVCV 232135Z AUTO 32011KT 10SM CLR 17/M07 A2990 RMK AO2=
K1H2 232135Z AUTO 15016G22KT 10SM CLR 26/13 A2992 RMK AO2
     T02550131=
K57C 232135Z AUTO 16011G21KT 10SM SCT120 24/13 A2980 RMK AO2
     T02370134=
KAAA 232135Z AUTO 18021G35KT 10SM CLR 25/15 A2981 RMK AO2
     T02470151=
KAIO 232135Z AUTO 17021G33KT 7SM CLR 28/15 A2940 RMK AO2=
KAUH 232135Z AUTO 17022G34KT 10SM BKN037 OVC047 28/12 A2926 RMK
     AO2 T02750115=
KBIE 232135Z AUTO 17026G33KT 10SM SCT080 28/13 A2936 RMK AO2
     T02830134=
KBVN 232135Z AUTO 18022G32KT 10SM CLR 31/07 A2920 RMK AO2
     T03060071=
KCBF 232135Z AUTO 18026G35KT 9SM FEW110 29/10 A2934 RMK AO2=
KCIN 232135Z AUTO 16021G31KT 10SM CLR 27/14 A2941 RMK AO2=
KFSW 232135Z AUTO 14014G20KT 10SM OVC001 26/15 A2966 RMK AO2=
KGWB 232135Z AUTO 00000KT 10SM CLR 23/10 A3003 RMK AO2=
KHJH 232135Z AUTO 18023G31KT 7SM SCT033 BKN039 OVC045 29/11 A2931
     RMK AO2 T02880113=
KJYG 232137Z AUTO 15021G35KT 10SM CLR 25/12 A2940 RMK AO2=
KMZZ 232135Z AUTO 17015G19KT 7SM CLR 24/10 A3002 RMK AO2
     T02380100=
KN03 232135Z AUTO 12004KT 10SM CLR 17/08 A3026 RMK AO2=
KOQN 232135Z AUTO 05007KT 7SM RA OVC033 15/11 A3022 RMK AO2
     P0001=
KPHN 232135Z AUTO 16008KT 10SM CLR 23/05 A3010 RMK AO2=
KPMV 232135Z AUTO 17023G33KT 10SM SCT120 28/14 A2939 RMK AO2
     T02790139=
KRPJ 232135Z AUTO 17018G29KT 10SM CLR 24/16 A2979 RMK AO2
     T02350155 TSNO=
KSTE 232135Z AUTO 14012G21KT 10SM SCT046 SCT120 24/10 A2975 RMK
     AO2 T02350100=
KSXK 232135Z AUTO 16024G34KT 10SM CLR 29/12 A2927 RMK AO2=
KVVS 232135Z AUTO 11004KT 10SM CLR 21/00 A3017 RMK AO2
     T02141004=
KVYS 232135Z AUTO 15018G23KT 10SM CLR 24/14 A2978 RMK AO2
     T02400141=
K2R9 232135Z AUTO 14015G21KT 10SM SCT043 SCT050 30/19 A2980 RMK
     AO2=
K7BM 232135Z AUTO 27010G14KT 230V290 3/4SM -SN OVC006 M02/M05
     A2962 RMK AO2=
K81R 232135Z AUTO 17015G23KT 10SM CLR 29/14 A2978 RMK AO2
     T02880141=
KBBD 232135Z AUTO 17013G25KT 140V200 10SM CLR 28/13 A2977 RMK
     AO2=
KBDG 232135Z AUTO 33015KT 10SM 03/00 A2981 RMK AO1 T00300003=
