SAUS70 KWBC 232100 RRX
METAR
KJVY 232055Z AUTO 17010KT 10SM CLR 26/07 A3004 RMK AO2 PWINO=
KMER 232053Z 30015G22KT 10SM CLR 22/M01 A2992=
KTOA 232055Z 17005KT 10SM SCT020 23/11 A2984=
