SAUS70 KWBC 232122 RRB
METAR
KVYS 232115Z AUTO 15021G30KT 10SM CLR 24/14 A2978 RMK AO2
     T02400140=
K33N 232115Z AUTO 36010KT 2 1/2SM BR OVC006 14/14 A3017 RMK
     A01=
K3LF 232115Z AUTO 16025G33KT 10SM CLR 25/14 A2984 RMK AO2
     T02490137=
KAUM 232117Z AUTO 16015G25KT 10SM CLR 24/13 A2954 RMK AO2=
KC35 232115Z AUTO 16014G19KT 10SM CLR 24/13 A2970 RMK AO2
     T02370132 PWINO=
KCQM 232117Z AUTO 13010G19KT 090V160 10SM CLR 22/11 A2960 RMK
     AO2=
KDNV 232115Z AUTO 17018G26KT 10SM CLR 25/11 A2991 RMK AO2
     T02450110=
KERY 232115Z AUTO 15014G18KT 10SM CLR 22/10 A2994 RMK AO2
     T02190104=
KGLX 232115Z AUTO 05011KT 10SM CLR 24/14 A3006 RMK A01=
KHCD 232115Z AUTO 13023G30KT 10SM CLR 25/13 A2943 RMK AO2
     T02460125=
KHZX 232115Z AUTO 12011G18KT 10SM SCT048 22/12 A2954 RMK AO2=
KI67 232115Z AUTO 19008G14KT 10SM CLR 25/07 A3006 RMK AO1=
KIFA 232115Z AUTO 13018G26KT 10SM BKN120 25/15 A2953 RMK AO2
     T02470148=
KIMS 232115Z AUTO 15008KT 10SM CLR 24/08 A3007 RMK AO2=
KJYG 232116Z AUTO 15024G35KT 10SM CLR 25/12 A2940 RMK AO2=
KMJQ 232115Z AUTO 14021G29KT 10SM CLR 25/12 A2940 RMK AO2=
KMOP 232115Z AUTO 14011G16KT 10SM SCT060 23/10 A3000 RMK AO2
     T02300098=
KONA 232115Z AUTO 16013G24KT 141V201 10SM CLR 24/12 A2959 RMK
     AO2=
KPEX 232115Z AUTO 14021G29KT 10SM CLR 23/12 A2942 RMK AO2=
KPMH 232115Z AUTO 18004KT 10SM CLR 25/01 A3011 RMK AO2
     T02540014=
KVAF 232115Z AUTO 13016KT 10SM CLR 28/17 A2991 RMK A01=
KWBF 232115Z AUTO 00000KT 10SM 26/18 A3001 RMK A01=
KY31 232115Z AUTO 16008G14KT 10SM CLR 23/08 A3002 RMK AO2
     T02340084=
KY49 232115Z AUTO 09007KT 10SM SCT046 20/11 A2947 RMK AO2
     T02000112=
KHZR 232115Z AUTO 16007KT 10SM SCT050 BKN065 27/15 A3001 RMK AO2
     T02670153=
KI75 232115Z AUTO 16016G25KT 10SM CLR 28/14 A2954 RMK AO2
     T02800143=
KIIB 232115Z AUTO 16019G25KT 10SM CLR 23/14 A2964 RMK AO2
     T02260140=
KIJX 232115Z AUTO 15016G22KT 10SM CLR 23/15 A2977 RMK AO2
     T02300145=
KLMO 232115Z AUTO 25016G24KT 10SM CLR 18/M07 A2937 RMK AO2
     T01751075=
KLUV 232115Z AUTO 21016G25KT 10SM CLR 29/10 A2968 RMK AO2=
KMLE 232115Z AUTO 17018G30KT 10SM SCT110 29/13 A2934 RMK AO2
     T02910129=
KMQB 232115Z AUTO 16019G26KT 10SM CLR 24/13 A2974 RMK AO2
     T02400127=
KMQW 232115Z AUTO 13004KT 10SM CLR 25/10 A3012 RMK AO2
     T02530096=
KNOW 232115Z AUTO 06003KT 10SM CLR 11/09 A3014 RMK AO2
     T01090085=
KNRN 232115Z AUTO 23020G32KT 7SM SCT027 BKN033 OVC039 31/03 A2927
     RMK AO2=
KORG 232115Z AUTO 15012G15KT 10SM OVC055 28/20 A2996 RMK AO2
     T02810199=
KPPA 232115Z AUTO 21022G28KT 10SM CLR 26/11 A2957 RMK AO2
     T02580110=
KPTT 232115Z AUTO 18029G44KT 7SM CLR 27/11 A2944 RMK AO2
     T02740110=
KRBO 232115Z AUTO 10SM SCT001 SCT034 SCT042 30/21 A2980 RMK AO2
     T02970213=
KRDD 232110Z COR 360/12G15KT 10SM CLR 20/M02 A3005=
KSNL 232115Z AUTO 16020G27KT 10SM CLR 28/12 A2967 RMK AO2
     T02770120=
KT20 232115Z AUTO 10SM SCT048 SCT060 30/18 A2980 RMK AO2
     T02950178=
KTAZ 232115Z AUTO 17018G25KT 10SM CLR 25/14 A2983 RMK AO2
     T02450141=
KTBR 232115Z AUTO 33005KT 10SM CLR 24/08 A3012 RMK AO2
     T02440083=
KTIF 232115Z AUTO 29020G29KT 10SM CLR 21/01 A2924 RMK AO2
     T02090005=
KTMK 232115Z AUTO 27004KT 10SM SCT026 SCT034 BKN043 13/07 A3021
     RMK AO2=
KTQK 232115Z AUTO 22030G43KT 5SM HZ SCT030 BKN036 29/02 A2934 RMK
     AO2 T02930020=
KTVI 232115Z AUTO 00000KT 10SM CLR 25/08 A3012 RMK AO2=
KUKL 232115Z AUTO 18023G37KT 10SM CLR A2955 RMK AO2=
KVDI 232115Z AUTO 08004KT 10SM CLR 26/10 A3012 RMK AO2=
KVES 232115Z AUTO 16010G17KT 10SM CLR 23/05 A3006 RMK AO2=
