SAUS70 KWBC 231900 RRJ
METAR
KSUX 231852Z 17024G30KT 10SM CLR 29/13 A2932 RMK AO2 PK WND
     16032/1821 SLP920 T02890133=
KTVC 231853Z 18013G28KT 10SM FEW050 BKN250 24/11 A2993 RMK AO2 PK
     WND 20028/1847 SLP135 T02440111=
KBEA 231855Z AUTO 14017G23KT 10SM SCT037 BKN046 BKN050 29/18 A2983
     RMK AO2 T02880183=
KBPT 231853Z 15017G24KT 10SM BKN043 OVC050 27/19 A2996 RMK AO2 PK
     WND 14026/1758 SLP146 T02720189=
KCCR 231853Z VRB06KT 10SM CLR 19/01 A3000 RMK AO2 SLP144
     T01940006=
KDGW 231853Z AUTO 31016G25KT 10SM OVC017 04/02 A2949 RMK AO2 PK
     WND 33029/1831 RAE39 SLP962 P0001 T00390017=
KDHT 231853Z AUTO 21030G49KT 10SM CLR 27/03 A2954 RMK AO2 PK WND
     22053/1812 SLP948 T02720033=
KEPH 231853Z AUTO 35011KT 10SM 12/M03 A3004 RMK AO2 SLP175
     T01221033 $=
KJER 231853Z AUTO 28021G30KT 10SM CLR 07/M01 A2987 RMK AO2 PK WND
     28031/1831 SLP120 T00671006=
KJSO 231855Z AUTO 20013G18KT 10SM BKN050 28/15 A2994 RMK AO2
     T02780148 TSNO=
KRWL 231853Z AUTO 25012KT 10SM OVC060 01/M02 A2956 RMK AO2 SLP999
     T00061022=
KRXE 231853Z AUTO 10SM OVC070 04/M04 A2977 RMK AO2 SLP086
     T00441039=
KSAF 231853Z 23023G38KT 10SM OVC075 16/00 A2968 RMK AO2 PK WND
     22048/1757 SLP968 T01610000=
KSTS 231853Z AUTO 30006KT 10SM CLR 18/01 A3003 RMK AO2 SLP163
     T01830006=
KBUR 231853Z 28009KT 10SM CLR 22/00 A2985 RMK AO2 SLP096
     T02220000=
PABA 231852Z AUTO 09021KT 10SM OVC008 M04/M06 A3006 RMK AO2 PK WND
     09027/1848 SLP185 T10391056 FZRANO PNO $=
PASC 231853Z 11008KT 10SM SCT004 BKN050 M11/M12 A3000 RMK AO2
     SLP162 T11061117 $=
KFNL 231856Z 10007KT 070V140 10SM FEW090 19/01 A2931 RMK AO2
     SLP877 T01890006=
KFOD 231856Z AUTO 17014G21KT 10SM CLR 26/13 A2947 RMK AO2 PK WND
     16028/1834 SLP986 T02560133=
KFPK 231855Z AUTO 16016G21KT 10SM BKN055 24/10 A3003 RMK AO2
     T02390101=
KFRM 231856Z AUTO 15023G32KT 10SM CLR 24/13 A2944 RMK AO2 PK WND
     14034/1823 SLP967 T02440133=
KFSO 231855Z AUTO 00000KT 10SM CLR 20/05 A3030 RMK AO2
     T02000053=
KGAI 231856Z AUTO VRB03KT 10SM BKN049 17/11 A3022 RMK AO2 SLP248
     T01720111=
KGBD 231856Z AUTO 20024G41KT 4SM HZ BKN028 OVC035 33/10 A2936 RMK
     AO2 PK WND 21048/1841 SLP918 T03280100=
KGDV 231856Z AUTO 01011KT 4SM BR OVC006 06/06 A2946 RMK AO2 SLP985
     T00610056=
KGTU 231856Z 16017G24KT 10SM BKN046 29/16 A2985 RMK AO2 PK WND
     18026/1843 SLP102 T02890161=
KGUC 231856Z AUTO 23006G20KT 10SM FEW030 OVC038 03/M02 A2963 RMK
     AO2 UPE02 SLP988 P0000 T00281022=
KGXY 231856Z 35011G20KT 10SM FEW095 18/01 A2931 RMK AO2 WSHFT 1818
     SLP905 T01830011 $=
KHAI 231855Z AUTO 15014G20KT 10SM SCT050 25/11 A3001 RMK AO2
     T02450112=
KHEF 231856Z 36012KT 10SM OVC046 19/12 A3021 RMK AO2 SLP235
     T01890122=
KHNB 231856Z AUTO 19019G23KT 10SM CLR 26/11 A3003 RMK AO2 SLP166
     T02560106=
KHND 231856Z 35015G22KT 10SM CLR 17/M11 A2988 RMK AO2 SLP121
     T01671106=
KHYI 231856Z 17015G26KT 10SM SCT047 BKN060 28/17 A2989 RMK AO2 PK
     WND 17027/1813 SLPNO T02800170 $=
KHYS 231856Z AUTO 21034G43KT 2 1/2SM HZ FEW023 BKN030 OVC035 32/03
     A2931 RMK AO2 PK WND 21054/1842 SLP907 T03220033 $=
KHZL 231855Z AUTO 00000KT 10SM SCT034 OVC042 16/09 A3029 RMK
     AO2=
KI23 231855Z AUTO 16010KT 10SM CLR 24/07 A3012 RMK AO1=
KILE 231856Z AUTO 16018G26KT 10SM FEW049 28/16 A2982 RMK AO2 PK
     WND 17029/1820 SLP088 T02830156=
KIRS 231855Z AUTO 17020G23KT 10SM CLR 24/09 A3001 RMK AO2
     T02380092=
KISQ 231855Z AUTO 14009KT 10SM CLR 17/11 A2995 RMK AO2
     T01710111=
KITH 231856Z 19010KT 10SM CLR 20/06 A3027 RMK AO2 SLP250
     T02000061=
