SAUS70 KWBC 231842 RRD
METAR
KAUH 231835Z AUTO 19025G32KT 5SM HZ CLR 30/12 A2929 RMK AO2
     T02950116=
KCFS 231835Z AUTO 17009G17KT 10SM CLR 24/10 A3009 RMK AO2
     T02440101=
KCKN 231835Z AUTO 13014G18KT 10SM CLR 23/10 A2944 RMK AO2=
KDNV 231835Z AUTO 17017G25KT 7SM CLR 26/12 A2995 RMK AO2
     T02570122=
KFEP 231835Z AUTO 15014G25KT 10SM SCT120 24/16 A2980 RMK AO2
     T02390157=
KJYG 231837Z AUTO 14024G29KT 10SM CLR 24/12 A2944 RMK AO2=
KMZZ 231835Z AUTO 19019G23KT 7SM SCT050 24/11 A3005 RMK AO2
     T02430111=
KOLE 231835Z AUTO 20003KT 10SM CLR 20/02 A3025 RMK AO2=
KOLY 231835Z AUTO 17020G30KT 10SM BKN049 26/11 A2997 RMK AO2
     T02600106=
KOQN 231835Z AUTO 05007G14KT 10SM SCT120 17/11 A3023 RMK AO2=
KPHN 231835Z AUTO 17011G18KT 10SM SCT055 24/07 A3012 RMK AO2=
KPMV 231835Z AUTO 17024G30KT 10SM CLR 29/13 A2941 RMK AO2
     T02900128=
KPPO 231835Z AUTO 17012G24KT 10SM CLR 25/16 A2995 RMK AO2
     T02500158=
KPRG 231835Z AUTO 17023G28KT 10SM CLR 26/14 A2996 RMK AO2
     T02620137=
KSXK 231835Z AUTO 16024G31KT 10SM CLR 26/13 A2931 RMK AO2=
KUMP 231835Z AUTO 17015KT 10SM CLR 26/13 A3003 RMK AO2
     T02550125=
KVYS 231835Z AUTO 16020G27KT 10SM CLR 25/14 A2981 RMK AO2
     T02510140=
K11R 231835Z AUTO 16012G18KT 10SM SCT049 SCT060 OVC065 30/17 A2990
     RMK AO2 T02960170=
K6I2 231835Z AUTO 15010KT 10SM CLR 24/07 A3013 RMK AO2=
K8A0 231835Z AUTO 23005KT 10SM CLR 23/03 A3017 RMK AO2=
KAXX 231835Z AUTO 22027G39KT 10SM SCT048 BKN050 OVC070 11/M01
     A2967 RMK AO2 T01081014=
KBMT 231835Z AUTO 15014G19KT 10SM OVC039 27/17 A2997 RMK AO2
     T02740174=
KCNI 231835Z AUTO 00000KT 10SM CLR 22/03 A3019 RMK AO2
     T02160025=
KDED 231835Z AUTO 33006KT 10SM CLR 27/15 A3009 RMK AO2
     T02750152=
KDUX 231835Z AUTO 19023G31KT 10SM CLR 27/09 A2958 RMK AO2
     T02670086=
KETN 231835Z AUTO 17017G25KT 10SM CLR 27/15 A2977 RMK AO2
     T02720152=
KFQD 231835Z AUTO 22003KT 10SM CLR 22/03 A3018 RMK AO2=
KFYJ 231835Z AUTO 00000KT 10SM OVC009 15/13 A3017 RMK AO1
     T01470130=
KHVE 231835Z AUTO 29013G17KT 10SM SCT095 10/M01 A2968 RMK AO2=
KHZR 231835Z AUTO 16010G14KT 10SM OVC048 27/16 A3004 RMK AO2
     T02700156=
KJES 231835Z AUTO 00000KT 10SM CLR 21/06 A3015 RMK AO2=
KK62 231835Z AUTO 17007KT 10SM CLR 25/06 A3012 RMK AO2=
KMQW 231835Z AUTO 36006KT 10SM CLR 25/11 A3014 RMK AO2
     T02510107=
KPXE 231835Z AUTO 06004KT 10SM CLR 24/08 A3015 RMK AO2
     T02410081=
KRGA 231837Z AUTO 14007KT 10SM CLR 25/06 A3016 RMK AO2=
KT20 231835Z AUTO 16012G24KT 10SM SCT042 BKN048 BKN055 30/19 A2986
     RMK AO2 T02960187=
KTMK 231835Z AUTO 00000KT 10SM BKN015 12/08 A3019 RMK AO2=
KUKL 231835Z AUTO 19023G33KT 10SM SCT120 A2961 RMK AO2 LTG DSNT
     NW=
KVES 231835Z AUTO 18009G21KT 10SM SCT055 23/06 A3010 RMK AO2=
KVKS 231835Z AUTO 18012G17KT 10SM CLR 28/14 A3002 RMK A01=
KW99 231839Z AUTO 00000KT 10SM CLR 18/06 A3025 RMK AO2=
K04V 231835Z AUTO 20007G19KT 182V272 10SM SCT070 SCT090 10/00
     A2957 RMK AO2=
K5C1 231835Z AUTO 16013G22KT 10SM SCT037 25/15 A2988 RMK AO1=
K6P9 231835Z AUTO 18018G25KT 10SM CLR 27/15 A2978 RMK AO2
     T02740145=
KBVS 231835Z AUTO 00000KT 10SM FEW020 BKN026 BKN047 10/08 A3015
     RMK A01=
KCPW 231835Z AUTO 23034KT M1/4SM +SN OVC001 M06/M06 A2968 RMK
     AO2=
KCZT 231835Z AUTO 15011G17KT 10SM CLR 28/18 A2980 RMK AO2=
KDKB 231835Z AUTO 17021G30KT 10SM SCT039 23/15 A2985 RMK AO2
     T02310150=
KDVO 231835Z AUTO 33006G13KT 10SM CLR 20/M00 A3001 RMK AO2=
KE11 231835Z AUTO 21015G23KT 10SM CLR 28/09 A2976 RMK AO2
     T02840088=
KE38 231835Z AUTO 19010G18KT 10SM CLR 26/07 A2993 RMK AO2
     T02640067=
