SAPA32 KWBC 231900 RRB
METAR
NCRG 231930Z AUTO 02010KT 9999 -RA BKN011/// BKN016/// BKN070///
     25/24 Q1012=
NWWW 231930Z AUTO 06011G21KT 020V110 CAVOK 26/18 Q1012 TEMPO 3000
     SHRA FEW020CB=
