SAUS80 KWBC 232112
METAR
KROS 232103Z AUTO 14015G22KT 10SM CLR 26/14 A2952 RMK AO2 LTG DSNT
     S=
