SAUS70 KWBC 231700 RRX
METAR
KTFP 231655Z AUTO 18015G23KT 10SM CLR 29/21 A2990 RMK AO2
     T02930212=
