SAUS70 KWBC 231720 RRD
METAR
KO69 231715Z AUTO 32009KT 270V330 10SM CLR 14/02 A3003 RMK A01=
KP08 231715Z AUTO 25014KT 9SM -DZ FEW028 BKN038 OVC050 20/13 A2981
     RMK AO2=
KPYX 231715Z AUTO 22028G35KT 7SM CLR 28/08 A2958 RMK AO2
     T02810076=
KRTS 231715Z AUTO 36005KT 10SM BKN037 03/M06 A3004 RMK AO2=
KSEZ 231715Z AUTO 17014G19KT 10SM 15/07 A2981 RMK AO2=
KSVC 231715Z AUTO 26011G24KT 10SM SCT046 SCT050 18/07 A2988 RMK
     AO2 T01790065=
KSWW 231715Z AUTO 19023G31KT 10SM CLR 26/13 A2980 RMK AO2
     T02620131=
KSZT 231715Z AUTO 00000KT 10SM CLR 07/02 A2998 RMK AO2=
K33N 231715Z AUTO 04012KT 10SM SCT021 BKN038 BKN060 17/13 A3020
     RMK A01=
KFKS 231715Z AUTO 16009G15KT 10SM CLR 22/11 A2996 RMK AO2
     T02170114=
KI68 231715Z AUTO 17012G17KT 10SM CLR 24/11 A3015 RMK AO1
     T02350106=
KPCW 231715Z AUTO 19007KT 9SM CLR 24/11 A3013 RMK AO2=
KPJC 231715Z AUTO RMK AO2 TSNO PWINO=
KPNM 231715Z AUTO 13010G18KT 10SM CLR 22/13 A2959 RMK AO2 TSNO=
KPRO 231715Z AUTO 16022G28KT 10SM CLR 26/13 A2951 RMK AO2
     T02550126=
KPWC 231715Z AUTO 12011G16KT 10SM CLR 19/11 A2961 RMK AO2=
KRNP 231715Z AUTO 14008KT 030V170 10SM CLR 23/10 A3009 RMK AO2
     T02250099=
KRQB 231715Z AUTO 15015KT 10SM SCT050 SCT070 22/12 A3002 RMK AO2
     T02170115=
KRRT 231715Z AUTO 05012KT 10SM CLR 10/08 A2962 RMK AO2=
KRZL 231715Z AUTO 16017G25KT 10SM CLR 24/12 A2998 RMK AO2=
KSAR 231715Z AUTO 19019G30KT 10SM BKN029 23/15 A2994 RMK AO2
     T02280146=
KSJX 231715Z AUTO 14007G16KT 10SM CLR 22/12 A3000 RMK AO2
     T02160115=
KSLH 231715Z AUTO 16009G15KT 120V180 10SM CLR 22/12 A3002 RMK
     AO2=
KTNU 231715Z AUTO 15023G31KT 10SM CLR 24/14 A2959 RMK A01=
KTOB 231715Z AUTO 15019G26KT 10SM CLR 22/12 A2961 RMK AO2=
KTTF 231715Z AUTO 16008KT 110V180 10SM CLR 22/10 A3013 RMK AO2
     T02150101=
KUSE 231715Z AUTO 17011G20KT 10SM CLR 25/11 A3011 RMK AO2=
KVWU 231715Z AUTO 12009G16KT 10SM CLR 22/11 A2959 RMK AO2=
KY31 231715Z AUTO 14011G15KT 10SM CLR 23/10 A3007 RMK AO2
     T02290102=
KY70 231715Z AUTO 15014G18KT 10SM CLR 21/10 A3005 RMK AO2
     T02140104=
K05U 231715Z AUTO 00000KT M1/4SM FZFG M02/M03 A2996 RMK A01=
K0S9 231715Z AUTO 00000KT 10SM CLR 08/07 A3010 RMK AO2=
K3N8 231715Z AUTO 13012G18KT 10SM CLR 19/10 A2950 RMK AO2
     T01880097=
KALM 231715Z AUTO 27011KT 10SM CLR 22/10 A2982 RMK AO2=
KATS 231715Z AUTO 23021G33KT 10SM CLR 25/11 A2974 RMK AO2=
KBKS 231715Z AUTO 17015G21KT 10SM SCT036 SCT044 30/21 A2985 RMK
     AO2 SLP070 T02970211 $=
KBXK 231715Z AUTO 26011KT 10SM FEW065 SCT075 22/09 A2979 RMK
     A01=
KCLS 231715Z AUTO 24003KT 4SM BR OVC005 04/04 A3014 RMK AO2=
KCMR 231715Z AUTO 26009G15KT 10SM OVC035 03/M01 A2986 RMK AO2=
KCPT 231715Z AUTO 17017G29KT 10SM SCT037 27/16 A2986 RMK A01=
KDNA 231715Z AUTO 25025G33KT 10SM SCT060 BKN075 25/09 A2982 RMK
     AO2=
KHAF 231715Z AUTO 33012KT 6SM HZ CLR 14/09 A3002 RMK AO2=
KL08 231715Z AUTO 05003KT 7SM CLR 21/M00 A2980 RMK AO2=
KL52 231715Z AUTO 34005G10KT 9SM CLR 18/06 A2993 RMK A01=
KLRU 231715Z AUTO 26019G29KT 10SM CLR 22/07 A2984 RMK AO2
     T02170071=
KMAN 231715Z AUTO 31013KT 10SM CLR 07/01 A2999 RMK A01=
KMVH 231715Z AUTO 30023G32KT 8SM CLR 00/M03 A2959 RMK AO2
     PWINO=
KO22 231715Z AUTO VRB05KT 10SM CLR 14/M04 A2994 RMK A01=
KO32 231715Z AUTO 30004KT 10SM CLR 13/03 A2993 RMK AO2 T01350034
     $=
KRPH 231715Z AUTO 19012G20KT 150V220 9SM CLR 27/15 A2975 RMK AO2
     T02740151 $=
KT69 231715Z AUTO 17015KT 10SM FEW038 FEW044 SCT060 28/22 A2990
     RMK A01=
KTSP 231715Z AUTO 31010KT 8SM CLR 08/00 A2995 RMK AO2=
