SACA41 KWBC 231700
METAR
MKBK NIL=
MUBA NIL=
MUBY NIL=
MUCA NIL=
MUCL 231650Z 05008KT 020V100 9000 FEW020 29/23 Q1016=
MUCM 231650Z 08005KT 040V120 9000 BKN018TCU 27/23 Q1015=
MUCU 231650Z VRB03KT 9000 SCT020 SCT070 30/22 Q1014=
MUGM 231651Z 07008KT 10SM SCT030 SCT060 BKN180 30/22 A2996 RMK AO2
     SLP143 T03000217 $=
MUGT NIL=
MUHA 231650Z 07009KT 9000 SCT030 30/21 Q1017=
MUMO NIL=
MUMZ NIL=
MUNG NIL=
MUVR 231650Z 06013KT 9000 FEW020 28/21 Q1017=
MUVT NIL=
MYEF NIL=
TABS NIL=
TAOA NIL=
TBBI NIL=
TDCF NIL=
