SAUS80 KWBC 231800
METAR
KACY 231754Z 05011G21KT 1 3/4SM -RA BR BKN008 OVC011 16/14 A3018
     RMK AO2 PK WND 05026/1712 SLP220 P0002 60003 T01560144 10172
     20144 58010=
KAKQ 231754Z AUTO 34006KT 10SM OVC007 14/12 A3015 RMK AO2 SLP212
     T01440122 10150 20111 58006=
KAPN 231754Z AUTO 15017KT 10SM CLR 23/12 A3007 RMK AO2 SLP179
     T02330117 10233 20061 58014=
KAVP 231754Z 10SM A3027 RMK AO2 SLPNO 58017 $=
KBTV 231754Z 00000KT 10SM BKN150 19/06 A3030 RMK AO2 SLP260
     T01940056 10200 20056 58015=
KCAR 231754Z AUTO 20006KT 10SM CLR 20/06 A3032 RMK AO2 SLP271
     T02000061 10200 20056 58015=
KCOS 231754Z 23017G28KT 10SM SCT050 SCT070 BKN200 17/00 A2945 RMK
     AO2 PK WND 21039/1659 WSHFT 1712 RAB29E54 SLP903 P0000 60000
     T01720000 10189 20144 51013 $=
KCOU 231754Z 17013KT 10SM CLR 26/15 A2975 RMK AO2 PK WND
     18028/1657 RAE1659 SLP065 P0000 60000 T02610150 10261 20189
     58007=
KCRW 231754Z 28003KT 10SM FEW100 24/07 A3018 RMK AO2 SLP218 VIRGA
     W-NW T02390072 10239 20044 58016=
KFWA 231754Z 18013G23KT 10SM FEW060 FEW180 SCT250 24/11 A3007 RMK
     AO2 SLP181 T02440106 10244 20122 58012 $=
KGSO 231754Z 05006KT 10SM FEW250 20/06 A3019 RMK AO2 SLP221
     T02000056 10200 20067 58014=
KJAN 231754Z 17008KT 10SM SCT048 27/13 A3009 RMK AO2 SLP186
     T02670133 10267 20144 58015=
KJQF 231750Z 01005KT 10SM CLR 22/04 A3021=
KLEX 231754Z 15010G18KT 10SM CLR 24/06 A3015 RMK AO2 SLP202
     T02440061 10250 20133 58015=
KLYH 231754Z 05007KT 10SM CLR 21/04 A3021 RMK AO2 SLP226 T02060044
     10211 20056 58018=
KLYV 231755Z AUTO 14018G27KT 10SM CLR 22/11 A2937 RMK AO2=
KMVL 231754Z AUTO 00000KT 10SM CLR 20/05 A3032 RMK AO2 SLP272
     T02000050 10200 20000 58015=
KORH 231754Z 05006KT 10SM CLR 14/06 A3033 RMK AO2 SLP275 T01390061
     10144 20117 58010=
KPIA 231754Z 17016G23KT 10SM CLR 24/14 A2982 RMK AO2 PK WND
     17027/1655 SLP093 T02440139 10250 20167 58017=
KPOV 231755Z AUTO 12004KT 10SM CLR 23/03 A3019 RMK AO2 T02340028
     PWINO=
KPZQ 231755Z AUTO 17013G20KT 10SM CLR 24/12 A3006 RMK AO2
     T02370119 10238 20133=
KRFD 231754Z 16015G27KT 10SM CLR 23/13 A2984 RMK AO2 PK WND
     16028/1659 SLP100 T02330133 10233 20139 58018=
KRIC 231754Z 35010KT 10SM OVC010 15/12 A3018 RMK AO2 SLP225 60000
     T01500122 10150 20094 58011 $=
KROA 231754Z 02007KT 10SM FEW200 21/04 A3024 RMK AO2 SLP236
     T02060039 10206 20028 58017 $=
KSBN 231754Z 17018G25KT 10SM CLR 24/13 A2998 RMK AO2 PK WND
     17028/1744 SLP149 T02440128 10250 20144 58016=
KSUS 231754Z 19017G26KT 10SM FEW037 23/14 A2983 RMK AO2 PK WND
     16026/1657 SLP093 T02330144 10239 20183 58012=
KSYR 231754Z VRB03KT 10SM FEW120 FEW200 BKN250 20/06 A3026 RMK AO2
     SLP246 T02000061 10200 20044 58018 $=
KWAL 231754Z AUTO 03014G19KT 10SM OVC009 17/15 A3011 RMK AO2 RAE02
     SLP193 P0000 60001 T01720150 10183 20150 58010=
K12N 231754Z AUTO 00000KT 17/08 A3027 RMK AO1 SLP253 T01670083
     10167 20089 58014=
KMTP 231754Z AUTO 05006G16KT 15/13 A3027 RMK AO1 SLP251 P0007
     60008 T01500133 10167 20150 58013=
KDRT 231753Z AUTO 15009KT 10SM BKN018 23/19 A2982 RMK AO2 SLP090
     T02330189 10239 20200 58006=
KHVR 231753Z AUTO 01014G23KT BKN017 OVC022 02/01 A2974 RMK AO2
     SLP091 60005 T00220006 10022 20006 53024 $=
KABQ 231752Z 23022G42KT 9SM FEW020 FEW045 SCT080 SCT200 19/M01
     A2972 RMK AO2 PK WND 22042/1745 SLP994 MTNS OBSC NE-SE
     T01941006 10200 20128 58007=
KMLF 231752Z AUTO 02005KT 1 1/4SM -SN BR OVC003 01/00 A2984 RMK
     AO2 SLP110 P0001 60045 T00060000 10006 20000 51034 $=
