SAUS70 KWBC 232128
METAR
K1S5 232135Z AUTO 15004KT 10SM CLR 14/00 A3010 RMK AO2
     T01391001=
KCPF 232135Z AUTO 00000KT 10SM CLR 25/04 A3013 RMK AO2=
KEMV 232135Z AUTO 33010KT 10SM OVC012 15/13 A3016 RMK AO2
     T01520127=
KFFA 232135Z AUTO 34007G18KT 1 3/4SM BR OVC005 16/16 A3005 RMK AO2
     T01610161=
KMCJ 232135Z AUTO 15015G26KT 10SM CLR 28/16 A2986 RMK A01=
KSUW 232135Z AUTO 06012G18KT 10SM BKN050 12/09 A2962 RMK AO2
     T01210091=
