SAUS70 KWBC 232000 RRW
METAR
KIDI 231955Z AUTO VRB05KT 10SM CLR 21/03 A3024 RMK A01=
KMDS 231955Z AUTO 14022G32KT 10SM CLR 25/12 A2925 RMK AO2=
KMTN 231955Z 34004KT 10SM RA OVC040 17/12 A3021=
KOLG 231955Z AUTO 15015G22KT 10SM CLR 23/11 A2962 RMK AO1=
KRZL 231955Z AUTO 17017G25KT 10SM CLR 25/11 A2994 RMK AO2=
KRZN 231955Z AUTO 15015G21KT 10SM CLR 23/12 A2958 RMK AO2
     T02330116=
KS24 231955Z AUTO 18011KT 10SM CLR 25/09 A3010 RMK AO2=
KSPF 231955Z AUTO 30020G28KT 10SM OVC015 05/01 A2940 RMK AO2=
KUBE 231955Z AUTO 13018G25KT 10SM SCT042 23/17 A2961 RMK AO2=
K0S9 231955Z AUTO 14009KT 10SM FEW025 SCT034 12/06 A3013 RMK
     AO2=
KALM 231955Z AUTO 22017KT 10SM CLR 23/06 A2975 RMK AO2=
KAPC 231954Z 01022G32KT 10SM CLR 23/M03 A2996 RMK AO2 PK WND
     01033/1937 SLP136 T02281033=
KATA 231955Z AUTO 16015G21KT 10SM SCT055 29/15 A2986 RMK AO2
     SLP012 T02850151 $=
KATS 231955Z AUTO 22022G28KT 10SM BKN075 BKN085 25/11 A2969 RMK
     AO2=
KBKS 231955Z AUTO 14015G21KT 10SM FEW055 32/18 A2976 RMK AO2
     SLP037 T03250183 $=
KBVU 231955Z AUTO 05007KT 10SM CLR 17/M09 A2985 RMK AO2=
KBXK 231955Z AUTO 27011KT 10SM FEW065 23/07 A2975 RMK A01=
KCLS 231955Z AUTO VRB04KT 10SM SCT027 SCT031 SCT038 12/06 A3016
     RMK AO2=
KCMR 231955Z AUTO 30017G24KT 10SM SCT050 SCT060 08/M05 A2985 RMK
     AO2=
KCPT 231955Z AUTO 17021G31KT 10SM CLR 29/15 A2977 RMK A01=
KEUG 231954Z 00000KT 10SM SCT050 15/03 A3019 RMK AO2 SLP226
     T01500033 $=
KHWD 231954Z 33010G16KT 10SM CLR 21/01 A2999 RMK AO2 SLP163
     T02060006=
KMRY 231954Z 33008KT 10SM CLR 16/05 A3000 RMK AO2 SLP171
     T01610050=
KSVC 231955Z AUTO 27012G22KT 10SM CLR 19/04 A2983 RMK AO2
     T01900036=
KSXU 231955Z AUTO 22030G36KT 10SM CLR 23/00 A2960 RMK AO2
     T02261005=
KTSP 231955Z AUTO 30015KT 9SM CLR 11/M03 A2995 RMK AO2=
KU42 231955Z AUTO 33015G19KT 10SM OVC039 04/00 A2983 RMK AO1
     T00400001=
KBTN 231955Z AUTO 12029G37KT 4SM HZ CLR 22/11 A2922 RMK AO2=
KOAR 231955Z AUTO 28008KT 10SM CLR M03/M22 A2999 RMK AO2=
KANQ 231955Z AUTO 17015G20KT 10SM CLR 24/10 A3002 RMK AO2=
KBAC 231955Z AUTO 11019G27KT 10SM CLR 22/12 A2932 RMK AO2=
KBWP 231955Z AUTO 13020G30KT 9SM CLR 24/12 A2931 RMK AO2=
KBWW 231955Z AUTO 35015KT 10SM OVC010 06/06 A2935 RMK AO2=
KCKZ 231955Z AUTO 06012G20KT 10SM SCT046 16/09 A3025 RMK AO2=
KD25 231955Z AUTO 14016G24KT 10SM SCT042 22/12 A2974 RMK AO2
     T02190121=
KD60 231955Z AUTO 04019KT 9SM OVC009 05/05 A2946 RMK AO2=
KDSV 231954Z AUTO 11006KT 10SM CLR 21/04 A3021 RMK AO2 SLP240
     T02110044=
KEGV 231955Z AUTO 16013G20KT 140V200 10SM SCT038 21/11 A2979 RMK
     AO2 T02060105=
KEKM 231955Z AUTO 16015G28KT 9SM FEW055 25/12 A2998 RMK AO2 PK WND
     17028/1952 T02480121=
KISQ 231955Z AUTO 15007KT 10SM SCT050 19/12 A2994 RMK AO2
     T01930116=
KJYG 231955Z AUTO 14023G30KT 10SM CLR 24/12 A2941 RMK AO2=
KMBL 231956Z AUTO 15011G14KT 10SM SCT055 25/13 A2991 RMK AO2
     SLP126 T02500133=
KTME 231955Z AUTO 18010G18KT 10SM BKN065 30/15 A2989 RMK AO2=
KVGC 231955Z AUTO 00000KT 10SM CLR 17/06 A3028 RMK AO2=
KY19 231955Z AUTO 07011G19KT 10SM CLR 15/08 A2927 RMK AO2=
KFLL 231953Z 04008G18KT 10SM SCT036 SCT049 28/19 A3000 RMK AO2
     SLP159 T02830189 $=
KMCO 231953Z VRB05KT 10SM FEW050 29/13 A3006 RMK AO2 SLP176
     T02890133 $=
KPBI 231953Z 36014KT 10SM FEW040 SCT060 29/18 A3003 RMK AO2 SLP169
     T02890183 $=
KPHL 231954Z 05013G20KT 10SM -RA SCT030 BKN044 OVC095 16/12 A3021
     RMK AO2 RAB49 SLP229 P0000 T01610122 $=
TIST 231953Z 08007KT 10SM SCT033 31/23 A2988 RMK AO2 SLP117
     T03060228=
KBYS 231955Z AUTO 34007KT 10SM CLR 17/M10 A2986 RMK AO2 SLP098
     T01671101=
