SAUS80 KWBC 231700 RRA
METAR
KAAT 231655Z AUTO 18004KT 10SM BKN025 OVC034 01/M02 A3006 RMK AO2
     SLP197 T00111017=
KMKN 231655Z AUTO 18021G27KT 10SM CLR 26/17 A2985 RMK AO2
     T02610166=
KS39 231655Z AUTO 00000KT 10SM FEW033 05/00 A3007 RMK AO2=
KSEP 231655Z AUTO 18015G26KT 10SM SCT033 SCT100 27/15 A2987 RMK
     AO2 T02660153=
TJSJ 231656Z 04010KT 10SM FEW035 SCT060 31/24 A2991 RMK AO2 SLP129
     T03110239 $=
PHJR 231653Z 00000KT 10SM FEW080 23/20 A3002 RMK AO2 RAB18E33
     SLP170 P0000 T02280200=
PHKO 231653Z 13005KT 10SM FEW050 26/19 A2997 RMK AO2 SLP147
     T02560194=
PHMK 231654Z 04003KT 10SM FEW049 23/20 A3002 RMK AO2 SLP166
     T02330200=
PHNL 231653Z 06009KT 10SM SCT033 BKN049 BKN070 25/22 A3000 RMK AO2
     RAB02E14 SLP158 P0001 T02500217=
PHOG 231654Z 05008KT 10SM FEW030 23/16 A2999 RMK AO2 SLP159
     T02280161=
PHTO 231653Z 25008KT 10SM FEW028 FEW038 OVC049 22/19 A3003 RMK AO2
     SLP166 T02220189=
KFSD 231656Z 15017G28KT 10SM CLR 22/12 A2934 RMK AO2 PK WND
     14031/1607 SLP929 T02220122=
KMWN 231652Z 12010KT 80SM SCT060 BKN100 OVC200 11/M13 RMK
     BINOVC=
KOFK 231656Z AUTO 17019G29KT 10SM CLR 25/11 A2932 RMK AO2 PK WND
     17030/1622 SLP917 T02500111=
KD07 231656Z AUTO 03009KT 10/04 A2926 RMK AO1 SLP914 T01000039=
K48A 231655Z AUTO 36007KT 10SM CLR 23/11 A3020 RMK AO2
     T02260106=
K4BM 231655Z AUTO 17015G23KT M1/4SM +SN OVC002 M01/M02 A2962 RMK
     AO2=
KCAE 231656Z COR VRB03KT 10SM FEW048 FEW250 22/10 A3019 RMK AO2
     SLP222 T02220100=
KCKP 231655Z AUTO 16019G27KT 10SM CLR 23/13 A2942 RMK AO2
     T02310130=
KDBN 231655Z AUTO 09004KT 10SM CLR 24/09 A3022 RMK AO2=
KEHA 231655Z AUTO 22035G44KT 7SM CLR 26/04 A2952 RMK AO2
     T02640044=
KFLG 231657Z AUTO 27009G16KT 10SM BKN015 BKN024 OVC031 04/02 A2982
     RMK AO2 PK WND 23039/1618 RAB23E41 SLP037 P0000 T00440017=
KIZA 231655Z AUTO 20003KT 10SM CLR 12/08 A2991 RMK AO2=
