SAUS70 KWBC 231800 RRO
METAR
KCVX 231755Z AUTO 16012G18KT 10SM CLR 23/12 A2998 RMK AO2
     T02320116 10233 20127=
KCWI 231756Z AUTO 18018G25KT 10SM CLR 24/14 A2977 RMK AO2 SLP077
     T02440139 10244 20150 58016=
KD95 231755Z AUTO 15008KT 10SM CLR 23/06 A3012 RMK AO2 T02270064
     10231 20079=
KDIJ 231756Z AUTO 32009KT 9SM -SN OVC026 M01/M04 A2974 RMK AO2
     SLP089 P0000 60000 T10061039 11006 21017 51019=
KDLZ 231755Z AUTO 15006KT 10SM CLR 22/10 A3016 RMK AO2=
KDTL 231755Z AUTO 13013G24KT 10SM CLR 21/11 A2946 RMK AO2=
KDUH 231755Z AUTO 15009G17KT 10SM SCT055 24/08 A3011 RMK AO2
     T02420082 10244 20113=
KDYR 231756Z AUTO 22009G14KT 180V250 10SM FEW043 SCT050 26/14
     A3004 RMK AO2 SLP175 6//// T02610144 10261 20167 58013=
KDYT 231755Z AUTO 06011KT 10SM BKN070 13/10 A2968 RMK AO2=
KEDJ 231755Z AUTO 19014KT 10SM CLR 23/11 A3015 RMK A01=
KEEN 231756Z AUTO 00000KT 10SM CLR 13/07 A3034 RMK AO2 SLP281
     T01280072 10128 20011 58015 $=
KEFK 231755Z AUTO 02003KT 10SM CLR 19/06 A3033 RMK AO2 T01880058
     10197 20043=
KEGE 231756Z 29004KT 10SM -RA BKN021 OVC037 04/01 A2959 RMK AO2
     RAB19 SLP957 P0000 60041 T00440011 10056 20022 51008=
KEHR 231756Z AUTO 20017KT 10SM CLR 26/10 A3002 RMK AO2 PK WND
     19029/1740 SLP165 T02610100 10261 20172 58016=
KENV 231756Z AUTO 32023G33KT 10SM CLR 07/M10 A2984 RMK AO2 PK WND
     31033/1752 SLP106 T00721100 10072 20039 51018=
KESC 231756Z AUTO 16013G18KT 10SM CLR 16/11 A2994 RMK AO2 SLP140
     6//// T01610111 10161 20111 58005 PNO $=
KEWK 231756Z AUTO 18027G37KT 9SM CLR 26/13 A2953 RMK AO2 PK WND
     18042/1725 SLP983 T02610128 10272 20217 58010=
KFAM 231756Z AUTO 18015G25KT 10SM OVC024 21/14 A2993 RMK AO2 PK
     WND 17028/1702 SLP136 T02110144 10211 20167 58005=
KFCI 231756Z AUTO 36006KT 9SM OVC016 15/12 A3019 RMK AO2 SLP236
     T01500122 10161 20089 56009=
KFFX 231755Z AUTO 16008G15KT 10SM SCT050 SCT070 24/11 A2998 RMK
     AO2 T02410113 10243 20134=
KFGN 231755Z AUTO 09006KT 10SM CLR 13/06 A2963 RMK AO2=
KFKA 231755Z AUTO 14016G24KT 7SM 22/13 A2964 RMK AO2 6////
     T02200125=
PFKW 231756Z AUTO 13009KT 10SM FEW003 OVC029 M02/M02 A3002 RMK AO2
     SNE38 SLP166 P0000 60000 T10171017 11017 21033 58012
     FZRANO=
PFSH 231756Z AUTO 17015KT 10SM OVC060 02/M01 A2993 RMK AO2 SLP134
     60002 T00221006 10028 20022 58005 FZRANO=
PFWS 231756Z AUTO 32004KT 10SM CLR M02/M04 A3012 RMK AO2 SLP244
     T10221039 11006 21022 51013 FZRANO=
KS24 231755Z AUTO 17013G19KT 10SM CLR 24/09 A3013 RMK AO2=
KMOX 231755Z AUTO 14024G30KT 10SM CLR 22/09 A2940 RMK AO2=
KMQJ 231755Z AUTO RMK AO1=
KMQY 231756Z 19009KT 10SM CLR 25/08 A3015 RMK AO2 SLP213 T02500083
     10250 20089 58017=
KMRF 231756Z AUTO 20016G22KT 9SM CLR 27/06 A2993 RMK AO2 SLP074
     T02670061 10267 20072 58010=
KMSV 231756Z AUTO 10005KT 10SM BKN030 OVC050 16/09 A3029 RMK AO2
     SLP262 T01610094 10161 20039 58013=
KMTW 231756Z AUTO 16015KT 10SM CLR 16/12 A2991 RMK AO2 SLP127
     T01560117 10156 20122 58011=
KMVN 231756Z AUTO 18021G29KT 10SM OVC038 24/14 A2995 RMK AO2 PK
     WND 19029/1754 SLP143 T02440144 10250 20167 58014=
KMWM 231755Z AUTO 14022G32KT 10SM CLR 22/12 A2943 RMK AO2=
KMYR 231756Z 35013KT 10SM CLR 23/06 A3013 RMK AO2 SLP202 T02280061
     10228 20128 58009=
KOAJ 231756Z 35007KT 10SM OVC022 21/14 A3010 RMK AO2 SLP196 60000
     T02060139 10222 20133 58010=
KOCH 231756Z AUTO 16015G23KT 10SM BKN055 28/14 A2996 RMK AO2
     SLP144 T02780144 10294 20183 58010=
KOEB 231755Z AUTO 16011G17KT 10SM CLR 23/11 A3006 RMK AO2
     T02300108 10230 20126=
