SAUS70 KWBC 231800 RRN
METAR
K54J 231755Z AUTO 00000KT 10SM CLR 24/04 A3017 RMK AO2 T02380038
     10243 20102=
K6L4 231755Z AUTO VRB04KT 10SM CLR 22/05 A3019 RMK AO2=
K6S2 231755Z AUTO 00000KT 10SM FEW041 10/10 A3020 RMK AO2=
K82C 231755Z AUTO 13011G19KT 10SM CLR 22/13 A2975 RMK AO2
     T02230130 10223 20136=
KABR 231753Z AUTO 12013G22KT 10SM -RA CLR 23/12 A2928 RMK AO2 PK
     WND 12026/1714 RAB11 SLP913 P0000 60000 T02280122 10228 20033
     56033=
KACV 231753Z AUTO 26004KT 10SM CLR 12/08 A3015 RMK AO2 SLP216
     T01220078 10122 20033 51013=
KADG 231753Z AUTO 20010G21KT 10SM FEW055 23/10 A3011 RMK AO2
     SLP195 T02280100 10233 20089 58016=
KAGS 231753Z 00000KT 10SM CLR 24/09 A3016 RMK AO2 SLP212 T02390089
     10239 20044 58021=
KAIK 231755Z AUTO 36005KT 10SM CLR 23/09 A3017 RMK AO2 T02310092
     10235 20073=
KALW 231753Z 21008KT 10SM BKN100 08/02 A3006 RMK AO2 SLP184
     T00830022 10083 20050 51023 $=
KAMW 231753Z AUTO 16017G29KT 10SM CLR 24/14 A2954 RMK AO2 PK WND
     17032/1730 SLP995 T02440139 10244 20144 58019=
KANB 231753Z AUTO 00000KT 10SM CLR 24/06 A3018 RMK AO2 SLP219
     T02390056 10239 20072 58015=
KANQ 231755Z AUTO 17016G22KT 10SM CLR 23/11 A3006 RMK AO2=
KARA 231753Z 15014G22KT 10SM BKN045 28/16 A3005 RMK AO2 SLP175
     T02830156 10283 20178 58012=
KARB 231753Z 15008KT 110V180 10SM CLR 23/11 A3010 RMK AO2 SLP193
     T02280106 10239 20033 58016=
KASX 231753Z AUTO 13011G16KT 10SM CLR 24/12 A2971 RMK AO2 SLP063
     T02390122 10239 20044 58010=
KATY 231753Z AUTO 13020G31KT 10SM -RA CLR 22/12 A2932 RMK AO2 PK
     WND 14031/1753 RAB1656 SLP925 P0000 60000 T02170122 10217
     20128 56027=
KAUS 231753Z 18020G27KT 10SM SCT042 SCT050 BKN250 29/18 A2987 RMK
     AO2 PK WND 18028/1714 SLP104 T02940178 10294 20156 58017=
KAWM 231753Z AUTO 18015G22KT 10SM CLR 27/14 A3001 RMK AO2 PK WND
     18026/1716 SLP157 T02670144 10267 20172 58017=
KAXN 231753Z AUTO 11016G30KT 10SM CLR 22/12 A2947 RMK AO2 PK WND
     12030/1746 RAB32E41 SLP978 P0000 60000 T02170117 10217 20111
     58026=
KMFE 231753Z 16020G33KT 10SM CLR 32/17 A2983 RMK AO2 PK WND
     16033/1657 SLP098 T03170172 10317 20217 58019 $=
KMFR 231753Z 00000KT 10SM FEW044 10/05 A3017 RMK AO2 SLP220
     T01000050 10100 20044 51020=
KMHE 231753Z AUTO 15026G37KT 10SM CLR 24/11 A2923 RMK AO2 PK WND
     15037/1749 SLP893 T02390111 10239 20133 56029=
KMIC 231753Z 13021G37KT 10SM CLR 22/12 A2955 RMK AO2 PK WND
     12037/1752 SLP003 T02220122 10228 20156 58022=
KMKL 231753Z 18010G19KT 10SM CLR 24/12 A3007 RMK AO2 SLP178
     T02440122 10244 20161 58016 $=
KMNI 231755Z AUTO 04007KT 10SM CLR 22/07 A3016 RMK AO2=
KMOD 231753Z 32014KT 10SM CLR 16/00 A2997 RMK AO2 SLP149 T01560000
     10156 20100 51016 $=
KMSL 231753Z AUTO 20010G14KT 10SM CLR 25/07 A3014 RMK AO2 SLP201
     T02500072 10250 20111 58016=
KMSP 231753Z 14014G34KT 10SM CLR 23/12 A2956 RMK AO2 PK WND
     14034/1734 SLP007 T02330122 10233 20150 58024=
KMTV 231755Z AUTO 05007KT 4SM HZ CLR 20/02 A3023 RMK AO2 T02000018
     10201 20000=
KMYF 231753Z 13006KT 10SM FEW028 BKN042 17/11 A2988 RMK AO2 SLP115
     T01670106 10172 20133 50009=
KMYV 231753Z AUTO 33015KT 10SM CLR 18/00 A3000 RMK AO2 SLP164
     T01780000 10178 20106 51016 $=
KOAK 231753Z 31011KT 10SM CLR 17/04 A3002 RMK AO2 SLP164 T01670039
     10167 20094 50015=
KOIN 231755Z AUTO 23029G37KT 7SM SCT034 SCT044 SCT055 29/05 A2933
     RMK AO1 T02930046=
KOKV 231755Z AUTO 33003KT 10SM BKN030 OVC038 16/07 A3023 RMK
     AO2=
KOMH 231755Z AUTO 02006G14KT 10SM OVC025 16/09 A3023 RMK AO2=
