SAUS70 KWBC 231800 RRN
METAR
KAFK 231755Z AUTO 20026G32KT 10SM CLR 29/13 A2944 RMK AO2
     T02850129 10285 20170=
KAIO 231755Z AUTO 18022G30KT 7SM CLR 27/15 A2944 RMK AO2=
KAJG 231755Z AUTO 18021G30KT 10SM CLR 27/10 A2999 RMK AO2
     T02670104 10269 20177=
KAJR 231755Z AUTO 00000KT 10SM CLR 23/03 A3019 RMK AO2 T02250026
     10225 20050=
KAJZ 231755Z AUTO 10004KT 10SM SCT055 SCT095 BKN110 07/03 A2963
     RMK AO2 60002 T00700032 10081 20045=
KAQO 231755Z AUTO 18012G22KT 140V200 10SM CLR 29/15 A2985 RMK
     AO2=
KASL 231755Z AUTO 00000KT 10SM BKN047 OVC055 28/15 A2992 RMK AO2
     T02780154 TSNO $=
KASW 231755Z AUTO 18011G19KT 140V200 10SM CLR 23/12 A3003 RMK AO2
     T02370120=
KAUN 231755Z AUTO VRB06KT 10SM CLR 15/M04 A2997 RMK A01=
KAWG 231755Z AUTO 18020G28KT 10SM CLR 25/15 A2966 RMK AO2=
KAXA 231755Z AUTO 16022G31KT 9SM CLR 24/14 A2948 RMK A01=
KAZE 231755Z AUTO 03003KT 10SM CLR 25/12 A3015 RMK AO2 T02490122
     10249 20075=
KBBD 231755Z AUTO 18019G28KT 10SM CLR 26/15 A2982 RMK AO2=
KBDG 231755Z AUTO 23012G19KT 10SM 06/00 A2975 RMK AO1 T00610004
     10237 20031=
KBEC 231755Z AUTO 19026G37KT 10SM CLR 28/12 A2957 RMK AO2
     T02790124 10279 20213=
KBJI 231755Z AUTO 12011KT 10SM CLR 19/10 A2955 RMK AO2 T01930101
     10193 20042=
KBOW 231750Z 01009 KT 10SM FEW035 28/15 A3010=
KBQK 231755Z AUTO 08013KT 10SM CLR 25/13 A3014 RMK AO2 T02520129
     10255 20088=
KBQP 231755Z AUTO 18010G17KT 150V210 10SM SCT047 27/14 A3003 RMK
     AO2 6//// T02670141=
KBVS 231755Z AUTO 16004KT 10SM SCT017 SCT028 OVC045 10/08 A3014
     RMK A01=
KBYY 231755Z AUTO 16014G23KT 10SM SCT060 28/16 A2995 RMK AO2
     T02890161=
KC65 231755Z AUTO 17018G23KT 10SM CLR 25/13 A2999 RMK A01=
KC75 231755Z AUTO 17013G24KT 10SM CLR 24/16 A2982 RMK AO2
     T02430158 10243 20171=
KCAV 231755Z AUTO 16024G31KT 10SM CLR 25/15 A2952 RMK A01=
KCBF 231755Z AUTO 18021G31KT 9SM CLR 27/11 A2940 RMK AO2=
KCCU 231755Z AUTO 27004KT 1SM -SN OVC001 M02/M04 A2965 RMK AO2=
KCIN 231755Z AUTO 17020G28KT 9SM CLR 25/14 A2945 RMK AO2=
KCKF 231755Z AUTO 00000KT 10SM CLR 24/07 A3017 RMK AO2 T02360068
     10242 20037=
KCNC 231755Z AUTO 16019G27KT 10SM CLR 24/15 A2957 RMK AO2=
KCOM 231755Z AUTO 16018G24KT 10SM CLR 28/14 A2981 RMK AO2
     T02770143 10277 20185=
KCUH 231755Z AUTO 19014G26KT 10SM CLR 26/16 A2969 RMK AO2
     T02630157 10264 20198=
KCWV 231755Z AUTO 03003KT 10SM CLR 25/11 A3015 RMK AO2 T02470113
     10255 20062=
KD73 231755Z AUTO 00000KT 10SM CLR 21/05 A3020 RMK AO2 T02140050
     10218 20034=
KDKB 231755Z AUTO 17022G28KT 10SM CLR 23/15 A2987 RMK AO2
     T02270147 10228 20128=
KDNS 231755Z AUTO RMK AO2 PNO PWINO=
KDVO 231755Z AUTO 32009G15KT 10SM CLR 19/01 A3002 RMK AO2=
KE11 231755Z AUTO 21014G17KT 10SM CLR 27/09 A2978 RMK AO2
     T02740091 10274 20162=
KE16 231755Z AUTO 33014G17KT 10SM CLR 15/04 A3001 RMK AO2=
KE41 231755Z AUTO 19016G23KT 10SM CLR 24/15 A2984 RMK AO2
     T02390146 10240 20158=
KECU 231755Z AUTO 14016G23KT 10SM CLR 24/16 A2992 RMK AO2=
KEZZ 231755Z AUTO 18022G30KT 10SM CLR 27/14 A2960 RMK AO2
     T02700142 10280 20175=
KFEP 231755Z AUTO 16015G22KT 7SM CLR 23/15 A2982 RMK AO2 T02310153
     10231 20148=
KFFL 231755Z AUTO 17018G25KT 10SM CLR 24/13 A2967 RMK A01=
KFKR 231755Z AUTO 17017G24KT 10SM CLR 25/11 A3000 RMK AO2=
KFMM 231755Z AUTO 32012G19KT 10SM CLR 21/M02 A2928 RMK AO2=
KFPY 231755Z AUTO 03004KT 10SM CLR 26/10 A3013 RMK AO2 T02610096
     10263 20053 TSNO=
KFSK 231755Z AUTO 19021G33KT 10SM SCT120 27/15 A2966 RMK AO2
     T02670147 10287 20211=
KFZG 231755Z AUTO 10003KT 10SM CLR 24/11 A3016 RMK AO2 T02420106
     10243 20065=
