SACA31 KWBC 232000
METAR
MBJT NIL=
MBPV NIL=
MBSC NIL=
MKJP NIL=
MKJS NIL=
MUCM 231951Z 01006KT 9000 SCT018 BKN080 26/25 Q1013=
MUCU 231950Z VRB03KT 8000 VCTS SCT020CB SCT070 29/21 Q1012=
MUHA 231950Z 07013KT 9000 SCT030 30/21 Q1014=
MUVR 231950Z 06013KT 9999 SCT020 28/21 Q1015=
MWCB 232000Z 06010KT 9999 FEW018 30/24 Q1012=
MWCR 232000Z 05010KT 9999 FEW018 30/25 Q1012=
MYAM NIL=
MYEG NIL=
MYEH NIL=
MYGF 232000Z 01009KT 9999 SCT030 27/19 A3002=
MYNN 232000Z 06011KT 9999 SCT022 28/19 A3000=
