SAUS70 KWBC 231820 RRC
METAR
KVVS 231815Z AUTO 12004KT 10SM CLR 22/02 A3022 RMK AO2
     T02200024=
KVYS 231815Z AUTO 16020G29KT 10SM CLR 25/14 A2982 RMK AO2
     T02460137=
KZPH 231815Z AUTO 36003KT 10SM CLR 28/14 A3009 RMK A02
     T02770143=
KBQK 231815Z AUTO 08015KT 10SM CLR 25/13 A3014 RMK AO2
     T02500130=
KBVN 231815Z AUTO 18019G28KT 10SM CLR 27/09 A2928 RMK AO2
     T02690094 PWINO=
KBVS 231815Z AUTO 18003KT 10SM BKN018 BKN024 OVC044 10/08 A3014
     RMK A01=
KBYY 231815Z AUTO 16016G20KT 10SM SCT060 SCT075 29/16 A2993 RMK
     AO2 T02950163=
KC35 231815Z AUTO 14009G16KT 10SM CLR 23/13 A2975 RMK AO2
     T02260125 PWINO=
KC65 231815Z AUTO 17014G24KT 10SM CLR 25/13 A2998 RMK A01=
KC75 231815Z AUTO 17017G23KT 10SM CLR 24/16 A2980 RMK AO2
     T02370157=
KCBK 231815Z AUTO 23027G38KT 7SM SCT042 A2931 RMK AO2=
KCCU 231815Z AUTO 28004KT M1/4SM -SN OVC001 M02/M05 A2963 RMK
     AO2=
KCFD 231815Z AUTO 17013G19KT 10SM BKN055 29/17 A2992 RMK AO2
     T02910171=
KCFS 231815Z AUTO 17010G21KT 10SM CLR 24/10 A3009 RMK AO2
     T02390101=
KCKC 231817Z AUTO 12007G14KT 090V160 10SM SCT100 18/11 A2978 RMK
     AO2=
KCKN 231815Z AUTO 13009G16KT 10SM CLR 23/10 A2946 RMK AO2=
KCOM 231815Z AUTO 16019G25KT 10SM CLR 28/14 A2980 RMK AO2
     T02810140=
KCQF 231815Z AUTO 00000KT 10SM CLR 25/10 A3013 RMK AO2=
KCUH 231815Z AUTO 17016G29KT 10SM CLR 27/16 A2968 RMK AO2
     T02710156=
KD73 231815Z AUTO 33003KT 10SM CLR 22/05 A3019 RMK AO2
     T02210048=
KDUC 231815Z AUTO 17024G31KT 10SM CLR 27/16 A2972 RMK AO2
     T02740160=
KDVO 231815Z AUTO 33008G18KT 10SM CLR 19/00 A3002 RMK AO2=
KDZJ 231815Z AUTO 00000KT 10SM CLR 21/00 A3020 RMK AO2
     T02141002=
KE11 231815Z AUTO 22016G22KT 10SM CLR 28/09 A2977 RMK AO2
     T02790091=
KE16 231815Z AUTO 33012G21KT 10SM CLR 16/03 A3000 RMK AO2=
KE41 231815Z AUTO 17017G22KT 10SM CLR 24/15 A2983 RMK AO2
     T02400146=
KE42 231815Z AUTO 21029G38KT 10SM CLR 30/09 A2956 RMK AO2
     T02980092=
KEBA 231815Z AUTO 23004KT 10SM CLR 23/04 A3018 RMK AO2
     T02280041=
KEBG 231815Z AUTO 14020G27KT 10SM CLR 32/19 A2983 RMK AO2
     T03150187 PWINO=
KECU 231815Z AUTO 15016G24KT 10SM CLR 24/16 A2991 RMK AO2=
KELA 231815Z AUTO 16013G24KT 10SM BKN047 OVC065 30/17 A2991 RMK
     AO2 T02990174=
KEMM 231815Z AUTO 10SM SCT021 BKN026 BKN031 00/M05 A2967 RMK
     AO2=
KEQA 231815Z AUTO 18029G35KT 10SM CLR 28/13 A2957 RMK AO2=
KETC 231815Z AUTO 35008KT 10SM OVC017 18/13 A3012 RMK AO2
     T01790135=
KEZZ 231815Z AUTO 18018G25KT 10SM CLR 27/14 A2959 RMK AO2
     T02670143=
K06C 231815Z AUTO 16014G25KT 10SM CLR 24/16 A2987 RMK AO2
     T02360162=
K0CO 231815Z AUTO 35008G16KT M1/4SM +SN OVC001 M05/M06 A2963 RMK
     AO2 P0002=
K13K 231815Z AUTO 17021G32KT 10SM VCTS SCT029 SCT050 BKN120 25/15
     A2962 RMK AO2 LTG DSNT N THRU SE T02510155=
K18A 231815Z AUTO 07003KT 10SM CLR 24/03 A3019 RMK AO2
     T02390031=
K1F0 231815Z AUTO 18018G29KT 10SM CLR 28/16 A2976 RMK AO2
     T02750160=
K1H2 231815Z AUTO 15011G23KT 10SM OVC040 24/14 A2996 RMK AO2
     T02370144=
K1R8 231815Z AUTO 13005KT 10SM CLR 26/06 A3012 RMK AO2=
K2J3 231815Z AUTO 29003KT 10SM CLR 23/10 A3017 RMK AO2
     T02340103=
K2R9 231815Z AUTO 17013G22KT 10SM BKN048 29/17 A2987 RMK AO2
     T02940174=
K2V5 231815Z AUTO 23024G33KT 10SM CLR 27/M05 A2923 RMK AO2=
K33V 231815Z AUTO 30006G16KT 10SM SCT034 BKN042 OVC050 02/M02
     A2953 RMK AO1=
K3F3 231815Z AUTO 18014G18KT 10SM OVC050 28/16 A3000 RMK AO2
     T02840155=
K4A9 231815Z AUTO 27006KT 10SM CLR 23/03 A3017 RMK AO2
     T02260035=
