SAUS80 KWBC 232140
METAR
K9MN 232135Z AUTO 13020G31KT 10SM CLR 23/12 A2956 RMK AO1
     T02300117=
KTKC 232135Z AUTO 15018G30KT 10SM 26/10 A2933 RMK AO2
     T02580103=
KCTY 232135Z AUTO 01005KT 10SM CLR 27/08 A3009 RMK AO2
     T02710084=
K40U 232135Z AUTO 31019G30KT 10SM OVC050 02/M07 A2973 RMK AO2
     T00221068=
KEDU 232140Z AUTO 34013G22KT 10SM CLR 20/M03 A2998 RMK AO1=
KMKN 232135Z AUTO 17016G25KT 10SM CLR 29/14 A2974 RMK AO2
     T02920136=
KSEP 232135Z AUTO 18017G25KT 10SM CLR 30/13 A2976 RMK AO2
     T02990127=
KSNC 232135Z AUTO 36004KT 10SM BKN033 12/10 A3027 RMK AO2=
KGNG 232135Z AUTO 29019G25KT 10SM CLR 09/M08 A2991 RMK AO2=
KRFI 232135Z AUTO 15011G18KT 10SM SCT060 30/08 A2987 RMK AO2
     T02960082=
KRLD 232135Z AUTO 21006KT 10SM CLR 16/01 A3011 RMK AO2
     T01560012=
KS39 232130Z AUTO VRB06KT 10SM CLR 09/M03 A3011 RMK AO2=
K9MN 232135Z AUTO 13020G31KT 10SM CLR 23/12 A2956 RMK AO1
     T02300117=
KCIR 232135Z AUTO 21007G20KT 10SM CLR 27/14 A2994 RMK AO2
     T02650135=
KTKC 232135Z AUTO 15018G30KT 10SM 26/10 A2933 RMK AO2
     T02580103=
KTKV 232135Z AUTO 14006KT 10SM OVC043 21/12 A2974 RMK AO2
     T02110119 PWINO=
KVTI 232135Z AUTO 15018G28KT 10SM CLR 25/14 A2960 RMK AO2
     T02450135=
KSOW 232135Z AUTO 22017G26KT 10SM FEW037 SCT043 SCT050 11/02 A2983
     RMK AO2=
KDBN 232135Z AUTO 00000KT 10SM CLR 25/06 A3014 RMK AO2=
KEHA 232135Z AUTO 21032G41KT 10SM SCT110 28/02 A2945 RMK AO2
     T02790024=
KGIC 232135Z AUTO 07006KT 10SM BKN018 OVC024 03/01 A3006 RMK
     AO1=
KIZA 232135Z AUTO VRB06G12KT 300V020 10SM CLR 23/M07 A2985 RMK
     AO2=
KPSN 232135Z AUTO 17013G18KT 130V190 10SM FEW070 29/12 A2983 RMK
     AO2=
KSOA 232135Z AUTO 17015KT 10SM 25/15 A2983 RMK AO2=
K48A 232135Z AUTO 09004KT 10SM CLR 24/09 A3013 RMK AO2
     T02430095=
K9V9 232135Z AUTO 21009G18KT 10SM CLR 29/03 A2911 RMK AO2
     T02920027=
KAYS 232135Z AUTO 00000KT 10SM CLR 26/10 A3011 RMK AO2
     T02590101=
KCKP 232135Z AUTO 16020G26KT 10SM CLR 28/12 A2935 RMK AO2
     T02810120=
