SAUS70 KWBC 231758
METAR
KMCX 231815Z AUTO 18016G24KT 10SM CLR 25/11 A2998 RMK AO2
     T02460113=
KM54 231740Z AUTO 21012G18KT 10SM CLR 24/07 A3012 RMK A01=
KM91 231740Z AUTO 20010G18KT 150V230 10SM CLR 24/09 A3010 RMK
     A01=
KMRC 231740Z AUTO 19010G17KT 10SM CLR 23/07 A3012 RMK A01=
KGZN 231740Z AUTO 17019G27KT 10SM CLR 27/15 A2978 RMK AO2=
KSNH 231740Z AUTO 21015KT 10SM CLR 24/09 A3011 RMK A01=
KTHA 231740Z AUTO VRB05G12KT 10SM CLR 23/06 A3017 RMK A01=
