SAUS70 KWBC 232046
METAR
KTNB 232030Z AUTO 13005KT 10SM CLR 19/04 A3021 RMK AO2
     T01850037=
KJVY 232035Z AUTO 18010KT 10SM CLR 25/08 A3005 RMK AO2 PWINO=
