SASA31 KWBC 231900 RRA
METAR
SVBC 231903Z AUTO 34009KT NCD 31/24 Q1010=
SVBC 231900Z 34010KTS 9000 HZ SCT013 33/// Q1008=
SVMC 231903Z AUTO NIL=
SVMG 231903Z AUTO 11013KT NCD 37/24 Q1009=
SVMG 231900Z 10015KT 9999 FEW040 ///// Q1008=
SVMI 231903Z AUTO 07007KT NCD ///// Q1011=
