SAUS70 KWBC 232120 RRF
METAR
KC75 232115Z AUTO 17023G32KT 10SM CLR 25/16 A2976 RMK AO2
     T02520164=
KCAV 232115Z AUTO 15026G32KT 10SM CLR 24/16 A2946 RMK A01=
KCBF 232115Z AUTO 18023G36KT 10SM CLR 29/10 A2934 RMK AO2=
KCCU 232115Z AUTO 25018G24KT 1/2SM -SN OVC002 M04/M07 A2963 RMK
     AO2=
KCIN 232115Z AUTO 16026G35KT 10SM CLR 27/14 A2940 RMK AO2=
KCKF 232115Z AUTO 13003KT 10SM CLR 25/06 A3013 RMK AO2
     T02520057=
KCMD 232115Z AUTO 18006KT 10SM CLR 24/04 A3011 RMK AO2=
KCNC 232115Z AUTO 16025G33KT 10SM CLR 28/15 A2953 RMK AO2=
KCOM 232115Z AUTO 18015G23KT 10SM CLR 31/12 A2973 RMK AO2
     T03050120=
KCUH 232115Z AUTO 19022G31KT 10SM CLR 28/14 A2962 RMK AO2
     T02810140=
KCWV 232115Z AUTO 07003KT 7SM CLR 25/10 A3013 RMK AO2
     T02540099=
KD73 232115Z AUTO 36003KT 10SM CLR 23/04 A3015 RMK AO2
     T02280036=
KDKB 232115Z AUTO 16019G31KT 10SM SCT047 SCT110 24/15 A2981 RMK
     AO2 T02380151=
KDKR 232115Z AUTO 16014G22KT 10SM BKN060 BKN070 29/14 A2985 RMK
     AO2=
KDNS 232115Z AUTO RMK AO2 PNO PWINO=
KDVO 232115Z AUTO 01013G19KT 10SM CLR 23/M05 A2998 RMK AO2=
KPOY 232115Z AUTO 32026G33KT 10SM CLR 03/M06 A2961 RMK AO2=
KPPQ 232115Z AUTO 15018G23KT 10SM CLR 25/16 A2975 RMK AO2
     T02500155=
KRCR 232115Z AUTO 18015KT 10SM CLR 24/11 A2997 RMK AO2=
KRCV 232115Z AUTO 24022G30KT 10SM BKN050 OVC060 05/M06 A2964 RMK
     AO2 T00451057=
KRDK 232115Z AUTO 18022G33KT FEW120 29/14 A2941 RMK AO2=
KREG 232115Z AUTO 12008KT 10SM BKN060 27/15 A3002 RMK AO2
     T02650145=
KSBO 232115Z AUTO 09003KT 10SM CLR 25/09 A3014 RMK AO2=
KSBS 232115Z AUTO 21004KT 3/4SM BKN005 OVC010 M02/M02 A2964 RMK
     AO1 T10201020=
KSDA 232115Z AUTO 17023G35KT 10SM FEW120 28/14 A2940 RMK AO2=
KSEF 232115Z AUTO 01010KT 10SM CLR A3005 RMK AO2=
KSHL 232115Z AUTO 16021G34KT 10SM CLR 27/12 A2930 RMK AO2=
KSJS 232115Z AUTO 00000KT 10SM CLR 24/06 A3014 RMK AO2
     T02360061=
KSLB 232115Z AUTO 17024G35KT 9SM CLR 27/13 A2937 RMK AO2=
KSME 232115Z AUTO 19005G13KT 10SM CLR 24/04 A3008 RMK AO2=
KSUT 232115Z AUTO 30007KT 10SM CLR 23/10 A3008 RMK AO2
     T02250095=
KT35 232115Z AUTO 18015G22KT 10SM SCT055 SCT070 31/16 A2980 RMK
     AO2 T03050164=
KTIP 232115Z AUTO 17018G28KT 10SM CLR 24/12 A2989 RMK AO2
     T02350120=
KUNI 232115Z AUTO 14004KT 10SM CLR 24/05 A3012 RMK AO2
     T02420052=
KVPC 232115Z AUTO 00000KT 10SM CLR 24/02 A3014 RMK AO2=
KW22 232115Z AUTO 03004KT 10SM CLR 24/01 A3016 RMK AO2=
KWDR 232115Z AUTO 00000KT 10SM CLR 22/00 A3016 RMK AO2=
KZER 232115Z AUTO 08006KT 10SM BKN110 14/08 A3026 RMK AO2=
KJAS 232115Z AUTO 18009G21KT 140V200 9SM FEW042 FEW050 SCT070
     27/18 A2991 RMK AO2=
KJOT 232115Z AUTO 18017G24KT 10SM SCT050 26/14 A2983 RMK AO2
     T02600140=
KJSV 232115Z AUTO RMK AO2 PNO PWINO TSNO=
KJYR 232115Z AUTO 18026G36KT 8SM CLR 27/11 A2928 RMK AO2=
KLAM 232115Z AUTO 25019G26KT 10SM SCT035 SCT055 OVC065 08/01 A2975
     RMK AO2 T00760008=
KLCQ 232115Z AUTO 04003KT 10SM CLR 26/10 A3010 RMK AO2=
KLGC 232115Z AUTO 05003KT 10SM CLR 24/02 A3013 RMK AO2
     T02360020=
KLLN 232115Z AUTO 23016G28KT 10SM BKN085 27/09 A2967 RMK AO2=
KLOM 232115Z AUTO 00000KT 10SM -RA BKN038 OVC050 14/11 A3022 RMK
     AO2 T01430115=
KLOT 232115Z AUTO 16024G36KT 10SM CLR 26/13 A2984 RMK AO2=
KLRJ 232115Z AUTO 16029G35KT 10SM CLR 29/12 A2927 RMK AO2=
KLXN 232115Z AUTO 22029G38KT 7SM CLR 31/01 A2922 RMK AO2
     T03060005=
KMGC 232115Z AUTO 17015G21KT 10SM CLR 24/11 A2991 RMK AO2=
KMJD 232115Z AUTO 15010KT 10SM CLR 25/14 A3005 RMK AO2=
KMLJ 232115Z AUTO 00000KT 10SM CLR 25/08 A3012 RMK AO2=
