SAUS80 KWBC 232100 RRC
METAR
KAPN 232054Z AUTO 17013G22KT 10SM CLR 23/11 A3005 RMK AO2 PK WND
     16026/2017 SLP174 T02280106 55006=
KDSM 232054Z 15024G32KT 10SM FEW040 SCT120 BKN200 28/14 A2948 RMK
     AO2 PK WND 16033/2006 RAB25E39 SLP974 P0000 60000 T02830139
     56023=
KFNB 232053Z AUTO 17023G39KT 10SM CLR 27/16 A2944 RMK AO2 PK WND
     16043/2021 RAE08 SLP962 P0000 60000 T02720161 57010=
KHTL 232053Z AUTO 17012G22KT 10SM CLR 21/10 A3001 RMK AO2 SLP163
     T02110100 $=
KIKW 232055Z AUTO 15012KT 10SM CLR 24/10 A3003 RMK AO2
     T02400100=
KBNO 232053Z AUTO 32012KT 10SM SCT044 OVC055 07/M06 A3008 RMK AO2
     SLP201 T00671061 53008 $=
KDRT 232053Z AUTO 13012G18KT 10SM -RA FEW037 FEW090 SCT110 25/19
     A2974 RMK AO2 RAB51 SLP063 P0000 60000 T02500194 56026=
KLAX 232053Z 23012KT 10SM FEW013 FEW037 SCT055 21/12 A2985 RMK AO2
     SLP106 T02110122 58004=
KMSO 232053Z VRB05KT 10SM FEW025 BKN050 OVC070 08/01 A2996 RMK AO2
     RAB21E40 SLP157 P0000 60000 T00780011 51015 $=
KINL 232054Z AUTO 12018G26KT 10SM FEW065 SCT085 23/11 A2957 RMK
     AO2 PK WND 12027/1957 SLP015 T02280106 56019=
PHJR 232053Z 10010G17KT 10SM SCT036 BKN043 BKN050 28/20 A3004 RMK
     AO2 SLP179 60000 T02830200 50001=
KBDR 232052Z 05008KT 10SM SCT047 OVC085 14/08 A3027 RMK AO2 SLP249
     60000 T01390083 55000=
KBFF 232053Z AUTO 29021G31KT 10SM CLR 12/01 A2939 RMK AO2 PK WND
     30037/2015 SLP936 T01170011 53025=
KFAR 232053Z AUTO 13016G31KT 10SM CLR 24/11 A2932 RMK AO2 PK WND
     12032/1954 SLP930 T02390111 56029 TSNO $=
KLYV 232055Z AUTO 17022G31KT 10SM CLR 26/10 A2929 RMK AO2=
KMVL 232054Z AUTO 00000KT 10SM CLR 17/09 A3031 RMK AO2 SLP268
     T01670094 56005=
KPIA 232054Z 18021G30KT 10SM FEW040 24/14 A2976 RMK AO2 PK WND
     17037/2001 SLP074 T02440139 56018=
KPOV 232055Z AUTO 11006KT 10SM CLR 23/M01 A3014 RMK AO2 T02341012
     PWINO=
KPZQ 232055Z AUTO 16012G17KT 10SM BKN060 24/11 A3004 RMK AO2
     T02420110=
KCLL 232053Z 14018G27KT 10SM FEW050 BKN065 31/16 A2983 RMK AO2 PK
     WND 15029/1954 SLP095 T03060161 56028=
KCRQ 232053Z 22010KT 10SM FEW049 19/09 A2984 RMK AO2 SLP101
     T01940094 58008=
KGEG 232053Z VRB05KT 10SM FEW037 SCT044 SCT200 09/01 A3004 RMK AO2
     SLP181 T00890006 51012 $=
KGPI 232055Z VRB06KT 10SM OVC065 09/M02 A2996 RMK AO2 SLP158
     T00891017 52014=
KCNY 232053Z AUTO 12014KT 10SM FEW075 06/04 A2967 RMK AO2 SLP041
     60000 T00610039 51013=
KFAT 232053Z 29013KT 10SM FEW100 21/00 A2991 RMK AO2 SLP126 CU
     OMTNS NE-E T02060000 58012=
KRNM 232053Z 00000KT 10SM BKN045 19/08 A2985 RMK AO2 SLP097
     T01890078 58010=
KUIL 232053Z AUTO 18005KT 10SM SCT021 13/07 A3012 RMK AO2 SLP200
     T01280072 50000=
KFWA 232054Z 16012G22KT 10SM FEW250 24/09 A3003 RMK AO2 SLP165
     T02440094 56016 $=
KODX 232053Z AUTO 19023G34KT 10SM BKN036 BKN110 31/04 A2917 RMK
     AO2 PK WND 20040/2010 SLP867 60000 T03110044 56021=
KACY 232054Z 04013G22KT 2 1/2SM -RA BR OVC006 15/14 A3017 RMK AO2
     RAB05E28B45 CIG 005V009 SLP216 P0001 60021 T01500139
     53001=
KDAB 232053Z 03014KT 10SM FEW030 FEW150 26/18 A3009 RMK AO2 SLP187
     T02610178 55006=
KSAV 232053Z 01008KT 10SM FEW250 25/10 A3012 RMK AO2 SLP200
     T02500100 56008=
KSYR 232054Z 09008KT 10SM SCT150 SCT200 BKN250 20/03 A3024 RMK AO2
     SLP238 T02000033 56008 $=
PAQT 232053Z AUTO 08012KT 10SM OVC007 M06/M07 A3002 RMK AO2 CIG
     006V011 SLP164 I1000 I3000 T10611072 58008 TSNO=
KAAT 232055Z AUTO 32007KT 10SM CLR 08/M05 A3008 RMK AO2 SLP187
     T00831050 58000=
KCIR 232055Z AUTO 21015G22KT 10SM SCT050 27/14 A2994 RMK AO2
     T02700137=
