SAUS70 KWBC 231700 RRE
METAR
KBUR 231653Z 32006KT 10SM CLR 20/01 A2986 RMK AO2 SLP101
     T02000011=
KBVO 231653Z AUTO 18020G32KT 10SM CLR 25/16 A2970 RMK AO2 PK WND
     17034/1636 SLP048 T02500156=
KBVY 231653Z 06006KT 10SM CLR 14/09 A3034 RMK AO2 SLP269
     T01390094=
KBYG 231653Z AUTO 34027G36KT 10SM UP OVC070 02/00 A2947 RMK AO2 PK
     WND 34037/1631 UPB50SNE11 SLP973 P0000 T00170000=
KBYI 231653Z AUTO 27015G29KT 10SM CLR 03/M02 A2981 RMK AO2 PK WND
     27031/1637 SLP101 T00281022=
KCAG 231653Z AUTO 31009KT 2SM -SN BR FEW005 BKN016 OVC022 01/M01
     A2957 RMK AO2 SLP002 P0004 T00061006=
KCDC 231653Z AUTO 28005KT 1/4SM +SN FZFG VV006 M01/M02 A2983 RMK
     AO2 SLP099 T10111017 PNO $=
KCDS 231653Z AUTO 20016KT 10SM CLR 24/12 A2968 RMK AO2 PK WND
     21027/1618 SLP026 T02440117=
KCDW 231653Z 06006KT 10SM CLR 17/05 A3028 RMK AO2 SLP258
     T01670050=
KCEW 231653Z AUTO 10SM CLR 26/06 A3019 RMK AO2 SLP221
     T02560056=
KCEZ 231653Z AUTO 26012G18KT 8SM -RA FEW023 OVC034 04/01 A2973 RMK
     AO2 RAB03E14B21 SLP022 P0000 T00390011 $=
KCGI 231653Z 19015G24KT 10SM BKN037 BKN046 24/15 A2999 RMK AO2 PK
     WND 19029/1640 SLP153 T02440150=
KCHO 231653Z 02010KT 10SM FEW034 19/06 A3024 RMK AO2 SLP237
     T01890056=
KCMI 231653Z 17022G30KT 10SM CLR 24/13 A2994 RMK AO2 PK WND
     17034/1616 SLP135 T02440128=
KCNM 231653Z AUTO 17012G20KT 10SM SCT085 27/09 A2973 RMK AO2
     SLP013 T02720094=
KCNO 231653Z 00000KT 10SM BKN040 17/12 A2988 RMK AO2 SLP116
     T01720117=
KCOT 231653Z AUTO 15014G21KT 8SM CLR 27/18 A2986 RMK AO2 SLP104
     T02720183=
KCPR 231653Z 26005KT 2SM -RA BR BKN015 BKN025 OVC035 03/02 A2950
     RMK AO2 SLP965 P0005 I1000 T00280022=
KCPS 231653Z 16017G27KT 10SM FEW033 23/14 A2988 RMK AO2 PK WND
     18030/1634 SLP114 T02280144 $=
KCRE 231653Z 35009KT 10SM CLR 20/04 A3014 RMK AO1 SLP206
     T02000044=
KECP 231653Z VRB04KT 10SM CLR 26/07 A3016 RMK AO1 SLP223
     T02560067=
KEEO 231653Z AUTO 32004KT 10SM -RA FEW006 BKN012 OVC019 01/01
     A2955 RMK AO2 UPB02E06RAB43SNE02B10E43 SLP984 P0000
     T00110006=
KELD 231653Z AUTO 16010G19KT 10SM FEW037 26/16 A3001 RMK AO2
     SLP159 T02610161=
KELM 231653Z 06004KT 10SM CLR 18/06 A3028 RMK AO2 SLP256
     T01780056=
KENW 231653Z 17014G20KT 10SM CLR 23/13 A2990 RMK AO2 SLP121
     T02280128=
KEVW 231653Z AUTO 31008KT 10SM FEW018 SCT049 OVC055 M01/M04 A2968
     RMK AO2 SLP050 T10111044 $=
KEWB 231653Z 05005KT 10SM OVC110 17/12 A3031 RMK AO2 SLP263
     T01670122=
KEYE 231653Z AUTO 20011G20KT 10SM CLR 24/12 A3006 RMK AO2 SLP173
     T02390117 $=
KEYW 231653Z 06011KT 10SM CLR 27/20 A3006 RMK AO2 SLP180
     T02720200=
KFAY 231653Z 36010KT 10SM CLR 20/06 A3017 RMK AO2 SLP211 T02000061
     $=
KFFT 231653Z AUTO 23009KT 10SM CLR 24/08 A3015 RMK AO2 SLP205
     T02390083=
KFLD 231653Z AUTO 19015KT 10SM CLR 22/11 A2986 RMK AO2 SLP109
     T02220111=
KFLL 231653Z 08009G17KT 10SM FEW040 FEW060 28/19 A3006 RMK AO2
     SLP177 T02830189 $=
KFLO 231653Z 01010KT 10SM CLR 22/07 A3018 RMK AO2 SLP216 T02220067
     $=
KFMY 231653Z 07008KT 10SM CLR 29/18 A3007 RMK AO2 SLP186
     T02890178=
KFOE 231653Z 18029G40KT 10SM CLR 27/16 A2956 RMK AO2 SLP999
     T02720161 $=
KFOZ 231653Z AUTO 13006KT 10SM CLR 19/10 A2969 RMK AO2=
KFPR 231653Z VRB05G15KT 10SM CLR 28/19 A3009 RMK AO2 SLP190
     T02780189=
KFRG 231653Z 04010KT 10SM -RA FEW046 OVC110 14/09 A3025 RMK AO2
     RAB41 SLP242 P0000 T01440094 $=
KFST 231653Z AUTO 14004KT 10SM CLR 27/08 A2982 RMK AO2 SLP053
     T02670078 $=
KFTW 231653Z 18019G33KT 10SM FEW033 27/17 A2982 RMK AO2 PK WND
     19033/1649 SLP090 T02670172 $=
