SAHA31 KWBC 231830 RRA
METAR
MTPP 231853Z 30007KT 270V330 9999 SCT028CB 31/22 Q1010 A2985
     RMK:CB/N=
