SAUS70 KWBC 231818 RRF
METAR
KAEJ 231815Z AUTO 25012G16KT 7SM -RA 04/01 A2955 RMK AO2
     T00420011=
KAFP 231815Z AUTO 01005KT 10SM CLR 22/02 A3017 RMK AO2
     T02240020=
KAGI 231815Z AUTO 14019KT 10SM CLR 28/16 A3001 RMK AO2
     T02750164=
KALX 231815Z AUTO 11003KT 10SM CLR 22/03 A3018 RMK AO2
     T02240027=
KANW 231815Z AUTO 19016G23KT 10SM CLR 26/00 A2916 RMK AO2
     T02640000=
KARM 231815Z AUTO 17015KT 10SM BKN050 OVC065 28/16 A2993 RMK AO2
     T02820155 TSNO=
KASN 231815Z AUTO 00000KT 10SM CLR 24/05 A3018 RMK AO2
     T02440049=
KATA 231815Z AUTO 16010G16KT 10SM BKN045 BKN050 28/17 A2991 RMK
     AO2 SLP028 T02760171 $=
KAVK 231815Z AUTO 19032G43KT 8SM CLR 28/12 A2953 RMK AO2 PWINO=
KAVQ 231815Z AUTO 25009G16KT 10SM BKN050 24/08 A2980 RMK AO2
     T02390078=
KAXH 231815Z AUTO 20009G18KT 10SM SCT060 30/14 A2995 RMK AO2
     T03040140=
KAXS 231815Z AUTO 19021G28KT 10SM CLR 29/11 A2967 RMK AO2
     T02910112=
KAZC 231815Z AUTO 28019G28KT 10SM SCT049 08/00 A2985 RMK AO2=
KBAM 231815Z AUTO 33007G15KT 7SM SCT021 BKN029 OVC043 03/00 A3002
     RMK AO1=
KBCK 231815Z AUTO 12010G17KT 10SM CLR 24/12 A2969 RMK AO2
     T02410122=
KBDU 231815Z AUTO 25004KT 10SM CLR 18/M01 A2932 RMK AO2=
KBKD 231815Z AUTO 16014G24KT 10SM CLR 29/15 A2976 RMK AO2
     T02900145=
KBPC 231815Z AUTO 23020G31KT 10SM CLR 28/08 A2958 RMK AO2=
KBTA 231815Z AUTO 17023G29KT 10SM CLR 28/13 A2939 RMK AO2
     T02830129=
KBTN 231815Z AUTO 12012G18KT 10SM CLR 21/10 A2930 RMK AO2=
KBWP 231815Z AUTO 13020G26KT 10SM CLR 23/12 A2935 RMK AO2=
KBXA 231815Z AUTO 14006KT 10SM CLR 28/13 A3010 RMK AO2
     T02770127=
KC07 231815Z AUTO 22004KT 7SM BKN003 BKN015 OVC026 M02/M02 A2960
     RMK AO2=
KC09 231815Z AUTO 17016G25KT 10SM SCT044 25/14 A2986 RMK AO2
     T02540141=
KC83 231815Z AUTO 32016KT 10SM CLR 19/00 A3000 RMK AO2=
KCCY 231815Z AUTO 16020G27KT 10SM CLR 24/13 A2959 RMK AO2=
KCKZ 231815Z AUTO 08009KT 040V100 10SM CLR 18/10 A3026 RMK AO2=
KCRX 231815Z AUTO 17012G19KT 10SM CLR 25/07 A3008 RMK AO2=
KCSQ 231815Z AUTO 18023G32KT 8SM CLR 27/14 A2950 RMK AO2=
KCVC 231815Z AUTO 25003KT 10SM CLR 22/06 A3018 RMK AO2=
KCWC 231815Z AUTO 18024G35KT 10SM CLR 30/14 A2971 RMK AO2
     T02990142=
KCXE 231815Z AUTO 36007KT 10SM CLR 19/10 A3018 RMK AO1
     T01850095=
KCXP 231815Z AUTO VRB06G11KT 10SM BKN044 06/M05 A3004 RMK AO2=
KCXU 231815Z AUTO 00000KT 10SM CLR 24/05 A3015 RMK AO1
     T02400052=
KCXW 231815Z AUTO 19013G18KT 10SM OVC041 26/17 A2991 RMK A01=
KCZL 231815Z AUTO 00000KT 10SM CLR 23/05 A3021 RMK AO2=
KDEH 231815Z AUTO 15014G22KT 120V200 10SM CLR 23/13 A2964 RMK
     AO2=
KDTA 231815Z AUTO 34010G19KT 10SM BKN100 OVC120 03/M02 A2983 RMK
     AO1=
KDUA 231815Z AUTO 18022G28KT 10SM BKN036 27/15 A2984 RMK AO2=
KHSD 231815Z AUTO 18021G27KT 10SM CLR 26/16 A2965 RMK A01=
KHYW 231815Z AUTO 32007KT 10SM CLR 22/07 A3014 RMK AO2=
KI35 231815Z AUTO 00000KT 10SM CLR 22/06 A3019 RMK AO2
     T02210056=
KI67 231815Z AUTO 20011G16KT 10SM CLR 24/08 A3011 RMK AO1=
KI68 231815Z AUTO 19008KT 10SM CLR 24/10 A3013 RMK AO1
     T02420098=
KIER 231815Z AUTO 19011G17KT 10SM SCT048 BKN055 30/16 A2999 RMK
     AO2 T02950158=
KIFA 231815Z AUTO 15022G28KT 10SM CLR 24/14 A2956 RMK AO2
     T02440141=
KIGQ 231815Z AUTO 18016G24KT 10SM CLR 25/14 A2991 RMK AO2
     T02480135=
KINJ 231815Z AUTO 20022G29KT 10SM BKN042 28/17 A2985 RMK AO2
     T02780166=
KIOB 231815Z AUTO 19005KT 10SM CLR 24/06 A3017 RMK AO2 PWINO=
KJPX 231815Z AUTO 06007KT 5SM RA SCT012 BKN070 OVC085 14/14 A3025
     RMK AO2 P0018 T01350135=
KJTC 231815Z AUTO 22026G34KT 10SM FEW021 FEW034 BKN041 14/03 A2981
     RMK AO2=
