SAUS70 KWBC 231942 RRC
METAR
KFEP 231935Z AUTO 17020G24KT 10SM CLR 25/16 A2977 RMK AO2
     T02460160=
KFME 231939Z AUTO 03003KT 10SM BKN031 OVC046 17/08 A3022 RMK
     AO1=
KGBG 231935Z AUTO 16009G20KT 10SM CLR 23/15 A2975 RMK AO2
     T02250151=
KGGF 231935Z AUTO 32022KT 10SM CLR 23/M04 A2921 RMK AO2=
KGHG 231935Z AUTO 00000KT 10SM CLR 14/12 A3031 RMK AO2=
KHDE 231935Z AUTO 22026G38KT 5SM HZ OVC035 31/01 A2922 RMK AO2
     T03060009=
KHHG 231935Z AUTO 17010G17KT 10SM BKN055 A3002 RMK AO2=
KIJX 231935Z AUTO 16016G25KT 10SM CLR 24/15 A2978 RMK AO2 LTG DSNT
     SW T02410145=
KMGC 231935Z AUTO 19015G24KT 10SM CLR 25/12 A2992 RMK AO2=
KOQN 231935Z AUTO 05006KT 10SM -RA BKN043 16/11 A3023 RMK AO2=
KOWX 231935Z AUTO 18011G16KT 10SM SCT060 25/06 A3010 RMK AO1=
KPEA 231935Z AUTO 16019G28KT 10SM CLR 26/14 A2957 RMK AO2
     T02640142=
KPPQ 231935Z AUTO 18017G22KT 10SM VCTS CLR 26/15 A2976 RMK AO2 LTG
     DSNT SW T02590153=
KRDK 231935Z AUTO 18024G33KT CLR 29/14 A2941 RMK AO2=
KTIF 231935Z AUTO 22019G26KT 10SM CLR 27/01 A2918 RMK AO2
     T02700011=
K66R 231935Z AUTO 17011G15KT 10SM SCT045 OVC065 29/18 A2987 RMK
     AO2 T02880175=
K74V 231935Z AUTO 14005KT 10SM 04/00 A2969 RMK AO2=
KASL 231935Z AUTO 00000KT 10SM FEW060 29/14 A2987 RMK AO2
     T02930136 TSNO $=
KBDG 231935Z AUTO 24012G25KT 10SM 04/M02 A2978 RMK AO1
     T00381025=
KCOM 231935Z AUTO 18017G24KT 10SM CLR 29/14 A2976 RMK AO2
     T02930135=
KDKB 231935Z AUTO 16018G28KT 10SM CLR 24/15 A2982 RMK AO2
     T02400152=
KDKR 231935Z AUTO 16013G21KT 10SM BKN060 29/14 A2988 RMK AO2=
KDVO 231935Z AUTO 35012G19KT 10SM CLR 22/M03 A3001 RMK AO2=
KECU 231935Z AUTO 16014G20KT 10SM CLR 23/16 A2987 RMK AO2=
KGCD 231935Z AUTO 00000KT 10SM SCT033 BKN041 OVC046 04/00 A3007
     RMK AO2 T00361001=
KGOP 231935Z AUTO 10SM FEW049 29/15 A2981 RMK AO2=
KGVT 231935Z AUTO 18026G32KT 10SM SCT049 29/15 A2982 RMK AO2 TSNO
     T02920151=
KLMO 231935Z AUTO 24005KT 10SM SCT110 20/M05 A2933 RMK AO2
     T01961049=
KPLU 231935Z AUTO 00000KT FEW033 12/06 A3016 RMK AO2=
KPNA 231935Z AUTO 31020G26KT 10SM SCT036 SCT042 02/M07 A2962 RMK
     AO2=
KPOY 231935Z AUTO 34024G31KT 10SM CLR 02/M04 A2959 RMK AO2=
KRCV 231935Z AUTO 22017G28KT 10SM SCT047 SCT055 BKN090 07/M02
     A2961 RMK AO2 T00741021=
KSBS 231935Z AUTO 22008G17KT 1 1/4SM OVC003 00/00 A2956 RMK AO1
     T10051005=
KT35 231935Z AUTO 19018G23KT 10SM BKN048 BKN055 30/17 A2983 RMK
     AO2 T03000172=
KULS 231935Z AUTO 22035G49KT 4SM HZ CLR 28/03 A2937 RMK AO2=
KVES 231935Z AUTO 15011G21KT 10SM SCT055 23/06 A3007 RMK AO2=
KVKS 231935Z AUTO 17011KT 10SM CLR 28/14 A3000 RMK A01=
KWWR 231935Z AUTO 18020G30KT 10SM CLR 26/11 A2956 RMK AO2=
KX26 231935Z AUTO 02013KT 10SM CLR 27/19 A3006 RMK AO2
     T02650185=
K11R 231935Z AUTO 18017G21KT 10SM SCT049 BKN060 30/17 A2987 RMK
     AO2 T02950170=
K19S 231935Z AUTO 22038G50KT 3SM HZ CLR 30/05 A2939 RMK AO2
     T02960052=
K20V 231935Z AUTO 25016G22KT 10SM SCT032 SCT042 BKN065 05/M01
     A2955 RMK AO2=
K2J5 231935Z AUTO 00000KT 10SM CLR 25/09 A3015 RMK AO2
     T02460092=
K6I2 231935Z AUTO 16007KT 10SM CLR 24/07 A3010 RMK AO2=
K8A0 231935Z AUTO 21003KT 10SM CLR 23/03 A3013 RMK AO2=
KADH 231935Z AUTO 18023G31KT 10SM CLR 27/15 A2973 RMK AO2=
KADT 231935Z AUTO 23029G36KT 10SM CLR 29/M03 A2930 RMK AO2
     T02911027=
KAXX 231935Z AUTO 25020G26KT 5SM -RA SCT021 BKN034 OVC043 05/02
     A2970 RMK AO2 T00460023=
KBMT 231935Z AUTO 15007KT 10SM -RA SCT037 BKN043 OVC050 26/19
     A2994 RMK AO2 T02560190=
KCNI 231935Z AUTO 00000KT 10SM CLR 23/02 A3017 RMK AO2
     T02320020=
