SAUS80 KWBC 231748
METAR
KCBE 231735Z AUTO 00000KT 10SM CLR 16/06 A3031 RMK AO2
     T01610055=
KCUL 231733Z AUTO 20021G27KT 10SM SCT049 27/12 A3000 RMK AO2=
KNY0 231734Z AUTO 00000KT 10SM CLR 15/06 A3031 RMK AO2=
KROS 231743Z AUTO 13007G18KT 10SM CLR 25/13 A2961 RMK AO2=
KSFY 231743Z AUTO 18017G23KT 10SM CLR 24/13 A2978 RMK AO2=
KLZZ 231735Z AUTO 18015G20KT 160V220 10SM SCT040 SCT120 26/16
     A2983 RMK AO2 T02580158=
