SAUS70 KWBC 231818
METAR
KRGK 231815Z AUTO 13013KT 10SM CLR 23/12 A2957 RMK AO2=
KROX 231815Z AUTO 06017KT 10SM CLR 14/08 A2956 RMK AO2=
KSAZ 231815Z AUTO 14009G18KT 103V163 10SM CLR 23/11 A2950 RMK
     AO2=
KSGS 231815Z AUTO 14011G23KT 100V160 10SM CLR 23/12 A2956 RMK AO2
     T02290116=
KSLH 231815Z AUTO 17008KT 10SM CLR 23/11 A3001 RMK AO2=
KTEW 231815Z AUTO 16012G19KT 10SM CLR 25/10 A3007 RMK AO2
     T02460100=
KTWM 231815Z AUTO 07008KT 10SM SCT080 18/10 A2969 RMK AO2=
KUKT 231815Z AUTO 04004KT 10SM CLR 17/10 A3025 RMK A01=
KVVV 231815Z 13021G29KT 10SM 22/13 A2935 RMK AO2=
KY63 231815Z AUTO 12019G26KT 10SM CLR 21/12 A2941 RMK AO2
     T02090120=
K14Y 231815Z AUTO 12012G18KT 10SM CLR 21/11 A2949 RMK AO2=
KACQ 231815Z AUTO 14024G29KT 10SM CLR 22/12 A2954 RMK AO2=
KAIT 231815Z AUTO 13011G14KT 10SM CLR 22/12 A2957 RMK AO2=
KAMN 231815Z AUTO 16013G20KT 10SM SCT060 24/09 A3004 RMK AO2
     T02410085=
KBDH 231815Z AUTO 13023G31KT 10SM CLR 23/12 A2946 RMK AO2=
KCBG 231815Z AUTO 11014G17KT 10SM CLR 24/12 A2956 RMK AO2=
KCFE 231815Z AUTO 13016G26KT 10SM CLR 23/12 A2951 RMK AO2=
KCOQ 231815Z AUTO 09009KT 10SM CLR 17/09 A2965 RMK AO2 TSNO=
KCVH 231815Z AUTO 00000KT 10SM CLR 15/05 A3001 RMK A01=
KDLZ 231815Z AUTO 17007KT 10SM CLR 22/09 A3015 RMK AO2=
KDRM 231815Z AUTO 15008KT 10SM CLR 19/11 A3006 RMK AO2
     T01860107=
KDXX 231815Z AUTO 14024G33KT 10SM CLR 24/12 A2937 RMK AO2=
KDYT 231815Z AUTO 07010KT 10SM BKN070 12/10 A2968 RMK AO2=
KEDJ 231815Z AUTO 17010G16KT 10SM SCT050 23/10 A3014 RMK A01=
KELO 231815Z AUTO 13008KT 10SM CLR 21/09 A2970 RMK AO2=
KFBL 231815Z AUTO 13016G26KT 10SM CLR 23/13 A2954 RMK AO2=
KFFM 231815Z AUTO 11020G27KT 10SM CLR 22/12 A2939 RMK AO2=
KFGN 231815Z AUTO 08007KT 10SM CLR 13/07 A2963 RMK AO2=
KFSE 231815Z AUTO 12009G17KT 10SM CLR 22/10 A2949 RMK AO2=
KGHW 231815Z AUTO 11020G26KT 10SM CLR 22/12 A2945 RMK AO2=
KGYL 231815Z AUTO 13019G26KT 7SM CLR 23/12 A2949 RMK AO2
     T02290124=
KHAF 231815Z AUTO 8SM CLR 15/08 A3002 RMK AO2=
KHCO 231815Z AUTO 06015G19KT 10SM CLR 17/09 A2950 RMK AO2=
KJKJ 231815Z AUTO 11011G18KT 10SM CLR 22/11 A2940 RMK AO2 TSNO=
KJMR 231815Z AUTO 13010G16KT 10SM CLR 22/11 A2962 RMK AO2=
KLDM 231815Z AUTO 17010KT 10SM CLR 24/11 A2993 RMK AO2
     T02400113=
KLJF 231815Z AUTO 13018G26KT 10SM CLR 23/11 A2947 RMK AO2=
KMGG 231815Z AUTO 12009G19KT 10SM CLR 23/11 A2952 RMK AO2
     T02260114 PWINO=
KMGN 231815Z AUTO 18006G17KT 10SM SCT050 23/11 A2999 RMK AO2
     T02380112=
KMVE 231815Z AUTO 14021G28KT 10SM CLR 23/13 A2939 RMK AO2=
KOVL 231815Z AUTO 13018G25KT 5SM HZ CLR 23/12 A2943 RMK AO2=
KOZW 231815Z AUTO 15018G21KT 10SM CLR 24/10 A3009 RMK AO2
     T02360104=
KPWC 231815Z AUTO 12012G19KT 10SM CLR 21/12 A2958 RMK AO2=
K6S8 231810Z AUTO 26013G24KT 10SM 05/M01 A2965 RMK A01 Laurel=
K08D 231815Z AUTO 05010G17KT 10SM OVC009 06/06 A2948 RMK AO2=
K10G 231815Z AUTO 16007KT 109V179 10SM CLR 23/06 A3018 RMK AO2=
K2C8 231815Z AUTO 04012G20KT 10SM CLR 14/08 A2952 RMK AO2=
K3D2 231815Z AUTO 17016G23KT 10SM CLR 16/10 A2991 RMK AO2
     T01640104=
K4R5 231815Z AUTO 07003KT 10SM SCT110 21/12 A2970 RMK AO2
     T02050122=
KAQP 231813Z AUTO 17017G30KT 10SM SCT095 23/11 A2937 RMK AO2=
KARV 231815Z AUTO 17013G21KT 10SM CLR 21/12 A2978 RMK AO2
     T02100117=
KC29 231815Z AUTO 16013G20KT 10SM CLR 23/12 A2979 RMK AO1
     T02330123=
KD50 231815Z AUTO 06018KT 10SM OVC014 05/03 A2957 RMK AO2=
KD55 231815Z AUTO 05019G27KT 10SM BKN011 10/10 A2951 RMK AO2=
KDVP 231813Z AUTO 13024G31KT 10SM CLR 22/12 A2940 RMK AO2
     T02210122=
KETH 231813Z AUTO 11026G30KT 10SM 22/12 A2936 RMK A=
