SAUS70 KWBC 232000 RRR
METAR
KBMG 231953Z 18017G23KT 10SM CLR 26/10 A3001 RMK AO2 PK WND
     18026/1943 SLP155 T02560100 $=
KGRI 231953Z 19026G38KT 10SM CLR 32/08 A2924 RMK AO2 PK WND
     18042/1939 SLP889 T03170083 $=
KHEI 231953Z AUTO 35014G20KT 10SM OVC023 11/04 A2930 RMK AO2
     SLP924 T01060039=
KLWB 231951Z 00000KT 10SM CLR 21/01 A3019=
KMIW 231953Z AUTO 15025G36KT 10SM CLR 24/13 A2955 RMK AO2 PK WND
     16039/1930 SLP000 T02440133=
KMLT 231953Z AUTO 00000KT 10SM CLR 19/11 A3036 RMK AO2 SLP286
     T01940111=
KMSP 231953Z 13020G34KT 10SM FEW045 24/12 A2950 RMK AO2 PK WND
     13036/1912 SLP987 T02440122=
KMTJ 231953Z AUTO 29018G29KT 10SM -RA SCT029 BKN048 OVC060 04/02
     A2966 RMK AO2 PK WND 21036/1932 WSHFT 1933 RAB40 SLP000 P0000
     T00390017 $=
KSEG 231953Z AUTO 35003KT 10SM OVC044 17/08 A3026 RMK AO2 SLP248
     T01720083=
KTHV 231953Z AUTO 02004KT 10SM OVC065 17/08 A3023 RMK AO2 SLP242
     T01670083=
KTTN 231953Z 05011KT 10SM OVC048 17/10 A3021 RMK AO2 SLP225
     T01670100=
KCEZ 231953Z AUTO 20015G23KT 10SM BKN050 OVC060 08/M01 A2970 RMK
     AO2 PK WND 19027/1937 SLP008 T00781011 $=
KCNM 231953Z AUTO 25019G25KT 10SM CLR 29/08 A2966 RMK AO2 PK WND
     25027/1937 SLP990 T02890083=
KCOT 231953Z AUTO 15013G23KT 8SM CLR 31/18 A2976 RMK AO2 SLP071
     T03110183=
KCRS 231953Z AUTO 18026G35KT 10SM BKN055 30/14 A2982 RMK AO2 PK
     WND 17035/1952 SLP094 T03000139 $=
KCXO 231953Z 16017G26KT 10SM OVC065 29/14 A2989 RMK AO2 PK WND
     16027/1917 SLP119 T02940139=
KCYS 231953Z 30022G36KT 10SM SCT075 BKN100 BKN110 09/M03 A2937 RMK
     AO2 PK WND 31039/1930 RAE16 SLP897 P0000 T00891028=
KDFW 231953Z 18026G38KT 10SM FEW048 FEW250 30/16 A2973 RMK AO2 PK
     WND 17038/1948 SLP059 T03000156=
KDGW 231953Z AUTO 32020G30KT 10SM OVC020 04/00 A2948 RMK AO2 PK
     WND 32030/1940 SLP960 T00440000=
KDHT 231953Z AUTO 22034G50KT 10SM FEW090 27/03 A2952 RMK AO2 PK
     WND 22050/1947 SLP940 T02670033=
KLFK 231953Z AUTO 16017G30KT 10SM BKN065 31/15 A2990 RMK AO2 PK
     WND 15030/1952 SLP121 T03060150=
KLHX 231953Z AUTO 22023G38KT 10SM SCT110 24/M03 A2938 RMK AO2 PK
     WND 22039/1941 SLP890 T02441033 $=
KENW 231953Z 14012G21KT 10SM CLR 24/13 A2983 RMK AO2 SLP099
     T02440133=
KFCM 231953Z 13025G33KT 10SM CLR 26/13 A2948 RMK AO2 PK WND
     14033/1947 SLP978 T02560128 $=
KGFL 231953Z AUTO 00000KT 10SM CLR 17/07 A3029 RMK AO2 SLP261
     T01720067=
KGLR 231953Z AUTO 18014G24KT 10SM FEW050 23/10 A3001 RMK AO2 PK
     WND 16030/1932 SLP157 T02330100=
KGRB 231953Z AUTO 14016G24KT 10SM CLR 22/12 A2984 RMK AO2 SLP103
     T02170122 $=
KHAO 231953Z AUTO 20005KT 10SM CLR 26/08 A3008 RMK AO2 SLP184
     T02610078=
KHFD 231953Z 36003KT 8SM -RA OVC110 12/09 A3030 RMK AO2 SLP259
     P0002 T01220089=
KHIB 231953Z AUTO 12016G23KT 10SM CLR 21/12 A2961 RMK AO2 SLP031
     T02060117=
KHYR 231953Z AUTO 13017G28KT 10SM CLR 23/13 A2963 RMK AO2 PK WND
     12028/1948 SLP032 T02330128=
KLBF 231953Z AUTO 22017G29KT 10SM CLR 30/M01 A2917 RMK AO2 PK WND
     19033/1906 SLP855 T03001011=
KMRB 231953Z AUTO 01006KT 10SM OVC047 18/08 A3022 RMK AO2 SLP233
     T01780083 $=
KOVS 231953Z AUTO 10SM CLR 25/13 A2968 RMK AO2 SLP046 T02500133
     $=
KPIR 231953Z AUTO VRB06KT 10SM CLR 21/09 A2914 RMK AO2 SLP863
     T02110089 $=
KTVC 231953Z 15010G22KT 120V200 10SM SCT055 BKN250 24/11 A2993 RMK
     AO2 SLP132 T02440111=
KAFW 231953Z 18025G36KT 10SM FEW035 FEW250 29/15 A2972 RMK AO2 PK
     WND 16040/1911 SLP050 T02940150=
KAKO 231953Z AUTO 36019G27KT 10SM BKN120 19/00 A2929 RMK AO2 PK
     WND 01027/1953 SLP871 T01940000 $=
