SAUS70 KWBC 231900 RRN
METAR
KDXX 231855Z AUTO 14028G33KT 10SM CLR 25/12 A2935 RMK AO2=
KFBL 231855Z AUTO 12018G29KT 10SM CLR 24/13 A2953 RMK AO2=
KGHW 231855Z AUTO 11024G30KT 10SM CLR 23/12 A2942 RMK AO2=
KGYL 231855Z AUTO 13020G31KT 7SM CLR 24/13 A2948 RMK AO2
     T02360125=
KHCO 231855Z AUTO 08013G17KT 10SM CLR 18/09 A2948 RMK AO2=
KJKJ 231855Z AUTO 12014G19KT 10SM CLR 24/12 A2937 RMK AO2 TSNO=
KLDM 231855Z AUTO 15012G18KT 130V190 10SM SCT055 24/12 A2992 RMK
     AO2 T02410117=
KMCK 231853Z AUTO 21026G38KT 6SM HZ SCT033 29/01 A2923 RMK AO2 PK
     WND 20050/1811 SLP871 T02940006=
KMCW 231853Z AUTO 14026G35KT 10SM CLR 24/13 A2954 RMK AO2 PK WND
     15036/1813 SLP992 T02440128=
KMDW 231853Z 18020G34KT 10SM SCT055 27/13 A2987 RMK AO2 PK WND
     18034/1851 SLP105 T02670128=
KSLH 231855Z AUTO 16006G15KT 10SM CLR 23/11 A2999 RMK AO2=
KTEW 231855Z AUTO 16013G21KT 10SM SCT050 25/09 A3006 RMK AO2
     T02470092=
KUKT 231855Z AUTO 08008G14KT 10SM CLR 18/10 A3025 RMK A01=
KSMN 231856Z AUTO 19007KT 10SM BKN055 OVC075 05/M04 A2988 RMK AO2
     SLP818 T00501039=
KSOP 231856Z AUTO 36008KT 10SM CLR 22/07 A3017 RMK AO2 SLP220
     T02170072 TSNO=
KSQI 231856Z AUTO 15009G17KT 110V190 10SM CLR 23/14 A2977 RMK AO2
     SLP947 T02330144=
KSRC 231856Z AUTO 19012KT 10SM OVC040 26/16 A2993 RMK AO2 SLP134
     T02560156=
KSUE 231856Z AUTO 17018G27KT 10SM CLR 17/12 A2989 RMK AO2 PK WND
     17027/1851 SLP119 T01670117=
KSYM 231855Z AUTO 14006G13KT 10SM CLR 24/04 A3015 RMK AO2=
KTOB 231855Z AUTO 14023G31KT 10SM CLR 23/12 A2956 RMK AO2=
KTTF 231855Z AUTO 14010KT 120V180 10SM SCT060 23/10 A3010 RMK AO2
     T02310101=
KUDG 231856Z AUTO 02010KT 10SM CLR 24/07 A3015 RMK AO2 SLP211
     T02390067=
KUGN 231855Z 16012KT 10SM CLR 21/13 A2985 RMK AO2 SLP101
     T02060128=
KULM 231855Z AUTO 15021G28KT 10SM CLR 24/11 A2944 RMK AO2=
KVBT 231856Z AUTO 18017G26KT 10SM CLR 27/16 A2980 RMK AO2 PK WND
     16026/1853 SLP082 T02670156=
KVIS 231856Z AUTO 01007KT 10SM CLR 17/03 A2995 RMK AO2 SLP151
     T01720033=
KVLL 231855Z AUTO 17010G15KT 10SM CLR 24/10 A3013 RMK AO2
     T02390101=
KVWU 231855Z AUTO 13013G22KT 10SM CLR 25/12 A2954 RMK AO2=
KWVL 231856Z AUTO 00000KT 10SM CLR 17/08 A3034 RMK AO2 SLP301
     T01670083=
KWWD 231856Z AUTO 04015G20KT 6SM -RA BR 16/15 A3015 RMK AO2 SLP213
     P0000 T01560150 $=
KY50 231856Z AUTO 13013G19KT 10SM CLR 23/13 A2978 RMK AO2 SLP076
     T02280128 $=
KY70 231855Z AUTO 16015G23KT 10SM CLR 24/09 A3002 RMK AO2
     T02410089=
PAAK 231856Z AUTO 22006KT 10SM -RA OVC024 A3025 RMK AO2 SLPNO
     P0000 FZRANO $=
PABV 231856Z AUTO 18003KT 10SM CLR M03/M04 A2990 RMK AO2 SLP133
     T10331039 FZRANO=
PAFM 231856Z AUTO 13012G17KT 10SM OVC022 M02/M02 A2997 RMK AO2
     SNE14 SLP157 P0000 T10171022 FZRANO=
PAGL 231856Z AUTO 17018KT 10SM SCT015 BKN022 OVC050 03/01 A2985
     RMK AO2 SLP101 T00330011 PWINO $=
PAGN 231856Z AUTO 06011G18KT 9SM -RA FEW009 SCT020 OVC032 03/03
     A2946 RMK AO2 SLP966 P0002 T00330028=
PAKK 231856Z AUTO 18010KT 10SM FEW018 SCT049 OVC065 00/00 A2987
     RMK AO2 SLP123 T00000000 FZRANO=
PAKP 231856Z AUTO 21009KT 3SM -SN BR OVC003 M10/M11 A2989 RMK AO2
     SLP180 P0000 T11001111 FZRANO=
PANA 231856Z AUTO 15009KT 10SM BKN033 OVC055 M01/M01 A2999 RMK AO2
     SLP154 T10061011 FZRANO TSNO $=
PANV 231856Z AUTO 14006KT 1/2SM FZFG OVC001 M03/M03 A2998 RMK AO2
     SLP257 T10281033 FZRANO TSNO=
KTOI 231853Z AUTO 08005KT 10SM CLR 27/04 A3014 RMK AO2 SLP205
     T02670039=
KTTS 231855Z AUTO 36011G18KT 10SM CLR 26/13 A3006 RMK AO2 VIS 3/4
     RWY15/33 SLP184 T02610132 $=
