SAUS70 KWBC 231900 RRX
METAR
KLEW 231856Z AUTO 00000KT 10SM CLR 17/08 A3036 RMK AO2 SLP288
     T01720083=
KLWA 231855Z AUTO 15015G21KT 130V190 10SM SCT050 25/12 A2995 RMK
     AO2 T02530122=
KMTW 231856Z AUTO 16018G25KT 10SM CLR 16/12 A2989 RMK AO2 PK WND
     16027/1841 SLP120 T01610117=
KONZ 231855Z AUTO 14005KT 10SM SCT090 SCT120 22/05 A3011 RMK AO2
     T02150053=
KPJC 231855Z AUTO RMK AO2 TSNO PWINO=
KSJX 231855Z AUTO 15006G15KT 130V200 10SM CLR 23/11 A2997 RMK AO2
     T02300111=
K04W 231855Z AUTO 12010G20KT 10SM CLR 23/12 A2958 RMK AO2=
K46D 231855Z AUTO 08019G24KT 10SM CLR 17/07 A2936 RMK AO2=
K96D 231855Z AUTO 04011G17KT 10SM FEW019 13/11 A2952 RMK AO2=
KBID 231856Z AUTO 05013G19KT 10SM -RA BKN016 OVC037 14/12 A3027
     RMK AO2 RAE20B45 SLP251 P0000 T01390117=
KCAD 231855Z AUTO 16012G17KT 10SM BKN050 OVC060 23/11 A2998 RMK
     AO2 T02310110=
KFSO 231855Z AUTO 00000KT 10SM CLR 20/05 A3030 RMK AO2
     T02000053=
KHNB 231856Z AUTO 19019G23KT 10SM CLR 26/11 A3003 RMK AO2 SLP166
     T02560106=
KITH 231856Z 19010KT 10SM CLR 20/06 A3027 RMK AO2 SLP250
     T02000061=
KMVN 231856Z AUTO 18015G26KT 10SM FEW045 26/14 A2994 RMK AO2 PK
     WND 19031/1817 SLP140 T02610144=
KOEB 231855Z AUTO 17011G21KT 10SM SCT055 24/11 A3004 RMK AO2
     T02350105=
KOEO 231855Z AUTO 11018G25KT 10SM CLR 24/15 A2959 RMK AO2
     T02410154=
KOLU 231856Z AUTO 17022G33KT 10SM CLR 30/12 A2929 RMK AO2 PK WND
     17037/1819 SLP907 T03000117=
KPSF 231854Z AUTO 05005KT 10SM CLR 17/02 A3029 RMK AO2 SLP249
     T01670022=
KRDG 231854Z 06006KT 10SM R36/3000FT FEW060 FEW070 17/09 A3025 RMK
     AO2 SLP247 T01720089 $=
KRKD 231856Z AUTO 10004KT 10SM FEW002 16/12 A3036 RMK AO2 SLP282
     T01560117=
KRZT 231855Z AUTO 14008KT 097V157 10SM CLR 24/05 A3013 RMK AO2
     PWINO=
KBWP 231855Z AUTO 13018G24KT 10SM CLR 24/12 A2933 RMK AO2=
KBWW 231855Z AUTO 33014G19KT 10SM OVC015 07/05 A2936 RMK AO2=
KD60 231855Z AUTO 06018KT 10SM OVC009 05/05 A2947 RMK AO2=
KDSV 231854Z AUTO 00000KT 10SM CLR 23/04 A3022 RMK AO2 SLP241
     T02330044=
KEGV 231855Z AUTO 16013G21KT 130V190 10SM SCT038 21/11 A2979 RMK
     AO2 T02140105=
KEKM 231855Z AUTO 18015G23KT 9SM CLR 25/13 A2999 RMK AO2
     T02480129=
KEVV 231854Z 20015G24KT 10SM CLR 27/09 A3000 RMK AO2 PK WND
     19027/1801 SLP154 T02720089=
KRNH 231855Z AUTO 13017G21KT 10SM CLR 24/16 A2958 RMK AO2
     T02360164=
KRUG 231855Z AUTO 06024G31KT 10SM CLR 10/07 A2943 RMK AO2=
KTME 231855Z AUTO 16016KT 10SM BKN060 30/16 A2991 RMK AO2=
KTQE 231854Z AUTO 17027G38KT 10SM CLR 30/13 A2934 RMK AO2 PK WND
     17042/1841 SLP922 T03000128=
KUIN 231854Z AUTO 16019G27KT 10SM CLR 25/14 A2972 RMK AO2 PK WND
     15031/1838 SLP058 T02500144=
KVSF 231854Z AUTO 00000KT 10SM CLR 16/06 A3033 RMK AO2 SLP275
     T01610056=
KY19 231855Z AUTO 06014KT 10SM CLR 13/07 A2929 RMK AO2=
KBKS 231855Z AUTO 15014G22KT 10SM SCT049 31/19 A2980 RMK AO2
     SLP051 T03120191 $=
KBVU 231855Z AUTO 32012G18KT 10SM CLR 17/M10 A2985 RMK AO2=
KBXK 231855Z AUTO 29007G13KT 10SM FEW060 23/07 A2978 RMK A01=
KCLS 231855Z AUTO VRB04KT 10SM FEW017 12/07 A3016 RMK AO2=
KDNA 231855Z AUTO 25015G23KT 10SM FEW065 FEW090 24/08 A2980 RMK
     AO2=
KMLP 231853Z AUTO 00000KT 1/4SM HZ VV001 00/M03 A2991 RMK AO2
     SLP104 T00001028=
KMRY 231854Z 29005KT 10SM CLR 16/04 A3001 RMK AO2 SLP173
     T01560044=
KRPH 231855Z AUTO 17012G24KT 140V200 10SM CLR 29/15 A2970 RMK AO2
     T02940150 $=
KSLC 231854Z 34014G22KT 10SM BKN038 BKN050 05/00 A2980 RMK AO2
     SLP085 VIRGA T00500000 $=
KSUN 231855Z 29017KT 10SM SCT065 05/M11 A2983=
