SAUS70 KWBC 232138 RRF
METAR
K2M2 232135Z AUTO 16007KT 10SM CLR 24/05 A3007 RMK A01=
K33N 232135Z AUTO 01010KT 4SM BR BKN006 OVC013 14/14 A3016 RMK
     A01=
K36K 232130Z AUTO 21031G42KT 10SM CLR 30/02 A2939 RMK AO2=
K3J7 232135Z AUTO 00000KT 10SM CLR 23/05 A3014 RMK AO2=
K3LF 232135Z AUTO 18022G33KT 10SM CLR 24/14 A2985 RMK AO2
     T02440137=
K3S8 232135Z AUTO VRB04KT 10SM BKN044 BKN049 13/01 A3023 RMK
     AO2=
K46U 232135Z AUTO 32011KT 10SM BKN031 OVC039 03/M04 A2978 RMK
     A01=
K4V0 232135Z AUTO 15004KT 10SM SCT120 03/01 A2972 RMK AO2
     T00300008=
K54A 232135Z AUTO 32004KT 10SM CLR 29/20 A3002 RMK AO2=
K5T9 232135Z AUTO 14006KT 10SM CLR 28/20 A2974 RMK A01=
K65S 232135Z AUTO 00000KT 10SM -RA SCT030 BKN040 OVC048 08/04
     A3003 RMK AO2=
K6A2 232135Z AUTO 00000KT 10SM CLR 22/03 A3015 RMK AO2=
K7W4 232135Z AUTO 00000KT 10SM OVC025 16/13 A3017 RMK AO1
     T01620125=
K82V 232135Z AUTO 33019G28KT 10SM SCT044 BKN060 OVC100 08/00 A2944
     RMK AO2=
K8A3 232135Z AUTO 00000KT 10SM CLR 23/05 A3009 RMK A01=
KAAS 232135Z AUTO 20007KT 10SM CLR 23/06 A3013 RMK AO1=
KACP 232135Z AUTO 17007G14KT 140V210 10SM SCT060 28/16 A2997 RMK
     AO2=
KAEJ 232135Z AUTO 27015KT 10SM 02/M03 A2961 RMK AO2 T00181030=
KAFP 232135Z AUTO 32006KT 10SM CLR 23/03 A3013 RMK AO2
     T02260029=
KAGI 232135Z AUTO 12020KT 10SM CLR 28/16 A2996 RMK AO2
     T02830158=
KALX 232135Z AUTO 00000KT 10SM CLR 24/07 A3012 RMK AO2
     T02350066=
KANW 232135Z AUTO 29021G25KT 10SM CLR 21/M01 A2922 RMK AO2
     T02061008=
KARM 232135Z AUTO 16016G21KT 10SM SCT050 BKN065 27/15 A2988 RMK
     AO2 T02720152 TSNO=
KASN 232135Z AUTO 00000KT 10SM CLR 25/04 A3011 RMK AO2
     T02500040=
KATA 232135Z AUTO 16015KT 10SM CLR 29/13 A2983 RMK AO2 SLP002
     T02900134 $=
KAVK 232135Z AUTO 19027G32KT 9SM CLR 27/14 A2949 RMK AO2 PWINO=
KAVQ 232135Z AUTO 32009G14KT 10SM SCT080 22/08 A2976 RMK AO2
     T02210080=
KAXH 232135Z AUTO 17009G18KT 10SM CLR 29/13 A2989 RMK AO2
     T02920129=
KAXS 232135Z AUTO 18020G26KT 7SM CLR 31/11 A2960 RMK AO2
     T03110110=
KAZC 232135Z AUTO 32012G16KT 10SM SCT090 SCT110 07/M01 A2990 RMK
     AO2=
KBAM 232135Z AUTO 29013KT 10SM SCT036 BKN060 OVC075 06/00 A3004
     RMK AO1=
KBCK 232135Z AUTO 14007G14KT 100V160 10SM CLR 25/12 A2964 RMK AO2
     T02470122=
KBDU 232135Z AUTO 27017G29KT 10SM SCT060 SCT070 BKN095 15/M05
     A2936 RMK AO2=
KBGF 232135Z AUTO 17007G12KT 10SM CLR 23/05 A3009 RMK A01=
KBKD 232135Z AUTO 18019G26KT 5SM HZ CLR 31/14 A2969 RMK AO2
     T03110135=
KBNW 232135Z AUTO 16018G31KT 10SM FEW120 27/14 A2949 RMK AO2=
KBPC 232135Z AUTO 22022G31KT 10SM CLR 26/08 A2953 RMK AO2=
KBTA 232135Z AUTO 17022G32KT 10SM CLR 29/13 A2934 RMK AO2
     T02930131=
KBTN 232135Z AUTO 12016G30KT 10SM CLR 22/11 A2923 RMK AO2=
KBWP 232135Z AUTO 14021G27KT 10SM CLR 23/12 A2929 RMK AO2=
KBXA 232135Z AUTO 17011KT 10SM CLR 27/13 A3005 RMK AO2
     T02740126=
KC07 232135Z AUTO M1/4SM +SN BKN001 M07/M07 A2963 RMK AO2
     P0006=
KC09 232135Z AUTO 18019G28KT 10SM CLR 24/14 A2982 RMK AO2
     T02410144=
KC83 232135Z AUTO 33019KT 10SM CLR 21/M04 A2997 RMK AO2=
KCCY 232135Z AUTO 15019G27KT 8SM FEW030 SCT170 22/14 A2954 RMK
     AO2=
KCKZ 232135Z AUTO 04006KT 10SM OVC043 15/09 A3023 RMK AO2=
KCRX 232135Z AUTO 17010KT 10SM CLR 24/06 A3003 RMK AO2=
KCSQ 232135Z AUTO 15022G33KT 9SM CLR 24/16 A2945 RMK AO2=
KCVC 232135Z AUTO 05003KT 10SM CLR 23/03 A3014 RMK AO2=
KCWC 232135Z AUTO 17024G35KT 10SM CLR 32/13 A2964 RMK AO2
     T03160134=
KCXE 232135Z AUTO 02003KT 10SM OVC028 19/12 A3015 RMK AO1
     T01860118=
