SAUS80 KWBC 232128
METAR
KLZZ 232115Z AUTO 17012G20KT 10SM CLR 28/15 A2975 RMK AO2
     T02810145=
