SAUS70 KWBC 231800 RRI
METAR
KI68 231755Z AUTO 18011KT 10SM CLR 24/10 A3014 RMK AO1 T02360099
     10238 20126=
KIDI 231755Z AUTO VRB04KT 10SM CLR 20/03 A3027 RMK A01=
KINT 231754Z 36008KT 10SM CLR 21/06 A3021 RMK AO2 SLP224 T02110061
     10211 20072 58017=
KIOB 231755Z AUTO 19004KT 10SM CLR 23/06 A3018 RMK AO2 PWINO=
KISW 231754Z AUTO 14016G23KT 10SM CLR 22/12 A2978 RMK AO2 SLP082
     T02220122 10222 20133 58017=
KJFZ 231755Z AUTO 19003KT 10SM CLR 20/03 A3023 RMK AO2 T01980030
     10198 20069=
KJST 231754Z AUTO 11005KT CLR 16/03 A3026 RMK AO2 SLP245 T01610028
     10172 20056 58006 $=
KJZI 231755Z AUTO 35007G13KT 10SM CLR 24/11 A3014 RMK AO2=
KKY8 231755Z AUTO 16013G19KT 9SM CLR 26/13 A3005 RMK A01=
KL08 231755Z AUTO VRB04KT 9SM CLR 22/00 A2980 RMK AO2=
KL52 231755Z AUTO 32007G13KT 9SM CLR 18/05 A2993 RMK A01=
KLBO 231755Z AUTO 19015G22KT 10SM CLR 26/12 A2981 RMK AO2=
KLKR 231755Z AUTO 31005KT 10SM CLR 22/07 A3018 RMK AO2=
KLNP 231755Z AUTO 01004KT 10SM CLR 19/03 A3024 RMK AO2=
KLRO 231755Z AUTO 32008KT 300V360 10SM CLR 23/10 A3013 RMK AO2=
KLRU 231755Z AUTO 25021G31KT 10SM SCT055 BKN070 OVC080 22/06 A2984
     RMK AO2 T02200062 10226 20170=
KLRY 231755Z AUTO 20019G25KT 10SM CLR 28/13 A2967 RMK AO2=
KLUX 231755Z AUTO 33003KT 10SM CLR 22/06 A3019 RMK AO2=
KLVL 231755Z AUTO 33005KT 10SM OVC020 18/12 A3018 RMK AO1
     T01840118 10189 20106=
K06D 231755Z AUTO 05020G27KT 10SM BKN009 OVC013 08/06 A2953 RMK
     AO2=
K0S9 231755Z AUTO 13005KT 10SM CLR 11/06 A3011 RMK AO2=
K0VG 231755Z AUTO 00000KT 10SM CLR 22/04 A3020 RMK AO2=
K15M 231755Z AUTO 18008KT 10SM FEW270 23/08 A3014 RMK AO2
     T02290076 $=
K1R7 231755Z AUTO 18004G12KT 10SM FEW047 BKN055 26/18 A3011 RMK
     AO2 PWINO=
K24J 231755Z AUTO VRB04KT 10SM 26/09 A3013 RMK A01=
K28J 231755Z AUTO VRB05G10KT 10SM CLR 25/13 A3011 RMK AO2 TSNO=
K2D5 231755Z AUTO 08020G28KT 9SM CLR 17/09 A2933 RMK AO2=
K3AU 231755Z AUTO 18024G37KT 10SM CLR 27/10 A2957 RMK AO2=
K42J 231755Z AUTO 00000KT 10SM CLR 25/09 A3011 RMK A01=
K46D 231755Z AUTO 08017G22KT 10SM CLR 15/06 A2940 RMK AO2=
K4A6 231755Z AUTO 22005KT 10SM CLR 23/06 A3018 RMK AO2=
K4M9 231755Z AUTO 18018G25KT 10SM BKN038 BKN045 25/17 A2997 RMK
     AO2 PWINO=
K5H4 231755Z AUTO 06018G23KT 10SM CLR 11/M02 A2943 RMK AO2=
K6B9 231755Z AUTO VRB05KT 10SM CLR 19/03 A3026 RMK AO2=
K7L2 231755Z AUTO 07013KT 10SM CLR 16/08 A2928 RMK AO2=
K7W4 231755Z AUTO 02005KT 10SM BKN020 BKN025 OVC029 16/12 A3020
     RMK AO1 T01590115 10165 20085=
K7W6 231755Z AUTO 33012G16KT 3SM -RA OVC004 17/17 A3004 RMK AO2
     P0001 60014 T01670167 10171 20157=
K96D 231755Z AUTO 03011G16KT 10SM OVC016 11/11 A2955 RMK AO2=
K9D7 231755Z AUTO 06018G25KT 10SM CLR 11/07 A2950 RMK AO2 TSNO=
KACJ 231755Z AUTO VRB03KT 10SM CLR 23/07 A3017 RMK AO2
     T02280071=
KAFP 231755Z AUTO 35010G14KT 10SM CLR 23/03 A3018 RMK AO2
     T02250029 10225 20032=
KAGO 231755Z AUTO 19012G20KT 10SM FEW049 28/15 A2995 RMK A01=
KAIG 231755Z AUTO 14015G19KT 10SM CLR 20/12 A2983 RMK AO2
     T02030123 10203 20096=
KAKH 231754Z AUTO VRB05KT 10SM CLR 22/07 A3018 RMK AO2 SLP219
     T02220067 10222 20072 58021=
KAKR 231754Z AUTO VRB04KT 9SM CLR 24/04 A3018 RMK AO2 SLP216
     T02390044 10239 20089 58010=
KALM 231755Z AUTO 24015KT 10SM 24/07 A2981 RMK AO2=
KAPC 231754Z 35017KT 10SM CLR 20/01 A3000 RMK AO2 SLP149 T02000006
     10200 20028 50010=
KAQX 231755Z AUTO VRB04G11KT 10SM CLR 23/10 A3014 RMK AO2=
KARW 231755Z AUTO 35010G15KT 10SM CLR 23/11 A3015 RMK AO2=
KASJ 231755Z AUTO 35005KT 10SM OVC012 15/14 A3014 RMK AO2
     T01500137 10150 20112=
