SAUS80 KWBC 231656
METAR
KCUL 231637Z AUTO 18018G24KT 10SM CLR 26/12 A3002 RMK AO2=
KNY0 231638Z AUTO 00000KT 10SM CLR 13/07 A3033 RMK AO2=
KROS 231643Z AUTO 14007G15KT 10SM CLR 23/13 A2964 RMK AO2=
KSFY 231629Z AUTO 15015G22KT 10SM CLR 22/12 A2981 RMK AO2=
KLZZ 231635Z AUTO 19014G25KT 10SM SCT036 25/16 A2986 RMK AO2
     T02470161=
