SAUS70 KWBC 232030
METAR
KDUB 232021Z AUTO 28021G28KT 10SM SCT041 OVC049 02/M09 A2960 RMK
     AO2=
KSLR 232010Z AUTO 19018G25KT 10SM BKN050 29/14 A2983 RMK AO2
     T02910140=
KDCY 232015Z AUTO 18015G22KT 10SM CLR 26/10 A2999 RMK AO2
     T02600096=
KDLL 232035Z AUTO 15017G20KT 10SM SCT045 22/12 A2973 RMK AO2
     T02220119=
KEBS 232015Z AUTO 16022G31KT 7SM FEW040 FEW120 23/15 A2946 RMK
     AO2=
KEVM 232021Z AUTO 13010G16KT 10SM CLR 22/12 A2963 RMK AO2=
KEZS 232035Z AUTO 11012G18KT 10SM CLR 23/14 A2980 RMK AO2
     T02270140=
KGAF 232035Z AUTO 05012KT 8SM CLR 20/09 A2942 RMK AO2=
KJVY 232015Z AUTO 17013G18KT 10SM CLR 26/08 A3004 RMK AO2
     PWINO=
KMPZ 232010Z AUTO 17017G25KT 10SM CLR 26/18 A2966 RMK AO2=
KW99 232021Z AUTO 12004KT 10SM CLR 18/07 A3023 RMK AO2=
K1A5 232035Z AUTO 00000KT 10SM CLR 24/M05 A3017 RMK AO2
     T02431053=
KBRG 232015Z AUTO 22020G31KT 10SM SCT090 22/M03 A2968 RMK AO2
     T02181031=
KEFT 232035Z AUTO 17020G30KT 10SM SCT042 24/13 A2975 RMK AO2
     T02400128=
KHNZ 232035Z AUTO 33004KT 10SM SCT025 18/09 A3015 RMK AO2
     T01810091=
KJXI 232035Z AUTO 16008G19KT 10SM SCT055 28/13 A2985 RMK AO2
     T02760130=
KPDC 232035Z AUTO 13013G19KT 10SM CLR 25/12 A2964 RMK AO2
     T02450118=
KW31 232035Z AUTO 34008KT 10SM OVC027 18/11 A3016 RMK AO1
     T01820110=
KW96 232035Z AUTO 31005KT 10SM OVC009 14/13 A3015 RMK AO1
     T01410130=
KBNL 232035Z AUTO 01004KT 10SM CLR 25/09 A3013 RMK AO2=
KETB 232035Z AUTO 13009G18KT 10SM CLR 20/12 A2982 RMK AO2=
KLHZ 232035Z AUTO 36006KT 10SM SCT028 20/12 A3015 RMK AO2=
KOCW 232015Z AUTO 33011KT 10SM OVC015 17/13 A3010 RMK AO2
     T01730133=
KRRL 232035Z AUTO 15012G23KT 10SM SCT042 23/13 A2973 RMK AO2
     T02260127 TSNO=
KUNU 232035Z AUTO 15014G22KT 10SM CLR 23/13 A2979 RMK AO2
     T02250133=
