SACA32 KWBC 231700 RRA
METAR
MDPC 231700Z 06010KT 9999 FEW020CB SCT022 30/24 Q1013 CB/W=
MDPP 231700Z 05012KT 9999 FEW018 30/26 Q1013=
MDSD 231700Z 07010KT 8000 VCSH FEW018CB SCT020 28/26 Q1014
     CB/N=
MDST 231700Z 09006KT 9999 FEW022 31/23 Q1013=
TAPA 231700Z 08010KT 040V140 9999 SCT018 30/23 Q1013 NOSIG=
