SAUS70 KWBC 232120
METAR
KY31 232115Z AUTO 16008G14KT 10SM CLR 23/08 A3002 RMK AO2
     T02340084=
KY49 232115Z AUTO 09007KT 10SM SCT046 20/11 A2947 RMK AO2
     T02000112=
KATP 232115Z AUTO 11015KT 10SM SCT036 SCT041 25/17 A3003 RMK
     A01=
KAUM 232117Z AUTO 16015G25KT 10SM CLR 24/13 A2954 RMK AO2=
KBAX 232115Z AUTO 17014G23KT 10SM CLR 23/09 A3007 RMK AO2
     T02250085=
KBQX 232115Z AUTO 16017KT 9SM CLR 27/19 A2989 RMK A01=
KCQM 232117Z AUTO 13010G19KT 090V160 10SM CLR 22/11 A2960 RMK
     AO2=
KD39 232115Z AUTO 13019G25KT 10SM CLR 23/12 A2941 RMK AO2
     T02290124=
KDSF 232115Z AUTO 06006KT 10SM CLR 26/15 A3005 RMK A01=
KERY 232115Z AUTO 15014G18KT 10SM CLR 22/10 A2994 RMK AO2
     T02190104=
KGHB 232115Z AUTO VRB04G11KT 10SM FEW047 26/17 A2999 RMK A01=
KGLX 232115Z AUTO 05011KT 10SM CLR 24/14 A3006 RMK A01=
KGRY 232115Z AUTO 12013KT 10SM CLR 24/16 A3002 RMK A01=
KHCD 232115Z AUTO 13023G30KT 10SM CLR 25/13 A2943 RMK AO2
     T02460125=
KHHV 232115Z AUTO 15018G30KT 10SM FEW034 27/19 A2987 RMK A01=
KHYX 232115Z AUTO 16011KT 10SM SCT060 23/10 A3004 RMK AO2
     T02260095=
KHZX 232115Z AUTO 12011G18KT 10SM SCT048 22/12 A2954 RMK AO2=
KIMS 232115Z AUTO 15008KT 10SM CLR 24/08 A3007 RMK AO2=
KJYG 232116Z AUTO 15024G35KT 10SM CLR 25/12 A2940 RMK AO2=
KLVN 232115Z AUTO 15017G29KT 10SM CLR 24/11 A2949 RMK AO2=
KMJQ 232115Z AUTO 14021G29KT 10SM CLR 25/12 A2940 RMK AO2=
KMOP 232115Z AUTO 14011G16KT 10SM SCT060 23/10 A3000 RMK AO2
     T02300098=
KONA 232115Z AUTO 16013G24KT 141V201 10SM CLR 24/12 A2959 RMK
     AO2=
KPEX 232115Z AUTO 14021G29KT 10SM CLR 23/12 A2942 RMK AO2=
KPMH 232115Z AUTO 18004KT 10SM CLR 25/01 A3011 RMK AO2
     T02540014=
KPZZ 232115Z AUTO 12016KT 9SM CLR 25/17 A3002 RMK A01=
KRRT 232115Z AUTO 04015G20KT 10SM CLR 14/11 A2951 RMK AO2=
KVAF 232115Z AUTO 13016KT 10SM CLR 28/17 A2991 RMK A01=
KVOA 232120Z AUTO 09012KT 10SM CLR 25/16 A3007 RMK A01=
KWBF 232115Z AUTO 00000KT 10SM 26/18 A3001 RMK A01=
K06C 232115Z AUTO 17016G26KT 10SM CLR 25/16 A2982 RMK AO2
     T02500160=
K0CO 232115Z AUTO 29017G21KT 1/2SM SN SCT002 OVC005 M08/M09 A2960
     RMK AO2=
K0R4 232115Z AUTO 14011G16KT 10SM CLR 28/15 A2998 RMK AO2
     T02810149=
K13K 232115Z AUTO 18029G37KT 10SM CLR 28/14 A2956 RMK AO2=
K18A 232115Z AUTO 00000KT 10SM CLR 24/01 A3015 RMK AO2
     T02360013=
K1F0 232115Z AUTO 16016G31KT 10SM CLR 28/16 A2972 RMK AO2
     T02840156=
K1H2 232115Z AUTO 14015G22KT 10SM CLR 25/13 A2991 RMK AO2
     T02470134=
K1R8 232115Z AUTO 23005KT 10SM CLR 27/09 A3006 RMK AO2=
K2J3 232115Z AUTO 00000KT 10SM CLR 24/09 A3013 RMK AO2
     T02430089=
K2R9 232115Z AUTO 15015G23KT 10SM SCT044 SCT060 30/18 A2980 RMK
     AO2=
K2V5 232115Z AUTO 36018G24KT 10SM SCT120 21/M02 A2929 RMK AO2=
K33V 232115Z AUTO 33014G20KT 1/4SM OVC002 M03/M03 A2959 RMK
     AO1=
K3F3 232115Z AUTO 17016G20KT 10SM SCT065 28/16 A2994 RMK AO2
     T02830155=
K3K3 232115Z AUTO 22028G37KT 10SM SCT037 SCT042 BKN050 28/01 A2936
     RMK AO2=
K49A 232115Z AUTO 24003KT 10SM CLR 23/01 A3017 RMK AO2
     T02300013=
K4A9 232115Z AUTO 14004KT 10SM CLR 23/03 A3011 RMK AO2
     T02330027=
K4O4 232115Z AUTO 15015G20KT 9SM BKN050 OVC055 29/15 A2982 RMK
     AO2=
K57C 232115Z AUTO 17015G22KT 10SM SCT120 24/14 A2980 RMK AO2
     T02410135=
K5M9 232115Z AUTO 18009G17KT 140V210 10SM CLR 26/06 A3000 RMK AO2
     T02550055=
K5SM 232115Z AUTO M1/4SM +SN OVC002 M07/M08 A2966 RMK AO2=
K66R 232115Z AUTO 16008G18KT 10SM SCT047 SCT055 OVC065 29/17 A2986
     RMK AO2 T02850172=
K6A1 232115Z AUTO 00000KT 10SM CLR 25/03 A3014 RMK AO2
     T02460028=
