SAUS70 KWBC 231842
METAR
K74V 231835Z AUTO 14006KT 10SM 03/01 A2968 RMK AO2=
KASL 231835Z AUTO 00000KT 10SM SCT055 29/15 A2991 RMK AO2
     T02860147 TSNO $=
KCFD 231835Z AUTO 17011G18KT 10SM SCT048 BKN055 29/17 A2991 RMK
     AO2 T02850166=
KEBG 231835Z AUTO 16018G29KT 10SM CLR 32/18 A2982 RMK AO2
     T03170183 PWINO=
KF00 231835Z AUTO 18015G26KT 10SM SCT042 28/16 A2984 RMK AO2
     T02750163=
KLHB 231835Z AUTO 17016G22KT 10SM SCT043 SCT060 30/17 A2989 RMK
     AO2 T03040172=
KLHM 231835Z AUTO 32016G22KT 10SM CLR 18/M02 A2996 RMK AO1=
KMDD 231835Z AUTO 19016G20KT 10SM CLR 27/12 A2977 RMK AO2
     T02710121=
KPSO 231835Z AUTO 24015G20KT 10SM SCT030 BKN042 OVC075 05/00 A2973
     RMK AO2 T00490000=
KRAS 231835Z AUTO 14017G21KT 10SM SCT050 A2990 RMK AO2=
KRYW 231835Z AUTO 19018G24KT 10SM SCT044 28/15 A2987 RMK AO2
     T02780151=
KT74 231835Z AUTO 16017G26KT 10SM SCT041 BKN050 28/18 A2986 RMK
     AO2 T02800176=
KT82 231835Z AUTO 16016G22KT 10SM SCT040 27/15 A2986 RMK AO2
     T02680152=
KTEX 231835Z AUTO 23015G26KT 10SM SCT033 SCT047 OVC070 01/M10
     A2970 RMK AO2=
KVTP 231835Z AUTO 25023G43KT 1/2SM -SN OVC003 M12/M13 A2959 RMK
     AO2=
KAJZ 231835Z AUTO 00000KT 10SM BKN019 OVC040 08/03 A2964 RMK AO2
     T00760033=
KAQO 231835Z AUTO 19011G21KT 10SM CLR 29/14 A2981 RMK AO2=
KBPG 231835Z AUTO 20022KT 10SM CLR 29/11 A2976 RMK AO2
     T02890114=
KBQX 231835Z AUTO 16012G17KT 9SM 28/17 A2994 RMK A01=
KDSF 231835Z AUTO 07005KT 10SM CLR 25/14 A3009 RMK A01=
KE42 231835Z AUTO 19026G34KT 10SM CLR 29/09 A2955 RMK AO2
     T02920087=
KEIK 231835Z AUTO 36006KT 10SM CLR 18/M04 A2931 RMK AO2 T01821045
     PWINO=
KELA 231835Z AUTO 18015G21KT 10SM BKN049 OVC070 30/17 A2990 RMK
     AO2 T02950170=
KEMM 231835Z AUTO 29020G27KT 10SM SCT019 BKN024 OVC036 M01/M05
     A2968 RMK AO2=
KF05 231835Z AUTO 19019G28KT 10SM CLR 32/12 A2965 RMK AO2
     T03220122=
KFOT 231830Z AUTO 34008KT 9SM FEW026 13/07 A3015 RMK AO1=
KGLX 231835Z AUTO 04010KT 10SM CLR 26/13 A3008 RMK A01=
KHHV 231835Z AUTO 15013G21KT 10SM FEW031 26/19 A2992 RMK A01=
KMNZ 231835Z AUTO 19019G26KT 10SM CLR 28/15 A2984 RMK AO2
     T02840148=
KRWV 231835Z AUTO 17016G22KT 10SM BKN047 BKN055 28/17 A2989 RMK
     AO2 T02830168=
KSAA 231835Z AUTO 27007KT 7SM OVC040 00/M02 A2957 RMK AO2=
KSTK 231835Z AUTO 33017G24KT 10SM CLR 20/01 A2927 RMK AO2=
KT41 231835Z AUTO 10SM SCT048 SCT060 29/17 A2995 RMK AO2
     T02910170=
KVAF 231835Z AUTO 17017KT 10SM CLR 28/16 A2996 RMK A01=
KVHN 231835Z AUTO 23012G20KT 10SM SCT080 28/08 A2984 RMK AO2
     T02830080=
KWBF 231835Z AUTO VRB05G11KT 10SM 26/18 A3004 RMK A01=
KBJI 231835Z AUTO 11012G17KT 10SM CLR 21/11 A2953 RMK AO2
     T02050107=
KOWX 231835Z AUTO 17013G17KT 10SM CLR 26/07 A3011 RMK AO1=
KBAX 231835Z AUTO 17010G19KT 10SM CLR 23/11 A3010 RMK AO2
     T02270111=
KBIE 231835Z AUTO 19022G33KT 10SM CLR 30/13 A2939 RMK AO2
     T02950130=
KBNW 231835Z AUTO 17021G27KT 10SM CLR 25/14 A2951 RMK AO2=
KBVN 231835Z AUTO 17019G27KT 10SM CLR 28/10 A2926 RMK AO2
     T02790098 PWINO=
KC35 231835Z AUTO 14010G17KT 10SM CLR 23/13 A2974 RMK AO2
     T02280125 PWINO=
KCQM 231837Z AUTO 13004G17KT 10SM SCT080 21/09 A2964 RMK AO2=
KFET 231835Z AUTO 16015G27KT 10SM CLR 29/14 A2935 RMK AO2
     T02870135=
KFOA 231835Z AUTO 17023G29KT 10SM BKN047 BKN055 26/14 A2996 RMK
     AO2=
KFSW 231835Z AUTO 17015G23KT 10SM OVC001 23/14 A2971 RMK AO2=
KFWC 231835Z AUTO 18018G27KT OVC048 26/13 A2996 RMK AO1 T02570126
     PWINO=
KGDB 231835Z AUTO 13022G30KT 10SM CLR 24/13 A2940 RMK AO2
     T02400132=
