SAUS80 KWBC 232104
METAR
K77S 232115Z AUTO 00000KT 10SM OVC042 14/04 A3019 RMK A01=
KM25 232115Z AUTO 18012G18KT 10SM CLR 26/07 A3000 RMK AO2
     PWINO=
KROS 232103Z AUTO 14015G22KT 10SM CLR 26/14 A2952 RMK AO2 LTG DSNT
     S=
