SAPA31 KWBC 231700 RRD
METAR
PKWA 231740Z AUTO 06007KT 4SM BR BKN049 OVC055 25/23 A2982 RMK AO2
     T02480232=
