SACA33 KWBC 231800 RRC
METAR
TLPL 231800Z 08013KT 9999 SCT027 31/25 Q1011 NOSIG=
