SAUS70 KWBC 232032
METAR
KDYA 232035Z AUTO 00000KT 10SM CLR 26/08 A3008 RMK AO2
     T02590077=
KFRH 232035Z AUTO 17008G14KT 10SM CLR 25/06 A3002 RMK AO1=
KGWW 232035Z AUTO 36008KT 10SM OVC024 20/14 A3012 RMK AO2
     T01950142=
KIPJ 232035Z AUTO 01005KT 10SM CLR 23/05 A3016 RMK AO2
     T02250048=
KJYO 232035Z AUTO 03006KT 10SM SCT048 OVC060 18/13 A3022 RMK
     AO2=
KMRN 232035Z AUTO 15003KT 10SM CLR 23/06 A3019 RMK AO2
     T02320055=
KMYJ 232035Z AUTO 16018G23KT 10SM CLR 27/15 A2970 RMK AO2=
KOIC 232035Z AUTO 16005KT 10SM CLR 18/10 A3029 RMK AO2
     T01770099=
KPBH 232035Z AUTO 15018G21KT 10SM SCT045 22/13 A2970 RMK AO2
     T02190126=
KPTB 232035Z AUTO 35008KT 10SM OVC008 15/13 A3016 RMK AO2
     T01460131=
KTGI 232035Z AUTO 35016KT 2 1/2SM BKN005 BKN040 OVC075 16/15 A3012
     RMK AO1 T01570152=
KVNW 232035Z AUTO 17011KT 10SM CLR 25/07 A3006 RMK AO2=
K6S8 232025Z AUTO 31013G19KT 6SM BR 04/02 A2967 RMK A01 Laurel=
