SAUS70 KWBC 232102
METAR
KMFV 232115Z AUTO 36008G16KT 10SM OVC006 14/13 A3009 RMK AO2
     T01380131=
KW75 232115Z AUTO 33006KT 10SM OVC009 15/14 A3013 RMK AO1
     T01450136=
