SAUS80 KWBC 232000 RRC
METAR
PANC 231953Z 34006KT 10SM FEW005 SCT200 M01/M06 A2990 RMK AO2
     SLP127 T10061056=
PANN 231953Z AUTO 32004KT 10SM OVC006 M02/M03 A3002 RMK AO2 SLP174
     T10171028 TSNO=
PAOM 231953Z 15019KT 9SM BKN014 OVC019 04/02 A2971 RMK AO2 PK WND
     15027/1855 RAB00E09 SLP060 P0000 T00390017=
PAOR 231953Z 31008KT 10SM OVC055 M03/M06 A2986 RMK AO2 SLP151
     T10331056 $=
PAOT 231953Z 13008KT 10SM OVC075 M02/M02 A2983 RMK AO2 SLP101
     T10171022=
PASN 231953Z AUTO 24022G32KT 10SM SCT027 SCT036 BKN042 07/04 A2975
     RMK AO2 PK WND 23034/1904 RAB12E21 SLP076 P0000 T00670039
     TSNO $=
PATK 231953Z 03003KT 10SM CLR 00/M07 A2992 RMK AO2 SLP138
     T00001072=
PHNL 231953Z 06011G17KT 10SM FEW024 SCT045 BKN060 29/21 A3004 RMK
     AO2 SLP172 VCSH NE T02940206=
PHTO 231953Z 01006KT 10SM SCT045 BKN060 OVC075 27/19 A3005 RMK AO2
     SLP175 T02670194=
PHKO 231953Z 29005KT 10SM SCT070 28/22 A3001 RMK AO2 SLP162
     T02780217=
PHLI 231953Z 07013KT 10SM CLR 28/22 A3008 RMK AO2 RAB05E23 SLP183
     P0000 T02830222 $=
PHJR 231953Z VRB06G16KT 10SM FEW036 30/21 A3005 RMK AO2 SLP182
     T03000206=
KHVR 231953Z AUTO 36016G21KT SCT008 BKN014 OVC028 02/01 A2978 RMK
     AO2 SNB04E51 SLP107 P0001 T00170006 $=
KLAN 231953Z AUTO 16009G23KT 10SM BKN060 24/11 A3004 RMK AO2
     SLP170 T02390106=
KLAX 231953Z 24012KT 10SM FEW029 FEW037 SCT055 21/12 A2986 RMK AO2
     SLP109 T02110122=
KLND 231953Z AUTO 06008KT 10SM BKN008 OVC012 02/00 A2960 RMK AO2
     UPB06E15SNE1857 CIG 004V011 SLP020 P0000 T00170000=
KFAT 231953Z 29008KT 10SM FEW100 19/01 A2993 RMK AO2 SLP132 CU
     OMTNS NE-E T01890011=
KFNT 231953Z 15019G27KT 10SM FEW055 24/11 A3006 RMK AO2 PK WND
     16030/1912 SLP178 T02390111=
KGEG 231953Z 00000KT 10SM SCT037 BKN042 BKN075 08/00 A3002 RMK AO2
     SLP179 T00780000 $=
KBNO 231953Z AUTO 31010KT 10SM OVC050 06/M04 A3006 RMK AO2 SLP197
     T00561044 $=
KCHA 231953Z 13005KT 10SM CLR 24/03 A3013 RMK AO2 SLP198
     T02440033=
KCNY 231953Z AUTO 14007KT 10SM SCT120 06/02 A2966 RMK AO2 SLP034
     T00610022=
KCRQ 231953Z 24009KT 210V270 10SM FEW043 19/09 A2985 RMK AO2
     SLP104 T01890089=
KMCN 231953Z 00000KT 10SM CLR 26/08 A3014 RMK AO2 SLP203
     T02560083=
KMGM 231953Z 09005KT 10SM CLR 26/06 A3011 RMK AO2 SLP195
     T02560061=
KMSO 231953Z 02008KT 10SM FEW028 OVC039 06/01 A2994 RMK AO2 SLP154
     T00610006 $=
KPDX 231953Z 15004KT 10SM SCT042 BKN060 13/07 A3018 RMK AO2 SLP219
     T01330067=
KYKM 231953Z AUTO 26004KT 10SM CLR 12/M02 A3008 RMK AO2 SLP189
     T01221017=
KTRI 231953Z 20003KT 10SM CLR 23/03 A3016 RMK AO2 SLP200 T02280033
     $=
KTYS 231953Z 00000KT 10SM CLR 24/06 A3013 RMK AO2 SLP198
     T02390056=
KUIL 231953Z AUTO 22007KT 10SM FEW018 SCT026 12/07 A3014 RMK AO2
     SLP209 T01170072=
KPGA 231953Z AUTO 26011G22KT 10SM OVC070 11/M05 A2976 RMK AO2
     SLP040 T01111050 $=
KRIW 231953Z AUTO 01012KT 10SM BKN065 OVC085 02/M01 A2960 RMK AO2
     SNE01 SLP025 P0000 T00171006=
KRMG 231953Z AUTO 13003KT 10SM CLR 23/04 A3013 RMK AO2 SLP196
     T02330039=
KRNM 231953Z 15007KT 130V200 10SM BKN039 18/09 A2986 RMK AO2
     SLP101 T01830094=
KSDM 231953Z 24007KT 10SM BKN040 19/10 A2986 RMK AO2 SLP109
     T01940100=
KSEA 231953Z 22006KT 10SM FEW014 SCT020 BKN110 11/06 A3016 RMK AO2
     SLP220 T01060056 $=
KCQC 231953Z AUTO 25034G51KT 10SM CLR 16/M03 A2971 RMK AO2 PK WND
     25051/1949 SLP982 T01611028=
KBDR 231952Z 03011KT 10SM BKN050 OVC065 14/09 A3026 RMK AO2 RAE03
     SLP248 P0000 T01440089=
KGRR 231953Z 16017G26KT 10SM FEW056 FEW250 24/11 A2998 RMK AO2 PK
     WND 15029/1937 SLP150 T02390111 $=
