SAUS70 KWBC 232058
METAR
KMCX 232115Z AUTO 17012G18KT 140V210 10SM CLR 25/09 A2994 RMK AO2
     T02470091=
KGZN 232040Z AUTO 17022G33KT 10SM CLR 29/14 A2970 RMK AO2=
