SAUS70 KWBC 231900 RRI
METAR
KPSP 231853Z 32009G17KT 10SM CLR 24/04 A2981 RMK AO2 SLP091
     T02440044 $=
KPSX 231853Z AUTO 15020KT 10SM -RA SCT065 29/18 A2990 RMK AO2 PK
     WND 13028/1837 RAB46 SLP123 P0000 T02890183=
KPTK 231853Z 14013KT 10SM FEW050 BKN220 22/10 A3010 RMK AO2 SLP191
     T02220100 $=
KPUB 231853Z 24023G33KT 10SM CLR 22/01 A2941 RMK AO2 PK WND
     24034/1814 SLP893 T02170006=
KPUC 231853Z AUTO 33020G29KT 10SM BKN055 07/M06 A2967 RMK AO2 PK
     WND 30031/1803 SLP042 T00671061=
KPUW 231853Z AUTO 26009G16KT 10SM SCT015 06/02 A3003 RMK AO2
     SLP185 T00560017 $=
KPWA 231853Z 18021G31KT 10SM CLR 27/15 A2965 RMK AO2 PK WND
     18035/1804 SLP024 T02670150=
KRAC 231853Z AUTO 16011G26KT 10SM CLR 20/13 A2989 RMK AO2 PK WND
     16027/1835 SLP117 T02000128=
KRAL 231853Z 00000KT 10SM SCT039 19/08 A2986 RMK AO2 SLP097
     T01940078 $=
KRBD 231853Z 18019G33KT 10SM SCT040 29/16 A2981 RMK AO2 PK WND
     19039/1801 SLP085 T02890156=
KRBG 231853Z AUTO 22004KT 10SM FEW006 09/07 A3021 RMK AO2 SLP234
     T00940072=
KRCX 231855Z AUTO 15015G23KT 10SM CLR 23/16 A2971 RMK AO2
     T02270155=
KRHI 231853Z AUTO 16011G27KT 10SM CLR 21/11 A2979 RMK AO2 PK WND
     14029/1816 SLP085 T02110111=
KRIL 231853Z AUTO 27004KT 10SM FEW008 BKN044 OVC055 04/02 A2959
     RMK AO2 RAE47 SLP994 P0000 T00390017=
KRKP 231853Z AUTO 14014G21KT 10SM SCT060 30/22 A2987 RMK AO2 PK
     WND 15026/1813 SLP115 T03000217=
KRME 231853Z 12008KT 10SM CLR 18/05 A3030 RMK AO2 SLP260
     T01830050=
KRNT 231853Z 18005KT 10SM OVC016 10/06 A3016 RMK AO2 SLP218
     T01000061=
KRSW 231853Z 04007KT 10SM FEW055 28/17 A3003 RMK AO2 SLP166
     T02830167=
KRTN 231853Z AUTO 22030G51KT 10SM SCT095 21/M03 A2952 RMK AO2 PK
     WND 23051/1847 SLP921 T02061028=
KRUE 231853Z AUTO 17010G20KT 10SM OVC035 25/17 A2987 RMK AO2
     SLP109 T02500167=
KRWF 231853Z AUTO 13026G37KT 10SM CLR 25/13 A2940 RMK AO2 PK WND
     13038/1833 SLP953 T02500128=
KRWI 231853Z AUTO 35007KT 10SM OVC021 21/13 A3012 RMK AO2 SLP199
     T02060133=
KRWL 231853Z AUTO 25012KT 10SM OVC060 01/M02 A2956 RMK AO2 SLP999
     T00061022=
KRXE 231853Z AUTO 10SM OVC070 04/M04 A2977 RMK AO2 SLP086
     T00441039=
KEWB 231853Z 03007KT 10SM SCT060 BKN070 OVC120 14/14 A3028 RMK AO2
     RAE30 SLP253 P0000 T01440144=
KEYE 231853Z AUTO 16012G22KT 10SM FEW055 25/11 A3000 RMK AO2
     SLP154 T02500106 $=
KEYW 231853Z 05010KT 10SM CLR 28/20 A3001 RMK AO2 SLP163
     T02780200=
KEZM 231855Z AUTO 26003KT 10SM CLR 24/09 A3014 RMK AO2=
KF70 231855Z AUTO 21007KT 10SM CLR 17/07 A2988 RMK AO2=
KFAY 231853Z 33011G17KT 10SM CLR 22/04 A3013 RMK AO2 SLP196
     T02170044 $=
KFCM 231853Z 13020G28KT 10SM CLR 25/12 A2950 RMK AO2 PK WND
     15033/1812 SLP985 T02500122 $=
KFDY 231853Z AUTO 16014KT 10SM CLR 24/11 A3010 RMK AO2 SLP185
     T02440106=
KFFC 231853Z AUTO 13004KT 10SM CLR 23/02 A3017 RMK AO2 SLP216
     T02280017=
KFFT 231853Z AUTO 19007G18KT 10SM CLR 25/08 A3010 RMK AO2 SLP189
     T02500078=
KFHR 231853Z AUTO 12003KT 10SM CLR 11/08 A3015 RMK AO2 SLP209
     T01110078=
KFLD 231853Z AUTO 15014KT 10SM CLR 25/12 A2980 RMK AO2 SLP089
     T02500117=
KFLL 231853Z 05011KT 10SM SCT034 SCT043 28/19 A3001 RMK AO2 SLP163
     T02830194 $=
KFLO 231853Z VRB06KT 10SM CLR 24/07 A3014 RMK AO2 SLP205 T02390067
     $=
KFMY 231853Z 06010G16KT 10SM FEW050 SCT060 30/17 A3003 RMK AO2
     SLP169 T03000172=
KFOE 231853Z 18027G37KT 10SM CLR 28/16 A2953 RMK AO2 LTG DSNT W
     SLP986 T02830161 $=
KFPR 231853Z 02009G17KT 10SM CLR 27/17 A3005 RMK AO2 SLP176
     T02720167=
