SAUS80 KWBC 232100 CCA
METAR
KMTP 232054Z AUTO 05010G21KT 14/11 A3025 RMK AO1 SLP243 P0004
     60012 T01390106 56008=
