SAUS70 KWBC 231714
METAR
K2C8 231715Z AUTO 04012G17KT 10SM CLR 12/09 A2954 RMK AO2=
KCLK 231715Z AUTO 19023G28KT 10SM CLR 25/11 A2967 RMK AO2=
KFRR 231715Z AUTO 00000KT 10SM BKN031 BKN041 15/06 A3027 RMK
     AO1=
KLQK 231715Z AUTO 10SM CLR 23/03 A3021 RMK AO2 T02280030=
KY51 231715Z AUTO 14012KT 10SM CLR 21/14 A2975 RMK AO1
     T02050142=
KTFP 231635Z AUTO 18019G24KT 10SM CLR 29/21 A2991 RMK AO2
     T02930212=
K1S5 231715Z AUTO 21003KT 10SM CLR 06/01 A3006 RMK AO2
     T00640011=
KJXI 231715Z AUTO 16012G19KT 10SM SCT034 SCT044 26/16 A2994 RMK
     AO2 T02630156=
KMCJ 231715Z AUTO 17022G33KT 10SM CLR 28/12 A2993 RMK A01=
KEFT 231715Z AUTO 16015G21KT 10SM CLR 21/12 A2982 RMK AO2
     T02100115=
KETB 231715Z AUTO 15011G15KT 120V180 10SM CLR 20/12 A2988 RMK
     AO2=
KFRH 231715Z AUTO 19006KT 10SM CLR 23/08 A3008 RMK AO1=
KOIC 231715Z AUTO 00000KT 10SM CLR 15/07 A3032 RMK AO2
     T01450068=
KPBH 231715Z AUTO 13010G17KT 10SM CLR 19/12 A2977 RMK AO2
     T01930122=
KPDC 231715Z AUTO 12014KT 10SM CLR 23/12 A2972 RMK AO2
     T02250119=
KRRL 231715Z AUTO 14009KT 10SM CLR 20/13 A2980 RMK AO2 T01990125
     TSNO=
KSUW 231715Z AUTO 07009KT 10SM OVC085 13/09 A2970 RMK AO2
     T01280092=
KUNU 231715Z AUTO 13012G20KT 10SM CLR 21/12 A2986 RMK AO2
     T02060122=
KVNW 231715Z AUTO 18009G15KT 10SM CLR 23/09 A3011 RMK AO2=
K4R5 231715Z AUTO 10005KT 10SM SCT080 BKN095 OVC120 19/12 A2973
     RMK AO2 T01920118=
K8W2 231715Z AUTO 03008KT 10SM CLR 18/05 A3026 RMK AO1
     T01750050=
KARV 231715Z AUTO 16012G17KT 10SM SCT100 19/12 A2981 RMK AO2
     T01900116=
KCCA 231715Z AUTO 19007G17KT 10SM OVC027 22/16 A2996 RMK AO2=
KCDH 231715Z AUTO 17015G20KT 10SM CLR 27/18 A2999 RMK AO2=
KCPK 231715Z AUTO 32004KT 15/14 A3013 RMK AO2 P0002 T01480140=
KD50 231715Z AUTO 07019G25KT 10SM OVC013 05/03 A2957 RMK AO2=
KDVP 231713Z AUTO 13026G32KT 10SM CLR 20/12 A2942 RMK AO2
     T02030122=
KEOE 231715Z AUTO 00000KT 10SM CLR 21/07 A3023 RMK AO2=
KFDW 231715Z AUTO 02006KT 10SM CLR 22/08 A3020 RMK AO1=
KHFY 231715Z AUTO 19009G15KT 10SM CLR 24/13 A3008 RMK AO2
     T02440131=
KIUA 231715Z AUTO 13004KT 10SM CLR 21/06 A3025 RMK AO2
     T02130063=
KIXA 231715Z AUTO 36011G15KT 10SM OVC017 17/15 A3016 RMK AO2=
KJAQ 231715Z AUTO 36004KT 10SM CLR 12/M01 A2995 RMK AO1
     T01181007=
KLDJ 231715Z AUTO 06004KT 10SM -RA BKN034 OVC043 16/09 A3027 RMK
     AO2 T01550094=
KMDZ 231715Z AUTO 15010G17KT 10SM CLR 19/13 A2977 RMK AO2
     T01930125 PWINO=
KORB 231713Z AUTO 16008KT 10SM CLR 21/10 A2964 RMK AO2=
KRAW 231715Z AUTO 20018G25KT 10SM CLR 26/13 A2972 RMK AO2=
KSPA 231715Z AUTO 00000KT 10SM CLR 21/05 A3021 RMK AO2=
KVER 231715Z AUTO 17016G24KT 10SM SCT120 26/16 A2973 RMK AO2 LTG
     DSNT NE T02600163=
