SAUS70 KWBC 231924
METAR
KADU 231915Z AUTO 17016G29KT 10SM BKN004 BKN020 OVC048 27/13 A2945
     RMK AO2 PWINO=
KAJG 231915Z AUTO 17022G27KT 10SM CLR 27/11 A2996 RMK AO2
     T02730106=
KAXA 231915Z AUTO 16022G33KT 9SM CLR 25/14 A2945 RMK A01=
KBJI 231915Z AUTO 11013G18KT 10SM CLR 21/11 A2950 RMK AO2
     T02110112=
KC65 231915Z AUTO 16013G23KT 10SM FEW050 25/11 A2996 RMK A01=
KCBF 231915Z AUTO 18022G32KT 9SM CLR 29/10 A2936 RMK AO2=
KCDD 231915Z AUTO 12004KT 10SM CLR 22/09 A2966 RMK AO2=
KFFL 231915Z AUTO 16016G24KT 10SM CLR 23/13 A2965 RMK A01=
KGBG 231915Z AUTO 16016G23KT 10SM CLR 23/15 A2976 RMK AO2
     T02300151=
KGGF 231915Z AUTO 32019G25KT 10SM CLR 24/M03 A2921 RMK AO2=
KHPT 231915Z AUTO 14020G27KT 10SM CLR 24/12 A2954 RMK AO2=
KI74 231915Z AUTO 18010G14KT 10SM OVC060 22/09 A3012 RMK AO2=
KICL 231915Z AUTO 19020G32KT 10SM CLR 28/14 A2947 RMK AO2=
KIIB 231915Z AUTO 15020G24KT 10SM CLR 24/14 A2964 RMK AO2
     T02390137=
KIKK 231915Z AUTO 18017G28KT 10SM CLR 26/12 A2990 RMK AO2
     T02560120=
KJYR 231915Z AUTO 18029KT 9SM CLR 30/11 A2929 RMK AO2=
KLOT 231915Z AUTO 17023G31KT 10SM CLR 26/14 A2986 RMK AO2=
KLRJ 231915Z AUTO 15028G34KT 9SM CLR 28/12 A2930 RMK AO2=
KMGC 231915Z AUTO 18015G26KT 10SM CLR 25/11 A2993 RMK AO2=
KN03 231915Z AUTO 16005KT 10SM CLR 18/06 A3027 RMK AO2=
KOLE 231915Z AUTO 00000KT 10SM CLR 18/01 A3025 RMK AO2=
KOQN 231915Z AUTO 05005G15KT 10SM OVC041 17/10 A3023 RMK AO2=
KOWX 231915Z AUTO 17011G17KT 10SM SCT060 25/06 A3010 RMK AO1=
KPEA 231915Z AUTO 15017G23KT 10SM CLR 26/14 A2957 RMK AO2
     T02590141=
KPPQ 231915Z AUTO 15014G22KT 10SM CLR 24/15 A2977 RMK AO2 LTG DSNT
     SW T02440152=
KTIF 231915Z AUTO 22018G25KT 10SM CLR 27/01 A2918 RMK AO2
     T02650014=
K04V 231915Z AUTO 21024G37KT 10SM SCT080 11/M08 A2957 RMK AO2=
K5C1 231915Z AUTO 16013G18KT 10SM SCT039 26/15 A2985 RMK AO1=
K6P9 231915Z AUTO 17023G28KT 10SM CLR 29/14 A2975 RMK AO2
     T02850144=
KAFO 231915Z AUTO 33013G19KT 10SM SCT032 BKN039 OVC055 00/M07
     A2973 RMK AO2=
KAXX 231915Z AUTO 26026G37KT 10SM -RA BKN046 OVC050 08/00 A2968
     RMK AO2 T00811003=
KCPW 231915Z AUTO 25029KT 1/4SM -SN OVC001 M06/M06 A2967 RMK
     AO2=
KCZT 231915Z AUTO 12011G16KT 10SM CLR 29/17 A2977 RMK AO2=
KDUX 231915Z AUTO 20026G36KT 10SM CLR 26/06 A2956 RMK AO2
     T02630060=
KE38 231915Z AUTO 22010G14KT 10SM CLR 27/07 A2991 RMK AO2
     T02700067=
KHCR 231915Z AUTO 35011KT 10SM SCT048 BKN055 BKN070 05/M06 A2973
     RMK AO2=
KLUV 231915Z AUTO 21018G24KT 10SM CLR 30/09 A2971 RMK AO2=
KNOW 231915Z AUTO 04004KT 10SM CLR 10/08 A3014 RMK AO2
     T01010075=
KORG 231915Z AUTO 15012G17KT 10SM BKN048 OVC055 29/18 A2999 RMK
     AO2 T02910184=
KRBO 231915Z AUTO 10SM SCT001 SCT033 BKN047 30/21 A2983 RMK AO2
     T02980205=
KSBS 231915Z AUTO 22012G16KT 2 1/2SM OVC005 00/00 A2954 RMK AO1
     T10011001=
KT20 231915Z AUTO 17012G19KT 10SM BKN046 BKN060 30/19 A2983 RMK
     AO2 T03000185=
KTMK 231915Z AUTO 00000KT 10SM SCT024 BKN032 BKN050 13/07 A3020
     RMK AO2=
KXBP 231915Z AUTO 17015G26KT 10SM CLR 30/14 A2974 RMK AO2
     T02970139=
K2G9 231915Z AUTO 11007KT 10SM CLR 16/03 A3025 RMK AO2=
K2W6 231919Z AUTO 01006KT 10SM BKN021 OVC028 15/11 A3018 RMK
     AO1=
KCGE 231915Z AUTO 33007KT 3SM BR OVC016 15/15 A3016 RMK A01=
KFME 231919Z AUTO 02004KT 10SM OVC046 17/08 A3022 RMK AO1=
KFXY 231915Z AUTO 15024G31KT 10SM CLR 23/13 A2951 RMK AO2=
KI75 231915Z AUTO 16015G23KT 10SM SCT110 27/14 A2953 RMK AO2
     T02700142=
KIJX 231915Z AUTO 15017G24KT 10SM CLR 23/14 A2978 RMK AO2 LTG DSNT
     SW T02300141=
