SAUS70 KWBC 232124 RRA
METAR
KCIN 232115Z AUTO 16026G35KT 10SM CLR 27/14 A2940 RMK AO2=
KDCY 232115Z AUTO 18018KT 10SM CLR 25/09 A2999 RMK AO2
     T02460091=
KDMW 232115Z AUTO 10SM OVC046 16/10 A3022 RMK AO2=
KEBS 232115Z AUTO 15025KT 10SM FEW120 26/15 A2944 RMK AO2=
KFME 232119Z AUTO 03003KT 10SM OVC029 16/09 A3022 RMK AO1=
KFXY 232115Z AUTO 14022G28KT 10SM SCT047 25/13 A2950 RMK AO2=
KI75 232115Z AUTO 16016G25KT 10SM CLR 28/14 A2954 RMK AO2
     T02800143=
KIIB 232115Z AUTO 16019G25KT 10SM CLR 23/14 A2964 RMK AO2
     T02260140=
KIJX 232115Z AUTO 15016G22KT 10SM CLR 23/15 A2977 RMK AO2
     T02300145=
KMLE 232115Z AUTO 17018G30KT 10SM SCT110 29/13 A2934 RMK AO2
     T02910129=
KMQB 232115Z AUTO 16019G26KT 10SM CLR 24/13 A2974 RMK AO2
     T02400127=
KPPQ 232115Z AUTO 15018G23KT 10SM CLR 25/16 A2975 RMK AO2
     T02500155=
KSHL 232115Z AUTO 16021G34KT 10SM CLR 27/12 A2930 RMK AO2=
KTAZ 232115Z AUTO 17018G25KT 10SM CLR 25/14 A2983 RMK AO2
     T02450141=
KTIF 232115Z AUTO 29020G29KT 10SM CLR 21/01 A2924 RMK AO2
     T02090005=
KUMP 232115Z AUTO 18014G20KT 10SM CLR 25/11 A3001 RMK AO2
     T02520110=
KUNI 232115Z AUTO 14004KT 10SM CLR 24/05 A3012 RMK AO2
     T02420052=
KVES 232115Z AUTO 16010G17KT 10SM CLR 23/05 A3006 RMK AO2=
KBYL 232115Z AUTO 12006KT 10SM CLR 23/02 A3011 RMK AO1=
KDLL 232135Z AUTO 15014G24KT 10SM SCT046 22/12 A2972 RMK AO2
     T02160122=
KGAF 232135Z AUTO 04014G20KT 8SM CLR 21/09 A2941 RMK AO2=
KGPH 232135Z AUTO 18014G23KT 170V230 10SM CLR 28/12 A2957 RMK
     AO2=
KUKF 232115Z AUTO 12004KT 10SM CLR 21/04 A3021 RMK AO2=
KUYF 232115Z AUTO 18008G14KT 10SM CLR 23/03 A3010 RMK AO2=
