SACA31 KWBC 231700
METAR
MBJT NIL=
MBPV NIL=
MBSC NIL=
MKJP 231700Z 24005KT 9999 FEW022 32/23 Q1013=
MKJS NIL=
MUCM 231650Z 08005KT 040V120 9000 BKN018TCU 27/23 Q1015=
MUCU 231650Z VRB03KT 9000 SCT020 SCT070 30/22 Q1014=
MUHA 231650Z 07009KT 9000 SCT030 30/21 Q1017=
MUVR 231650Z 06013KT 9000 FEW020 28/21 Q1017=
MWCB 231700Z 04008KT 9999 -RA SCT016CB 26/23 Q1015=
MWCR 231700Z 05011KT 9999 FEW018 31/23 Q1014=
MYAM NIL=
MYEG NIL=
MYEH NIL=
MYGF 231700Z 02009KT 9999 FEW030 27/19 A3007=
MYNN 231700Z 05011KT 010V080 9999 FEW022 29/20 A3005=
