SAUS80 KWBC 231910
METAR
KROS 231903Z AUTO 13013G21KT 10SM SCT045 26/14 A2956 RMK AO2=
KGNT 231915Z AUTO 32009KT 10SM -RA SCT022 BKN048 OVC055 09/05
     A2981 RMK AO2 T00880052=
