SASA31 KWBC 231900 RRE
METAR
SYCJ 231900Z 05008KT 9999 FEW022CB SCT023 32/26 Q1008 NOSIG RMK CB
     SW-NNW=
