SAPA31 KWBC 232100 RRD
METAR
PKWA 232140Z AUTO 17013KT 5SM RA SCT007 SCT075 OVC090 24/23 A2992
     RMK AO2 P0006 T02440232=
