SAUS70 KWBC 231718 RRH
METAR
KGDJ 231715Z AUTO 18017G27KT 10SM CLR 27/16 A2984 RMK AO2
     T02660158=
KGGI 231715Z AUTO 15022G27KT 10SM CLR 24/14 A2964 RMK AO2
     T02430144=
KGHB 231720Z AUTO VRB04KT 8SM FEW041 BKN048 OVC055 26/17 A3005 RMK
     A01=
KGKT 231715Z AUTO 00000KT 10SM CLR 22/06 A3021 RMK A01=
KGLX 231715Z AUTO 05009KT 10SM FEW045 25/13 A3013 RMK A01=
KGOO 231715Z AUTO VRB05KT 10SM CLR 10/M06 A2996 RMK A01=
KGRN 231715Z AUTO 32013KT 10SM CLR 10/01 A2924 RMK AO2
     T01040007=
KGRY 231715Z AUTO 11012KT 10SM FEW041 24/15 A3009 RMK A01=
KGYB 231715Z AUTO 17012G22KT 10SM SCT031 SCT037 BKN050 27/18 A2993
     RMK AO2 T02690182=
KGZS 231715Z AUTO 22007G16KT 10SM CLR 23/08 A3016 RMK A01=
KH71 231715Z AUTO 19022KT 10SM CLR 27/16 A2975 RMK AO2=
KHCD 231715Z AUTO 13019G23KT 10SM CLR 22/12 A2953 RMK AO2
     T02220120=
KHFJ 231715Z AUTO 19023G30KT 10SM CLR 26/13 A2979 RMK AO2=
KHHF 231715Z AUTO 21018G23KT 10SM CLR 27/12 A2961 RMK AO2
     T02720117=
KHHV 231715Z AUTO 16011G20KT 10SM CLR 26/17 A2996 RMK A01=
KHLB 231715Z AUTO 16011G16KT 10SM CLR 23/10 A3012 RMK A01=
KHLX 231715Z AUTO 36004KT 10SM CLR 17/M07 A3024 RMK AO2
     T01741066=
KHOE 231715Z AUTO 00000KT 10SM CLR 25/12 A3016 RMK AO2
     T02470127=
KHQG 231715Z AUTO 23034G43KT 7SM OVC001 28/04 A2949 RMK AO2
     T02800036=
KHRX 231715Z AUTO 22014KT 10SM CLR 23/11 A2970 RMK AO2
     T02300110=
KHSB 231715Z AUTO 20018G26KT 10SM SCT043 25/17 A3001 RMK AO2
     T02540169=
KHSD 231715Z AUTO 18025G34KT 10SM 24/16 A2967 RMK A01=
KHYW 231715Z AUTO 36009G14KT 10SM CLR 21/06 A3015 RMK AO2=
KHYX 231715Z AUTO 18014G19KT 10SM CLR 23/11 A3009 RMK AO2
     T02320109=
KHZD 231715Z AUTO 20010G17KT 10SM CLR 24/12 A3008 RMK A01=
KHZX 231715Z AUTO 12011G14KT 10SM BKN075 20/11 A2963 RMK AO2=
KI35 231715Z AUTO 33003KT 10SM CLR 21/05 A3022 RMK AO2
     T02090048=
KI67 231715Z AUTO 18010G15KT 10SM CLR 23/10 A3013 RMK AO1=
KI68 231715Z AUTO 17012G17KT 10SM CLR 24/11 A3015 RMK AO1
     T02350106=
KIER 231715Z AUTO 17012G18KT 10SM SCT044 SCT050 28/17 A3001 RMK
     AO2 T02840165=
KIFA 231715Z AUTO 14021G27KT 10SM CLR 23/14 A2959 RMK AO2
     T02340141=
KIGQ 231715Z AUTO 17019G25KT 10SM CLR 24/13 A2994 RMK AO2
     T02360133=
KIMS 231715Z AUTO 20011G16KT 10SM CLR 23/10 A3015 RMK AO2=
KAGI 231715Z AUTO 15017KT 10SM CLR 28/17 A3003 RMK AO2
     T02770168=
KALX 231715Z AUTO 18004KT 10SM CLR 21/04 A3021 RMK AO2
     T02140039=
KANW 231715Z AUTO 20015G20KT 10SM CLR 22/00 A2919 RMK AO2
     T02240002=
KARM 231715Z AUTO 15015G22KT 10SM SCT045 BKN050 OVC060 28/16 A2996
     RMK AO2 T02840163 TSNO=
KASN 231715Z AUTO 17005KT 10SM CLR 23/05 A3021 RMK AO2
     T02280053=
KATA 231715Z AUTO 19010G16KT 140V220 10SM BKN039 27/18 A2994 RMK
     AO2 SLP037 T02650180 $=
KATP 231715Z AUTO 11014KT 10SM FEW036 SCT044 SCT055 25/17 A3009
     RMK A01=
KAUM 231717Z AUTO 16015G22KT 10SM CLR 22/13 A2960 RMK AO2=
KAVK 231715Z AUTO 20030KT 7SM CLR 28/12 A2955 RMK AO2 PWINO=
KAVQ 231715Z AUTO 22009G16KT 10SM CLR 23/08 A2981 RMK AO2
     T02270081=
KAXH 231715Z AUTO 21007KT 180V240 10SM SCT060 30/14 A2998 RMK AO2
     T03020142=
KAXS 231715Z AUTO 19021G25KT 10SM CLR 29/11 A2968 RMK AO2
     T02890110=
KAZC 231715Z AUTO 28017G23KT 10SM CLR 07/00 A2985 RMK AO2=
KBAM 231715Z AUTO 35004KT 10SM SCT033 BKN070 OVC110 03/00 A3000
     RMK AO1=
KBAX 231715Z AUTO 17012G18KT 10SM CLR 22/11 A3012 RMK AO2
     T02200114=
KBCK 231715Z AUTO 15008G15KT 120V180 10SM CLR 23/12 A2972 RMK AO2
     T02300123=
KBDU 231715Z AUTO 23011G14KT 10SM SCT095 SCT120 16/00 A2932 RMK
     AO2=
