SAUS70 KWBC 231700 RRW
METAR
K6A2 231655Z AUTO 00000KT 10SM CLR 20/05 A3023 RMK AO2=
K7W4 231655Z AUTO 36005KT 10SM BKN020 OVC027 16/10 A3022 RMK AO1
     T01600100=
K82V 231655Z AUTO 34018G25KT 10SM SCT120 14/00 A2931 RMK AO2=
K8A3 231655Z AUTO 19004G12KT 10SM CLR 21/05 A3019 RMK A01=
KAAS 231655Z AUTO 20012KT 10SM CLR 22/06 A3022 RMK AO1=
KACP 231655Z AUTO 18007KT 130V210 10SM SCT065 28/15 A3004 RMK
     AO2=
KAEJ 231655Z AUTO 31004KT 7SM -RA 05/02 A2954 RMK AO2
     T00450018=
KHZD 231655Z AUTO 18012G17KT 160V220 10SM CLR 24/12 A3009 RMK
     A01=
KHZX 231655Z AUTO 15009G14KT 101V161 10SM SCT060 BKN075 20/11
     A2964 RMK AO2=
KI35 231655Z AUTO 00000KT 10SM CLR 20/03 A3023 RMK AO2
     T01960033=
KI67 231655Z AUTO 18009KT 10SM CLR 23/10 A3014 RMK AO1=
KI68 231655Z AUTO 19012G16KT 10SM CLR 23/11 A3016 RMK AO1
     T02320106=
KIER 231655Z AUTO 17017KT 10SM SCT042 29/17 A3001 RMK AO2
     T02850166=
KIFA 231655Z AUTO 16021G25KT 10SM CLR 23/14 A2960 RMK AO2
     T02300140=
KIGQ 231655Z AUTO 17016G23KT 10SM SCT060 23/13 A2994 RMK AO2
     T02300130=
KIMS 231655Z AUTO 20011G15KT 10SM CLR 23/10 A3015 RMK AO2=
KINJ 231655Z AUTO 19023G29KT 10SM BKN036 26/17 A2988 RMK AO2
     T02560173=
KIOB 231655Z AUTO 24007KT 10SM CLR 22/08 A3021 RMK AO2 PWINO=
KJAU 231655Z AUTO 22004KT 10SM CLR 19/08 A3027 RMK A01=
KJPX 231655Z AUTO 04007KT 010V070 10SM -RA SCT044 BKN060 OVC070
     15/13 A3028 RMK AO2 T01450134=
KJTC 231650Z AUTO 23025G34KT 10SM CLR 14/M00 A2982 RMK AO2=
KJWG 231655Z AUTO 18020G27KT 10SM CLR 24/13 A2968 RMK AO2
     T02380134=
KJWY 231655Z AUTO 18021G33KT 10SM BKN030 BKN035 26/17 A2988 RMK
     AO2 T02570174=
KJYL 231655Z AUTO 07004KT 10SM CLR 24/12 A3019 RMK AO2
     T02420117=
KK70 231655Z AUTO 35007G12KT 330V030 10SM FEW033 28/22 A3005 RMK
     AO2=
KKLS 231656Z AUTO 15005KT 10SM FEW020 SCT050 10/08 A3013 RMK AO2
     SLP208 T01000078=
KLCG 231655Z AUTO 17024G30KT 10SM CLR 24/12 A2934 RMK AO2
     T02380123=
KLGD 231656Z AUTO 30009KT 10SM FEW025 BKN044 OVC050 05/02 A3004
     RMK AO2 RAB21E44 SLP187 P0000 T00500017=
KLNA 231655Z AUTO 03006KT 10SM CLR 30/19 A3008 RMK AO2 LTG DSNT S
     T02980188 PNO=
KLNC 231655Z AUTO 18018G28KT 10SM SCT037 26/17 A2988 RMK AO2
     T02610165=
KLNP 231655Z AUTO 36005KT 10SM CLR 18/03 A3027 RMK AO2=
KLNQ 231655Z AUTO 11008KT 10SM SCT041 BKN050 28/14 A3014 RMK AO2
     T02780141=
KLUG 231655Z AUTO 19013G18KT 10SM CLR 22/08 A3017 RMK A01=
KLUX 231655Z AUTO 07004KT 10SM CLR 21/08 A3022 RMK AO2=
KLVN 231655Z AUTO 14013G19KT 10SM CLR 22/11 A2960 RMK AO2=
KLXY 231655Z AUTO 18022G34KT 10SM BKN041 27/16 A2990 RMK AO2
     T02670157=
KLYO 231655Z AUTO 17020G32KT 5SM HZ CLR 26/12 A2950 RMK AO2
     T02650122=
KM02 231655Z AUTO 20013G20KT 170V240 10SM 23/07 A3012 RMK A01=
KM04 231655Z AUTO 20018KT 10SM CLR 25/15 A3006 RMK A01=
KM08 231655Z AUTO VRB06G15KT 110V190 10SM CLR 24/13 A3009 RMK
     A01=
KFKN 231655Z AUTO 33007KT 10SM OVC007 14/13 A3016 RMK AO2
     T01430125=
KFLY 231655Z AUTO 22029G38KT CLR 16/M03 A2946 RMK AO2 T01621034
     PWINO=
KFOT 231650Z AUTO 30005KT 7SM CLR 10/10 A3014 RMK AO1=
KFTN 231655Z AUTO 14010G15KT 10SM CLR 26/19 A2986 RMK A01=
KFYE 231655Z AUTO 17011G18KT 120V190 10SM FEW040 25/14 A3007 RMK
     A01=
KFYM 231700Z AUTO 14011KT 10SM CLR 22/05 A3020 RMK A01=
KGAO 231655Z AUTO 11011G16KT 10SM CLR 26/15 A3012 RMK AO2
     T02620151=
KGCY 231655Z AUTO 21003KT 10SM CLR 19/04 A3023 RMK A01=
KGDJ 231655Z AUTO 17019G28KT 10SM CLR 27/16 A2984 RMK AO2
     T02660158=
KGGI 231655Z AUTO 15018G23KT 10SM CLR 25/15 A2965 RMK AO2
     T02450145=
