SAUS70 KWBC 232100 RRX
METAR
KMER 232053Z 30015G22KT 10SM CLR 22/M01 A2992=
KOCW 232055Z AUTO 00000KT 10SM -RA OVC015 17/14 A3010 RMK AO2
     T01720137=
