SAUS70 KWBC 232044 RRA
METAR
KPEZ 232030Z AUTO 16016G22KT 10SM SCT049 31/17 A2979 RMK AO2
     T03140173=
KPVW 232030Z AUTO 22021G28KT 10SM SCT080 28/09 A2964 RMK AO2
     T02780088=
KRBW 232035Z AUTO 36006KT 10SM CLR 23/10 A3014 RMK AO2=
KRGA 232038Z AUTO 16009KT 10SM CLR 25/04 A3012 RMK AO2=
KSLR 232030Z AUTO 16017G27KT 10SM SCT050 29/14 A2982 RMK AO2
     T02920140=
KTXW 232030Z AUTO 14020G29KT 1/4SM HZ VV002 31/18 A2978 RMK AO2
     T03100179=
K04V 232035Z AUTO 30020G28KT 10SM SCT070 SCT080 BKN095 07/M03
     A2959 RMK AO2=
K5C1 232035Z AUTO 18010G18KT 10SM BKN042 26/15 A2982 RMK AO1=
K6P9 232035Z AUTO 16020G27KT 10SM CLR 29/14 A2973 RMK AO2
     T02910138=
KAFO 232035Z AUTO 34008G15KT 10SM SCT032 BKN037 OVC045 00/M07
     A2975 RMK AO2=
KAQO 232035Z AUTO 15011G19KT 130V190 10SM CLR 29/14 A2977 RMK
     AO2=
KAUN 232035Z AUTO 24015KT 220V280 9SM CLR 19/M05 A2993 RMK A01=
KBMT 232035Z AUTO 16005KT 10SM -RA SCT027 BKN034 OVC045 24/20
     A2994 RMK AO2 T02350203=
KCPW 232035Z AUTO 3/4SM -SN OVC001 M08/M08 A2966 RMK AO2=
KCZT 232035Z AUTO 15009G17KT 10SM CLR 30/17 A2974 RMK AO2=
KDUX 232035Z AUTO 19028G35KT 10SM CLR 27/08 A2954 RMK AO2
     T02660081=
KE38 232035Z AUTO 20011G22KT 10SM CLR 28/05 A2987 RMK AO2
     T02760052=
KETN 232035Z AUTO 18020G26KT 10SM CLR 29/14 A2972 RMK AO2
     T02890140=
KFMM 232035Z AUTO 02018KT 10SM FEW095 SCT120 18/M01 A2930 RMK
     AO2=
KFWZ 232035Z AUTO 36004KT 2 1/2SM -SN BKN014 BKN019 OVC024 M01/M04
     A2960 RMK AO2=
KGNC 232035Z AUTO 23017G24KT 10SM CLR 30/09 A2972 RMK AO2
     T02970086=
KHEQ 232035Z AUTO 35021G30KT 10SM CLR 23/01 A2928 RMK AO2=
KHVE 232035Z AUTO 31018G25KT 10SM SCT100 09/M02 A2971 RMK AO2=
KOZA 232035Z AUTO 20018G27KT 10SM CLR 25/13 A2981 RMK AO2=
KPEQ 232035Z AUTO 23018G25KT 10SM CLR 33/07 A2965 RMK AO2
     T03260068=
KT20 232035Z AUTO 16017G25KT 10SM SCT050 BKN060 30/18 A2981 RMK
     AO2 T03020180=
KOAR 232035Z AUTO 28010KT 10SM CLR M03/M20 A2998 RMK AO2=
KOSC 232035Z AUTO 14007KT 10SM CLR 22/12 A3006 RMK AO2
     T02170116=
K11R 232035Z AUTO 15011G16KT 10SM SCT055 OVC070 30/17 A2985 RMK
     AO2 T02980166=
K20V 232035Z AUTO 24017G23KT 10SM SCT038 SCT050 BKN100 05/M02
     A2955 RMK AO2=
KANK 232030Z AUTO 25016G23KT 230V290 10SM SCT045 SCT060 SCT070
     07/M05 A2966 RMK AO1 T00721047=
KAXX 232035Z AUTO 27011G17KT 240V300 5SM -RA BKN020 OVC027 03/01
     A2972 RMK AO2 T00340011=
KBMC 232030Z AUTO 10SM SCT042 BKN075 06/M04 A2985 RMK AO1
     T00591038=
KDUB 232034Z AUTO 28019G27KT 10SM SCT041 BKN049 OVC055 01/M09
     A2961 RMK AO2=
KEAN 232030Z AUTO 34020G28KT 10SM BKN050 08/00 A2944 RMK AO2
     T00841002=
KGNB 232035Z AUTO 27007G16KT 240V310 10SM SCT038 BKN050 OVC065
     04/M03 A2954 RMK AO2 T00431028=
KHBV 232030Z AUTO 15013G23KT 10SM CLR 32/17 A2977 RMK AO2
     T03170171=
KHSG 232030Z AUTO 02008KT 10SM BKN015 OVC023 03/01 A2964 RMK AO2
     T00250007=
KMMH 232036Z AUTO 36011G18KT 10SM CLR 07/M10 A2997 RMK AO2=
KOSA 232030Z AUTO 16016G21KT 10SM OVC050 28/15 A2984 RMK AO2
     T02820155=
KPVW 232030Z AUTO 22021G28KT 10SM SCT080 28/09 A2964 RMK AO2
     T02780088=
KSLR 232030Z AUTO 16017G27KT 10SM SCT050 29/14 A2982 RMK AO2
     T02920140=
KTMK 232035Z AUTO 27003KT 10SM SCT024 SCT032 SCT045 13/06 A3021
     RMK AO2=
KTXW 232030Z AUTO 14020G29KT 1/4SM HZ VV002 31/18 A2978 RMK AO2
     T03100179=
KBYL 232035Z AUTO 11005KT 10SM CLR 23/02 A3012 RMK AO1=
KEVM 232041Z AUTO 13009G15KT 10SM CLR 21/12 A2962 RMK AO2=
KRNP 232042Z AUTO 16011G17KT 10SM SCT060 24/08 A3004 RMK AO2=
KUKF 232035Z AUTO 12005KT 10SM CLR 21/04 A3021 RMK AO2=
