SAUS70 KWBC 232100 RRV
METAR
PFCL 232056Z AUTO 19005KT 10SM CLR A3011 RMK AO2 SLPNO 51003
     FZRANO TSNO $=
PFKW 232056Z AUTO 14011KT 10SM FEW032 OVC055 00/M01 A2996 RMK AO2
     SLP146 T00001006 58020 FZRANO=
PFYU 232056Z 00000KT 8SM -SN OVC038 M07/M08 A3005 RMK AO2 SNB49
     SLP191 P0000 60000 T10671078 51004=
PPIZ 232056Z AUTO 11011KT 10SM SCT035 BKN055 M03/M06 A2976 RMK AO2
     SLP080 60000 T10331056 55001 FZRANO=
K05U 232050Z AUTO 33014G19KT 10SM 02/M03 A3000 RMK A01=
K0A0 232055Z AUTO 25020G29KT 10SM CLR 21/03 A2974 RMK AO2=
K0A9 232055Z AUTO VRB05KT 6SM HZ CLR 23/04 A3014 RMK A01=
K0F2 232055Z AUTO 16019G27KT 10SM CLR 29/15 A2970 RMK AO2 60001
     T02920149=
K0R0 232055Z AUTO 16008KT 10SM CLR 28/09 A3007 RMK AO2=
K1A9 232055Z AUTO 00000KT 10SM CLR 25/05 A3010 RMK AO2
     T02460047=
K1K1 232055Z AUTO 18024G35KT 10SM CLR 28/12 A2952 RMK AO2
     T02750121=
K1M5 232055Z AUTO 19006G13KT 10SM CLR 23/08 A3006 RMK A01=
K1V6 232055Z AUTO 25024G31KT 10SM SCT110 20/M08 A2941 RMK AO2=
K2A0 232055Z AUTO 25004KT 10SM CLR 24/04 A3011 RMK A01=
K2G2 232055Z AUTO 12007KT 10SM CLR 23/02 A3015 RMK A01=
K2M2 232055Z AUTO 17009KT 10SM CLR 24/05 A3007 RMK A01=
K33N 232055Z AUTO 36011KT 3SM BR BKN007 OVC011 14/14 A3017 RMK
     A01=
K36K 232050Z AUTO 21031G40KT 10SM CLR 29/03 A2938 RMK AO2=
K3J7 232055Z AUTO 00000KT 10SM CLR 23/05 A3014 RMK AO2=
K3LF 232055Z AUTO 16019G26KT 10SM CLR 25/14 A2984 RMK AO2
     T02460140=
K3S8 232055Z AUTO 00000KT 10SM FEW043 12/03 A3022 RMK AO2=
K46U 232055Z AUTO 33013G18KT 10SM BKN035 BKN041 OVC048 02/M04
     A2977 RMK A01=
K4V0 232055Z AUTO 00000KT 10SM SCT008 BKN070 OVC110 02/00 A2970
     RMK AO2 T00200003=
K54A 232055Z AUTO 05005KT 10SM CLR 29/17 A3002 RMK AO2=
K5T9 232055Z AUTO 13007G12KT 10SM CLR 28/19 A2974 RMK A01=
K65S 232055Z AUTO 00000KT 10SM FEW022 BKN050 OVC055 09/03 A3001
     RMK AO2=
K6A2 232055Z AUTO 04004KT 10SM CLR 22/02 A3015 RMK AO2=
K82V 232055Z AUTO 34021G28KT 10SM SCT043 BKN065 OVC075 10/00 A2940
     RMK AO2=
K8A3 232055Z AUTO VRB06KT 10SM CLR 23/04 A3010 RMK A01=
KAAS 232055Z AUTO 18008KT 10SM CLR 22/06 A3013 RMK AO1=
KACP 232055Z AUTO 15009KT 130V190 10SM SCT046 BKN060 BKN070 29/16
     A2998 RMK AO2=
KAEJ 232055Z AUTO 26017G27KT 5SM HZ 03/M03 A2959 RMK AO2
     T00251028=
KAGI 232055Z AUTO 13020KT 10SM CLR 28/16 A2996 RMK AO2
     T02840165=
KALX 232055Z AUTO 00000KT 10SM CLR 24/05 A3012 RMK AO2
     T02370052=
KANW 232055Z AUTO 29022G32KT 10SM CLR 25/M04 A2919 RMK AO2
     T02451036=
KARM 232055Z AUTO 15013G22KT 10SM BKN048 BKN055 28/16 A2988 RMK
     AO2 T02830156 TSNO=
KASN 232055Z AUTO 00000KT 10SM CLR 25/04 A3011 RMK AO2
     T02510038=
KAVK 232055Z AUTO 19031G39KT 9SM CLR 27/13 A2950 RMK AO2 PWINO=
KAVQ 232055Z AUTO 33009G14KT 10SM SCT070 22/08 A2977 RMK AO2
     T02210078=
KAXH 232055Z AUTO 16011G18KT 10SM SCT055 30/15 A2989 RMK AO2
     T02950153=
KAXS 232055Z AUTO 19021G24KT 10SM CLR 31/11 A2961 RMK AO2
     T03060111=
KAZC 232055Z AUTO 31009KT 10SM SCT050 SCT070 OVC110 07/M01 A2989
     RMK AO2=
KBAM 232055Z AUTO 33013G21KT 310V010 10SM SCT038 SCT045 BKN055
     06/M02 A3003 RMK AO1=
KBDU 232055Z AUTO 24013G21KT 10SM CLR 17/M05 A2934 RMK AO2=
KBGF 232055Z AUTO 22009KT 10SM CLR 23/05 A3009 RMK A01=
KBKD 232055Z AUTO 18020G24KT 7SM CLR 31/14 A2970 RMK AO2
     T03130139=
KBNW 232055Z AUTO 14022KT 10SM CLR 26/14 A2948 RMK AO2=
KBPC 232055Z AUTO 22020G29KT 10SM CLR 26/08 A2953 RMK AO2 PNO=
KBTA 232055Z AUTO 17020G37KT 10SM CLR 30/13 A2933 RMK AO2
     T02970126=
KBTN 232055Z AUTO 13022G31KT 9SM CLR 22/12 A2921 RMK AO2=
