SAUS80 KWBC 232040
METAR
K40U 232035Z AUTO 29013G22KT 10SM SCT021 SCT034 SCT060 03/M03
     A2971 RMK AO2 T00261034=
KCTY 232035Z AUTO 06005KT 10SM CLR 28/10 A3008 RMK AO2
     T02750102=
KJNX 232035Z AUTO 35004KT 10SM CLR 22/12 A3012 RMK AO2=
KSYN 232035Z AUTO 15016G26KT 10SM CLR 25/12 A2950 RMK AO2
     T02520121=
K9MN 232035Z AUTO 12017G28KT 10SM CLR 24/12 A2956 RMK AO1
     T02350117=
KRLD 232035Z AUTO 20006KT 10SM CLR 16/00 A3010 RMK AO2
     T01551002=
KCIR 232035Z AUTO 23013G23KT 10SM SCT050 SCT100 27/14 A2995 RMK
     AO2 T02700138=
KTKC 232035Z AUTO 15025G33KT 10SM 26/10 A2934 RMK AO2
     T02560101=
KEDU 232040Z AUTO 34014G24KT 10SM CLR 19/M02 A2997 RMK AO1=
KS39 232035Z AUTO 34003G11KT 10SM SCT042 08/M02 A3011 RMK AO2=
KSEP 232035Z AUTO 16017G24KT 10SM CLR 30/14 A2977 RMK AO2
     T02970135=
KVTI 232035Z AUTO 14020G29KT 10SM CLR 26/13 A2961 RMK AO2
     T02580127=
KGNG 232035Z AUTO 27023G32KT 10SM CLR 09/M01 A2989 RMK AO2=
KMKN 232035Z AUTO 18014G29KT 10SM CLR 30/14 A2975 RMK AO2
     T03040143=
K48A 232035Z AUTO 09005KT 10SM CLR 25/09 A3013 RMK AO2
     T02470093=
K4BM 232035Z AUTO 16014G22KT 10SM BKN010 BKN022 OVC036 00/M02
     A2961 RMK AO2 LTG DSNT S=
KCKP 232035Z AUTO 17018G28KT 10SM SCT120 28/12 A2935 RMK AO2
     T02750117=
KDBN 232035Z AUTO 00000KT 10SM CLR 26/07 A3015 RMK AO2=
KEHA 232035Z AUTO 21031G48KT 7SM CLR 28/04 A2945 RMK AO2
     T02810040=
