SAUS70 KWBC 231800
METAR
KFMH 231745Z 05010KT 6SM -RA BR SCT010 14/14 A3031=
TJBQ 231750Z 06010KT 10SM CLR 30/24 A2991=
K1A5 231755Z AUTO 00000KT 10SM CLR 22/M01 A3023 RMK AO2 T02171010
     10217 21014=
KEFT 231755Z AUTO 15019G25KT 10SM CLR 22/12 A2980 RMK AO2
     T02170118 10217 20135=
KHNZ 231755Z AUTO 35006KT 10SM CLR 18/07 A3018 RMK AO2 T01840073
     10184 20065=
KJXI 231755Z AUTO 17012G19KT 10SM SCT036 SCT049 26/15 A2992 RMK
     AO2 T02640152 10267 20186=
KPDC 231755Z AUTO 13010G17KT 10SM CLR 24/12 A2970 RMK AO2
     T02360119 10236 20147=
KRHV 231747Z 30011KT 10SM SKC 16/04 A3002=
KW31 231755Z AUTO 32006KT 10SM OVC024 17/09 A3018 RMK AO1
     T01680092 10172 20089=
KW96 231755Z AUTO 33004KT 2 1/2SM OVC005 14/13 A3018 RMK AO1
     T01350130 10136 20091=
KEMT 231745Z 00000KT 10SM SCT030 19/10 A2987=
KGYH 231747Z 00000KT 10SM CLR 22/04 A3020=
KSQL 231747Z 30005KT 10SM CLR 16/03 A3003=
TJIG 231745Z 08009KT 10SM SCT040 BKN070 30/24 A2990=
KAEG 231747Z 23019G25KT 10SM SCT070 BKN085 17/00 A2973=
KBNL 231755Z AUTO 00000G10KT 10SM CLR 23/10 A3016 RMK AO2=
KEFD 231754Z 13022G27KT 10SM BKN055 30/14 A2996=
KETB 231755Z AUTO 11010KT 10SM CLR 20/13 A2987 RMK AO2=
KHSA 231750Z 11012KT 10SM CLR 26/14 A3011=
KHUM 231747Z 14071G21KT 7SM CLR 27/17 A3009=
KLHZ 231755Z AUTO 02006KT 10SM CLR 18/10 A3018 RMK AO2=
KNQA 231750Z 17010G22KT 10SM SCT040 26/15 A3003=
KRRL 231755Z AUTO 14013G19KT 10SM CLR 21/13 A2978 RMK AO2
     T02100126 10210 20107 TSNO=
KUNU 231755Z AUTO 15014KT 10SM CLR 22/13 A2984 RMK AO2 T02150126
     10215 20128=
KUNV 231753Z 23003KT 10SM CLR 17/07 A3028=
