SAUS70 KWBC 231612
METAR
KDYA 231615Z AUTO 00000KT 10SM CLR 22/09 A3019 RMK AO2
     T02230089=
KFRH 231615Z AUTO 19007KT 141V241 10SM CLR 21/09 A3010 RMK AO1=
KGWW 231615Z AUTO 36013G16KT 10SM CLR 19/12 A3016 RMK AO2
     T01930120=
KIPJ 231615Z AUTO 00000KT 10SM CLR 20/08 A3024 RMK AO2
     T01960080=
KJYO 231615Z AUTO 02006KT 10SM OVC025 15/10 A3028 RMK AO2=
KLQK 231615Z AUTO 10SM CLR 21/03 A3023 RMK AO2 T02100030=
KMRN 231615Z AUTO 00000KT 10SM CLR 18/07 A3029 RMK AO2
     T01840069=
KMYJ 231615Z AUTO 17015G23KT 10SM CLR 23/15 A2977 RMK AO2=
KOIC 231615Z AUTO 00000KT 10SM CLR 12/06 A3035 RMK AO2
     T01190058=
KPBH 231615Z AUTO 14009G14KT 10SM CLR 17/12 A2978 RMK AO2
     T01730118=
KPTB 231615Z AUTO 36009KT 10SM OVC016 15/11 A3020 RMK AO2
     T01520105=
KTGI 231615Z AUTO 35012G17KT 10SM OVC009 16/14 A3015 RMK AO1
     T01630143=
KVNW 231615Z AUTO 17008KT 10SM CLR 21/09 A3014 RMK AO2=
