SAPA31 KWBC 231800 RRD
METAR
PTRO 231750Z 26006KT 10SM -SHRA BKN014CB BKN110 OVC280 24/24 A2969
     RMK CB ALQDS AND OHD=
