SAUS70 KWBC 231642 RRA
METAR
KEMM 231635Z AUTO 29020G25KT 10SM OVC037 M01/M04 A2964 RMK AO2=
KF00 231635Z AUTO 20016G24KT 10SM OVC029 25/17 A2987 RMK AO2
     T02490174=
KJDD 231635Z AUTO 16009KT 10SM BKN028 OVC034 25/18 A2992 RMK
     AO2=
KLHB 231635Z AUTO 16015G22KT 10SM BKN028 BKN033 BKN049 27/19 A2994
     RMK AO2 T02720193=
KLHM 231635Z AUTO 34011KT 10SM CLR 12/01 A2997 RMK AO1=
KRAS 231635Z AUTO 16016G21KT 10SM SCT043 OVC050 A2994 RMK AO2=
KS33 231635Z AUTO 00000KT 10SM CLR 03/01 A3010 RMK AO2=
KSTK 231635Z AUTO 25010KT 10SM CLR 21/00 A2924 RMK AO2=
KT41 231635Z AUTO 10SM BKN046 BKN060 29/17 A2999 RMK AO2
     T02870169=
K57C 231635Z AUTO 15014G18KT 10SM CLR 21/12 A2988 RMK AO2
     T02060118=
K9D7 231635Z AUTO 06017KT 10SM OVC010 08/06 A2954 RMK AO2 TSNO=
KBVN 231635Z AUTO 17016G24KT 10SM CLR 23/09 A2931 RMK AO2
     T02250090 PWINO=
KC35 231635Z AUTO 14009G15KT 10SM CLR 20/12 A2980 RMK AO2
     T02010119 PWINO=
KCFS 231635Z AUTO 16008KT 10SM CLR 22/11 A3012 RMK AO2
     T02230106=
KCQM 231637Z AUTO 14008KT 10SM CLR 19/09 A2968 RMK AO2=
KFOA 231635Z AUTO 17021G25KT 10SM SCT037 23/14 A3000 RMK AO2=
KFSW 231635Z AUTO 16014G17KT 10SM OVC001 23/14 A2975 RMK AO2=
KGDB 231635Z AUTO 12018G24KT 10SM CLR 21/13 A2947 RMK AO2
     T02110127=
KGPC 231635Z AUTO 19020G29KT 10SM CLR 24/12 A3006 RMK AO2
     T02360117=
KGRN 231635Z AUTO 31013G19KT 10SM CLR 10/01 A2923 RMK AO2
     T00960006=
KLNN 231635Z AUTO 10SM CLR 24/04 A3019 RMK AO1 T02350037=
KMZZ 231635Z AUTO 20017G22KT 7SM CLR 23/12 A3009 RMK AO2
     T02260116=
KOLY 231635Z AUTO 17016G23KT 10SM BKN039 23/11 A3001 RMK AO2
     T02340112=
KPMV 231635Z AUTO 17025G31KT 10SM CLR 26/13 A2944 RMK AO2
     T02570129 PWINO=
KPPO 231635Z AUTO 18012G20KT 10SM CLR 23/15 A3001 RMK AO2
     T02250150=
KRPJ 231635Z AUTO 17018G24KT 10SM CLR 22/14 A2987 RMK AO2
     T02160143 TSNO=
KRSV 231635Z AUTO 19018G26KT 10SM SCT110 24/11 A3002 RMK AO2
     T02400113=
KSTE 231635Z AUTO 14008KT 10SM CLR 21/10 A2983 RMK AO2
     T02050101=
KSXK 231635Z AUTO 15027G32KT 10SM CLR 22/13 A2935 RMK AO2=
KTYQ 231635Z AUTO 19015G21KT 10SM CLR 22/12 A3008 RMK AO2
     T02230115=
KVVS 231635Z AUTO 09007KT 050V130 10SM CLR 21/04 A3025 RMK AO2
     T02060036=
KVYS 231635Z AUTO 17019G26KT 10SM CLR 23/13 A2986 RMK AO2
     T02290130=
K2R9 231635Z AUTO 16011G22KT 10SM BKN033 BKN044 28/19 A2992 RMK
     AO2 T02800190=
K33V 231635Z AUTO 21009G14KT 10SM SCT055 03/M02 A2951 RMK AO1=
K66R 231635Z AUTO 17013G21KT 10SM SCT039 BKN045 BKN060 29/18 A2995
     RMK AO2 T02880177=
KAEJ 231640Z AUTO 32003KT 5SM -RA 05/03 A2955 RMK AO2
     T00450029=
KAQO 231635Z AUTO 19014KT 10SM SCT033 26/16 A2988 RMK AO2=
KASL 231635Z AUTO 00000KT 10SM SCT036 26/16 A2994 RMK AO2
     T02620164 TSNO $=
KBQX 231635Z AUTO 16020KT 9SM 27/18 A2997 RMK A01=
KDSF 231630Z AUTO 07008KT 10SM FEW042 24/14 A3014 RMK A01=
KGLX 231635Z AUTO 05011KT 10SM CLR 26/13 A3013 RMK A01=
KHHV 231635Z AUTO 18017KT 10SM CLR 26/16 A2996 RMK A01=
KM75 231635Z AUTO 02015KT 3SM BR OVC016 02/02 A2958 RMK A01=
KPKV 231635Z AUTO 16018G24KT 10SM SCT032 BKN039 OVC060 29/20 A2994
     RMK AO2 T02910201=
KPLU 231635Z AUTO 00000KT 10SM -DZ FEW003 06/06 A3012 RMK AO2=
KPYX 231635Z AUTO 22023G29KT 10SM CLR 26/08 A2958 RMK AO2
     T02630083=
KRTS 231635Z AUTO 31007KT 10SM BKN035 02/M06 A3003 RMK AO2=
KSAA 231635Z AUTO 28015G20KT 10SM BKN013 OVC019 00/00 A2953 RMK
     AO2=
KVAF 231635Z AUTO 18020KT 10SM CLR 28/17 A2999 RMK A01=
KWBF 231630Z AUTO VRB05G12KT 10SM 27/17 A3009 RMK A01=
K0CO 231635Z AUTO 29020G36KT M1/4SM SN OVC002 M05/M05 A2962 RMK
     AO2=
