SAUS70 KWBC 232100
METAR
KC62 232055Z AUTO 17013G20KT 10SM SCT050 23/12 A3003 RMK AO2
     T02350120=
