SAUS70 KWBC 231806
METAR
K4I3 231802Z AUTO 15009G14KT 10SM CLR 23/09 A3018 RMK AO2=
KEVM 231801Z AUTO 12008KT 100V160 10SM SCT075 BKN085 20/11 A2967
     RMK AO2=
KGZN 231740Z AUTO 17019G27KT 10SM CLR 27/15 A2978 RMK AO2=
KEZS 231815Z AUTO 14010G16KT 10SM CLR 23/14 A2984 RMK AO2
     T02300143=
KW63 231815Z AUTO 01007KT 10SM CLR 18/09 A3019 RMK AO1=
