SAUS70 KWBC 231622 RRB
METAR
KAXA 231615Z AUTO 15025G31KT 10SM CLR 21/14 A2951 RMK A01=
KBBB 231617Z AUTO 16015G23KT 10SM CLR 19/12 A2947 RMK AO2=
KBJI 231615Z AUTO 13013KT 10SM CLR 17/09 A2957 RMK AO2
     T01650089=
KCAV 231615Z AUTO 16023G30KT 10SM CLR 22/14 A2956 RMK A01=
KCKC 231617Z AUTO 11007KT 10SM CLR 17/10 A2978 RMK AO2=
KFKR 231615Z AUTO 17015G21KT 10SM CLR 23/12 A3004 RMK AO2=
KFXY 231615Z AUTO 14020G27KT 10SM CLR 21/12 A2958 RMK AO2=
KGDB 231615Z AUTO 12018G26KT 10SM CLR 21/13 A2948 RMK AO2
     T02050126=
KHHG 231615Z AUTO 18012G15KT 10SM CLR A3009 RMK AO2=
KIIB 231615Z AUTO 15018G22KT 10SM CLR 22/13 A2971 RMK AO2
     T02150133=
KIJX 231615Z AUTO 15016G22KT 10SM SCT120 19/13 A2986 RMK AO2
     T01930133=
KMLE 231615Z AUTO 17019G26KT 10SM CLR 25/13 A2942 RMK AO2
     T02470130=
KMQB 231615Z AUTO 16020KT 10SM SCT110 21/11 A2983 RMK AO2
     T02130114=
KMWO 231615Z AUTO 19009KT 10SM CLR 22/09 A3017 RMK AO2
     T02220089=
KPHN 231615Z AUTO 19004KT 10SM CLR 21/09 A3017 RMK AO2=
KPPO 231615Z AUTO 17013G18KT 10SM CLR 22/15 A3001 RMK AO2
     T02150146=
KSHL 231615Z AUTO 14026G32KT 10SM CLR 20/13 A2940 RMK AO2=
KSLB 231615Z AUTO 16023KT 10SM CLR 21/13 A2946 RMK AO2=
KTIF 231615Z AUTO 19015G21KT 10SM CLR 21/01 A2921 RMK AO2
     T02060013=
KTIP 231615Z AUTO 18021G28KT 10SM CLR 23/13 A2995 RMK AO2
     T02260125=
KZER 231615Z AUTO 10007KT 10SM OVC021 15/09 A3030 RMK AO2=
K06C 231615Z AUTO 17014G21KT 10SM CLR 21/15 A2991 RMK AO2
     T02100150=
K2G9 231615Z AUTO 17005KT 10SM CLR 15/02 A3028 RMK AO2=
K2W6 231619Z AUTO 00000KT 10SM SCT015 OVC039 14/12 A3021 RMK
     AO1=
KAFK 231615Z AUTO 19021G32KT 10SM CLR 25/13 A2947 RMK AO2
     T02510129=
KAIO 231615Z AUTO 18017G26KT 9SM CLR 23/15 A2947 RMK AO2=
KAUH 231615Z AUTO 19019G25KT 10SM CLR 23/11 A2934 RMK AO2
     T02280107=
KAWG 231615Z AUTO 16020G27KT 10SM CLR 23/15 A2971 RMK AO2=
KBUU 231615Z AUTO 19009KT 160V220 10SM CLR 22/13 A2989 RMK AO2
     T02160125 PWINO=
KC65 231615Z AUTO 17011G19KT 10SM CLR 23/12 A3003 RMK A01=
KC75 231615Z AUTO 18016G22KT 10SM CLR 22/15 A2986 RMK AO2
     T02190147=
KCDD 231615Z AUTO 17005KT 10SM CLR 18/08 A2970 RMK AO2=
KCFS 231615Z AUTO 15011G15KT 10SM CLR 23/11 A3012 RMK AO2
     T02300107=
KCKN 231615Z AUTO 11006KT 10SM CLR 16/07 A2951 RMK AO2=
KDMW 231615Z AUTO 01006KT 10SM OVC037 16/10 A3027 RMK AO2 LTG DSNT
     S=
KFME 231619Z AUTO 05006KT 10SM BKN050 OVC060 17/08 A3027 RMK
     AO1=
KI75 231615Z AUTO 16017G27KT 7SM CLR 24/14 A2959 RMK AO2
     T02430139=
KICL 231615Z AUTO 19023G32KT 10SM CLR 26/13 A2952 RMK AO2=
KOWX 231615Z AUTO 20009KT 10SM CLR 23/08 A3016 RMK AO1=
KPNT 231615Z AUTO 19019G28KT 10SM CLR 22/15 A2992 RMK AO2
     T02220152=
KTAZ 231615Z AUTO 18018G24KT 10SM CLR 22/14 A2992 RMK AO2
     T02150135=
KUMP 231615Z AUTO 18014G18KT 10SM CLR 23/13 A3009 RMK AO2
     T02250131=
KUNI 231615Z AUTO 00000KT 10SM RA CLR 22/08 A3021 RMK AO2
     T02240082=
KW22 231615Z AUTO 00000KT 1 1/4SM HZ CLR 23/02 A3025 RMK AO2=
K1H2 231615Z AUTO 15014G24KT 10SM CLR 22/13 A2999 RMK AO2
     T02240132=
K57C 231615Z AUTO 17013G19KT 10SM CLR 21/12 A2989 RMK AO2
     T02060118=
KAAA 231615Z AUTO 18020G25KT 10SM CLR 22/14 A2989 RMK AO2
     T02210142=
KBIE 231615Z AUTO 19024G30KT 10SM CLR 26/13 A2942 RMK AO2
     T02580128=
KBVN 231615Z AUTO 18015G22KT 10SM CLR 21/09 A2932 RMK AO2
     T02140088 PWINO=
KC35 231615Z AUTO 14008KT 120V180 10SM CLR 20/12 A2980 RMK AO2
     T01970120 PWINO=
KCBF 231615Z AUTO 18022G30KT 10SM CLR 24/12 A2942 RMK AO2=
KCGE 231615Z AUTO 01008G15KT 10SM SCT120 17/14 A3018 RMK A01=
