SAUS70 KWBC 231706
METAR
KGAF 231715Z AUTO 05013G18KT 8SM CLR 13/07 A2953 RMK AO2=
KGPH 231715Z AUTO 19011G23KT 10SM CLR 26/12 A2962 RMK AO2=
KW63 231715Z AUTO 36007G14KT 10SM CLR 17/08 A3020 RMK AO1=
KEZS 231715Z AUTO 13008KT 10SM CLR 22/14 A2986 RMK AO2
     T02180140=
