SAUS70 KWBC 232018 RRK
METAR
KFKA 232015Z AUTO 17019G28KT 7SM CLR 23/13 A2960 RMK AO2
     T02340127=
KFKS 232015Z AUTO 25004KT 10SM BKN050 BKN080 22/12 A2991 RMK AO2
     T02190119=
KFSO 232015Z AUTO 00000KT 10SM CLR 19/06 A3030 RMK AO2
     T01910057=
KLNL 232015Z AUTO 15009G20KT 10SM BKN040 21/11 A2980 RMK AO2
     T02110107=
KMCX 232035Z AUTO 17014G21KT 10SM CLR 26/09 A2994 RMK AO2
     T02560092=
KPCZ 232015Z AUTO 11015G19KT 10SM CLR 24/12 A2976 RMK AO2
     T02410121=
KRCX 232015Z AUTO 14011G19KT 10SM SCT043 23/16 A2968 RMK AO2
     T02320155=
KVGC 232015Z AUTO 00000KT 10SM CLR 17/07 A3027 RMK AO2=
K0S9 232015Z AUTO 15005G11KT 10SM FEW026 12/06 A3013 RMK AO2=
K3N8 232015Z AUTO 11017G24KT 10SM CLR 23/12 A2940 RMK AO2
     T02330117=
KALM 232015Z AUTO 23016KT 10SM CLR 23/06 A2974 RMK AO2=
KATA 232015Z AUTO 18010G18KT 10SM SCT060 29/15 A2985 RMK AO2
     SLP008 T02900148 $=
KBVU 232015Z AUTO VRB06G15KT 10SM CLR 17/M09 A2985 RMK AO2=
KCMR 232015Z AUTO 29016G24KT 10SM FEW050 FEW060 08/M06 A2985 RMK
     AO2=
KDNA 232015Z AUTO 26015G27KT 10SM CLR 25/07 A2976 RMK AO2=
KL08 232015Z AUTO 14005KT 10SM CLR 24/00 A2977 RMK AO2=
KLRU 232015Z AUTO 24027G35KT 10SM CLR 24/02 A2978 RMK AO2
     T02430018=
KMAN 232015Z AUTO 32010G17KT 10SM CLR 10/M02 A3000 RMK A01=
KO32 232015Z AUTO VRB03KT 10SM CLR 18/02 A2991 RMK AO2 T01830017
     $=
KORS 232015Z AUTO 17004KT 10SM FEW016 11/08 A3014 RMK AO2=
KPAN 232015Z AUTO 21010G18KT 10SM SCT036 BKN046 BKN060 14/04 A2983
     RMK AO2 PWINO TSNO=
KPVF 232015Z AUTO 31005KT 10SM CLR 14/M05 A2996 RMK AO1=
KRPH 232015Z AUTO 15012G22KT 120V180 10SM CLR 31/15 A2966 RMK AO2
     T03050146 $=
KSVC 232015Z AUTO 26011G20KT 10SM CLR 19/04 A2983 RMK AO2
     T01890036=
KSXU 232015Z AUTO 23026G34KT 10SM CLR 23/00 A2961 RMK AO2
     T02291001=
KT69 232015Z AUTO 16017G25KT 10SM FEW026 FEW033 SCT040 28/22 A2982
     RMK A01=
KTME 232015Z AUTO 15014G19KT 10SM BKN065 31/14 A2988 RMK AO2=
KU42 232015Z AUTO 33013KT 10SM OVC039 04/00 A2984 RMK AO1
     T00400000=
K22N 232015Z AUTO 07004KT 10SM SCT050 BKN110 17/08 A3027 RMK
     AO2=
KDLZ 232015Z AUTO 19005G08KT 10SM CLR 23/07 A3012 RMK AO2=
KDRM 232015Z AUTO 13006KT 10SM CLR 18/11 A3004 RMK AO2
     T01750107=
KFBL 232015Z AUTO 11020G28KT 10SM CLR 24/13 A2950 RMK AO2=
KFGN 232015Z AUTO 04007KT 10SM CLR 14/07 A2957 RMK AO2=
KJYM 232015Z AUTO 15013G19KT 120V180 10SM SCT050 23/07 A3005 RMK
     AO2 T02300070=
KMCD 232015Z AUTO 11005KT 10SM SCT060 14/09 A3000 RMK AO2
     T01430093=
KMOX 232015Z AUTO 14025G34KT 10SM CLR 23/09 A2935 RMK AO2=
KMQJ 232015Z AUTO RMK AO1=
KOCQ 232015Z AUTO 14013G16KT 10SM CLR 19/12 A2985 RMK AO1
     T01870120=
KOEO 232015Z AUTO 13015G28KT 10SM CLR 25/16 A2958 RMK AO2
     T02490155=
KOXD 232015Z AUTO 18008G14KT 10SM CLR 26/04 A3007 RMK AO2
     T02630036=
KPVB 232015Z AUTO 14020G23KT 10SM CLR 24/12 A2971 RMK AO1
     T02370124=
KRYV 232015Z AUTO 16013G20KT 120V180 10SM SCT045 SCT120 24/12
     A2978 RMK AO2 T02350121=
KRZN 232015Z AUTO 15012G24KT 10SM CLR 23/12 A2958 RMK AO2
     T02330118=
KSAZ 232015Z AUTO 12012G21KT 10SM CLR 24/12 A2944 RMK AO2=
KSGS 232015Z AUTO 15012G24KT 10SM CLR 25/12 A2951 RMK AO2
     T02480116=
KSJX 232015Z AUTO 16008G19KT 10SM CLR 24/11 A2995 RMK AO2
     T02410108=
KTEW 232015Z AUTO 15014G21KT 10SM BKN060 25/09 A3004 RMK AO2
     T02520089=
KTOB 232015Z AUTO 14028KT 10SM CLR 24/12 A2954 RMK AO2=
KTWM 232015Z AUTO 07015G22KT 10SM CLR 19/11 A2964 RMK AO2=
KVVV 232015Z 14025G33KT 10SM 23/13 A2931 RMK AO2=
KVWU 232015Z AUTO 12011G20KT 10SM CLR 26/12 A2951 RMK AO2=
