SAUS70 KWBC 231800
METAR
KTAN 231752Z AUTO A3031 RMK AO2 SLPNO 57010 PWINO FZRANO TSNO
     $=
KTRM 231752Z AUTO 28008KT 10SM CLR 23/06 A2979 RMK AO2 SLP087
     T02330061 10233 20183 51021=
KXVG 231753Z AUTO 12005KT 10SM BKN065 21/11 A2957 RMK AO2=
KAFN 231752Z AUTO 00000KT 10SM CLR 15/06 A3034 RMK AO2 SLP284
     T01500061 10150 20033 58010=
KAQW 231752Z AUTO 00000KT 10SM CLR 17/07 A3031 RMK AO2 SLP267
     T01670072 10167 20011 58019=
KARR 231752Z 17021G29KT 10SM CLR 24/13 A2985 RMK AO2 PK WND
     17030/1731 SLP107 T02390133 10239 20156 58019=
KBLF 231752Z AUTO 03007KT 10SM CLR 18/00 A3024 RMK AO2 SLP220
     T01830000 10189 20044 58015=
KBML 231752Z AUTO 00000KT 10SM CLR 19/04 A3034 RMK AO2 SLP281
     T01940044 10194 21011 56017=
KCFV 231752Z AUTO 19024G35KT 10SM CLR 27/16 A2966 RMK AO2 PK WND
     18038/1722 LTG DSNT W AND NW SLP035 T02670161 10267 20211
     58012 PWINO $=
KCQX 231752Z AUTO 04007KT 10SM FEW065 BKN080 OVC090 15/13 A3031
     RMK AO2 RAE43 SLP264 P0004 60004 T01500133 10161 20150
     56014=
KCVG 231752Z 22006KT 10SM SCT055 23/09 A3012 RMK AO2 SLP193
     T02330094 10244 20117 58013=
KDCA 231752Z 01010KT 10SM OVC049 19/12 A3021 RMK AO2 SLP231 60000
     T01890117 10189 20100 58016 $=
KDDC 231752Z AUTO 22029G52KT 3SM HZ 31/06 A2941 RMK AO2 PK WND
     21053/1738 SLP925 T03060061 10306 20172 58022 $=
KDPA 231752Z 15016KT 10SM CLR 24/13 A2986 RMK AO2 PK WND
     17029/1659 SLP108 T02390133 10239 20150 58018=
KDVN 231752Z AUTO 16014G23KT 10SM CLR 23/13 A2977 RMK AO2 PK WND
     16030/1706 SLP072 T02280128 10244 20161 58016=
KDVP 231753Z AUTO 14023G30KT 10SM CLR 22/12 A2941 RMK AO2
     T02180122 10218 20082=
KFIT 231752Z AUTO 08004KT 10SM CLR 16/05 A3034 RMK AO2 SLP278
     T01560050 10156 20050 57014=
KFOZ 231753Z AUTO 13009G14KT 10SM CLR 22/11 A2966 RMK AO2=
KGLS 231752Z 17008KT 10SM SCT042 BKN048 OVC060 27/21 A2999 RMK AO2
     SLP155 T02720211 10283 20239 50001=
KHIE 231752Z AUTO 00000KT 10SM CLR 18/07 A3034 RMK AO2 SLP280
     T01780072 10183 21011 56014=
KHRL 231752Z 17023G33KT 10SM CLR 32/19 A2984 RMK AO2 PK WND
     18035/1700 SLP103 T03220189 10322 20194 58013 $=
KHUT 231752Z 17025G36KT 5SM BLDU FEW025 26/12 A2948 RMK AO2 PK WND
     18045/1705 SLP961 T02610122 10278 20194 58016=
KIAD 231752Z 34009KT 10SM SCT028 BKN042 OVC100 17/11 A3022 RMK AO2
     SLP235 T01720111 10172 20067 58015=
KIEN 231752Z AUTO 30010KT 10SM CLR 13/02 A2926 RMK AO2 SLP900
     T01280022 10128 21022 50011=
KIJD 231752Z AUTO 04006KT 10SM FEW100 16/07 A3030 RMK AO2 SLP259
     T01560067 10156 20061 58018=
KIOW 231752Z AUTO 16020G31KT 10SM CLR 25/13 A2970 RMK AO2 PK WND
     15033/1724 SLP052 T02500133 10250 20150 58018=
KLAL 231750Z 05006KT 10SM SCT046 27/16 A3009=
KLWC 231752Z AUTO 17020G29KT 10SM CLR 27/14 A2957 RMK AO1 PK WND
     19036/1710 SLP006 T02720144 10283 20217 58007=
KMDH 231752Z 19020G34KT 10SM BKN041 26/14 A2995 RMK AO2 PK WND
     19034/1743 SLP140 T02560144 10256 20172 58010=
KMEB 231752Z AUTO 36007KT 10SM CLR 23/06 A3017 RMK AO2 SLP214
     T02280061 10233 20106 58014=
KMKE 231752Z 14014KT 10SM FEW085 20/13 A2988 RMK AO2 SLP114
     T02000128 10206 20139 58014 $=
KMLI 231752Z 16017G25KT 10SM CLR 24/13 A2975 RMK AO2 PK WND
     16031/1715 SLP070 T02440133 10244 20167 58015=
KMLT 231753Z AUTO 00000KT 10SM CLR 19/09 A3036 RMK AO2 SLP287
     T01940094 10194 20033 58013=
KOKB 231752Z AUTO 18006KT 8SM FEW040 20/11 A2986 RMK AO2 SLP111
     T02000106 10200 20144 50010=
KOKC 231752Z 17022G31KT 10SM SCT090 BKN150 BKN250 26/16 A2969 RMK
     AO2 PK WND 17033/1740 SLP040 T02560161 10256 20189 58008=
