SAUS70 KWBC 232016
METAR
K2C8 232015Z AUTO 06010G17KT 10SM CLR 18/09 A2946 RMK AO2=
KD50 232015Z AUTO 03011G19KT 10SM OVC012 05/03 A2953 RMK AO2=
KEFT 232015Z AUTO 17020G27KT 10SM CLR 24/13 A2975 RMK AO2
     T02380127=
KETB 232015Z AUTO 14011G16KT 10SM CLR 20/12 A2983 RMK AO2=
KFRH 232015Z AUTO 19006G14KT 10SM CLR 25/06 A3002 RMK AO1=
KOIC 232015Z AUTO 00000KT 10SM CLR 18/10 A3029 RMK AO2
     T01800097=
KPBH 232015Z AUTO 15016G22KT 10SM SCT045 22/13 A2970 RMK AO2
     T02150126=
KPDC 232015Z AUTO 15014G21KT 110V180 10SM CLR 25/12 A2964 RMK AO2
     T02480117=
KRRL 232015Z AUTO 15014G21KT 10SM SCT042 22/13 A2974 RMK AO2
     T02230127 TSNO=
KSUW 232015Z AUTO 08012G18KT 10SM CLR 14/10 A2963 RMK AO2
     T01410096=
KUNU 232015Z AUTO 15015G23KT 10SM CLR 23/13 A2980 RMK AO2
     T02280131=
KVNW 232015Z AUTO 16011KT 10SM CLR 24/07 A3006 RMK AO2=
KY51 232015Z AUTO 15015G21KT 10SM CLR 23/15 A2966 RMK AO1
     T02330145=
KTFP 231935Z AUTO 17020G26KT 10SM CLR 30/22 A2982 RMK AO2
     T02980220=
KDVP 232013Z AUTO 14027G34KT 10SM CLR 25/13 A2934 RMK AO2
     T02490125=
KFOZ 232013Z AUTO 12007G17KT 10SM SCT060 24/12 A2961 RMK AO2=
KORB 232013Z AUTO 14010G15KT 10SM CLR 23/11 A2959 RMK AO2=
KOWA 232013Z AUTO 14016G29KT 10SM CLR 24/13 A2950 RMK AO2=
KXVG 232013Z AUTO 13013G18KT 10SM CLR 23/12 A2951 RMK AO2=
K1S5 232015Z AUTO 00000KT 10SM CLR 13/02 A3009 RMK AO2
     T01290015=
KJXI 232015Z AUTO 15014G25KT 10SM CLR 28/14 A2986 RMK AO2
     T02760135=
KMCJ 232015Z AUTO 17024G33KT 10SM FEW060 FEW065 28/14 A2986 RMK
     A01=
K08D 232015Z AUTO 04021G30KT 10SM OVC011 06/06 A2941 RMK AO2=
K0E0 232015Z AUTO 24026G35KT 10SM BKN090 19/M04 A2970 RMK AO2
     T01911037 TSNO=
K2J9 232015Z AUTO VRB04KT 10SM CLR 26/06 A3012 RMK AO2=
KAQP 232013Z AUTO 17023G28KT 7SM SCT085 25/11 A2933 RMK AO2=
KBEA 232015Z AUTO 16020G28KT 10SM SCT036 BKN042 BKN050 30/19 A2980
     RMK AO2 T02980186=
KCQW 232015Z AUTO 05007KT 10SM CLR 24/05 A3013 RMK AO2 PWINO=
KD55 232015Z AUTO 06024G31KT 10SM CLR 13/12 A2945 RMK AO2=
KEHO 232015Z AUTO 13003KT 10SM CLR 22/03 A3015 RMK AO2
     T02240033=
KETH 232013Z AUTO 12030G37KT 10SM 23/12 A2931 RMK AO2=
KJHN 232015Z AUTO 21032G41KT 7SM BKN001 29/02 A2938 RMK AO2
     T02870020=
KLDJ 232015Z AUTO 05006KT 10SM OVC050 17/08 A3025 RMK AO2
     T01660075=
KLUM 232015Z AUTO 12015G27KT 10SM SCT049 25/17 A2959 RMK AO2
     T02540173 PWINO=
KMAW 232015Z AUTO 19020G27KT 10SM BKN050 28/13 A2995 RMK AO1=
KMHL 232015Z AUTO 17018G23KT 10SM CLR 28/14 A2963 RMK AO2=
KMRJ 232015Z AUTO 14018G25KT 10SM CLR 23/10 A2972 RMK AO2=
KRCZ 232015Z AUTO 01006KT 10SM CLR 23/06 A3013 RMK AO2
     T02250057=
KRID 232035Z AUTO 17014G17KT 5SM HZ CLR 23/11 A3008 RMK AO2=
KRNV 232015Z AUTO 17016G22KT 10SM SCT060 A2997 RMK AO2 TSNO=
KRPD 232015Z AUTO 14018G24KT 7SM BKN044 BKN050 24/16 A2962 RMK AO2
     T02400162=
KSDC 232015Z AUTO 13004KT 10SM CLR 21/03 A3023 RMK AO2=
KSNK 232015Z AUTO 19017G24KT 10SM CLR 30/11 A2968 RMK AO2
     T02950113=
K10G 232015Z AUTO 15010KT 10SM CLR 23/05 A3015 RMK AO2=
K1P1 232015Z AUTO 00000KT 10SM CLR 17/04 A3033 RMK AO2
     T01660043=
K20U 232015Z AUTO 36010KT 10SM OVC008 06/06 A2942 RMK AO2=
K24A 232015Z AUTO 00000KT 10SM CLR 22/M04 A3018 RMK AO2
     T02241037=
K27K 232015Z AUTO 15006KT 10SM CLR 24/05 A3010 RMK AO1=
K2P2 232015Z AUTO 18009G18KT 140V220 10SM BKN075 BKN110 17/12
     A2990 RMK AO2 T01730118=
K35A 232015Z AUTO 31003KT 10SM CLR 23/06 A3019 RMK A02
     T02310057=
K3D2 232015Z AUTO 17016G25KT 10SM CLR 17/11 A2988 RMK AO2
     T01730110=
K4S2 232015Z AUTO 30004KT 10SM CLR 12/01 A3014 RMK AO2=
