SAUS70 KWBC 232000
METAR
KEZS 231955Z AUTO 13010KT 10SM CLR 23/14 A2980 RMK AO2
     T02310142=
KW63 231955Z AUTO 30003KT SCT032 20/10 A3016 RMK AO1=
KFDK 231947Z 04009KT 7SM BKN050 19/12 A3022=
KFMH 231945Z 04011KT 6SM -RA BR SCT029 14/13 A3028=
