SAUS70 KWBC 232142 RRC
METAR
KE11 232135Z AUTO 19016G21KT 10SM CLR 29/12 A2968 RMK AO2
     T02900117=
KE38 232135Z AUTO 21013G19KT 10SM CLR 28/05 A2987 RMK AO2
     T02780049=
KE41 232135Z AUTO 17019G23KT 10SM CLR 24/14 A2976 RMK AO2
     T02370142=
KECU 232135Z AUTO 15012G21KT 10SM SCT110 24/15 A2986 RMK AO2=
KFMM 232135Z AUTO 35024G32KT 8SM -RA FEW055 BKN065 BKN095 12/01
     A2937 RMK AO2=
KFWZ 232135Z AUTO 34003KT 1/4SM +SN OVC003 M03/M04 A2962 RMK
     AO2=
KGCD 232135Z AUTO 29004KT 10SM OVC060 05/00 A3011 RMK AO2
     T00461005=
KLMO 232135Z AUTO 25011G23KT 10SM BKN110 16/M07 A2939 RMK AO2
     T01611072=
KLUV 232135Z AUTO 20015G23KT 10SM CLR 29/10 A2968 RMK AO2=
KNOW 232135Z AUTO 09003KT 10SM CLR 11/08 A3013 RMK AO2
     T01120084=
KPLU 232135Z AUTO 00000KT 10SM FEW034 FEW049 13/05 A3016 RMK
     AO2=
KPOY 232135Z AUTO 33023G30KT 10SM CLR 03/M06 A2962 RMK AO2=
KPPA 232135Z AUTO 21023G28KT 10SM CLR 26/11 A2957 RMK AO2
     T02570107=
KRBO 232135Z AUTO 10SM SCT001 SCT034 30/21 A2980 RMK AO2
     T02960208=
KSBS 232135Z AUTO 00000KT 1/4SM OVC005 M02/M02 A2965 RMK AO1
     T10181018=
KT74 232135Z AUTO 17018G23KT 10SM SCT050 BKN065 29/18 A2981 RMK
     AO2 T02880176=
K06C 232135Z AUTO 17017G24KT 10SM CLR 25/16 A2983 RMK AO2
     T02480160=
KBUU 232135Z AUTO 18007KT 10SM SCT110 24/14 A2980 RMK AO2
     T02430139 PWINO=
KC65 232135Z AUTO 15011G18KT 10SM CLR 24/10 A2995 RMK A01=
KHHG 232135Z AUTO 18013KT 10SM CLR M09/M19 A3001 RMK AO2
     T10891195=
KHNR 232135Z AUTO 17029G38KT 10SM CLR 28/16 A2936 RMK A01=
KI63 232135Z AUTO 16020G25KT 10SM CLR 24/14 A2973 RMK AO2
     T02380141=
KI74 232135Z AUTO 17005G08KT 10SM CLR 22/09 A3009 RMK AO2=
KI75 232135Z AUTO 17018G26KT 7SM SCT065 SCT080 BKN110 28/14 A2958
     RMK AO2 T02750142=
KIBM 232135Z AUTO 33020G27KT 10SM BKN110 09/00 A2942 RMK AO2
     T00870000=
KIJX 232135Z AUTO 16017G29KT 10SM CLR 23/14 A2978 RMK AO2
     T02330143=
KIKK 232135Z AUTO 19015G26KT 10SM CLR 25/11 A2989 RMK AO2
     T02490113=
KIKV 232135Z AUTO 18020G29KT 10SM FEW110 28/14 A2951 RMK AO2=
KJYR 232135Z AUTO 17020G33KT 9SM CLR 27/11 A2928 RMK AO2=
KLOM 232135Z AUTO 05004KT 10SM -RA OVC036 14/12 A3022 RMK AO2
     T01370119=
KLOT 232135Z AUTO 17028G33KT 10SM CLR 25/13 A2984 RMK AO2=
KLRJ 232135Z AUTO 15024G32KT 9SM CLR 29/12 A2926 RMK AO2=
KRCR 232135Z AUTO 17014KT 10SM CLR 24/11 A2997 RMK AO2=
KRDK 232135Z AUTO 16023G30KT FEW120 28/14 A2941 RMK AO2=
KSHL 232135Z AUTO 16021G30KT 10SM CLR 27/13 A2930 RMK AO2=
KSLB 232135Z AUTO 16026G33KT 9SM CLR 26/14 A2938 RMK AO2=
KTAZ 232135Z AUTO 18020G28KT 10SM CLR 25/14 A2984 RMK AO2
     T02450140=
KTIP 232135Z AUTO 16017G26KT 10SM CLR 24/12 A2989 RMK AO2
     T02370115=
KUBE 232135Z AUTO 13015G20KT 10SM CLR 23/16 A2959 RMK AO2=
KUNI 232135Z AUTO 14005KT 10SM CLR 24/06 A3011 RMK AO2
     T02400055=
KW22 232135Z AUTO 03005KT 10SM CLR 23/01 A3016 RMK AO2=
K2G9 232135Z AUTO 11004KT 10SM CLR 15/02 A3022 RMK AO2=
KDNS 232135Z AUTO RMK AO2 PNO PWINO=
KFEP 232135Z AUTO 17022G27KT 10SM CLR 24/17 A2976 RMK AO2
     T02410165=
KFXY 232135Z AUTO 14021G30KT 10SM CLR 23/13 A2949 RMK AO2=
KGGP 232135Z AUTO 16015G22KT 10SM CLR 24/09 A2997 RMK AO2=
KGHG 232135Z AUTO VRB05KT 9SM -RA BKN042 BKN049 OVC080 13/11 A3030
     RMK AO2=
KHDE 232135Z AUTO 21024G33KT 7SM BKN031 BKN037 OVC044 31/01 A2922
     RMK AO2 T03050006=
KHMZ 232135Z AUTO 00000KT 10SM BKN035 BKN048 18/07 A3021 RMK AO2
     T01840073=
KHPT 232135Z AUTO 15014G23KT 10SM SCT110 23/12 A2953 RMK AO2=
KICL 232135Z AUTO 19022G32KT 10SM CLR 27/14 A2946 RMK AO2=
