SAUS70 KWBC 231700 RRH
METAR
KBKS 231655Z AUTO 16016G22KT 10SM FEW038 29/21 A2986 RMK AO2
     SLP073 T02910212 $=
KBKT 231655Z AUTO 01007G15KT 10SM OVC021 17/10 A3020 RMK AO1
     T01700097=
KBRG 231655Z AUTO 23021G32KT 10SM CLR 20/M01 A2974 RMK AO2
     T01961009=
KBRY 231655Z AUTO 22009KT 10SM CLR 23/08 A3013 RMK AO2
     T02350078=
KBVU 231655Z AUTO 34012KT 10SM CLR 15/M08 A2985 RMK AO2=
KBWP 231655Z AUTO 13017G25KT 10SM CLR 20/11 A2941 RMK AO2=
KBWW 231655Z AUTO 06010KT 10SM OVC012 07/05 A2936 RMK AO2=
KBXK 231655Z AUTO 24010KT 10SM SCT070 21/10 A2979 RMK A01=
KC29 231655Z AUTO 15012G19KT 10SM CLR 22/12 A2983 RMK AO1
     T02190122=
KCDN 231655Z AUTO 00000G10KT 10SM CLR 22/07 A3019 RMK AO2=
KCEU 231654Z AUTO 00000KT 10SM CLR 20/02 A3023 RMK AO2 SLP230
     T02000022=
KCEY 231655Z AUTO 16015G22KT 10SM CLR 24/11 A3008 RMK A01=
KCFJ 231655Z AUTO 18015G21KT 10SM CLR 23/08 A3003 RMK AO2
     T02270078=
KCGC 231655Z AUTO 00000KT 10SM CLR 27/14 A3014 RMK AO2=
KCJR 231655Z AUTO 01006KT 10SM OVC024 18/07 A3026 RMK AO2
     T01820072=
KCKM 231655Z AUTO 16015G20KT 10SM CLR 26/15 A3007 RMK A01=
KCLS 231655Z AUTO 00000KT 1/2SM BR OVC005 04/04 A3012 RMK AO2=
KCLW 231655Z AUTO 05005KT 10SM CLR 26/14 A3012 RMK AO2 PWINO=
KCMR 231655Z AUTO 26008KT 10SM FEW028 BKN034 OVC040 03/M01 A2986
     RMK AO2=
KCMX 231653Z AUTO 11008KT 10SM CLR 19/11 A2983 RMK AO2 SLP103
     T01890111=
KCPT 231655Z AUTO 17018G29KT 10SM BKN035 26/16 A2986 RMK A01=
KCTZ 231655Z AUTO 35006KT 10SM CLR 20/11 A3016 RMK AO2
     T02000114=
KCWF 231653Z 16015G20KT 10SM SCT035 28/18 A3003=
KD57 231655Z AUTO 06014KT 10SM CLR 09/03 A2935 RMK AO2=
KD60 231655Z AUTO 06020KT 10SM OVC007 04/04 A2952 RMK AO2=
KDNA 231655Z AUTO 23017G30KT 10SM FEW049 FEW055 SCT080 24/10 A2983
     RMK AO2=
KDNN 231655Z AUTO 13004KT 10SM CLR 20/04 A3022 RMK AO2
     T02020041=
KDRI 231655Z AUTO 14011G16KT 9SM FEW034 27/18 A3003 RMK AO2
     T02650180 $=
KDSV 231654Z AUTO 00000KT 10SM CLR 21/05 A3025 RMK AO2 SLP252
     T02060050=
KDYB 231655Z AUTO 33007KT 300V360 10SM CLR 22/11 A3016 RMK AO2=
KEFD 231654Z 13022G27KT 10SM SCT055 29/15 A2996=
KEKM 231655Z AUTO 17011G16KT 130V200 9SM CLR 23/13 A3004 RMK AO2
     T02280134=
K20U 231655Z AUTO 04012KT 9SM OVC010 06/05 A2942 RMK AO2=
K6L4 231655Z AUTO 00000KT 10SM CLR 21/05 A3023 RMK AO2=
KADG 231653Z AUTO 20012G20KT 10SM CLR 22/11 A3013 RMK AO2 SLP203
     T02220111=
KALO 231654Z 15018G28KT 10SM CLR 24/13 A2963 RMK AO2 PK WND
     16033/1620 SLP030 T02390128=
KAMN 231655Z AUTO 14011KT 10SM CLR 23/10 A3007 RMK AO2
     T02290099=
KBRD 231653Z AUTO 14009G18KT 10SM SCT060 20/11 A2959 RMK AO2
     SLP020 T02000106=
KCFE 231655Z AUTO 14019G25KT 10SM CLR 21/12 A2956 RMK AO2=
KDET 231653Z 19009KT 8SM CLR 24/10 A3014 RMK AO2 SLP205
     T02390100=
KELO 231655Z AUTO 15010KT 10SM SCT110 19/09 A2972 RMK AO2=
KFCM 231653Z 14017KT 10SM CLR 22/12 A2957 RMK AO2 SLP011 T02220117
     $=
KFDY 231653Z AUTO 15011KT 10SM CLR 24/12 A3014 RMK AO2 SLP199
     T02440117=
KGED 231654Z AUTO 03009KT 10SM -RA OVC018 17/14 A3018 RMK AO2
     RAE11B30 SLP217 P0000 T01670139=
KILN 231654Z AUTO 21009KT 10SM CLR 23/10 A3016 RMK AO2 SLP211
     T02280100=
KMIV 231654Z AUTO 04010KT 10SM BKN015 OVC020 17/14 A3020 RMK AO2
     SLP224 T01670139 $=
KPHL 231654Z 05012KT 10SM FEW036 BKN055 BKN090 OVC130 17/12 A3024
     RMK AO2 RAB21E34 SLP239 P0000 T01720122 $=
KVVV 231655Z 13016G25KT 10SM 19/12 A2940 RMK AO2=
KAKO 231653Z AUTO 23022G30KT 23/M03 A2927 RMK AO2 PK WND
     24031/1647 SLP852 T02281033 $=
KBFL 231654Z 34008KT 9SM CLR 15/02 A2996 RMK AO2 SLP141
     T01500022=
