SAUS70 KWBC 232020
METAR
KVAF 232015Z AUTO 14016KT 10SM CLR 28/18 A2992 RMK A01=
KVOA 232020Z AUTO 09013KT 10SM FEW037 24/16 A3008 RMK A01=
KWBF 232015Z AUTO 00000KT 10SM 27/18 A3002 RMK A01=
KY31 232015Z AUTO 15010G15KT 10SM BKN065 23/09 A3003 RMK AO2
     T02280092=
KY49 232015Z AUTO 10007KT 070V140 10SM CLR 21/11 A2949 RMK AO2
     T02070111=
KATP 232015Z AUTO 10014KT 10SM FEW035 FEW041 BKN048 25/17 A3004
     RMK A01=
KAUM 232017Z AUTO 16016G24KT 10SM CLR 24/13 A2955 RMK AO2=
KBAX 232015Z AUTO 17012G17KT 10SM CLR 23/10 A3009 RMK AO2
     T02280102=
KBQX 232015Z AUTO 15015G21KT 9SM 27/18 A2990 RMK A01=
KCQM 232016Z AUTO 14012G18KT 110V170 10SM CLR 23/11 A2961 RMK
     AO2=
KD39 232015Z AUTO 11020G27KT 10SM SCT044 23/12 A2942 RMK AO2
     T02260123=
KDSF 232015Z AUTO 06005KT 10SM CLR 25/14 A3006 RMK A01=
KERY 232015Z AUTO 15014G20KT 10SM CLR 22/10 A2995 RMK AO2
     T02150104=
KGHB 232015Z AUTO 00000G13KT 8SM CLR 26/17 A2999 RMK A01=
KGLX 232015Z AUTO 05010KT 10SM CLR 26/14 A3006 RMK A01=
KGRY 232015Z AUTO 11013KT 10SM CLR 24/16 A3003 RMK A01=
KHCD 232015Z AUTO 12021G30KT 10SM CLR 25/12 A2944 RMK AO2
     T02500123=
KHHV 232015Z AUTO 14016G24KT 10SM CLR 27/19 A2988 RMK A01=
KHYX 232015Z AUTO 16015G22KT 10SM CLR 24/10 A3005 RMK AO2
     T02370096=
KHZX 232015Z AUTO 13017G23KT 10SM SCT046 23/12 A2956 RMK AO2=
KIMS 232015Z AUTO 17009G15KT 10SM CLR 25/08 A3008 RMK AO2=
KJYG 232016Z AUTO 14022G35KT 10SM CLR 25/12 A2941 RMK AO2=
KLVN 232015Z AUTO 15019G28KT 10SM CLR 24/11 A2950 RMK AO2=
KLXL 232015Z AUTO 14017G25KT 10SM CLR 24/13 A2946 RMK AO2=
KMJQ 232015Z AUTO 15021G28KT 10SM CLR 25/11 A2941 RMK AO2=
KMOP 232015Z AUTO 16011G18KT 10SM CLR 23/10 A3001 RMK AO2
     T02330097=
KMZH 232015Z AUTO 13005G17KT 10SM BKN047 25/11 A2957 RMK AO2=
KONA 232015Z AUTO 15014G21KT 10SM CLR 25/12 A2959 RMK AO2=
KOSC 232015Z AUTO 11004KT 10SM CLR 21/12 A3007 RMK AO2
     T02130119=
KPEX 232015Z AUTO 14018G21KT 10SM CLR 23/12 A2943 RMK AO2=
KPMH 232015Z AUTO 18003KT 10SM CLR 26/03 A3012 RMK AO2
     T02620026=
KPZZ 232015Z AUTO 13015KT 9SM CLR 25/17 A3003 RMK A01=
KRRT 232015Z AUTO 04012G17KT 10SM CLR 14/11 A2955 RMK AO2=
KTTA 232015Z AUTO 36005KT 10SM CLR 22/05 A3014 RMK AO2
     T02170045=
KTYL 232015Z AUTO 25019G25KT 10SM SCT050 15/00 A2981 RMK AO2=
KTYQ 232015Z AUTO 18015G23KT 10SM CLR 25/10 A3000 RMK AO2
     T02500099=
KVHN 232015Z AUTO 21017G24KT 10SM CLR 30/08 A2977 RMK AO2
     T02960077=
KVTP 232015Z AUTO 24012G24KT 10SM SCT005 OVC009 M12/M14 A2962 RMK
     AO2=
KVVS 232015Z AUTO 15006KT 10SM CLR 22/00 A3019 RMK AO2
     T02251003=
KVYS 232015Z AUTO 16024G28KT 10SM CLR 26/14 A2978 RMK AO2
     T02550141=
KZPH 232015Z AUTO 01008KT 10SM CLR 28/15 A3007 RMK A02
     T02840145=
K1F0 232015Z AUTO 16018G27KT 10SM CLR 28/16 A2972 RMK AO2
     T02820157=
K1H2 232015Z AUTO 14015G26KT 10SM SCT046 25/14 A2992 RMK AO2
     T02480140=
K2J3 232015Z AUTO 32004KT 10SM CLR 25/10 A3014 RMK AO2
     T02460095=
K2R9 232015Z AUTO 14016G20KT 10SM SCT044 SCT060 30/19 A2981 RMK
     AO2=
K2V5 232015Z AUTO 24019G30KT 10SM CLR 27/M05 A2924 RMK AO2=
K3F3 232015Z AUTO 18015G21KT 10SM SCT049 SCT060 29/16 A2995 RMK
     AO2 T02930161=
K4A9 232015Z AUTO 21005KT 10SM CLR 23/03 A3012 RMK AO2
     T02350030=
K57C 232015Z AUTO 16016G22KT 10SM CLR 24/14 A2980 RMK AO2
     T02400135=
K5M9 232015Z AUTO 17010G20KT 10SM CLR 26/07 A3000 RMK AO2
     T02630069=
K5SM 232015Z AUTO 2SM -SN OVC002 M05/M06 A2962 RMK AO2=
K6A1 232015Z AUTO 06004KT 10SM 25/03 A3014 RMK AO2 T02480033=
K7BM 232015Z AUTO 26018G26KT 1SM -SN BKN004 OVC008 M01/M03 A2960
     RMK AO2=
