SAUS70 KWBC 231700 RRO
METAR
KPCZ 231655Z AUTO 13010KT 10SM CLR 22/12 A2984 RMK AO2
     T02170122=
KPDK 231653Z 10SM CLR 19/03 A3023 RMK AO2 SLP236 T01940033=
KPDT 231653Z 25008KT 10SM FEW075 BKN095 08/02 A3006 RMK AO2 SLP178
     T00830022=
KPEO 231653Z AUTO 22006KT 10SM CLR 19/04 A3028 RMK AO2 SLP252
     T01890044=
KPHD 231653Z AUTO VRB03KT 10SM CLR 20/08 A3022 RMK AO2 SLP233
     T02000078=
KPIR 231653Z AUTO 13017G25KT 10SM CLR 17/11 A2918 RMK AO2 PK WND
     12026/1613 SLP879 T01720106 $=
KPKD 231653Z AUTO 13014G20KT 10SM CLR 18/09 A2955 RMK AO2 SLP006
     T01830094=
KPRB 231653Z AUTO 33006KT 10SM CLR 11/06 A2999 RMK AO2 SLP154
     T01110056 $=
KPSC 231653Z 19004KT 10SM SCT100 09/03 A3006 RMK AO2 SLP181
     T00890033 $=
KPSK 231655Z AUTO 35003KT 10SM CLR 16/05 A3025 RMK AO2
     T01640050=
KPTK 231653Z 14008KT 10SM BKN200 20/11 A3015 RMK AO2 SLP206
     T02000106 $=
KPUW 231653Z AUTO 27006G14KT 10SM BKN009 04/02 A3000 RMK AO2 CIG
     007V012 SLP175 T00390022 $=
KRBG 231653Z AUTO 11003KT 1SM BR OVC002 06/06 A3018 RMK AO2 SLP224
     T00610056=
KRCM 231655Z AUTO 16019G28KT 10SM CLR 26/13 A2968 RMK AO2=
KRCX 231655Z AUTO 14011G18KT 10SM CLR 20/15 A2976 RMK AO2
     T01960147=
KRHI 231653Z AUTO 17008G17KT 10SM FEW100 19/11 A2984 RMK AO2
     SLP103 T01940111=
KRHP 231655Z AUTO 00000KT 10SM CLR 21/01 A3023 RMK AO2
     T02090009=
KRNT 231653Z 16003KT 10SM BKN014 OVC055 08/07 A3012 RMK AO2 SLP205
     T00830067=
K10G 231655Z AUTO 00000KT 10SM CLR 21/07 A3022 RMK AO2=
