SAUS70 KWBC 232000 RRE
METAR
KCEW 231953Z AUTO VRB03KT 10SM CLR 27/04 A3011 RMK AO2 SLP194
     T02720044=
KCEZ 231953Z AUTO 20015G23KT 10SM BKN050 OVC060 08/M01 A2970 RMK
     AO2 PK WND 19027/1937 SLP008 T00781011 $=
KCGI 231953Z 19020G29KT 10SM BKN050 27/15 A2993 RMK AO2 PK WND
     18032/1918 SLP131 T02670150=
KCHO 231953Z 05006KT 10SM OVC031 21/11 A3019 RMK AO2 SLP222
     T02060106=
KCMI 231953Z 17025G34KT 10SM FEW039 FEW100 24/13 A2989 RMK AO2 PK
     WND 18039/1923 SLP119 T02390128=
KCMX 231953Z AUTO 10011KT 10SM CLR 20/11 A2978 RMK AO2 SLP085
     T02000111=
KLBX 231953Z AUTO 17019G25KT 10SM CLR 29/15 A2989 RMK AO2 PK WND
     15027/1855 SLP122 T02940150=
KLCH 231953Z 16022G28KT 10SM SCT035 BKN060 27/18 A2997 RMK AO2 PK
     WND 16029/1916 SLP156 T02720178=
KLEB 231953Z 00000KT 10SM CLR 16/07 A3033 RMK AO2 SLP269
     T01610067=
KLFK 231953Z AUTO 16017G30KT 10SM BKN065 31/15 A2990 RMK AO2 PK
     WND 15030/1952 SLP121 T03060150=
KLFT 231953Z 18014G25KT 10SM BKN050 BKN055 OVC070 28/16 A3001 RMK
     AO2 SLP160 T02780161=
KLHQ 231953Z AUTO 19008KT 10SM CLR 24/08 A3012 RMK AO2 SLP197
     T02440078=
KLHX 231953Z AUTO 22023G38KT 10SM SCT110 24/M03 A2938 RMK AO2 PK
     WND 22039/1941 SLP890 T02441033 $=
KLLQ 231953Z AUTO 16012G19KT 10SM CLR 28/12 A2995 RMK AO2 SLP139
     T02830122=
KLNS 231953Z 04008KT 10SM FEW050 SCT075 18/10 A3023 RMK AO2 SLP238
     T01780100=
KLOU 231953Z 18012KT 10SM CLR 26/08 A3006 RMK AO2 SLP174
     T02560078=
KLOZ 231953Z AUTO 10SM CLR 24/02 A3013 RMK AO2 SLP196
     T02390017=
KLUK 231953Z 16011KT 10SM CLR 26/08 A3008 RMK AO2 SLP184
     T02560078=
KLVJ 231953Z AUTO 15017G26KT 10SM FEW050 29/17 A2991 RMK AO2 PK
     WND 19026/1857 SLP128 T02890167=
KLWB 231951Z 00000KT 10SM CLR 21/01 A3019=
KLWV 231953Z AUTO 20020G30KT 10SM CLR 27/11 A2997 RMK AO2 PK WND
     18033/1856 SLP147 T02720106 $=
KLXT 231953Z AUTO 19029G40KT 10SM BKN110 27/14 A2960 RMK AO2 PK
     WND 19041/1938 LTG DSNT SE AND S SLP015 T02720144=
KMAF 231953Z 18018G25KT 10SM CLR 28/12 A2970 RMK AO2 PK WND
     18028/1930 SLP014 T02830117=
KMAI 231953Z AUTO 00000KT 10SM CLR 26/04 A3010 RMK AO1 SLP193
     T02560039=
KMCB 231953Z AUTO 17007KT 10SM FEW055 27/13 A3004 RMK AO2 SLP167
     T02670128=
KMCI 231953Z 18027G41KT 9SM SCT080 BKN130 BKN200 29/14 A2954 RMK
     AO2 PK WND 16041/1949 LTG DSNT SW AND W SLP991 CB DSNT SW-W
     VCSH T02890139=
KMCK 231953Z AUTO 22029G40KT 5SM HZ OVC035 30/M02 A2922 RMK AO2 PK
     WND 21047/1859 SLP868 T03001017=
KMCW 231953Z AUTO 15025G38KT 10SM FEW044 24/13 A2953 RMK AO2 PK
     WND 15039/1941 SLP990 T02390128=
KMDW 231953Z 18018G33KT 10SM FEW050 SCT130 27/12 A2985 RMK AO2 PK
     WND 17036/1940 SLP099 T02720122=
KMGW 231953Z VRB04KT 10SM CLR 23/04 A3019 RMK AO2 SLP218
     T02330039=
KMGY 231953Z AUTO 15012G17KT 10SM CLR 24/09 A3009 RMK AO2 SLP183
     T02440089=
KMHT 231953Z 00000KT 10SM OVC170 17/07 A3032 RMK AO2 SLP282
     T01670067=
KCNM 231953Z AUTO 25019G25KT 10SM CLR 29/08 A2966 RMK AO2 PK WND
     25027/1937 SLP990 T02890083=
KCOT 231953Z AUTO 15013G23KT 8SM CLR 31/18 A2976 RMK AO2 SLP071
     T03110183=
KCPR 231953Z 30009KT 10SM -RA SCT012 BKN019 OVC046 04/02 A2951 RMK
     AO2 RAB28 SLP975 P0000 T00390022=
KCPS 231953Z 17016G26KT 10SM FEW035 25/15 A2981 RMK AO2 PK WND
     18036/1857 SLP093 T02500150 $=
KCRE 231953Z 33006KT 10SM CLR 23/06 A3010 RMK AO1 SLP192
     T02330061=
KCRG 231953Z 04007KT 10SM SCT026 BKN032 25/18 A3012 RMK AO2 SLP197
     T02500178=
KCRS 231953Z AUTO 18026G35KT 10SM BKN055 30/14 A2982 RMK AO2 PK
     WND 17035/1952 SLP094 T03000139 $=
