SAUS70 KWBC 231900 RRT
METAR
K54A 231855Z AUTO 08007KT 10SM CLR 30/19 A3003 RMK AO2=
K5T9 231855Z AUTO 13010G15KT 10SM SCT031 27/20 A2979 RMK A01=
K65S 231855Z AUTO 00000KT 10SM FEW005 SCT009 BKN016 06/06 A3000
     RMK AO2=
K6A2 231855Z AUTO 00000KT 10SM CLR 21/02 A3017 RMK AO2=
K82V 231855Z AUTO 33022G26KT 10SM CLR 15/M01 A2935 RMK AO2=
K8A3 231855Z AUTO VRB04G10KT 10SM CLR 23/05 A3013 RMK A01=
KAAS 231855Z AUTO 19010G15KT 10SM CLR 23/07 A3017 RMK AO1=
PAAD 231855Z AUTO 11009KT 10SM OVC003 M08/M08 A3003 RMK AO2
     T10761085=
PAAK 231856Z AUTO 22006KT 10SM -RA OVC024 A3025 RMK AO2 SLPNO
     P0000 FZRANO $=
PABL 231856Z AUTO 14008KT 7SM -SN OVC021 00/00 A2987 RMK AO2
     RAE28B48E55SNB28 SLP116 P0001 T00000000 FZRANO $=
PABV 231856Z AUTO 18003KT 10SM CLR M03/M04 A2990 RMK AO2 SLP133
     T10331039 FZRANO=
PACV 231853Z COR 11004KT 10SM SCT200 01/M01 A2965 RMK AO2 SLP039
     T00111006=
PADL 231856Z 00000KT 10SM CLR M01/M01 A3011 RMK AO2 SLP199
     T10061011=
PADM 231856Z AUTO 10015KT 10SM CLR 01/M02 A2999 RMK AO2 SLP162
     T00061022 FZRANO=
PADU 231856Z 22012G21KT 9SM BKN033 07/02 A3021 RMK AO2 SLP236
     T00720022=
PAFM 231856Z AUTO 13012G17KT 10SM OVC022 M02/M02 A2997 RMK AO2
     SNE14 SLP157 P0000 T10171022 FZRANO=
PAGA 231856Z AUTO 10SM FEW031 OVC060 M01/M02 A3002 RMK AO2 SLP169
     T10111022 FZRANO $=
PAGL 231856Z AUTO 17018KT 10SM SCT015 BKN022 OVC050 03/01 A2985
     RMK AO2 SLP101 T00330011 PWINO $=
PAGN 231856Z AUTO 06011G18KT 9SM -RA FEW009 SCT020 OVC032 03/03
     A2946 RMK AO2 SLP966 P0002 T00330028=
PAGS 231856Z AUTO 02011G18KT 350V080 10SM -RA BKN033 OVC040 05/01
     A2949 RMK AO2 SLP987 P0001 T00500011=
PAHL 231856Z AUTO 16005KT 8SM -SN SCT032 OVC042 M02/M03 A3000 RMK
     AO2 SLP162 P0000 T10221028 FZRANO=
PAHY 231856Z AUTO 12021KT 10SM -RA BKN022 OVC035 10/08 A2937 RMK
     AO2 PK WND 11030/1759 SLP944 P0001 T01000083 $=
PAIG 231856Z AUTO 19005KT 10SM CLR M02/M03 A3009 RMK AO2 SLP197
     T10221033 FZRANO $=
PAIK 231856Z AUTO 10004KT 10SM FEW008 M02/M02 A2991 RMK AO2 SLP132
     T10171022 FZRANO=
PAIN 231856Z AUTO 00000KT 4SM -SN BR BKN024 OVC033 M07/M08 A2997
     RMK AO2 SLP190 P0000 T10671083 FZRANO $=
PAJZ 231856Z AUTO 00000KT 7SM CLR M03/M04 A3014 RMK AO2 SLP213
     T10281039 FZRANO $=
PAKI 231856Z AUTO 21009KT 10SM OVC038 04/03 A2992 RMK AO2 SLP135
     T00390028 PNO $=
PAKK 231856Z AUTO 18010KT 10SM FEW018 SCT049 OVC065 00/00 A2987
     RMK AO2 SLP123 T00000000 FZRANO=
PAKP 231856Z AUTO 21009KT 3SM -SN BR OVC003 M10/M11 A2989 RMK AO2
     SLP180 P0000 T11001111 FZRANO=
PALG 231856Z AUTO 09007KT 4SM BR OVC003 M03/M04 A3003 RMK AO2
     SLP172 T10331039 FZRANO=
PAMB 231856Z AUTO 19004KT 8SM CLR M02/M03 A3011 RMK AO2 SLP201
     T10171033 FZRANO $=
PAMH 231856Z AUTO 00000KT 10SM OVC018 M04/M04 A3004 RMK AO2 SLP177
     T10391044 FZRANO=
KACP 231855Z AUTO 15008KT 10SM BKN047 BKN055 29/16 A3000 RMK
     AO2=
KAEJ 231855Z AUTO 17003KT 10SM 06/00 A2953 RMK AO2 T00600004=
KAGI 231855Z AUTO 15018KT 10SM CLR 28/17 A3000 RMK AO2
     T02790166=
KALX 231855Z AUTO 00000KT 7SM BKN001 23/04 A3016 RMK AO2
     T02330036=
KANW 231855Z AUTO 19021G26KT 10SM CLR 27/00 A2915 RMK AO2
     T02701001=
KARM 231855Z AUTO 16019G23KT 10SM BKN048 OVC065 29/16 A2990 RMK
     AO2 T02860158 TSNO=
KASN 231855Z AUTO 33004KT 10SM CLR 25/05 A3015 RMK AO2
     T02450045=
KAUO 231856Z AUTO 08003KT 10SM CLR 24/04 A3017 RMK AO2 SLP234
     T02390044=
KAVK 231855Z AUTO 19035G41KT 9SM CLR 27/12 A2952 RMK AO2 PWINO=
KAVQ 231855Z AUTO 28011G22KT 10SM SCT050 SCT065 24/08 A2979 RMK
     AO2 T02420076=
