SAUS80 KWBC 232024
METAR
KCUL 232013Z AUTO 17017G21KT 10SM CLR 28/09 A2996 RMK AO2=
KM25 232035Z AUTO 19012G17KT 10SM CLR 27/07 A3000 RMK AO2
     PWINO=
K77S 232035Z AUTO 00000KT 10SM FEW048 SCT055 14/03 A3019 RMK
     A01=
K9V9 232015Z AUTO 17008KT 10SM CLR 26/05 A2913 RMK AO2
     T02640048=
KCBE 232015Z AUTO 00000KT 10SM CLR 19/04 A3027 RMK AO2
     T01880043=
KSFY 232023Z AUTO 16019G27KT 7SM CLR 26/13 A2972 RMK AO2=
KDVK 232015Z AUTO 20007KT 10SM CLR 24/04 A3012 RMK AO2=
KNY0 232017Z AUTO 00000KT 10SM CLR 14/07 A3030 RMK AO2=
