SAUS70 KWBC 232000 RRQ
METAR
KBFD 231953Z AUTO 13008KT 10SM CLR 20/01 A3024 RMK AO2 SLP240
     T02000006=
KFVE 231953Z AUTO 18004KT 10SM CLR 21/07 A3030 RMK AO2 SLP261
     T02060067=
KHSI 231953Z AUTO 19020G36KT 9SM CLR 31/09 A2926 RMK AO2 PK WND
     19038/1933 SLP891 T03060089 $=
KHUF 231953Z 19017G27KT 9SM SCT055 26/12 A2996 RMK AO2 PK WND
     18032/1855 SLP141 T02610122=
KIML 231953Z AUTO 23024G39KT 10SM CLR 28/M03 A2919 RMK AO2 PK WND
     21041/1904 SLP857 T02831033 $=
KOTM 231953Z AUTO 15019G29KT 10SM CLR 26/14 A2959 RMK AO2 PK WND
     17030/1857 SLP013 T02610144=
KPBG 231953Z AUTO 00000KT 10SM CLR 17/07 A3028 RMK AO2 SLP257
     T01670067=
KPKB 231953Z 00000KT 10SM CLR 24/07 A3016 RMK AO2 SLP209
     T02440072=
KPLN 231954Z AUTO 17009KT 10SM FEW060 24/10 A2998 RMK AO2 SLP151
     T02440100 $=
KRAC 231953Z AUTO 17014G25KT 10SM CLR 19/13 A2986 RMK AO2 SLP110
     T01940128=
KSNY 231953Z AUTO 34020G26KT 10SM CLR 18/02 A2933 RMK AO2 PK WND
     35032/1900 SLP904 T01830017=
KDWH 231953Z 15012G25KT 10SM FEW070 31/14 A2988 RMK AO2 SLP116
     T03060144=
KEEO 231953Z AUTO 23004KT 1/2SM SN FZFG FEW008 BKN014 OVC025
     M01/M01 A2965 RMK AO2 SLP033 P0002 T10061011=
KGJT 231953Z 00000KT 5SM -RA BR BKN004 OVC017 01/01 A2966 RMK AO2
     RAE10B46SNB10E46 SLP028 P0009 T00110011=
KGUP 231953Z AUTO 21010KT 7SM -RA SCT021 OVC033 05/03 A2979 RMK
     AO2 SLP022 P0001 T00500033=
KMAF 231953Z 18018G25KT 10SM CLR 28/12 A2970 RMK AO2 PK WND
     18028/1930 SLP014 T02830117=
KMTJ 231953Z AUTO 29018G29KT 10SM -RA SCT029 BKN048 OVC060 04/02
     A2966 RMK AO2 PK WND 21036/1932 WSHFT 1933 RAB40 SLP000 P0000
     T00390017 $=
KODO 231953Z AUTO 18019KT 10SM CLR 28/12 A2971 RMK AO2 SLP015
     T02830122 $=
KRTN 231953Z AUTO 24034G46KT 10SM FEW090 19/M02 A2952 RMK AO2 PK
     WND 25053/1859 SLP923 T01941022=
KSGR 231953Z 16013G24KT 10SM FEW065 31/14 A2988 RMK AO2 PK WND
     14030/1906 SLP119 T03060144=
KSSF 231953Z 15017G23KT 10SM SCT049 29/18 A2978 RMK AO2 SLP075
     T02940178=
KTCC 231953Z AUTO 22032G46KT 10SM CLR 25/00 A2953 RMK AO2 PK WND
     22051/1932 SLP944 T02500000=
KTRL 231953Z AUTO 17018G28KT 10SM BKN055 29/15 A2981 RMK AO2 PK
     WND 18036/1940 SLP086 T02890150=
KALI 231953Z AUTO 15018G25KT 10SM BKN048 BKN060 30/21 A2978 RMK
     AO2 PK WND 12029/1941 SLP082 T03000206=
KAMA 231953Z AUTO 22018G31KT 10SM CLR 24/11 A2960 RMK AO2 PK WND
     21031/1947 SLP972 T02390106=
KAPA 231953Z 24017G27KT 10SM FEW050 SCT090 BKN200 16/M02 A2937 RMK
     AO2 PK WND 24039/1919 SLP887 SHSN OMTNS DSNT W-NW
     T01611022=
KASE 231953Z 03003KT 10SM FEW040 BKN048 OVC070 02/M01 A2958 RMK
     AO2 SNE24 SLP944 P0000 T00221006=
KFST 231953Z AUTO 21010G19KT 10SM CLR 31/07 A2972 RMK AO2 SLP017
     T03060072 $=
KGGG 231953Z 19018G28KT 10SM SCT055 31/13 A2986 RMK AO2 PK WND
     18028/1951 SLP106 T03060133=
KIAH 231953Z 16019G25KT 10SM SCT060 BKN250 29/16 A2989 RMK AO2 PK
     WND 15033/1915 SLP122 T02940161=
KPIL 231953Z AUTO 16021G31KT 10SM SCT045 SCT050 31/21 A2980 RMK
     AO2 PK WND 16033/1941 RAB1855E52 SLP090 P0000 T03060206=
KPUB 231953Z 23017G27KT 10SM CLR 21/02 A2941 RMK AO2 PK WND
     24031/1854 SLP896 T02110022=
KRKP 231953Z AUTO 15013G25KT 10SM SCT060 29/22 A2984 RMK AO2
     SLP106 T02940217=
KSDL 231953Z VRB04KT 10SM CLR 22/08 A2975 RMK AO2 SLP055
     T02170078=
KTKI 231953Z 17021G36KT 10SM CLR 29/14 A2977 RMK AO2 PK WND
     16039/1919 SLP075 T02940144=
KAIA 231953Z AUTO 30022G28KT 10SM CLR 17/03 A2930 RMK AO2 PK WND
     33034/1901 SLP906 T01670033=
KAUG 231953Z AUTO 00000KT 10SM CLR 18/09 A3037 RMK AO2 SLP285
     T01780089=
