SAUS70 KWBC 231640 RRE
METAR
KSWW 231635Z AUTO 18021G26KT 10SM CLR 26/14 A2981 RMK AO2
     T02560143=
KSZT 231635Z AUTO 00000KT 10SM SCT100 06/02 A2997 RMK AO2=
KT89 231635Z AUTO 11008KT 10SM CLR 27/05 A2985 RMK A01=
KAAA 231635Z AUTO 17016G25KT 10SM CLR 22/14 A2989 RMK AO2
     T02230143=
KADC 231636Z AUTO 12014KT 10SM CLR 19/10 A2953 RMK AO2 TSNO=
KBIE 231635Z AUTO 19024G29KT 10SM CLR 27/13 A2941 RMK AO2
     T02660128=
KBTA 231635Z AUTO 17019G25KT 10SM CLR 25/13 A2941 RMK AO2
     T02480131=
KBTN 231635Z AUTO 09014KT 10SM CLR 20/12 A2933 RMK AO2=
KC09 231635Z AUTO 17016G25KT 10SM CLR 23/14 A2990 RMK AO2
     T02290135=
KCCY 231635Z AUTO 16021KT 10SM CLR 21/13 A2963 RMK AO2=
KCDD 231633Z AUTO 15004KT 10SM CLR 18/08 A2970 RMK AO2=
KCKZ 231635Z AUTO 06008KT 10SM BKN100 16/09 A3028 RMK AO2=
KCSQ 231635Z AUTO 17018G27KT 10SM CLR 24/14 A2953 RMK AO2=
KHCD 231635Z AUTO 13018G23KT 10SM CLR 22/12 A2954 RMK AO2
     T02160120=
KM30 231635Z AUTO 20015G18KT 10SM BKN049 24/13 A3005 RMK AO2
     T02410129=
KMOP 231635Z AUTO 15011G14KT 10SM SCT055 21/11 A3006 RMK AO2
     T02120111=
KMUT 231635Z AUTO 17018G25KT 10SM CLR 23/14 A2975 RMK AO2=
KOXD 231635Z AUTO 19012G18KT 10SM CLR 24/08 A3014 RMK AO2
     T02400080=
KOXI 231635Z AUTO 18015G21KT 10SM BKN075 22/11 A3000 RMK AO1=
KOXV 231635Z AUTO 18015G25KT 10SM CLR 24/13 A2961 RMK AO2=
KPCW 231635Z AUTO 13005KT 10SM CLR 23/11 A3015 RMK AO2=
KPRO 231635Z AUTO 16021G27KT 10SM CLR 25/13 A2953 RMK AO2
     T02450125=
KPTD 231635Z AUTO 00000KT 10SM CLR 21/03 A3030 RMK AO2=
KPVB 231635Z AUTO 15016G22KT 10SM CLR 21/12 A2980 RMK AO1
     T02080119=
KRZL 231635Z AUTO 17015G24KT 10SM OVC060 22/12 A3000 RMK AO2=
KSAR 231635Z AUTO 19018G23KT 10SM BKN027 22/15 A2995 RMK AO2
     T02170145=
KSLO 231635Z AUTO 18017G24KT 10SM SCT032 23/14 A2997 RMK AO2
     T02310138=
KC75 231635Z AUTO 19014G21KT 10SM CLR 22/15 A2985 RMK AO2
     T02240150=
KCAV 231635Z AUTO 16023G31KT 10SM CLR 22/14 A2955 RMK A01=
KCBF 231635Z AUTO 18017G24KT 10SM CLR 25/11 A2942 RMK AO2=
KCCU 231635Z AUTO 30008KT 1/4SM -SN OVC001 M02/M04 A2963 RMK
     AO2=
KCIN 231635Z AUTO 16027G34KT 9SM CLR 23/15 A2947 RMK AO2=
KCKF 231635Z AUTO 12004KT 10SM CLR 23/09 A3021 RMK AO2
     T02250090=
KCMD 231635Z AUTO 16011KT 10SM CLR 22/05 A3021 RMK AO2=
KCNC 231635Z AUTO 18020G28KT 10SM CLR 24/14 A2960 RMK AO2=
KCOM 231635Z AUTO 19016G21KT CLR 25/15 A2985 RMK AO2 T02530151
     PWINO=
KCUH 231635Z AUTO 18019G26KT 10SM CLR 24/16 A2972 RMK AO2
     T02350160=
KCWV 231635Z AUTO 06005KT 7SM CLR 24/12 A3018 RMK AO2
     T02420117=
KD73 231635Z AUTO 07004KT 10SM CLR 20/04 A3024 RMK AO2
     T01980043=
KDKB 231635Z AUTO 16019G24KT 10SM CLR 21/14 A2990 RMK AO2
     T02080140=
KDKR 231635Z AUTO 16013G18KT 120V180 10SM BKN033 BKN041 BKN049
     26/19 A2995 RMK AO2=
KDNS 231635Z AUTO RMK AO2 PNO PWINO=
KDNV 231635Z AUTO 17017G23KT 10SM CLR 24/12 A2999 RMK AO2
     T02410123=
KDVO 231635Z AUTO 32014G20KT 10SM CLR 15/01 A3002 RMK AO2=
KE11 231635Z AUTO 20014G18KT 10SM CLR 25/10 A2980 RMK AO2
     T02500100=
KE16 231635Z AUTO 33011G16KT 10SM CLR 13/06 A3001 RMK AO2=
KE41 231635Z AUTO 19011G19KT 10SM CLR 22/15 A2986 RMK AO2
     T02160153=
KECU 231635Z AUTO 15014G21KT 10SM BKN013 22/17 A2995 RMK AO2=
KEZZ 231635Z AUTO 20020G29KT 10SM CLR 26/14 A2962 RMK AO2
     T02600141=
KFEP 231635Z AUTO 16016KT 10SM SCT065 22/15 A2986 RMK AO2
     T02180146=
KFFL 231635Z AUTO 16019KT 10SM CLR 23/13 A2969 RMK A01=
KFKR 231635Z AUTO 17014G26KT 10SM CLR 23/12 A3004 RMK AO2=
KFMM 231635Z AUTO 26020G26KT 10SM CLR 19/M03 A2927 RMK AO2=
