SAUS70 KWBC 231700 RRU
METAR
KDCY 231655Z AUTO 18016G21KT 10SM CLR 24/12 A3005 RMK AO2
     T02410116=
KGOV 231658Z AUTO 17014G19KT 10SM CLR 22/11 A3004 RMK AO2 SLP176
     T02190107 $=
KJVY 231655Z AUTO 21012KT 10SM CLR 24/10 A3012 RMK AO2 PWINO=
KUYF 231655Z AUTO 21004KT 10SM SCT047 22/08 A3017 RMK AO2=
K6S8 231655Z AUTO 28015G20KT 10SM 04/M00 A2962 RMK A01 LAUREL=
KBMC 231655Z AUTO 10SM SCT040 SCT048 OVC090 05/M02 A2977 RMK AO1
     T00451017=
KGNB 231655Z AUTO 22006KT 10SM BKN017 OVC022 03/00 A2956 RMK AO2
     T00330002=
KGNC 231655Z AUTO 21017G21KT 10SM CLR 26/10 A2981 RMK AO2
     T02640095=
KMMH 231654Z AUTO 34011G15KT 10SM CLR 03/M08 A2995 RMK AO2=
KOSA 231650Z AUTO 19013KT 10SM BKN032 OVC041 26/18 A2993 RMK AO2
     T02560180=
KPEQ 231655Z AUTO 22012G17KT 10SM CLR 30/08 A2977 RMK AO2
     T03000079=
KPEZ 231700Z AUTO 17015G21KT 10SM SCT038 28/18 A2990 RMK AO2
     T02840181=
KPVW 231650Z AUTO 23020G31KT 10SM BKN120 25/10 A2970 RMK AO2
     T02520101=
KTXW 231650Z AUTO 16016G21KT 1SM HZ BKN037 30/19 A2986 RMK AO2 VIS
     1/2V3 T03030190=
KSUN 231655Z 34012G21KT 10SM SKC 04/M11 A2980=
KOCW 231655Z AUTO 34008KT 10SM OVC013 16/13 A3013 RMK AO2
     T01620126=
