SAUS80 KWBC 231700 RRC
METAR
PHJR 231653Z 00000KT 10SM FEW080 23/20 A3002 RMK AO2 RAB18E33
     SLP170 P0000 T02280200=
PHNL 231653Z 06009KT 10SM SCT033 BKN049 BKN070 25/22 A3000 RMK AO2
     RAB02E14 SLP158 P0001 T02500217=
PABE 231653Z 14007KT 1/2SM FZFG VV003 M02/M03 A3003 RMK AO2
     FZRAB19E24SNB24E40 SLP172 P0000 I1002 T10221028 RVRNO=
PABT 231653Z 00000KT 10SM FEW008 OVC035 M06/M07 A3002 RMK AO2
     SLP183 T10561072 $=
PACD 231653Z 23008KT 10SM BKN034 05/03 A3022 RMK AO2 SLP235
     T00500033=
PADQ 231653Z 28008KT 10SM CLR 05/M02 A2989 RMK AO2 SLP124
     T00501022=
PAFA 231653Z 00000KT 1/4SM FZFG VV003 M01/M02 A2999 RMK AO2 SNE23
     SLP166 P0000 T10111022 RVRNO $=
PAHO 231653Z 00000KT 10SM CLR M02/M04 A2990 RMK AO2 SLP125 I1000
     T10221044=
PAJN 231653Z 08014G19KT 10SM FEW021 BKN070 OVC110 06/M02 A2955 RMK
     AO2 SLP007 T00611017 $=
PANC 231653Z 01006KT 10SM BKN220 M02/M06 A2987 RMK AO2 SLP117
     T10221061=
PANN 231653Z AUTO 31003KT 9SM OVC007 M02/M02 A3000 RMK AO2 SLP168
     T10171022 TSNO=
PAOM 231653Z 16012KT 10SM OVC015 04/02 A2976 RMK AO2 RAE53 SLP079
     P0009 T00440022=
PAOR 231653Z 30005KT 10SM BKN042 OVC050 M05/M06 A2984 RMK AO2
     SNE47 SLP146 P0000 T10501061 $=
PAOT 231653Z 21012KT 10SM BKN018 00/M01 A2983 RMK AO2 SLP100
     T00001011=
PASN 231653Z AUTO 19029G39KT 4SM -RA BR BKN010 OVC018 06/04 A2980
     RMK AO2 PK WND 19039/1649 SLP091 P0008 T00560044 TSNO $=
PATK 231653Z 00000KT 10SM CLR M06/M08 A2990 RMK AO2 SLP131
     T10561083=
KCHA 231653Z 00000KT 10SM FEW060 21/05 A3022 RMK AO2 SLP231
     T02110050=
KFAT 231653Z 31012KT 10SM CLR 14/02 A2994 RMK AO2 SLP137
     T01390022=
KFNT 231653Z 16012KT 10SM CLR 22/12 A3012 RMK AO2 SLP197
     T02220122=
KBNO 231653Z AUTO 26005KT 10SM OVC041 03/M02 A3004 RMK AO2 SLP187
     T00281022 $=
KGEG 231653Z 16004KT 10SM FEW024 BKN039 BKN075 03/01 A2998 RMK AO2
     SLP165 T00330006 $=
KHSV 231653Z 18007KT 10SM FEW150 FEW250 23/06 A3019 RMK AO2 SLP218
     T02330061=
KHTL 231653Z AUTO 17013G19KT 10SM CLR 21/11 A3007 RMK AO2 SLP180
     T02060111=
KJBR 231653Z AUTO 19017G26KT 10SM SCT040 OVC049 24/14 A3001 RMK
     AO2 PK WND 20026/1650 SLP159 T02390139 $=
KLAN 231653Z AUTO 16012G17KT 10SM FEW055 22/12 A3009 RMK AO2
     SLP186 T02170117 $=
KLIT 231653Z 20018G22KT 10SM BKN035 26/16 A2999 RMK AO2 SLP155
     T02560156=
KMCN 231653Z VRB05KT 10SM CLR 23/11 A3020 RMK AO2 SLP226
     T02330111=
KMGM 231653Z 00000KT 10SM CLR 23/07 A3020 RMK AO2 SLP223
     T02280067=
KTYS 231653Z 00000KT 10SM CLR 21/07 A3022 RMK AO2 SLP227
     T02110067=
KUIL 231653Z AUTO 10SM CLR 06/04 A3009 RMK AO2 SLP191
     T00560044=
KYKM 231653Z AUTO 00000KT 10SM CLR 08/00 A3005 RMK AO2 SLP181
     T00830000=
KSEA 231653Z 19004KT 10SM SCT010 BKN026 BKN048 07/06 A3012 RMK AO2
     SLP207 T00720061 $=
KSTC 231653Z 12010KT 10SM CLR 21/12 A2956 RMK AO2 PK WND
     14026/1633 SLP014 T02110117=
KTRI 231653Z VRB03KT 10SM FEW250 19/03 A3024 RMK AO2 SLP228
     T01940028 $=
KTUP 231653Z 17014KT 10SM CLR 24/11 A3014 RMK AO2 SLP203 T02440106
     $=
KODX 231653Z AUTO 17016G26KT 10SM CLR 23/07 A2926 RMK AO2 PK WND
     17026/1649 SLP899 T02330067=
KPDX 231653Z 15006KT 10SM FEW006 BKN055 11/07 A3014 RMK AO2 SLP204
     T01060072=
KPOV 231655Z AUTO 13004KT 10SM CLR 20/04 A3022 RMK AO2 T01950040
     PWINO=
KRMG 231653Z AUTO 00000KT 10SM CLR 21/06 A3021 RMK AO2 SLP225
     T02110061=
KCQC 231653Z AUTO 24034G45KT 10SM FEW049 SCT070 SCT090 15/03 A2976
     RMK AO2 PK WND 23045/1637 SLP999 T01500033=
KNAK 231654Z AUTO 35009KT 10SM OVC055 17/11 A3022 RMK AO2 SLP233
     T01670106=
