SAUS70 KWBC 231620 RRE
METAR
KY31 231615Z AUTO 13008KT 10SM CLR 21/10 A3009 RMK AO2
     T02050104=
KY70 231615Z AUTO 15013G19KT 10SM CLR 21/10 A3007 RMK AO2
     T02060103=
KC09 231615Z AUTO 17018G22KT 10SM CLR 23/13 A2991 RMK AO2
     T02260133=
KCCY 231615Z AUTO 14020G32KT 10SM CLR 20/13 A2964 RMK AO2=
KCDI 231615Z AUTO 00000KT 10SM CLR 19/09 A3022 RMK AO2
     T01850087=
KCNB 231615Z AUTO 09018G22KT 10SM CLR 20/11 A2943 RMK AO2
     T01950114=
KD39 231615Z AUTO 13012G18KT 10SM CLR 19/11 A2954 RMK AO2
     T01890110=
KLVN 231615Z AUTO 14014G20KT 10SM CLR 21/11 A2961 RMK AO2=
KMCD 231615Z AUTO 00000KT 10SM CLR 18/11 A3005 RMK AO2
     T01820114=
KMOX 231615Z AUTO 14022G28KT 10SM CLR 19/09 A2946 RMK AO2=
KMUT 231615Z AUTO 16019G25KT 10SM CLR 23/14 A2976 RMK AO2=
KMWM 231615Z AUTO 13018G29KT 10SM CLR 19/12 A2947 RMK AO2=
KMZH 231615Z AUTO 04003KT 10SM SCT070 OVC075 16/10 A2966 RMK
     AO2=
KPJC 231615Z AUTO RMK AO2 TSNO PWINO=
KPTD 231615Z AUTO 00000KT 10SM CLR 20/03 A3031 RMK AO2=
KPVB 231615Z AUTO 16017G21KT 10SM CLR 21/12 A2980 RMK AO1
     T02060120=
KRMY 231615Z AUTO 15011KT 10SM CLR 21/11 A3009 RMK AO2
     T02050110=
KRQB 231615Z AUTO 15011G16KT 10SM SCT050 SCT075 21/12 A3004 RMK
     AO2 T02090118=
KRRT 231615Z AUTO 06011KT 10SM 09/07 A2963 RMK AO2=
KTOB 231615Z AUTO 15021G26KT 10SM CLR 20/12 A2963 RMK AO2=
KULM 231615Z AUTO 14017G23KT 10SM CLR 21/11 A2952 RMK AO2=
KVLL 231615Z AUTO 16009KT 10SM CLR 21/10 A3017 RMK AO2
     T02120101=
K6S8 231610Z AUTO 27009G19KT 10SM 05/M01 A2960 RMK A01 LAUREL=
KCWC 231615Z AUTO 17018G29KT 10SM CLR 26/16 A2976 RMK AO2
     T02630161=
KDSF 231615Z AUTO 06006KT 10SM FEW041 26/14 A3014 RMK A01=
KDTA 231615Z AUTO 35014G20KT 10SM SCT050 OVC060 01/M01 A2976 RMK
     AO1=
KDZB 231615Z AUTO 19011G19KT 10SM BKN026 BKN035 OVC041 25/17 A2991
     RMK AO2 T02470170=
KEKS 231615Z AUTO 02007KT 1 3/4SM -SN VV007 M01/M02 A2976 RMK
     AO2=
KF05 231615Z AUTO 20021G27KT 10SM CLR 29/13 A2970 RMK AO2
     T02870125=
KFLY 231615Z AUTO 22029G43KT CLR 15/M04 A2945 RMK AO2 T01521040
     PWINO=
KGDJ 231615Z AUTO 18019G26KT 10SM CLR 26/16 A2985 RMK AO2
     T02570163=
KGLX 231615Z AUTO 06008KT 10SM CLR 25/12 A3014 RMK A01=
KM75 231615Z AUTO 01016KT 10SM OVC015 02/02 A2957 RMK A01=
KMNZ 231615Z AUTO 19021G27KT 10SM OVC028 26/16 A2988 RMK AO2
     T02550162=
KMVH 231615Z AUTO 30021G27KT 5SM HZ FEW050 M00/M02 A2957 RMK AO2
     PWINO=
KPRS 231615Z AUTO 00000KT 10SM CLR 26/12 A2988 RMK AO2
     T02580118=
KPYX 231615Z AUTO 22021G28KT 10SM CLR 25/08 A2959 RMK AO2
     T02530083=
KRTS 231615Z AUTO 00000KT 10SM FEW031 02/M06 A3002 RMK AO2=
KSWW 231615Z AUTO 19020G29KT 10SM CLR 25/14 A2981 RMK AO2
     T02510137=
KT89 231615Z AUTO 09006KT 10SM CLR 26/05 A2986 RMK A01=
KTYL 231615Z AUTO 24013G23KT 3SM -RA BKN026 09/09 A2980 RMK
     AO2=
K14Y 231615Z AUTO 15014G19KT 10SM CLR 18/10 A2956 RMK AO2=
K21D 231615Z AUTO 15010G17KT 10SM CLR 20/11 A2964 RMK AO2=
K6B0 231615Z AUTO 00000KT 10SM CLR 17/06 A3034 RMK AO2
     T01730057=
KACB 231615Z AUTO 16009G16KT 10SM CLR 22/12 A3002 RMK AO2
     T02200118=
KADC 231615Z AUTO 14013G17KT 10SM CLR 19/09 A2954 RMK AO2 TSNO=
KAEL 231615Z AUTO 15020G27KT 10SM CLR 20/13 A2959 RMK AO2=
KANW 231615Z AUTO 16013KT 10SM CLR 17/02 A2920 RMK AO2
     T01670020=
KAUM 231617Z AUTO 16012G22KT 10SM CLR 20/13 A2963 RMK AO2=
KAXV 231615Z AUTO 17009KT 10SM CLR 20/10 A3015 RMK AO2=
KBAX 231615Z AUTO 17008KT 10SM CLR 21/12 A3014 RMK AO2
     T02060119=
KBCK 231615Z AUTO 16006G14KT 10SM CLR 21/12 A2974 RMK AO2
     T02080122=
KBNW 231615Z AUTO 16023G28KT 10SM CLR 22/13 A2957 RMK AO2=
