SAUS80 KWBC 231842
METAR
K9V9 231835Z AUTO 14018G22KT 10SM CLR 23/09 A2916 RMK AO2
     T02310085=
KAYS 231835Z AUTO 00000KT 10SM CLR 26/12 A3013 RMK AO2
     T02550118=
KCBE 231835Z AUTO 24005KT 10SM CLR 18/06 A3029 RMK AO2
     T01790065=
KGIC 231835Z AUTO 00000KT 10SM BKN020 BKN025 OVC032 03/00 A3000
     RMK AO1=
K40U 231835Z AUTO 28010KT 10SM SCT039 01/M04 A2969 RMK AO2
     T00151036=
K4BM 231835Z AUTO M1/4SM +SN OVC002 M02/M03 A2962 RMK AO2=
KIZA 231835Z AUTO 29006KT 10SM CLR 19/03 A2989 RMK AO2=
KSOA 231835Z AUTO 17016G22KT 10SM 27/15 A2986 RMK AO2=
KCKP 231835Z AUTO 18021G28KT 10SM CLR 26/12 A2939 RMK AO2
     T02640120=
KSFY 231843Z AUTO 15020G24KT 10SM CLR 25/13 A2974 RMK AO2=
KGIC 231835Z AUTO 00000KT 10SM BKN020 BKN025 OVC032 03/00 A3000
     RMK AO1=
KPSN 231835Z AUTO 16012G20KT 120V180 10SM SCT050 BKN060 BKN065
     29/16 A2988 RMK AO2=
