SAUS80 KWBC 232048
METAR
KCUL 232033Z AUTO 15015G21KT 10SM CLR 28/09 A2995 RMK AO2=
KNY0 232034Z AUTO 00000KT 10SM CLR 16/06 A3030 RMK AO2=
KSFY 232042Z AUTO 15022G27KT 7SM CLR 25/14 A2971 RMK AO2=
KLZZ 232035Z AUTO 18013G18KT 10SM CLR 28/14 RMK AO2 T02800142=
