SAUS80 KWBC 231900
METAR
KCQT 231847Z AUTO 00000KT 10SM CLR 21/08 A2986 RMK AO2 SLP109
     T02060083=
KGNT 231855Z AUTO 30015G20KT 5SM -RA SCT018 BKN028 OVC034 10/06
     A2981 RMK AO2 T01000062=
