SAUS70 KWBC 232000 RRK
METAR
KY70 231955Z AUTO 17018G23KT 10SM SCT055 24/09 A3001 RMK AO2
     T02400085=
KYKN 231956Z AUTO 15025G30KT 10SM CLR 29/11 A2921 RMK AO2 PK WND
     15033/1920 SLP894 T02890111=
PAAK 231956Z AUTO 24005KT 10SM -RA BKN026 OVC032 A3026 RMK AO2
     SLPNO P0000 FZRANO $=
PABV 231956Z AUTO 22004KT 10SM CLR M02/M03 A2991 RMK AO2 SLP135
     T10171033 FZRANO=
PAFM 231956Z AUTO 13009G16KT 10SM OVC018 M01/M02 A2997 RMK AO2
     SLP158 T10111022 FZRANO=
PAGL 231956Z AUTO 16022G27KT 10SM OVC013 03/01 A2983 RMK AO2 PK
     WND 16027/1952 SLP096 T00280011 PWINO $=
PAGN 231956Z AUTO 08011G16KT 040V100 10SM -RA FEW009 OVC036 03/03
     A2943 RMK AO2 SLP956 P0002 T00330028=
PAKK 231956Z AUTO 17009KT 10SM BKN042 OVC049 01/00 A2986 RMK AO2
     SLP120 T00060000 FZRANO=
PAKP 231956Z AUTO 20013KT 2 1/2SM -SN BR OVC003 M11/M12 A2989 RMK
     AO2 VIS 1V5 SLP181 P0000 T11061117 FZRANO=
PANA 231956Z AUTO 15011KT 10SM FEW032 OVC046 00/M01 A2997 RMK AO2
     SLP149 T00001006 FZRANO TSNO $=
PANV 231956Z AUTO 14006KT 1/4SM FZFG OVC003 M03/M03 A2998 RMK AO2
     SLP257 T10281033 FZRANO TSNO=
PAOH 231956Z AUTO 09011G18KT 10SM -RA OVC016 04/03 A2947 RMK AO2
     SLP980 T00390028 PNO $=
PAQH 231956Z AUTO 11009KT 10SM OVC035 01/01 A3000 RMK AO2 SLP159
     T00110011 FZRANO=
PASL 231956Z AUTO 04003KT 10SM CLR M01/M02 A3010 RMK AO2 SLP187
     T10111022 FZRANO=
PATQ 231956Z AUTO 11011KT 10SM CLR M09/M11 A2993 RMK AO2 SLP140
     T10941106 FZRANO TSNO=
PAZK 231956Z AUTO 14003KT 9SM OVC026 M05/M08 A2978 RMK AO2 SNE51
     SLP147 P0000 T10501083 FZRANO=
PFSH 231956Z AUTO 15018KT 10SM BKN040 02/M02 A2991 RMK AO2 SLP129
     T00171017 FZRANO=
PFWS 231956Z AUTO 06004KT 10SM CLR 02/M02 A3013 RMK AO2 SLP246
     T00171017 FZRANO=
KBKE 231953Z AUTO 35014KT 10SM FEW038 07/M02 A3004 RMK AO2 SLP190
     T00721017=
KBLI 231953Z 18006KT 10SM CLR 10/08 A3015 RMK AO2 SLP216
     T01000078=
KBTM 231953Z AUTO 32010KT 10SM FEW018 BKN046 OVC055 01/M03 A2982
     RMK AO2 SNE19 SLP120 P0000 T00061028=
KBUR 231953Z 26008KT 10SM CLR 23/M01 A2984 RMK AO2 SLP094
     T02331011=
KCDC 231953Z AUTO 34007KT 1 1/4SM -SN BR OVC005 M01/M01 A2988 RMK
     AO2 SLP120 T10061011 PNO $=
KTYR 231953Z 17019G27KT 10SM BKN055 29/15 A2985 RMK AO2 PK WND
     17031/1902 SLP099 T02940150=
KVGT 231953Z 33020G32KT 10SM CLR 17/M09 A2984 RMK AO2 PK WND
     34032/1948 SLP111 T01721089 $=
KACV 231953Z AUTO 31016G21KT 10SM CLR 14/07 A3015 RMK AO2 SLP216
     T01390072=
KALW 231953Z 22006KT 10SM FEW038 BKN046 OVC085 10/01 A3008 RMK AO2
     SLP190 T01000011 $=
KBFI 231953Z 17007KT 10SM BKN015 BKN024 11/07 A3016 RMK AO2 SLP213
     T01060067=
KBLH 231952Z AUTO 30009KT 10SM CLR 24/01 A2977 RMK AO2 SLP074
     T02440011 TSNO=
KBOI 231953Z 30016KT 10SM SCT044 SCT075 09/M01 A2997 RMK AO2
     SLP153 T00941011=
KBPI 231953Z AUTO 32023G33KT 10SM FEW050 03/M10 A2965 RMK AO2 PK
     WND 34036/1925 SLP022 T00281100=
KCLM 231953Z AUTO VRB05KT 10SM CLR 11/06 A3015 RMK AO2 SLP212
     T01060056=
KPDT 231953Z 29012KT 10SM CLR 11/03 A3009 RMK AO2 SLP186
     T01110028=
KPRB 231953Z AUTO 29007KT 10SM CLR 19/02 A2996 RMK AO2 SLP143
     T01890017 $=
KPSC 231953Z 32005KT 10SM CLR 14/M02 A3009 RMK AO2 SLP190
     T01441017 $=
KVEL 231953Z AUTO 00000KT 10SM FEW011 03/01 A2966 RMK AO2 SLP044
     T00330006=
K20U 231955Z AUTO 36011KT 10SM OVC008 06/06 A2942 RMK AO2=
KAGC 231953Z 10004KT 10SM CLR 22/03 A3018 RMK AO2 SLP222
     T02220033=
KARB 231953Z 16011G20KT 10SM FEW060 24/09 A3007 RMK AO2 SLP181
     T02390094=
KBKL 231953Z 14008KT 10SM CLR 24/07 A3012 RMK AO2 SLP198
     T02440072=
