SAUS80 KWBC 231946
METAR
KROS 231943Z AUTO 12014G20KT 10SM SCT045 26/14 A2955 RMK AO2=
