SAUS80 KWBC 231700 RRC
METAR
KCUL 231653Z AUTO 17021G29KT 10SM SCT047 26/12 A3001 RMK AO2=
KDVK 231650Z AUTO 21006KT 10SM CLR 22/06 A3019 RMK AO2=
KNY0 231656Z AUTO 00000KT 10SM CLR 14/07 A3033 RMK AO2=
KPSN 231655Z AUTO 19013G22KT 10SM SCT039 SCT046 BKN050 27/18 A2992
     RMK AO2=
KSOA 231655Z AUTO 16015KT 10SM CLR 24/16 A2990 RMK AO2=
KMEH 231656Z AUTO 00000KT 10SM BKN012 BKN060 02/01 A3000 RMK AO2
     SNB31E48 SLP179 P0000 T00220006=
KP53 231656Z AUTO 17011G20KT 19/12 A2993 RMK AO1 SLP134
     T01940122=
KP58 231655Z AUTO 13010KT 14/12 A3012 RMK AO1 SLP198 T01440117=
