SAUS70 KWBC 231800 RRX
METAR
K2G9 231755Z AUTO 14003KT 10SM CLR 16/02 A3026 RMK AO2=
KAOH 231753Z AUTO 16017G24KT 10SM CLR 23/10 A3011 RMK AO2 PK WND
     14027/1730 SLP194 T02330100 10239 20128 58015=
KBUU 231755Z AUTO 18009G16KT 10SM CLR 23/13 A2986 RMK AO2
     T02310131 10231 20125 PWINO=
KI75 231755Z AUTO 15018G25KT 10SM CLR 26/15 A2956 RMK AO2
     T02620145 10262 20160=
KIIB 231755Z AUTO 15021G26KT 7SM CLR 24/14 A2967 RMK AO2 T02400138
     10241 20135=
KIJX 231755Z AUTO 16015G21KT 10SM CLR 23/14 A2983 RMK AO2
     T02300141 10230 20167=
KJYR 231755Z AUTO 18020G29KT 9SM CLR 28/12 A2932 RMK AO2=
KMGC 231755Z AUTO 19015G19KT 10SM CLR 24/12 A2995 RMK AO2=
KMLE 231755Z AUTO 16015G26KT 10SM CLR 27/13 A2940 RMK AO2
     T02720127 10277 20165=
KMQB 231755Z AUTO 17020G23KT 10SM CLR 22/12 A2980 RMK AO2
     T02240122 10228 20145=
K04V 231755Z AUTO 17015G20KT 10SM SCT070 SCT085 07/02 A2960 RMK
     AO2=
K5C1 231755Z AUTO 17012G17KT 10SM BKN035 25/15 A2990 RMK AO1=
K5SM 231757Z AUTO 21010KT M1/4SM SN OVC004 M05/M06 A2964 RMK
     AO2=
K6P9 231755Z AUTO 18015G26KT 10SM CLR 27/15 A2981 RMK AO2
     T02680150 10268 20185=
KCZT 231755Z AUTO 14010G18KT 10SM SCT029 27/18 A2982 RMK AO2=
KDKR 231755Z AUTO 17014G20KT 10SM FEW047 BKN055 28/16 A2994 RMK
     AO2=
KFWZ 231755Z AUTO 34012G19KT 10SM SCT009 SCT014 OVC029 M02/M04
     A2955 RMK AO2=
KJAS 231755Z AUTO 18007G19KT 150V210 9SM SCT038 BKN055 27/19 A2997
     RMK AO2=
KLLN 231755Z AUTO 20021KT 10SM CLR 27/10 A2973 RMK AO2=
KLMO 231755Z AUTO 04004KT 7SM CLR 21/M03 A2932 RMK AO2 T02081027
     10217 20062=
KLUV 231755Z AUTO 21018G27KT 10SM CLR 29/09 A2976 RMK AO2=
KNOW 231755Z AUTO 00000KT 10SM CLR 10/06 A3012 RMK AO2 T01020064
     10107 20075=
KORG 231755Z AUTO 15011G18KT 10SM BKN060 BKN070 30/18 A3001 RMK
     AO2 T03010182 10308 20210=
KRBO 231755Z AUTO 10SM SCT001 BKN037 30/20 A2988 RMK AO2 T02980200
     10300 20225=
KSLR 231750Z AUTO 19021G27KT 10SM BKN044 28/15 A2989 RMK AO2
     T02790146 10279 20207=
KTOC 231755Z AUTO 12003KT 10SM CLR 22/01 A3020 RMK AO2 T02210009
     10226 20066=
KTXW 231750Z AUTO 16016G26KT 1/2SM HZ VV005 31/18 A2984 RMK AO2
     VIS 1/4V2 T03100176 10312 20220=
KULS 231755Z AUTO 23033G47KT 2SM HZ CLR 27/00 A2940 RMK AO2=
KWHP 231750Z 33020G34KT 10SM SKC 19/M02 A2990 RMK OBSERVER HT=
KWWR 231755Z AUTO 19022G30KT 10SM CLR 27/11 A2958 RMK AO2=
KX26 231755Z AUTO 36013KT 10SM CLR 27/18 A3009 RMK AO2 T02660183
     10272 20182=
K19S 231755Z AUTO 22034G44KT 2SM HZ SCT019 SCT025 SCT035 29/03
     A2943 RMK AO2 T02940033 10296 20192=
K20V 231755Z AUTO 24013KT 10SM SCT024 BKN046 OVC085 04/01 A2957
     RMK AO2=
K2J5 231755Z AUTO 34010KT 10SM CLR 24/10 A3017 RMK AO2 T02400105
     10247 20060=
KADH 231755Z AUTO 18016G24KT 10SM CLR 26/16 A2979 RMK AO2=
KADT 231755Z AUTO 21032G45KT 10SM CLR 28/00 A2933 RMK AO2
     T02791004 10280 20159=
KANK 231755Z AUTO 26012G16KT 10SM SCT036 BKN050 OVC070 08/00 A2962
     RMK AO1 T00750000 10128 20063=
KBMC 231750Z AUTO 10SM BKN070 OVC090 05/M02 A2979 RMK AO1
     T00471018=
KCHK 231755Z AUTO 16020G29KT 10SM CLR 27/16 A2967 RMK AO2
     T02730165 10274 20194=
KDCY 231755Z AUTO 18018G21KT 10SM CLR 25/11 A3002 RMK AO2
     T02520111 10253 20165=
KDUB 231754Z AUTO 27023G29KT 10SM OVC110 00/M08 A2957 RMK AO2=
KEAN 231750Z AUTO 32006KT 10SM -RA SCT034 OVC045 09/02 A2942 RMK
     AO2 T00870020 10119 20084=
KEBS 231755Z AUTO 16024G31KT 10SM CLR 24/14 A2950 RMK AO2=
KGLE 231755Z AUTO 17019G29KT 10SM CLR 27/15 A2981 RMK AO2
     T02730150 10274 20191=
