SAUS70 KWBC 232000 RRJ
METAR
KSTJ 231953Z 18020G36KT 10SM CLR 27/14 A2950 RMK AO2 PK WND
     18036/1939 LTG DSNT SW AND W SLP982 T02720139=
KSTP 231953Z 14019G29KT 10SM CLR 25/13 A2952 RMK AO2 PK WND
     15035/1926 SLP990 T02500128=
KSWO 231953Z 18025G31KT 10SM CLR 29/14 A2962 RMK AO2 PK WND
     19034/1912 SLP015 T02940144=
KTCC 231953Z AUTO 22032G46KT 10SM CLR 25/00 A2953 RMK AO2 PK WND
     22051/1932 SLP944 T02500000=
KTHV 231953Z AUTO 02004KT 10SM OVC065 17/08 A3023 RMK AO2 SLP242
     T01670083=
KTKI 231953Z 17021G36KT 10SM CLR 29/14 A2977 RMK AO2 PK WND
     16039/1919 SLP075 T02940144=
KTOP 231953Z 16012G22KT 10SM VCTS FEW031 SCT080 BKN110 25/18 A2950
     RMK AO2 PK WND 21041/1928 LTG DSNT N-E RAB29E50 TSB27E45
     SLP982 P0002 T02500178=
KTOR 231953Z AUTO 30024G36KT 10SM FEW085 FEW110 09/01 A2937 RMK
     AO2 PK WND 29036/1950 PRESRR SLP926 T00940011=
KTRL 231953Z AUTO 17018G28KT 10SM BKN055 29/15 A2981 RMK AO2 PK
     WND 18036/1940 SLP086 T02890150=
KTTN 231953Z 05011KT 10SM OVC048 17/10 A3021 RMK AO2 SLP225
     T01670100=
KTUL 231953Z 17023G36KT 10SM SCT180 BKN250 28/16 A2966 RMK AO2 PK
     WND 16036/1858 SLP034 T02830161=
KTVC 231953Z 15010G22KT 120V200 10SM SCT055 BKN250 24/11 A2993 RMK
     AO2 SLP132 T02440111=
KTVR 231953Z AUTO 17015G20KT 10SM SCT055 29/14 A3001 RMK AO2 PK
     WND 18026/1926 SLP167 T02940144=
KTXK 231953Z 19015G23KT 10SM BKN050 29/15 A2988 RMK AO2 PK WND
     16027/1934 SLP112 T02940150=
KTYR 231953Z 17019G27KT 10SM BKN055 29/15 A2985 RMK AO2 PK WND
     17031/1902 SLP099 T02940150=
KUNO 231953Z AUTO 17018G28KT 10SM CLR 25/14 A2987 RMK AO2 PK WND
     18028/1951 SLP105 T02500139=
KUTS 231953Z AUTO 10SM SCT065 31/12 A2988 RMK AO2 SLP111
     T03060122=
KUUU 231953Z AUTO 04005KT 7SM -RA OVC039 14/12 A3029 RMK AO2 RAB25
     SLP256 P0001 T01390122=
KVIH 231953Z AUTO 16018G29KT 10SM FEW110 26/14 A2978 RMK AO2 PK
     WND 15031/1933 SLP075 T02610144 $=
KVLD 231953Z VRB03KT 10SM CLR 27/08 A3011 RMK AO2 SLP201
     T02670078=
KWLD 231954Z AUTO 18027G38KT 10SM CLR 28/14 A2957 RMK AO2 PK WND
     20039/1927 SLP999 T02830144=
KWST 231953Z AUTO 04007KT 10SM -RA FEW040 BKN060 BKN110 14/12
     A3027 RMK AO2 RAE04B50 SLP248 P0000 T01390122=
KXNA 231953Z 17025G34KT 10SM CLR 27/14 A2976 RMK AO2 PK WND
     19034/1914 SLP064 T02720144=
PAAQ 231953Z 00000KT 10SM CLR M02/M03 A2986 RMK AO2 SLP117
     T10171033=
PAKW 231953Z AUTO 00000KT 5SM -RA BR FEW026 BKN033 OVC041 08/07
     A2931 RMK AO2 SLP927 P0002 T00780067 TSNO $=
PAPB 231953Z AUTO 24026G34KT 7SM FEW018 BKN030 OVC037 07/ A2983
     RMK AO2 PK WND 24036/1939 SLP088 T0067 TSNO $=
PAWD 231953Z AUTO 34016G24KT 10SM CLR 04/M09 A2980 RMK AO2 SLP093
     T00441089 TSNO $=
PAWI 231953Z AUTO 10020KT 10SM CLR M08/M11 A2983 RMK AO2 SLP103
     T10831111 TSNO $=
K08D 231955Z AUTO 04022KT 10SM OVC012 07/06 A2942 RMK AO2=
KBIS 231952Z AUTO 08012KT 10SM CLR 17/07 A2927 RMK AO2 SLP911
     T01670072=
KCQX 231952Z AUTO 03006KT 6SM RA BR OVC006 15/13 A3027 RMK AO2
     SLP252 P0003 T01500133=
KD55 231955Z AUTO 06024G31KT 10SM CLR 13/13 A2946 RMK AO2=
KDVP 231953Z AUTO 14027G34KT 10SM CLR 24/12 A2935 RMK AO2
     T02440124=
KEST 231952Z AUTO 15029G38KT 10SM CLR 26/13 A2941 RMK AO2 PK WND
     17040/1942 SLP955 T02560128=
KFIT 231952Z AUTO 00000KT 10SM CLR 14/06 A3033 RMK AO2 SLP274
     T01440061=
KIEN 231952Z AUTO 31014G20KT 10SM CLR 15/02 A2930 RMK AO2 SLP915
     T01500022=
KIJD 231952Z AUTO 01005KT 9SM -RA BKN110 13/08 A3030 RMK AO2
     SLP260 P0000 T01330083=
KLUM 231955Z AUTO 12018G26KT 10SM SCT049 26/17 A2960 RMK AO2
     T02550174 PWINO=
