SAUS70 KWBC 232036 RRA
METAR
KD55 232035Z AUTO 06023G31KT 10SM CLR 13/12 A2944 RMK AO2=
KDLZ 232035Z AUTO 17009KT 10SM CLR 23/07 A3011 RMK AO2=
KDRM 232035Z AUTO 14007KT 10SM CLR 17/10 A3004 RMK AO2
     T01650104=
KDXX 232035Z AUTO 14025G31KT 10SM CLR 26/12 A2931 RMK AO2=
KDYT 232035Z AUTO 06021G28KT 10SM BKN050 12/10 A2961 RMK AO2=
KEDE 232035Z AUTO 34008KT 10SM OVC008 17/17 A3010 RMK AO2
     T01700165=
KEDJ 232035Z AUTO 17010G16KT 10SM CLR 24/09 A3010 RMK A01=
KELO 232035Z AUTO 12013G16KT 10SM CLR 20/10 A2966 RMK AO2=
KEYF 232035Z AUTO 34009KT 10SM CLR 22/06 A3012 RMK AO2
     T02180058=
KEZM 232035Z AUTO 12003KT 10SM CLR 25/08 A3013 RMK AO2=
KF70 232035Z AUTO 22005KT 10SM CLR 19/05 A2984 RMK AO2=
KFBL 232035Z AUTO 14023G28KT 10SM CLR 25/13 A2950 RMK AO2=
KFFM 232035Z AUTO 13019G30KT 10SM CLR 23/12 A2934 RMK AO2=
KFSE 232035Z AUTO 11015G22KT 10SM CLR 23/10 A2942 RMK AO2=
KGGE 232035Z AUTO 33007KT 10SM CLR 23/07 A3012 RMK AO2=
KGHW 232035Z AUTO 11025G31KT 10SM CLR 23/12 A2939 RMK AO2=
KGYL 232035Z AUTO 14022G30KT 7SM CLR 25/13 A2944 RMK AO2
     T02450125=
KHAE 232035Z AUTO 16016G22KT 10SM CLR 27/13 A2971 RMK AO2=
KHAF 232035Z AUTO 33015KT 7SM CLR 16/09 A3001 RMK AO2=
KHBI 232035Z AUTO 04005KT 10SM CLR 21/04 A3017 RMK AO2
     T02080035=
KHCO 232035Z AUTO 08015G21KT 10SM CLR 20/10 A2943 RMK AO2=
KHRJ 232035Z AUTO 34008KT 320V020 10SM CLR 21/06 A3014 RMK AO2
     T02130058=
KHSP 232035Z AUTO 10005KT 7SM CLR 17/M01 A3026 RMK AO2
     T01661014=
KHWY 232035Z AUTO 02009KT 10SM BKN048 19/11 A3022 RMK AO2
     T01920106=
KINF 232035Z AUTO 05003KT 7SM CLR 27/15 A3007 RMK AO2=
KJFX 232035Z AUTO VRB06G12KT 10SM CLR 25/06 A3009 RMK AO2=
KJKJ 232035Z AUTO 13019G26KT 10SM CLR 25/12 A2933 RMK AO2 TSNO=
KJMR 232035Z AUTO 13013G17KT 10SM SCT046 23/12 A2956 RMK AO2=
KJSO 232035Z AUTO 20011G16KT 10SM BKN060 28/14 A2989 RMK AO2
     T02770140 TSNO=
KL18 232035Z AUTO 00000KT 10SM CLR 20/07 A2985 RMK AO2=
KL35 232035Z AUTO 24004KT 10SM CLR 08/M09 A2993 RMK AO2=
KLDM 232035Z AUTO 16009KT 10SM SCT060 BKN090 24/12 A2990 RMK AO2
     T02410119=
KLJF 232035Z AUTO 14017G25KT 10SM CLR 24/11 A2942 RMK AO2=
KLKU 232035Z AUTO 35004KT 3SM HZ SCT022 OVC035 17/12 A3018 RMK AO2
     T01660117=
KLNL 232035Z AUTO 16008KT 10SM SCT040 21/11 A2979 RMK AO2
     T02110110=
KMBY 232035Z AUTO 18018G26KT 10SM CLR 29/11 A2965 RMK AO2=
KMGG 232035Z AUTO 13008G19KT 090V150 10SM SCT048 25/12 A2947 RMK
     AO2 T02460115 PWINO=
KMGN 232035Z AUTO 17005KT 10SM BKN075 22/11 A2997 RMK AO2
     T02260109=
KMNI 232035Z AUTO 05007KT 10SM CLR 23/06 A3013 RMK AO2=
KMTV 232035Z AUTO 07004KT 10SM CLR 21/03 A3020 RMK AO2
     T02100027=
KMVE 232035Z AUTO 14025G32KT 10SM CLR 25/12 A2934 RMK AO2=
KOIN 232035Z AUTO 22028G35KT 10SM CLR 31/04 A2929 RMK AO1
     T03070035=
KOKV 232035Z AUTO 00000KT 10SM SCT042 17/09 A3021 RMK AO2=
KOMH 232035Z AUTO 01006KT 10SM OVC041 17/10 A3020 RMK AO2=
KONM 232035Z AUTO 21015G23KT 10SM SCT100 24/M03 A2967 RMK AO2
     T02361027=
KOVL 232035Z AUTO 15021G32KT 5SM HZ CLR 25/12 A2938 RMK AO2=
KOZW 232035Z AUTO 16014G17KT 10SM SCT055 23/10 A3006 RMK AO2
     T02340098=
KPCM 232035Z AUTO 07006KT 10SM BKN050 29/16 A3008 RMK AO2=
KPCZ 232035Z AUTO 12012G18KT 10SM SCT049 24/13 A2977 RMK AO2
     T02360125=
KPSK 232035Z AUTO 00000KT 10SM CLR 20/04 A3019 RMK AO2
     T02000044=
KPWC 232035Z AUTO 12019G28KT 10SM CLR 23/13 A2952 RMK AO2=
KRCM 232035Z AUTO 16014G23KT 10SM RA SCT022 SCT041 BKN060 24/15
     A2962 RMK AO2 LTG DSNT NW=
KRCX 232035Z AUTO 14019G23KT 10SM SCT043 23/16 A2968 RMK AO2
     T02310155=
KRGK 232035Z AUTO 15015G20KT 10SM CLR 24/12 A2953 RMK AO2=
