SAUS70 KWBC 231700 RRR
METAR
KPPA 231655Z AUTO 22021G30KT 10SM CLR 26/12 A2966 RMK AO2
     T02640119=
KRCV 231655Z AUTO 24006KT 10SM -DZ BKN022 OVC029 05/03 A2960 RMK
     AO2 T00540025=
KSBS 231655Z AUTO 00000KT 5SM SCT011 BKN017 OVC024 00/00 A2955 RMK
     AO1 T00020002=
KTMK 231655Z AUTO 00000KT 10SM CLR 08/07 A3016 RMK AO2=
KXBP 231655Z AUTO 18020G27KT 10SM CLR 27/15 A2982 RMK AO2
     T02690150=
KCPC 231655Z AUTO 36009KT 10SM CLR 21/03 A3017 RMK AO2
     T02100033=
KRBW 231655Z AUTO 35007KT 10SM CLR 22/10 A3018 RMK AO2=
KUYF 231655Z AUTO 21004KT 10SM SCT047 22/08 A3017 RMK AO2=
K20V 231655Z AUTO 00000KT 10SM BKN018 BKN025 02/01 A2956 RMK
     AO2=
KAFO 231655Z AUTO 31011KT 10SM BKN025 OVC032 00/M06 A2970 RMK
     AO2=
KANK 231650Z AUTO 27011G14KT 10SM SCT028 BKN041 OVC049 06/02 A2961
     RMK AO1 T00640021=
KC99 231651Z AUTO 30014G20KT 1 1/2SM BKN002 OVC011 00/M01 A2954
     RMK AO2 VIS 1/2V5=
KDUB 231654Z AUTO 29020G24KT 10SM SCT034 OVC110 00/M08 A2957 RMK
     AO2=
KEAN 231650Z AUTO 27012G17KT 10SM SCT075 BKN085 BKN110 11/00 A2941
     RMK AO2 T01061004=
KETN 231655Z AUTO 17021G31KT 10SM CLR 25/15 A2981 RMK AO2
     T02510151=
KHBV 231650Z AUTO 17018G24KT 10SM CLR 28/18 A2987 RMK AO2
     T02830175=
KHEQ 231655Z AUTO 23019G26KT 10SM CLR 26/M03 A2922 RMK AO2=
KHSG 231650Z AUTO 35006KT 1 3/4SM -SN BKN010 OVC014 00/00 A2961
     RMK AO2 P0002 T00030000=
KOZA 231655Z AUTO 18014G24KT 10SM CLR 23/15 A2989 RMK AO2=
KSLR 231650Z AUTO 17015G20KT 10SM BKN034 BKN041 26/17 A2992 RMK
     AO2 T02640166=
KT20 231655Z AUTO 19013G18KT 10SM SCT039 SCT047 SCT055 28/20 A2992
     RMK AO2 T02770197=
KWHP 231650Z 32017G27KT 10SM SKC 18/00 A2990 RMK OBSERVER HT=
TISX 231653Z 12011KT 10SM SCT034 SCT047 31/24 A2992 RMK AO2
     RAB16E30 SLP130 P0000 T03110244 $=
K2G9 231655Z AUTO 13005KT 10SM CLR 16/01 A3027 RMK AO2=
K2W6 231659Z AUTO 36007KT 10SM OVC047 15/12 A3019 RMK AO1=
KDMW 231655Z AUTO 06005KT 10SM SCT039 18/11 A3025 RMK AO2=
KEBS 231655Z AUTO 15024G31KT 10SM CLR 23/14 A2951 RMK AO2=
KI75 231655Z AUTO 17016G29KT 10SM CLR 24/14 A2959 RMK AO2
     T02430140=
KMLE 231655Z AUTO 17015G24KT 10SM CLR 26/13 A2942 RMK AO2
     T02600129=
KMPZ 231650Z AUTO 16018G25KT 10SM CLR 24/17 A2973 RMK AO2=
KMQB 231655Z AUTO 17023G26KT 10SM SCT110 22/12 A2982 RMK AO2
     T02230118=
KPPQ 231655Z AUTO 17015G19KT 10SM CLR 22/15 A2982 RMK AO2
     T02210146=
KRCR 231655Z AUTO 18012G17KT 150V210 10SM CLR 23/13 A3003 RMK
     AO2=
KSHL 231655Z AUTO 15020G31KT 10SM CLR 21/13 A2938 RMK AO2=
KSLB 231655Z AUTO 16026G34KT 10SM CLR 22/13 A2944 RMK AO2=
KTAZ 231655Z AUTO 18021G28KT 10SM CLR 22/14 A2990 RMK AO2
     T02200135=
KTIF 231655Z AUTO 19017G24KT 10SM CLR 23/02 A2919 RMK AO2
     T02300020=
KTIP 231655Z AUTO 18021G27KT 10SM CLR 24/13 A2995 RMK AO2
     T02360126=
KUMP 231655Z AUTO 19012G17KT 10SM CLR 24/13 A3008 RMK AO2
     T02380132=
KUNI 231655Z AUTO 00000KT 10SM RA CLR 25/09 A3020 RMK AO2
     T02460088=
KVES 231655Z AUTO 19008G14KT 10SM CLR 22/07 A3013 RMK AO2=
KW99 231658Z AUTO 00000KT 10SM CLR 17/06 A3029 RMK AO2=
KZER 231655Z AUTO 11009KT 10SM BKN027 16/07 A3029 RMK AO2=
