SAUS70 KWBC 231642 RRE
METAR
KDUX 231635Z AUTO 20031G37KT 10SM CLR 25/10 A2964 RMK AO2
     T02490095=
KE38 231635Z AUTO 22014G18KT 10SM CLR 24/07 A2998 RMK AO2
     T02420070=
KEGT 231635Z AUTO 18027G33KT 10SM CLR 26/13 A2961 RMK AO2=
KETN 231635Z AUTO 18017G29KT 10SM CLR 25/15 A2982 RMK AO2
     T02480151=
KFME 231639Z AUTO 05004KT 10SM BKN050 OVC060 17/08 A3026 RMK
     AO1=
KFQD 231635Z AUTO 00000KT 10SM CLR 20/03 A3024 RMK AO2=
KFWZ 231635Z AUTO 35012G16KT 10SM SCT007 SCT028 BKN070 M02/M03
     A2952 RMK AO2=
KFXY 231635Z AUTO 14023G30KT 10SM CLR 21/12 A2957 RMK AO2=
KFYJ 231635Z AUTO 00000KT 7SM OVC005 14/13 A3019 RMK AO1
     T01350127=
KUMP 231635Z AUTO 18011G18KT 10SM CLR 23/13 A3008 RMK AO2
     T02310132=
K2W6 231639Z AUTO 01004KT 10SM SCT040 OVC046 15/12 A3020 RMK
     AO1=
KCGE 231635Z AUTO 01008G14KT 10SM SCT120 17/14 A3018 RMK A01=
KDMW 231635Z AUTO 01005KT 10SM BKN037 17/10 A3026 RMK AO2=
K2G9 231635Z AUTO 07004KT 10SM CLR 15/02 A3028 RMK AO2=
KBJI 231635Z AUTO 13012KT 10SM CLR 17/09 A2957 RMK AO2
     T01720092=
KCKN 231635Z AUTO 09004KT 10SM CLR 17/08 A2951 RMK AO2=
KFXY 231635Z AUTO 14023G30KT 10SM CLR 21/12 A2957 RMK AO2=
KHJH 231635Z AUTO 20024G30KT 10SM CLR 26/12 A2939 RMK AO2
     T02580116=
KI75 231635Z AUTO 17018G25KT 10SM CLR 24/14 A2958 RMK AO2
     T02400141=
KIJX 231635Z AUTO 16022G29KT 10SM SCT110 21/14 A2985 RMK AO2
     T02050135=
KJYG 231637Z AUTO 15019G27KT 10SM CLR 21/12 A2949 RMK AO2=
KMQB 231635Z AUTO 17023G27KT 10SM SCT110 22/12 A2983 RMK AO2
     T02170115=
KMWO 231635Z AUTO 19011KT 10SM CLR 23/09 A3016 RMK AO2
     T02270089=
KN03 231635Z AUTO 15005KT 10SM CLR 17/02 A3031 RMK AO2=
KOLE 231635Z AUTO 19005KT 10SM CLR 15/02 A3028 RMK AO2=
KOQN 231635Z AUTO 05005KT 10SM SCT080 SCT120 16/08 A3025 RMK
     AO2=
KOWX 231635Z AUTO 19009KT 10SM CLR 23/08 A3016 RMK AO1=
KPNT 231635Z AUTO 17020G26KT 10SM CLR 23/15 A2992 RMK AO2
     T02280154=
KPRG 231635Z AUTO 17017G24KT 10SM CLR 24/14 A3000 RMK AO2
     T02440140=
KRCR 231635Z AUTO 17013G20KT 10SM CLR 23/13 A3004 RMK AO2=
KSHL 231635Z AUTO 14021G29KT 10SM CLR 21/13 A2939 RMK AO2=
KSLB 231635Z AUTO 17021G32KT 10SM CLR 22/13 A2945 RMK AO2=
KTAZ 231635Z AUTO 19019G25KT 10SM CLR 23/14 A2992 RMK AO2
     T02270137=
KTIF 231635Z AUTO 19017G24KT 10SM CLR 22/02 A2920 RMK AO2
     T02150015=
KTIP 231635Z AUTO 18019G26KT 10SM CLR 23/13 A2995 RMK AO2
     T02340128=
KUNI 231635Z AUTO 23003KT 10SM RA CLR 24/09 A3021 RMK AO2
     T02370087=
KVES 231635Z AUTO 17008KT 10SM CLR 21/08 A3014 RMK AO2=
K11R 231635Z AUTO 18012G15KT 10SM SCT033 SCT039 28/19 A2994 RMK
     AO2 T02810190=
KAFO 231635Z AUTO 31011KT 10SM BKN031 OVC036 00/M06 A2969 RMK
     AO2=
KCZT 231635Z AUTO 14010G18KT 10SM CLR 25/18 A2985 RMK AO2=
KEBG 231635Z AUTO 17016G26KT 10SM CLR 30/20 A2987 RMK AO2
     T02970196 PWINO=
KETN 231635Z AUTO 18017G29KT 10SM CLR 25/15 A2982 RMK AO2
     T02480151=
KFWZ 231635Z AUTO 35012G16KT 10SM SCT007 SCT028 BKN070 M02/M03
     A2952 RMK AO2=
KLUD 231635Z AUTO 17018G27KT 7SM CLR 25/16 A2981 RMK AO2
     T02530157=
KLUV 231635Z AUTO 21021G26KT 10SM CLR 26/10 A2978 RMK AO2=
KNOW 231635Z AUTO 00000KT 10SM CLR 09/06 A3010 RMK AO2
     T00900061=
KORG 231635Z AUTO 16011G16KT 10SM BKN038 BKN060 30/18 A3004 RMK
     AO2 T02990183=
KPNA 231635Z AUTO 31019G29KT 10SM OVC120 00/M06 A2959 RMK AO2=
KPOY 231635Z AUTO 35019G28KT 7SM -SN SCT026 SCT031 BKN039 00/M03
     A2957 RMK AO2=
KRBO 231635Z AUTO 10SM SCT039 SCT046 SCT055 29/19 A2990 RMK AO2
     T02870193=
KRCV 231635Z AUTO 22003KT 10SM -DZ BKN029 OVC036 06/02 A2959 RMK
     AO2 T00550019=
