SAUS70 KWBC 232100 RRC
METAR
KENW 232053Z 14014KT 10SM CLR 24/14 A2982 RMK AO2 SLP093 T02440139
     57019=
KEYE 232053Z AUTO 17012G20KT 10SM CLR 26/10 A2998 RMK AO2 SLP148
     T02560100 56016 $=
KMIW 232053Z AUTO 15021G32KT 10SM VCTS FEW036 24/14 A2955 RMK AO2
     PK WND 16034/2013 LTG DSNT NE RAB20E39 TSB28E45 SLP999 P0000
     60000 T02440144 56005=
KMLT 232053Z AUTO 00000KT 10SM CLR 17/09 A3035 RMK AO2 SLP285
     T01720094 56001=
KMMK 232053Z AUTO 35004KT 10SM -RA SCT065 BKN075 OVC110 12/09
     A3028 RMK AO2 SLP255 P0009 60012 T01170089 50001=
KMNN 232053Z AUTO 19010KT 7SM CLR 23/08 A3011 RMK AO2 SLP194
     T02330078 56014=
KMRB 232053Z AUTO 35008KT 10SM OVC046 18/08 A3021 RMK AO2 SLP229
     T01830083 57012 $=
KMSS 232053Z AUTO 07007KT 10SM CLR 20/05 A3027 RMK AO2 SLP251
     T02000050 56006=
KMTJ 232053Z AUTO 27015G21KT 10SM FEW041 SCT049 BKN095 06/00 A2968
     RMK AO2 PK WND 26029/2030 WSHFT 1940 RAE1957B29E39 SLP004
     P0000 60000 T00560000 51020 $=
KOSU 232053Z 15011KT 10SM CLR 24/06 A3010 RMK AO2 SLP189 T02440061
     56017=
KOWD 232053Z 03003KT 10SM -RA OVC110 13/11 A3033 RMK AO2 SLP270
     P0002 60003 T01330106 55003=
KCDS 232053Z AUTO 20014KT 10SM CLR 30/10 A2959 RMK AO2 PK WND
     19026/2028 SLP990 T03000100 56022=
KCEZ 232053Z AUTO 21022G30KT 10SM SCT070 09/M07 A2971 RMK AO2 PK
     WND 23033/2038 WSHFT 1957 SLP008 T00941072 55004 $=
KCRS 232053Z AUTO 18022G31KT 10SM BKN060 30/14 A2982 RMK AO2 PK
     WND 17035/2020 SLP091 T03000139 56025 $=
KDTO 232053Z 17021G34KT 10SM CLR 30/16 A2974 RMK AO2 PK WND
     17037/2010 SLP060 T03000156 56029=
KEEO 232053Z AUTO 31012KT 1/2SM SN FZFG BKN010 OVC015 M01/M03
     A2968 RMK AO2 SLP046 P0002 60009 T10111028 51017=
KFUL 232053Z 20010KT 10SM SCT040 22/10 A2982 RMK AO2 SLP098
     T02170100 58012=
KLAR 232053Z AUTO 31023G36KT 10SM SCT055 BKN070 BKN090 03/M06
     A2946 RMK AO2 PK WND 31037/2040 SLP934 T00331056 53002 $=
KLGB 232053Z 21007KT 10SM CLR 22/11 A2984 RMK AO2 SLP104 T02170111
     58008=
KMAF 232053Z 19016G27KT 10SM CLR 29/12 A2968 RMK AO2 PK WND
     19030/2031 SLP005 T02890122 56031=
KTYR 232053Z 17019G33KT 10SM BKN060 29/14 A2983 RMK AO2 PK WND
     17033/2049 SLP094 T02940144 56025=
PAHN 232054Z AUTO 30013KT 10SM BKN110 06/02 A2956 RMK AO2 SLP011
     T00610022 58016 TSNO $=
PAKN 232054Z 15004KT 10SM CLR 01/M02 A3009 RMK AO2 SLP190
     T00111017 50004=
K06D 232055Z AUTO 03020G26KT 10SM BKN018 10/07 A2947 RMK AO2=
K0S9 232055Z AUTO 11008KT 10SM BKN028 12/07 A3013 RMK AO2=
K0VG 232055Z AUTO 00000KT 10SM CLR 23/03 A3015 RMK AO2=
K10G 232055Z AUTO 16007KT 10SM CLR 22/04 A3014 RMK AO2=
K15M 232055Z AUTO 17007KT 10SM CLR 24/06 A3006 RMK AO2 T02420065
     $=
K1P1 232055Z AUTO 00000KT 10SM CLR 15/08 A3033 RMK AO2
     T01500080=
K1R7 232055Z AUTO 15006KT 10SM SCT060 28/15 A3004 RMK AO2
     PWINO=
K24A 232055Z AUTO 00000KT 10SM CLR 22/M02 A3018 RMK AO2 LTG DSNT
     NW T02231024=
K24J 232055Z AUTO 00000KT 10SM 27/08 A3009 RMK A01=
K28J 232055Z AUTO 08010KT 10SM SCT044 BKN050 24/15 A3009 RMK AO2
     TSNO=
K2D5 232055Z AUTO 12022G28KT 8SM CLR 21/12 A2927 RMK AO2=
K2P2 232055Z AUTO 19008G17KT 150V210 10SM SCT075 OVC085 18/12
     A2989 RMK AO2 T01760121=
K35A 232055Z AUTO 31004KT 10SM CLR 23/06 A3019 RMK A02
     T02290062=
K3AU 232055Z AUTO 18026G38KT 10SM CLR 28/10 A2952 RMK AO2=
K3D2 232055Z AUTO 17013G22KT 10SM CLR 18/11 A2987 RMK AO2
     T01790113=
K42J 232055Z AUTO 05004KT 10SM CLR 26/09 A3008 RMK A01=
K46D 232055Z AUTO 09015G21KT 10SM CLR 19/09 A2933 RMK AO2=
K4A6 232055Z AUTO 26007KT 10SM CLR 25/07 A3011 RMK AO2=
