SACA41 KWBC 232100
METAR
MKBK NIL=
MUBA NIL=
MUBY NIL=
MUCA NIL=
MUCL 232050Z 05005KT 360V140 9000 SKC 30/21 Q1013=
MUCM 232051Z 36010KT 9000 SCT020 BKN080 26/23 Q1013=
MUCU 232050Z 33007KT 8000 -RA SCT020CB SCT070 25/22 Q1012 RMK CB
     AT IV QUAD AD=
MUCU 232050Z 33007KT 8000 -RA SCT020CB SCT070 25/22 Q1012=
MUGM 232051Z 32008KT 10SM FEW045 FEW070 SCT085 27/21 A2989 RMK AO2
     RAB14E35 SLP120 P0000 60000 T02670211 56013 $=
MUGT NIL=
MUHA 232050Z 06016KT 9000 SCT030 29/21 Q1014=
MUMO NIL=
MUMZ NIL=
MUNG NIL=
MUVR 232050Z 06014KT 9999 SCT025 28/21 Q1015=
MUVT NIL=
MYEF NIL=
TABS NIL=
TAOA NIL=
TBBI NIL=
TDCF NIL=
