SAUS70 KWBC 231618 RRC
METAR
KS25 231615Z AUTO 06013KT 10SM OVC009 06/06 A2948 RMK AO2=
KS32 231615Z AUTO 08017KT 10SM CLR 12/05 A2948 RMK AO2 TSNO=
KSCR 231615Z AUTO 01008KT 340V040 10SM CLR 19/07 A3021 RMK AO2
     T01900066=
KSIK 231615Z AUTO 19016G23KT 172V232 10SM SCT031 SCT039 SCT044
     23/15 A3002 RMK AO2=
KSPF 231615Z AUTO 30016KT 10SM CLR 08/02 A2934 RMK AO2=
KSTF 231615Z AUTO 16013KT 10SM CLR 22/14 A3015 RMK AO2=
KSUZ 231615Z AUTO 20015G20KT 10SM BKN032 BKN039 24/16 A2999 RMK
     A01=
KT69 231615Z AUTO 19015KT 10SM SCT029 SCT037 28/21 A2991 RMK
     A01=
KTKX 231615Z AUTO 19015G24KT 7SM OVC047 24/16 A3001 RMK AO2
     TSNO=
KTME 231615Z AUTO 17012G19KT 10SM BKN060 28/18 A2997 RMK AO2=
KTSP 231615Z AUTO 31010KT 8SM CLR 07/01 A2994 RMK AO2=
KTWT 231615Z AUTO 19020G27KT 10SM CLR 25/11 A3006 RMK AO2=
KU42 231615Z AUTO 32013KT 10SM SCT065 OVC075 02/02 A2975 RMK AO1
     T00220022=
KUOX 231615Z AUTO 15009G14KT 100V180 10SM CLR 23/14 A3013 RMK AO2
     PWINO=
K10G 231615Z AUTO 14003KT 10SM CLR 19/07 A3023 RMK AO2=
K1P1 231615Z AUTO 00000KT 10SM CLR 13/05 A3038 RMK AO2
     T01270052=
K6L4 231615Z AUTO 00000KT 10SM CLR 20/05 A3024 RMK AO2=
KACQ 231615Z AUTO 15019G27KT 10SM CLR 20/12 A2961 RMK AO2=
KAQP 231613Z AUTO 18017G23KT 10SM CLR 20/11 A2944 RMK AO2=
KCFE 231615Z AUTO 14012G17KT 10SM CLR 20/12 A2957 RMK AO2=
KETH 231613Z AUTO 13018G23KT 10SM 18/11 A2944 RMK AO2=
KGHW 231615Z AUTO 13017KT 10SM CLR 19/12 A2952 RMK AO2=
KHCO 231615Z AUTO 05014KT 10SM CLR 12/08 A2956 RMK AO2=
KJKJ 231615Z AUTO 14013G17KT 10SM CLR 18/10 A2947 RMK AO2 TSNO=
KLDM 231615Z AUTO 17015G19KT 10SM CLR 21/11 A2999 RMK AO2
     T02130109=
KLJF 231615Z AUTO 14011G18KT 10SM CLR 20/11 A2954 RMK AO2=
KLNL 231615Z AUTO 14010G14KT 10SM CLR 18/11 A2987 RMK AO2
     T01840112=
KMGG 231615Z AUTO 12006G15KT 10SM CLR 20/11 A2958 RMK AO2
     T01980106=
KMGN 231615Z AUTO 14004KT 10SM CLR 22/12 A3003 RMK AO2
     T02200123=
KMVE 231615Z AUTO 14018G24KT 10SM CLR 19/12 A2945 RMK AO2=
KOVL 231615Z AUTO 14018G25KT 7SM CLR 20/11 A2950 RMK AO2=
KOWA 231613Z AUTO 15018G27KT 10SM CLR 20/12 A2960 RMK AO2=
KPWC 231615Z AUTO 14011G18KT 10SM CLR 18/11 A2963 RMK AO2=
KROX 231615Z AUTO 06015KT 10SM CLR 12/08 A2960 RMK AO2=
KSAZ 231615Z AUTO 15012KT 10SM CLR 19/10 A2956 RMK AO2=
KSGS 231615Z AUTO 15012G16KT 10SM CLR 20/11 A2962 RMK AO2
     T02000110=
KTWM 231615Z AUTO 08006KT 10SM SCT090 16/09 A2972 RMK AO2=
KUKT 231615Z AUTO 06006KT 10SM FEW085 SCT100 16/09 A3027 RMK
     A01=
KVVV 231615Z 14016G23KT 10SM 18/12 A2942 RMK AO2=
KY63 231615Z AUTO 13012G19KT 10SM CLR 18/11 A2948 RMK AO2
     T01830108=
K14Y 231615Z AUTO 15014G19KT 10SM CLR 18/10 A2956 RMK AO2=
K21D 231615Z AUTO 15010G17KT 10SM CLR 20/11 A2964 RMK AO2=
KAXV 231615Z AUTO 17009KT 10SM CLR 20/10 A3015 RMK AO2=
KCAD 231615Z AUTO 16009G15KT 10SM CLR 20/11 A3003 RMK AO2
     T01980105=
KCVX 231615Z AUTO 13005KT 10SM CLR 21/12 A3002 RMK AO2
     T02100119=
KD95 231615Z AUTO 17009KT 10SM CLR 23/07 A3014 RMK AO2
     T02310065=
KDYT 231615Z AUTO 07009KT 10SM FEW090 11/10 A2971 RMK AO2=
KEDJ 231615Z AUTO 22008KT 6SM HZ CLR 21/11 A3018 RMK A01=
KFGN 231615Z AUTO 08006G15KT 10SM CLR 10/06 A2965 RMK AO2=
KFKS 231615Z AUTO 16013G17KT 10SM CLR 21/11 A2998 RMK AO2
     T02100114=
KFPK 231615Z AUTO 15008KT 10SM CLR 19/11 A3008 RMK AO2
     T01890110=
KI69 231615Z AUTO 18006KT 10SM CLR 22/10 A3019 RMK AO2
     T02210101=
KMQJ 231615Z AUTO RMK AO1=
KPNM 231615Z AUTO 12012G16KT 10SM CLR 21/12 A2961 RMK AO2 TS=
KSJX 231615Z AUTO 15012G18KT 10SM CLR 20/11 A3002 RMK AO2
     T01990114=
