SAUS80 KWBC 231900 RRB
METAR
KSPS 231852Z 17023G29KT 10SM CLR 31/14 A2966 RMK AO2 PK WND
     18033/1813 SLP029 T03110139=
KDRA 231853Z AUTO 00000KT 10SM CLR 13/M07 A2990 RMK AO2 SLP102
     T01281072=
KCLI 231855Z AUTO 14015G20KT 10SM CLR 22/13 A2982 RMK AO2
     T02230127=
KCLL 231853Z 15017G24KT 10SM FEW049 BKN060 29/17 A2987 RMK AO2 PK
     WND 17026/1801 SLP111 T02940167=
KCNY 231853Z AUTO 21017KT 10SM FEW060 FEW070 BKN090 04/02 A2965
     RMK AO2 RAE1758UPB1758E01 SLP030 P0000 T00390022=
KCRQ 231853Z VRB05KT 10SM SCT039 18/10 A2986 RMK AO2 SLP108
     T01830100=
KCUT 231853Z AUTO 26013G19KT 10SM CLR 12/01 A2929 RMK AO2 SLP876
     T01170011=
KDAB 231853Z 03011KT 10SM SCT031 27/16 A3009 RMK AO2 SLP188
     T02720156=
KDAL 231853Z 16022G36KT 10SM FEW035 FEW047 SCT250 29/16 A2980 RMK
     AO2 PK WND 16036/1852 SLP084 T02890156=
KDBQ 231853Z 16023G31KT 10SM CLR 24/13 A2971 RMK AO2 PK WND
     17031/1851 SLP055 T02390133=
KGEG 231853Z 00000KT 10SM SCT022 SCT075 06/01 A3002 RMK AO2 SLP176
     T00610011 $=
KGRR 231853Z 17017G25KT 10SM FEW047 SCT250 23/12 A3000 RMK AO2 PK
     WND 15026/1834 SLP155 T02330117 $=
KHLC 231853Z AUTO 21021G37KT 4SM HZ BKN038 OVC044 32/07 A2928 RMK
     AO2 PK WND 24040/1842 SLP892 T03170067=
KHSV 231853Z 17008KT 10SM FEW250 25/05 A3013 RMK AO2 SLP199
     T02500050=
KHTL 231853Z AUTO 18014G22KT 10SM CLR 22/11 A3003 RMK AO2 PK WND
     16029/1837 SLP169 T02170106=
KHVR 231853Z AUTO 36012KT SCT009 BKN015 OVC020 02/01 A2977 RMK AO2
     SLP101 T00170006 $=
KLIT 231853Z 19012KT 10SM OVC040 28/16 A2992 RMK AO2 SLP132
     T02830156=
KLND 231853Z AUTO 14004KT 5SM -SN BR FEW006 BKN019 OVC027 01/01
     A2959 RMK AO2 SNB10 SLP021 P0001 T00110006=
KLWD 231853Z AUTO 17012G31KT 10SM -RA FEW034 27/14 A2954 RMK AO2
     PK WND 17037/1812 SLP994 P0000 T02670139=
KLXV 231853Z AUTO 20009G18KT 10SM FEW041 BKN060 OVC075 02/M04
     A2955 RMK AO2 SNE05 SLP900 P0000 T00171039 $=
KMSN 231853Z 17018G25KT 10SM FEW050 23/12 A2977 RMK AO2 PK WND
     17026/1831 SLP077 T02330122=
KMSO 231853Z 31008KT 10SM OVC042 06/01 A2993 RMK AO2 SLP152
     T00560011 $=
KODX 231853Z AUTO 18022G34KT 10SM CLR 29/08 A2920 RMK AO2 PK WND
     18035/1841 RAB1756E17 SLP878 P0000 T02890083=
KRIW 231853Z AUTO 02015KT 4SM -SN BR BKN007 BKN039 OVC065 01/00
     A2959 RMK AO2 SLP016 P0000 I1001 T00110000=
KRMG 231853Z AUTO 00000KT 10SM CLR 23/03 A3016 RMK AO2 SLP206
     T02330033=
KRNM 231853Z 20007KT 10SM BKN037 17/09 A2988 RMK AO2 SLP108
     T01670094=
KRQE 231853Z AUTO 26014G21KT 10SM SCT030 OVC040 06/01 A2979 RMK
     AO2 RAB1756E29 SLP022 P0000 T00610006 $=
KFAT 231853Z 27008KT 10SM FEW100 18/02 A2994 RMK AO2 SLP137 CU
     OMTNS E T01780017=
KFMN 231853Z 25019G26KT 10SM BKN065 OVC110 07/M02 A2974 RMK AO2 PK
     WND 26026/1853 SLP040 T00721017=
KFNB 231853Z AUTO 17024G36KT 10SM CLR 29/14 A2945 RMK AO2 PK WND
     17043/1832 SLP962 T02940144=
KFNT 231853Z 14012G21KT 10SM CLR 24/12 A3007 RMK AO2 SLP182
     T02390122=
KGCC 231853Z AUTO 10SM OVC008 02/ A2947 RMK AO2 SNE1758 SLP980
     P0000 T0017 $=
KY23 231855Z AUTO 12009G14KT 10SM SCT038 23/15 A2965 RMK AO2
     T02330154=
KYKM 231853Z AUTO 00000KT 10SM CLR 12/00 A3007 RMK AO2 SLP189
     T01220000=
PABE 231853Z 15010KT 10SM BKN031 M01/M02 A2999 RMK AO2 SLP159
     T10111017=
PADQ 231853Z 30008KT 10SM CLR 07/M04 A2991 RMK AO2 SLP129
     T00671039=
PHNL 231853Z 08012G16KT 10SM FEW024 BKN045 BKN060 28/22 A3003 RMK
     AO2 SLP168 VCSH N T02830217=
PHNL 231853Z 08012G16KT 10SM FEW024 BKN045 BKN060 28/22 A3003 RMK
     AO2 SLP168 VCSH N T02830217=
