SAUS70 KWBC 231800 RRA
METAR
KORB 231753Z AUTO 14009KT 110V170 10SM CLR 22/11 A2964 RMK AO2=
KORE 231752Z AUTO 34003KT 10SM CLR 16/07 A3034 RMK AO2 SLP276
     T01560067 10156 20022 58014=
KOWA 231753Z AUTO 14019G23KT 10SM CLR 23/13 A2956 RMK AO2=
KPWK 231752Z 17018G30KT 10SM CLR 24/13 A2989 RMK AO2 PK WND
     16030/1750 SLP117 T02440133 10244 20161 58019=
KPYM 231752Z AUTO 05005KT 10SM FEW009 FEW080 OVC110 15/12 A3032
     RMK AO2 SLP270 T01500122 10156 20139 56007=
KRAP 231752Z 35029G43KT 10SM CLR 11/03 A2925 RMK AO2 PK WND
     34043/1744 SLP902 T01060028 10111 20050 56010 $=
KRSL 231753Z AUTO 17025G37KT 10SM FEW044 29/11 A2938 RMK AO2 PK
     WND 19047/1709 SLP929 T02890106 10294 20167 58011=
KRVS 231753Z 18018G29KT 10SM CLR 27/15 A2971 RMK AO2 PK WND
     17032/1720 SLP063 T02720150 10272 20206 58013=
KSGF 231752Z 10SM FEW120 28/14 A2977 RMK AO2 PK WND 19032/1729
     SLP069 T02780139 10283 20183 58009 $=
KBLH 231752Z AUTO 34008G16KT 10SM CLR 23/04 A2979 RMK AO2 SLP083
     T02330044 10233 20172 51018 TSNO=
KRNV 231755Z AUTO 18014G22KT 10SM SCT045 SCT050 A3004 RMK AO2
     TSNO=
KRPD 231755Z AUTO 12013G16KT 10SM CLR 21/16 A2969 RMK AO2
     T02140155 10214 20130=
KSDC 231755Z AUTO 13003KT 10SM CLR 21/02 A3025 RMK AO2=
KSNK 231755Z AUTO 18018G23KT 10SM CLR 27/12 A2976 RMK AO2
     T02660118=
KSPW 231753Z AUTO 16025G34KT 10SM CLR 25/12 A2943 RMK AO2 PK WND
     14035/1737 SLP958 T02500117 10250 20150 58023=
KSUX 231752Z 16022G28KT 10SM CLR 27/13 A2934 RMK AO2 PK WND
     17030/1732 SLP930 T02670133 10267 20133 58021=
K08D 231755Z AUTO 06016G22KT 10SM OVC007 06/06 A2948 RMK AO2=
K0E0 231755Z AUTO 23019G28KT 10SM SCT075 SCT090 18/M01 A2976 RMK
     AO2 T01801007 10180 20081 TSNO=
KATL 231752Z 00000KT 10SM FEW200 SCT250 23/04 A3021 RMK AO2 SLP225
     T02280039 10228 20089 58011 $=
KBEA 231755Z AUTO 15016G23KT 10SM BKN046 BKN050 31/16 A2986 RMK
     AO2 T03050157 10305 20185=
KBIS 231752Z 06017G23KT 10SM CLR 13/04 A2932 RMK AO2 SLP931
     T01280044 10128 20050 58030=
KBJC 231753Z 28018G21KT 10SM BKN120 BKN200 17/M02 A2934=
KCLT 231752Z VRB06KT 10SM FEW250 22/06 A3019 RMK SLP219 T02220061
     10222 20067 58020 $=
KCQW 231755Z AUTO VRB06G11KT 10SM CLR 23/06 A3016 RMK AO2
     PWINO=
KCWF 231752Z 15013G20KT 10SM BKN037 28/18 A3001=
KD55 231755Z AUTO 05022KT 10SM SCT010 10/10 A2953 RMK AO2=
KEHO 231755Z AUTO 01003KT 10SM CLR 21/04 A3019 RMK AO2 T02120043
     10212 20026=
KEST 231752Z AUTO 17025G35KT 10SM CLR 23/13 A2946 RMK AO2 PK WND
     14035/1731 SLP971 T02330128 10233 20139 58022=
KJHN 231755Z AUTO 22039G49KT 1 1/2SM HZ OVC001 27/M01 A2940 RMK
     AO2 T02741011 10275 20196=
KLDJ 231755Z AUTO 04005KT 10SM SCT120 16/09 A3026 RMK AO2
     T01600092 10160 20135=
KLKV 231753Z AUTO 03006KT 10SM FEW028 OVC055 04/M03 A3007 RMK AO2
     SLP205 T00391033 10044 21072 51019=
KLUM 231755Z AUTO 13015G22KT 10SM CLR 24/17 A2965 RMK AO2
     T02360171 10236 20122 PWINO=
KMAW 231755Z AUTO 19019G26KT 10SM BKN042 OVC049 27/13 A2999 RMK
     AO1=
KMHL 231755Z AUTO 18020G27KT 10SM CLR 27/15 A2968 RMK AO2 LTG DSNT
     E=
KMRJ 231755Z AUTO 17017G21KT 10SM CLR 22/10 A2977 RMK AO2=
KMWH 231752Z 34006KT 10SM CLR 11/M02 A3004 RMK AO2 SLP178
     T01061017 10106 20011 51021=
KOMA 231752Z 17020G32KT 10SM BKN170 BKN200 28/13 A2940 RMK AO2 PK
     WND 18038/1729 SLP947 T02780133 10278 20167 56013=
KRCZ 231755Z AUTO 36008KT 10SM CLR 22/06 A3016 RMK AO2 T02200055
     10220 20076=
PATA 231752Z 00000KT 10SM OVC009 M03/M04 A3005 RMK AO2 CIG 008V012
     SLP181 4/002 933004 CLDS OBSCRG MTNS NW-NE VCFG E OVR LAKES
     T10281039 11022 21028 51007 $=
