SAUS80 KWBC 232026
METAR
KROS 232023Z AUTO 13014G20KT 10SM SCT047 26/14 A2954 RMK AO2=
