SAZS31 NSTU 232050
MTRPPG
METAR NSTU 232050Z 35021G26KT 12SM SCT015TCU BKN100 28/25 A2986 RMK
TCU W-N SLP112 60005 8/270 T02790253 50000=