SAUS80 KWBC 231900
METAR
K12N 231854Z AUTO 36004KT 18/09 A3027 RMK AO1 SLP251 T01780089=
K1V4 231854Z AUTO 18/05 A3030 RMK AO1 SLP262 T01830050 PNO=
KNAK 231854Z AUTO 02008KT 10SM FEW050 BKN065 17/11 A3019 RMK AO2
     SLP225 T01720106=
KDMH 231854Z AUTO 19/09 A3021 RMK AO1 SLP228 T01940094=
KFAT 231853Z 27008KT 10SM FEW100 18/02 A2994 RMK AO2 SLP137 CU
     OMTNS E T01780017=
KFMN 231853Z 25019G26KT 10SM BKN065 OVC110 07/M02 A2974 RMK AO2 PK
     WND 26026/1853 SLP040 T00721017=
KGCC 231853Z AUTO 10SM OVC008 02/ A2947 RMK AO2 SNE1758 SLP980
     P0000 T0017 $=
KMSO 231853Z 31008KT 10SM OVC042 06/01 A2993 RMK AO2 SLP152
     T00560011 $=
KYKM 231853Z AUTO 00000KT 10SM CLR 12/00 A3007 RMK AO2 SLP189
     T01220000=
KFNT 231853Z 14012G21KT 10SM CLR 24/12 A3007 RMK AO2 SLP182
     T02390122=
KMSN 231853Z 17018G25KT 10SM FEW050 23/12 A2977 RMK AO2 PK WND
     17026/1831 SLP077 T02330122=
KY23 231855Z AUTO 12009G14KT 10SM SCT038 23/15 A2965 RMK AO2
     T02330154=
KGRR 231853Z 17017G25KT 10SM FEW047 SCT250 23/12 A3000 RMK AO2 PK
     WND 15026/1834 SLP155 T02330117 $=
KLWD 231853Z AUTO 17012G31KT 10SM -RA FEW034 27/14 A2954 RMK AO2
     PK WND 17037/1812 SLP994 P0000 T02670139=
KABI 231852Z 19022G31KT 10SM CLR 29/14 A2973 RMK AO2 PK WND
     18035/1812 SLP039 T02940139=
KBIL 231853Z 30019KT 10SM SCT022 BKN027 OVC037 04/M01 A2964 RMK
     AO2 PK WND 29027/1757 SLP048 VCSH T00391006=
KLND 231853Z AUTO 14004KT 5SM -SN BR FEW006 BKN019 OVC027 01/01
     A2959 RMK AO2 SNB10 SLP021 P0001 T00110006=
KCDR 231853Z AUTO 29023G38KT 10SM CLR 13/03 A2932 RMK AO2 PK WND
     30038/1847 SLP931 T01330033=
KHTL 231853Z AUTO 18014G22KT 10SM CLR 22/11 A3003 RMK AO2 PK WND
     16029/1837 SLP169 T02170106=
KFNB 231853Z AUTO 17024G36KT 10SM CLR 29/14 A2945 RMK AO2 PK WND
     17043/1832 SLP962 T02940144=
KODX 231853Z AUTO 18022G34KT 10SM CLR 29/08 A2920 RMK AO2 PK WND
     18035/1841 RAB1756E17 SLP878 P0000 T02890083=
KLBB 231853Z 20019G25KT 10SM FEW065 BKN200 BKN220 BKN260 27/11
     A2969 RMK AO2 PK WND 20028/1831 SLP002 T02670106=
KRNM 231853Z 20007KT 10SM BKN037 17/09 A2988 RMK AO2 SLP108
     T01670094=
KTCS 231853Z AUTO 20023G35KT 10SM CLR 21/01 A2975 RMK AO2 PK WND
     19036/1757 SLP999 T02110006=
KUIL 231853Z AUTO 10SM OVC023 11/07 A3012 RMK AO2 SLP202
     T01060072=
KGEG 231853Z 00000KT 10SM SCT022 SCT075 06/01 A3002 RMK AO2 SLP176
     T00610011 $=
KHVR 231853Z AUTO 36012KT SCT009 BKN015 OVC020 02/01 A2977 RMK AO2
     SLP101 T00170006 $=
KLXV 231853Z AUTO 20009G18KT 10SM FEW041 BKN060 OVC075 02/M04
     A2955 RMK AO2 SNE05 SLP900 P0000 T00171039 $=
KAVP 231854Z 10SM A3027 RMK AO2 SLPNO $=
KBTV 231854Z 21004KT 10SM BKN150 20/06 A3029 RMK AO2 SLP257
     T02000061=
KBUF 231854Z 00000KT 10SM FEW160 SCT200 BKN250 23/05 A3020 RMK AO2
     SLP224 T02330050 $=
KCAR 231854Z AUTO 20007KT 10SM CLR 21/06 A3031 RMK AO2 SLP267
     T02110061=
KCOS 231854Z 30010G32KT 10SM FEW033 FEW050 SCT085 BKN200 16/01
     A2945 RMK AO2 PK WND 25032/1845 RAB40E51 SLP902 P0000
     T01610006 $=
KCOU 231854Z AUTO 17018G27KT 10SM FEW110 28/15 A2971 RMK AO2 PK
     WND 17029/1836 SLP052 T02830150=
KCRW 231854Z VRB04KT 10SM CLR 24/06 A3016 RMK AO2 SLP208
     T02390061=
KDSM 231854Z 15021G35KT 10SM SCT180 BKN250 26/14 A2951 RMK AO2 PK
     WND 15035/1849 SLP987 T02560139=
KEKX 231855Z AUTO 18011G17KT 10SM CLR 25/08 A3009 RMK AO2
     T02470077=
KFAR 231853Z AUTO 11017G27KT 10SM CLR 23/11 A2936 RMK AO2 PK WND
     11027/1849 SLP943 T02280111 TSNO $=
KFWA 231854Z 17014G25KT 10SM SCT055 BKN190 24/10 A3005 RMK AO2
     SLP173 T02440100 $=
