SAUS70 KWBC 232000 RRW
METAR
K2G9 231955Z AUTO 11007KT 10SM CLR 16/03 A3025 RMK AO2=
K2W6 231959Z AUTO 36003KT 10SM OVC021 15/12 A3018 RMK AO1=
KAOH 231953Z AUTO 17010G20KT 10SM FEW060 24/09 A3008 RMK AO2
     SLP183 T02390089=
KCGE 231955Z AUTO 33007KT 3SM BR OVC015 15/15 A3016 RMK A01
     P0006=
KDCY 231955Z AUTO 17016G22KT 10SM CLR 26/10 A2999 RMK AO2
     T02570099=
KDMW 231955Z AUTO 10SM OVC060 17/10 A3022 RMK AO2=
KEBS 231955Z AUTO 16022G33KT 10SM CLR 25/14 A2947 RMK AO2=
KFME 231959Z AUTO 02005KT 10SM OVC031 17/08 A3022 RMK AO1=
KGOV 231958Z AUTO 19016G19KT 10SM CLR 22/10 A3000 RMK AO2 SLP165
     T02200103 $=
KLSE 231953Z 14018KT 10SM CLR 26/13 A2961=
KMPZ 231950Z AUTO 17018G29KT 10SM CLR 26/18 A2967 RMK AO2=
KRCR 231955Z AUTO 17015G23KT 10SM CLR 24/11 A2997 RMK AO2=
KTIP 231955Z AUTO 18025G32KT 10SM BKN047 25/13 A2990 RMK AO2
     T02520130=
KVES 231955Z AUTO 16011G17KT 10SM CLR 23/06 A3007 RMK AO2=
KGOV 231958Z AUTO 19016G19KT 10SM CLR 22/10 A3000 RMK AO2 SLP165
     T02200103 $=
TISX 231953Z 06008KT 10SM BKN029 30/23 A2988 RMK AO2 SLP118
     T03000228 $=
KJVY 231955Z AUTO 20013G17KT 10SM CLR 26/08 A3005 RMK AO2
     PWINO=
KTNB 231950Z AUTO 12005KT 10SM CLR 19/02 A3021 RMK AO2
     T01940024=
