SAUS70 KWBC 231800 RRJ
METAR
KATA 231755Z AUTO 18009G18KT 140V210 10SM OVC042 27/17 A2993 RMK
     AO2 SLP033 T02690170 $=
KATS 231755Z AUTO 23025KT 10SM CLR 25/11 A2973 RMK AO2=
KAUW 231754Z AUTO 11014G26KT 10SM CLR 22/12 A2978 RMK AO2 PK WND
     11026/1753 SLPNO T02220117 10222 20111 58017 $=
KAVC 231755Z AUTO 36007G14KT 10SM OVC022 18/12 A3023 RMK AO2
     T01840122 10193 20090=
KAVL 231754Z 31006KT 10SM CLR 21/02 A3021 RMK AO2 SLP221 T02060022
     10206 20006 58021=
KRST 231754Z 15019G30KT 10SM CLR 23/12 A2961 RMK AO2 PK WND
     16031/1734 SLP021 T02280122 10228 20133 58023=
KRUG 231755Z AUTO 06020G29KT 10SM OVC013 09/06 A2946 RMK AO2=
KRUQ 231755Z AUTO 00000KT 10SM CLR 20/05 A3019 RMK AO2 T01970050
     10199 20020=
KRVL 231755Z AUTO 00000KT 9SM OVC025 16/07 A3027 RMK AO2=
KRYV 231755Z AUTO 14013G19KT 10SM CLR 23/11 A2983 RMK AO2
     T02250114 10225 20132=
KRZL 231755Z AUTO 16017G25KT 10SM CLR 25/12 A2997 RMK AO2=
KRZN 231755Z AUTO 14008KT 10SM CLR 21/11 A2964 RMK AO2 T02140113
     10215 20140=
KS25 231755Z AUTO 05014G19KT 10SM OVC011 07/07 A2945 RMK AO2=
KS32 231755Z AUTO 09019KT 10SM CLR 15/07 A2942 RMK AO2 TSNO=
KSCR 231755Z AUTO 34005KT 310V020 10SM CLR 21/05 A3018 RMK AO2
     T02070054 10207 20048=
KSFQ 231755Z AUTO 34005KT 4SM BR OVC005 15/15 A3014 RMK AO2
     T01510150 10151 20143=
KSIF 231755Z AUTO 09007KT 10SM CLR 21/03 A3020 RMK AO2 T02050034
     10208 20007=
KSIK 231755Z AUTO 18013G23KT 10SM SCT040 25/15 A2999 RMK AO2=
KSPF 231755Z AUTO 31016KT 10SM OVC019 08/03 A2936 RMK AO2=
KSTF 231755Z AUTO 13008G17KT 10SM CLR 24/13 A3011 RMK AO2=
KSUZ 231755Z AUTO 17013KT 10SM SCT039 BKN045 25/16 A2996 RMK
     A01=
KSVC 231755Z AUTO 26015G26KT 10SM SCT050 18/05 A2987 RMK AO2 60001
     T01840054 10189 20125=
KSXU 231755Z AUTO 21021G32KT 10SM SCT085 24/03 A2965 RMK AO2
     T02370032 10237 20136=
KT69 231755Z AUTO 17017G23KT 9SM FEW030 SCT039 BKN046 28/21 A2988
     RMK A01=
KTKX 231755Z AUTO 19018G25KT 8SM FEW044 BKN050 28/15 A2998 RMK AO2
     TSNO=
KTME 231755Z AUTO 17015G21KT 10SM BKN060 30/16 A2994 RMK AO2=
KTQE 231754Z AUTO 17024G33KT 10SM CLR 29/13 A2936 RMK AO2 PK WND
     16034/1731 SLP931 T02890128 10289 20156 58018=
KTWT 231755Z AUTO 19016G28KT 10SM CLR 27/10 A3002 RMK AO2=
KU42 231755Z AUTO 33018G23KT 10SM SCT024 SCT041 BKN060 05/02 A2978
     RMK AO1 60002 T00460019 10047 20005=
KUOX 231755Z AUTO 15009G18KT 10SM SCT042 25/13 A3009 RMK AO2
     PWINO=
KUTA 231755Z AUTO 18014G24KT 10SM CLR 27/15 A3003 RMK AO2
     T02670149 $=
KUZA 231754Z AUTO VRB06KT 10SM CLR 22/06 A3019 RMK AO2 SLP219
     T02170061 10222 20050 58020=
KVJI 231755Z AUTO 24003KT 10SM CLR 23/02 A3022 RMK AO2 T02290023
     10229 20048=
KW78 231755Z AUTO 34005KT 10SM CLR 18/06 A3020 RMK AO1 T01760059
     10178 20040=
KW81 231755Z AUTO 34005KT 10SM OVC025 17/06 A3018 RMK AO1
     T01660064 10181 20083=
KM40 231755Z AUTO 16014KT 10SM CLR 25/08 A3014 RMK AO2=
KMAN 231755Z AUTO 31015KT 10SM CLR 08/M00 A2999 RMK A01=
KMAO 231755Z AUTO 36010G14KT 10SM CLR 22/M01 A3015 RMK AO2=
KMBO 231755Z AUTO 17007KT 130V210 10SM CLR 26/15 A3009 RMK AO2=
KMDS 231755Z AUTO 15021G30KT 10SM CLR 21/13 A2931 RMK AO2=
KMEZ 231755Z AUTO VRB03KT 10SM BKN023 OVC029 23/17 A2992 RMK AO2
     T02290168 $=
KMFI 231754Z AUTO 14014G23KT 10SM -RA CLR 21/13 A2975 RMK AO2
     RAB47 SLP073 P0000 60000 T02110128 10217 20117 58016=
KMKJ 231755Z AUTO 00000KT 10SM CLR 22/02 A3024 RMK AO2 T02210017
     10223 21008=
KMLP 231753Z AUTO 00000KT 1/4SM HZ VV001 M01/M03 A2989 RMK AO2 VIS
     M1/4V1 1/4 SNE11 SLP100 P0000 60005 T10061033 10000 21022
     51023=
