SAUS70 KWBC 232024 RRA
METAR
KPNA 232015Z AUTO 29022G29KT 10SM SCT038 02/M07 A2963 RMK AO2=
KPOY 232015Z AUTO 33026G36KT 10SM CLR 03/M05 A2960 RMK AO2=
KPPA 232015Z AUTO 22019G25KT 10SM CLR 26/11 A2959 RMK AO2
     T02640114=
KTMK 232015Z AUTO 00000KT 10SM BKN024 BKN030 OVC045 13/07 A3020
     RMK AO2=
KXBP 232015Z AUTO 18017G27KT 10SM CLR 30/14 A2973 RMK AO2
     T03000135=
K20V 232015Z AUTO 23018G22KT 10SM SCT021 SCT041 BKN100 06/M01
     A2954 RMK AO2=
KANK 232010Z AUTO 25017G25KT 10SM SCT047 BKN070 OVC095 06/M02
     A2966 RMK AO1 T00581021=
KBMC 232010Z AUTO 10SM SCT035 BKN042 OVC075 06/M02 A2984 RMK AO1
     T00591023=
KBMT 232015Z AUTO 16010G15KT 7SM -RA BKN033 BKN041 OVC048 23/20
     A2994 RMK AO2 T02320203=
KDUX 232015Z AUTO 17025G33KT 10SM CLR 26/09 A2953 RMK AO2
     T02600085=
KEAN 232010Z AUTO 35020G27KT 10SM BKN050 10/00 A2943 RMK AO2
     T01000001=
KGLE 232015Z AUTO 17026G32KT 10SM CLR 29/14 A2974 RMK AO2
     T02870142=
KGNB 232015Z AUTO 28013G18KT 10SM SCT035 BKN050 OVC070 05/M03
     A2956 RMK AO2 T00451030=
KGNC 232015Z AUTO 22019G28KT 10SM CLR 30/09 A2972 RMK AO2
     T02950087=
KHBV 232010Z AUTO 17011G21KT 10SM CLR 32/17 A2978 RMK AO2
     T03160172=
KHEQ 232015Z AUTO 33017G24KT 10SM CLR 23/00 A2927 RMK AO2=
KHSG 232010Z AUTO 03009KT 10SM -RA BKN015 OVC021 02/00 A2963 RMK
     AO2 T00200001=
KOSA 232010Z AUTO 18016G23KT 10SM BKN050 29/16 A2984 RMK AO2
     T02920157=
KOZA 232015Z AUTO 20016G25KT 10SM CLR 26/13 A2980 RMK AO2=
KPEQ 232015Z AUTO 23018G22KT 10SM CLR 33/07 A2965 RMK AO2
     T03250072=
KPVW 232010Z AUTO 23020G33KT 10SM SCT080 28/08 A2963 RMK AO2
     T02780084 TSNO=
KT20 232015Z AUTO 16012G20KT 10SM SCT048 SCT060 30/18 A2981 RMK
     AO2 T03010180=
KTXW 232010Z AUTO 17023G29KT 1/2SM HZ VV005 31/17 A2979 RMK AO2
     T03130170=
K2G9 232015Z AUTO 10007KT 10SM CLR 16/02 A3024 RMK AO2=
K2W6 232019Z AUTO 00000KT 10SM OVC019 14/12 A3018 RMK AO1=
KCGE 232015Z AUTO 34008KT 2SM BR BKN014 OVC020 15/15 A3016 RMK
     A01=
KDMW 232015Z AUTO 03005KT 10SM OVC060 17/10 A3022 RMK AO2=
KFME 232019Z AUTO 01003KT 10SM BKN031 BKN039 OVC065 17/08 A3022
     RMK AO1=
KFXY 232015Z AUTO 14027G32KT 10SM CLR 25/13 A2950 RMK AO2=
KI75 232015Z AUTO 16019G28KT 10SM CLR 28/14 A2951 RMK AO2
     T02830144=
KMLE 232015Z AUTO 16020G29KT 10SM CLR 30/13 A2933 RMK AO2
     T02960126=
KMQB 232015Z AUTO 17019G24KT 10SM CLR 24/13 A2975 RMK AO2
     T02430125=
KOOA 232015Z AUTO 16023G26KT 10SM CLR 28/19 A2958 RMK AO2
     T02830187=
KOQN 232015Z AUTO 03005KT 10SM OVC045 16/11 A3022 RMK AO2=
KOWX 232015Z AUTO 17006G16KT 10SM SCT060 25/06 A3009 RMK AO1=
KPEA 232015Z AUTO 16013G21KT 10SM SCT120 26/14 A2955 RMK AO2
     T02620143=
KPPQ 232015Z AUTO 15016G26KT 10SM CLR 25/15 A2974 RMK AO2
     T02480153=
KRCR 232015Z AUTO 16013G21KT 10SM FEW055 24/11 A2997 RMK AO2=
KRDK 232015Z AUTO 17031G38KT CLR 29/14 A2940 RMK AO2=
KSDA 232015Z AUTO 17029G37KT 10SM CLR 29/14 A2939 RMK AO2=
KSLB 232015Z AUTO 17024G36KT 10SM CLR 26/13 A2938 RMK AO2=
KTIP 232015Z AUTO 18025G31KT 10SM SCT047 24/13 A2989 RMK AO2
     T02400125=
KUMP 232015Z AUTO 17015G18KT 10SM CLR 26/11 A3001 RMK AO2
     T02580113=
KUYF 232015Z AUTO 15007KT 10SM CLR 24/04 A3010 RMK AO2=
KVES 232015Z AUTO 18007G17KT 10SM CLR 23/05 A3007 RMK AO2=
KW22 232015Z AUTO 02004KT 10SM CLR 24/02 A3018 RMK AO2=
KAPS 232021Z AUTO 16011KT 10SM CLR 27/13 A3004 RMK AO2=
KJSV 232020Z AUTO 16020G26KT A2975 RMK AO2=
KRGA 232019Z AUTO 15006KT 10SM CLR 26/06 A3012 RMK AO2=
KW99 232021Z AUTO 12004KT 10SM CLR 18/07 A3023 RMK AO2=
KEVM 232021Z AUTO 13010G16KT 10SM CLR 22/12 A2963 RMK AO2=
