SAUS80 KWBC 232018
METAR
KPZQ 232015Z AUTO 19011G18KT 10SM SCT060 25/10 A3004 RMK AO2
     T02460100=
KIKW 232015Z AUTO 18010G20KT 10SM CLR 25/10 A3003 RMK AO2
     T02450097=
KLYV 232015Z AUTO 16018G28KT 10SM CLR 26/10 A2931 RMK AO2=
KPOV 232015Z AUTO 15004KT 10SM CLR 24/00 A3015 RMK AO2 T02351005
     PWINO=
K40B 232016Z AUTO VRB03KT 19/05 A3032 RMK AO1 SLP270 T01910054
     56004=
KY23 232015Z AUTO 15023G31KT 10SM BKN046 25/15 A2963 RMK AO2
     T02490154=
KEKX 232015Z AUTO 18010G16KT 10SM CLR 25/07 A3007 RMK AO2
     T02460071=
KM21 232015Z AUTO 18010G19KT 10SM CLR 25/08 A3003 RMK AO2
     T02470081=
KSYN 232015Z AUTO 16020G25KT 10SM CLR 25/12 A2952 RMK AO2
     T02500121=
KTKV 232015Z AUTO 14005KT 10SM CLR 23/12 A2974 RMK AO2 T02260120
     PWINO=
KPTS 232015Z AUTO 19023G28KT 10SM CLR 30/14 A2963 RMK AO2
     T02970142 PWINO=
KSMS 232015Z AUTO 01008KT 10SM CLR 24/07 A3014 RMK AO2=
KSNC 232015Z AUTO 03006G12KT 4SM RA FEW001 SCT016 BKN032 11/10
     A3027 RMK AO2=
KSOW 232015Z AUTO 22020G37KT 10SM FEW033 BKN048 OVC055 12/04 A2982
     RMK AO2=
KCIR 232015Z AUTO 22015G20KT 10SM SCT050 SCT100 27/14 A2995 RMK
     AO2 T02700142=
KMKN 232015Z AUTO 18016G24KT 10SM CLR 31/15 A2976 RMK AO2
     T03050145=
KRLD 232015Z AUTO 23003KT 10SM CLR 15/00 A3010 RMK AO2
     T01510002=
KS39 232015Z AUTO 33006KT 10SM SCT041 09/M02 A3010 RMK AO2=
KSEP 232015Z AUTO 18017G25KT 10SM CLR 30/14 A2978 RMK AO2
     T02960135=
KEDU 232020Z AUTO 36015G21KT 320V020 10SM CLR 19/M02 A2998 RMK
     AO1=
KGNG 232015Z AUTO 27023G32KT 10SM CLR 08/M01 A2989 RMK AO2=
KVTI 232015Z AUTO 15022G32KT 10SM CLR 25/13 A2961 RMK AO2
     T02460130=
KSYN 232015Z AUTO 16020G25KT 10SM CLR 25/12 A2952 RMK AO2
     T02500121=
KTKV 232015Z AUTO 14005KT 10SM CLR 23/12 A2974 RMK AO2 T02260120
     PWINO=
KSNC 232015Z AUTO 03006G12KT 4SM RA FEW001 SCT016 BKN032 11/10
     A3027 RMK AO2=
KSVE 232015Z AUTO 06004KT 10SM BKN060 OVC070 M22/M49 A3006 RMK
     AO2=
KIKW 232015Z AUTO 18010G20KT 10SM CLR 25/10 A3003 RMK AO2
     T02450097=
KPZQ 232015Z AUTO 19011G18KT 10SM SCT060 25/10 A3004 RMK AO2
     T02460100=
KCLI 232015Z AUTO 12011G15KT 10SM CLR 22/13 A2980 RMK AO2
     T02240131=
KSOW 232015Z AUTO 22020G37KT 10SM FEW033 BKN048 OVC055 12/04 A2982
     RMK AO2=
