SAUS70 KWBC 231642 RRB
METAR
K2V5 231635Z AUTO 22028G36KT 10SM CLR 25/M04 A2925 RMK AO2=
K81R 231635Z AUTO 19012G21KT 10SM OVC029 24/17 A2989 RMK AO2
     T02380168=
KE16 231635Z AUTO 33011G16KT 10SM CLR 13/06 A3001 RMK AO2=
KE41 231635Z AUTO 19011G19KT 10SM CLR 22/15 A2986 RMK AO2
     T02160153=
KECU 231635Z AUTO 15014G21KT 10SM BKN013 22/17 A2995 RMK AO2=
KFMM 231635Z AUTO 26020G26KT 10SM CLR 19/M03 A2927 RMK AO2=
KGCD 231635Z AUTO 00000KT 10SM -DZ SCT014 BKN021 OVC029 02/00
     A3003 RMK AO2 T00150001=
KLLN 231635Z AUTO 21019G27KT 10SM SCT120 26/10 A2976 RMK AO2=
KMNH 231635Z AUTO 23017G25KT 10SM SCT120 16/M04 A2943 RMK AO2=
KPEZ 231635Z AUTO 17015G21KT 10SM SCT030 SCT038 27/19 A2990 RMK
     AO2 T02740190=
KPSO 231635Z AUTO 25015G26KT 4SM -RA OVC013 04/03 A2967 RMK AO2
     T00380033=
KRYW 231635Z AUTO 19009G18KT 10SM BKN024 BKN042 25/18 A2992 RMK
     AO2 T02500178=
KT74 231635Z AUTO 19017G22KT 10SM SCT026 BKN030 OVC046 26/18 A2991
     RMK AO2 T02620182=
KT82 231635Z AUTO 20013KT 10SM SCT028 24/16 A2992 RMK AO2
     T02350160=
KTEX 231635Z AUTO 22013G32KT 180V250 10SM SCT028 BKN046 OVC050
     02/M05 A2967 RMK AO2=
KVHN 231635Z AUTO 21016G22KT 10SM CLR 25/08 A2989 RMK AO2
     T02500076=
KVTP 231635Z AUTO 24018G33KT 10SM BKN023 BKN030 OVC045 M07/M14
     A2959 RMK AO2=
KADU 231635Z AUTO 17016G27KT 10SM SCT035 SCT050 BKN070 23/13 A2949
     RMK AO2 PWINO=
KAFK 231635Z AUTO 18022G29KT 10SM CLR 25/13 A2946 RMK AO2
     T02520128=
KAIO 231635Z AUTO 18018G27KT 7SM CLR 24/15 A2946 RMK AO2=
KAJG 231635Z AUTO 18018G27KT 10SM CLR 25/11 A3002 RMK AO2
     T02510114=
KASW 231635Z AUTO 17009G16KT 130V190 10SM CLR 22/11 A3006 RMK AO2
     T02240115=
KAUH 231635Z AUTO 18018G28KT 10SM CLR 24/11 A2934 RMK AO2
     T02370110=
KAWG 231635Z AUTO 17020G28KT 10SM CLR 23/15 A2970 RMK AO2=
KCAV 231635Z AUTO 16023G31KT 10SM CLR 22/14 A2955 RMK A01=
KDKB 231635Z AUTO 16019G24KT 10SM CLR 21/14 A2990 RMK AO2
     T02080140=
KDNS 231635Z AUTO RMK AO2 PNO PWINO=
KGGF 231635Z AUTO 22010G15KT 10SM CLR 22/01 A2922 RMK AO2=
KGHG 231635Z AUTO 06007KT 10SM CLR 15/13 A3034 RMK AO2=
KHDE 231635Z AUTO 18018G25KT 10SM CLR 24/10 A2930 RMK AO2
     T02350095=
KHHG 231635Z AUTO 19011G16KT 10SM CLR A3009 RMK AO2=
KHMZ 231635Z AUTO 00000KT 10SM CLR 13/04 A3029 RMK AO2
     T01280040=
KI63 231635Z AUTO 15015G22KT 10SM SCT120 21/13 A2980 RMK AO2
     T02140133=
KIBM 231635Z AUTO 33019G27KT 10SM CLR 14/01 A2931 RMK AO2
     T01370010=
KIKV 231635Z AUTO 16020G27KT 10SM CLR 23/13 A2958 RMK AO2=
KJOT 231635Z AUTO 17015G21KT 10SM CLR 23/13 A2992 RMK AO2
     T02300133=
KJYR 231635Z AUTO 18023KT 10SM CLR 25/12 A2935 RMK AO2=
KLXN 231635Z AUTO 19021G30KT 10SM CLR 27/06 A2926 RMK AO2
     T02650060=
KMGC 231635Z AUTO 17011G19KT 10SM CLR 22/12 A2999 RMK AO2=
KMQS 231635Z AUTO VRB05G12KT 10SM SCT047 SCT075 15/10 A3027 RMK
     AO2=
KOGS 231635Z AUTO 22004KT 10SM CLR 20/04 A3028 RMK AO2=
KOOA 231635Z AUTO 17020G28KT 10SM CLR 25/18 A2966 RMK AO2
     T02480175=
KPEA 231635Z AUTO 16016G24KT 10SM CLR 23/14 A2963 RMK AO2
     T02270135=
K06C 231635Z AUTO 16013G16KT 10SM CLR 22/15 A2991 RMK AO2
     T02160153=
KBAX 231635Z AUTO 18010KT 10SM CLR 22/12 A3013 RMK AO2
     T02150121=
KD39 231635Z AUTO 12016G19KT 10SM CLR 19/11 A2953 RMK AO2
     T01930112=
KDSF 231630Z AUTO 07008KT 10SM FEW042 24/14 A3014 RMK A01=
KERY 231635Z AUTO 17011G18KT 10SM CLR 19/11 A3001 RMK AO2
     T01850112=
KGLX 231635Z AUTO 05011KT 10SM CLR 26/13 A3013 RMK A01=
KHHV 231635Z AUTO 18017KT 10SM CLR 26/16 A2996 RMK A01=
KHYX 231635Z AUTO 15013KT 10SM CLR 23/11 A3010 RMK AO2
     T02290107=
