SAUS70 KWBC 231800
METAR
KC62 231755Z AUTO 18012G17KT 10SM CLR 22/12 A3008 RMK AO2
     T02300130=
