SAUS70 KWBC 231900 RRV
METAR
KADM 231850Z 17020G31KT 10SM CLR 28/15 A2972=
