SASA31 KWBC 232100 RRB
METAR
SKBO 232100Z 30007KT 9000 TS SCT013CB SCT017 16/13 Q1023 TEMPO
     TSRA=
SKCL 232100Z 31012KT 9999 SCT020CB SCT300 29/19 Q1011 NOSIG=
SMZO 232100Z 08010KT 9999 VCSH FEW018CB 31/23 Q1008 NOSIG=
SOCA 232130Z AUTO 09007KT CAVOK 28/24 Q1010 NOSIG=
