SAUS70 KWBC 231724 RRA
METAR
KADT 231715Z AUTO 21027G39KT 7SM CLR 27/02 A2933 RMK AO2
     T02720020=
KANK 231710Z AUTO 26006KT 10SM SCT031 SCT039 BKN048 07/02 A2961
     RMK AO1 T00700018=
KBMC 231710Z AUTO 10SM OVC090 05/M01 A2977 RMK AO1 T00461015=
KCHK 231710Z AUTO 17013KT 10SM CLR 24/17 A2970 RMK AO2
     T02410169=
KCPC 231715Z AUTO 36009G15KT 10SM CLR 21/02 A3016 RMK AO2
     T02100023=
KDCY 231715Z AUTO 17016G20KT 10SM CLR 25/12 A3004 RMK AO2
     T02460116=
KDLL 231735Z AUTO 14012KT 10SM CLR 20/11 A2980 RMK AO2
     T02020112=
KDUB 231714Z AUTO 28021G27KT 10SM SCT020 BKN034 OVC120 00/M08
     A2957 RMK AO2=
KEAN 231710Z AUTO 28008G15KT 10SM BKN046 BKN060 OVC090 10/M01
     A2942 RMK AO2 T01001012=
KEBS 231715Z AUTO 15022G32KT 10SM CLR 24/14 A2951 RMK AO2=
KGNB 231715Z AUTO 27010KT 10SM -SN SCT016 BKN024 OVC050 03/00
     A2956 RMK AO2 T00340001=
KGNC 231715Z AUTO 23016G22KT 10SM CLR 27/10 A2981 RMK AO2
     T02700095=
KHBV 231710Z AUTO 17019G24KT 10SM CLR 28/18 A2986 RMK AO2
     T02840177=
KHEQ 231715Z AUTO 24018G31KT 10SM CLR 27/M03 A2923 RMK AO2=
KHSG 231710Z AUTO 01010KT 3/4SM -SN OVC008 00/00 A2961 RMK AO2
     P0001 T00001002=
KMHP 231715Z AUTO 04007KT 010V080 10SM SCT044 24/12 A3017 RMK AO2
     T02370117=
KMMH 231714Z AUTO 35010KT 10SM CLR 03/M09 A2996 RMK AO2=
KMPZ 231710Z AUTO 17017G24KT 10SM CLR 24/17 A2972 RMK AO2=
KMYZ 231710Z AUTO 19022G32KT 10SM CLR 27/13 A2946 RMK AO2=
KOSA 231710Z AUTO 18018G23KT 10SM BKN034 OVC042 27/17 A2993 RMK
     AO2 T02670172=
KOZA 231715Z AUTO 17015G23KT 10SM CLR 23/15 A2988 RMK AO2=
KPEQ 231715Z AUTO 22011G19KT 180V260 10SM CLR 31/08 A2975 RMK AO2
     T03070078=
KPVW 231710Z AUTO 22024G33KT 10SM SCT120 28/10 A2969 RMK AO2
     T02760099=
KRBW 231715Z AUTO 33007KT 10SM CLR 22/10 A3017 RMK AO2=
KSLR 231710Z AUTO 18016G22KT 10SM BKN038 27/16 A2991 RMK AO2
     T02680156=
KTOC 231715Z AUTO 13003KT 10SM CLR 22/02 A3022 RMK AO2
     T02180018=
KTXW 231710Z AUTO 15020G30KT 1/4SM HZ VV002 30/18 A2985 RMK AO2
     T03030180=
KULS 231715Z AUTO 22037G44KT 3SM HZ CLR 27/02 A2941 RMK AO2=
KUYF 231715Z AUTO 14008KT 10SM SCT047 23/07 A3016 RMK AO2=
KW13 231735Z AUTO 10SM CLR 14/05 A3026 RMK AO1 T01410050=
KWWR 231715Z AUTO 20021G30KT 10SM CLR 26/11 A2961 RMK AO2=
KX26 231715Z AUTO 35010KT 10SM CLR 27/19 A3010 RMK AO2
     T02690187=
KEVM 231721Z AUTO 14007KT 10SM SCT075 SCT095 19/11 A2969 RMK
     AO2=
KOAR 231715Z AUTO 00000KT 10SM CLR M06/M16 A3000 RMK AO2=
KANK 231710Z AUTO 26006KT 10SM SCT031 SCT039 BKN048 07/02 A2961
     RMK AO1 T00700018=
KAXX 231715Z AUTO 23020G33KT 10SM OVC055 10/M02 A2970 RMK AO2
     T01041016=
KBMC 231710Z AUTO 10SM OVC090 05/M01 A2977 RMK AO1 T00461015=
KBMT 231715Z AUTO 15012G19KT 10SM SCT050 SCT060 29/18 A2999 RMK
     AO2 T02890178=
KDUB 231714Z AUTO 28021G27KT 10SM SCT020 BKN034 OVC120 00/M08
     A2957 RMK AO2=
KEAN 231710Z AUTO 28008G15KT 10SM BKN046 BKN060 OVC090 10/M01
     A2942 RMK AO2 T01001012=
KETN 231715Z AUTO 18019G27KT 10SM CLR 26/15 A2981 RMK AO2
     T02630153=
KGLE 231715Z AUTO 18021G28KT 10SM CLR 26/16 A2982 RMK AO2
     T02610155=
KGNB 231715Z AUTO 27010KT 10SM -SN SCT016 BKN024 OVC050 03/00
     A2956 RMK AO2 T00340001=
KHBV 231710Z AUTO 17019G24KT 10SM CLR 28/18 A2986 RMK AO2
     T02840177=
KHEQ 231715Z AUTO 24018G31KT 10SM CLR 27/M03 A2923 RMK AO2=
KHSG 231710Z AUTO 01010KT 3/4SM -SN OVC008 00/00 A2961 RMK AO2
     P0001 T00001002=
KOSA 231710Z AUTO 18018G23KT 10SM BKN034 OVC042 27/17 A2993 RMK
     AO2 T02670172=
KPEQ 231715Z AUTO 22011G19KT 180V260 10SM CLR 31/08 A2975 RMK AO2
     T03070078=
