SAUS70 KWBC 231900 RRM
METAR
KTOR 231853Z AUTO 31019G39KT 10SM SCT110 11/03 A2932 RMK AO2 PK
     WND 33044/1828 SLP908 T01060028=
KTPA 231853Z 04004KT 10SM FEW055 28/14 A3006 RMK AO2 SLP180
     T02830144=
KTRL 231853Z AUTO 18016G32KT 10SM SCT048 28/15 A2985 RMK AO2 PK
     WND 17034/1825 SLP099 T02830150=
KTTD 231853Z VRB03KT 10SM BKN021 OVC032 12/07 A3018 RMK AO2 SLP219
     T01220067=
KTTN 231853Z 06016KT 10SM SCT048 17/10 A3023 RMK AO2 SLP229
     T01670100=
KTUL 231853Z 17028G38KT 10SM FEW120 BKN180 27/16 A2969 RMK AO2 PK
     WND 17040/1828 SLP044 T02670156=
KTVC 231853Z 18013G28KT 10SM FEW050 BKN250 24/11 A2993 RMK AO2 PK
     WND 20028/1847 SLP135 T02440111=
KTVL 231853Z AUTO 10SM CLR 04/M09 A2999 RMK AO2 SLP148
     T00441089=
KTVR 231853Z AUTO 17015G21KT 10SM CLR 29/14 A3003 RMK AO2 SLP173
     T02940144=
KTVY 231855Z AUTO 28011G15KT 10SM SCT050 OVC060 03/00 A2984 RMK
     AO2=
KTXK 231853Z 19013G23KT 10SM BKN048 29/16 A2991 RMK AO2 SLP123
     T02890156=
KTYR 231853Z 18020G31KT 10SM SCT050 29/16 A2988 RMK AO2 PK WND
     17031/1833 SLP109 T02940156=
KUAO 231853Z 17005KT 10SM BKN015 OVC055 12/07 A3018 RMK AO2 SLP221
     T01170072=
KDFW 231853Z 18023G38KT 10SM SCT044 SCT250 29/16 A2977 RMK AO2 PK
     WND 18038/1848 SLP072 T02940161=
KDGW 231853Z AUTO 31016G25KT 10SM OVC017 04/02 A2949 RMK AO2 PK
     WND 33029/1831 RAE39 SLP962 P0001 T00390017=
KDHN 231853Z 10SM CLR 26/02 A3017 RMK AO2 SLP211 T02610022=
KDHT 231853Z AUTO 21030G49KT 10SM CLR 27/03 A2954 RMK AO2 PK WND
     22053/1812 SLP948 T02720033=
KDKK 231853Z AUTO 02006KT 10SM CLR 21/06 A3020 RMK AO2 SLP224
     T02110056=
KDLS 231853Z AUTO 30014G23KT 10SM CLR 15/01 A3011 RMK AO2 SLP196
     T01500006=
KDMO 231853Z AUTO 19018G30KT 10SM CLR 30/14 A2967 RMK AO2 PK WND
     16032/1842 SLP039 T03000139=
KDNL 231853Z AUTO VRB05KT 10SM CLR 24/08 A3015 RMK AO2 SLP207
     T02440078=
KDRO 231853Z AUTO 26014G24KT 10SM BKN060 BKN070 OVC110 06/M01
     A2973 RMK AO2 PK WND 27040/1802 SLP028 T00561011 $=
KDTN 231853Z AUTO 18013G24KT 10SM BKN055 29/14 A2994 RMK AO2
     SLP136 T02890139=
KDTO 231853Z 17023G38KT 10SM CLR 29/16 A2978 RMK AO2 PK WND
     18039/1817 SLP076 T02940156=
KDTW 231853Z 16010KT 10SM FEW060 BKN220 23/10 A3011 RMK AO2 SLP195
     T02330100 $=
KDUJ 231853Z AUTO 13008KT 10SM CLR 18/01 A3024 RMK AO2 SLP240
     T01830011=
KDVT 231853Z 26012KT 10SM CLR 21/08 A2977 RMK AO2 SLP064
     T02110083=
KDWH 231853Z 18008G23KT 120V200 10SM FEW065 31/14 A2990 RMK AO2
     SLP124 T03060144=
KECP 231853Z 32005KT 10SM CLR 28/04 A3011 RMK AO1 SLP207
     T02780039=
KEEO 231853Z AUTO 28005KT 1SM -SN BR BKN014 OVC023 M01/M02 A2962
     RMK AO2 SLP015 P0005 T10061017=
KEET 231853Z AUTO 14006KT 10SM CLR 24/05 A3014 RMK AO2 SLP203
     T02440050=
KELD 231853Z AUTO 17014G23KT 10SM CLR 28/15 A2995 RMK AO2 PK WND
     17026/1839 SLP139 T02780150=
KELM 231853Z VRB04KT 10SM CLR 21/03 A3024 RMK AO2 SLP243
     T02060028=
KELN 231853Z AUTO 32005KT 10SM CLR 12/M02 A3005 RMK AO2 SLP181
     T01221022 $=
KENW 231853Z 15012G22KT 10SM CLR 23/13 A2986 RMK AO2 SLP107
     T02330133=
KEPH 231853Z AUTO 35011KT 10SM 12/M03 A3004 RMK AO2 SLP175
     T01221033 $=
KEQY 231853Z AUTO VRB04KT 10SM CLR 22/06 A3016 RMK AO2 SLP218
     T02220056=
KESF 231853Z AUTO 17010KT 10SM BKN060 28/16 A2999 RMK AO2 SLP155
     T02780156=
KEVW 231853Z AUTO 29016KT 10SM SCT035 BKN043 OVC060 M01/M06 A2971
     RMK AO2 SLP058 T10061056 $=
KMCI 231853Z 20024G37KT 10SM FEW130 SCT200 30/14 A2955 RMK AO2 PK
     WND 17037/1844 SLP993 T03000139=
