SAUS70 KWBC 232100 RRL
METAR
KRNT 232053Z 00000KT 10SM FEW023 12/06 A3017 RMK AO2 SLP222
     T01170061 51009=
KRSL 232053Z AUTO 21033G51KT 3SM HZ BKN036 OVC044 33/04 A2930 RMK
     AO2 PK WND 22055/2006 SLP902 T03280044 56025=
KRUE 232053Z AUTO 17007G15KT 10SM FEW046 27/16 A2984 RMK AO2
     SLP096 T02720156 56024 $=
KRVS 232053Z 18017G28KT 10SM CLR 29/14 A2966 RMK AO2 PK WND
     18032/1957 SLP044 T02890139 55018=
KRWF 232053Z AUTO 13027G36KT 10SM CLR 27/13 A2936 RMK AO2 PK WND
     13042/2003 SLP938 T02670128 56023=
KRWI 232053Z AUTO 35011KT 10SM OVC024 20/13 A3012 RMK AO2 SLP200
     T02000128 55005=
KRXE 232053Z AUTO 35011G22KT 10SM SCT042 BKN050 BKN060 06/M05
     A2979 RMK AO2 SLP091 T00611050 53011=
KSAC 232053Z 32020G27KT 10SM CLR 22/M03 A2994 RMK AO2 PK WND
     32027/2053 SLP139 T02171028 58013=
KSEG 232053Z AUTO 00000KT 10SM OVC050 17/09 A3025 RMK AO2 SLP246
     T01670089 56009=
KSFF 232053Z 23004KT 10SM SCT034 BKN055 09/01 A3005 RMK AO2 SLP182
     T00940006 51010=
KSGR 232053Z 17015G22KT 10SM FEW065 31/14 A2987 RMK AO2 SLP115
     T03060144 56025=
KSHD 232055Z AUTO 10003KT 10SM OVC034 18/06 A3023 RMK AO2
     T01780059=
KSHN 232053Z AUTO VRB03KT 10SM CLR 11/07 A3015 RMK AO2 SLP212
     T01060067 50006=
KSHR 232053Z AUTO 32025G33KT 10SM FEW019 BKN060 OVC080 04/00 A2959
     RMK AO2 PK WND 31033/2008 SLP026 60000 T00390000 53008=
KSIY 232053Z AUTO 01009G14KT 10SM CLR 12/M01 A3015 RMK AO2 SLP222
     T01171006 58002=
KSJC 232053Z 30010KT 10SM CLR 20/01 A2997 RMK AO2 SLP147 T02000006
     58016=
KSMF 232053Z 34018G23KT 10SM CLR 22/M03 A2995 RMK AO2 PK WND
     36027/2043 SLP143 T02221028 58009=
KSMQ 232053Z AUTO 04005KT 10SM OVC055 17/08 A3021 RMK AO2 SLP232
     T01720078 58010=
KSNA 232053Z 18010KT 10SM SCT042 22/11 A2984 RMK AO2 SLP104
     T02170106 58007=
KSNS 232053Z 29013KT 10SM CLR 19/03 A2996 RMK AO2 SLP154 T01890033
     58012=
KFRG 232053Z 05007G16KT 10SM OVC033 15/09 A3024 RMK AO2 SLP239
     T01500094 56009 $=
KFSM 232053Z 15015G28KT 10SM CLR 28/15 A2977 RMK AO2 PK WND
     14028/2053 SLP077 T02830150 58022=
KFTY 232053Z VRB03KT 10SM CLR 23/01 A3014 RMK AO2 SLP202 T02280011
     56020=
KFWN 232053Z AUTO 06005KT 10SM BKN120 16/08 A3027 RMK AO2 SLP253
     T01610083 $=
KFYV 232053Z 16018G34KT 10SM CLR 26/14 A2976 RMK AO2 PK WND
     17036/2043 SLP063 T02610139 56029=
KGAG 232053Z AUTO 18025G33KT 10SM CLR 26/11 A2952 RMK AO2 PK WND
     17035/1958 SLP966 T02610111 56015=
KGEY 232053Z AUTO 34017G31KT 10SM SCT024 BKN030 OVC110 04/01 A2962
     RMK AO2 PK WND 32031/2044 SLP039 60001 T00440011 53006=
KGFK 232053Z 11015G24KT 10SM CLR 25/12 A2936 RMK AO2 SLP942
     T02500117 56038 $=
KGGE 232055Z AUTO 35005KT 10SM CLR 22/07 A3011 RMK AO2=
KGGW 232053Z AUTO 33008KT 1 3/4SM -SN BR OVC006 01/00 A2959 RMK
     AO2 SLP039 P0006 60023 T00110000 51007=
KGIF 232053Z AUTO 05008KT 10SM CLR A3007 RMK AO2 SLPNO 56010 $=
KGKJ 232053Z AUTO VRB04KT 10SM CLR 22/02 A3017 RMK AO2 SLP216
     T02170017 56014=
KGLH 232053Z 18019G27KT 10SM CLR 29/12 A2995 RMK AO2 PK WND
     19027/2051 SLP146 T02940122 56027=
KGLR 232053Z AUTO 16014G28KT 10SM CLR 23/09 A3000 RMK AO2 PK WND
     18028/2046 SLP156 T02330094 56009=
KGMU 232053Z 00000KT 10SM CLR 23/03 A3016 RMK AO2 SLP208 T02330028
     56013=
KGPT 232053Z 12010KT 10SM CLR 25/15 A3007 RMK AO2 SLP182 T02500150
     56016=
KGRB 232053Z 14016G26KT 10SM CLR 21/12 A2983 RMK AO2 PK WND
     15026/2042 SLP100 T02060122 56013 $=
KGRI 232053Z 19020G33KT 9SM BKN037 31/08 A2924 RMK AO2 PK WND
     21039/2007 SLP888 T03060083 56017 $=
