SACA41 KWBC 231700 RRA
METAR
TDCF 231700Z 33003KT 9999 -SHRA BKN016 29/24 Q1011=
