SAUS70 KWBC 232100 RRU
METAR
PAKK 232056Z AUTO 18006KT 10SM SCT065 BKN075 01/00 A2985 RMK AO2
     SLP119 T00060000 58004 FZRANO=
PAKP 232056Z AUTO 20011KT 4SM -SN BR BKN003 M11/M12 A2989 RMK AO2
     SLP180 P0000 60000 T11061122 50001 FZRANO=
PALG 232056Z AUTO VRB06KT 10SM FEW003 M01/M02 A3000 RMK AO2 SLP162
     T10111017 56015 FZRANO=
PAMB 232056Z AUTO 20003KT 8SM CLR 02/M02 A3011 RMK AO2 SLP199
     T00171017 51001 FZRANO $=
PAMK 232056Z AUTO 18018KT 10SM OVC060 02/M01 A2989 RMK AO2 SLP122
     T00221011 57009 FZRANO=
PANA 232056Z AUTO 16010G16KT 10SM BKN025 OVC033 01/01 A2995 RMK
     AO2 UPB29E52RAB40E45 SLP140 P0000 60000 T00060006 58021
     FZRANO TSNO $=
PANV 232056Z AUTO 16008KT 3SM BR OVC003 M02/M02 A2997 RMK AO2
     SLP255 T10171022 56005 FZRANO TSNO=
PANW 232056Z AUTO 11004KT 10SM CLR 01/M02 A3010 RMK AO2 SLP199
     T00111022 58000 FZRANO=
PAOO 232056Z AUTO 10009KT BKN028 OVC035 03/03 A2984 RMK AO2 SLP108
     T00330033 58030 PWINO TSNO $=
PAOU 232056Z AUTO 21016KT 10SM BKN110 06/03 A3019 RMK AO2 SLP222
     6//// T00610028 58007 PNO $=
PAPG 232056Z 13009G14KT 10SM FEW027 SCT038 OVC070 07/02 A2938 RMK
     AO2 RAE54 SLP954 P0001 60006 T00720022 56044=
PAPH 232056Z AUTO 27011KT 10SM FEW029 07/02 A3017 RMK AO2 SLP217
     60000 T00720017 50004=
PAPM 232056Z AUTO 17016G21KT 8SM -RA SCT018 BKN030 OVC038 A3001
     RMK AO2 UPB46E48RAB48 SLPNO 6//// FZRANO $=
PAQH 232056Z AUTO 11012KT 10SM OVC030 03/03 A2997 RMK AO2 SLP150
     T00280028 58020=
PARC 232056Z AUTO 00000KT 9SM -SN CLR M08/M13 A2991 RMK AO2 SLP194
     P0000 60000 T10831128 50003 FZRANO=
PARS 232056Z AUTO 10003KT 10SM OVC005 A2998 RMK AO2 SLPNO 60000
     56014 FZRANO $=
PARY 232056Z AUTO VRB03KT 10SM OVC027 M01/M02 A3001 RMK AO2
     UPE56SNB42E51 SLP174 P0000 60000 T10111022 58002 FZRANO=
PASA 232056Z AUTO 29012KT 1 3/4SM -SN BR OVC014 01/M01 A2972 RMK
     AO2 VIS 3/4V5 UPE09B47E49RAB37E51SNB51 SLP065 P0000 60000
     T00061006 53014 FZRANO=
PASD 232056Z 23008KT 10SM FEW024 SCT048 BKN060 08/02 A3023 RMK AO2
     SLP240 6//// T00780017 58001 PNO $=
PASH 232056Z AUTO 09010KT 4SM -SN BR FEW006 BKN016 OVC030 M01/M02
     A2975 RMK AO2 SNB04 SLP073 6//// T10111022 58013 FZRANO PNO
     $=
PASK 232056Z AUTO 12006KT 10SM FEW040 BKN048 M01/M01 A2991 RMK AO2
     SLP125 T10061011 56001 FZRANO=
PASL 232056Z AUTO 00000KT 10SM CLR 01/M01 A3009 RMK AO2 SLP183
     T00061011 58006 FZRANO=
PASM 232056Z AUTO 15012G19KT 10SM UP OVC002 00/00 A2988 RMK AO2
     UPB00SNE00B18E30 SLP128 P0000 60000 T00000000 58015
     FZRANO=
PASX 232056Z AUTO 00000KT 10SM CLR 03/00 A2995 RMK AO2 SLP149
     T00280000 51006=
PATE 232056Z AUTO 11009KT 10SM UP OVC014 01/00 A2967 RMK AO2
     UPB05E08B25RAB08E18SNE05 SLP052 P0000 60000 T00060000 56007
     FZRANO=
PATG 232056Z AUTO 35006KT 10SM OVC023 M01/M02 A3010 RMK AO2 SLP191
     T10061017 58007 FZRANO=
PATQ 232056Z AUTO 11014KT 10SM CLR M09/M11 A2993 RMK AO2 SLP140
     T10891106 50002 FZRANO TSNO=
PAUN 232056Z AUTO 10007KT 10SM CLR M01/M03 A2995 RMK AO2
     UPB22E25SNE22 SLP144 P0000 60000 T10061028 58003 FZRANO=
PAUT 232055Z AUTO 21023G30KT 10SM OVC044 07/04 A3018 RMK AO2=
PAVD 232056Z 03014G30KT 350V060 10SM FEW070 BKN200 BKN300 A2981
     RMK AO2 PK WND 06031/2031 SLPNO 05/M06 6//// 54000 PNO $=
PAWN 232056Z AUTO 15008KT 10SM FEW023 OVC043 01/01 A2984 RMK AO2
     SLP118 60000 T00060006 51010 FZRANO=
PAWS 232056Z AUTO 00000KT 10SM CLR 00/M04 A2990 RMK AO2 SLP130
     T00001044 51006 FZRANO=
PAZK 232056Z AUTO 00000KT 10SM OVC026 M03/M08 A2978 RMK AO2
     SNB00E10B26E37 SLP144 P0000 60000 T10331078 51006 FZRANO=
