SAPA32 KWBC 231800 RRB
METAR
NWWW 231830Z AUTO 06010KT 360V110 9999 FEW056 BKN120 25/18 Q1011
     NOSIG=
