SAUS80 KWBC 232000 RRF
METAR
KMEH 231956Z AUTO 26004KT 10SM SCT019 SCT024 BKN044 04/00 A3005
     RMK AO2 SLP192 T00390000=
KCUL 231957Z AUTO 17017G21KT 10SM CLR 28/09 A2996 RMK AO2=
KP53 231956Z AUTO 18014G32KT 20/12 A2989 RMK AO1 PK WND 18032/1953
     SLP122 T02000117=
KMOB 231956Z COR VRB04KT 10SM FEW250 27/07 A3010 RMK AO2 SLP189
     T02670067 $=
