SAUS70 KWBC 232100 RRH
METAR
KPGV 232055Z AUTO 36007KT 10SM OVC018 18/16 A3010 RMK AO2=
KPHL 232054Z 05009KT 10SM -RA BKN030 BKN043 OVC075 15/13 A3021 RMK
     AO2 SLP230 P0003 60003 T01500133 55006 $=
KPLN 232054Z AUTO 16006KT 10SM BKN080 23/10 A2998 RMK AO2 SLP151
     T02280100 56012 $=
KPLR 232055Z AUTO 00000KT 10SM CLR 25/04 A3011 RMK A01=
KPNE 232054Z 06012KT 6SM -RA FEW036 BKN045 OVC055 15/11 A3022 RMK
     AO2 SLP234 P0002 60002 T01500106 58008=
K10G 232055Z AUTO 16007KT 10SM CLR 22/04 A3014 RMK AO2=
KS24 232055Z AUTO 17010KT 10SM CLR 24/07 A3008 RMK AO2 LTG DSNT
     W=
KEWB 232053Z 02007KT 4SM -RA BR FEW038 OVC085 14/14 A3026 RMK AO2
     SLP248 P0015 60016 T01390139 58008=
KFOZ 232053Z AUTO 10015G21KT 10SM CLR 23/12 A2960 RMK AO2=
KFVE 232053Z AUTO 18003KT 10SM CLR 19/07 A3031 RMK AO2 SLP264
     T01940072 55001=
KLEB 232053Z 00000KT 10SM CLR 14/09 A3032 RMK AO2 SLP267 T01440089
     58005=
KMCK 232053Z AUTO 23023G39KT 5SM HZ BKN032 OVC040 29/M03 A2922 RMK
     AO2 PK WND 24045/2004 SLP869 T02941028 56006=
KMDW 232053Z 16015G26KT 10SM FEW050 SCT130 SCT250 27/12 A2984 RMK
     AO2 PK WND 15042/1958 SLP094 T02670122 56015=
KMGW 232053Z 02003KT 10SM CLR 23/02 A3018 RMK AO2 SLP215 T02330022
     56016=
KMIE 232053Z 19011G19KT 10SM CLR 25/08 A3002 RMK AO2 SLP159
     T02500078 56015=
KWST 232053Z AUTO VRB05KT 8SM -RA FEW080 BKN110 13/12 A3026 RMK
     AO2 SLP247 P0005 60008 T01330117 58005=
KXVG 232053Z AUTO 12010G20KT 074V144 10SM CLR 23/12 A2949 RMK
     AO2=
KBGM 232053Z 00000KT 10SM CLR 16/09 A3027 RMK AO2 SLP254 T01610089
     55006=
KBOS 232054Z 03007KT 10SM -RA FEW070 OVC110 13/09 A3033 RMK AO2
     SLP271 P0001 60002 T01330089 55004=
KDTW 232053Z 16009KT 10SM FEW055 SCT120 BKN220 22/09 A3009 RMK AO2
     SLP187 T02220094 56015 $=
KGRB 232053Z 14016G26KT 10SM CLR 21/12 A2983 RMK AO2 PK WND
     15026/2042 SLP100 T02060122 56013 $=
KLNS 232053Z 04008KT 10SM -RA BKN050 BKN075 OVC095 17/11 A3023 RMK
     AO2 RAB37 SLP237 P0000 60000 T01670106 57006=
KMBS 232053Z 15009KT 10SM FEW060 23/11 A3005 RMK AO2 SLP173
     T02330111 56009=
KMCW 232053Z AUTO 15025G37KT 10SM CLR 23/13 A2953 RMK AO2 PK WND
     17043/2041 SLP991 T02280128 55007=
KPBG 232053Z AUTO 00000KT 10SM CLR 15/08 A3028 RMK AO2 SLP257
     T01500083 56004=
KPOU 232053Z 00000KT 10SM BKN120 14/08 A3027 RMK AO2 SLP249
     T01390083 58001=
KTTN 232053Z 03010KT 10SM OVC037 16/09 A3022 RMK AO2 RAB15E31
     SLP226 P0000 60000 T01560089 55007=
KBLI 232053Z 18007KT 10SM FEW020 SCT050 11/08 A3014 RMK AO2 SLP214
     T01060078 50004=
KCPR 232053Z 29011KT 10SM -RA FEW009 OVC050 03/02 A2954 RMK AO2
     RAE35B40 SLP988 P0001 60001 T00280022 53011=
KLAA 232053Z AUTO 23025G35KT 10SM FEW120 27/M02 A2932 RMK AO2 PK
     WND 23041/2028 SLP881 T02721022 55010=
KPIH 232053Z 24015KT 10SM FEW026 BKN045 BKN080 04/M03 A2984 RMK
     AO2 RAB39E45 SLP111 P0000 60000 T00441028 53008 $=
KRNT 232053Z 00000KT 10SM FEW023 12/06 A3017 RMK AO2 SLP222
     T01170061 51009=
KSMF 232053Z 34018G23KT 10SM CLR 22/M03 A2995 RMK AO2 PK WND
     36027/2043 SLP143 T02221028 58009=
KTCC 232053Z AUTO 23029G41KT 10SM CLR 24/02 A2953 RMK AO2 PK WND
     23049/2031 SLP946 T02390017 56022=
KTOR 232053Z AUTO 31023G36KT 10SM OVC100 08/01 A2941 RMK AO2 PK
     WND 31037/2005 SLP942 T00780011 53026=
KGUC 232056Z AUTO 28019G26KT 10SM FEW065 04/M05 A2962 RMK AO2 PK
     WND 25033/2030 SLP987 60000 T00391050 51005=
KGXY 232056Z 20008G22KT 10SM -TSRA FEW045 SCT055 OVC070 13/04
     A2935 RMK AO2 LTG DSNT SE AND NW TSB50RAB15 SLP930 P0000
     60000 T01280044 53013 $=
