SAUS80 KWBC 231904
METAR
K77S 231915Z AUTO VRB04KT 10SM FEW030 BKN042 13/07 A3019 RMK
     A01=
KM25 231915Z AUTO 21016G22KT 10SM CLR 26/07 A3002 RMK AO2
     PWINO=
KROS 231903Z AUTO 13013G21KT 10SM SCT045 26/14 A2956 RMK AO2=
