SACA31 KWBC 232000 RRA
METAR
MKJP 232000Z 14015KT 9999 TS SCT020CB 31/22 Q1010=
