SAUS80 KWBC 231800
METAR
KCQT 231747Z AUTO 13006KT 10SM CLR 19/11 A2986 RMK AO2 SLP111
     T01940111 10200 20133 50011=
KGNT 231755Z AUTO 25022G31KT 10SM BKN046 OVC050 13/02 A2979 RMK
     AO2 T01340018 10144 20087=
