SAUS70 KWBC 231900
METAR
PALP 231850Z 11008KT 3SM BR OVC003 M06/M09 A3003=
PAMD 231851Z AUTO 33016G22KT 10SM CLR 07/03 A2966 RMK AO2 SLP030
     T00720028 PNO $=
KEFD 231854Z 13022G27KT 10SM BKN055 29/17 A2992=
KFMH 231845Z 06012KT 610SM FEW008 SCT012 BKN035 14/14 A3028=
K1S5 231855Z AUTO 27003KT 10SM CLR 10/02 A3009 RMK AO2
     T01040018=
KADS 231847Z 18018G28KT 10SM SCT044 28/15 A2981=
KAEG 231847Z 22023G28KT 10SM SCT075 SCT085 18/M01 A2970=
KCIC 231847Z 31020G27KT 10SM CLR 19/M03 A3003=
KCNW 231855Z 19017G21KT 10SM BKN045 29/16 A2984=
KEFD 231854Z 13022G27KT 10SM BKN055 29/17 A2992=
KFWS 231848Z 16017G30KT 10SM FEW045 29/15 A2982=
KGPM 231850Z 18015G22KT 10SM SCT045 29/15 A2982=
KGYI 231850Z 17023G28KT 10SM SKC 28/15 A2981=
KGYR 231847Z 22007G17KT 10SM BKN080 23/09 A2978=
KIFP 231848Z 34016KT 20SM FEW100 21/M01 A2980=
KJXI 231855Z AUTO 19014G23KT 10SM SCT047 28/14 A2989 RMK AO2
     T02760141=
KMCJ 231855Z AUTO 17016G27KT 140V200 10SM SCT055 SCT065 28/14
     A2990 RMK A01=
KMER 231853Z 31014G22KT 7SM CLR 20/00 A2995=
KRHV 231847Z 30011KT 10SM SKC 17/04 A3001=
KRYN 231845Z 26005G10KT 10SM CLR 22/08 A2980=
KTOA 231847Z VRB05KT 10SM SCT020 23/11 A2986=
KTRK 231845Z 12009G15KT 10SM CLR 04/M08 A3003=
K2C8 231855Z AUTO 04010G17KT 10SM CLR 15/08 A2950 RMK AO2=
KCLK 231855Z AUTO 17021G27KT 10SM CLR 25/12 A2963 RMK AO2=
KD50 231855Z AUTO 05021G28KT 10SM OVC014 05/03 A2954 RMK AO2=
KDAG 231850Z AUTO VRB03KT 10SM CLR 18/M06 A2988 RMK AO2 SLP103
     T01781056=
KFRR 231855Z AUTO 00000KT 10SM OVC026 16/07 A3023 RMK AO1=
KHDN 231851Z AUTO 27018KT 1 1/4SM -SN BR BKN005 OVC011 M01/M01
     A2959 RMK AO2 CIG 003V007 SLP019 P0000 T10061006 FZRANO=
KHSA 231850Z 17011G17KT 10SM CLR 26/14 A3011=
KLGU 231851Z AUTO 34011KT 10SM FEW026 SCT039 OVC049 04/M01 A2980
     RMK AO2 SLP091 T00391011=
KLQK 231855Z AUTO 10SM CLR 24/03 A3016 RMK AO2 T02380028=
KOCF 231851Z 35006KT 10SM CLR 28/13 A3010 RMK AO2 SLP192 T02780128
     PNO $=
KOXC 231851Z 04007KT 10SM -RA BKN100 13/07 A3029 RMK AO2 RAB06
     SLP270 P0000 T01330072=
KTPL 231851Z AUTO 16022G28KT 10SM BKN049 29/17 A2983 RMK AO2 PK
     WND 17032/1810 SLP090 T02940167=
KY51 231855Z AUTO 14019G24KT 10SM CLR 23/14 A2969 RMK AO1
     T02250144=
KSLK 231851Z AUTO 00000KT 10SM CLR 20/03 A3028 RMK AO2 SLP260
     T02000028=
TJBQ 231850Z 07010KT 10SM CLR 29/23 A2990=
KACT 231851Z 18022G31KT 10SM SCT050 29/16 A2982 RMK AO2 PK WND
     18038/1809 SLP091 T02890161 $=
KBAZ 231851Z 16021G26KT 10SM BKN049 BKN055 30/17 A2983 RMK AO2 PK
     WND 18028/1800 SLP093 T03000172=
KBED 231851Z 04004KT 10SM CLR 16/09 A3032 RMK AO2 SLP282
     T01560094=
KBGD 231851Z AUTO 18017G37KT 10SM CLR 27/11 A2959 RMK AO2 PK WND
     19039/1818 SLP976 T02670106=
KDAW 231851Z AUTO 10004KT 10SM CLR 18/08 A3034 RMK AO2 SLP274
     T01780078=
KHDO 231851Z AUTO 16015G23KT 10SM CLR 29/18 A2983 RMK AO2
     RAB1756E44 SLP087 P0000 T02890178=
KJCT 231851Z AUTO 20011G23KT 10SM CLR 28/16 A2981 RMK AO2 PK WND
     16028/1834 SLP059 T02830156 $=
KLWB 231851Z 00000KT 10SM CLR 20/03 A3021=
KMPV 231851Z AUTO 16004KT 10SM CLR 20/03 A3035 RMK AO2 SLP281
     T02000033=
KORD 231851Z 18019G33KT 10SM FEW055 26/13 A2985 RMK AO2 PK WND
     18033/1849 SLP104 T02560128=
KPHX 231851Z 27010KT 10SM SCT050 BKN080 BKN110 23/08 A2976 RMK AO2
     SLP061 T02280078 $=
KPWM 231851Z 11004KT 10SM FEW120 BKN150 OVC200 14/11 A3036 RMK AO2
     SLP281 SUN DMLY VSBL T01440111=
KRDU 231851Z 02008KT 330V080 10SM BKN250 21/06 A3016 RMK AO2
     SLP212 T02060061=
KSJT 231851Z 18016G27KT 10SM CLR 29/13 A2975 RMK AO2 PK WND
     20027/1811 SLP051 T02890133=
