SAUS80 KWBC 232134
METAR
KSVE 232135Z AUTO 11005KT 10SM BKN070 M22/M52 A3007 RMK AO2=
