SAUS70 KWBC 231800 RRX
METAR
KGNB 231755Z AUTO 29004KT 10SM BKN020 BKN033 OVC070 03/00 A2957
     RMK AO2 T00311001 10036 20014=
KGNC 231755Z AUTO 22018G24KT 10SM CLR 28/10 A2980 RMK AO2
     T02790099 10279 20160=
KHBV 231750Z AUTO 16017G22KT 10SM CLR 30/18 A2984 RMK AO2
     T02960175=
KHEQ 231755Z AUTO 24011G23KT 10SM CLR 27/M03 A2923 RMK AO2=
KHSG 231750Z AUTO 01004KT 3/4SM -SN OVC013 00/00 A2961 RMK AO2
     P0002 60007 T00000000 10038 20000=
KMHP 231750Z AUTO 02005KT 10SM SCT046 24/12 A3016 RMK AO2
     T02410117 10243 20061=
KMMH 231754Z AUTO 02008G15KT 10SM CLR 05/M10 A2996 RMK AO2=
KMPZ 231750Z AUTO 17018G28KT 10SM CLR 24/17 A2971 RMK AO2=
KMYZ 231755Z AUTO 20024G29KT 10SM CLR 28/13 A2944 RMK AO2=
KOSA 231755Z AUTO 19015G20KT 10SM BKN041 OVC048 28/17 A2991 RMK
     AO2 T02800173 10283 20186=
KOZA 231755Z AUTO 20020G25KT 10SM CLR 24/15 A2987 RMK AO2=
KPEQ 231755Z AUTO 22015G20KT 10SM CLR 31/08 A2974 RMK AO2
     T03130080 10313 20132=
KPVW 231755Z AUTO 23022G31KT 10SM CLR 27/09 A2968 RMK AO2
     T02710092 10279 20149=
KRBW 231755Z AUTO 03007KT 10SM CLR 23/10 A3016 RMK AO2=
KAFO 231755Z AUTO 31012KT 10SM BKN028 OVC033 00/M06 A2971 RMK
     AO2=
KAXX 231755Z AUTO 23026G35KT 10SM SCT050 BKN060 OVC070 11/M01
     A2969 RMK AO2 T01091015 10113 20072=
KBMT 231755Z AUTO 14013KT 10SM SCT039 SCT044 BKN050 29/17 A2998
     RMK AO2 T02860171 10291 20185=
KCPW 231755Z AUTO 1/2SM -SN OVC003 M06/M06 A2968 RMK AO2 P0002=
KDUX 231755Z AUTO 21032G42KT 10SM CLR 27/07 A2960 RMK AO2
     T02650070 10265 20175=
KE38 231755Z AUTO 22009G16KT 10SM CLR 26/07 A2995 RMK AO2
     T02570072 10258 20169=
KETN 231755Z AUTO 17019G26KT 10SM CLR 27/15 A2980 RMK AO2
     T02660151 10270 20176=
KHCR 231755Z AUTO 34010KT 10SM SCT050 SCT065 05/M04 A2970 RMK
     AO2=
KIWA 231757Z 28012KT 10SM SCT075 21/09 A2980=
KPPA 231755Z AUTO 22022G25KT 10SM CLR 26/12 A2964 RMK AO2
     T02600115 10269 20180=
KSBS 231755Z AUTO 22005KT 5SM BKN007 BKN014 OVC023 01/01 A2954 RMK
     AO1 T00060006 10007 21006=
KT20 231755Z AUTO 19012G20KT 10SM SCT038 SCT044 BKN055 29/19 A2988
     RMK AO2 T02930193 10297 20188=
KT35 231755Z AUTO 18018G22KT 10SM SCT037 SCT048 BKN050 28/18 A2989
     RMK AO2 T02750177 10280 20180=
KTMK 231755Z AUTO 00000KT 10SM CLR 11/08 A3018 RMK AO2=
KXBP 231755Z AUTO 19018G24KT 10SM CLR 29/14 A2980 RMK AO2
     T02900143 10291 20197=
K2W6 231759Z AUTO 36004KT 10SM OVC021 15/11 A3019 RMK AO1=
KCGE 231755Z AUTO 34008KT 6SM BR OVC020 16/16 A3016 RMK A01
     P0003=
KDMW 231755Z AUTO 05007KT 10SM OVC046 18/10 A3024 RMK AO2=
KFME 231759Z AUTO 01006KT 10SM OVC050 17/08 A3024 RMK AO1=
KFXY 231755Z AUTO 14021G31KT 10SM CLR 23/13 A2953 RMK AO2=
KGGF 231755Z AUTO 23017G30KT 9SM CLR 26/M03 A2920 RMK AO2=
KLOT 231755Z AUTO 16022G27KT 10SM CLR 25/14 A2989 RMK AO2=
KSDA 231755Z AUTO 18024G31KT 10SM CLR 27/13 A2945 RMK AO2=
KSHL 231755Z AUTO 16024G32KT 10SM CLR 24/13 A2937 RMK AO2=
KSLB 231755Z AUTO 17027G34KT 9SM CLR 25/13 A2942 RMK AO2=
KTAZ 231755Z AUTO 16018G24KT 10SM CLR 23/14 A2988 RMK AO2
     T02250138 10236 20162=
KTIF 231755Z AUTO 18018G30KT 10SM CLR 25/02 A2919 RMK AO2
     T02500020 10250 20005=
KTIP 231755Z AUTO 17024G32KT 10SM CLR 25/13 A2993 RMK AO2
     T02490126 10249 20155=
KUMP 231755Z AUTO 17013G19KT 10SM CLR 25/13 A3005 RMK AO2
     T02510130 10251 20152=
KUNI 231755Z AUTO 21003KT 10SM CLR 26/06 A3017 RMK AO2 T02560063
     10259 20038=
KVES 231755Z AUTO 19009G18KT 10SM SCT050 23/07 A3011 RMK AO2=
KW22 231755Z AUTO VRB04KT 2SM HZ CLR 24/02 A3021 RMK AO2 VIS 1
     1/2V3=
KW99 231759Z AUTO 00000KT 10SM CLR 18/06 A3026 RMK AO2=
