SAUS70 KWBC 231900
METAR
KCWA 231847Z 14017G23KT 10SM CLR 21/12 A2977=
KEVB 231847Z 02012G16KT 10SM CLR 26/16 A3009=
KMMU 231845Z 06005KT 10SM OVC050 18/11 A3027=
KSCH 231846Z 00000KT 15SM SCT180 BKN250 16/07 A3031=
KC62 231855Z AUTO 16015G18KT 10SM SCT050 23/12 A3006 RMK AO2
     T02330129=
KDLL 231855Z AUTO 15015G21KT 10SM CLR 22/12 A2976 RMK AO2
     T02160116=
KGAF 231855Z AUTO 07012KT 8SM CLR 17/08 A2948 RMK AO2=
KMWC 231845Z 11009KT 10SM CLR 21/10 A2986=
K1S5 231855Z AUTO 27003KT 10SM CLR 10/02 A3009 RMK AO2
     T01040018=
KADS 231847Z 18018G28KT 10SM SCT044 28/15 A2981=
KCPF 231855Z AUTO 00000KT 10SM CLR 24/05 A3017 RMK AO2=
KEMV 231855Z AUTO 32009KT 10SM OVC017 17/12 A3016 RMK AO2
     T01660124=
KFDK 231847Z 04009KT 7SM BKN040 BKN060 19/12 A3023=
KFFA 231855Z AUTO 32008KT 2SM -DZ OVC003 16/16 A3005 RMK AO2 P0002
     T01580158=
KJWN 231845Z 19011G18KT 10SM CLR 25/08 A3008=
KMCJ 231855Z AUTO 17016G27KT 140V200 10SM SCT055 SCT065 28/14
     A2990 RMK A01=
KMWA 231845Z 18019G25KT 20SM SCT041 BKN049 24/15 A2996=
KSUW 231855Z AUTO 05009G14KT 10SM CLR 14/09 A2966 RMK AO2
     T01430093=
KTZR 231847Z 16007KT 10SM CLR 24/11 A3014=
TJIG 231845Z 08009KT 10SM SCT040 30/24 A2989=
KAEG 231847Z 22023G28KT 10SM SCT075 SCT085 18/M01 A2970=
KATW 231845Z 13011KT 10SM CLR 21/12 A2981=
KBBG 231845Z 18010G20KT 10SM CLR 27/14 A2983=
KSAW 231847Z 16019G24KT 10SM CLR 19/12 A2989=
