SAUS70 KWBC 232120 RRA
METAR
K74V 232115Z AUTO 13007KT 10SM 06/00 A2971 RMK AO2=
K7BM 232115Z AUTO 25013G18KT 1SM -SN OVC006 M02/M05 A2962 RMK
     AO2=
K81R 232115Z AUTO 18016G21KT 10SM CLR 30/14 A2977 RMK AO2
     T02970144=
K9A5 232115Z AUTO 00000KT 10SM CLR 23/03 A3013 RMK AO2
     T02270027=
KAAA 232115Z AUTO 17024G30KT 10SM CLR 25/15 A2980 RMK AO2
     T02460152=
KADU 232115Z AUTO 17021G33KT 10SM BKN002 BKN033 OVC060 27/13 A2944
     RMK AO2 PWINO=
KAFK 232115Z AUTO 19026G36KT 10SM SCT120 28/14 A2941 RMK AO2
     T02780142=
KAHQ 232115Z AUTO 19020G36KT 7SM CLR 30/11 A2932 RMK AO2
     T02960112=
KFWC 232115Z AUTO 17013G22KT CLR 26/11 A2992 RMK AO1 T02600107
     PWINO=
KGDB 232115Z AUTO 12022G31KT 10SM CLR 26/13 A2935 RMK AO2
     T02600130=
KGMJ 232115Z AUTO 18019G30KT 10SM CLR 22/04 A2968 RMK AO2=
KGPC 232115Z AUTO 10SM CLR 24/10 A2998 RMK AO2 T02410102=
KGWB 232115Z AUTO 18006KT 10SM CLR 23/10 A3003 RMK AO2=
KHJH 232115Z AUTO 18026G35KT 7SM BKN034 BKN041 OVC047 28/11 A2932
     RMK AO2 T02830110=
KHMP 232115Z AUTO 13004KT 10SM CLR 23/04 A3018 RMK AO2
     T02290044=
KHQU 232115Z AUTO 07005KT 10SM CLR 24/09 A3014 RMK AO2
     T02380092=
KIDP 232115Z AUTO 17027G35KT 10SM CLR 28/16 A2961 RMK AO2
     T02780155=
KIIY 232115Z AUTO 00000KT 10SM CLR 24/06 A3014 RMK AO2
     T02390059=
KIYA 232115Z AUTO 13011G19KT 10SM OVC070 26/14 A3001 RMK AO2
     T02560136=
KJCA 232115Z AUTO 16003KT 10SM CLR 23/03 A3015 RMK AO2
     T02340026=
KJDD 232115Z AUTO 17008G22KT 10SM SCT060 29/15 A2982 RMK AO2=
KJVW 232115Z AUTO 18011KT 10SM SCT060 28/12 A3001 RMK AO2=
KK88 232115Z AUTO 18023G34KT 10SM CLR 28/13 A2960 RMK AO1
     T02790129=
KLHB 232115Z AUTO 14016G21KT 10SM SCT055 BKN065 30/17 A2981 RMK
     AO2 T03040166=
KLHM 232115Z AUTO 32019G27KT 10SM CLR 21/M03 A2994 RMK AO1=
KLNN 232115Z AUTO 14006KT 10SM CLR 22/01 A3012 RMK AO1
     T02200006=
KLUA 232115Z AUTO 04003KT 10SM BKN024 OVC034 17/08 A3021 RMK
     AO2=
KLUD 232115Z AUTO 16021G28KT 7SM CLR 29/14 A2973 RMK AO2
     T02850144=
KLUL 232115Z AUTO 16009KT 10SM CLR 27/09 A3005 RMK A02
     T02670085=
KMDD 232115Z AUTO 17017G23KT 10SM CLR 29/12 A2969 RMK AO2
     T02850123=
KMGR 232115Z AUTO 00000KT 10SM CLR 25/07 A3012 RMK AO2=
KMKS 232115Z AUTO 00000KT 10SM CLR 22/09 A3012 RMK AO2=
KMPR 232115Z AUTO 18030G42KT 3 1/2SM HZ CLR 28/13 A2943 RMK AO2
     T02840127=
KMWK 232115Z AUTO 11004KT 10SM CLR 21/05 A3019 RMK AO2
     T02080047=
KMWO 232115Z AUTO 17009KT 10SM CLR 25/07 A3007 RMK AO2
     T02470068=
KMYP 232115Z AUTO OVC002 M07/M08 A2969 RMK AO2 PWINO=
KMZZ 232115Z AUTO 18015KT 10SM CLR 24/10 A3002 RMK AO2
     T02380100=
KN03 232115Z AUTO 13005KT 10SM CLR 17/08 A3026 RMK AO2=
KOKM 232115Z AUTO 18020G34KT 10SM CLR 30/14 A2968 RMK AO2
     T03000136=
KOLY 232115Z AUTO 16020G24KT 10SM CLR 26/08 A2993 RMK AO2
     T02630081=
KONX 232115Z AUTO 32007KT 1 1/2SM DZ OVC004 16/16 A3007 RMK AO2
     T01550155=
KPCD 232115Z AUTO 18018G26KT 10SM CLR 26/17 A2988 RMK AO2
     T02640165=
KPHN 232115Z AUTO 15013G16KT 10SM CLR 23/05 A3010 RMK AO2=
KPMV 232115Z AUTO 17026G35KT 10SM BKN120 29/14 A2938 RMK AO2
     T02850136=
KAIO 232115Z AUTO 17022G30KT 8SM CLR 28/16 A2939 RMK AO2=
KAJG 232115Z AUTO 16019KT 10SM CLR 27/09 A2995 RMK AO2
     T02650088=
KAJR 232115Z AUTO 00000KT 7SM CLR 23/02 A3015 RMK AO2
     T02330016=
KAUH 232115Z AUTO 18019G36KT 7SM SCT035 BKN043 BKN049 28/12 A2926
     RMK AO2 LTG DSNT NW T02810115=
KBBB 232117Z AUTO 17020G30KT 10SM CLR 24/12 A2935 RMK AO2=
KBCK 232115Z AUTO 14012G20KT 100V170 10SM CLR 25/12 A2965 RMK AO2
     T02460122=
