SAUS70 KWBC 231800 RRD
METAR
KRAP 231752Z 35029G43KT 10SM CLR 11/03 A2925 RMK AO2 PK WND
     34043/1744 SLP902 T01060028 10111 20050 56010 $=
KXVG 231753Z AUTO 12005KT 10SM BKN065 21/11 A2957 RMK AO2=
KMGW 231753Z 34005KT 10SM CLR 23/03 A3022 RMK AO2 SLP230 T02280033
     10228 20056 58012=
KMIW 231753Z AUTO 15023G33KT 10SM CLR 24/13 A2958 RMK AO2 PK WND
     16034/1743 SLP010 T02440133 10244 20150 58020=
KMMK 231753Z AUTO 01008KT 10SM BKN100 BKN120 13/06 A3028 RMK AO2
     SLP253 T01280061 10133 20094 58022=
KMNN 231753Z AUTO 16012KT 7SM CLR 23/10 A3015 RMK AO2 SLP208
     T02280100 10239 20106 58013=
KMPO 231753Z AUTO 09008KT 10SM FEW075 OVC090 15/08 A3028 RMK AO2
     SLP260 T01500078 10150 20044 58010=
KMRB 231753Z 01005KT 10SM OVC027 18/07 A3024 RMK AO2 SLP240
     T01780072 10178 20017 58015 $=
KMTJ 231753Z AUTO 12014KT 10SM BKN008 BKN035 OVC100 04/03 A2961
     RMK AO2 RAE28 SLP979 P0002 60016 T00440033 10078 20011 58002
     $=
KMTO 231753Z AUTO 16015G29KT 10SM CLR 24/13 A2993 RMK AO2 PK WND
     17037/1729 SLP131 T02390133 10239 20172 58011=
KMVY 231753Z 06011KT 10SM -RA FEW070 BKN090 OVC110 14/12 A3028 RMK
     AO2 SLP252 P0003 60005 T01440122 10167 20144 58014=
KSBM 231753Z AUTO 16014G21KT 10SM CLR 18/13 A2990 RMK AO2 SLP125
     T01780128 10178 20128 58008=
KSEG 231753Z AUTO 00000KT 10SM OVC036 16/08 A3028 RMK AO2 SLP255
     T01610078 10167 20006 58015=
KSNY 231753Z AUTO 35020G28KT 10SM CLR 18/M01 A2928 RMK AO2 PK WND
     34029/1731 SLP884 T01781006 10189 20050 53012=
KSPI 231752Z 17016G27KT 10SM FEW110 23/14 A2984 RMK AO2 PK WND
     17035/1710 SLP102 60000 T02330139 10239 20167 58015=
KTHV 231753Z AUTO 04005KT 10SM OVC044 16/08 A3025 RMK AO2 SLP248
     T01610083 10167 20050 56010=
KDFI 231753Z AUTO 19011G25KT 10SM CLR 24/10 A3009 RMK AO2 PK WND
     17026/1730 SLP186 T02440100 10244 20139 58015=
KFDY 231753Z AUTO 18011KT 10SM FEW050 25/11 A3011 RMK AO2 SLP190
     T02500111 10250 20122 58016=
KFVE 231753Z AUTO 15004KT 10SM CLR 18/06 A3031 RMK AO2 SLP265
     T01830061 10183 20061 58013=
KFWN 231753Z AUTO 05007KT 10SM BKN110 15/07 A3028 RMK AO2 SLP256
     T01500072 10150 20067 $=
KGEZ 231753Z AUTO 17017G23KT 10SM CLR 26/11 A3006 RMK AO2 SLP174
     T02560111 10256 20167 58014=
KHGR 231753Z 08005KT 10SM OVC027 17/07 A3026 RMK AO2 SLP255
     T01720067 10172 20039 58011 $=
KHZY 231753Z AUTO 16006KT 10SM CLR 23/06 A3021 RMK AO2 SLP227
     T02280061 10228 20094 58010=
KIML 231753Z AUTO 21029G46KT 10SM FEW027 27/M02 A2922 RMK AO2 PK
     WND 21049/1708 SLP869 T02671022 10267 20017 55007 $=
KLPR 231753Z AUTO 18009KT 10SM CLR 23/08 A3016 RMK AO2 SLP210
     T02280083 10239 20122 58014=
KMDW 231753Z 17018G27KT 10SM FEW060 26/13 A2988 RMK AO2 PK WND
     17031/1722 SLP110 T02610128 10261 20178 58020=
KOVS 231753Z AUTO 16007G20KT 100V200 10SM CLR 24/13 A2973 RMK AO2
     SLP063 T02390128 10244 20150 58018 $=
KPBG 231753Z AUTO 13006KT 10SM CLR 16/06 A3030 RMK AO2 SLP261
     T01560056 10161 20028 58013=
KUUU 231753Z AUTO 04006KT 7SM -RA BKN110 14/12 A3028 RMK AO2
     RAB1659 SLP254 P0001 60001 T01440122 10150 20122 58013=
KWST 231753Z AUTO 04005KT 10SM -RA BKN110 14/11 A3028 RMK AO2
     RAB22 SLP252 P0000 60000 T01390106 10156 20106 58013=
KCOT 231753Z AUTO 15012G21KT 7SM CLR 28/18 A2983 RMK AO2 PK WND
     14026/1712 SLP093 T02830183 10283 20200 58012=
KCRS 231753Z AUTO 18021G30KT 10SM SCT048 29/15 A2989 RMK AO2 PK
     WND 19032/1739 SLP117 T02940150 10300 20206 58010 $=
KCXO 231753Z 18020G29KT 10SM BKN060 30/14 A2995 RMK AO2 PK WND
     17031/1721 SLP139 T03000144 10300 20156 58009=
