SAUS70 KWBC 232100 RRI
METAR
KOEB 232055Z AUTO 17014G20KT 10SM CLR 24/10 A3002 RMK AO2
     T02350097=
KPQI 232056Z AUTO 16005KT 10SM CLR 18/10 A3033 RMK AO2 SLP297
     T01780100 55000=
KRNP 232055Z AUTO 15013G18KT 10SM SCT060 A3004 RMK AO2 6////=
KSJX 232055Z AUTO 16012G18KT 10SM CLR 24/11 A2995 RMK AO2
     T02350107=
KSUE 232056Z AUTO 18015G25KT 10SM CLR 18/12 A2987 RMK AO2 PK WND
     17028/2003 SLP114 T01780117 56012=
KTTF 232055Z AUTO 10008KT 10SM CLR 20/09 A3008 RMK AO2
     T02040090=
KVLL 232055Z AUTO 16009KT 10SM CLR 23/08 A3010 RMK AO2
     T02310084=
KCDA 232055Z AUTO 13004KT 10SM 16/04 A3034 RMK AO2 T01620040=
KCQM 232056Z AUTO 12008G15KT 10SM SCT070 23/11 A2960 RMK AO2 LTG
     DSNT S=
KEEN 232056Z AUTO 00000KT 10SM CLR 12/09 A3033 RMK AO2 SLP279
     T01170094 56003 $=
KFKL 232056Z AUTO 13007KT 10SM CLR 20/03 A3020 RMK AO2 SLP228
     T02000028 56010=
KFOD 232056Z AUTO 14013G21KT 10SM CLR 26/14 A2945 RMK AO2 PK WND
     15030/1958 RAB07E19 SLP977 P0000 60000 T02610144 56016=
KJYG 232055Z AUTO 15027G33KT 10SM CLR 25/12 A2941 RMK AO2 LTG DSNT
     SE=
KLCI 232056Z AUTO 00000KT 10SM 14/10 A3033 RMK AO2 SLP275
     T01390100 58005=
KMNM 232056Z AUTO 18009G14KT 10SM CLR 18/12 A2987 RMK AO2 SLP112
     6//// T01780117 57012 PNO $=
KMOT 232054Z 02013G23KT 10SM CLR 12/05 A2939 RMK AO2 PK WND
     02026/2000 SLP959 T01170050 56023 $=
KMOX 232055Z AUTO 13029G35KT 10SM CLR 23/09 A2935 RMK AO2 LTG DSNT
     SE=
KMTW 232056Z AUTO 14014KT 10SM CLR 16/12 A2986 RMK AO2 SLP111
     T01610117 56016=
KRMY 232055Z AUTO 17013G18KT 10SM CLR 23/10 A3002 RMK AO2
     T02320099=
KSFZ 232056Z AUTO 05007KT 10SM -RA BKN050 BKN065 OVC080 12/11
     A3031 RMK AO2 SLP265 P0000 60001 T01220106 55004=
K14Y 232055Z AUTO 13014G24KT 10SM SCT045 22/12 A2943 RMK AO2=
KACB 232055Z AUTO 16016G21KT 10SM BKN060 24/11 A2996 RMK AO2
     T02390109=
KASH 232056Z 00000KT 10SM BKN110 13/12 A3035 RMK AO2 SLP281
     T01330117 55001 $=
KBKX 232056Z AUTO 14026G32KT 10SM CLR A2926 RMK AO2 PK WND
     14035/2000 SLPNO 6//// 56023 FZRANO $=
KD95 232055Z AUTO 14008G15KT 10SM CLR 24/05 A3007 RMK AO2
     T02370051=
KFFX 232055Z AUTO 15010G17KT 10SM BKN050 25/11 A2994 RMK AO2
     T02520110=
KHAI 232055Z AUTO 15010G21KT 10SM CLR 24/11 A2999 RMK AO2
     T02420106=
KHNB 232056Z AUTO 19016KT 10SM CLR 25/10 A3002 RMK AO2 SLP162
     T02500100 55011=
KJRB 232056Z AUTO 04012G19KT 10SM OVC044 A3024 RMK AO2
     UPE00RAB00E33 SLPNO P0000 60000 57010 FZRANO $=
KOLU 232056Z AUTO 16024G35KT 8SM FEW041 30/12 A2925 RMK AO2 PK WND
     17040/2017 SLP898 T03000117 56022=
KPJC 232055Z AUTO RMK AO2 TSNO PWINO=
KPNM 232055Z AUTO 12017G29KT 10SM CLR 24/13 A2949 RMK AO2 TSNO=
KPVC 232056Z AUTO 03009KT 9SM -RA BKN032 BKN042 OVC050 14/13 A3030
     RMK AO2 RAB04 SLP260 P0002 60002 T01390128 55008=
KSFM 232056Z AUTO 10003KT 10SM CLR 14/09 A3034 RMK AO2 SLP279
     T01440094 58004=
KSLH 232055Z AUTO 15008KT 10SM CLR 23/11 A2998 RMK AO2=
KTVF 232056Z AUTO 10SM 23/12 RMK AO2 SLPNO 6//// T02330122 $=
KWVL 232056Z AUTO 00000KT 10SM CLR 16/09 A3033 RMK AO2 SLP300
     T01560094 58003=
KWWD 232056Z AUTO 03013G20KT 6SM -RA BR 15/14 A3014 RMK AO2 PK WND
     03026/2016 SLP210 P0000 60000 T01500144 58005 $=
PAGA 232056Z AUTO 8SM -SN FEW027 BKN033 OVC042 00/M02 A3001 RMK
     AO2 UPB24E44SNE24B44 SLP164 P0000 60000 T00001017 58004
     FZRANO $=
KDZB 232055Z AUTO 16013G20KT 7SM SCT050 29/14 A2979 RMK AO2
     T02920144=
KEGE 232056Z 30009G17KT 10SM -RA SCT050 BKN060 OVC090 03/00 A2960
     RMK AO2 PK WND 27026/2028 RAB31 SLP960 P0000 60000 T00280000
     53003=
