SAUS70 KWBC 231820 RRF
METAR
KHRX 231815Z AUTO 22016G21KT 10SM CLR 24/11 A2968 RMK AO2
     T02370108=
KSEZ 231815Z AUTO 28012KT 10SM 12/03 A2983 RMK AO2=
KSVC 231815Z AUTO 26013G24KT 10SM SCT050 19/05 A2987 RMK AO2
     T01910054=
KSWW 231815Z AUTO 19021G26KT 10SM CLR 28/13 A2978 RMK AO2
     T02800125=
KSZT 231815Z AUTO 03006KT 10SM CLR 08/02 A2999 RMK AO2=
KTME 231815Z AUTO 16016G21KT 10SM BKN055 BKN065 30/16 A2993 RMK
     AO2=
KTYL 231815Z AUTO 26024G33KT 10SM SCT045 BKN060 13/04 A2983 RMK
     AO2=
KVCV 231815Z AUTO 28013KT 10SM CLR 15/M03 A2993 RMK AO2=
K0R4 231815Z AUTO 14013G20KT 10SM CLR 28/15 A3004 RMK AO2
     T02770151=
K3K3 231815Z AUTO 23030G39KT 5SM HZ SCT030 SCT035 OVC042 28/00
     A2939 RMK AO2=
K49A 231815Z AUTO 18003KT 10SM CLR 22/00 A3022 RMK AO2
     T02240000=
K74V 231815Z AUTO 14004KT 10SM 02/01 A2967 RMK AO2=
KADU 231815Z AUTO 16017G24KT 10SM 27/13 A2946 RMK AO2 PWINO=
KAFK 231815Z AUTO 20027G34KT 10SM CLR 29/13 A2943 RMK AO2
     T02870127=
KAIO 231815Z AUTO 17019G30KT 6SM HZ CLR 28/15 A2944 RMK AO2=
KAJG 231815Z AUTO 17022G28KT 10SM CLR 27/11 A2998 RMK AO2
     T02690105=
KAJR 231815Z AUTO 00000KT 5SM HZ CLR 23/02 A3019 RMK AO2
     T02270021=
KASW 231815Z AUTO 19011G19KT 10SM CLR 23/12 A3002 RMK AO2
     T02400119=
KAUH 231815Z AUTO 20026G34KT 7SM CLR 29/12 A2929 RMK AO2
     T02870116=
KAWG 231815Z AUTO 16024G30KT 10SM CLR 25/15 A2965 RMK AO2=
KAXA 231815Z AUTO 16025G31KT 9SM CLR 24/14 A2946 RMK A01=
KAZE 231815Z AUTO 00000KT 10SM CLR 24/12 A3014 RMK AO2
     T02430119=
KBBP 231815Z AUTO 02007KT 10SM CLR 23/07 A3015 RMK AO2=
KBDG 231815Z AUTO 23022G32KT 10SM 07/M01 A2975 RMK AO1
     T00711013=
KBEC 231815Z AUTO 19025G34KT 10SM CLR 27/13 A2954 RMK AO2 LTG DSNT
     E T02740126=
KBGE 231815Z AUTO 00000KT 10SM CLR 25/06 A3015 RMK AO2
     T02510062=
KBQP 231815Z AUTO 16008G14KT 110V170 10SM BKN047 27/14 A3002 RMK
     AO2 T02700141=
KBUU 231815Z AUTO 16009G15KT 130V200 10SM SCT041 23/13 A2985 RMK
     AO2 T02340130 PWINO=
KCAV 231815Z AUTO 17025G33KT 10SM CLR 24/14 A2951 RMK A01=
KCBF 231815Z AUTO 18020G30KT 10SM CLR 28/10 A2939 RMK AO2=
KCIN 231815Z AUTO 17021G29KT 10SM CLR 26/14 A2944 RMK AO2=
KCKF 231815Z AUTO 31003KT 10SM CLR 25/08 A3016 RMK AO2
     T02460076=
KCMD 231815Z AUTO 20009KT 10SM CLR 23/04 A3018 RMK AO2=
KCNC 231815Z AUTO 17018G27KT 10SM CLR 26/15 A2955 RMK AO2=
KCWV 231815Z AUTO 00000KT 7SM CLR 25/11 A3015 RMK AO2
     T02540109=
KDKB 231815Z AUTO 17019G26KT 10SM CLR 23/15 A2986 RMK AO2
     T02300150=
KDKR 231815Z AUTO 17011G19KT 140V210 10SM FEW049 BKN060 28/15
     A2993 RMK AO2=
KDNS 231815Z AUTO A2942 RMK AO2 PWINO=
KDNV 231815Z AUTO 17018G30KT 10SM CLR 26/12 A2996 RMK AO2
     T02590123=
KFEP 231815Z AUTO 17018G24KT 10SM CLR 23/15 A2981 RMK AO2
     T02340153=
KFFL 231815Z AUTO 17016G26KT 10SM CLR 24/13 A2966 RMK A01=
KFPY 231815Z AUTO 35004KT 10SM CLR 27/09 A3013 RMK AO2 T02700094
     TSNO=
KFSK 231815Z AUTO 19023G32KT 10SM SCT120 28/15 A2966 RMK AO2
     T02790147=
KFZG 231815Z AUTO 12004KT 10SM CLR 25/10 A3015 RMK AO2
     T02460104=
KGBG 231815Z AUTO 15010G21KT 10SM CLR 23/15 A2978 RMK AO2
     T02300150=
KGCD 231815Z AUTO 28006KT 10SM SCT016 SCT037 OVC044 03/01 A3005
     RMK AO2 T00320005=
KGCM 231815Z AUTO 17012G19KT 10SM CLR 26/12 A2975 RMK AO2=
KGGF 231815Z AUTO 25020G32KT 210V280 9SM CLR 27/M03 A2919 RMK
     AO2=
KGGP 231815Z AUTO 17017G23KT 10SM SCT050 25/11 A3002 RMK AO2=
KGHG 231815Z AUTO 04005KT 10SM -DZ FEW055 15/12 A3032 RMK AO2=
KGMJ 231815Z AUTO 18019G30KT 10SM CLR 21/05 A2974 RMK AO2 LTG DSNT
     NW=
