SAUS80 KWBC 231618
METAR
K40B 231616Z AUTO VRB03KT 20/04 A3035 RMK AO1 SLP289 T02040045
     57004=
KLYV 231615Z AUTO 15018G26KT 10SM CLR 18/11 A2941 RMK AO2=
KCLI 231615Z AUTO 17013KT 10SM CLR 19/12 A2988 RMK AO2
     T01920121=
KEKX 231615Z AUTO 20009G16KT 10SM CLR 23/08 A3016 RMK AO2
     T02290078=
KM21 231615Z AUTO 20012G18KT 10SM CLR 23/10 A3011 RMK AO2
     T02340098=
KY23 231615Z AUTO 15013G22KT 10SM CLR 19/14 A2972 RMK AO2
     T01940140=
KPTS 231615Z AUTO 19021G29KT 10SM CLR 26/16 A2971 RMK AO2
     T02570157 PWINO=
KSMS 231615Z AUTO 01008G13KT 10SM CLR 22/10 A3020 RMK AO2=
KSNC 231615Z AUTO 36005KT 10SM CLR 14/08 A3032 RMK AO2=
KSOW 231615Z AUTO 22014G28KT 4SM -RA BKN020 OVC026 09/06 A2981 RMK
     AO2=
KPOV 231615Z AUTO 00000KT 10SM CLR 18/04 A3022 RMK AO2 T01780044
     PWINO=
KPZQ 231615Z AUTO 16008KT 10SM CLR 21/12 A3009 RMK AO2
     T02110122=
KSYN 231615Z AUTO 15013KT 10SM CLR 21/12 A2962 RMK AO2
     T02100117=
KSVE 231615Z AUTO 18003KT 10SM CLR 03/M03 A3004 RMK AO2=
KIKW 231615Z AUTO 14007KT 10SM CLR 22/12 A3009 RMK AO2
     T02200120=
KCLI 231615Z AUTO 17013KT 10SM CLR 19/12 A2988 RMK AO2
     T01920121=
KSNC 231615Z AUTO 36005KT 10SM CLR 14/08 A3032 RMK AO2=
KY23 231615Z AUTO 15013G22KT 10SM CLR 19/14 A2972 RMK AO2
     T01940140=
KJNX 231615Z AUTO 36005KT 10SM CLR 19/11 A3018 RMK AO2 LTG DSNT
     E=
K9MN 231615Z AUTO 12016G25KT 10SM CLR 19/11 A2966 RMK AO1
     T01910113=
KCIR 231615Z AUTO 21015G21KT 10SM BKN041 OVC048 22/15 A3004 RMK
     AO2 T02200145=
KEDU 231620Z AUTO 34012G17KT 10SM CLR 15/00 A2999 RMK AO1=
KGNG 231615Z AUTO 27014KT 10SM CLR 02/01 A2986 RMK AO2=
KMKN 231615Z AUTO 20021G28KT 10SM CLR 25/17 A2985 RMK AO2
     T02510167=
