SASA41 KWBC 232000
METAR
SEMT 232000Z 23008KT 9999 OVC016 23/19 Q1011 RMK A2985=
SEPA NIL=
SKBG 232000Z 31005KT 9999 SCT015TCU 24/20 Q1012 RMK TCU NE/SE
     A2990=
SKMD NIL=
SKPE 232000Z 32006KT 9999 VCSH SCT020TCU 26/19 Q1014 RMK TCU
     VCSH/SE A2994=
SKSM NIL=
SKVG NIL=
SMJP NIL=
