SAUS70 KWBC 232122 RRE
METAR
KADT 232115Z AUTO 24025G36KT 10SM CLR 30/M04 A2929 RMK AO2
     T02961036=
KCNI 232115Z AUTO 16003KT 10SM CLR 23/03 A3015 RMK AO2
     T02280031=
KDCY 232115Z AUTO 18018KT 10SM CLR 25/09 A2999 RMK AO2
     T02460091=
KEBS 232115Z AUTO 15025KT 10SM FEW120 26/15 A2944 RMK AO2=
KGNB 232115Z AUTO 25013G18KT 10SM SCT044 BKN050 OVC100 07/M05
     A2957 RMK AO2 T00661054=
KGNC 232115Z AUTO 21015G25KT 10SM CLR 30/09 A2971 RMK AO2
     T02950085=
KHEQ 232115Z AUTO 34017G24KT 10SM CLR 20/01 A2931 RMK AO2=
KHHW 232116Z AUTO 18017G23KT 10SM SCT049 28/14 A2978 RMK AO2=
KHVE 232115Z AUTO 30016G21KT 10SM OVC090 09/M03 A2973 RMK AO2=
KJES 232115Z AUTO 00000KT 10SM CLR 20/05 A3014 RMK AO2=
KK62 232115Z AUTO 14009KT 10SM CLR 24/05 A3009 RMK AO2=
KMHP 232115Z AUTO 00000KT 10SM CLR 24/10 A3012 RMK AO2
     T02450101=
KOZA 232115Z AUTO 20019G27KT 7SM CLR 25/14 A2981 RMK AO2=
KPEQ 232115Z AUTO 23015G20KT 10SM CLR 33/06 A2964 RMK AO2
     T03270063=
KPXE 232115Z AUTO 05004KT 7SM CLR 25/07 A3013 RMK AO2
     T02540070=
KTOC 232115Z AUTO 10004KT 10SM CLR 23/02 A3015 RMK AO2
     T02340023=
KULS 232115Z AUTO 22034G42KT 7SM CLR 28/02 A2938 RMK AO2=
KVKS 232115Z AUTO 17007G16KT 10SM BKN060 28/14 A2998 RMK A01=
KW75 232135Z AUTO 34005KT 10SM OVC007 15/14 A3013 RMK AO1 P0001
     T01450136=
KWWR 232115Z AUTO 17027G35KT 10SM CLR 26/10 A2953 RMK AO2=
KX26 232115Z AUTO 36012KT 10SM BKN075 26/16 A3006 RMK AO2
     T02590163=
K5C1 232115Z AUTO 16013G17KT 10SM BKN046 27/15 A2982 RMK AO1=
KAJZ 232115Z AUTO 27016G22KT 10SM CLR 06/02 A2967 RMK AO2
     T00610016=
KAQO 232115Z AUTO 17011G19KT 10SM CLR 29/14 A2976 RMK AO2=
KAUN 232115Z AUTO VRB03KT 10SM CLR 19/M10 A2992 RMK A01=
KBBD 232115Z AUTO 18013G26KT 10SM CLR 29/13 A2976 RMK AO2=
KBDG 232115Z AUTO 29014G19KT 10SM 05/M03 A2980 RMK AO1
     T00541027=
KBMT 232115Z AUTO 15008KT 10SM SCT025 SCT035 OVC048 24/21 A2993
     RMK AO2 T02440210=
KCCU 232115Z AUTO 25018G24KT 1/2SM -SN OVC002 M04/M07 A2963 RMK
     AO2=
KDKB 232115Z AUTO 16019G31KT 10SM SCT047 SCT110 24/15 A2981 RMK
     AO2 T02380151=
KDUX 232115Z AUTO 20030G35KT 10SM CLR 26/08 A2954 RMK AO2
     T02580081=
KDVO 232115Z AUTO 01013G19KT 10SM CLR 23/M05 A2998 RMK AO2=
KETN 232115Z AUTO 17019G25KT 10SM CLR 29/14 A2972 RMK AO2
     T02950140=
KMNH 232115Z AUTO 25019G27KT 10SM SCT048 SCT050 OVC065 09/M01
     A2949 RMK AO2=
KPLU 232115Z AUTO 00000KT 10SM FEW033 FEW043 SCT049 12/04 A3016
     RMK AO2=
KPNA 232115Z AUTO 30023G30KT 7SM CLR 01/M06 A2967 RMK AO2=
KPOY 232115Z AUTO 32026G33KT 10SM CLR 03/M06 A2961 RMK AO2=
KRCV 232115Z AUTO 24022G30KT 10SM BKN050 OVC060 05/M06 A2964 RMK
     AO2 T00451057=
KSBS 232115Z AUTO 21004KT 3/4SM BKN005 OVC010 M02/M02 A2964 RMK
     AO1 T10201020=
KT35 232115Z AUTO 18015G22KT 10SM SCT055 SCT070 31/16 A2980 RMK
     AO2 T03050164=
