SAUS70 KWBC 231900
METAR
KMCX 231855Z AUTO 18013G20KT 10SM CLR 25/11 A2997 RMK AO2
     T02510106=
KRID 231855Z AUTO 20014KT 10SM SCT050 23/12 A3011 RMK AO2=
KSUA 231845Z 01011G19KT 10SM CLR 27/18 A3007=
