SAUS70 KWBC 231938 RRK
METAR
KPNM 231935Z AUTO 14014G22KT 10SM CLR 24/13 A2952 RMK AO2 TSNO=
KRQB 231935Z AUTO 18016G27KT 10SM BKN055 BKN070 24/11 A2998 RMK
     AO2 T02350110=
KRUG 231935Z AUTO 05019G25KT 10SM CLR 11/07 A2940 RMK AO2=
KRVL 231935Z AUTO 00000KT 4SM HZ BKN027 OVC031 17/08 A3025 RMK
     AO2=
KS25 231935Z AUTO 05014KT 10SM OVC014 07/07 A2943 RMK AO2=
KSJX 231935Z AUTO 16010G14KT 10SM CLR 24/11 A2996 RMK AO2
     T02430109=
KTME 231935Z AUTO 18015KT 10SM BKN060 31/15 A2989 RMK AO2=
KULM 231935Z AUTO 14019G29KT 10SM CLR 25/11 A2942 RMK AO2=
KVLL 231935Z AUTO 17011G17KT 10SM CLR 24/08 A3012 RMK AO2
     T02410080=
KY70 231935Z AUTO 16018G24KT 10SM SCT055 25/09 A3001 RMK AO2
     T02450089=
K14Y 231935Z AUTO 13021G27KT 10SM CLR 22/12 A2945 RMK AO2=
K96D 231935Z AUTO 03013G18KT 10SM FEW022 14/11 A2950 RMK AO2=
KAMN 231935Z AUTO 15014G20KT 10SM SCT055 25/08 A3003 RMK AO2
     T02470084=
KAUM 231935Z AUTO 15016G22KT 10SM CLR 24/13 A2955 RMK AO2=
KCBG 231935Z AUTO 13015G24KT 10SM CLR 25/13 A2953 RMK AO2=
KDRM 231935Z AUTO 14009KT 10SM CLR 18/11 A3004 RMK AO2
     T01810105=
KDXX 231935Z AUTO 14028G34KT 10SM CLR 26/12 A2934 RMK AO2=
KFBL 231935Z AUTO 13020G26KT 10SM CLR 24/13 A2952 RMK AO2=
KFSE 231935Z AUTO 11011G19KT 10SM CLR 23/10 A2945 RMK AO2=
KHCO 231935Z AUTO 07013G17KT 10SM CLR 19/10 A2947 RMK AO2=
KHZL 231935Z AUTO 00000KT 10SM BKN034 BKN050 OVC090 16/07 A3030
     RMK AO2=
KLDM 231935Z AUTO 18011G19KT 140V200 10SM BKN050 OVC055 24/12
     A2992 RMK AO2 T02370116=
KLJF 231935Z AUTO 14019G25KT 10SM CLR 24/11 A2944 RMK AO2=
KLWA 231935Z AUTO 17009G21KT 130V200 10SM CLR 26/12 A2994 RMK AO2
     T02550116=
KMCD 231935Z AUTO 10005KT 10SM CLR 17/10 A3000 RMK AO2
     T01720103=
KMGN 231935Z AUTO 18008G16KT 140V210 10SM CLR 24/11 A2998 RMK AO2
     T02450109=
KOCQ 231935Z AUTO 15009KT 10SM CLR 19/12 A2985 RMK AO1
     T01890120=
KOVL 231935Z AUTO 15024G30KT 4SM HZ CLR 24/12 A2940 RMK AO2=
KRMY 231935Z AUTO 18012G20KT 10SM BKN055 24/10 A3003 RMK AO2
     T02390102=
KRZT 231935Z AUTO 12009KT 10SM CLR 24/03 A3012 RMK AO2 PWINO=
KTTF 231935Z AUTO 11008KT 10SM CLR 23/10 A3009 RMK AO2
     T02300100=
KBTN 231935Z AUTO 11022G32KT 7SM CLR 22/11 A2924 RMK AO2=
KOAR 231935Z AUTO 29006KT 10SM CLR M02/M20 A3000 RMK AO2=
