SAUS70 KWBC 231928
METAR
KDCY 231915Z AUTO 19016G23KT 10SM CLR 26/10 A3000 RMK AO2
     T02560101=
KDKB 231910Z AUTO 16017G25KT 10SM SCT120 23/15 A2983 RMK AO2
     T02300150=
KDLL 231935Z AUTO 14012G21KT 10SM CLR 22/12 A2975 RMK AO2
     T02200116=
KDMW 231915Z AUTO 01005KT 10SM SCT050 BKN055 17/10 A3023 RMK
     AO2=
KEBS 231915Z AUTO 15026G31KT 10SM CLR 26/14 A2947 RMK AO2=
KEVM 231921Z AUTO 12010G17KT 10SM CLR 21/11 A2965 RMK AO2=
KEZS 231935Z AUTO 13011G16KT 10SM CLR 23/14 A2981 RMK AO2
     T02300141=
KGAF 231935Z AUTO 06011KT 8SM CLR 18/08 A2946 RMK AO2=
KJVY 231915Z AUTO 19011G16KT 10SM CLR 26/08 A3006 RMK AO2
     PWINO=
KMPZ 231910Z AUTO 18020G25KT 10SM CLR 24/17 A2968 RMK AO2=
KOEO 231915Z AUTO 13014G23KT 10SM CLR 24/16 A2959 RMK AO2
     T02430155=
KSHL 231915Z AUTO 16024G33KT 10SM CLR 26/13 A2933 RMK AO2=
KUYF 231915Z AUTO 19012G17KT 130V200 10SM CLR 24/05 A3012 RMK
     AO2=
KW99 231919Z AUTO 00000KT 10SM CLR 19/06 A3024 RMK AO2=
K1S5 231935Z AUTO 22003KT 10SM CLR 12/02 A3009 RMK AO2
     T01170016=
KCPF 231935Z AUTO 00000KT 10SM CLR 25/05 A3015 RMK AO2=
KEMV 231935Z AUTO 34011KT 10SM OVC015 16/13 A3016 RMK AO2
     T01570125=
KFFA 231935Z AUTO 35009G17KT 1 1/2SM -RA OVC003 16/16 A3003 RMK
     AO2 P0001 T01600160=
KMCJ 231935Z AUTO 16019G28KT 10SM SCT060 SCT070 29/15 A2987 RMK
     A01=
KSUW 231935Z AUTO 06009G16KT 10SM CLR 14/10 A2964 RMK AO2
     T01430095=
