SAUS70 KWBC 231800 RRE
METAR
KY19 231755Z AUTO 07014G20KT 10SM CLR 12/06 A2932 RMK AO2=
KY50 231756Z AUTO 15014G17KT 10SM CLR 23/13 A2980 RMK AO2 SLP084
     6//// T02280128 10228 20133 58020 $=
KHFF 231755Z AUTO 06010KT 10SM CLR 22/07 A3014 RMK AO2 SLP208
     T02200070 10220 20076 57016 $=
K2DP 231755Z AUTO 34013KT 8SM -RA BKN007 OVC012 M A3003 RMK AO2
     DZE1655RAB1655E04DZB04E54RAB54 CIG 007V009 SLPNO ALSTG ESTMD
     P0002 60016 10166 20166 57012 $=
KTDR 231755Z AUTO 00000KT 10SM CLR 28/10 A3010 RMK AO2 SLP197
     T02760103 10276 20092 57014 $=
KTTS 231755Z AUTO 01008KT 10SM CLR 26/15 A3007 RMK AO2 VIS 5/8
     RWY15/33 SLP187 T02590153 10262 20175 58013 $=
KPHL 231754Z 04015G21KT 10SM FEW024 BKN044 BKN110 OVC140 18/12
     A3023 RMK AO2 RAB18E51 SLP236 P0000 60000 T01780122 10178
     20139 58008 $=
KD95 231755Z AUTO 15008KT 10SM CLR 23/06 A3012 RMK AO2 T02270064
     10231 20079=
KDLZ 231755Z AUTO 15006KT 10SM CLR 22/10 A3016 RMK AO2=
KEDJ 231755Z AUTO 19014KT 10SM CLR 23/11 A3015 RMK A01=
KEFK 231755Z AUTO 02003KT 10SM CLR 19/06 A3033 RMK AO2 T01880058
     10197 20043=
KESC 231756Z AUTO 16013G18KT 10SM CLR 16/11 A2994 RMK AO2 SLP140
     6//// T01610111 10161 20111 58005 PNO $=
KOEB 231755Z AUTO 16011G17KT 10SM CLR 23/11 A3006 RMK AO2
     T02300108 10230 20126=
KONZ 231755Z AUTO 17003KT 10SM CLR 18/06 A3013 RMK AO2 T01800062
     10184 20107=
KOSC 231755Z AUTO 16007G15KT 10SM CLR 22/11 A3009 RMK AO2
     T02150112 10222 20094=
KPQI 231756Z AUTO 19005KT 10SM CLR 21/07 A3033 RMK AO2 SLP296
     T02110067 10217 20028 58015=
KRKD 231756Z AUTO 08003KT 10SM CLR 16/12 A3037 RMK AO2 SLP283
     T01560122 10156 20061 58010=
KRMY 231755Z AUTO 15014G19KT 10SM CLR 23/11 A3006 RMK AO2
     T02300106 10232 20130=
KRNP 231755Z AUTO 18013G19KT 10SM CLR 24/09 A3008 RMK AO2
     T02360094 10236 20130=
KRZT 231755Z AUTO 15005KT 10SM CLR 23/07 A3016 RMK AO2 PWINO=
KS24 231755Z AUTO 17013G19KT 10SM CLR 24/09 A3013 RMK AO2=
KSQI 231756Z AUTO 16012G16KT 130V190 10SM CLR 24/14 A2981 RMK AO2
     SLP959 T02390139 10239 20144 58014=
KTTF 231755Z AUTO 17010KT 10SM CLR 24/10 A3012 RMK AO2 T02400103
     10240 20116=
KCLS 231755Z AUTO 00000KT 10SM BKN005 07/06 A3016 RMK AO2=
KCPT 231755Z AUTO 17023G32KT 10SM FEW038 27/16 A2983 RMK A01=
KDNA 231755Z AUTO 25018G29KT 10SM CLR 24/07 A2982 RMK AO2=
KENV 231756Z AUTO 32023G33KT 10SM CLR 07/M10 A2984 RMK AO2 PK WND
     31033/1752 SLP106 T00721100 10072 20039 51018=
KEUG 231754Z 21004KT 10SM FEW035 12/08 A3019 RMK AO2 SLP223
     T01170078 10117 20033 53020 $=
KHWD 231754Z VRB04KT 10SM CLR 16/03 A3001 RMK AO2 SLP171 T01610033
     10161 20072 50014=
KMRF 231756Z AUTO 20016G22KT 9SM CLR 27/06 A2993 RMK AO2 SLP074
     T02670061 10267 20072 58010=
KSDY 231756Z AUTO 04011KT 10SM OVC009 07/05 A2946 RMK AO2 SLP989
     6//// T00670050 10067 20061 58006 PNO $=
KSKX 231756Z AUTO 22028G43KT 10SM -RA OVC060 12/01 A2966 RMK AO2
     PK WND 22043/1749 SLP997 P0000 60000 T01220006 10139 20094
     58015=
KSVC 231755Z AUTO 26015G26KT 10SM SCT050 18/05 A2987 RMK AO2 60001
     T01840054 10189 20125=
KT69 231755Z AUTO 17017G23KT 9SM FEW030 SCT039 BKN046 28/21 A2988
     RMK A01=
KU42 231755Z AUTO 33018G23KT 10SM SCT024 SCT041 BKN060 05/02 A2978
     RMK AO1 60002 T00460019 10047 20005=
KCQM 231755Z AUTO 15008KT 10SM CLR 22/09 A2965 RMK AO2=
KDUH 231755Z AUTO 15009G17KT 10SM SCT055 24/08 A3011 RMK AO2
     T02420082 10244 20113=
KDYT 231755Z AUTO 06011KT 10SM BKN070 13/10 A2968 RMK AO2=
KEEN 231756Z AUTO 00000KT 10SM CLR 13/07 A3034 RMK AO2 SLP281
     T01280072 10128 20011 58015 $=
