SAUS70 KWBC 231726
METAR
KBYL 231715Z AUTO 14006KT 10SM CLR 22/05 A3020 RMK AO1=
KGAF 231735Z AUTO 07012KT 8SM CLR 14/07 A2953 RMK AO2=
KGPH 231735Z AUTO 18016G24KT 10SM CLR 27/12 A2962 RMK AO2=
KJVY 231715Z AUTO 22010G15KT 10SM CLR 25/10 A3011 RMK AO2
     PWINO=
KUKF 231715Z AUTO 00000KT 10SM CLR 19/03 A3026 RMK AO2=
KW63 231735Z AUTO 36010G16KT 10SM CLR 18/08 A3019 RMK AO1=
KEZS 231735Z AUTO 11011KT 10SM CLR 22/14 A2985 RMK AO2
     T02200141=
KTNB 231710Z AUTO 12003KT 10SM CLR 19/01 A3024 RMK AO2
     T01940012=
