SAUS70 KWBC 232000 RRX
METAR
KNSE 231956Z AUTO VRB04KT 10SM CLR 27/M02 A3009 RMK AO2 SLP176
     T02671022 PNO $=
TISX 231953Z 06008KT 10SM BKN029 30/23 A2988 RMK AO2 SLP118
     T03000228 $=
KNSE 231956Z AUTO VRB04KT 10SM CLR 27/M02 A3009 RMK AO2 SLP176
     T02671022 PNO $=
TISX 231953Z 06008KT 10SM BKN029 30/23 A2988 RMK AO2 SLP118
     T03000228 $=
