SACA31 KWBC 231800
METAR
MBJT NIL=
MBPV NIL=
MBSC NIL=
MKJP 231800Z 17006KT 9999 FEW022CB 32/23 Q1012=
MKJS 231800Z 05010KT 9999 FEW020CB 30/23 Q1012=
MUCM 231752Z 03005KT 360V070 7000 -TSRA SCT018CB BKN025 23/22
     Q1015=
MUCU 231750Z VRB02KT 9000 SCT020TCU SCT070 31/22 Q1013=
MUHA 231750Z 09007KT 060V120 9000 SCT030 30/21 Q1016=
MUVR 231750Z 07011KT 9999 BKN020 28/22 Q1016=
MWCB NIL=
MWCR 231800Z 05011KT 9999 SCT018 31/24 Q1013=
MYAM NIL=
MYEG NIL=
MYEH NIL=
MYGF 231800Z 01009KT 9999 FEW030 27/19 A3005=
MYNN 231800Z 06009KT 020V090 9999 FEW022 29/20 A3003=
