SAUS80 KWBC 232000
METAR
KESN 231945Z 35004KT 5SM -RA SCT008 BKN015 16/16 A3021=
KCQT 231947Z AUTO 00000KT 10SM CLR 22/03 A2985 RMK AO2 SLP105
     T02170033=
KGNT 231955Z AUTO 29013G23KT 10SM -RA SCT025 BKN038 OVC047 10/04
     A2980 RMK AO2 T01040041=
