SAUS70 KWBC 232100 RRP
METAR
KPRB 232053Z AUTO 02005KT 10SM CLR 20/01 A2994 RMK AO2 SLP135
     T02000006 58016 $=
KSHR 232053Z AUTO 32025G33KT 10SM FEW019 BKN060 OVC080 04/00 A2959
     RMK AO2 PK WND 31033/2008 SLP026 60000 T00390000 53008=
KSJC 232053Z 30010KT 10SM CLR 20/01 A2997 RMK AO2 SLP147 T02000006
     58016=
KSNA 232053Z 18010KT 10SM SCT042 22/11 A2984 RMK AO2 SLP104
     T02170106 58007=
KADG 232053Z AUTO 19014KT 10SM CLR 23/09 A3007 RMK AO2 SLP181
     T02330089 56013=
KAIT 232055Z AUTO 12012G17KT 10SM CLR 23/12 A2951 RMK AO2 LTG DSNT
     S=
KALO 232054Z 15021G29KT 10SM CLR 24/13 A2959 RMK AO2 PK WND
     16034/2037 LTG DSNT S AND SW SLP016 T02390133 $=
KAMW 232053Z AUTO 14016G26KT 10SM FEW120 27/14 A2948 RMK AO2 PK
     WND 16028/2026 SLP972 T02720144 58021=
KARB 232053Z 14011G19KT 10SM SCT060 24/10 A3006 RMK AO2 SLP179
     T02390100 56013=
KBDH 232055Z AUTO 14023G32KT 10SM CLR 25/12 A2941 RMK AO2 LTG DSNT
     SE=
KCFE 232055Z AUTO 14019G33KT 10SM CLR 24/13 A2945 RMK AO2=
KCOQ 232055Z AUTO 09014G21KT 10SM CLR 18/09 A2959 RMK AO2 TSNO=
KDET 232053Z 14012G20KT 8SM CLR 24/08 A3009 RMK AO2 SLP186
     T02390083 56014=
KDRM 232055Z AUTO 14008KT 10SM CLR 16/10 A3004 RMK AO2
     T01640103=
KRHI 232053Z AUTO 15012G22KT 10SM CLR 21/11 A2977 RMK AO2 PK WND
     17027/2021 SLP078 T02110111 56016=
KRWF 232053Z AUTO 13027G36KT 10SM CLR 27/13 A2936 RMK AO2 PK WND
     13042/2003 SLP938 T02670128 56023=
KTVC 232053Z 17011G22KT 10SM BKN060 BKN250 24/11 A2992 RMK AO2
     SLP131 T02440106 56010=
KUKT 232055Z AUTO 07004KT 10SM SCT049 BKN055 BKN065 17/10 A3023
     RMK A01=
KDEW 232053Z AUTO VRB05KT 10SM FEW045 BKN065 11/00 A3003 RMK AO2
     SLP181 T01060000 51010=
KLMT 232053Z 32005KT 10SM SCT050 09/M05 A3009 RMK AO2 SLP191
     T00891050 50000=
KMLS 232053Z AUTO 31017KT 10SM -RA BKN008 OVC012 03/02 A2952 RMK
     AO2 CIG 007V011 SLP005 P0003 60019 T00330022 53013=
KOAK 232053Z 30015KT 10SM CLR 21/02 A2997 RMK AO2 SLP148 T02060022
     58015=
KRKP 232053Z AUTO 15012G24KT 10SM FEW024 29/22 A2982 RMK AO2 PK
     WND 14026/2013 SLP101 T02940217 56027=
KSPB 232053Z AUTO VRB03KT 10SM FEW029 SCT046 BKN060 13/06 A3017
     RMK AO2 SLP216 T01330061 51007=
KSRR 232055Z AUTO 24037G49KT 10SM 17/02 A2974 RMK AO2=
KSTS 232053Z AUTO 10SM CLR 21/M02 A3000 RMK AO2 SLP151 T02111022
     58015=
KTIW 232053Z 32003KT 10SM SCT011 BKN016 11/07 A3017 RMK AO2 SLP218
     T01060067 51009=
KUAO 232053Z 16004KT 10SM BKN032 BKN043 BKN050 14/04 A3020 RMK AO2
     SLP225 T01440039 53006=
KVGT 232053Z 35016G26KT 10SM CLR 18/M09 A2984 RMK AO2 PK WND
     35032/1954 SLP110 T01831094 50002 $=
KVUO 232053Z AUTO 00000KT 10SM OVC060 14/06 A3019 RMK AO2 SLP224
     T01390056 51007 $=
KWVI 232053Z AUTO 21006KT 10SM CLR 19/06 A2996 RMK AO2 SLP145
     T01890056 58016=
KELN 232053Z AUTO 24005KT 6SM HZ CLR 13/M03 A3006 RMK AO2 SLP184
     T01331028 52006 $=
KEVW 232053Z AUTO 29018G24KT 10SM FEW019 SCT038 OVC065 M01/M05
     A2976 RMK AO2 WSHFT 2029 SNB1958E22 SLP078 P0000 60000
     T10061050 51012 $=
KGEY 232053Z AUTO 34017G31KT 10SM SCT024 BKN030 OVC110 04/01 A2962
     RMK AO2 PK WND 32031/2044 SLP039 60001 T00440011 53006=
KHOU 232053Z 16017G25KT 10SM FEW055 BKN250 29/16 A2989 RMK AO2 PK
     WND 16029/2026 SLP125 T02940156 56021=
KHQM 232053Z AUTO 13006KT 10SM SCT025 BKN035 14/08 A3016 RMK AO2
     SLP215 T01390083 50007=
KLFK 232053Z AUTO 18013G22KT 10SM FEW060 BKN075 29/16 A2988 RMK
     AO2 PK WND 16026/2025 SLP114 T02940161 56024=
KMCE 232053Z AUTO 32017KT 10SM CLR 21/M02 A2991 RMK AO2 PK WND
     33027/2002 SLP129 T02111017 58013=
