SAUS70 KWBC 231600 RRW
METAR
KNSE 231556Z AUTO 14004KT 10SM CLR 23/03 A3019 RMK AO2 SLP208
     T02280033 PNO $=
KNSE 231556Z AUTO 14004KT 10SM CLR 23/03 A3019 RMK AO2 SLP208
     T02280033 PNO $=
KEFD 231554Z 13016G21KT 10SM SCT035 27/17 A2997=
