SAUS70 KWBC 231840 RRA
METAR
KVLL 231835Z AUTO 15010KT 10SM CLR 23/11 A3014 RMK AO2
     T02280105=
KVWU 231835Z AUTO 12010G21KT 10SM CLR 25/12 A2955 RMK AO2=
KY70 231835Z AUTO 16018G23KT 10SM CLR 24/09 A3002 RMK AO2
     T02420089=
K05U 231835Z AUTO 33007KT 10SM 01/M03 A2998 RMK A01=
K1V6 231835Z AUTO 28013G24KT 7SM SCT049 BKN055 OVC090 15/06 A2945
     RMK AO2=
K46U 231835Z AUTO 32014G21KT 10SM FEW047 BKN055 BKN075 02/M05
     A2974 RMK A01=
K5T9 231835Z AUTO 14010KT 10SM FEW027 26/20 A2980 RMK A01=
K65S 231835Z AUTO 00000KT 10SM SCT004 BKN008 BKN015 05/06 A3000
     RMK AO2=
KARM 231835Z AUTO 14016G22KT 10SM SCT048 OVC065 29/16 A2991 RMK
     AO2 T02860155 TSNO=
KLXY 231835Z AUTO 17017G26KT 10SM SCT047 SCT060 30/17 A2987 RMK
     AO2 T02990169=
KRTS 231835Z AUTO 04006KT 10SM FEW044 SCT050 BKN055 04/M07 A3006
     RMK AO2=
KSEZ 231835Z AUTO 28012G19KT 10SM 12/02 A2983 RMK AO2=
KSWW 231835Z AUTO 19021G26KT 10SM CLR 29/13 A2977 RMK AO2
     T02860127=
KSZT 231835Z AUTO 04005KT 10SM CLR 08/02 A3000 RMK AO2=
KT89 231835Z AUTO 13008KT 10SM CLR 30/05 A2979 RMK A01=
KTYL 231835Z AUTO 25019G30KT 10SM SCT042 BKN049 OVC060 12/03 A2983
     RMK AO2=
KVCV 231835Z AUTO 28011G17KT 10SM CLR 15/M04 A2992 RMK AO2=
K22N 231835Z AUTO 00000KT 10SM SCT050 SCT070 OVC095 16/07 A3028
     RMK AO2=
K6B0 231835Z AUTO 00000KT 10SM CLR 18/07 A3030 RMK AO2
     T01830069=
KACB 231835Z AUTO 16012G20KT 10SM SCT050 25/11 A2997 RMK AO2
     T02450110=
KBVI 231835Z AUTO 15005KT 10SM CLR 24/01 A3020 RMK AO2
     T02370009=
KCDI 231835Z AUTO 12003KT 10SM CLR 23/08 A3018 RMK AO2
     T02320080=
KD95 231835Z AUTO 16009G16KT 10SM CLR 23/06 A3011 RMK AO2
     T02300060=
KDUH 231835Z AUTO 15010G16KT 10SM SCT055 25/07 A3010 RMK AO2
     T02450070=
KDXX 231835Z AUTO 14026G32KT 10SM CLR 24/12 A2936 RMK AO2=
KEDJ 231835Z AUTO 19011KT 9SM BKN050 SCT055 23/10 A3013 RMK
     A01=
KEFK 231835Z AUTO 02004KT 10SM CLR 19/06 A3033 RMK AO2
     T01900063=
KFSO 231835Z AUTO 00000KT 10SM CLR 20/05 A3030 RMK AO2
     T02000047=
KHAI 231835Z AUTO 15012G19KT 020V180 10SM SCT050 24/12 A3002 RMK
     AO2 T02430116=
KI23 231835Z AUTO 15009G16KT 10SM CLR 24/07 A3013 RMK AO1=
KMGG 231835Z AUTO 12008G19KT 070V150 10SM CLR 23/11 A2951 RMK AO2
     T02290114 PWINO=
KMWM 231835Z AUTO 14017G29KT 10SM CLR 23/12 A2941 RMK AO2=
KONZ 231835Z AUTO 14005KT 10SM CLR 19/05 A3011 RMK AO2
     T01940051=
KPNM 231835Z AUTO 12012G24KT 10SM CLR 24/13 A2954 RMK AO2 TSNO=
KRNP 231835Z AUTO 15015G20KT 5SM HZ CLR 24/09 A3007 RMK AO2
     T02350090=
KSLO 231835Z AUTO 18014KT 10SM OVC038 25/15 A2993 RMK AO2
     T02470145=
KTOB 231835Z AUTO 14022G28KT 10SM CLR 23/12 A2957 RMK AO2=
KTTF 231835Z AUTO 13009G14KT 110V170 10SM CLR 24/10 A3011 RMK AO2
     T02370104=
K0A0 231835Z AUTO 23014G22KT 10SM CLR 20/05 A2979 RMK AO2=
K0S9 231835Z AUTO 14006KT 10SM CLR 12/07 A3013 RMK AO2=
K3N8 231835Z AUTO 12017G22KT 10SM CLR 22/11 A2945 RMK AO2
     T02180112=
K3S8 231835Z AUTO 00000KT 10SM OVC007 08/06 A3024 RMK AO2=
K4V0 231835Z AUTO 00000KT 1 3/4SM -SN OVC006 00/00 A2966 RMK AO2
     T00030003=
K82V 231835Z AUTO 33018G28KT 10SM CLR 15/00 A2935 RMK AO2=
KALM 231835Z AUTO 23018G28KT 10SM FEW070 24/06 A2979 RMK AO2=
KATA 231835Z AUTO 17010G17KT 140V210 10SM BKN047 28/17 A2990 RMK
     AO2 SLP025 T02760169 $=
KATS 231835Z AUTO 23021G32KT 10SM CLR 26/10 A2972 RMK AO2=
KBKS 231835Z AUTO 16016KT 10SM BKN049 31/19 A2981 RMK AO2 SLP056
     T03110192 $=
KBVU 231835Z AUTO 35011G20KT 330V030 10SM CLR 17/M12 A2985 RMK
     AO2=
KCVH 231835Z AUTO 15006KT 10SM CLR 16/05 A3000 RMK A01=
