SAUS80 KWBC 232000
METAR
KM25 231955Z AUTO 20008G20KT 10SM CLR 26/08 A3001 RMK AO2
     PWINO=
