SACA42 KWBC 231900
METAR
TIST 231853Z VRB04KT 10SM SCT030 29/24 A2988=
TJBQ 231850Z 07010KT 10SM CLR 29/23 A2990=
TJMZ NIL=
TJPS NIL=
TJSJ 231856Z 05010KT 10SM SCT034 SCT085 31/24 A2989=
