SAUS70 KWBC 231820 RRE
METAR
KN03 231815Z AUTO 12005KT 10SM CLR 18/02 A3028 RMK AO2=
KOLY 231815Z AUTO 18019G25KT 10SM BKN049 25/11 A2997 RMK AO2
     T02520108=
KONX 231815Z AUTO 35009G14KT 10SM OVC006 16/16 A3007 RMK AO2
     T01630163=
KOQN 231815Z AUTO 06006KT 018V078 10SM -DZ CLR 17/11 A3023 RMK
     AO2=
K2G2 231810Z AUTO 11005KT 10SM CLR 22/03 A3020 RMK A01=
K33N 231815Z AUTO 02012KT 10SM OVC022 17/14 A3018 RMK A01=
KANW 231815Z AUTO 19016G23KT 10SM CLR 26/00 A2916 RMK AO2
     T02640000=
KBCK 231815Z AUTO 12010G17KT 10SM CLR 24/12 A2969 RMK AO2
     T02410122=
KBWP 231815Z AUTO 13020G26KT 10SM CLR 23/12 A2935 RMK AO2=
KC09 231815Z AUTO 17016G25KT 10SM SCT044 25/14 A2986 RMK AO2
     T02540141=
KCKZ 231815Z AUTO 08009KT 040V100 10SM CLR 18/10 A3026 RMK AO2=
KCSQ 231815Z AUTO 18023G32KT 8SM CLR 27/14 A2950 RMK AO2=
KGGI 231815Z AUTO 16020G26KT 10SM CLR 25/14 A2962 RMK AO2
     T02490144=
KHLB 231815Z AUTO 17012KT 10SM CLR 24/10 A3009 RMK A01=
KM30 231815Z AUTO 18012G23KT 10SM SCT049 26/12 A3001 RMK AO2
     T02600119=
KOXI 231815Z AUTO 18017G26KT 10SM SCT070 25/12 A2996 RMK AO1=
KOXV 231815Z AUTO 17022G28KT 10SM CLR 25/13 A2958 RMK AO2=
KPTD 231815Z AUTO 00000KT 10SM CLR 22/03 A3026 RMK AO2=
KPVB 231815Z AUTO 16016G22KT 10SM CLR 23/12 A2975 RMK AO1
     T02300120=
KRNH 231815Z AUTO 14014G21KT 10SM CLR 23/16 A2961 RMK AO2
     T02300162=
KRZL 231815Z AUTO 17021G30KT 10SM CLR 25/11 A2996 RMK AO2=
KSAR 231815Z AUTO 19019G30KT 10SM SCT035 24/15 A2992 RMK AO2
     T02380149=
KSLO 231815Z AUTO 18018G24KT 10SM OVC036 25/14 A2993 RMK AO2
     T02490143=
KTME 231815Z AUTO 16016G21KT 10SM BKN055 BKN065 30/16 A2993 RMK
     AO2=
KTNU 231815Z AUTO 16021KT 10SM CLR 24/14 A2957 RMK A01=
KUBE 231815Z AUTO 14014G19KT 10SM CLR 21/16 A2966 RMK AO2=
KUSE 231815Z AUTO 16015G22KT 10SM FEW055 25/11 A3009 RMK AO2=
K0F2 231815Z AUTO 16017G27KT 10SM CLR 28/16 A2976 RMK AO2
     T02810155=
K1V6 231815Z AUTO 25014G22KT 10SM SCT070 SCT075 BKN090 19/01 A2943
     RMK AO2=
K3S8 231815Z AUTO 00000KT 10SM OVC006 08/06 A3023 RMK AO2=
KATA 231815Z AUTO 16010G16KT 10SM BKN045 BKN050 28/17 A2991 RMK
     AO2 SLP028 T02760171 $=
KAXH 231815Z AUTO 20009G18KT 10SM SCT060 30/14 A2995 RMK AO2
     T03040140=
KBKD 231815Z AUTO 16014G24KT 10SM CLR 29/15 A2976 RMK AO2
     T02900145=
KEKS 231815Z AUTO 32007KT M01/M02 A2980 RMK AO2 PWINO TSNO=
KF05 231815Z AUTO 20023G30KT 10SM CLR 31/12 A2967 RMK AO2
     T03140121=
KHHF 231815Z AUTO 21022G29KT 10SM CLR 27/11 A2958 RMK AO2
     T02720111=
KO69 231815Z AUTO VRB05G11KT 10SM CLR 17/01 A3003 RMK A01=
KP08 231815Z AUTO 27013KT 10SM BKN050 BKN060 21/10 A2980 RMK
     AO2=
KPKV 231815Z AUTO 17018G24KT 10SM SCT037 SCT045 BKN055 31/20 A2992
     RMK AO2 T03050200=
KPRS 231815Z AUTO 16008KT 10SM CLR 29/11 A2984 RMK AO2
     T02910111=
KSXU 231815Z AUTO 22024G33KT 10SM SCT085 BKN110 24/01 A2965 RMK
     AO2 T02370013=
KT89 231815Z AUTO 11007KT 10SM CLR 30/06 A2980 RMK A01=
KUVA 231815Z AUTO 13013G17KT 10SM CLR 26/18 A2986 RMK AO2
     T02580179=
K4V0 231815Z AUTO 19003KT 2SM -SN OVC006 00/00 A2965 RMK AO2
     T00010001=
K82V 231815Z AUTO 32018G25KT 10SM CLR 16/00 A2935 RMK AO2=
KARM 231815Z AUTO 17015KT 10SM BKN050 OVC065 28/16 A2993 RMK AO2
     T02820155 TSNO=
KAVQ 231815Z AUTO 25009G16KT 10SM BKN050 24/08 A2980 RMK AO2
     T02390078=
KBAM 231815Z AUTO 33007G15KT 7SM SCT021 BKN029 OVC043 03/00 A3002
     RMK AO1=
KBPC 231815Z AUTO 23020G31KT 10SM CLR 28/08 A2958 RMK AO2=
KCXP 231815Z AUTO VRB06G11KT 10SM BKN044 06/M05 A3004 RMK AO2=
KF44 231815Z AUTO 19013G23KT 10SM SCT044 BKN050 27/16 A2988 RMK
     AO2=
