SAUS80 KWBC 231646
METAR
KNY0 231638Z AUTO 00000KT 10SM CLR 13/07 A3033 RMK AO2=
