SACA41 KWBC 231800 RRA
METAR
MUCM 231752Z 03005KT 360V070 7000 -TSRA SCT018CB BKN025 23/22
     Q1015 RMK CB ALL QUAD=
MUCU 231750Z VRB02KT 9000 SCT020TCU SCT070 31/22 Q1013 RMK TCU AT
     I QUAD AD=
