SAUS70 KWBC 231938 RRH
METAR
KIER 231935Z AUTO 19010KT 170V230 10SM BKN050 OVC065 30/16 A2996
     RMK AO2 T02990160=
KIFA 231935Z AUTO 14023G28KT 10SM CLR 26/14 A2954 RMK AO2
     T02560144=
KIGQ 231935Z AUTO 18023G29KT 10SM CLR 26/13 A2989 RMK AO2
     T02570134=
KINJ 231935Z AUTO 16021G30KT 10SM BKN046 29/16 A2980 RMK AO2
     T02890163=
KJAU 231925Z AUTO 19005G11KT 10SM CLR 23/01 A3020 RMK A01=
KJPX 231935Z AUTO 05005KT 10SM -RA SCT034 BKN065 OVC085 13/13
     A3025 RMK AO2 P0012 T01310131=
KJTC 231935Z AUTO 25011G18KT 10SM SCT034 BKN039 BKN045 14/04 A2981
     RMK AO2=
KJWG 231935Z AUTO 17018G28KT 10SM CLR 25/15 A2962 RMK AO2
     T02520150=
KJWY 231935Z AUTO 18020G30KT 10SM SCT050 29/16 A2981 RMK AO2
     T02890157=
KJYL 231935Z AUTO 05005KT 10SM CLR 26/11 A3014 RMK AO2
     T02570105=
KK70 231935Z AUTO 06010G15KT 10SM CLR 29/21 A3000 RMK AO2=
KLCG 231935Z AUTO 17026G32KT 10SM CLR 30/11 A2928 RMK AO2
     T02950113=
KLNA 231935Z AUTO 04010G15KT 10SM CLR 28/19 A3003 RMK AO2
     T02810185 PNO=
KLNC 231935Z AUTO 18015G27KT 10SM SCT055 30/15 A2982 RMK AO2
     T02950148=
KLNQ 231935Z AUTO 08007KT 10SM SCT044 28/14 A3008 RMK AO2
     T02820140=
KLUG 231935Z AUTO 21010KT 7SM CLR 25/07 A3010 RMK A01=
KLXY 231935Z AUTO 16015G25KT 10SM SCT050 30/15 A2983 RMK AO2
     T02960153=
KLYO 231935Z AUTO 18030G39KT 3/4SM HZ SCT010 BKN022 OVC036 31/12
     A2941 RMK AO2=
KM02 231935Z AUTO 20011G20KT 10SM 25/06 A3006 RMK A01=
KM04 231935Z AUTO 20011G18KT 10SM FEW050 27/13 A2998 RMK A01=
KM08 231935Z AUTO 14013KT 10SM CLR 26/12 A3002 RMK A01=
KM30 231935Z AUTO 18010G17KT 10SM CLR 27/11 A2998 RMK AO2
     T02660112=
KM54 231930Z AUTO 22012KT 10SM CLR 25/07 A3007 RMK A01=
KM75 231935Z AUTO 01016KT 1SM BR VV007 01/01 A2965 RMK A01=
KM91 231935Z AUTO 18010KT 10SM CLR 24/09 A3005 RMK A01=
KMBT 231935Z AUTO VRB05G12KT 10SM CLR 25/06 A3008 RMK A01=
KMEV 231935Z AUTO 21003KT 10SM SCT048 07/M04 A3004 RMK AO2=
KMHV 231940Z AUTO 29013G19KT 10SM CLR 17/M04 A2988 RMK A01=
KMIO 231935Z AUTO 16021G32KT 10SM CLR 29/14 A2967 RMK AO2=
KMMI 231935Z AUTO 19004KT 10SM CLR 24/01 A3016 RMK A01=
KMNV 231935Z AUTO 26005KT 10SM 24/01 A3014 RMK A01=
K04W 231935Z AUTO 12012G19KT 10SM SCT044 23/13 A2956 RMK AO2=
K06D 231935Z AUTO 04020G26KT 10SM OVC014 09/07 A2948 RMK AO2=
K1P1 231935Z AUTO 00000KT 10SM CLR 17/05 A3033 RMK AO2
     T01710047=
K22N 231935Z AUTO 00000KT 10SM SCT120 17/08 A3027 RMK AO2=
K2D5 231935Z AUTO 10024G34KT 9SM CLR 22/12 A2927 RMK AO2=
K2P2 231935Z AUTO 17011G18KT 10SM SCT075 SCT110 16/12 A2991 RMK
     AO2 T01640115=
K3D2 231935Z AUTO 17014G24KT 10SM CLR 17/11 A2989 RMK AO2
     T01670106=
K3N8 231935Z AUTO 12016G24KT 10SM CLR 23/12 A2941 RMK AO2
     T02290115=
K46D 231935Z AUTO 08019G25KT 10SM CLR 17/08 A2934 RMK AO2=
K6L4 231935Z AUTO 00000KT 10SM CLR 23/04 A3017 RMK AO2=
K82C 231935Z AUTO 14012G22KT 10SM CLR 24/13 A2971 RMK AO2
     T02380132=
KANQ 231935Z AUTO 19016KT 10SM CLR 23/10 A3003 RMK AO2=
KCDA 231935Z AUTO 12003KT 10SM 18/04 A3034 RMK AO2 T01750037=
KCKC 231935Z AUTO 08009G14KT 10SM CLR 18/11 A2977 RMK AO2=
KCKZ 231935Z AUTO 06009KT 10SM OVC044 17/09 A3025 RMK AO2=
KCVX 231935Z AUTO 16015G18KT 10SM CLR 23/12 A2996 RMK AO2
     T02330115=
KD25 231935Z AUTO 14011G23KT 10SM SCT040 22/12 A2975 RMK AO2
     T02160120=
KDYT 231935Z AUTO 07008G20KT 050V120 10SM CLR 13/10 A2963 RMK
     AO2=
KFOZ 231933Z AUTO 12012G21KT 10SM CLR 23/11 A2963 RMK AO2=
KLDJ 231935Z AUTO 05009KT 10SM -RA OVC065 17/08 A3025 RMK AO2
     T01660079=
KOWA 231933Z AUTO 14025G32KT 10SM CLR 24/13 A2952 RMK AO2=
