SAUS70 KWBC 231900 RRL
METAR
KARG 231856Z AUTO 19019G28KT 10SM OVC041 26/15 A2993 RMK AO2 PK
     WND 20028/1847 SLP134 T02560150=
KASH 231856Z 00000KT 10SM CLR 15/08 A3034 RMK AO2 SLP280 T01500083
     $=
KAUM 231856Z AUTO 16017G26KT 10SM CLR 23/13 A2956 RMK AO2=
KAXV 231855Z AUTO 19012G20KT 10SM SCT055 23/08 A3009 RMK AO2=
KBHB 231856Z AUTO 13004KT 10SM CLR 16/11 A3037 RMK AO2 SLP286
     T01560106 PNO $=
KBID 231856Z AUTO 05013G19KT 10SM -RA BKN016 OVC037 14/12 A3027
     RMK AO2 RAE20B45 SLP251 P0000 T01390117=
KBLM 231856Z AUTO 02009G15KT 10SM -RA BKN019 OVC046 14/14 A3023
     RMK AO2 RAB14 SLP237 P0001 T01440144=
KBMI 231856Z 17022G27KT 10SM CLR 24/14 A2986 RMK AO2 PK WND
     16032/1840 SLP104 T02390144=
KBTP 231856Z AUTO 12004KT 8SM CLR 21/03 A3022 RMK AO2 SLP238
     T02060033 TSNO=
KBVI 231855Z AUTO 16004KT 10SM CLR 24/02 A3020 RMK AO2
     T02430020=
KBVX 231856Z AUTO 18012G18KT 10SM OVC036 24/16 A2993 RMK AO2
     SLP134 T02390156=
KCAD 231855Z AUTO 16012G17KT 10SM BKN050 OVC060 23/11 A2998 RMK
     AO2 T02310110=
KCDA 231855Z AUTO 11003KT 10SM 18/05 A3035 RMK AO2 T01800046=
KCDI 231855Z AUTO 00000KT 10SM CLR 24/08 A3016 RMK AO2
     T02360081=
KCGZ 231856Z AUTO 29018G24KT 10SM FEW055 23/08 A2979 RMK AO2
     SLP077 T02280083 $=
KCIU 231856Z AUTO 17015G20KT 10SM CLR 22/12 A3002 RMK AO2 SLP168
     T02170117=
KCMA 231855Z 25005KT 10SM CLR 21/10 A2987 RMK AO2 SLP122
     T02110100=
KCNB 231855Z AUTO 11022G29KT 10SM CLR 24/11 A2934 RMK AO2
     T02350114=
KCOD 231856Z AUTO 01009KT 10SM SCT016 BKN032 OVC043 03/M01 A2962
     RMK AO2 RAB23E40 SLP032 P0000 T00281011=
KCQM 231855Z AUTO 13007G15KT 10SM SCT070 22/09 A2963 RMK AO2=
KCTB 231856Z AUTO 34024KT 1 1/4SM -SN BR OVC007 00/M01 A2989 RMK
     AO2 PK WND 34032/1806 SLP149 P0002 T00001006 $=
KCVN 231856Z AUTO 21021G31KT 10SM CLR 23/10 A2968 RMK AO2 PK WND
     21033/1843 SLP011 T02280100=
KCVX 231855Z AUTO 18012G21KT 10SM CLR 23/12 A2997 RMK AO2
     T02340116=
KCWI 231856Z AUTO 16016G23KT 10SM CLR 24/14 A2974 RMK AO2 PK WND
     14027/1841 SLP068 T02440139=
KD95 231855Z AUTO 17009G15KT 10SM CLR 23/05 A3011 RMK AO2
     T02340053=
KDIJ 231856Z AUTO 31010KT 9SM -SN OVC026 M01/M04 A2976 RMK AO2
     SLP094 P0000 T10061044=
KDTL 231855Z AUTO 12017G24KT 10SM CLR 22/11 A2942 RMK AO2=
KDUH 231855Z AUTO 20010G16KT 10SM CLR 25/07 A3009 RMK AO2
     T02480066=
KDYR 231856Z AUTO 19012G19KT 10SM FEW049 26/14 A3001 RMK AO2
     SLP164 T02560139=
KDYT 231855Z AUTO 07008KT 10SM CLR 12/10 A2966 RMK AO2=
KEEN 231856Z AUTO 00000KT 10SM CLR 13/07 A3033 RMK AO2 SLP277
     T01330072 $=
KEFK 231855Z AUTO 02004KT 10SM CLR 19/06 A3032 RMK AO2
     T01860061=
KEGE 231856Z 27005KT 10SM FEW021 SCT025 OVC032 04/01 A2958 RMK AO2
     RAE16B33E53 SLP954 P0000 T00440011=
KEHR 231856Z AUTO 18014KT 10SM CLR 27/08 A3000 RMK AO2 PK WND
     19026/1811 SLP157 T02720083=
KEKQ 231856Z AUTO 23007KT 10SM CLR 25/06 A3015 RMK AO2 SLP200
     T02500061=
KENV 231856Z AUTO 32021G29KT 10SM CLR 08/M10 A2986 RMK AO2 PK WND
     33033/1817 SLP114 T00781100=
KESC 231856Z AUTO 15011KT 10SM CLR 16/11 A2993 RMK AO2 SLP138
     T01610111 PNO $=
KEWK 231856Z AUTO 17035G45KT 3SM HZ CLR 28/13 A2948 RMK AO2 PK WND
     19045/1848 SLP963 T02830133=
KFAM 231856Z AUTO 18016G26KT 10SM BKN030 23/15 A2990 RMK AO2 PK
     WND 17028/1840 SLP130 T02330150=
KFCI 231856Z AUTO 36007KT 8SM -RA OVC016 15/13 A3018 RMK AO2
     RAB17E29B50 SLP230 P0000 T01500128=
KFFX 231855Z AUTO 16009G14KT 10SM BKN055 OVC065 24/12 A2996 RMK
     AO2 T02440115=
KFGN 231855Z AUTO 07006KT 10SM CLR 14/07 A2961 RMK AO2=
