SAUS70 KWBC 231620 RRB
METAR
KCFD 231615Z AUTO 18011G15KT 10SM BKN026 BKN034 OVC046 26/19 A2996
     RMK AO2 T02550191=
KCQF 231615Z AUTO 05004KT 10SM CLR 23/10 A3018 RMK AO2=
KDUC 231615Z AUTO 18021KT 10SM SCT023 24/17 A2978 RMK AO2
     T02430170=
KDZJ 231615Z AUTO 10003KT 10SM CLR 19/02 A3026 RMK AO2
     T01860025=
KE42 231615Z AUTO 22023G32KT 10SM -RA CLR 26/11 A2960 RMK AO2
     T02580105=
KEBA 231615Z AUTO 10004KT 10SM CLR 21/05 A3023 RMK AO2
     T02060047=
KEBG 231615Z AUTO 16014G26KT 10SM SCT038 29/20 A2988 RMK AO2
     T02910195 PWINO=
KELA 231615Z AUTO 18017G20KT 10SM SCT036 SCT044 BKN060 29/18 A2995
     RMK AO2 T02870184=
KEMM 231615Z AUTO 30016G24KT 10SM OVC035 M01/M04 A2963 RMK AO2=
KEQA 231615Z AUTO 20026G32KT 10SM CLR 27/12 A2961 RMK AO2=
KETC 231615Z AUTO 01008G14KT 330V040 10SM OVC015 18/13 A3017 RMK
     AO2 T01760133=
KEZZ 231615Z AUTO 18017G25KT 10SM CLR 25/14 A2962 RMK AO2
     T02520141=
KF00 231615Z AUTO 19016G25KT 10SM OVC025 24/17 A2988 RMK AO2
     T02390172=
KFET 231615Z AUTO 16020G26KT 10SM CLR 24/14 A2939 RMK AO2
     T02430135=
KFHB 231615Z AUTO 04011KT 10SM CLR 23/18 A3016 RMK AO2=
KFOA 231615Z AUTO 18021G27KT 10SM SCT035 24/14 A3000 RMK AO2=
KFSW 231615Z AUTO 17013G19KT 10SM OVC001 22/14 A2976 RMK AO2=
KFWC 231615Z AUTO 18018G26KT BKN036 23/13 A3001 RMK AO1 T02270125
     PWINO=
KGPC 231615Z AUTO 19017G26KT 10SM CLR 23/12 A3006 RMK AO2
     T02320117=
KGRN 231615Z AUTO 31011G16KT 10SM CLR 09/01 A2922 RMK AO2
     T00930005=
KGWB 231615Z AUTO 20007KT 10SM CLR 21/12 A3010 RMK AO2=
KHJH 231615Z AUTO 20022G31KT 10SM CLR 25/12 A2939 RMK AO2
     T02510117=
KHMP 231615Z AUTO 06004KT 10SM CLR 19/06 A3028 RMK AO2
     T01920059=
KHQU 231615Z AUTO 04004KT 10SM CLR 21/10 A3022 RMK AO2
     T02090102=
KIIY 231615Z AUTO 00000KT 10SM CLR 21/08 A3023 RMK AO2
     T02060080=
KIYA 231615Z AUTO 13014G18KT SCT055 SCT070 26/15 A3008 RMK AO2
     T02610145 PWINO=
KJCA 231615Z AUTO 03006KT 10SM CLR 20/04 A3024 RMK AO2
     T02000042=
KJDD 231615Z AUTO 17010G17KT 150V210 10SM BKN028 BKN033 25/18
     A2992 RMK AO2=
KK88 231615Z AUTO 18024G32KT 10SM CLR 24/14 A2969 RMK AO1
     T02410140=
KLHB 231615Z AUTO 15013G16KT 10SM SCT026 SCT032 BKN046 26/19 A2993
     RMK AO2 T02620192=
KLHM 231615Z AUTO 33011KT 10SM CLR 11/01 A2997 RMK AO1=
KLNN 231615Z AUTO 20007KT 10SM CLR 22/03 A3020 RMK AO1
     T02230029=
KLUA 231615Z AUTO 07005KT 10SM CLR 15/06 A3029 RMK AO2=
KLUD 231615Z AUTO 18014G21KT 7SM CLR 25/16 A2982 RMK AO2
     T02480162=
KLUL 231615Z AUTO 17009KT 10SM CLR 23/13 A3017 RMK A02
     T02340125=
KMDD 231615Z AUTO 21017G25KT 10SM CLR 25/11 A2981 RMK AO2
     T02460108=
KMFV 231635Z AUTO 36005KT 10SM OVC006 16/15 A3014 RMK AO2
     T01550145=
KMGR 231615Z AUTO 06005KT 10SM CLR 22/11 A3019 RMK AO2=
KMKS 231615Z AUTO 01005KT 10SM CLR 20/11 A3018 RMK AO2=
KMPR 231615Z AUTO 19026G34KT 5SM HZ CLR 25/13 A2953 RMK AO2
     T02510127=
KMWK 231615Z AUTO 00000KT 10SM CLR 18/05 A3026 RMK AO2
     T01800050=
KMWO 231615Z AUTO 19009KT 10SM CLR 22/09 A3017 RMK AO2
     T02220089=
KMYP 231615Z AUTO OVC002 M03/M04 A2971 RMK AO2 PWINO=
KMZZ 231615Z AUTO 18016KT 10SM CLR 22/12 A3010 RMK AO2
     T02190116=
KN03 231615Z AUTO 16006KT 10SM CLR 16/03 A3031 RMK AO2=
KOLE 231615Z AUTO 21005KT 10SM CLR 15/03 A3029 RMK AO2=
KOLY 231615Z AUTO 16017G23KT 10SM BKN037 23/11 A3001 RMK AO2
     T02290111=
KONX 231615Z AUTO 35006KT 4SM RA OVC004 16/16 A3012 RMK AO2 P0002
     T01600160=
KOQN 231615Z AUTO 05006KT 10SM OVC080 16/08 A3027 RMK AO2=
KPCD 231615Z AUTO 18022G27KT 160V250 10SM OVC026 23/16 A2995 RMK
     AO2 T02280161=
