SAUS70 KWBC 232022 RRA
METAR
KSBO 232015Z AUTO 00000KT 10SM CLR 25/09 A3014 RMK AO2=
KSBS 232015Z AUTO 29007G14KT 3/4SM OVC003 M01/M01 A2958 RMK AO1
     T10111011=
KSDA 232015Z AUTO 17029G37KT 10SM CLR 29/14 A2939 RMK AO2=
KSEF 232015Z AUTO 03009KT 10SM SCT047 SCT060 28/17 A3005 RMK
     AO2=
KSHL 232015Z AUTO 16027G38KT 10SM CLR 27/12 A2931 RMK AO2=
KSJS 232015Z AUTO 12006KT 10SM CLR 24/07 A3015 RMK AO2
     T02410073=
KSLB 232015Z AUTO 17024G36KT 10SM CLR 26/13 A2938 RMK AO2=
KSNL 232015Z AUTO 17025G31KT 10SM CLR 28/12 A2967 RMK AO2
     T02800116=
KT35 232015Z AUTO 16013G21KT 10SM SCT050 BKN065 30/17 A2981 RMK
     AO2 T02980165=
KT41 232015Z AUTO 10SM SCT045 SCT050 29/17 A2991 RMK AO2
     T02920172=
KTAZ 232015Z AUTO 17023G32KT 10SM SCT038 25/14 A2984 RMK AO2
     T02470143=
KTBR 232015Z AUTO 03004KT 10SM CLR 24/08 A3013 RMK AO2
     T02440081=
KTIF 232015Z AUTO 28021G27KT 10SM CLR 25/M01 A2920 RMK AO2
     T02461010=
KTIP 232015Z AUTO 18025G31KT 10SM SCT047 24/13 A2989 RMK AO2
     T02400125=
KTQK 232015Z AUTO 22037G44KT 2 1/2SM HZ SCT022 BKN029 OVC033 29/01
     A2933 RMK AO2 T02940005=
KTVI 232015Z AUTO 03003KT 10SM CLR 25/07 A3012 RMK AO2=
KUNI 232015Z AUTO 16005KT 2 1/2SM HZ CLR 25/05 A3013 RMK AO2
     T02520052=
KVDI 232015Z AUTO 00000KT 10SM CLR 26/09 A3013 RMK AO2=
KVKS 232015Z AUTO 17009G15KT 10SM SCT055 28/14 A2999 RMK A01=
KVPC 232015Z AUTO 00000KT 10SM CLR 24/02 A3015 RMK AO2=
KVUJ 232015Z AUTO 03005KT 10SM CLR 23/05 A3019 RMK AO2
     T02250046=
KW22 232015Z AUTO 02004KT 10SM CLR 24/02 A3018 RMK AO2=
KWDR 232015Z AUTO 00000KT 10SM CLR 23/00 A3017 RMK AO2=
KXBP 232015Z AUTO 18017G27KT 10SM CLR 30/14 A2973 RMK AO2
     T03000135=
KZER 232015Z AUTO 10005KT 10SM SCT042 BKN050 BKN055 15/08 A3028
     RMK AO2=
KASL 232015Z AUTO 00000KT 10SM CLR 30/12 A2985 RMK AO2 T02980125
     TSNO $=
KBBD 232015Z AUTO 16016G23KT 10SM CLR 28/13 A2976 RMK AO2=
KBDG 232015Z AUTO 24016G24KT 10SM 06/M03 A2977 RMK AO1
     T00611031=
KBVS 232015Z AUTO 16005KT 10SM FEW017 11/07 A3016 RMK A01=
KBYY 232015Z AUTO 17016G21KT 10SM SCT060 28/15 A2989 RMK AO2
     T02890149=
KPSO 232015Z AUTO 23016G22KT 10SM SCT050 BKN055 BKN100 05/M05
     A2973 RMK AO2 T00521048=
KRWV 232015Z AUTO 18020G28KT 10SM BKN065 30/16 A2983 RMK AO2
     T03030159=
KRYW 232015Z AUTO 15012G23KT 10SM SCT049 29/16 A2981 RMK AO2
     T02860157=
KS33 232015Z AUTO 28005KT 10SM SCT040 09/00 A3013 RMK AO2=
KSTK 232015Z AUTO 33017G22KT 10SM CLR 20/01 A2929 RMK AO2=
KT74 232015Z AUTO 16016G23KT 10SM BKN050 30/18 A2980 RMK AO2
     T03000177=
KTEX 232015Z AUTO 24013G21KT 10SM -SN SCT031 SCT041 OVC050 00/M08
     A2970 RMK AO2=
KTYL 232015Z AUTO 25019G25KT 10SM SCT050 15/00 A2981 RMK AO2=
KVHN 232015Z AUTO 21017G24KT 10SM CLR 30/08 A2977 RMK AO2
     T02960077=
KVTP 232015Z AUTO 24012G24KT 10SM SCT005 OVC009 M12/M14 A2962 RMK
     AO2=
KUMP 232015Z AUTO 17015G18KT 10SM CLR 26/11 A3001 RMK AO2
     T02580113=
K33V 232015Z AUTO 35016KT 2 1/2SM SCT022 BKN034 OVC042 M01/M03
     A2952 RMK AO1=
K66R 232015Z AUTO 17012G19KT 10SM SCT047 SCT055 BKN065 29/17 A2987
     RMK AO2 T02880174=
KAJZ 232015Z AUTO 29008G25KT 7SM RA SCT013 BKN037 OVC048 05/01
     A2964 RMK AO2 LTG DSNT N AND NE P0001 T00520008=
KAQO 232015Z AUTO 17015G21KT 10SM CLR 30/13 A2978 RMK AO2=
KAUN 232015Z AUTO 28010G15KT 10SM CLR 19/M05 A2994 RMK A01=
KCCU 232015Z AUTO 24015G19KT 1/4SM -SN OVC001 M03/M05 A2962 RMK
     AO2=
KCOM 232015Z AUTO 18020G27KT 10SM CLR 30/13 A2975 RMK AO2
     T02990126=
KDKB 232015Z AUTO 17026G32KT 10SM SCT120 24/15 A2982 RMK AO2
     T02420152=
