SACA35 KWBC 231800
METAR
MGGI NIL=
MGPB NIL=
MGSJ NIL=
MHLC 231800Z 34005KT 9999 FEW028TCU BKN080 30/22 Q1013 A2992
     NOSIG=
MHLM 231800Z 04006KT 9999 SCT028 BKN080 29/22 Q1013 A2992
     NOSIG=
MHTG 231800Z 01010KT 9999 FEW026 BKN034TCU 24/18 Q1018 A3006
     NOSIG=
MNPC NIL=
MPBO NIL=
MPCH NIL=
MPDA 231800Z 20008KT 9000 -RA SCT014TCU 26/25 Q1011=
MPMG NIL=
MPSA NIL=
MPTO 231800Z 18010KT 9000 VCSH FEW010 SCT017CB SCT080 30/24 Q1011
     TEMPO TS=
MRLB 231800Z 08009KT 050V110 9999 FEW040 31/24 A2982=
MRLM 231800Z 21005KT 9999 FEW020 BKN100 26/23 A2988 REDZ=
MROC 231800Z 10007KT 060V160 9999 BKN040 27/18 A3002 NOSIG=
MRPV 231800Z 07012KT 9999 FEW035 BKN070 26/15 A3000 NOSIG=
MSLP 231750Z 22007KT 170V250 9999 SCT043 31/23 Q1011 A2986
     NOSIG=
MSSS NIL=
MZBZ NIL=
