SAUS70 KWBC 231800 RRN
METAR
KHND 231756Z 35012G17KT 10SM CLR 16/M09 A2988 RMK AO2 SLP121
     T01561089 10156 20128 51019=
KHYI 231756Z 18019G26KT 10SM OVC015 28/18 A2989 RMK AO2 PK WND
     17027/1746 SLPNO T02800180 $=
KHYS 231756Z AUTO 19020G33KT 7SM BKN036 OVC043 29/09 A2935 RMK AO2
     SLP923 6//// T02940094 10294 20167 58019 $=
KHZL 231755Z AUTO 00000KT 10SM OVC032 16/08 A3031 RMK AO2=
KI23 231755Z AUTO 15008G14KT 10SM CLR 23/08 A3015 RMK AO1=
KI69 231755Z AUTO 20008G14KT 10SM CLR 24/09 A3015 RMK AO2
     T02350091 10240 20135=
KILE 231756Z AUTO 18018G29KT 10SM BKN043 28/16 A2987 RMK AO2 PK
     WND 16029/1748 SLP103 T02780161 10278 20217 58010=
KRMY 231755Z AUTO 15014G19KT 10SM CLR 23/11 A3006 RMK AO2
     T02300106 10232 20130=
KRNP 231755Z AUTO 18013G19KT 10SM CLR 24/09 A3008 RMK AO2
     T02360094 10236 20130=
KRQB 231755Z AUTO 17014G22KT 130V190 10SM CLR 23/11 A3001 RMK AO2
     T02260113 10226 20068=
KRUT 231756Z AUTO 12009KT 10SM CLR 19/03 A3031 RMK AO2 SLP261
     T01890028 10189 20039 58016 $=
KRZT 231755Z AUTO 15005KT 10SM CLR 23/07 A3016 RMK AO2 PWINO=
KSDY 231756Z AUTO 04011KT 10SM OVC009 07/05 A2946 RMK AO2 SLP989
     6//// T00670050 10067 20061 58006 PNO $=
KSFM 231756Z AUTO 12003KT 10SM CLR 17/08 A3036 RMK AO2 SLP284
     T01720078 10178 20039 58012=
KSFZ 231756Z AUTO 05007KT 10SM CLR 14/10 A3032 RMK AO2 SLP269
     T01390100 10139 20089 58010=
KSGJ 231756Z 03012KT 10SM CLR 24/21 A3013 RMK AO2 SLP202 T02440206
     10250 20150 58015=
KSGT 231756Z AUTO 19018G26KT 10SM FEW042 27/15 A3000 RMK AO2 PK
     WND 19027/1739 SLP156 T02670150 10267 20178 58015=
KSGU 231756Z AUTO 30012KT 10SM FEW065 11/M02 A2985 RMK AO2 SLP098
     T01111017 10117 20083 51019=
KSJX 231755Z AUTO 14009KT 10SM CLR 23/12 A2998 RMK AO2 T02250116
     10226 20127=
KSKX 231756Z AUTO 22028G43KT 10SM -RA OVC060 12/01 A2966 RMK AO2
     PK WND 22043/1749 SLP997 P0000 60000 T01220006 10139 20094
     58015=
KSLG 231756Z AUTO 18026G33KT 10SM CLR 26/16 A2981 RMK AO2 PK WND
     20034/1711 SLP083 T02560156 10261 20194 58009=
KSLH 231755Z AUTO 16009G15KT 130V210 10SM CLR 23/12 A3001 RMK
     AO2=
KSMN 231756Z AUTO 15004KT 10SM SCT043 OVC055 04/M05 A2987 RMK AO2
     SLP816 T00441050 10044 20022 51021=
KSOP 231756Z AUTO 01008KT 10SM CLR 21/07 A3018 RMK AO2 SLP222
     6//// T02060072 10206 20072 58017 TSNO=
KSQI 231756Z AUTO 16012G16KT 130V190 10SM CLR 24/14 A2981 RMK AO2
     SLP959 T02390139 10239 20144 58014=
KSRC 231756Z AUTO 19015G21KT 10SM OVC036 25/16 A2997 RMK AO2
     SLP145 T02500156 10256 20178 58017=
KSUE 231756Z AUTO 18016G24KT 10SM CLR 17/12 A2990 RMK AO2 PK WND
     18028/1716 SLP124 T01670117 10167 20122 58010=
KSYM 231755Z AUTO VRB04KT 10SM CLR 24/06 A3018 RMK AO2=
KTOB 231755Z AUTO 14022G27KT 10SM CLR 23/12 A2959 RMK AO2=
KTTF 231755Z AUTO 17010KT 10SM CLR 24/10 A3012 RMK AO2 T02400103
     10240 20116=
KUDG 231756Z AUTO 35007KT 10SM CLR 23/07 A3017 RMK AO2 SLP216
     T02280072 10228 20083 56017=
KUGN 231755Z 13013G18KT 10SM CLR 21/12 A2987 RMK AO2 SLP108
     T02060122 10211 20122 58016=
KULM 231755Z AUTO 14021G28KT 10SM CLR 23/11 A2947 RMK AO2=
KVBT 231756Z AUTO 18016G26KT 10SM CLR 26/16 A2983 RMK AO2 PK WND
     19027/1722 SLP091 T02560156 10256 20194 58010=
KCOD 231756Z AUTO 04010KT 10SM FEW016 BKN027 OVC047 02/M01 A2962
     RMK AO2 RAE08 SLP033 P0000 60000 T00171011 10022 20006 53012
     FZRANO=
KCQM 231755Z AUTO 15008KT 10SM CLR 22/09 A2965 RMK AO2=
KCVN 231756Z AUTO 21022G29KT 10SM CLR 22/11 A2970 RMK AO2 PK WND
     21032/1737 SLP020 T02220106 10228 20144 58012=
