SAUS70 KWBC 231800 RRM
METAR
KLSE 231753Z 13014G25KT 10SM CLR 24/13 A2967 RMK AO2 SLP038
     T02390128 10239 20156 58022 $=
KLVK 231753Z 25006KT 10SM CLR 15/03 A3001 RMK AO2 SLP158 T01500028
     10150 20050 51015=
KMAE 231753Z AUTO 31012KT 10SM CLR 16/02 A2995 RMK AO2 SLP141
     T01610022 10161 20056 51014=
KMBY 231755Z AUTO 17015G25KT 10SM CLR 26/12 A2971 RMK AO2 LTG DSNT
     E=
KMCB 231753Z AUTO 14007KT 9SM SCT047 25/14 A3009 RMK AO2 SLP187
     T02500139 10267 20133 58012=
KMCE 231753Z AUTO 32012KT 10SM CLR 18/01 A2995 RMK AO2 SLP142
     T01780006 10178 20089 51015=
KPDT 231753Z 25009KT 10SM CLR 09/02 A3008 RMK AO2 SLP182 60000
     T00940022 10094 20056 51024=
KPIR 231753Z AUTO 11015KT 10SM CLR 17/10 A2916 RMK AO2 SLP872
     60000 T01720100 10178 20028 56024 $=
KPKD 231753Z AUTO 11014G20KT 10SM CLR 21/11 A2952 RMK AO2 SLP996
     T02060106 10206 20072 58019=
KPNC 231753Z AUTO 18014G31KT 10SM CLR 29/14 A2962 RMK AO2 PK WND
     16032/1713 SLP017 T02940144 10294 20222 58008=
KPRB 231753Z AUTO 32012KT 10SM CLR 15/05 A2998 RMK AO2 SLP151
     T01500050 10150 20022 50008 $=
KPSC 231753Z 23006KT 10SM CLR 12/02 A3007 RMK AO2 SLP185 T01170017
     10122 20039 51021 $=
KPSK 231755Z AUTO 00000KT 10SM CLR 18/05 A3022 RMK AO2 T01800047
     10182 20000=
KPUC 231753Z AUTO 31015G27KT 10SM FEW050 07/M08 A2963 RMK AO2 PK
     WND 30028/1715 SLP024 T00671078 10067 20011 51016=
KPUW 231753Z AUTO 26011KT 10SM BKN013 05/02 A3002 RMK AO2 SLP180
     T00500017 10056 20000 51014 $=
KRBG 231753Z AUTO VRB03KT 10SM OVC003 07/06 A3020 RMK AO2 SLP231
     T00670061 10072 20050 51016=
KRCM 231755Z AUTO 16017G27KT 10SM CLR 27/13 A2965 RMK AO2=
KRCX 231755Z AUTO 12012KT 10SM CLR 22/15 A2973 RMK AO2 T02150152
     10215 20126=
KRHI 231753Z AUTO 15012G23KT 10SM FEW037 21/11 A2982 RMK AO2
     SLP093 T02110111 10211 20117 58013=
KRHP 231755Z AUTO 00000KT 10SM CLR 23/00 A3019 RMK AO2 T02250002
     10227 20000=
KRNT 231753Z 20004KT 10SM BKN007 OVC055 09/07 A3014 RMK AO2 SLP213
     T00940067 10094 20056 52019=
KRUE 231753Z AUTO 18012G17KT 10SM OVC032 24/16 A2991 RMK AO2
     SLP120 T02390161 10239 20211 58011=
KRWF 231753Z AUTO 12025G31KT 10SM CLR 23/13 A2943 RMK AO2 PK WND
     12032/1743 SLP964 T02330128 10239 20122 58029=
KRWI 231753Z AUTO 01009KT 10SM OVC021 20/13 A3014 RMK AO2 SLP205
     T02000128 10211 20117 58012=
KSAC 231753Z 32017G24KT 10SM CLR 18/01 A2998 RMK AO2 PK WND
     33027/1725 SLP152 T01830006 10183 20094 51014=
KSFF 231753Z 00000KT 10SM SCT045 06/02 A3001 RMK AO2 SLP172
     T00610017 10061 20022 51022=
KSHD 231755Z AUTO 00000KT 10SM CLR 16/06 A3026 RMK AO2 T01550058
     10155 21004=
KSHN 231753Z AUTO 00000KT 1/2SM FG VV002 05/04 A3013 RMK AO2
     SLP207 T00500044 10050 21011 53019=
KSIY 231753Z AUTO 04006KT 10SM BKN039 08/02 A3015 RMK AO2 SLP226
     I6000 T00830017 10089 21006 51021=
KSJC 231753Z 32011KT 10SM CLR 16/04 A3002 RMK AO2 SLP163 T01610039
     10161 20083 51015=
K10G 231755Z AUTO 17004KT 10SM CLR 22/06 A3020 RMK AO2=
K1P1 231755Z AUTO 00000KT 10SM CLR 17/05 A3034 RMK AO2 T01710046
     10171 20000=
K20U 231755Z AUTO 05012KT 10SM OVC011 06/05 A2943 RMK AO2=
K24A 231755Z AUTO 00000KT 10SM CLR 21/M02 A3022 RMK AO2 T02051020
     10209 20039=
K27K 231755Z AUTO 18011G16KT 10SM CLR 23/06 A3015 RMK AO1=
K2P2 231755Z AUTO 18011G19KT 150V210 10SM SCT110 17/12 A2993 RMK
     AO2 T01660116 10166 20105=
K35A 231755Z AUTO 27006KT 10SM CLR 21/08 A3022 RMK A02 T02140079
     10220 20032=
K3D2 231755Z AUTO 18014G24KT 10SM CLR 16/11 A2991 RMK AO2
     T01630105 10165 20107=
K4S2 231755Z AUTO 29004KT 10SM CLR 11/04 A3011 RMK AO2=
