SACA35 KWBC 232000
METAR
MGGI NIL=
MGPB 232000Z 36006KT 9999 FEW020 SCT080 28/23 Q1011 A2985=
MGSJ 232000Z 18010KT 9999 SCT020TCU 32/24 Q1010 A2983 TCU SMC/
     N=
MHLC 232000Z 01005KT 9999 FEW026 BKN080 28/22 Q1011 A2986
     NOSIG=
MHLM 232000Z 02004KT 9999 SCT028 BKN080 30/22 Q1011 A2986
     NOSIG=
MHTG 232000Z 34006KT 9999 SCT030 SCT034TCU 25/18 Q1016 A3000
     NOSIG=
MNPC NIL=
MPBO NIL=
MPCH NIL=
MPDA NIL=
MPMG NIL=
MPSA NIL=
MPTO NIL=
MRLB NIL=
MRLM 232000Z 10005KT CAVOK 28/24 A2981=
MROC 232000Z 20006KT 150V260 9999 SCT045 BKN150 26/21 A2996
     NOSIG=
MRPV 232000Z 10005KT 9999 FEW015 SCT040 BKN200 27/15 A2994
     NOSIG=
MSLP 231950Z 20003KT 140V260 9999 5000NE SHRA FEW010 FEW037CB
     SCT043 30/24 Q1009 A2981 TEMPO 5000 SHRA RMK CB NE=
MSSS NIL=
MZBZ 232000Z 05005KT 9999 FEW027 BKN045 29/24 A2989 Q1012
     NOSIG=
