SAUS80 KWBC 232004
METAR
KM25 232015Z AUTO 19013G19KT 10SM CLR 26/08 A3000 RMK AO2
     PWINO=
