SAUS70 KWBC 231940 RRC
METAR
KFWC 231935Z AUTO 18018KT SCT050 25/12 A2994 RMK AO1 T02520122
     PWINO=
KGDB 231935Z AUTO 12020G28KT 10SM CLR 25/13 A2937 RMK AO2
     T02510129=
KGMJ 231935Z AUTO 17019G31KT 10SM CLR 22/05 A2969 RMK AO2=
KGPC 231935Z AUTO 19020G24KT 10SM CLR 25/11 A2999 RMK AO2
     T02530111=
KGWB 231935Z AUTO 20008G14KT 10SM SCT055 SCT075 23/11 A3004 RMK
     AO2=
KHJH 231935Z AUTO 19022G32KT 10SM CLR 29/11 A2934 RMK AO2
     T02900110=
KHLX 231935Z AUTO 34006KT 10SM CLR 20/M15 A3019 RMK AO2
     T01951146=
KHMP 231935Z AUTO 00000KT 10SM CLR 23/03 A3019 RMK AO2
     T02260033=
KHQU 231935Z AUTO 13003KT 10SM CLR 24/09 A3014 RMK AO2
     T02410093=
KIIY 231935Z AUTO 33004KT 10SM CLR 24/07 A3015 RMK AO2
     T02370065=
KIYA 231935Z AUTO 13011G22KT SCT047 BKN070 26/13 A3003 RMK AO2
     T02630132 PWINO=
KJCA 231935Z AUTO 00000KT 10SM CLR 23/03 A3016 RMK AO2
     T02350025=
KJDD 231935Z AUTO 19015G22KT 140V200 10SM SCT046 BKN050 28/16
     A2985 RMK AO2=
KJYG 231937Z AUTO 15023G29KT 10SM CLR 25/12 A2942 RMK AO2=
KK88 231935Z AUTO 18019G31KT 10SM CLR 26/15 A2962 RMK AO1
     T02580153=
KLHB 231935Z AUTO 17014G23KT 10SM SCT050 BKN065 30/16 A2985 RMK
     AO2 T03010162=
KT82 231935Z AUTO 17014G24KT 10SM SCT045 28/15 A2983 RMK AO2
     T02770151=
KTDF 231935Z AUTO 03008KT 10SM CLR 19/04 A3019 RMK AO2=
KTEX 231935Z AUTO 24018G38KT 10SM BKN048 OVC060 00/M11 A2971 RMK
     AO2 P0001=
KTYL 231935Z AUTO 24024G35KT 10SM BKN050 BKN065 14/00 A2981 RMK
     AO2=
KTYQ 231935Z AUTO 16018G22KT 10SM SCT055 25/11 A3000 RMK AO2
     T02490105=
KVHN 231935Z AUTO 22020G26KT 10SM CLR 29/08 A2979 RMK AO2
     T02880076=
KVTP 231935Z AUTO 24013G22KT 1 1/4SM -SN BKN001 OVC007 M12/M14
     A2961 RMK AO2 VIS 1/4V5=
KVVS 231935Z AUTO 13008KT 10SM CLR 23/00 A3020 RMK AO2
     T02260002=
KVYS 231935Z AUTO 16022G31KT 10SM SCT043 25/14 A2978 RMK AO2
     T02480140=
KZPH 231935Z AUTO 02006KT 10SM CLR 28/14 A3007 RMK A02
     T02850144=
KLHM 231935Z AUTO 31020G28KT 10SM CLR 20/M02 A2996 RMK AO1=
KLNN 231935Z AUTO 13007G16KT 10SM CLR 23/05 A3014 RMK AO1
     T02330048=
KLUA 231935Z AUTO 03006KT 10SM OVC031 17/09 A3022 RMK AO2=
KLUD 231935Z AUTO 15021G26KT 10SM CLR 28/15 A2974 RMK AO2
     T02840151=
KLUL 231935Z AUTO 16008KT 10SM CLR 27/10 A3008 RMK A02
     T02660100=
KMDD 231935Z AUTO 17015G21KT 10SM CLR 28/12 A2972 RMK AO2
     T02820116=
KMGR 231935Z AUTO 00000KT 10SM CLR 25/09 A3013 RMK AO2=
KMKS 231935Z AUTO 01005KT 10SM CLR 22/09 A3013 RMK AO2=
KMPR 231935Z AUTO 18026G37KT 4SM HZ CLR 29/12 A2944 RMK AO2
     T02920123=
KMWK 231935Z AUTO 15003KT 10SM CLR 21/06 A3019 RMK AO2
     T02120057=
KMWO 231935Z AUTO 18009KT 10SM CLR 25/08 A3009 RMK AO2
     T02500078=
KMZZ 231935Z AUTO 20016G21KT 10SM CLR 25/11 A3003 RMK AO2
     T02450106=
KOEL 231935Z AUTO 25031G38KT 5SM HZ CLR 30/M07 A2928 RMK AO1
     T03001068=
KOLY 231935Z AUTO 18016G23KT 10SM BKN049 26/11 A2996 RMK AO2
     T02550107=
KONX 231935Z AUTO 35012G17KT 10SM OVC008 17/17 A3007 RMK AO2
     T01650165=
KPCD 231935Z AUTO 19017G27KT 180V240 10SM BKN040 26/17 A2988 RMK
     AO2 T02570167=
KPEZ 231935Z AUTO 14011G19KT 10SM SCT049 30/18 A2981 RMK AO2
     T02980179=
KPHN 231935Z AUTO 16013G18KT 10SM CLR 24/06 A3011 RMK AO2=
KPMV 231935Z AUTO 17021G32KT 10SM CLR 30/13 A2939 RMK AO2
     T02960130=
KPPO 231935Z AUTO 17019G24KT 10SM CLR 25/15 A2994 RMK AO2
     T02510152=
KPRG 231935Z AUTO 16024G29KT 10SM CLR 25/13 A2995 RMK AO2
     T02490125=
KPSO 231935Z AUTO 23016G24KT 10SM SCT032 SCT039 OVC050 04/M04
     A2973 RMK AO2 T00411036=
