SAUS70 KWBC 231900 RRC
METAR
PAWI 231853Z AUTO 10018KT 10SM CLR M09/M12 A2983 RMK AO2 SLP103
     T10941117 TSNO $=
KARA 231853Z 17016G23KT 10SM BKN045 29/15 A3002 RMK AO2 SLP166
     T02890150=
KARB 231853Z 18011G20KT 10SM SCT055 23/10 A3009 RMK AO2 SLP187
     T02330100=
KASD 231853Z AUTO 17011KT 10SM CLR 27/13 A3008 RMK AO2 SLP185
     T02720133=
KASE 231853Z 35007KT 8SM -SN SCT009 OVC030 01/M01 A2958 RMK AO2
     SLP949 P0002 T00061006=
KASX 231853Z AUTO 14012G21KT 10SM CLR 24/13 A2968 RMK AO2 SLP052
     T02440128=
KATY 231853Z AUTO 13016G28KT 10SM -RA CLR 23/12 A2929 RMK AO2 PK
     WND 14034/1754 SLP913 P0000 T02280117=
KAUG 231853Z AUTO 13003KT 10SM CLR 18/08 A3036 RMK AO2 SLP284
     T01780083=
KAUS 231853Z 17014G25KT 10SM SCT050 SCT060 BKN250 29/18 A2983 RMK
     AO2 PK WND 18028/1804 SLP094 T02940178=
KAWM 231853Z AUTO 19016KT 10SM CLR 28/14 A2997 RMK AO2 PK WND
     18026/1757 SLP146 T02780139=
KAXN 231853Z AUTO 12019G28KT 10SM CLR 22/12 A2943 RMK AO2 PK WND
     12034/1819 SLP966 T02220117=
KAZO 231853Z 16011G27KT 10SM CLR 24/11 A3000 RMK AO2 PK WND
     17027/1845 SLP156 T02440111=
KBBW 231853Z AUTO 20025G39KT 10SM CLR 29/02 A2919 RMK AO2 PK WND
     18042/1807 SLP867 T02940022=
KBDE 231853Z AUTO 10007KT 10SM CLR 22/10 A2957 RMK AO2 SLP014
     T02220100=
KBEH 231853Z AUTO 17017G30KT 10SM CLR 26/14 A2993 RMK AO2 PK WND
     17030/1853 SLP133 T02560139=
KBFD 231853Z AUTO 12009KT 10SM CLR 21/01 A3025 RMK AO2 SLP242
     T02060006=
KBFI 231853Z 14004KT 10SM BKN015 10/07 A3017 RMK AO2 SLP215
     T01000072=
KBFM 231853Z 18007KT 10SM CLR 26/08 A3012 RMK AO2 SLP199
     T02610083=
KBGM 231853Z 12003KT 10SM CLR 16/08 A3028 RMK AO2 SLP254
     T01560083=
KBGR 231853Z 18004KT 10SM SCT150 OVC200 19/09 A3036 RMK AO2 SLP279
     T01940089=
KBHM 231853Z 14007KT 10SM FEW250 24/06 A3017 RMK AO2 SLP210
     T02390056=
KBIV 231853Z AUTO 17015G24KT 10SM FEW055 24/13 A2995 RMK AO2
     SLP141 T02440128=
KBKE 231853Z AUTO 34013KT 10SM SCT050 06/M02 A3003 RMK AO2 SLP187
     T00611017=
KBKL 231853Z 12010KT 10SM CLR 24/08 A3013 RMK AO2 SLP201
     T02440083=
KBKV 231853Z 01007KT 10SM CLR 29/16 A3008 RMK AO2 SLP185
     T02890156=
KBLI 231853Z VRB04KT 10SM SCT012 BKN044 10/08 A3015 RMK AO2 SLP217
     T01000083=
KBMG 231853Z 17013G20KT 10SM FEW055 25/11 A3002 RMK AO2 SLP159
     T02500106 $=
KBMQ 231853Z AUTO 17016G31KT 10SM CLR 28/16 A2984 RMK AO2 PK WND
     18034/1813 SLP087 T02830156=
KBNA 231853Z 19013G20KT 10SM SCT250 26/07 A3011 RMK AO2 SLP191
     T02560067 $=
KBOI 231853Z 31013KT 10SM FEW032 09/M01 A2998 RMK AO2 SLP155
     T00891006=
KBPI 231853Z AUTO 33022G30KT 10SM SCT050 03/M10 A2963 RMK AO2 PK
     WND 34034/1803 SLP015 T00281100=
KBPK 231853Z AUTO 21012G20KT 10SM CLR 26/15 A2986 RMK AO2 SLP100
     T02610150=
KBPT 231853Z 15017G24KT 10SM BKN043 OVC050 27/19 A2996 RMK AO2 PK
     WND 14026/1758 SLP146 T02720189=
KBRD 231853Z AUTO 10013G30KT 10SM CLR 22/12 A2952 RMK AO2 PK WND
     14030/1845 SLP998 T02170117=
KBRO 231853Z 15021G31KT 10SM SCT044 32/20 A2983 RMK AO2 PK WND
     15032/1824 SLP101 T03220200=
KBTL 231853Z 17012G31KT 10SM SCT055 24/11 A3003 RMK AO2 PK WND
     16031/1844 SLP164 T02390111=
KBTM 231853Z AUTO 30010KT 4SM -SN FEW013 BKN029 OVC037 00/M03
     A2981 RMK AO2 SNE03B24E33B49 SLP114 P0000 T00001028=
KBUR 231853Z 28009KT 10SM CLR 22/00 A2985 RMK AO2 SLP096
     T02220000=
KBVO 231853Z AUTO 18022G34KT 10SM CLR 28/15 A2965 RMK AO2 PK WND
     17038/1755 SLP030 T02830150=
KBVY 231853Z 04004KT 10SM CLR 14/11 A3034 RMK AO2 SLP269
     T01390106=
