SAPA31 KWBC 231900 RRB
METAR
PKMR 231851Z 08003KT 15SM FEW015 SCT050 BKN120 OVC300 27/24 A2985
     RMK SLP108 T02730241=
