SACA32 KWBC 231900 RRA
METAR
TAPA 231900Z 10007KT 040V160 9999 FEW022 29/23 Q1012 NOSIG=
