SAUS70 KWBC 232000
METAR
KAEG 231947Z 24021G34KT 10SM BKN085 19/00 A2969=
KDYA 231955Z AUTO 15006KT 10SM CLR 26/08 A3009 RMK AO2
     T02610077=
KFRH 231955Z AUTO 17009G17KT 141V201 10SM CLR 25/06 A3002 RMK
     AO1=
KGWW 231955Z AUTO 32006KT 10SM OVC024 20/14 A3011 RMK AO2
     T02000135=
KIPJ 231955Z AUTO 02005KT 10SM CLR 23/05 A3016 RMK AO2
     T02260047=
KJVL 231945Z 16019G26KT 10SM SCT090 25/10 A2977=
KJWN 231945Z 19011G18KT 10SM CLR 26/08 A3005=
KJYO 231955Z AUTO 36006KT 10SM SCT070 18/13 A3022 RMK AO2=
KMRN 231955Z AUTO 00000KT 10SM CLR 24/05 A3019 RMK AO2
     T02350053=
KMYJ 231955Z AUTO 15016G23KT 10SM CLR 26/16 A2970 RMK AO2=
KOIC 231955Z AUTO 00000KT 10SM CLR 18/09 A3029 RMK AO2
     T01770092=
KPBH 231955Z AUTO 15018G23KT 10SM SCT045 22/13 A2970 RMK AO2
     T02220127=
KPTB 231955Z AUTO 35007KT 10SM -RA BKN010 OVC016 15/14 A3017 RMK
     AO2 T01460135=
KSEE 231947Z VRB06KT 10SM BKN044 20/08 A2987=
KTGI 231955Z AUTO 35015KT 4SM BKN011 BKN018 OVC037 16/15 A3012 RMK
     AO1 T01600151=
KVNW 231955Z AUTO 16013G19KT 10SM SCT060 25/07 A3006 RMK AO2=
KBBG 231945Z 16013G21KT 10SM CLR 27/14 A2982=
KCNW 231955Z 17022G27KT 10SM BKN050 29/15 A2980=
KGYI 231950Z 17024G34KT 10SM SKC 29/14 A2976=
KPAO 231947Z 28008G16KT 10SM SKC 18/03 A3001=
K1S5 231955Z AUTO 24003KT 10SM CLR 12/02 A3009 RMK AO2
     T01230020=
KADS 231947Z 18017G29KT 13SM FEW045 29/14 A2977=
KCHD 231947Z 25011KT 10SM CLR 24/07 A2975=
KCIC 231947Z 31020G29KT 10SM CLR 19/M03 A3001=
KFWS 231946Z 16020G29KT 10SM FEW045 30/14 A2979=
KGPM 231950Z 17017G30KT 10SM SKC 29/17 A2978=
KGYR 231947Z 24012KT 10SM BKN070 24/08 A2975=
KJXI 231955Z AUTO 15014G21KT 10SM SCT055 28/14 A2987 RMK AO2
     T02810137=
KMCJ 231955Z AUTO 17017G31KT 10SM SCT055 SCT065 28/15 A2988 RMK
     A01=
KTRK 231945Z 35012G18KT 10SM CLR 06/M09 A3002=
KFMH 231945Z 04011KT 6SM -RA BR SCT029 14/13 A3028=
KFMH 231945Z 04011KT 6SM -RA BR SCT029 14/13 A3028=
KALN 231950Z 17019G30KT 10SM SCT030 24/14 A2983=
KATW 231945Z 13013KT 10SM CLR 21/12 A2979=
KEMT 231945Z 13003KT 10SM SCT043 21/08 A2985=
KHSA 231950Z 15011G17KT 10SM CLR 26/14 A3007=
KIFP 231950Z 35012KT 10SM FEW160 22/M02 A2980=
KLVM 231949Z AUTO 26015KT 1SM -SN BR FEW008 BKN016 OVC034 01/M01
     A2973 RMK AO2 SLP090 P0001 T00111011 $=
KOQU 231950Z 06019KT 10SM SCT050 OVC100 15/10 A3031=
KRYY 231950Z VRB03KT 10SM CLR 23/03 A3017 RMK AO2 SLP210 T02280033
     $=
