SACA42 KWBC 232000
METAR
TIST 231953Z 08007KT 10SM SCT033 31/23 A2988=
TJBQ 231950Z 07012KT 10SM SCT022 SCT055 29/23 A2990=
TJMZ NIL=
TJNR 231953Z AUTO 05006KT 10SM CLR 30/23 A2990=
TJPS NIL=
TJSJ 231956Z 05011KT 10SM SCT033 SCT080 30/24 A2988=
