SAUS70 KWBC 232140 RRG
METAR
KIDP 232135Z AUTO 17024G35KT 10SM CLR 28/15 A2961 RMK AO2
     T02840155=
KIIB 232135Z AUTO 15014G21KT 10SM CLR 23/14 A2964 RMK AO2
     T02320142=
KIJX 232135Z AUTO 16017G29KT 10SM CLR 23/14 A2978 RMK AO2
     T02330143=
KIKK 232135Z AUTO 19015G26KT 10SM CLR 25/11 A2989 RMK AO2
     T02490113=
KIKV 232135Z AUTO 18020G29KT 10SM FEW110 28/14 A2951 RMK AO2=
KJAS 232135Z AUTO 16009G19KT 130V190 9SM BKN042 BKN055 BKN070
     27/18 A2991 RMK AO2=
KJOT 232135Z AUTO 17015G25KT 10SM SCT050 26/14 A2984 RMK AO2
     T02550137=
KJSV 232135Z AUTO RMK AO2 PNO PWINO TSNO=
KJYR 232135Z AUTO 17020G33KT 9SM CLR 27/11 A2928 RMK AO2=
KLAM 232135Z AUTO 25023G33KT 10SM SCT015 SCT034 BKN065 08/00 A2974
     RMK AO2 T00820000=
KLCQ 232135Z AUTO 00000KT 10SM CLR 25/10 A3010 RMK AO2=
KLGC 232135Z AUTO 06003KT 10SM CLR 24/02 A3013 RMK AO2
     T02350018=
KLLN 232135Z AUTO 23016G23KT 10SM FEW085 27/08 A2966 RMK AO2=
KLMO 232135Z AUTO 25011G23KT 10SM BKN110 16/M07 A2939 RMK AO2
     T01611072=
KLOM 232135Z AUTO 05004KT 10SM -RA OVC036 14/12 A3022 RMK AO2
     T01370119=
KLOT 232135Z AUTO 17028G33KT 10SM CLR 25/13 A2984 RMK AO2=
KLRJ 232135Z AUTO 15024G32KT 9SM CLR 29/12 A2926 RMK AO2=
KLUV 232135Z AUTO 20015G23KT 10SM CLR 29/10 A2968 RMK AO2=
KLXN 232135Z AUTO 22023G33KT 7SM CLR 30/M01 A2922 RMK AO2
     T02981014=
KMGC 232135Z AUTO 17011G18KT 10SM SCT120 23/11 A2991 RMK AO2=
KMJD 232135Z AUTO 15008KT 10SM CLR 25/14 A3005 RMK AO2=
KMLE 232135Z AUTO 16015G32KT 10SM SCT110 29/13 A2935 RMK AO2
     T02890130=
KMLJ 232135Z AUTO 02003KT 10SM CLR 25/08 A3012 RMK AO2=
KMNE 232140Z AUTO 17010G15KT 110V190 10SM SCT065 29/17 A2991 RMK
     AO2 T02890171=
KMNH 232135Z AUTO 24015G21KT 10SM SCT055 BKN070 OVC080 08/00 A2950
     RMK AO2=
KMQB 232135Z AUTO 16019G29KT 10SM CLR 24/13 A2974 RMK AO2
     T02390128=
KMQI 232135Z AUTO 01012G18KT 2SM BR OVC003 16/15 A3007 RMK AO2
     T01600154=
KMQS 232135Z AUTO 01005KT 3SM -RA FEW024 OVC035 14/13 A3023 RMK
     AO2=
KNOW 232135Z AUTO 09003KT 10SM CLR 11/08 A3013 RMK AO2
     T01120084=
KOBE 232135Z AUTO 03009KT 10SM CLR 28/18 A3004 RMK AO2=
KOGA 232135Z AUTO 35019KT 10SM SCT110 21/04 A2929 RMK AO2
     T02050035=
KOGS 232135Z AUTO 04004KT 10SM CLR 18/05 A3022 RMK AO2=
KOKZ 232135Z AUTO 33004KT 10SM CLR 24/08 A3013 RMK AO2
     T02410083=
KOLE 232135Z AUTO 00000KT 10SM CLR 17/00 A3023 RMK AO2=
KOLZ 232135Z AUTO 16020G27KT 10SM CLR 23/13 A2962 RMK A01=
KONL 232135Z AUTO 20022G33KT 10SM SCT120 30/00 A2916 RMK AO2
     T03020000=
KOOA 232135Z AUTO 17025G33KT 10SM CLR 28/19 A2957 RMK AO2
     T02830185=
KOPL 232135Z AUTO 17012G16KT 10SM BKN050 OVC070 27/15 A2999 RMK
     AO2 T02700154=
KOPN 232135Z AUTO 08003KT 10SM CLR 26/00 A3016 RMK AO2=
KORG 232135Z AUTO 15010G17KT 10SM BKN037 OVC055 28/20 A2996 RMK
     AO2 T02810204=
KOWP 232135Z AUTO 18013G28KT 10SM CLR 30/13 A2967 RMK AO2
     T03010130=
KPBX 232135Z AUTO 00000KT 10SM CLR 22/06 A3014 RMK AO2
     T02220055=
KPEA 232135Z AUTO 16015G22KT 10SM CLR 27/14 A2955 RMK AO2
     T02720141=
KPIM 232135Z AUTO 08005KT 10SM CLR 24/02 A3013 RMK AO2
     T02410019=
KPLU 232135Z AUTO 00000KT 10SM FEW034 FEW049 13/05 A3016 RMK
     AO2=
KPMU 232135Z AUTO 17012G18KT 10SM CLR 27/12 A2998 RMK AO2=
KPNA 232135Z AUTO 31023G30KT 10SM CLR 02/M07 A2967 RMK AO2=
KPNT 232135Z AUTO 16020G25KT 10SM CLR 24/16 A2983 RMK AO2
     T02360163=
KPOY 232135Z AUTO 33023G30KT 10SM CLR 03/M06 A2962 RMK AO2=
KPPA 232135Z AUTO 21023G28KT 10SM CLR 26/11 A2957 RMK AO2
     T02570107=
KPPQ 232135Z AUTO 17015G26KT 10SM CLR 25/15 A2976 RMK AO2
     T02480152=
