SAUS70 KWBC 231918 RRH
METAR
KGAO 231915Z AUTO 10009G14KT 10SM CLR 27/15 A3007 RMK AO2
     T02700148=
KGCY 231915Z AUTO VRB04KT 8SM CLR 22/03 A3016 RMK A01=
KGDJ 231915Z AUTO 16021G25KT 10SM CLR 29/15 A2977 RMK AO2
     T02870153=
KGGI 231915Z AUTO 14023G29KT 10SM CLR 25/15 A2960 RMK AO2
     T02500148=
KGKT 231915Z AUTO 07005KT 10SM CLR 23/05 A3015 RMK A01=
KGOO 231910Z AUTO 05010G18KT 10SM CLR 13/M08 A2997 RMK A01=
KGRN 231915Z AUTO 32012G20KT 10SM SCT110 13/01 A2927 RMK AO2
     T01340010=
KGYB 231915Z AUTO 17011G17KT 10SM SCT046 SCT060 BKN065 28/18 A2987
     RMK AO2 T02810175=
KGZS 231915Z AUTO 17012KT 10SM CLR 24/08 A3010 RMK A01=
KH71 231915Z AUTO 15018G30KT 10SM CLR 27/16 A2970 RMK AO2=
KHFJ 231915Z AUTO 18021G28KT 10SM CLR 27/13 A2973 RMK AO2=
KHHF 231915Z AUTO 18017G26KT 10SM CLR 27/12 A2955 RMK AO2
     T02740119=
KHLB 231915Z AUTO 19009G16KT 10SM CLR 24/09 A3007 RMK A01=
KHOE 231915Z AUTO 00000KT 10SM CLR 26/10 A3013 RMK AO2
     T02650099=
KHQG 231915Z AUTO 23032G44KT 7SM OVC001 28/05 A2945 RMK AO2
     T02830051=
KHRX 231915Z AUTO 22021G27KT 10SM CLR 24/11 A2964 RMK AO2
     T02430106=
KHSB 231915Z AUTO 18018G23KT 10SM SCT049 26/16 A2997 RMK AO2
     T02590164=
KSAR 231915Z AUTO 18016G27KT 10SM BKN039 24/15 A2990 RMK AO2
     T02410149=
KSCD 231915Z AUTO 15004KT 10SM BKN110 24/05 A3015 RMK AO2
     T02440051=
KSCX 231915Z AUTO 21004G10KT 10SM CLR 23/02 A3015 RMK A01=
KSEM 231915Z AUTO 00000KT 10SM CLR 26/05 A3012 RMK AO2=
KSEZ 231915Z AUTO 28009G20KT 250V310 10SM 13/02 A2981 RMK AO2=
KSLO 231915Z AUTO 17013G24KT 130V200 10SM BKN040 25/14 A2992 RMK
     AO2 T02500143=
KSNH 231910Z AUTO 16010G16KT 10SM CLR 25/07 A3006 RMK A01=
KSRB 231915Z AUTO VRB04G13KT 10SM CLR 24/06 A3012 RMK A01=
KSRE 231915Z AUTO 10SM CLR 29/14 A2970 RMK AO2=
KSWW 231915Z AUTO 20021G27KT 10SM CLR 29/12 A2975 RMK AO2
     T02930117=
KSYF 231915Z AUTO 24036G43KT 4SM BKN033 OVC039 26/M04 A2925 RMK
     AO2 T02631045 PWINO=
KSYI 231915Z AUTO 18010G16KT 10SM CLR 24/07 A3011 RMK A01=
KSZT 231915Z AUTO 02007KT 10SM CLR 09/01 A3000 RMK AO2=
KSZY 231915Z AUTO 17008G17KT 130V210 10SM CLR 25/09 A3006 RMK
     A01=
KT89 231915Z AUTO 04006KT 10SM CLR 30/05 A2976 RMK A01=
KTHA 231915Z AUTO 19007G14KT 10SM CLR 23/05 A3012 RMK A01=
KTNU 231915Z AUTO 16024G30KT 10SM CLR 26/14 A2955 RMK A01=
KTQH 231915Z AUTO 18015G25KT 10SM CLR 27/13 A2977 RMK AO2=
KTQV 231915Z AUTO 04007G13KT 10SM CLR 20/03 A3016 RMK A01=
KU68 231915Z AUTO 31024G33KT 10SM BKN075 OVC085 03/00 A2962 RMK
     AO2=
KUCY 231915Z AUTO 18017KT 10SM FEW050 26/12 A2998 RMK A01=
KUSE 231915Z AUTO 19012G21KT 10SM CLR 25/10 A3007 RMK AO2=
KUVA 231915Z AUTO 14014G18KT 10SM CLR 27/17 A2983 RMK AO2
     T02720171=
KVCV 231915Z AUTO 35006G12KT 10SM CLR 15/M05 A2993 RMK AO2=
KXLL 231915Z AUTO 03007KT 10SM CLR 17/09 A3026 RMK AO2=
KY49 231915Z AUTO 09009G14KT 10SM CLR 20/11 A2952 RMK AO2
     T02000106=
PAAD 231915Z AUTO 11009KT 10SM OVC005 M07/M08 A3003 RMK AO2
     T10731080=
PAUT 231915Z AUTO 20013G19KT 10SM OVC075 06/04 A3020 RMK AO2=
KBTN 231915Z AUTO 11016G27KT 10SM CLR 22/11 A2927 RMK AO2=
KOAR 231915Z AUTO 27007KT 10SM CLR M05/M22 A3000 RMK AO2=
PAAD 231915Z AUTO 11009KT 10SM OVC005 M07/M08 A3003 RMK AO2
     T10731080=
PAUT 231915Z AUTO 20013G19KT 10SM OVC075 06/04 A3020 RMK AO2=
