SAUS70 KWBC 231800 RRQ
METAR
KFDK 231747Z 05007KT 7SM BKN025 OVC045 18/11 A3025=
KGWB 231755Z AUTO 20010G18KT 115V215 10SM CLR 23/11 A3008 RMK
     AO2=
KISP 231756Z 04010KT 10SM BKN065 OVC110 14/11 A3025 RMK AO2 RAE52
     SLP243 P0001 60003 T01440111 10161 20139 55013=
KLCK 231755Z AUTO 18006KT 10SM CLR 24/10 A3015 RMK AO2 T02420103
     10242 20074=
KMZZ 231755Z AUTO 21014G22KT 10SM CLR 24/12 A3006 RMK AO2
     T02410115 10329 21023=
KOLE 231755Z AUTO 00000KT 10SM CLR 18/02 A3026 RMK AO2=
KPPO 231755Z AUTO 18016G21KT 10SM CLR 24/16 A2996 RMK AO2
     T02430156 10243 20142=
KSXK 231755Z AUTO 16025G32KT 10SM CLR 25/13 A2933 RMK AO2=
KTYQ 231755Z AUTO 20016G21KT 10SM CLR 24/12 A3004 RMK AO2
     T02410116 10241 20135=
KVYS 231755Z AUTO 17018G26KT 10SM CLR 25/14 A2983 RMK AO2
     T02450135=
KAHQ 231755Z AUTO 19023G31KT 7SM CLR 29/12 A2937 RMK AO2 6////
     T02850121=
KBIE 231755Z AUTO 18021G30KT 10SM CLR 29/13 A2940 RMK AO2
     T02900130 10290 20181=
KBJJ 231756Z AUTO 17008KT 10SM CLR 22/08 A3019 RMK AO2 SLP221
     T02220078 10228 20067 58013=
KBVN 231755Z AUTO 17020G26KT 10SM CLR 26/09 A2929 RMK AO2
     T02610093 10261 20114 PWINO=
KFET 231755Z AUTO 16012G25KT 10SM CLR 27/13 A2937 RMK AO2
     T02710134 10272 20170=
KGDB 231755Z AUTO 12020G29KT 10SM CLR 23/13 A2942 RMK AO2
     T02300130 10230 20128=
KHJH 231755Z AUTO 19023G33KT 10SM CLR 29/11 A2938 RMK AO2
     T02890111 10291 20170=
KLNN 231755Z AUTO 12007KT 10SM CLR 24/04 A3017 RMK AO1 T02350044
     10239 20130=
KMWO 231755Z AUTO 17011KT 10SM CLR 24/09 A3013 RMK AO2 T02440086
     10246 20074=
KN03 231755Z AUTO 11003KT 3SM HZ CLR 18/02 A3028 RMK AO2=
KOLY 231755Z AUTO 17017G23KT 10SM BKN047 25/11 A2998 RMK AO2
     T02540110 10257 20180=
KOQN 231755Z AUTO 04007KT 10SM SCT110 17/10 A3024 RMK AO2=
KPRG 231755Z AUTO 17022G27KT 10SM SCT110 26/14 A2998 RMK AO2
     T02560141 10256 20168=
KRPJ 231755Z AUTO 17017G25KT 10SM CLR 24/15 A2984 RMK AO2
     T02350152 10235 20137 TSNO=
KXLL 231755Z AUTO 03008KT 10SM SCT065 SCT080 SCT120 16/08 A3027
     RMK AO2=
KCEC 231756Z AUTO 34006KT 4SM HZ CLR 12/07 A3018 RMK AO2 SLP221
     T01220067 10128 20050 51015=
KCFD 231755Z AUTO 19014G24KT 10SM SCT045 BKN055 29/16 A2993 RMK
     AO2 T02890164 10291 20178=
KE42 231755Z AUTO 21029G38KT 10SM CLR 29/09 A2957 RMK AO2
     T02930092 10295 20179=
KEBG 231755Z AUTO 14022G29KT 10SM SCT048 32/19 A2984 RMK AO2
     T03150191 10315 20172 PWINO=
KJDD 231755Z AUTO 17012G18KT 10SM BKN044 27/17 A2989 RMK AO2=
KLHM 231755Z AUTO 33017G21KT 10SM CLR 18/M02 A2997 RMK AO1=
KMYP 231755Z AUTO 1/4SM SN OVC002 M05/M05 A2973 RMK AO2=
KRWV 231755Z AUTO 19013KT 10SM SCT042 SCT049 OVC055 28/17 A2991
     RMK AO2 T02760173 10285 20174=
KSUN 231755Z 33013G25KT 10SM SCT060 04/M11 A2982=
KT41 231755Z AUTO 10SM SCT050 BKN060 29/16 A2997 RMK AO2 T02900165
     10298 20222=
KTPH 231756Z AUTO 34020G34KT 10SM CLR 06/M08 A2994 RMK AO2 PK WND
     33034/1753 SLP134 T00561078 10056 21028 51015=
KUKI 231756Z AUTO 36007KT 10SM CLR 16/02 A3005 RMK AO2 SLP174
     T01560017 10156 20044 50007=
KVTP 231755Z AUTO 25020G29KT 3SM -SN BKN007 OVC012 M11/M14 A2958
     RMK AO2=
K0CO 231755Z AUTO 23005G15KT 1/2SM -SN OVC003 M05/M06 A2962 RMK
     AO2 P0001=
K7BM 231755Z AUTO 28010G21KT 1/2SM SN OVC004 00/M01 A2959 RMK
     AO2=
KBPG 231755Z AUTO 18018KT 10SM CLR 27/12 A2977 RMK AO2 T02730120
     10274 20178=
KCTB 231756Z AUTO 34024G33KT 1 1/2SM -SN BR BKN007 OVC023 00/M01
     A2985 RMK AO2 PK WND 34034/1724 SNB1656 SLP136 P0001 60001
     T00001011 10000 21006 $=
