SASA31 KWBC 231900 RRB
METAR
SKBO 231900Z 24008KT 9000 VCSH FEW017TCU SCT020 18/13 Q1024 NOSIG
     RMK TCUVCSH/NW A3025=
SKCL 231900Z VRB06KT 9999 SCT020TCU SCT300 30/19 Q1012 NOSIG RMK
     TCUSW A2990=
