SAUS70 KWBC 232100 RRC
METAR
KDUJ 232053Z AUTO 12005KT 10SM CLR 18/02 A3022 RMK AO2 SLP236
     T01780017 56007=
KECP 232053Z VRB03KT 10SM CLR 28/03 A3008 RMK AO1 SLP198 T02780028
     56018=
KEEO 232053Z AUTO 31012KT 1/2SM SN FZFG BKN010 OVC015 M01/M03
     A2968 RMK AO2 SLP046 P0002 60009 T10111028 51017=
KELD 232053Z AUTO 17012G19KT 10SM BKN060 27/14 A2992 RMK AO2
     SLP128 T02720144 56024=
KENW 232053Z 14014KT 10SM CLR 24/14 A2982 RMK AO2 SLP093 T02440139
     57019=
KETH 232053Z AUTO 12029G34KT 10SM 23/12 A2931 RMK AO2=
KEWB 232053Z 02007KT 4SM -RA BR FEW038 OVC085 14/14 A3026 RMK AO2
     SLP248 P0015 60016 T01390139 58008=
KEYE 232053Z AUTO 17012G20KT 10SM CLR 26/10 A2998 RMK AO2 SLP148
     T02560100 56016 $=
KFAY 232053Z 35007KT 10SM CLR 23/07 A3011 RMK AO2 SLP192 T02280067
     56012 $=
KFFT 232053Z AUTO 15011G20KT 10SM CLR 25/06 A3007 RMK AO2 SLP178
     T02500056 56019=
KFLD 232053Z AUTO 14017G23KT 10SM CLR 23/12 A2979 RMK AO2 SLP084
     T02280117 56016=
KFLO 232053Z 36008KT 10SM CLR 24/06 A3013 RMK AO2 SLP199 T02390061
     56011 $=
KFOE 232053Z 10SM CLR 27/17 A2951 RMK AO2 SLP980 60004 T02670167
     55007 $=
KFOZ 232053Z AUTO 10015G21KT 10SM CLR 23/12 A2960 RMK AO2=
KFPR 232053Z 36008KT 10SM CLR 27/17 A3005 RMK AO2 SLP174 T02720172
     55009=
KFST 232053Z AUTO 20011G24KT 10SM CLR 31/07 A2970 RMK AO2 SLP005
     T03110072 56031 $=
KFTW 232053Z 16018G30KT 10SM CLR 29/16 A2972 RMK AO2 PK WND
     16039/2022 SLP055 T02940161 56029 $=
KFUL 232053Z 20010KT 10SM SCT040 22/10 A2982 RMK AO2 SLP098
     T02170100 58012=
KFVE 232053Z AUTO 18003KT 10SM CLR 19/07 A3031 RMK AO2 SLP264
     T01940072 55001=
KIXD 232053Z 17021G32KT 10SM CLR 27/15 A2957 RMK AO2 PK WND
     16041/2037 SLP002 60000 T02670150 55005 $=
KJEF 232053Z 17017G25KT 10SM CLR 29/14 A2970 RMK AO2 PK WND
     19026/2026 SLP043 T02890144 55016 $=
KJKL 232053Z AUTO VRB04KT 10SM CLR 24/04 A3013 RMK AO2 SLP193
     T02390044 56020=
KLAA 232053Z AUTO 23025G35KT 10SM FEW120 27/M02 A2932 RMK AO2 PK
     WND 23041/2028 SLP881 T02721022 55010=
KLAR 232053Z AUTO 31023G36KT 10SM SCT055 BKN070 BKN090 03/M06
     A2946 RMK AO2 PK WND 31037/2040 SLP934 T00331056 53002 $=
KLAW 232053Z 17021G32KT 10SM CLR 32/14 A2962 RMK AO2 PK WND
     18032/1957 SLP016 T03170139 56023=
KLEB 232053Z 00000KT 10SM CLR 14/09 A3032 RMK AO2 SLP267 T01440089
     58005=
KLEE 232053Z 13004KT 10SM CLR 28/15 A3007 RMK AO2 SLP182 T02780150
     56012 $=
KLGB 232053Z 21007KT 10SM CLR 22/11 A2984 RMK AO2 SLP104 T02170111
     58008=
KLHQ 232053Z AUTO 15010KT 10SM CLR 24/07 A3011 RMK AO2 SLP193
     T02390067 56017=
KLOU 232053Z 18009KT 10SM CLR 25/07 A3005 RMK AO2 SLP172 T02500072
     56017=
KLOZ 232053Z AUTO 12005KT 10SM CLR 24/02 A3012 RMK AO2 SLP193
     T02390017 56020=
KLUK 232053Z 17008KT 10SM CLR 25/07 A3007 RMK AO2 SLP181 T02500072
     56017=
KLWB 232051Z 00000KT 10SM CLR 21/01 A3018=
KLWV 232053Z AUTO 18019G25KT 10SM CLR 26/09 A2996 RMK AO2 PK WND
     19029/2016 SLP141 T02560089 56014 $=
KMAF 232053Z 19016G27KT 10SM CLR 29/12 A2968 RMK AO2 PK WND
     19030/2031 SLP005 T02890122 56031=
KMAI 232053Z AUTO 10SM CLR 26/04 A3010 RMK AO1 SLP192 T02560044
     56014=
KMCK 232053Z AUTO 23023G39KT 5SM HZ BKN032 OVC040 29/M03 A2922 RMK
     AO2 PK WND 24045/2004 SLP869 T02941028 56006=
KMDW 232053Z 16015G26KT 10SM FEW050 SCT130 SCT250 27/12 A2984 RMK
     AO2 PK WND 15042/1958 SLP094 T02670122 56015=
KMGW 232053Z 02003KT 10SM CLR 23/02 A3018 RMK AO2 SLP215 T02330022
     56016=
KMGY 232053Z AUTO 16010KT 10SM CLR 24/09 A3007 RMK AO2 SLP178
     T02390089 56018=
