SAUS70 KWBC 231700 RRU
METAR
PAKP 231656Z AUTO 21010KT 10SM OVC005 M09/M10 A2989 RMK AO2 SLP178
     T10891100 FZRANO=
PALG 231656Z AUTO 10005KT 1SM -SN BR OVC003 M03/M03 A3006 RMK AO2
     SNB33 SLP182 P0000 T10281033 FZRANO=
PAMB 231656Z AUTO 31003KT 10SM CLR M03/M04 A3010 RMK AO2 SLP197
     T10331044 FZRANO $=
PAMK 231656Z AUTO 18017G21KT 10SM OVC095 01/M01 A2993 RMK AO2
     SLP135 T00061011 FZRANO=
PANA 231656Z AUTO 15008KT 1SM BR OVC003 M01/M02 A3003 RMK AO2
     SLP169 T10111017 FZRANO TSNO $=
PANV 231656Z AUTO 12006KT 10SM FEW001 BKN075 M03/M03 A3000 RMK AO2
     SLP263 T10331033 FZRANO TSNO=
KSLC 231654Z 33017KT 10SM SCT025 BKN045 BKN060 06/00 A2976 RMK AO2
     SLP068 VIRGA SH DSNT W T00560000 $=
KTAD 231654Z AUTO 23023G31KT 10SM CLR 20/M02 A2950 RMK AO2 PK WND
     22038/1634 SLP910 T02001017=
KTOA 231650Z 00000KT 10SM FEW012 20/12 A2987=
KCKC 231656Z AUTO 13007G15KT 10SM CLR 17/10 A2979 RMK AO2=
KCKZ 231655Z AUTO 07008G14KT 10SM FEW110 16/09 A3027 RMK AO2=
KCOE 231656Z AUTO 24004KT 10SM OVC020 04/02 A2999 RMK AO2 SLP187
     T00390017 PNO $=
KCRX 231655Z AUTO 20013G23KT 10SM CLR 23/08 A3013 RMK AO2=
KCSQ 231655Z AUTO 17022G30KT 9SM CLR 25/14 A2953 RMK AO2=
KCVC 231655Z AUTO 06003KT 10SM CLR 21/06 A3023 RMK AO2=
KCVO 231656Z AUTO 13003KT 10SM CLR 08/07 A3017 RMK AO2 SLP218
     T00780067=
KCWC 231655Z AUTO 18021G27KT 10SM CLR 26/16 A2975 RMK AO2
     T02640155=
KCXE 231655Z AUTO 36006KT 10SM CLR 16/08 A3021 RMK AO1
     T01560075=
KCXP 231650Z AUTO 00000KT 10SM CLR 03/M03 A3004 RMK AO2=
KCXU 231655Z AUTO 00000KT 10SM CLR 23/05 A3019 RMK AO1
     T02320050=
KCXW 231655Z AUTO 17014KT 10SM BKN031 OVC038 25/17 A2995 RMK
     A01=
KCZL 231655Z AUTO 00000KT 10SM CLR 21/05 A3024 RMK AO2=
KD39 231655Z AUTO 11014G20KT 10SM CLR 20/12 A2952 RMK AO2
     T02000115=
KDCM 231655Z AUTO 01008KT 10SM CLR 21/07 A3022 RMK AO2 LTG DSNT
     SE=
KDEH 231655Z AUTO 16010G25KT 10SM CLR 21/12 A2968 RMK AO2=
KDKX 231655Z AUTO 00000KT 10SM CLR 20/06 A3023 RMK A01=
KDSF 231655Z AUTO 10006KT 10SM CLR 24/14 A3013 RMK A01=
KDTA 231655Z AUTO 35014G25KT 10SM SCT047 BKN050 OVC080 02/M02
     A2979 RMK AO1=
KDUA 231655Z AUTO 19025KT A2985 RMK AO2 PWINO=
KDZB 231655Z AUTO 19012G21KT 7SM SCT034 BKN040 26/16 A2991 RMK AO2
     T02550161=
KEAT 231655Z AUTO 29005KT 10SM CLR 07/M02 A3003 RMK AO2 SLP175
     T00721017=
KECS 231655Z AUTO 31020G26KT 10SM SCT090 BKN110 07/00 A2937 RMK
     AO2=
KEDN 231655Z AUTO 04003KT 10SM CLR 23/05 A3018 RMK AO2
     T02250048=
KEGV 231655Z AUTO 14007KT 110V180 10SM CLR 19/11 A2984 RMK AO2
     T01900108=
KEIK 231655Z AUTO 07005KT 10SM CLR 18/M07 A2932 RMK AO2 T01801068
     PWINO=
KEKS 231655Z AUTO 01007KT 4SM -SN FEW027 BKN036 BKN046 M01/M02
     A2978 RMK AO2 P0005=
KERV 231655Z AUTO 16019G24KT 10SM SCT025 SCT033 25/17 A2991 RMK
     AO2 T02480170=
KERY 231655Z AUTO 16013KT 10SM CLR 19/11 A3001 RMK AO2
     T01910113=
KF05 231655Z AUTO 19021G31KT 10SM CLR 30/13 A2967 RMK AO2
     T03010125=
KF17 231655Z AUTO 18015G21KT 150V210 10SM SCT050 28/13 A2999 RMK
     AO2=
KF44 231655Z AUTO 19013G28KT 170V230 10SM SCT035 BKN041 26/16
     A2991 RMK AO2=
KF46 231655Z AUTO 20020G29KT 10SM BKN033 27/16 A2988 RMK AO2
     T02650164=
KFGX 231655Z AUTO 18007KT 10SM CLR 23/09 A3020 RMK AO2
     T02280091=
KAFP 231655Z AUTO 34008KT 10SM CLR 21/06 A3019 RMK AO2
     T02140057=
KAGI 231655Z AUTO 14019KT 10SM CLR 28/17 A3003 RMK AO2
     T02830169=
KALX 231655Z AUTO 13003KT 10SM CLR 21/05 A3021 RMK AO2
     T02110052=
KANW 231655Z AUTO 19014KT 10SM CLR 21/01 A2920 RMK AO2
     T02070005=
