SAUS70 KWBC 231646
METAR
KBYL 231635Z AUTO 11004KT 10SM CLR 20/05 A3022 RMK AO1=
KJVY 231635Z AUTO 24014G18KT 10SM CLR 24/10 A3012 RMK AO2
     PWINO=
KUKF 231635Z AUTO 00000KT 10SM CLR 18/05 A3029 RMK AO2=
KW99 231642Z AUTO 00000KT 10SM CLR 16/05 A3030 RMK AO2=
KTNB 231630Z AUTO 11005KT 10SM CLR 19/02 A3026 RMK AO2
     T01920020=
