SAUS70 KWBC 231700 RRX
METAR
KILE 231656Z AUTO 18019G27KT 10SM BKN039 BKN046 27/17 A2990 RMK
     AO2 PK WND 17028/1607 SLP113 T02670172=
KLLJ 231655Z AUTO 10004KT 10SM BKN060 02/M07 A2982 RMK AO2 SLP103
     T00171067 $=
KLRD 231656Z 16019G25KT 10SM CLR 28/19 A2982 RMK AO2 SLP095
     T02830189=
KOCH 231656Z AUTO 15014G20KT 10SM BKN044 OVC055 27/16 A2997 RMK
     AO2 SLP150 T02670161=
KPTV 231656Z AUTO 25005KT 10SM CLR 14/03 A2996 RMK AO2 SLP146
     T01440033=
KSMN 231656Z AUTO 04008KT 10SM FEW040 OVC070 04/M03 A2985 RMK AO2
     SLP809 T00391033=
K06D 231655Z AUTO 07018G24KT 10SM OVC006 06/06 A2956 RMK AO2=
K22N 231655Z AUTO 00000KT 10SM OVC043 14/05 A3030 RMK AO2=
K2D5 231655Z AUTO 08018KT 8SM CLR 14/07 A2937 RMK AO2=
K6B9 231655Z AUTO 10008KT 10SM CLR 19/04 A3028 RMK AO2=
K7L2 231655Z AUTO 09012KT 10SM CLR 14/08 A2933 RMK AO2=
K9D7 231655Z AUTO 06016G21KT 10SM OVC012 09/06 A2954 RMK AO2
     TSNO=
KAFJ 231656Z AUTO 00000KT 10SM CLR 20/05 A3026 RMK AO2 SLP247
     T02000050=
KAIG 231655Z AUTO 14014KT 10SM CLR 19/12 A2985 RMK AO2
     T01860121=
KAUW 231654Z AUTO 12014G20KT 10SM CLR 20/12 A2980 RMK AO2 SLPNO
     T02000117 $=
KD95 231655Z AUTO 17010G15KT 10SM CLR 22/07 A3014 RMK AO2
     T02220067=
KFKL 231656Z AUTO 09006KT 10SM CLR 19/04 A3025 RMK AO2 SLP244
     T01940044=
KLNK 231654Z 18026G36KT 10SM CLR 28/13 A2938 RMK AO2 PK WND
     18036/1653 SLP937 T02780128=
KMDS 231655Z AUTO 13022G30KT 10SM CLR 19/14 A2933 RMK AO2=
KMOX 231655Z AUTO 13019G26KT 10SM CLR 21/09 A2944 RMK AO2=
KOCQ 231655Z AUTO 14011G16KT 10SM CLR 18/12 A2989 RMK AO1
     T01840123=
KOEO 231655Z AUTO 12014G19KT 10SM CLR 22/15 A2966 RMK AO2
     T02180147=
KOTG 231656Z AUTO 15022G27KT 10SM CLR 21/12 A2943 RMK AO2 PK WND
     16036/1641 SLP961 T02060122=
KVGC 231655Z AUTO 16005KT 10SM CLR 16/04 A3031 RMK AO2=
KY19 231655Z AUTO 07014KT 10SM CLR 10/05 A2935 RMK AO2=
K0S9 231655Z AUTO 11003KT 10SM CLR 07/07 A3010 RMK AO2=
KAPC 231654Z 13004KT 10SM CLR 14/03 A3001 RMK AO2 SLP154
     T01440028=
KATS 231655Z AUTO 22026G32KT 10SM CLR 25/11 A2973 RMK AO2=
KENV 231656Z AUTO 31023G32KT 10SM CLR 05/M08 A2982 RMK AO2 PK WND
     30032/1654 SLP103 T00501083=
KGTU 231656Z 19020G25KT 10SM BKN032 BKN041 26/17 A2991 RMK AO2 PK
     WND 19027/1639 SLP122 T02610172=
KHDN 231656Z AUTO 27008KT 1/2SM SN FG BKN003 OVC008 00/00 A2958
     RMK AO2 RAE05UPB05E15SNB15 SLP001 P0001 T00000000 FZRANO=
KJAC 231656Z 25007KT 9SM -SN BKN013 OVC060 M01/M04 A2966 RMK AO2
     SLP064 T10061044 PNO $=
KMLP 231653Z AUTO 36004KT 1/4SM +SN VV001 M01/M04 A2987 RMK AO2
     SLP140 P0000 T10111039=
KMRY 231654Z 32003KT 10SM CLR 13/07 A3000 RMK AO2 SLP172
     T01330067=
KO22 231655Z AUTO VRB04KT 10SM CLR 13/M03 A2994 RMK A01=
KO32 231655Z AUTO 31004KT 10SM CLR 13/03 A2993 RMK AO2 T01260033
     $=
KONM 231655Z AUTO 17011G17KT 10SM CLR 21/01 A2975 RMK AO2
     T02060013=
KORS 231655Z AUTO 18004KT 10SM FEW005 FEW015 SCT038 09/09 A3009
     RMK AO2=
KBTN 231655Z AUTO 10015G35KT 9SM CLR 21/11 A2932 RMK AO2=
KOAR 231655Z AUTO 00000KT 10SM CLR M06/M15 A3000 RMK AO2 PWINO=
KAEL 231655Z AUTO 15021G27KT 10SM CLR 21/13 A2957 RMK AO2=
KBKX 231656Z AUTO 15022G30KT 10SM CLR A2936 RMK AO2 PK WND
     14030/1653 SLPNO FZRANO $=
KCNB 231655Z AUTO 10018G26KT 10SM CLR 21/12 A2940 RMK AO2
     T02090116=
KCWI 231656Z AUTO 17016G22KT 10SM CLR 23/13 A2980 RMK AO2 SLP088
     T02280133=
KDYT 231655Z AUTO 07011KT 10SM BKN085 11/10 A2970 RMK AO2=
KFKS 231655Z AUTO 18013G16KT 10SM SCT060 SCT065 22/11 A2998 RMK
     AO2 T02170114=
KMOT 231654Z 05018G25KT 10SM OVC008 08/04 A2950 RMK AO2 SLP001
     T00780044 $=
