SAUS70 KWBC 232022 RRD
METAR
KN03 232015Z AUTO 13004KT 10SM CLR 18/07 A3026 RMK AO2=
KOGA 232015Z AUTO 33021G29KT 10SM CLR 22/01 A2925 RMK AO2
     T02170006=
KOLE 232015Z AUTO 21004KT 10SM CLR 18/02 A3024 RMK AO2=
KPNT 232015Z AUTO 19025G31KT 10SM CLR 25/17 A2984 RMK AO2
     T02540166=
KSHL 232015Z AUTO 16027G38KT 10SM CLR 27/12 A2931 RMK AO2=
KTAZ 232015Z AUTO 17023G32KT 10SM SCT038 25/14 A2984 RMK AO2
     T02470143=
KTIF 232015Z AUTO 28021G27KT 10SM CLR 25/M01 A2920 RMK AO2
     T02461010=
KUNI 232015Z AUTO 16005KT 2 1/2SM HZ CLR 25/05 A3013 RMK AO2
     T02520052=
KZER 232015Z AUTO 10005KT 10SM SCT042 BKN050 BKN055 15/08 A3028
     RMK AO2=
K74V 232015Z AUTO 18005KT 10SM 05/00 A2970 RMK AO2=
KGOP 232015Z AUTO 10SM FEW055 FEW120 29/14 A2980 RMK AO2=
KJAS 232015Z AUTO 17010G17KT 140V200 9SM FEW060 SCT070 27/17 A2991
     RMK AO2=
KLUV 232015Z AUTO 21021G27KT 10SM CLR 30/10 A2969 RMK AO2=
KMNH 232015Z AUTO 25015G20KT 10SM SCT034 SCT050 BKN120 12/00 A2948
     RMK AO2=
KNOW 232015Z AUTO 05004KT 10SM CLR 10/08 A3015 RMK AO2
     T01020078=
KORG 232015Z AUTO 15011G15KT 120V180 10SM SCT028 BKN039 OVC050
     29/20 A2997 RMK AO2 T02860199=
KPLU 232015Z AUTO 25004KT 9SM CLR 12/06 A3016 RMK AO2=
KRBO 232015Z AUTO 10SM SCT001 SCT033 BKN040 30/21 A2981 RMK AO2
     T03000208=
KRCV 232015Z AUTO 22023G33KT 10SM SCT048 BKN070 OVC080 06/M04
     A2961 RMK AO2 T00621042=
KSBS 232015Z AUTO 29007G14KT 3/4SM OVC003 M01/M01 A2958 RMK AO1
     T10111011=
KT35 232015Z AUTO 16013G21KT 10SM SCT050 BKN065 30/17 A2981 RMK
     AO2 T02980165=
KT41 232015Z AUTO 10SM SCT045 SCT050 29/17 A2991 RMK AO2
     T02920172=
