SAUS70 KWBC 232000
METAR
KC62 231955Z AUTO 16015G19KT 10SM BKN050 23/12 A3004 RMK AO2
     T02390125=
