SAPA31 KWBC 231800 RRC
METAR
PKWA 231840Z AUTO 09008KT 10SM SCT048 SCT065 BKN070 25/24 A2985
     RMK AO2 T02540237=
