SACA33 KWBC 232100 RRA
METAR
TNCA 232100Z 07013KT 9999 FEW018 30/25 Q1008 NOSIG=
TTCP 232100Z 09010KT 9999 FEW020 30/24 Q1009 NOSIG=
TTPP 232100Z 13006KT 9999 VCSH FEW018TCU 28/25 Q1009 NOSIG RMK TCU
     E N NW=
