SAUS70 KWBC 231834
METAR
KCCA 231835Z AUTO 17006G14KT 10SM OVC030 23/16 A2992 RMK AO2=
KCLK 231835Z AUTO 19020G25KT 10SM CLR 25/12 A2965 RMK AO2=
KD50 231835Z AUTO 06018G26KT 10SM OVC014 05/03 A2955 RMK AO2=
KEOE 231835Z AUTO 29003KT 10SM CLR 22/06 A3020 RMK AO2=
KHFY 231835Z AUTO 18013G17KT 10SM SCT050 26/13 A3005 RMK AO2
     T02600125=
KIUA 231835Z AUTO 14007KT 10SM CLR 20/05 A3023 RMK AO2
     T02000049=
KMDZ 231835Z AUTO 15010G19KT 10SM CLR 21/13 A2974 RMK AO2
     T02120125 PWINO=
KSPA 231835Z AUTO 36004KT 10SM CLR 22/03 A3018 RMK AO2=
KVER 231835Z AUTO 16019G25KT 10SM CLR 28/16 A2969 RMK AO2
     T02830161=
KY51 231835Z AUTO 14018G24KT 10SM CLR 22/15 A2970 RMK AO1
     T02230145=
K08D 231835Z AUTO 06016G22KT 10SM OVC010 07/06 A2946 RMK AO2=
K2J9 231835Z AUTO 04006KT 10SM CLR 26/07 A3014 RMK AO2=
K4R5 231835Z AUTO 09004KT 10SM BKN110 20/12 A2969 RMK AO2
     T02040121=
K8W2 231835Z AUTO 01003KT 10SM CLR 20/02 A3022 RMK AO1
     T01950021=
KARV 231835Z AUTO 16012G23KT 10SM SCT039 21/12 A2978 RMK AO2
     T02130119=
KCDH 231835Z AUTO 15014KT 9SM BKN046 28/18 A2994 RMK AO2=
KCPK 231835Z AUTO 31006KT 15/14 A3008 RMK AO2 P0005 T01470140=
KEHO 231835Z AUTO 09003KT 10SM CLR 22/04 A3018 RMK AO2
     T02160038=
KFDW 231835Z AUTO 36005KT 10SM CLR 23/06 A3016 RMK AO1=
KIXA 231835Z AUTO 01008KT 10SM OVC017 16/15 A3014 RMK AO2=
KJAQ 231835Z AUTO 33007KT 10SM CLR 14/M03 A2996 RMK AO1
     T01361028=
KJHN 231835Z AUTO 21042G48KT 1 1/4SM HZ OVC001 28/M01 A2941 RMK
     AO2 T02811014=
KLDJ 231835Z AUTO 09008G14KT 030V110 10SM BKN110 17/08 A3025 RMK
     AO2 T01680082=
KLUM 231835Z AUTO 12018G24KT 10SM CLR 24/17 A2963 RMK AO2
     T02430172 PWINO=
KMHL 231835Z AUTO 17021G25KT 10SM CLR 28/15 A2966 RMK AO2=
KMRJ 231835Z AUTO 15017G23KT 10SM CLR 22/10 A2975 RMK AO2=
KRAW 231835Z AUTO 19018G25KT 10SM CLR 28/13 A2969 RMK AO2=
KRNV 231835Z AUTO 16013G20KT 10SM SCT050 A3002 RMK AO2 TSNO=
