SAUS70 KWBC 232118 RRJ
METAR
KBTN 232115Z AUTO 13024G33KT 10SM CLR 22/11 A2922 RMK AO2=
KOAR 232115Z AUTO 28013KT 10SM CLR M05/M20 A2997 RMK AO2=
KPTD 232115Z AUTO 04006KT 10SM CLR 20/05 A3025 RMK AO2=
KPUJ 232115Z AUTO 00000KT 7SM CLR 22/03 A3015 RMK AO2=
KPVB 232115Z AUTO 16014G19KT 10SM CLR 23/13 A2970 RMK AO1
     T02300128=
KPVJ 232115Z AUTO 18013G20KT 10SM CLR 28/15 A2969 RMK AO2
     T02820148=
KPYX 232115Z AUTO 20030G36KT 10SM CLR 26/08 A2951 RMK AO2
     T02560081=
KRKR 232115Z AUTO 17018G26KT 10SM SCT050 27/14 A2978 RMK AO2=
KRNC 232115Z AUTO 24005KT 10SM CLR 24/05 A3008 RMK A01=
KRNH 232115Z AUTO 14013G22KT 10SM CLR 24/16 A2955 RMK AO2
     T02380163=
KRSN 232115Z AUTO 17012G16KT 10SM SCT060 29/14 A2997 RMK AO2
     T02850137=
KRTS 232115Z AUTO 05011G21KT 10SM SCT060 06/M10 A3006 RMK AO2=
KRUQ 232115Z AUTO 36004KT 10SM CLR 21/04 A3016 RMK AO2
     T02100041=
KRZL 232115Z AUTO 16015G23KT 10SM SCT120 25/11 A2993 RMK AO2=
KRZR 232110Z AUTO VRB04G11KT 10SM CLR 24/01 A3010 RMK A01=
KSAR 232115Z AUTO 18019G25KT 10SM CLR 26/14 A2987 RMK AO2
     T02560143=
KSCD 232115Z AUTO 20003KT 10SM BKN110 25/06 A3011 RMK AO2
     T02470055=
KSCX 232115Z AUTO 22005KT 10SM CLR 23/02 A3012 RMK A01=
KSEM 232115Z AUTO VRB05KT 10SM CLR 27/04 A3008 RMK AO2=
KSEZ 232115Z AUTO 27014G17KT 10SM 13/01 A2979 RMK AO2=
KSFQ 232115Z AUTO 32005KT 5SM BR OVC007 15/15 A3013 RMK AO2
     T01520150=
KSIF 232115Z AUTO 07003KT 10SM CLR 21/03 A3016 RMK AO2
     T02120033=
KSLO 232115Z AUTO 17014G27KT 10SM SCT045 26/14 A2989 RMK AO2 LTG
     DSNT NW T02620136=
KSNH 232110Z AUTO 17009G16KT 140V200 10SM CLR 25/06 A3003 RMK
     A01=
KSRB 232115Z AUTO 23006KT 10SM CLR 24/06 A3009 RMK A01=
KSRE 232115Z AUTO 10SM CLR 28/14 A2970 RMK AO2=
KSVC 232115Z AUTO 25011G20KT 10SM CLR 21/06 A2982 RMK AO2
     T02060055=
KSVH 232115Z AUTO 07003KT 10SM CLR 22/04 A3016 RMK AO2
     T02180044=
KSWW 232115Z AUTO 17021G25KT 10SM CLR 31/11 A2971 RMK AO2
     T03050113=
KSXU 232115Z AUTO 22023G33KT 10SM SCT100 22/00 A2960 RMK AO2
     T02231001=
KSYF 232115Z AUTO 24033G42KT 7SM CLR 27/M04 A2926 RMK AO2
     T02701044 PWINO=
KSYI 232115Z AUTO 18009KT 10SM CLR 23/06 A3008 RMK A01=
KSZT 232115Z AUTO 25004KT 10SM CLR 07/02 A3004 RMK AO2=
KSZY 232115Z AUTO 17009KT 10SM CLR 25/06 A3003 RMK A01=
KT89 232115Z AUTO 19012G17KT 10SM CLR 31/04 A2971 RMK A01=
KTDF 232115Z AUTO 35007KT 10SM CLR 18/04 A3017 RMK AO2=
KTHA 232115Z AUTO 20005G12KT 10SM CLR 23/05 A3009 RMK A01=
KTNU 232115Z AUTO 14019G25KT 10SM CLR 27/15 A2952 RMK A01=
KTQH 232115Z AUTO 17014G26KT 10SM CLR 28/11 A2975 RMK AO2=
KTQV 232115Z AUTO 36010G16KT 10SM CLR 20/02 A3014 RMK A01=
KU68 232115Z AUTO 31025G34KT 10SM SCT080 BKN110 04/M01 A2965 RMK
     AO2=
KUCY 232115Z AUTO 17019KT 10SM CLR 26/11 A2996 RMK A01=
KUSE 232115Z AUTO 15012G19KT 10SM CLR 24/09 A3005 RMK AO2=
KUVA 232115Z AUTO 15013KT 10SM CLR 28/16 A2980 RMK AO2
     T02810164=
KUXL 232115Z AUTO 13016G20KT 10SM BKN065 OVC075 27/19 A2997 RMK
     AO2 T02680190=
KVCV 232115Z AUTO 31007G16KT 10SM CLR 17/M08 A2990 RMK AO2=
KXLL 232115Z AUTO 05005KT 10SM SCT060 SCT120 16/10 A3024 RMK
     AO2=
PAAD 232115Z AUTO 10015G19KT 10SM OVC007 M05/M06 A3002 RMK AO2
     T10551061=
PAUT 232115Z AUTO 22022G30KT 10SM -RA BKN044 OVC049 07/05 A3019
     RMK AO2=
K06D 232115Z AUTO 03020G26KT 10SM BKN017 10/07 A2947 RMK AO2=
K1P1 232115Z AUTO 00000KT 10SM CLR 14/09 A3033 RMK AO2
     T01360086=
K22N 232115Z AUTO 00000KT 10SM BKN050 17/08 A3025 RMK AO2=
K3N8 232115Z AUTO 11018G24KT 10SM CLR 23/12 A2939 RMK AO2
     T02260117=
K5H4 232115Z AUTO 06016KT 10SM CLR 15/02 A2936 RMK AO2=
