SAUS80 KWBC 231856
METAR
KLZZ 231835Z AUTO 17014G23KT 10SM SCT044 28/15 A2979 RMK AO2
     T02760152=
