SAUS70 KWBC 232000 RRP
METAR
PAJZ 231956Z AUTO 00000KT 7SM CLR 01/M02 A3014 RMK AO2 SLP215
     T00061017 FZRANO $=
PAKI 231956Z AUTO 19010KT 10SM BKN036 BKN110 04/03 A2990 RMK AO2
     SLP127 T00440033 PNO $=
PAKK 231956Z AUTO 17009KT 10SM BKN042 OVC049 01/00 A2986 RMK AO2
     SLP120 T00060000 FZRANO=
PAKP 231956Z AUTO 20013KT 2 1/2SM -SN BR OVC003 M11/M12 A2989 RMK
     AO2 VIS 1V5 SLP181 P0000 T11061117 FZRANO=
PALG 231956Z AUTO 10007KT 10SM SCT003 M02/M03 A3001 RMK AO2 SLP165
     T10221028 FZRANO=
PAMB 231956Z AUTO 00000KT 9SM CLR 03/M01 A3010 RMK AO2 SLP198
     T00281011 $=
PAMK 231956Z AUTO 18015G22KT 10SM SCT060 02/M01 A2990 RMK AO2
     SLP125 T00171011 FZRANO=
KIMT 231954Z AUTO 13015G25KT 10SM CLR 21/12 A2984 RMK AO2 PK WND
     14026/1922 SLP106 T02060122=
KLAF 231954Z 17013G24KT 10SM CLR 26/11 A2994 RMK AO2 PK WND
     18030/1929 SLP134 T02610106=
KLDM 231955Z AUTO 16011G19KT 10SM BKN048 OVC060 24/12 A2991 RMK
     AO2 T02360120=
KLJF 231955Z AUTO 14019G27KT 10SM CLR 24/11 A2943 RMK AO2=
KLWM 231954Z 04004KT 10SM CLR 14/09 A3035 RMK AO2 SLP276
     T01440089=
KMGN 231955Z AUTO 18010G17KT 160V220 10SM CLR 23/10 A2998 RMK AO2
     T02360108=
KMHE 231953Z AUTO 16022G33KT 10SM CLR 28/09 A2917 RMK AO2 PK WND
     15034/1918 SLP869 T02780089=
KMIV 231954Z AUTO 03008KT 1 3/4SM +RA BR SCT009 BKN012 OVC020
     15/14 A3017 RMK AO2 RAB1858 SLP216 P0014 T01500144 $=
KOZW 231955Z AUTO 16014G21KT 10SM CLR 24/10 A3006 RMK AO2
     T02380104=
KPTW 231954Z AUTO 05006KT 10SM OVC047 16/09 A3025 RMK AO2 SLP241
     T01610094=
KSBY 231954Z 03007KT 5SM -RA BR SCT007 BKN012 OVC020 16/15 A3013
     RMK AO2 SLP204 P0013 T01610150=
KUKT 231955Z AUTO VRB05G12KT 10SM BKN047 17/09 A3024 RMK A01=
KVTA 231954Z AUTO 16009KT 10SM CLR 26/07 A3012 RMK AO2 SLP196
     T02560067=
KVVV 231955Z 14024G31KT 10SM 23/13 A2931 RMK AO2=
KGFA 231955Z AUTO 34014G21KT 3SM -SN BKN007 OVC012 M00/M00 A2984
     RMK AO2 SLP135 P0001 T10011002 $=
KGGW 231953Z AUTO 32006KT 1 1/4SM -SN BR OVC006 01/00 A2959 RMK
     AO2 SLP037 P0007 T00110000=
KGTF 231953Z 35017G26KT 3SM -SN BR OVC007 00/M01 A2984 RMK AO2 PK
     WND 35027/1935 TWR VIS 4 CIG 006V012 SLP144 P0000 T00001006
     $=
KHJO 231953Z AUTO 34012G21KT 10SM CLR 21/01 A2993 RMK AO2 SLP137
     T02060006=
KHRI 231953Z AUTO 25009KT 10SM CLR 13/02 A3010 RMK AO2 SLP193
     T01330022=
KMAE 231953Z AUTO 32016KT 10SM CLR 19/M01 A2993 RMK AO2 SLP133
     T01941006=
KMOD 231953Z 32016KT 10SM CLR 19/M01 A2995 RMK AO2 SLP140
     T01891011 $=
KMYF 231953Z 22007KT 10SM CLR 19/09 A2986 RMK AO2 SLP108
     T01890089=
KOVE 231953Z AUTO 31008KT 10SM CLR 21/M03 A3001 RMK AO2 SLP161
     T02111028=
KFDY 231953Z AUTO 16015KT 10SM CLR 25/10 A3008 RMK AO2 SLP179
     T02500100=
KFFM 231955Z AUTO 12022G28KT 10SM CLR 23/12 A2935 RMK AO2=
KGED 231954Z AUTO 04012G18KT 5SM -RA BR OVC009 16/15 A3015 RMK AO2
     SLP209 P0009 T01610150=
KGKJ 231953Z AUTO VRB04KT 10SM CLR 22/03 A3018 RMK AO2 SLP218
     T02220028=
KHZY 231953Z AUTO 13006KT 10SM CLR 22/06 A3017 RMK AO2 SLP215
     T02220056=
KJKJ 231955Z AUTO 13018G24KT 10SM CLR 24/12 A2933 RMK AO2 TSNO=
KLNK 231954Z 19031G44KT 8SM FEW035 30/13 A2932 RMK AO2 PK WND
     17044/1947 SLP915 T03000128=
KLNL 231955Z AUTO 17011G19KT 10SM BKN040 22/11 A2981 RMK AO2
     T02200106=
KLPR 231953Z AUTO 15010KT 10SM CLR 24/08 A3013 RMK AO2 SLP199
     T02440083=
KRST 231954Z 15023G34KT 10SM CLR 24/12 A2957 RMK AO2 PK WND
     14035/1900 SLP006 T02390122=
KSAZ 231955Z AUTO 13012G21KT 10SM CLR 24/12 A2946 RMK AO2=
