SAUS70 KWBC 231700 RRB
METAR
KLGU 231651Z AUTO 34006KT 10SM FEW022 BKN044 OVC070 03/01 A2975
     RMK AO2 SLP078 T00330006=
KLWB 231651Z 00000KT 10SM CLR 17/04 A3025=
KMDZ 231655Z AUTO 13010G16KT 10SM CLR 19/13 A2978 RMK AO2
     T01870125 PWINO=
KMPV 231651Z AUTO 00000KT 10SM CLR 18/06 A3039 RMK AO2 SLP294
     T01780061=
KORD 231651Z 17018G28KT 10SM FEW070 23/12 A2990 RMK AO2 PK WND
     15028/1645 SLP122 T02280122=
KPHX 231651Z 26012G21KT 10SM FEW050 SCT080 SCT110 SCT200 22/08
     A2976 RMK AO2 SLP064 T02220083 $=
KPIT 231651Z 21003KT 10SM FEW120 FEW250 19/04 A3023 RMK AO2 SLP244
     T01890044=
KPOC 231647Z 19004KT 10SM BKN025 A2988=
PABA 231652Z AUTO 09021KT 10SM OVC008 M04/M05 A3006 RMK AO2 PK WND
     10026/1649 SLP185 T10391050 FZRANO PNO $=
