SAPA31 KWBC 232000 RRB
METAR
PGRO 232008Z 11006KT 7SM FEW014 SCT100 25/23 A2978 RMK FIRST=
