SAUS80 KWBC 231718
METAR
KIKW 231715Z AUTO 14013G21KT 10SM SCT050 24/12 A3007 RMK AO2
     T02400115=
KLYV 231715Z AUTO 15018G25KT 10SM CLR 21/11 A2939 RMK AO2=
KPOV 231715Z AUTO 11005KT 10SM CLR 20/05 A3021 RMK AO2 T01980050
     PWINO=
KPZQ 231715Z AUTO 17009G16KT 10SM CLR 23/12 A3007 RMK AO2
     T02330122=
K40B 231716Z AUTO 20006KT 21/06 A3033 RMK AO1 SLP281 T02110058
     58010=
KCLI 231715Z AUTO 16011KT 10SM CLR 21/13 A2986 RMK AO2
     T02080125=
KEKX 231715Z AUTO 19012G16KT 10SM CLR 24/08 A3013 RMK AO2
     T02400080=
KY23 231715Z AUTO 13008KT 10SM CLR 21/15 A2970 RMK AO2
     T02110147=
KSMS 231715Z AUTO 00000G13KT 10SM CLR 23/08 A3018 RMK AO2=
KSNC 231715Z AUTO 02005KT 10SM CLR 14/08 A3029 RMK AO2=
KSOW 231715Z AUTO 22017G24KT 2SM BR FEW001 OVC012 08/07 A2984 RMK
     AO2 VIS 1V5=
KM21 231715Z AUTO 19010KT 10SM CLR 25/10 A3009 RMK AO2
     T02500095=
KSYN 231715Z AUTO 13013G22KT 10SM CLR 23/12 A2959 RMK AO2
     T02250120=
KLYV 231715Z AUTO 15018G25KT 10SM CLR 21/11 A2939 RMK AO2=
KPZQ 231715Z AUTO 17009G16KT 10SM CLR 23/12 A3007 RMK AO2
     T02330122=
KY23 231715Z AUTO 13008KT 10SM CLR 21/15 A2970 RMK AO2
     T02110147=
KIKW 231715Z AUTO 14013G21KT 10SM SCT050 24/12 A3007 RMK AO2
     T02400115=
KPOV 231715Z AUTO 11005KT 10SM CLR 20/05 A3021 RMK AO2 T01980050
     PWINO=
KSOW 231715Z AUTO 22017G24KT 2SM BR FEW001 OVC012 08/07 A2984 RMK
     AO2 VIS 1V5=
KSVE 231715Z AUTO 36004KT 10SM FEW039 BKN050 04/M04 A3007 RMK
     AO2=
KCLI 231715Z AUTO 16011KT 10SM CLR 21/13 A2986 RMK AO2
     T02080125=
KEDU 231720Z AUTO 34018G24KT 9SM CLR 17/00 A3000 RMK AO1=
K9MN 231715Z AUTO 11017G23KT 10SM CLR 21/12 A2964 RMK AO1
     T02060115=
KGNG 231715Z AUTO 28019G24KT 10SM CLR 04/M01 A2988 RMK AO2=
KCIR 231715Z AUTO 21010G19KT 10SM OVC046 24/15 A3003 RMK AO2
     T02380147=
KJNX 231715Z AUTO 34004KT 10SM CLR 21/11 A3016 RMK AO2=
KMKN 231715Z AUTO 19019G26KT 10SM SCT031 27/17 A2985 RMK AO2
     T02690166=
KVTI 231715Z AUTO 16020G26KT 10SM CLR 25/13 A2967 RMK AO2
     T02450125=
KPTS 231715Z AUTO 21021G33KT 10SM BKN120 26/15 A2970 RMK AO2
     T02610153 PWINO=
KRFI 231715Z AUTO 17012G17KT 10SM BKN038 BKN046 28/13 A2995 RMK
     AO2 T02840130=
KRLD 231715Z AUTO 00000KT 10SM SCT100 12/03 A3006 RMK AO2
     T01160026=
KS39 231715Z AUTO 00000KT 10SM CLR 05/M00 A3008 RMK AO2=
KSEP 231715Z AUTO 18018G25KT 10SM SCT033 27/15 A2986 RMK AO2
     T02680152=
KTKC 231715Z AUTO 14023G28KT 10SM 22/11 A2943 RMK AO2
     T02150105=
KTKV 231715Z AUTO 15004KT 10SM CLR 21/12 A2981 RMK AO2 T02060118
     PWINO=
