SAPA32 KWBC 231900
METAR
NCRG 231900Z AUTO 02008KT 350V080 9999 -RA BKN010/// BKN017///
     25/24 Q1012 RERA=
NFFN 231900Z VRB02KT 9999 FEW030 SCT120 BKN290 23/21 Q1012
     NOSIG=
NFNA NIL=
NFTF 231900Z 14012KT 9999 FEW017 23/18 Q1016=
NFTV 231900Z 16005KT 9999 FEW008 FEW016TCU BKN120 25/22 Q1013=
NGFU 231900Z VRB01KT 9999 VCSH FEW016CB FEW018TCU BKN110 27/24
     Q1011=
NSFA NIL=
NSTU 231850Z 34009KT 12SM SCT016TCU SCT100 BKN220 25/24 A2986 RMK
     SHRAE40 TCU N SLP113 T02510241=
NTAA NIL=
NWWW 231900Z AUTO 06007G18KT 360V130 9999 FEW038 OVC120 25/18
     Q1012 NOSIG=
