SAUS70 KWBC 231950
METAR
KANK 231930Z AUTO 27020G28KT 7SM SCT010 BKN016 OVC050 05/00 A2963
     RMK AO1 T00501004=
KBMC 231930Z AUTO 10SM BKN031 BKN080 06/M02 A2982 RMK AO1
     T00571023=
KDUB 231934Z AUTO 29018G27KT 10SM BKN045 01/M09 A2957 RMK AO2=
KHBV 231930Z AUTO 16012G24KT 10SM CLR 31/17 A2979 RMK AO2
     T03110171=
KHSG 231930Z AUTO 35007KT 10SM SCT010 OVC017 02/00 A2962 RMK AO2
     T00150002=
KMMH 231934Z AUTO 35010G17KT 10SM CLR 06/M10 A2996 RMK AO2=
KOSA 231930Z AUTO 19019G24KT 160V220 10SM BKN050 29/16 A2987 RMK
     AO2 T02860159=
KC62 232015Z AUTO 17013G21KT 10SM SCT050 23/12 A3003 RMK AO2
     T02370121=
KOCW 231935Z AUTO 00000KT 10SM OVC013 17/13 A3010 RMK AO2
     T01720133=
