SAUS80 KWBC 232118
METAR
KIKW 232115Z AUTO 13008KT 10SM CLR 24/11 A3002 RMK AO2
     T02400106=
KLYV 232115Z AUTO 16019G28KT 10SM CLR 26/11 A2929 RMK AO2=
KPOV 232115Z AUTO 11006KT 10SM CLR 23/M01 A3014 RMK AO2 T02271011
     PWINO=
KPZQ 232115Z AUTO 18010G15KT 10SM SCT060 23/11 A3003 RMK AO2
     T02300112=
K40B 232116Z AUTO 00000KT 14/10 A3032 RMK AO1 SLP270 T01440100
     54001=
KCLI 232115Z AUTO 13011G18KT 10SM CLR 21/13 A2980 RMK AO2
     T02090126=
KEKX 232115Z AUTO 18008KT 10SM CLR 24/07 A3007 RMK AO2
     T02370072=
KSYN 232115Z AUTO 15015G25KT 10SM CLR 25/12 A2950 RMK AO2
     T02460121=
KY23 232115Z AUTO 14010G21KT 10SM SCT050 25/15 A2961 RMK AO2
     T02450152=
KM21 232115Z AUTO 18010G15KT 10SM CLR 26/08 A3002 RMK AO2
     T02600081=
KSMS 232115Z AUTO 01006KT 10SM CLR 24/07 A3014 RMK AO2=
KSNC 232115Z AUTO 36003KT 10SM OVC035 11/10 A3028 RMK AO2=
KSOW 232115Z AUTO 23020KT 10SM SCT032 BKN040 BKN050 11/03 A2982
     RMK AO2=
KIKW 232115Z AUTO 13008KT 10SM CLR 24/11 A3002 RMK AO2
     T02400106=
KLYV 232115Z AUTO 16019G28KT 10SM CLR 26/11 A2929 RMK AO2=
KPOV 232115Z AUTO 11006KT 10SM CLR 23/M01 A3014 RMK AO2 T02271011
     PWINO=
KPZQ 232115Z AUTO 18010G15KT 10SM SCT060 23/11 A3003 RMK AO2
     T02300112=
KCLI 232115Z AUTO 13011G18KT 10SM CLR 21/13 A2980 RMK AO2
     T02090126=
KSYN 232115Z AUTO 15015G25KT 10SM CLR 25/12 A2950 RMK AO2
     T02460121=
KY23 232115Z AUTO 14010G21KT 10SM SCT050 25/15 A2961 RMK AO2
     T02450152=
KSVE 232115Z AUTO 02004KT 10SM BKN060 M22/M51 A3007 RMK AO2=
KEDU 232120Z AUTO 34012G23KT 10SM CLR 20/M03 A2998 RMK AO1=
KGNG 232115Z AUTO 28021G27KT 10SM CLR 09/M08 A2990 RMK AO2=
KCIR 232115Z AUTO 22010G20KT 10SM SCT050 27/13 A2994 RMK AO2
     T02670134=
KMKN 232115Z AUTO 17019G24KT 10SM CLR 30/14 A2975 RMK AO2
     T03040138=
KJNX 232115Z AUTO 01009KT 10SM OVC032 21/12 A3012 RMK AO2=
KPTS 232115Z AUTO 19027G33KT 10SM CLR 30/14 A2963 RMK AO2
     T02960139 PWINO=
KRFI 232115Z AUTO 16016G22KT 10SM SCT060 30/07 A2987 RMK AO2
     T02990073=
KRLD 232115Z AUTO 21005KT 10SM CLR 15/00 A3011 RMK AO2
     T01540001=
KS39 232115Z AUTO 36007KT 10SM FEW045 08/M03 A3011 RMK AO2=
KSEP 232115Z AUTO 16018G26KT 10SM CLR 30/13 A2977 RMK AO2
     T02960129=
KTKV 232115Z AUTO 14006KT 10SM OVC043 22/12 A2974 RMK AO2
     T02180120 PWINO=
KVTI 232115Z AUTO 16018G26KT 10SM CLR 25/13 A2961 RMK AO2
     T02450134=
KSNC 232115Z AUTO 36003KT 10SM OVC035 11/10 A3028 RMK AO2=
KSOW 232115Z AUTO 23020KT 10SM SCT032 BKN040 BKN050 11/03 A2982
     RMK AO2=
