SAUS70 KWBC 232000
METAR
KFBL 231955Z AUTO 14021G29KT 10SM CLR 24/13 A2951 RMK AO2=
KFFM 231955Z AUTO 12022G28KT 10SM CLR 23/12 A2935 RMK AO2=
KFIN 231950Z 02009KT 350V050 10SM CLR 26/14 A3009=
KFOK 231953Z 02010G17KT 7SM -RA SCT055 OVC090 14/13 A3025 RMK AO2
     SLP244 P0020 T01390128 $=
KFSE 231955Z AUTO 12013G20KT 10SM CLR 23/10 A2944 RMK AO2=
KFXE 231953Z 04009KT 10SM SCT039 SCT050 29/19 A3001 RMK AO2 SLP164
     T02890194=
KGCK 231954Z 21041G53KT 4SM BLDU CLR 29/06 A2936 RMK AO2 PK WND
     21059/1942 SLP903 T02940056=
KGCN 231954Z 27010G22KT 240V310 10SM FEW050 FEW060 06/M06 A2982
     RMK AO2 SLP051 T00611056=
KGED 231954Z AUTO 04012G18KT 5SM -RA BR OVC009 16/15 A3015 RMK AO2
     SLP209 P0009 T01610150=
KGHW 231955Z AUTO 11026G32KT 10SM CLR 24/12 A2940 RMK AO2=
KGYL 231955Z AUTO 13022G30KT 7SM CLR 24/13 A2945 RMK AO2
     T02430126=
KHAF 231955Z AUTO 33016KT 8SM CLR 15/08 A3002 RMK AO2=
KHCO 231955Z AUTO 08015KT 10SM CLR 19/10 A2946 RMK AO2=
KILN 231954Z AUTO 16005KT 10SM CLR 24/08 A3010 RMK AO2 SLP190
     T02390078=
KIMT 231954Z AUTO 13015G25KT 10SM CLR 21/12 A2984 RMK AO2 PK WND
     14026/1922 SLP106 T02060122=
KIND 231954Z 18017KT 10SM FEW055 26/09 A3000 RMK AO2 PK WND
     19028/1939 SLP153 T02560094 $=
KIPT 231954Z 28003KT 10SM OVC043 18/08 A3024 RMK AO2 SLP242
     T01830083=
KISW 231954Z AUTO 14015G30KT 10SM CLR 23/12 A2974 RMK AO2 PK WND
     14030/1946 SLP066 T02330122=
KIZG 231954Z AUTO 00000KT 10SM CLR 17/07 A3036 RMK AO2 SLP282
     T01670072=
KJKJ 231955Z AUTO 13018G24KT 10SM CLR 24/12 A2933 RMK AO2 TSNO=
KJMR 231955Z AUTO 14013G20KT 10SM SCT045 24/12 A2957 RMK AO2=
KLAF 231954Z 17013G24KT 10SM CLR 26/11 A2994 RMK AO2 PK WND
     18030/1929 SLP134 T02610106=
KLDM 231955Z AUTO 16011G19KT 10SM BKN048 OVC060 24/12 A2991 RMK
     AO2 T02360120=
KLJF 231955Z AUTO 14019G27KT 10SM CLR 24/11 A2943 RMK AO2=
KLNK 231954Z 19031G44KT 8SM FEW035 30/13 A2932 RMK AO2 PK WND
     17044/1947 SLP915 T03000128=
KLWM 231954Z 04004KT 10SM CLR 14/09 A3035 RMK AO2 SLP276
     T01440089=
KLWT 231954Z AUTO 29016G27KT 3/4SM -SN BR BKN003 OVC007 M01/M02
     A2970 RMK AO2 PK WND 29028/1940 SLP079 P0000 T10061017 $=
KAAO 231954Z AUTO 18027G43KT 10SM BKN033 28/13 A2951 RMK AO2 PK
     WND 18043/1947 SLP978 T02830133=
KACQ 231955Z AUTO 13021G30KT 10SM CLR 24/12 A2951 RMK AO2=
KAIT 231955Z AUTO 12015G21KT 10SM SCT049 24/12 A2953 RMK AO2=
KALO 231954Z 15018G30KT 10SM CLR 24/13 A2957 RMK AO2 PK WND
     18035/1925 SLP006 T02440133=
KAMN 231955Z AUTO 15014G19KT 10SM BKN055 24/08 A3002 RMK AO2
     T02410084=
KAUW 231954Z AUTO 11012G22KT 10SM CLR 23/12 A2973 RMK AO2 PK WND
     10030/1902 SLPNO T02330122 $=
KBDH 231955Z AUTO 13024G33KT 7SM CLR 24/12 A2942 RMK AO2=
KBFL 231954Z 26005KT 10SM CLR 17/02 A2995 RMK AO2 SLP139
     T01670017=
KBUY 231954Z AUTO 01005KT 10SM CLR 22/04 A3015 RMK AO2 SLP208
     T02170044=
KBWI 231954Z 01006KT 10SM SCT032 BKN055 OVC140 19/10 A3019 RMK AO2
     SLP224 BINOVC T01890100 $=
KCBG 231955Z AUTO 14010G20KT 10SM CLR 26/13 A2952 RMK AO2=
KCFE 231955Z AUTO 13018G27KT 10SM CLR 24/13 A2946 RMK AO2=
KCOQ 231955Z AUTO 10014G21KT 10SM CLR 18/09 A2960 RMK AO2 TSNO=
KCVH 231955Z AUTO 30006G14KT 10SM CLR 19/03 A2998 RMK A01=
KDEC 231954Z AUTO 17022G35KT 10SM CLR 24/16 A2986 RMK AO2 PK WND
     17035/1909 SLP107 T02440156=
KDRM 231955Z AUTO 14008KT 10SM CLR 18/11 A3004 RMK AO2
     T01750106=
KDXR 231953Z 07005KT 10SM OVC120 16/07 A3029 RMK AO2 RAE17 SLP257
     P0000 T01610067=
KDXX 231955Z AUTO 14026G32KT 10SM CLR 26/12 A2933 RMK AO2=
