SAUS70 KWBC 231838 RRF
METAR
KRYV 231835Z AUTO 15016G24KT 10SM CLR 23/12 A2981 RMK AO2
     T02300116=
KRZL 231835Z AUTO 16021G27KT 10SM CLR 25/11 A2995 RMK AO2=
KRZN 231835Z AUTO 14013G19KT 10SM CLR 23/12 A2962 RMK AO2
     T02260115=
KS25 231835Z AUTO 05013G21KT 10SM OVC012 07/07 A2944 RMK AO2=
KS32 231835Z AUTO 08017G23KT 10SM CLR 17/07 A2940 RMK AO2 TSNO=
KSPF 231835Z AUTO 31018G27KT 10SM OVC014 07/03 A2936 RMK AO2=
KUBE 231835Z AUTO 13014G19KT 10SM CLR 22/16 A2964 RMK AO2=
KY19 231835Z AUTO 05012G18KT 10SM CLR 13/07 A2930 RMK AO2=
K14Y 231835Z AUTO 12016G22KT 7SM CLR 21/12 A2948 RMK AO2=
K2D5 231835Z AUTO 09020G26KT 9SM CLR 20/11 A2930 RMK AO2=
K3N8 231835Z AUTO 12017G22KT 10SM CLR 22/11 A2945 RMK AO2
     T02180112=
K5H4 231835Z AUTO 06019KT 10SM CLR 12/M00 A2939 RMK AO2=
K6B9 231835Z AUTO VRB05KT 10SM CLR 20/03 A3026 RMK AO2=
K82C 231835Z AUTO 13010G18KT 10SM CLR 23/13 A2973 RMK AO2
     T02300131=
K96D 231835Z AUTO 03014KT 10SM SCT018 13/11 A2953 RMK AO2=
K9D7 231835Z AUTO 06019G25KT 10SM CLR 13/07 A2947 RMK AO2 TSNO=
KACQ 231835Z AUTO 14020G29KT 10SM CLR 23/12 A2954 RMK AO2=
KAIG 231835Z AUTO 14020G24KT 10SM CLR 20/12 A2982 RMK AO2
     T02040121=
KAMN 231835Z AUTO 16016G20KT 10SM CLR 24/09 A3004 RMK AO2
     T02420086=
KAXV 231835Z AUTO 16013KT 10SM SCT055 23/09 A3010 RMK AO2=
KBAC 231835Z AUTO 08018KT 9SM CLR 18/10 A2937 RMK AO2=
KCBG 231835Z AUTO 12009G17KT 10SM CLR 24/12 A2955 RMK AO2=
KCDA 231835Z AUTO 13004KT 10SM 18/05 A3035 RMK AO2 T01800054=
KCFE 231835Z AUTO 13020G28KT 10SM CLR 23/13 A2949 RMK AO2=
KCOQ 231835Z AUTO 08010KT 10SM CLR 17/09 A2963 RMK AO2 TSNO=
KDLZ 231835Z AUTO 15007KT 10SM CLR 22/09 A3015 RMK AO2=
KDRM 231835Z AUTO 15008G14KT 10SM CLR 19/11 A3005 RMK AO2
     T01890106=
KOVL 231835Z AUTO 14022G30KT 4SM HZ CLR 23/12 A2942 RMK AO2=
KOZW 231835Z AUTO 17014G21KT 10SM CLR 24/10 A3008 RMK AO2
     T02350099=
KPWC 231835Z AUTO 11014G20KT 10SM CLR 21/12 A2957 RMK AO2=
KRGK 231835Z AUTO 13012KT 10SM CLR 23/12 A2956 RMK AO2=
KROX 231835Z AUTO 08018KT 10SM CLR 15/08 A2955 RMK AO2=
KSAZ 231835Z AUTO 12010G15KT 10SM CLR 23/12 A2949 RMK AO2=
KTEW 231835Z AUTO 18010G22KT 130V220 10SM CLR 25/10 A3006 RMK AO2
     T02490098=
KY63 231835Z AUTO 12017G28KT 10SM CLR 22/12 A2940 RMK AO2
     T02160120=
K21D 231835Z AUTO 14014G22KT 10SM CLR 22/12 A2957 RMK AO2=
KAIT 231835Z AUTO 12012G16KT 10SM CLR 23/12 A2956 RMK AO2=
KAUM 231835Z AUTO 16015G25KT 10SM CLR 23/13 A2956 RMK AO=
KBDH 231835Z AUTO 13025G29KT 10SM CLR 24/12 A2945 RMK AO2=
KELO 231835Z AUTO 14013KT 10SM CLR 21/09 A2969 RMK AO2=
KFBL 231835Z AUTO 13019G28KT 10SM CLR 23/13 A2953 RMK AO2=
KFFM 231835Z AUTO 12018G28KT 10SM CLR 22/12 A2938 RMK AO2=
KFGN 231835Z AUTO 05009KT 10SM CLR 13/07 A2961 RMK AO2=
KFSE 231835Z AUTO 13011G16KT 10SM CLR 23/10 A2948 RMK AO2=
KGHW 231835Z AUTO 10022G31KT 10SM CLR 22/12 A2943 RMK AO2=
KGYL 231835Z AUTO 13020KT 7SM CLR 24/13 A2948 RMK AO2
     T02350125=
KHCO 231835Z AUTO 05014G20KT 10SM CLR 17/09 A2949 RMK AO2=
KHZL 231835Z AUTO 00000KT 10SM OVC038 16/08 A3030 RMK AO2=
KI69 231835Z AUTO 20007KT 10SM SCT055 24/09 A3013 RMK AO2
     T02430086=
KJKJ 231835Z AUTO 11017G20KT 10SM CLR 23/11 A2939 RMK AO2 TSNO=
KJMR 231835Z AUTO 14012G17KT 10SM CLR 22/11 A2960 RMK AO2=
KLDM 231835Z AUTO 17016G19KT 10SM CLR 24/11 A2993 RMK AO2
     T02400112=
KLJF 231835Z AUTO 13022G29KT 10SM CLR 23/11 A2946 RMK AO2=
KMGN 231835Z AUTO 19011G17KT 10SM SCT060 24/10 A2999 RMK AO2
     T02410108=
KMQJ 231835Z AUTO RMK AO1=
KMVE 231835Z AUTO 14019G28KT 10SM CLR 23/13 A2938 RMK AO2=
KRZT 231835Z AUTO 13006KT 10SM CLR 24/06 A3014 RMK AO2 PWINO=
