SAUS80 KWBC 232100
METAR
KCQT 232047Z AUTO 25004KT 10SM CLR 21/10 A2984 RMK AO2 SLP103
     T02110100 57007=
KGNT 232055Z AUTO 28011G20KT 10SM SCT024 SCT030 BKN035 12/03 A2980
     RMK AO2 T01150033=
