SACA33 KWBC 231700 RRD
METAR
TLPL 231700Z 09015KT 9999 FEW027 31/26 Q1012 NOSIG=
