SAUS70 KWBC 232138 RRB
METAR
KCLW 232135Z AUTO 33010KT 10SM CLR 25/15 A3006 RMK AO2=
KCMR 232135Z AUTO 30014G20KT 10SM FEW065 07/M09 A2985 RMK AO2=
KCNB 232135Z AUTO 10018G29KT 10SM CLR 25/12 A2930 RMK AO2
     T02520115=
KCPT 232135Z AUTO 16018G31KT 10SM CLR 29/15 A2976 RMK A01=
KCTZ 232135Z AUTO 32005KT 10SM CLR 21/10 A3011 RMK AO2
     T02130102=
KCVX 232135Z AUTO 14007G15KT 120V180 10SM OVC060 23/11 A2995 RMK
     AO2 T02250114=
KD57 232135Z AUTO 04012G18KT 10SM OVC032 12/04 A2932 RMK AO2=
KD60 232135Z AUTO 05019G25KT 10SM OVC010 05/05 A2947 RMK AO2=
KD95 232135Z AUTO 14009KT 10SM CLR 24/04 A3007 RMK AO2
     T02350043=
KDNA 232135Z AUTO 27014G19KT 10SM OVC075 24/08 A2976 RMK AO2=
KDNN 232135Z AUTO 00000KT 9SM SCT250 23/03 A3012 RMK AO2
     T02310029=
KDRI 232135Z AUTO 15012KT 7SM BKN070 26/18 A2996 RMK AO2 T02640185
     $=
KDTL 232135Z AUTO 13017G23KT 10SM CLR 21/12 A2937 RMK AO2=
KDUH 232135Z AUTO 16008KT 10SM CLR 24/07 A3006 RMK AO2
     T02350071=
KDYB 232135Z AUTO 34005KT 10SM CLR 23/10 A3011 RMK AO2=
KDYT 232135Z AUTO 06016KT 10SM BKN055 11/10 A2961 RMK AO2=
KEDJ 232135Z AUTO 19009KT 10SM CLR 23/09 A3009 RMK A01=
KEFK 232135Z AUTO 00000KT 10SM CLR 15/05 A3031 RMK AO2
     T01510054=
KEKM 232135Z AUTO 17015G20KT 9SM CLR 24/11 A2997 RMK AO2
     T02400106=
KELK 232135Z AUTO 17012KT 7SM FEW160 26/13 A2959 RMK AO2 SLP312
     T02590133 $=
KEVU 232135Z AUTO 16014G20KT 10SM SCT120 25/17 A2948 RMK AO2 LTG
     DSNT E T02500177=
KEXX 232135Z AUTO 00000KT 10SM CLR 20/07 A3015 RMK AO2
     T02000065=
KEZF 232135Z AUTO 01005KT 10SM OVC028 18/12 A3016 RMK AO2
     T01800118=
KEZM 232135Z AUTO 00000KT 10SM CLR 25/08 A3013 RMK AO2=
KF70 232135Z AUTO 21003KT 10SM CLR 20/05 A2983 RMK AO2=
KFFX 232135Z AUTO 16012G18KT 130V190 10SM CLR 25/11 A2994 RMK AO2
     T02450105=
KFKA 232135Z AUTO 16016G30KT 7SM CLR 23/13 A2960 RMK AO2
     T02260128=
KFKS 232135Z AUTO 17009G16KT 10SM BKN060 24/12 A2990 RMK AO2
     T02410122=
KFPK 232135Z AUTO 15008KT 10SM CLR 23/09 A3001 RMK AO2
     T02270091=
KFSO 232135Z AUTO 00000KT 10SM CLR 16/06 A3029 RMK AO2
     T01590061=
KFVX 232135Z AUTO 03003KT 10SM BKN029 OVC036 18/11 A3015 RMK AO2
     T01830108=
KFWB 232135Z AUTO 15009G21KT 090V180 10SM CLR 26/14 A2978 RMK
     AO2=
KGLY 232135Z AUTO 17018G24KT 10SM CLR 31/13 A2962 RMK AO2=
KGWR 232135Z AUTO 12021G26KT 9SM CLR 22/13 A2928 RMK A01=
KHAI 232135Z AUTO 16014G22KT 10SM CLR 24/10 A2999 RMK AO2
     T02360104=
KHBI 232135Z AUTO 36003KT 10SM CLR 21/04 A3017 RMK AO2
     T02050042=
KHRJ 232135Z AUTO 36007KT 10SM CLR 21/07 A3013 RMK AO2
     T02060070=
KHVS 232135Z AUTO 00000KT 10SM CLR 22/05 A3013 RMK AO2=
KHWY 232135Z AUTO 35005KT 10SM OVC044 19/10 A3022 RMK AO2
     T01850101=
KHZE 232135Z AUTO 03012G19KT 10SM OVC038 12/06 A2936 RMK AO2=
KHZL 232135Z AUTO 00000KT 10SM SCT120 16/09 A3029 RMK AO2=
KI23 232135Z AUTO 19009KT 10SM CLR 23/05 A3009 RMK AO1=
KI69 232135Z AUTO 15006KT 10SM CLR 24/07 A3009 RMK AO2
     T02400068=
KIDI 232135Z AUTO 16004KT 10SM CLR 19/00 A3024 RMK A01=
KINF 232135Z AUTO 02003KT 7SM CLR 27/15 A3007 RMK AO2=
KIRS 232135Z AUTO 16014G19KT 10SM CLR 23/08 A2999 RMK AO2
     T02300083=
K08D 232135Z AUTO 04019G26KT 10SM OVC012 06/05 A2945 RMK AO2=
K20U 232135Z AUTO 36014KT 3SM BR OVC005 05/05 A2944 RMK AO2=
K2C8 232135Z AUTO 03011KT 9SM CLR 18/10 A2944 RMK AO2=
K4R5 232135Z AUTO 11004KT 10SM SCT070 OVC110 19/12 A2964 RMK AO2
     T01880121=
KAQP 232133Z AUTO 18020G29KT 10SM SCT085 26/10 A2930 RMK AO2=
KARV 232135Z AUTO 15015G20KT 10SM BKN043 21/12 A2974 RMK AO2
     T02070120=
