SAUS70 KWBC 231700
METAR
K2C8 231655Z AUTO 05011KT 10SM FEW016 11/09 A2955 RMK AO2=
KCLK 231655Z AUTO 19020G26KT 7SM CLR 25/11 A2968 RMK AO2=
KD50 231655Z AUTO 07017G24KT 10SM OVC013 05/03 A2957 RMK AO2=
KDAG 231650Z AUTO 30009KT 10SM CLR 16/M01 A2988 RMK AO2 SLP104
     T01561011=
KFRR 231655Z AUTO 00000KT 10SM CLR 14/06 A3028 RMK AO1=
KOCF 231651Z VRB04KT 10SM CLR 26/14 A3015 RMK AO2 SLP208 T02610139
     PNO $=
KOXC 231651Z 07011KT 10SM CLR 14/06 A3031 RMK AO2 SLP278
     T01390061=
KSBA 231653Z 00000KT 10SM CLR 18/08 A2986=
KSLK 231651Z AUTO VRB03KT 10SM CLR 18/04 A3031 RMK AO2 SLP271
     T01830039=
KSPA 231655Z AUTO 06004KT 10SM CLR 20/06 A3022 RMK AO2=
KTPL 231651Z AUTO 17022G29KT 10SM FEW033 BKN046 26/17 A2990 RMK
     AO2 PK WND 17030/1558 SLP114 T02560172=
KVER 231655Z AUTO 16015G19KT 10SM SCT120 26/16 A2974 RMK AO2
     T02580163=
KY51 231655Z AUTO 16012KT 10SM CLR 20/14 A2975 RMK AO1
     T02010142=
PAMD 231651Z AUTO 36008KT 10SM OVC095 07/01 A2965 RMK AO2 SLP029
     T00720011 PNO $=
KATW 231645Z 15014G19KT 10SM CLR 19/11 A2986=
KBAK 231645Z 17014G20KT 10SM CLR 23/10 A3010=
KCGF 231645Z 18007KT 10SM CLR 23/08 A3020=
KCWA 231647Z 12009KT 10SM CLR 19/12 A2983=
KDLL 231655Z AUTO 17012KT 10SM CLR 19/11 A2980 RMK AO2
     T01940112=
KEFT 231655Z AUTO 16016G21KT 10SM CLR 21/12 A2982 RMK AO2
     T02090116=
KETB 231655Z AUTO 18007KT 10SM CLR 20/12 A2988 RMK AO2=
KEZS 231655Z AUTO 17005KT 10SM CLR 22/14 A2987 RMK AO2
     T02150135=
KFMH 231645Z 06010KT 10SM SCT090 15/13 A3032=
KFRH 231655Z AUTO 22008G16KT 171V251 10SM CLR 22/09 A3009 RMK
     AO1=
KGAF 231655Z AUTO 05013KT 8SM CLR 12/07 A2954 RMK AO2=
KGYY 231645Z 16012G22KT 10SM CLR 22/13 A2995=
KLBE 231647Z 00000KT 15SM CLR 20/02 A3024=
KMMU 231645Z 05006KT 10SM BKN110 18/10 A3028=
KMWA 231645Z 19021G29KT 20SM SCT036 BKN043 23/15 A2998=
KMWC 231645Z 17012G15KT 10SM CLR 21/09 A2990=
KOQU 231650Z 03012KT 10SM SCT080 SCT110 OVC160 15/11 A3034=
KPBH 231655Z AUTO 14010KT 10SM CLR 19/12 A2977 RMK AO2
     T01860121=
KPDC 231655Z AUTO 13009KT 10SM CLR 22/12 A2973 RMK AO2
     T02180118=
KRRL 231655Z AUTO 14011G15KT 10SM CLR 19/12 A2981 RMK AO2
     T01900123 TSNO=
KSAW 231645Z 19013KT 10SM FEW015 17/13 A2992=
KSCH 231649Z 00000KT 15SM SCT180 BKN250 16/07 A3034=
KSUW 231655Z AUTO 05008KT 10SM BKN075 OVC095 12/09 A2971 RMK AO2
     T01220091=
KTZR 231650Z 19005G15KT 10SM CLR 22/11 A3019=
KUNU 231655Z AUTO 14010KT 10SM CLR 21/12 A2987 RMK AO2
     T02050124=
KUNV 231653Z VRB03KT 10SM CLR 15/06 A3030=
KADM 231650Z 18016G22KT 10SM SCT029 26/17 A2979=
KJWN 231650Z 19012KT 10SM CLR 24/09 A3013=
K1S5 231655Z AUTO 00000KT 10SM SCT085 06/01 A3006 RMK AO2
     T00550010=
KADS 231647Z 18018G26KT 10SM SCT031 26/16 A2986=
KAEG 231647Z 21027G34KT 10SM SCT060 BKN085 17/01 A2974=
KCHD 231647Z 24013G24KT 10SM CLR 22/09 A2978=
KCIC 231647Z 31016KT 10SM CLR 14/M02 A3003=
KCNW 231655Z 17021G29KT 10SM BKN034 28/16 A2989=
KDAG 231650Z AUTO 30009KT 10SM CLR 16/M01 A2988 RMK AO2 SLP104
     T01561011=
KEMT 231645Z 00000KT 10SM SCT030 18/12 A2987=
KFWS 231646Z 17019G35KT 10SM SCT033 27/16 A2986=
KGYR 231647Z 24015KT 10SM SCT080 BKN140 21/10 A2979=
KHOB 231650Z 19018G23KT 10SM SKC 25/10 A2978=
KIFP 231649Z 35016KT 10SM CLR 20/M01 A2980=
KJXI 231655Z AUTO 17009G19KT 10SM SCT034 BKN039 BKN046 25/16 A2995
     RMK AO2 T02510156=
KMCJ 231655Z AUTO 14023G32KT 10SM FEW060 28/11 A2994 RMK A01=
KMER 231653Z 33005KT 7SM CLR 16/01 A2995=
KPAO 231647Z 35004KT 10SM SKC 14/06 A3002=
KRHV 231647Z 00000KT 10SM SKC 13/05 A3002=
KRYN 231645Z 25012KT 10SM CLR 22/09 A2984=
