SAUS70 KWBC 232122
METAR
K33V 232115Z AUTO 33014G20KT 1/4SM OVC002 M03/M03 A2959 RMK
     AO1=
K5SM 232115Z AUTO M1/4SM +SN OVC002 M07/M08 A2966 RMK AO2=
K66R 232115Z AUTO 16008G18KT 10SM SCT047 SCT055 OVC065 29/17 A2986
     RMK AO2 T02850172=
K7BM 232115Z AUTO 25013G18KT 1SM -SN OVC006 M02/M05 A2962 RMK
     AO2=
KELA 232115Z AUTO 16016G22KT 10SM SCT050 OVC060 29/17 A2986 RMK
     AO2 T02900170=
KGCD 232115Z AUTO 28003KT 10SM SCT050 OVC060 05/M01 A3010 RMK AO2
     T00451009=
KGVT 232115Z AUTO 17024G30KT 10SM CLR 30/16 A2978 RMK AO2 TSNO
     T02960159=
KHII 232115Z AUTO 34014G25KT 10SM CLR 24/M06 A2976 RMK AO2=
KLHM 232115Z AUTO 32019G27KT 10SM CLR 21/M03 A2994 RMK AO1=
KPSO 232115Z AUTO 23016G23KT 10SM OVC060 04/M07 A2974 RMK AO2
     T00381072=
KSTK 232115Z AUTO 34017G23KT 10SM SCT110 17/01 A2932 RMK AO2 LTG
     DSNT W=
KT74 232115Z AUTO 15020G26KT 10SM SCT050 SCT065 29/17 A2979 RMK
     AO2 T02910173=
KT82 232115Z AUTO 17014G19KT 10SM CLR 26/15 A2981 RMK AO2
     T02600149=
KTME 232115Z AUTO 17014G20KT 10SM BKN060 BKN070 30/16 A2987 RMK
     AO2=
KTYL 232115Z AUTO 25020G28KT 10SM FEW060 14/M01 A2980 RMK AO2=
KVHN 232115Z AUTO 23016G23KT 10SM CLR 30/07 A2975 RMK AO2
     T03040067=
K0A0 232115Z AUTO 23019G27KT 10SM CLR 21/03 A2974 RMK AO2=
K0F2 232115Z AUTO 17018G28KT 10SM CLR 29/15 A2970 RMK AO2
     T02940152=
K2R9 232115Z AUTO 15015G23KT 10SM SCT044 SCT060 30/18 A2980 RMK
     AO2=
K4V0 232115Z AUTO 00000KT 10SM SCT008 BKN120 03/01 A2970 RMK AO2
     T00260012=
K81R 232115Z AUTO 18016G21KT 10SM CLR 30/14 A2977 RMK AO2
     T02970144=
KEMM 232115Z AUTO 29024G32KT 10SM CLR 00/M06 A2973 RMK AO2=
KGLX 232115Z AUTO 05011KT 10SM CLR 24/14 A3006 RMK A01=
KJWY 232115Z AUTO 16019G28KT 10SM SCT050 29/16 A2977 RMK AO2
     T02910158=
KMEV 232115Z AUTO 36009KT 10SM SCT060 08/M08 A3004 RMK AO2=
KMVH 232115Z AUTO 30022G29KT 3/4SM BR M01/M02 A2966 RMK AO2
     PWINO=
KOAR 232115Z AUTO 28013KT 10SM CLR M05/M20 A2997 RMK AO2=
KP08 232115Z AUTO 27008KT 10SM BKN060 OVC070 23/08 A2976 RMK
     AO2=
KPRS 232115Z AUTO 21007G14KT 10SM CLR 32/11 A2974 RMK AO2
     T03180107=
KRAS 232115Z AUTO 14015G23KT 10SM SCT055 A2984 RMK AO2=
KVAF 232115Z AUTO 13016KT 10SM CLR 28/17 A2991 RMK A01=
KWBF 232115Z AUTO 00000KT 10SM 26/18 A3001 RMK A01=
K0CO 232115Z AUTO 29017G21KT 1/2SM SN SCT002 OVC005 M08/M09 A2960
     RMK AO2=
K2V5 232115Z AUTO 36018G24KT 10SM SCT120 21/M02 A2929 RMK AO2=
K74V 232115Z AUTO 13007KT 10SM 06/00 A2971 RMK AO2=
KBPG 232115Z AUTO 19018KT 10SM CLR 30/11 A2968 RMK AO2
     T02960109=
KCFD 232115Z AUTO 17016G22KT 10SM SCT055 SCT065 30/16 A2984 RMK
     AO2 T03000160=
KE42 232115Z AUTO 19028G33KT 10SM CLR 26/10 A2952 RMK AO2
     T02610103=
KEBG 232115Z AUTO 15016G26KT 10SM CLR 32/18 A2977 RMK AO2
     T03150178 PWINO=
KF00 232115Z AUTO 15020G31KT 10SM CLR 29/15 A2976 RMK AO2
     T02870153=
KRWV 232115Z AUTO 15016G24KT 10SM SCT050 30/17 A2982 RMK AO2
     T02970166=
KRYW 232115Z AUTO 17009G17KT 140V220 10SM SCT049 28/15 A2981 RMK
     AO2 T02790152=
KS33 232115Z AUTO 27003KT 10SM SCT042 10/00 A3014 RMK AO2=
KSAA 232115Z AUTO 26014G19KT 5SM -SN SCT011 BKN024 OVC028 00/00
     A2960 RMK AO2=
KT41 232115Z AUTO 10SM SCT043 28/17 A2990 RMK AO2 T02810171=
KTEX 232115Z AUTO 29011G19KT 7SM -SN SCT010 BKN032 OVC050 M01/M07
     A2973 RMK AO2=
KVTP 232115Z AUTO 25017G28KT 10SM SCT019 BKN029 OVC036 M10/M16
     A2964 RMK AO2=
K04V 232115Z AUTO 27012G21KT 10SM SCT047 SCT060 BKN070 08/M03
     A2961 RMK AO2=
K17J 232115Z AUTO 07003KT 10SM CLR 25/03 A3011 RMK AO2
     T02520026=
