SAUS70 KWBC 231740 RRK
METAR
KADU 231735Z AUTO 17017G27KT 10SM 25/13 A2947 RMK AO2 PWINO=
KAFK 231735Z AUTO 19021G35KT 10SM CLR 28/13 A2945 RMK AO2
     T02770130=
KAIO 231735Z AUTO 18020G25KT 9SM CLR 26/15 A2945 RMK AO2=
KAJG 231735Z AUTO 17020G30KT 10SM CLR 26/11 A3000 RMK AO2
     T02630110=
KAJR 231735Z AUTO 23003KT 10SM CLR 22/03 A3021 RMK AO2
     T02210033=
KAJZ 231735Z AUTO 12005KT 10SM SCT012 SCT049 BKN095 06/03 A2963
     RMK AO2 T00620033=
KAQO 231735Z AUTO 18015G23KT 9SM FEW040 28/15 A2986 RMK AO2=
KASL 231735Z AUTO 00000KT 10SM OVC044 27/16 A2993 RMK AO2
     T02730158 TSNO $=
KASW 231735Z AUTO 19010G17KT 130V220 10SM CLR 23/11 A3003 RMK AO2
     T02360119=
KAUH 231735Z AUTO 18021G27KT 10SM CLR 28/11 A2932 RMK AO2
     T02760113=
KAUN 231735Z AUTO VRB06KT 10SM CLR 15/M03 A2996 RMK A01=
KAWG 231735Z AUTO 18024G29KT 10SM CLR 25/15 A2967 RMK AO2=
KAXA 231735Z AUTO 15022G32KT 9SM CLR 23/14 A2949 RMK A01=
KAZE 231735Z AUTO 00000KT 10SM CLR 24/12 A3015 RMK AO2
     T02370119=
KBBD 231735Z AUTO 18016G27KT 10SM CLR 25/15 A2984 RMK AO2=
KBBP 231735Z AUTO 36005G08KT 10SM CLR 22/06 A3016 RMK AO2=
KBDG 231735Z AUTO 21013G21KT 10SM 05/01 A2976 RMK AO1
     T00460012=
KBEC 231735Z AUTO 19024G34KT 10SM CLR 27/12 A2958 RMK AO2
     T02690122=
KBJI 231735Z AUTO 12009G15KT 10SM CLR 19/10 A2955 RMK AO2
     T01880099=
KBQK 231735Z AUTO 04007KT 10SM CLR 25/13 A3015 RMK AO2
     T02490126=
KBQP 231735Z AUTO 15006KT 10SM SCT045 26/15 A3005 RMK AO2
     T02620146=
KBUU 231735Z AUTO 15011G15KT 10SM CLR 22/13 A2987 RMK AO2
     T02240126 PWINO=
KBVS 231735Z AUTO 00000KT 10SM FEW029 OVC046 09/08 A3013 RMK
     A01=
KBYY 231735Z AUTO 18018G23KT 10SM SCT060 28/16 A2996 RMK AO2
     T02890166=
