SAUS70 KWBC 232000 RRK
METAR
KMKE 231952Z 14015KT 10SM FEW045 21/13 A2983 RMK AO2 SLP100
     T02110128 $=
KMLI 231952Z 15018G27KT 10SM CLR 25/14 A2969 RMK AO2 PK WND
     14031/1914 SLP052 T02500139=
KMRJ 231955Z AUTO 15016G24KT 10SM CLR 23/10 A2972 RMK AO2=
KOWA 231953Z AUTO 13018G31KT 10SM CLR 24/13 A2951 RMK AO2=
KRAP 231952Z 34030G41KT 10SM CLR 09/03 A2928 RMK AO2 PK WND
     35050/1911 SLP916 T00940033 $=
KTAN 231952Z AUTO A3030 RMK AO2 SLPNO PWINO FZRANO TSNO $=
PAAQ 231953Z 00000KT 10SM CLR M02/M03 A2986 RMK AO2 SLP117
     T10171033=
PABR 231953Z 12018KT 10SM FEW050 M06/M08 A2997 RMK AO2 PK WND
     12032/1858 SLP149 T10611078=
PACV 231953Z 17004KT 10SM SCT200 04/M01 A2964 RMK AO2 SLP036
     T00441011=
PAEN 231953Z 19004KT 10SM CLR 01/M02 A2993 RMK AO2 SLP137
     T00061022=
PAGY 231953Z AUTO 02008KT 10SM FEW120 08/M02 A2958 RMK AO2 PRESFR
     SLP015 T00831017 TSNO $=
PAIL 231953Z 29011KT 10SM FEW020 01/M04 A3004 RMK AO2 SLP175
     T00061039=
PAKT 231953Z 14018G32KT 3SM RA BR FEW010 BKN018 OVC026 06/04 A2945
     RMK AO2 PK WND 11038/1858 SLP974 HARBOR WIND 12025KT ROOF
     WIND 13025G45KT P0006 T00560039=
PAKV 231953Z AUTO 00000KT 10SM OVC011 M03/M04 A3002 RMK AO2 SLP168
     T10331039 TSNO=
PAKW 231953Z AUTO 00000KT 5SM -RA BR FEW026 BKN033 OVC041 08/07
     A2931 RMK AO2 SLP927 P0002 T00780067 TSNO $=
PALH 231953Z 02003KT 10SM CLR M01/M06 A2991 RMK AO2 SLP130
     T10061056=
PAMR 231953Z 00000KT 10SM CLR M01/M05 A2990 RMK AO2 SLP127
     T10111050=
PAPB 231953Z AUTO 24026G34KT 7SM FEW018 BKN030 OVC037 07/ A2983
     RMK AO2 PK WND 24036/1939 SLP088 T0067 TSNO $=
PASC 231953Z 10009KT 10SM BKN033 M11/M12 A3001 RMK AO2 SLP164
     I1000 T11061117 PNO $=
PASO 231953Z AUTO 01006KT 10SM CLR 03/00 A2991 RMK AO2 SLP129
     T00280000 TSNO=
PATO 231953Z AUTO 26010G19KT 10SM CLR M01/M04 A2984 RMK AO2 SLP106
     T10061044 TSNO=
KGMU 231953Z 14004KT 10SM CLR 23/03 A3016 RMK AO2 SLP209
     T02330028=
KGSP 231953Z 00000KT 10SM CLR 22/03 A3016 RMK AO2 SLP208
     T02220028=
KGTF 231953Z 35017G26KT 3SM -SN BR OVC007 00/M01 A2984 RMK AO2 PK
     WND 35027/1935 TWR VIS 4 CIG 006V012 SLP144 P0000 T00001006
     $=
KGVL 231953Z AUTO VRB03KT 10SM CLR 23/04 A3017 RMK AO2 SLP208
     T02330039=
KHAE 231955Z AUTO 15012G20KT 123V193 10SM CLR 27/13 A2970 RMK
     AO2=
KHHR 231953Z 25011G16KT 10SM FEW060 22/11 A2985 RMK AO2 SLP107
     T02220106=
KHIO 231953Z 00000KT 10SM BKN055 13/07 A3017 RMK AO2 SLP217
     T01280067=
KHJO 231953Z AUTO 34012G21KT 10SM CLR 21/01 A2993 RMK AO2 SLP137
     T02060006=
KHKY 231953Z VRB03KT 10SM CLR 22/07 A3016 RMK AO2 SLP198
     T02220072=
KHLN 231953Z 32014KT 4SM -SN BKN018 OVC025 02/M01 A2985 RMK AO2
     SNE10B41 SLP146 P0000 T00221011=
KHQM 231953Z AUTO 08006KT 10SM FEW027 SCT032 13/08 A3016 RMK AO2
     SLP216 T01280078=
KHRI 231953Z AUTO 25009KT 10SM CLR 13/02 A3010 RMK AO2 SLP193
     T01330022=
KHSP 231955Z AUTO 09005KT 5SM HZ CLR 17/M01 A3026 RMK AO2
     T01681011=
KHWO 231953Z 04015G20KT 10SM FEW041 28/18 A3002 RMK AO2 SLP165
     T02830183=
KHZY 231953Z AUTO 13006KT 10SM CLR 22/06 A3017 RMK AO2 SLP215
     T02220056=
KIDA 231953Z 33006KT 9SM SCT035 BKN043 OVC050 04/M04 A2980 RMK AO2
     PK WND 35027/1929 RAB31E34SNB34E50 SLP100 P0000 T00391044=
KJER 231953Z AUTO 28018G31KT 10SM CLR 07/M02 A2987 RMK AO2 PK WND
     26032/1929 SLP120 T00721022=
KJFX 231955Z AUTO 11005KT 10SM CLR 25/07 A3010 RMK AO2=
KL18 231955Z AUTO 00000KT 10SM SCT041 19/08 A2986 RMK AO2=
KLEE 231953Z 29005KT 10SM CLR 28/14 A3007 RMK AO2 SLP182 T02830144
     $=
