SAUS70 KWBC 231800 RRL
METAR
KMCD 231755Z AUTO 14007KT 100V190 10SM CLR 21/11 A3002 RMK AO2
     T02050111 10205 20131=
KMKY 231756Z AUTO 08010KT 10SM CLR 29/17 A3006 RMK AO2 SLP178
     T02890167 10294 20189 58017 TSNO $=
KMNM 231756Z AUTO 18010G15KT 10SM CLR 17/12 A2990 RMK AO2 SLP126
     6//// T01720117 10178 20111 58011 PNO $=
K04W 231755Z AUTO 11012G16KT 10SM CLR 22/12 A2961 RMK AO2=
K14Y 231755Z AUTO 12013G18KT 10SM CLR 21/11 A2951 RMK AO2=
K1M4 231756Z AUTO VRB06KT 10SM CLR 23/09 A3018 RMK AO2 SLP205
     T02330089 10233 20100 58015=
K21D 231755Z AUTO 15012G22KT 10SM CLR 22/12 A2961 RMK AO2=
K22N 231755Z AUTO 00000KT 10SM OVC050 15/05 A3028 RMK AO2=
K3N8 231755Z AUTO 12009G17KT 10SM CLR 21/11 A2947 RMK AO2
     T02050106 10205 20058=
K6B0 231755Z AUTO 00000KT 10SM CLR 18/06 A3031 RMK AO2 T01830057
     10184 20042=
K7N0 231756Z AUTO 16008KT 10SM CLR 26/14 A3011 RMK AO2 SLP195
     6//// T02610139 10261 20206 58012 PNO $=
KACB 231755Z AUTO 13012G19KT 10SM CLR 24/11 A2999 RMK AO2
     T02390111 10242 20109=
KADF 231756Z AUTO 19015G20KT 10SM OVC040 27/17 A2995 RMK AO2
     SLP140 T02670167 10267 20172 58017=
KAEL 231755Z AUTO 16019G26KT 10SM CLR 23/13 RMK AO2=
KAIZ 231756Z AUTO 17016G21KT 10SM CLR 27/14 RMK AO2 PK WND
     19027/1723 SLPNO T02720144 10272 20189 $=
KAJO 231756Z AUTO 00000KT 10SM FEW026 19/12 A2988 RMK AO2 SLP111
     T01890117 10189 20111 50010=
KARG 231756Z AUTO 19023G28KT 10SM OVC035 24/15 A2996 RMK AO2 PK
     WND 20029/1658 SLP143 T02440150 10250 20183 58010=
KASH 231756Z 00000KT 10SM CLR 14/08 A3035 RMK AO2 SLP282 T01440083
     10144 20039 58013 $=
KAUM 231756Z AUTO 16013G23KT 10SM CLR 23/13 A2958 RMK AO2=
KAXV 231755Z AUTO 19012G20KT 10SM CLR 23/10 A3011 RMK AO2=
KBHB 231756Z AUTO 12004KT 10SM CLR 17/11 A3037 RMK AO2 SLP285
     6//// T01670111 10167 20067 58012 PNO $=
KBID 231756Z AUTO 04013G18KT 10SM -RA FEW033 SCT041 BKN047 14/12
     A3026 RMK AO2 SLP249 P0001 60002 T01390117 10144 20139
     58018=
KBLM 231756Z AUTO 05015G19KT 10SM BKN019 OVC110 16/13 A3025 RMK
     AO2 SLP242 60001 T01560133 10156 20150 58006=
KBMI 231756Z 18021G31KT 10SM CLR 23/14 A2988 RMK AO2 PK WND
     18031/1748 SLP109 T02330144 10233 20161 58016=
KBVI 231755Z AUTO 00000KT 10SM CLR 24/02 A3022 RMK AO2
     T02350019=
KBVX 231756Z AUTO 20011G16KT 10SM OVC032 24/16 A2996 RMK AO2
     SLP141 T02390156 10239 20183 58011=
KCAD 231755Z AUTO 16008KT 10SM SCT047 BKN050 22/11 A2999 RMK AO2
     T02180112 10220 20126=
KCDA 231755Z AUTO 11004KT 10SM 18/06 A3035 RMK AO2 T01760060 10176
     20023=
KCDI 231755Z AUTO 00000KT 10SM CLR 22/10 A3019 RMK AO2 T02210095
     10225 20038=
KCGZ 231756Z AUTO 27016KT 10SM OVC070 22/08 A2980 RMK AO2 SLP080
     6//// T02220083 10222 20189 51003 $=
KCIU 231756Z AUTO 15017G20KT 10SM CLR 21/12 A3003 RMK AO2 SLP171
     T02110117 10211 20094 58006=
KCMA 231755Z 00000KT 10SM CLR 20/08 A2987 RMK AO2 SLP122 T02000083
     10206 20106 50014=
KCNB 231755Z AUTO 10022G30KT 10SM CLR 23/12 A2938 RMK AO2
     T02250116 10225 20059=
KVIS 231756Z AUTO 32007KT 10SM CLR 16/04 A2996 RMK AO2 SLP152
     T01560039 10156 20072 51018=
KVLL 231755Z AUTO 17010G14KT 10SM CLR 22/10 A3015 RMK AO2
     T02210104 10226 20085=
KVWU 231755Z AUTO 12013KT 10SM CLR 23/11 A2956 RMK AO2=
KWVL 231756Z AUTO 00000KT 10SM CLR 16/08 A3034 RMK AO2 SLP302
     T01560083 10161 20061 58014=
KWWD 231756Z AUTO 04018G26KT 3SM -RA BR 16/15 A3016 RMK AO2 PK WND
     05026/1751 RAB1658 SLP214 P0000 60000 T01560150 10178 20150
     58012 $=
KY50 231756Z AUTO 15014G17KT 10SM CLR 23/13 A2980 RMK AO2 SLP084
     6//// T02280128 10228 20133 58020 $=
