SAUS70 KWBC 231900 RRC
METAR
KMDD 231855Z AUTO 18014G23KT 10SM CLR 27/12 A2975 RMK AO2
     T02710123=
KMGR 231855Z AUTO 35003KT 10SM CLR 25/08 A3014 RMK AO2=
KMKS 231855Z AUTO 34003KT 10SM CLR 22/10 A3014 RMK AO2=
KMPR 231855Z AUTO 18027G36KT 7SM HZ CLR 29/12 A2944 RMK AO2
     T02880124=
KMWK 231855Z AUTO 00000KT 10SM CLR 21/05 A3020 RMK AO2
     T02070050=
KMWO 231855Z AUTO 17010KT 140V200 10SM SCT055 25/08 A3011 RMK AO2
     T02480079=
KMZZ 231855Z AUTO 20015G24KT 10SM SCT050 24/11 A3004 RMK AO2
     T02420109=
KOEL 231855Z AUTO 25032G41KT 5SM HZ CLR 30/M07 A2929 RMK AO1
     T02951067=
KOLM 231854Z 18006KT 10SM SCT009 09/07 A3017 RMK AO2 SLP216
     T00940067 $=
KOLY 231855Z AUTO 17021G26KT 10SM BKN049 25/11 A2997 RMK AO2
     T02530106=
KONX 231855Z AUTO 36012G18KT 10SM OVC008 17/17 A3007 RMK AO2
     T01680168=
KPCD 231855Z AUTO 20016G31KT 170V250 10SM OVC036 24/17 A2991 RMK
     AO2 T02400165=
KPEZ 231855Z AUTO 15013G18KT 10SM BKN045 BKN050 30/18 A2983 RMK
     AO2 T02960179=
KPHN 231855Z AUTO 15009KT 10SM CLR 24/07 A3012 RMK AO2=
KPMV 231855Z AUTO 16019G32KT 10SM CLR 29/13 A2940 RMK AO2
     T02940129=
KPPO 231855Z AUTO 17018G28KT 10SM CLR 25/15 A2995 RMK AO2
     T02480154=
KAJO 231856Z AUTO VRB04KT 10SM FEW036 SCT046 SCT060 20/11 A2987
     RMK AO2 SLP108 T02000106=
KCMA 231855Z 25005KT 10SM CLR 21/10 A2987 RMK AO2 SLP122
     T02110100=
KFNL 231856Z 10007KT 070V140 10SM FEW090 19/01 A2931 RMK AO2
     SLP877 T01890006=
KGXY 231856Z 35011G20KT 10SM FEW095 18/01 A2931 RMK AO2 WSHFT 1818
     SLP905 T01830011 $=
KO69 231855Z AUTO 01009G18KT 10SM CLR 19/M02 A3002 RMK A01=
KP08 231855Z AUTO 28014KT 10SM OVC055 21/08 A2979 RMK AO2=
KPRS 231855Z AUTO 18004KT 10SM CLR 30/11 A2982 RMK AO2
     T03000111=
KPVU 231856Z 31019G23KT 10SM CLR 07/M01 A2979 RMK AO2 PK WND
     31031/1822 SLP086 T00671006=
KPWT 231856Z AUTO 22004KT 10SM OVC002 07/07 A3016 RMK AO2 SLP221
     T00720072=
KRTS 231855Z AUTO 35009KT 10SM BKN048 BKN055 05/M09 A3005 RMK
     AO2=
KUVA 231855Z AUTO 16013G17KT 10SM CLR 28/17 A2984 RMK AO2
     T02750172=
K0A0 231855Z AUTO 24020G26KT 10SM FEW060 21/05 A2978 RMK AO2=
K0F2 231855Z AUTO 15020G28KT 10SM CLR 29/15 A2973 RMK AO2
     T02870151=
K3S8 231855Z AUTO 00000KT 10SM BKN008 08/06 A3024 RMK AO2=
K65S 231855Z AUTO 00000KT 10SM FEW005 SCT009 BKN016 06/06 A3000
     RMK AO2=
KAWO 231856Z AUTO 17005KT 10SM FEW027 10/07 A3016 RMK AO2 SLP218
     T01000067=
KHHF 231855Z AUTO 18017G25KT 10SM CLR 28/12 A2956 RMK AO2
     T02780122=
KMVH 231855Z AUTO 31021G27KT 2 1/2SM HZ CLR 00/M02 A2962 RMK AO2
     PWINO=
KOTH 231856Z 13004KT 10SM FEW055 13/09 A3023 RMK AO2 SLP236
     T01280094=
KPKV 231855Z AUTO 15019G26KT 10SM SCT037 SCT050 SCT060 30/19 A2989
     RMK AO2 T03040192=
KSEZ 231855Z AUTO 27014G24KT 10SM 13/02 A2982 RMK AO2=
KSWW 231855Z AUTO 20022G27KT 10SM CLR 29/12 A2976 RMK AO2
     T02900119=
KSZT 231855Z AUTO 05005KT 10SM CLR 08/02 A3000 RMK AO2=
KT89 231855Z AUTO 09003KT 10SM CLR 29/05 A2978 RMK A01=
KU68 231855Z AUTO 31026G32KT 10SM SCT065 OVC080 03/00 A2962 RMK
     AO2=
KVCV 231855Z AUTO 32010KT 220V010 10SM CLR 15/M05 A2993 RMK
     AO2=
K1H2 231855Z AUTO 15014G23KT 10SM OVC042 24/14 A2995 RMK AO2
     T02430141=
K2G2 231855Z AUTO 12003KT 10SM CLR 23/03 A3018 RMK A01=
KANW 231855Z AUTO 19021G26KT 10SM CLR 27/00 A2915 RMK AO2
     T02701001=
KBTN 231855Z AUTO 11022G30KT 10SM CLR 22/11 A2928 RMK AO2=
KGRN 231855Z AUTO 32010G18KT 10SM CLR 11/01 A2926 RMK AO2
     T01130005=
KGVQ 231856Z AUTO 10007KT 10SM CLR 22/06 A3022 RMK AO2 SLP231
     T02170061=
