SAUS70 KWBC 231840 RRB
METAR
KF70 231835Z AUTO 20004KT 10SM SCT030 16/08 A2988 RMK AO2=
KHAF 231835Z AUTO 33015KT 8SM CLR 16/08 A3003 RMK AO2=
KORS 231835Z AUTO 18005KT 10SM FEW026 FEW042 11/08 A3013 RMK
     AO2=
KS33 231835Z AUTO 18003KT 10SM CLR 08/00 A3013 RMK AO2=
KSVC 231835Z AUTO 25015G23KT 10SM CLR 19/05 A2986 RMK AO2
     T01930053=
KT69 231835Z AUTO 16017G23KT 10SM CLR 29/21 A2986 RMK A01=
K2G2 231835Z AUTO 00000KT 10SM CLR 22/03 A3019 RMK A01=
KANW 231835Z AUTO 20021G29KT 10SM CLR 26/00 A2916 RMK AO2
     T02610000=
KBBB 231835Z AUTO 15020G26KT 10SM CLR 23/12 A2939 RMK AO2=
KCAD 231835Z AUTO 16011G22KT 10SM BKN050 22/11 A2998 RMK AO2
     T02190106=
KCKC 231835Z AUTO 12006G14KT 10SM SCT100 18/11 A2978 RMK AO2=
KCVX 231835Z AUTO 16009G16KT 130V190 10SM SCT055 24/12 A2997 RMK
     AO2 T02350117=
KFKA 231835Z AUTO 15022G26KT 7SM CLR 23/13 A2962 RMK AO2
     T02260127=
KFKS 231835Z AUTO 15012G17KT 10SM CLR 24/12 A2993 RMK AO2
     T02350116=
KHZX 231835Z AUTO 09011G16KT 10SM CLR 22/12 A2959 RMK AO2=
KIGQ 231835Z AUTO 18023G28KT 10SM CLR 25/14 A2990 RMK AO2
     T02520135=
KJYM 231835Z AUTO 17014G18KT 10SM SCT050 23/08 A3007 RMK AO2
     T02260080=
KLCG 231835Z AUTO 18023G31KT 10SM CLR 29/11 A2931 RMK AO2
     T02870110=
KOEB 231835Z AUTO 18013G20KT 10SM SCT055 24/11 A3005 RMK AO2
     T02400105=
KPJC 231835Z AUTO RMK AO2 TSNO PWINO=
KRQB 231835Z AUTO 19010G23KT 10SM CLR 24/11 A2999 RMK AO2
     T02350112=
KSJX 231835Z AUTO 16009KT 10SM CLR 24/12 A2998 RMK AO2
     T02350115=
KTNU 231835Z AUTO 16017G29KT 10SM CLR 25/14 A2956 RMK A01=
KUSE 231835Z AUTO 16012G22KT 10SM FEW055 25/10 A3008 RMK AO2=
KXLL 231835Z AUTO 04008KT 10SM CLR 16/09 A3026 RMK AO2=
K0F2 231835Z AUTO 16019G27KT 10SM CLR 28/16 A2974 RMK AO2
     T02820155=
KBAM 231835Z AUTO 31010G14KT 10SM SCT027 BKN035 OVC055 03/00 A3002
     RMK AO1=
KINJ 231835Z AUTO 19023G29KT 10SM OVC044 29/17 A2983 RMK AO2
     T02860165=
KJTC 231830Z AUTO 24024G33KT 10SM FEW035 SCT041 BKN048 15/03 A2982
     RMK AO2=
KJWY 231835Z AUTO 18016G27KT 10SM BKN046 28/16 A2985 RMK AO2
     T02830161=
KLNC 231835Z AUTO 15023G29KT 10SM BKN049 28/15 A2984 RMK AO2
     T02780151=
KM75 231835Z AUTO 01014KT 2SM BR CLR 01/01 A2963 RMK A01=
KMEV 231835Z AUTO 32006KT 10SM CLR 06/M03 A3004 RMK AO2=
KU68 231835Z AUTO 31025G30KT 10SM OVC065 03/00 A2962 RMK AO2=
KUVA 231835Z AUTO 14012G17KT 10SM CLR 26/18 A2985 RMK AO2
     T02640175=
KAVQ 231835Z AUTO 25012G17KT 10SM SCT050 SCT055 24/08 A2980 RMK
     AO2 T02410079=
KAXH 231835Z AUTO 19006G17KT 10SM SCT060 30/15 A2993 RMK AO2
     T03010145=
KAZC 231835Z AUTO 31015G25KT 10SM SCT043 SCT049 07/M01 A2986 RMK
     AO2=
KBDU 231835Z AUTO 23010G19KT 10SM CLR 18/M03 A2932 RMK AO2=
KBKD 231835Z AUTO 19020G26KT 10SM CLR 29/15 A2975 RMK AO2
     T02940145=
KBPC 231835Z AUTO 22022G32KT 10SM CLR 28/08 A2958 RMK AO2=
KC07 231835Z AUTO 21004KT 1 1/2SM -SN BKN003 BKN006 OVC013 M02/M02
     A2959 RMK AO2=
KC83 231835Z AUTO 34020G25KT 10SM CLR 19/M02 A3000 RMK AO2=
KCWC 231835Z AUTO 18022G29KT 10SM CLR 30/14 A2970 RMK AO2
     T03040140=
KCXP 231835Z AUTO VRB04KT 10SM SCT044 BKN060 06/M05 A3005 RMK
     AO2=
KDTA 231835Z AUTO 36014G18KT 10SM SCT036 SCT045 BKN120 04/M02
     A2984 RMK AO1=
KDZB 231835Z AUTO 18012G25KT 10SM CLR 29/14 A2985 RMK AO2
     T02940139=
KECS 231835Z AUTO 33025G33KT 10SM OVC011 03/00 A2939 RMK AO2=
KFLY 231835Z AUTO 24015G25KT CLR 16/M02 A2949 RMK AO2 T01601020
     PWINO=
KGDJ 231835Z AUTO 18022G29KT 10SM CLR 28/16 A2980 RMK AO2
     T02790157=
KGOO 231835Z AUTO 03008KT 350V070 10SM CLR 12/M08 A2996 RMK
     A01=
