SAUS70 KWBC 232018 RRE
METAR
KSXU 232015Z AUTO 23026G34KT 10SM CLR 23/00 A2961 RMK AO2
     T02291001=
KSYM 232015Z AUTO 14007G14KT 110V180 10SM CLR 24/02 A3013 RMK
     AO2=
KS24 232015Z AUTO 17009G14KT 10SM CLR 25/08 A3009 RMK AO2=
KARM 232015Z AUTO 16015G21KT 10SM SCT046 SCT050 OVC055 28/16 A2988
     RMK AO2 T02810161 TSNO=
KASN 232015Z AUTO 16004KT 10SM CLR 25/04 A3012 RMK AO2
     T02500043=
KAVK 232015Z AUTO 19031G43KT 7SM CLR 27/12 A2950 RMK AO2 PWINO=
KAVQ 232015Z AUTO 31011G17KT 10SM CLR 23/08 A2978 RMK AO2
     T02250084=
KAXH 232015Z AUTO 18011G19KT 10SM CLR 30/11 A2990 RMK AO2
     T03030112=
KAXS 232015Z AUTO 18019G25KT 7SM CLR 30/11 A2961 RMK AO2
     T03000111=
KAZC 232015Z AUTO 32014G20KT 10SM SCT050 BKN090 OVC110 07/M02
     A2988 RMK AO2=
KBAM 232015Z AUTO 33010G15KT 10SM SCT033 BKN041 BKN060 05/00 A3003
     RMK AO1=
KBDU 232015Z AUTO 26015G18KT 10SM CLR 18/M05 A2933 RMK AO2=
KBGF 232015Z AUTO 16006KT 10SM CLR 23/05 A3010 RMK A01=
KBKD 232015Z AUTO 18015G21KT 5SM HZ CLR 31/14 A2970 RMK AO2
     T03130141=
KBNW 232015Z AUTO 15021KT 9SM FEW120 26/15 A2950 RMK AO2=
KBPC 232015Z AUTO 21023G28KT 10SM CLR 26/08 A2953 RMK AO2 PNO=
KBTA 232015Z AUTO 16017G32KT 10SM CLR 30/13 A2934 RMK AO2
     T02950130=
KBTN 232015Z AUTO 12029G37KT 7SM CLR 22/12 A2921 RMK AO2=
KBXA 232015Z AUTO 14010KT 10SM CLR 28/12 A3006 RMK AO2
     T02810120=
KC07 232015Z AUTO 29008G16KT M1/4SM +SN OVC001 M06/M06 A2958 RMK
     AO2 P0001=
KC09 232015Z AUTO 19020G28KT 10SM CLR 26/15 A2981 RMK AO2
     T02630145=
KC83 232015Z AUTO 33019G26KT 10SM CLR 21/M04 A2998 RMK AO2=
KCCY 232015Z AUTO 15022G31KT 9SM CLR 23/13 A2956 RMK AO2=
KCRX 232015Z AUTO 18010G15KT 10SM CLR 25/06 A3004 RMK AO2=
KCSQ 232015Z AUTO 17019G28KT CLR 27/14 A2947 RMK AO2=
KCVC 232015Z AUTO 00000KT 10SM CLR 23/02 A3014 RMK AO2=
KCWC 232015Z AUTO 16023G30KT 10SM CLR 32/14 A2965 RMK AO2
     T03150135=
KCXP 232015Z AUTO VRB03KT 10SM OVC055 07/M09 A3005 RMK AO2=
KCXU 232015Z AUTO 12005KT 10SM CLR 26/04 A3011 RMK AO1
     T02550039=
KCXW 232015Z AUTO 19017KT 10SM SCT047 27/16 A2986 RMK A01=
KCZL 232015Z AUTO 00000KT 10SM CLR 25/03 A3015 RMK AO2=
KDEH 232015Z AUTO 14014G26KT 10SM CLR 23/13 A2960 RMK AO2=
KDKX 232015Z AUTO 00000KT 10SM CLR 24/04 A3013 RMK A01=
KDTA 232015Z AUTO 35013G19KT 10SM SCT041 SCT060 OVC070 04/M03
     A2986 RMK AO1=
KDUA 232015Z AUTO 17021G33KT 10SM CLR 29/12 A2977 RMK AO2=
KDZB 232015Z AUTO 17014G21KT 150V210 10SM SCT050 29/14 A2979 RMK
     AO2 T02910140=
KECS 232015Z AUTO 33022G29KT 10SM RA OVC013 02/00 A2943 RMK
     AO2=
K05U 232015Z AUTO 35015G21KT 10SM 02/M03 A2999 RMK A01=
K0A0 232015Z AUTO 22018G29KT 10SM FEW070 22/04 A2974 RMK AO2=
K0A9 232015Z AUTO 25004KT 7SM CLR 23/04 A3014 RMK A01=
K0CO 232015Z AUTO 34007G18KT 271V071 M1/4SM FZFG OVC001 M06/M07
     A2959 RMK AO2=
K0F2 232015Z AUTO 17017G25KT 10SM CLR 29/15 A2970 RMK AO2
     T02910152=
K0R0 232015Z AUTO 20009KT 8SM CLR 29/10 A3007 RMK AO2=
K13K 232015Z AUTO 19030G37KT 10SM CLR 27/14 A2956 RMK AO2
     T02730143=
K18A 232015Z AUTO 11003KT 10SM CLR 24/00 A3015 RMK AO2
     T02390002=
K1A9 232015Z AUTO 00000KT 10SM CLR 25/04 A3011 RMK AO2
     T02480038=
K1K1 232015Z AUTO 19027G46KT 10SM CLR 27/12 A2952 RMK AO2
     T02730121=
K1M5 232015Z AUTO 18012G18KT 10SM CLR 25/08 A3006 RMK A01=
K1V6 232015Z AUTO 23016G25KT 10SM CLR 20/M03 A2941 RMK AO2=
K2A0 232015Z AUTO 24005KT 10SM CLR 24/04 A3011 RMK A01=
K2G2 232015Z AUTO 11006KT 10SM CLR 23/02 A3016 RMK A01=
K2M2 232015Z AUTO 18008G13KT 150V210 10SM CLR 24/06 A3008 RMK
     A01=
