SAPA31 KWBC 232100 RRB
METAR
AYPY 232100Z VRB03KT 9999 FEW070 25/25 Q1009=
