SAUS70 KWBC 231700
METAR
KFFM 231655Z AUTO 12016G20KT 10SM CLR 19/11 A2945 RMK AO2=
KFOK 231653Z 04010KT 10SM -RA BKN110 14/13 A3026 RMK AO2 PRESFR
     SLP246 P0002 T01440133 $=
KFXE 231653Z 06008KT 10SM FEW039 29/19 A3006 RMK AO2 SLP182
     T02940194=
KGCK 231654Z 22033G48KT 3SM BLDU CLR 28/05 A2940 RMK AO2 PK WND
     23048/1633 SLP923 P0000 T02830050=
KGCN 231654Z 26010G22KT 10SM SCT016 SCT022 03/M01 A2982 RMK AO2
     SLP052 T00281006=
KGED 231654Z AUTO 03009KT 10SM -RA OVC018 17/14 A3018 RMK AO2
     RAE11B30 SLP217 P0000 T01670139=
KGGW 231653Z AUTO 04014KT 8SM -RA OVC020 04/03 A2952 RMK AO2
     SLP010 P0004 T00440028=
KGHW 231655Z AUTO 12018G22KT 10SM CLR 21/12 A2949 RMK AO2=
KGYL 231655Z AUTO 14014G21KT 7SM CLR 21/12 A2955 RMK AO2
     T02120120=
KHAF 231655Z AUTO 34012KT 7SM CLR 14/08 A3002 RMK AO2=
KHCO 231655Z AUTO 07013KT 10SM CLR 13/08 A2954 RMK AO2=
KILN 231654Z AUTO 21009KT 10SM CLR 23/10 A3016 RMK AO2 SLP211
     T02280100=
KIND 231654Z 19016G24KT 10SM FEW050 24/11 A3006 RMK AO2 PK WND
     18026/1635 SLP174 T02390111 $=
KIPT 231654Z 00000KT 10SM BKN034 14/06 A3029 RMK AO2 SLP258
     T01440061=
KIZG 231654Z AUTO 00000KT 10SM CLR 16/06 A3037 RMK AO2 SLP288
     T01560056=
KLAF 231654Z 18015G26KT 10SM FEW070 24/12 A3000 RMK AO2 PK WND
     17028/1631 SLP155 T02440122=
KLWM 231654Z 05005KT 10SM CLR 15/08 A3037 RMK AO2 SLP283
     T01500083=
KMGJ 231654Z AUTO 03007KT 10SM FEW120 13/07 A3029 RMK AO2 SLP260
     T01330067=
KMIV 231654Z AUTO 04010KT 10SM BKN015 OVC020 17/14 A3020 RMK AO2
     SLP224 T01670139 $=
KMKC 231654Z 19022G34KT 10SM CLR 27/14 A2962 RMK AO2 PK WND
     20034/1654 SLP022 T02670144=
KMQJ 231655Z AUTO RMK AO1=
KMYF 231653Z COR 15003KT 10SM BKN039 17/11 A2988 RMK AO2 SLP116
     T01670106=
KOFP 231654Z AUTO VRB04KT 10SM OVC016 16/12 A3022 RMK AO2 RAB07E17
     SLP231 P0000 T01560117=
KOLS 231654Z AUTO 22008KT 10SM SCT030 BKN036 19/09 A2990 RMK AO2
     SLP068 T01940094=
KOVL 231655Z AUTO 14017G26KT 7SM CLR 21/11 A2948 RMK AO2=
KOZW 231655Z AUTO 14009KT 10SM CLR 20/12 A3012 RMK AO2
     T02020116=
K14Y 231655Z AUTO 13014G18KT 10SM CLR 19/11 A2954 RMK AO2=
K21D 231655Z AUTO 14012KT 10SM CLR 21/12 A2963 RMK AO2=
KACQ 231655Z AUTO 14018G25KT 10SM CLR 21/12 A2959 RMK AO2=
KAKO 231653Z AUTO 23022G30KT 23/M03 A2927 RMK AO2 PK WND
     24031/1647 SLP852 T02281033 $=
KALO 231654Z 15018G28KT 10SM CLR 24/13 A2963 RMK AO2 PK WND
     16033/1620 SLP030 T02390128=
KAMN 231655Z AUTO 14011KT 10SM CLR 23/10 A3007 RMK AO2
     T02290099=
KAXV 231655Z AUTO 17011G17KT 10SM CLR 22/10 A3014 RMK AO2=
KBFL 231654Z 34008KT 9SM CLR 15/02 A2996 RMK AO2 SLP141
     T01500022=
KBJC 231647Z 17010KT 10SM BKN120 BKN200 220/M03 A2933=
KBOS 231654Z 03007KT 10SM FEW020 SCT140 OVC200 14/10 A3035 RMK AO2
     SLP277 T01390100=
KBUY 231654Z AUTO 04006KT 10SM CLR 19/06 A3021 RMK AO2 SLP227
     T01940061=
KBWI 231654Z 02009KT 10SM FEW024 OVC050 19/10 A3022 RMK AO2 SLP234
     T01890100 $=
KCBG 231655Z AUTO 12008KT 10SM CLR 22/11 A2961 RMK AO2=
KCOQ 231655Z AUTO 11005KT 10SM BKN070 BKN090 15/09 A2967 RMK AO2
     TSNO=
KCVH 231655Z AUTO 00000KT 10SM CLR 13/06 A3001 RMK A01=
KDEC 231654Z 18020G31KT 10SM CLR 23/15 A2993 RMK AO2 PK WND
     16031/1645 SLP130 T02280150=
KDLZ 231655Z AUTO 22007KT 10SM CLR 21/10 A3018 RMK AO2=
KDRM 231655Z AUTO 17007KT 130V200 10SM CLR 18/11 A3008 RMK AO2
     T01780105=
KDXR 231653Z 05003KT 10SM CLR 16/07 A3031 RMK AO2 SLP263
     T01610067=
KDXX 231655Z AUTO 13022G26KT 10SM CLR 22/12 A2942 RMK AO2=
KDYL 231654Z AUTO 04006KT 10SM CLR 17/08 A3025 RMK AO2 SLP244
     T01720083=
