SAUS70 KWBC 232100 RRJ
METAR
PATQ 232056Z AUTO 11014KT 10SM CLR M09/M11 A2993 RMK AO2 SLP140
     T10891106 50002 FZRANO TSNO=
PAZK 232056Z AUTO 00000KT 10SM OVC026 M03/M08 A2978 RMK AO2
     SNB00E10B26E37 SLP144 P0000 60000 T10331078 51006 FZRANO=
PFCL 232056Z AUTO 19005KT 10SM CLR A3011 RMK AO2 SLPNO 51003
     FZRANO TSNO $=
PFKW 232056Z AUTO 14011KT 10SM FEW032 OVC055 00/M01 A2996 RMK AO2
     SLP146 T00001006 58020 FZRANO=
PFSH 232056Z AUTO 16020G25KT 10SM BKN070 02/M01 A2991 RMK AO2
     SLP129 T00221006 58005 FZRANO=
PFWS 232056Z AUTO 13005KT 10SM CLR 03/M01 A3012 RMK AO2 SLP245
     T00281011 50001=
KEGE 232056Z 30009G17KT 10SM -RA SCT050 BKN060 OVC090 03/00 A2960
     RMK AO2 PK WND 27026/2028 RAB31 SLP960 P0000 60000 T00280000
     53003=
KEHR 232056Z AUTO 16012G20KT 10SM CLR 26/08 A2999 RMK AO2 PK WND
     17027/2018 SLP153 T02560078 56012=
KEKQ 232056Z AUTO 20009KT 10SM CLR 24/05 A3011 RMK AO2 SLP190
     T02440050 56021=
KEKY 232056Z AUTO VRB05KT 10SM CLR 25/06 A3011 RMK AO2 SLP043
     T02500056 56024=
KENV 232056Z AUTO 34015G24KT 10SM FEW065 08/M08 A2989 RMK AO2 PK
     WND 35031/2014 SLP126 T00831083 53016=
KESC 232056Z AUTO 16008KT 10SM OVC070 15/11 A2991 RMK AO2 SLP132
     6//// T01500111 58010 PNO $=
KEWK 232056Z AUTO 18038G45KT 2 1/2SM HZ CLR 28/14 A2946 RMK AO2 PK
     WND 18045/2055 VIS 1V5 SLP958 T02780139 56023=
KFAM 232056Z AUTO 18016G27KT 10SM CLR 24/14 A2988 RMK AO2 PK WND
     17029/2024 SLP123 T02390144 56015=
KFCI 232056Z AUTO 33008KT 10SM BKN007 OVC011 14/14 A3017 RMK AO2
     RAE1957 SLP227 60001 T01390139 56008=
KFFX 232055Z AUTO 15010G17KT 10SM BKN050 25/11 A2994 RMK AO2
     T02520110=
KFGN 232055Z AUTO 06007KT 10SM CLR 16/08 A2956 RMK AO2=
KFKA 232055Z AUTO 15019G27KT 10SM VCTS CLR 23/13 A2960 RMK AO2 LTG
     DSNT S T02280126=
KFKL 232056Z AUTO 13007KT 10SM CLR 20/03 A3020 RMK AO2 SLP228
     T02000028 56010=
KFKS 232055Z AUTO 17009G16KT 10SM BKN060 OVC080 24/12 A2990 RMK
     AO2 T02400124=
KFLP 232056Z AUTO 18007G15KT 10SM SCT040 26/16 A2985 RMK AO2
     SLP102 T02560161 55007=
KFNL 232056Z 04007KT 10SM SCT075 BKN100 BKN120 18/02 A2932 RMK AO2
     LTG DSNT N AND E TSB38E53RAB36E50 SLPNO 6//// T01780017=
KFOD 232056Z AUTO 14013G21KT 10SM CLR 26/14 A2945 RMK AO2 PK WND
     15030/1958 RAB07E19 SLP977 P0000 60000 T02610144 56016=
KFPK 232055Z AUTO 17012G17KT 10SM CLR 23/09 A3001 RMK AO2
     T02300089=
KFRM 232056Z AUTO 15024G32KT 10SM CLR 25/13 A2941 RMK AO2 PK WND
     17035/2038 SLP958 T02500133 56019=
KFSO 232055Z AUTO 00000KT 10SM CLR 18/06 A3029 RMK AO2
     T01770064=
KFXE 232053Z COR 04010G17KT 10SM SCT044 SCT060 28/18 A3002 RMK AO2
     SLP166 T02830183 55009=
KGAD 232056Z AUTO 15005KT 10SM CLR 24/04 A3011 RMK AO2 SLP199
     T02440039 56025 $=
KGAI 232056Z AUTO 00000KT 10SM BKN055 17/11 A3021 RMK AO2 SLP247
     T01670111 55007=
KGBD 232056Z AUTO 19029G45KT 5SM HZ FEW022 SCT034 32/12 A2934 RMK
     AO2 PK WND 18045/2052 SLP915 T03170117 55019=
KGDV 232056Z AUTO 01012KT 2 1/2SM -RA BR OVC004 05/05 A2947 RMK
     AO2 SLP991 P0000 60000 T00500050 53008=
KGTR 232056Z 17012KT 10SM CLR 24/09 A3006 RMK AO2 SLP184 T02440089
     56028=
KGTU 232056Z 17012G21KT 10SM OVC055 29/16 A2981 RMK AO2 SLP087
     T02890156 56028=
K04W 232055Z AUTO 11014G19KT 10SM SCT046 SCT050 23/13 A2954 RMK
     AO2 LTG DSNT S=
K14Y 232055Z AUTO 13014G24KT 10SM SCT045 22/12 A2943 RMK AO2=
K1M4 232056Z AUTO 17006KT 10SM CLR 24/06 A3010 RMK AO2 SLP180
     T02390061 56025=
K21D 232055Z AUTO 13015G23KT 10SM CLR 23/12 A2953 RMK AO2=
K22N 232055Z AUTO 00000KT 10SM BKN050 17/08 A3026 RMK AO2=
