SAUS70 KWBC 231912
METAR
KDYA 231915Z AUTO 17004KT 10SM CLR 26/08 A3012 RMK AO2
     T02570075=
KFRH 231915Z AUTO 18008G18KT 10SM CLR 25/07 A3003 RMK AO1=
KGWW 231915Z AUTO 32007KT 10SM SCT024 SCT070 20/13 A3011 RMK AO2
     T02000125=
KIPJ 231915Z AUTO 02003KT 10SM CLR 22/06 A3017 RMK AO2
     T02190057=
KJYO 231915Z AUTO 03007KT 10SM SCT045 BKN060 18/13 A3023 RMK
     AO2=
KMRN 231915Z AUTO 00000KT 10SM CLR 23/05 A3020 RMK AO2
     T02270046=
KMYJ 231915Z AUTO 17019G27KT 10SM SCT110 26/16 A2971 RMK AO2 LTG
     DSNT E=
KOIC 231915Z AUTO 18004KT 10SM CLR 18/09 A3030 RMK AO2
     T01810092=
KPBH 231915Z AUTO 15011G18KT 10SM SCT041 22/13 A2972 RMK AO2
     T02220127=
KPTB 231915Z AUTO 36006KT 5SM BR OVC012 15/13 A3017 RMK AO2
     T01500127=
KTGI 231915Z AUTO 34015KT 7SM OVC011 16/15 A3012 RMK AO1
     T01610150=
KVNW 231915Z AUTO 19009G19KT 10SM SCT060 25/08 A3007 RMK AO2=
