SAUS80 KWBC 231746
METAR
KROS 231743Z AUTO 13007G18KT 10SM CLR 25/13 A2961 RMK AO2=
