SAUS70 KWBC 232138 RRC
METAR
KD25 232135Z AUTO 13010G18KT 10SM OVC044 20/12 A2973 RMK AO2
     T02040120=
KD50 232135Z AUTO 02017KT 10SM OVC012 05/03 A2953 RMK AO2=
KD55 232135Z AUTO 05021G31KT 10SM CLR 13/12 A2944 RMK AO2=
KDVP 232133Z AUTO 14024G32KT 10SM CLR 25/13 A2933 RMK AO2
     T02520126=
KETH 232133Z AUTO 12028G34KT 10SM 23/12 A2929 RMK AO2=
KFOZ 232133Z AUTO 12014G18KT 10SM CLR 22/12 A2960 RMK AO2=
KHFY 232135Z AUTO 17015G21KT 10SM CLR 25/11 A3001 RMK AO2
     T02500110=
KIUA 232135Z AUTO 14005KT 10SM CLR 18/05 A3022 RMK AO2
     T01780051=
KLDJ 232135Z AUTO 04009KT 10SM OVC038 16/07 A3022 RMK AO2
     T01550069=
KLUM 232135Z AUTO 12021G24KT 10SM CLR 25/17 A2958 RMK AO2
     T02510171 PWINO=
KMDZ 232135Z AUTO 14012G22KT 10SM SCT043 22/13 A2971 RMK AO2
     T02170125 PWINO=
KMRJ 232135Z AUTO 15019G25KT 10SM CLR 22/11 A2971 RMK AO2=
KORB 232133Z AUTO 13010G16KT 10SM CLR 23/12 A2957 RMK AO2=
KOWA 232133Z AUTO 15016G22KT 10SM CLR 24/13 A2950 RMK AO2=
KRPD 232135Z AUTO 12013G23KT 7SM SCT050 23/16 A2961 RMK AO2
     T02330158=
KSDC 232135Z AUTO 00000KT 10SM CLR 18/04 A3023 RMK AO2=
KXVG 232133Z AUTO 12008G17KT 10SM SCT048 23/12 A2949 RMK AO2=
KY51 232135Z AUTO 14016G24KT 10SM CLR 22/15 A2966 RMK AO1
     T02200145=
KISQ 232135Z AUTO 10006KT 10SM BKN050 OVC070 16/11 A2991 RMK AO2
     T01600110=
KJFZ 232135Z AUTO 00000KT 10SM CLR 20/00 A3018 RMK AO2
     T02020000=
KJYM 232135Z AUTO 16011G17KT 10SM CLR 22/07 A3004 RMK AO2
     T02200070=
KJZI 232135Z AUTO 33005KT 10SM CLR 24/11 A3012 RMK AO2=
KKY8 232135Z AUTO 13006G11KT 9SM CLR 25/12 A3002 RMK A01=
KL08 232135Z AUTO 16006KT 10SM CLR 25/00 A2976 RMK AO2=
KL35 232135Z AUTO 26006KT 10SM CLR 09/M09 A2992 RMK AO2=
KL52 232135Z AUTO 27013KT 4SM HZ CLR 18/11 A2989 RMK A01=
KLBO 232135Z AUTO 17019G25KT 10SM CLR 27/11 A2977 RMK AO2=
KLKR 232135Z AUTO 00000KT 10SM CLR 23/06 A3014 RMK AO2=
KLKU 232135Z AUTO 05004KT 3/4SM HZ OVC026 16/13 A3018 RMK AO2
     T01630126=
KLRO 232135Z AUTO 00000KT 9SM CLR 23/10 A3011 RMK AO2=
KLRU 232135Z AUTO 24022G29KT 10SM CLR 23/M01 A2978 RMK AO2
     T02261009=
KLRY 232135Z AUTO 20013G18KT 10SM CLR 28/13 A2961 RMK AO2=
KLVL 232135Z AUTO 35005KT 10SM OVC020 18/13 A3016 RMK AO1
     T01750131=
KLWA 232135Z AUTO 16010G22KT 10SM CLR 25/11 A2993 RMK AO2
     T02500106=
KLXL 232135Z AUTO 12013G24KT 10SM SCT048 23/13 A2945 RMK AO2=
KM40 232135Z AUTO 19011KT 10SM CLR 26/07 A3006 RMK AO2=
KMAN 232135Z AUTO 33010G15KT 10SM CLR 11/M04 A3001 RMK A01=
KMAO 232135Z AUTO 34005KT 10SM CLR 21/00 A3012 RMK AO2=
KMBO 232135Z AUTO VRB03G10KT 10SM CLR 27/11 A3001 RMK AO2=
KMBY 232135Z AUTO 19015G22KT 10SM SCT110 28/11 A2968 RMK AO2=
KMCD 232135Z AUTO 11006KT 10SM BKN080 15/10 A2998 RMK AO2
     T01480096=
KMDS 232135Z AUTO 16021G27KT 10SM CLR 26/12 A2924 RMK AO2=
KMEZ 232135Z AUTO 14007KT 10SM BKN044 26/15 A2985 RMK AO2
     T02640151 $=
KMKJ 232135Z AUTO 10004KT 10SM CLR 20/M01 A3021 RMK AO2
     T02041011=
KMNI 232135Z AUTO 02003KT 10SM CLR 22/08 A3013 RMK AO2=
KMOX 232135Z AUTO 14026G35KT 10SM CLR 23/09 A2933 RMK AO2=
KMQJ 232135Z AUTO RMK AO1=
KMTV 232135Z AUTO 04005KT 10SM CLR 20/01 A3019 RMK AO2
     T02010011=
KMWM 232135Z AUTO 13025G31KT 10SM CLR 25/12 A2936 RMK AO2=
KN38 232135Z AUTO 21008KT 10SM CLR 17/09 A3025 RMK AO2=
KO22 232135Z AUTO 29008G16KT 250V320 10SM CLR 18/M06 A2992 RMK
     A01=
KO32 232135Z AUTO 31007KT 10SM CLR 20/01 A2990 RMK AO2 T02000012
     $=
KOEB 232135Z AUTO 17008G16KT 10SM CLR 23/10 A3001 RMK AO2
     T02290096=
KOEO 232135Z AUTO 12021G26KT 10SM CLR 25/15 A2955 RMK AO2
     T02480152=
