SAKA31 PTKK 231700
METAR PTKK 231652Z VRB03KT 15SM FEW013TCU SCT120 BKN280 27/24 A2975
RMK SHRAB24E46 TCU NE SLP076 T02670243
