SAUS80 KWBC 231800 RRC
METAR
KCNY 231753Z AUTO 21004KT 10SM -RA FEW006 BKN023 OVC034 02/01
     A2963 RMK AO2 RAE07B46SNB07E46 SLP026 P0011 60018 T00170011
     10061 20006 53019=
KYKM 231753Z AUTO 00000KT 10SM CLR 10/01 A3007 RMK AO2 SLP186
     T01000006 10106 21017 51020=
KBNO 231753Z AUTO 30008G18KT 10SM BKN038 04/M03 A3005 RMK AO2
     SLP192 T00391033 10044 21067 51024 $=
KFAT 231753Z 31012KT 10SM CLR 16/02 A2995 RMK AO2 SLP139 T01610022
     10161 20094 51017=
KGEG 231753Z VRB03KT 10SM FEW021 FEW075 06/02 A3000 RMK AO2 SLP171
     T00560017 10056 20000 51024 $=
PHJR 231753Z 00000KT 5SM -RA BR FEW025 BKN036 OVC050 23/21 A3004
     RMK AO2 RAB35 SLP178 P0001 60001 T02330211 10244 20228
     53016=
KAPN 231754Z AUTO 15017KT 10SM CLR 23/12 A3007 RMK AO2 SLP179
     T02330117 10233 20061 58014=
KNAK 231754Z AUTO 36009KT 10SM OVC050 17/11 A3020 RMK AO2 SLP230
     60000 T01720106 10172 20122 58010=
KORH 231754Z 05006KT 10SM CLR 14/06 A3033 RMK AO2 SLP275 T01390061
     10144 20117 58010=
KPIA 231754Z 17016G23KT 10SM CLR 24/14 A2982 RMK AO2 PK WND
     17027/1655 SLP093 T02440139 10250 20167 58017=
KDRA 231753Z AUTO 04010KT 10SM CLR 13/M07 A2989 RMK AO2 SLP101
     T01281072 10128 20044 51017=
KP68 231753Z AUTO 34009KT M01/M03 A2994 RMK AO1 SLP140 P0005 60006
     T10061028 11006 21028 51025=
KP69 231752Z AUTO 00000KT 06/04 A3003 RMK AO1 SLP181 60001
     T00560039 10061 20039 51024=
KSDB 231753Z AUTO 36007KT 07/M01 A2994 RMK AO2 PK WND 34026/1706
     SLPNO T00721011 10078 20039 $=
KSEA 231753Z 21004KT 9SM BKN007 OVC026 08/07 A3014 RMK AO2 SLP215
     T00830067 10089 20056 52020 $=
KACY 231754Z 05011G21KT 1 3/4SM -RA BR BKN008 OVC011 16/14 A3018
     RMK AO2 PK WND 05026/1712 SLP220 P0002 60003 T01560144 10172
     20144 58010=
KDAB 231753Z 03011KT 10SM SCT031 27/16 A3010 RMK AO2 SLP193
     T02720156 10272 20161 58015=
KSAV 231753Z 33005KT 10SM FEW045 24/11 A3015 RMK AO2 SLP208
     T02440106 10250 20106 58017=
KSYR 231754Z VRB03KT 10SM FEW120 FEW200 BKN250 20/06 A3026 RMK AO2
     SLP246 T02000061 10200 20044 58018 $=
KFAR 231753Z AUTO 10012G22KT 10SM CLR 22/11 A2940 RMK AO2 SLP959
     T02170106 10217 20000 58031 TSNO $=
KFWA 231754Z 18013G23KT 10SM FEW060 FEW180 SCT250 24/11 A3007 RMK
     AO2 SLP181 T02440106 10244 20122 58012 $=
KN60 231752Z AUTO 06017G30KT 10/05 A2938 RMK AO1 PK WND 04032/1657
     SLP957 T01000050 10100 20061 58030=
KNUI 231753Z AUTO 36006KT OVC021 18/12 A3016 RMK AO2 SLP212 60000
     T01830122 10189 20150 57008=
KP59 231751Z AUTO 21012G27KT 18/12 A2982 RMK AO1 PK WND 20027/1748
     SLP096 T01780117 10178 20117 50001 $=
KACY 231754Z 05011G21KT 1 3/4SM -RA BR BKN008 OVC011 16/14 A3018
     RMK AO2 PK WND 05026/1712 SLP220 P0002 60003 T01560144 10172
     20144 58010=
KBTV 231754Z 00000KT 10SM BKN150 19/06 A3030 RMK AO2 SLP260
     T01940056 10200 20056 58015=
KCRW 231754Z 28003KT 10SM FEW100 24/07 A3018 RMK AO2 SLP218 VIRGA
     W-NW T02390072 10239 20044 58016=
KSBN 231754Z 17018G25KT 10SM CLR 24/13 A2998 RMK AO2 PK WND
     17028/1744 SLP149 T02440128 10250 20144 58016=
KCOS 231754Z 23017G28KT 10SM SCT050 SCT070 BKN200 17/00 A2945 RMK
     AO2 PK WND 21039/1659 WSHFT 1712 RAB29E54 SLP903 P0000 60000
     T01720000 10189 20144 51013 $=
KCAR 231754Z AUTO 20006KT 10SM CLR 20/06 A3032 RMK AO2 SLP271
     T02000061 10200 20056 58015=
KSYR 231754Z VRB03KT 10SM FEW120 FEW200 BKN250 20/06 A3026 RMK AO2
     SLP246 T02000061 10200 20044 58018 $=
KCQC 231753Z AUTO 24025G41KT 10SM SCT070 16/01 A2976 RMK AO2 PK
     WND 24044/1713 SLP995 T01610011 10161 20089 58008=
