SAUS70 KWBC 232056
METAR
KRID 232115Z AUTO 18014G20KT 5SM HZ CLR 23/11 A3008 RMK AO2=
KMCX 232115Z AUTO 17012G18KT 140V210 10SM CLR 25/09 A2994 RMK AO2
     T02470091=
KRID 232115Z AUTO 18014G20KT 5SM HZ CLR 23/11 A3008 RMK AO2=
