SAUS80 KWBC 231834
METAR
KSVE 231835Z AUTO 02005G16KT 10SM SCT048 SCT060 07/M05 A3008 RMK
     AO2=
