SAUS70 KWBC 231920 RRJ
METAR
K5T9 231915Z AUTO 14009KT 110V190 10SM SCT033 27/20 A2977 RMK
     A01=
K6S8 231910Z AUTO 28016KT 6SM BR 04/02 A2966 RMK A01 LAUREL=
KBQX 231915Z AUTO 16013G21KT 9SM 28/18 A2992 RMK A01=
KDSF 231915Z AUTO 07005KT 10SM CLR 26/14 A3007 RMK A01=
KECS 231915Z AUTO 33022G28KT 10SM OVC009 03/00 A2941 RMK AO2=
KERV 231915Z AUTO 15019G25KT 10SM SCT039 28/17 A2983 RMK AO2
     T02760165=
KFTN 231915Z AUTO 14011G16KT 10SM CLR 29/18 A2980 RMK A01=
KGLX 231915Z AUTO 06009G14KT 10SM CLR 26/13 A3007 RMK A01=
KHHV 231915Z AUTO 15017G22KT 10SM FEW033 FEW040 SCT050 26/19 A2990
     RMK A01=
KLXY 231915Z AUTO 18018G30KT 10SM SCT060 30/15 A2984 RMK AO2
     T03000151=
KT82 231915Z AUTO 17013G22KT 10SM CLR 28/15 A2984 RMK AO2
     T02770151=
KTEX 231915Z AUTO 24020G35KT 210V300 10SM BKN048 OVC060 01/M08
     A2970 RMK AO2=
KTYL 231915Z AUTO 25028G39KT 10SM SCT049 BKN055 14/00 A2982 RMK
     AO2=
KVAF 231915Z AUTO 18017KT 10SM CLR 28/17 A2994 RMK A01=
KVHN 231915Z AUTO 22016G24KT 10SM CLR 29/08 A2981 RMK AO2
     T02920077=
KVTP 231915Z AUTO 25016G28KT 1/4SM -RA OVC001 M12/M14 A2962 RMK
     AO2=
KWBF 231910Z AUTO 00000KT 10SM 27/18 A3003 RMK A01=
K81R 231915Z AUTO 16015G21KT 10SM CLR 28/15 A2981 RMK AO2
     T02850150=
KE42 231915Z AUTO 20027G33KT 10SM CLR 28/10 A2953 RMK AO2
     T02770095=
KEBG 231915Z AUTO 15019G27KT 10SM CLR 32/19 A2980 RMK AO2
     T03200188 PWINO=
KF00 231915Z AUTO 16023KT 10SM SCT046 28/16 A2981 RMK AO2
     T02830162=
KLHB 231915Z AUTO 15014G24KT 10SM SCT049 BKN060 31/17 A2986 RMK
     AO2 T03100165=
KLHM 231915Z AUTO 32020G23KT 10SM CLR 20/M02 A2996 RMK AO1=
KLUD 231915Z AUTO 17019G27KT 10SM CLR 28/15 A2975 RMK AO2
     T02840148=
KMDD 231915Z AUTO 19016G21KT 10SM CLR 28/12 A2974 RMK AO2
     T02790123=
KMYP 231915Z AUTO OVC002 M06/M06 A2971 RMK AO2 PWINO=
KPEZ 231915Z AUTO 14013G21KT 10SM SCT047 SCT050 30/18 A2982 RMK
     AO2 T02980175=
KPSO 231915Z AUTO 23014G23KT 10SM SCT032 OVC041 05/M02 A2972 RMK
     AO2 T00451018=
KRYW 231915Z AUTO 19014G23KT 10SM CLR 28/15 A2985 RMK AO2
     T02800147=
KS33 231915Z AUTO 00000KT 10SM CLR 07/00 A3013 RMK AO2=
KSTK 231915Z AUTO 34013KT 10SM CLR 20/01 A2928 RMK AO2=
KT41 231915Z AUTO 10SM SCT044 SCT055 SCT065 30/18 A2992 RMK AO2
     T02970179=
KT74 231915Z AUTO 16020G24KT 10SM SCT050 29/17 A2983 RMK AO2
     T02930167=
K57C 231915Z AUTO 15011G20KT 10SM SCT043 23/13 A2982 RMK AO2
     T02340131=
KAAA 231915Z AUTO 17019G31KT 10SM CLR 25/15 A2983 RMK AO2
     T02460149=
KAHQ 231915Z AUTO 17025G34KT 5SM HZ CLR 30/12 A2933 RMK AO2
     T03030120=
KAUH 231915Z AUTO 18025G32KT 10SM CLR 30/11 A2927 RMK AO2
     T02980107=
KBIE 231915Z AUTO 18021G35KT 10SM CLR 29/13 A2937 RMK AO2
     T02930130=
KC35 231915Z AUTO 16015G21KT 10SM CLR 23/13 A2973 RMK AO2
     T02330126 PWINO=
KCKC 231917Z AUTO 08009KT 10SM CLR 18/11 A2977 RMK AO2=
KCKN 231915Z AUTO 13014G20KT 10SM CLR 25/11 A2942 RMK AO2=
KDNV 231915Z AUTO 18022G30KT 10SM CLR 26/12 A2993 RMK AO2
     T02570116=
KERY 231915Z AUTO 16013G24KT 10SM CLR 22/11 A2996 RMK AO2
     T02160110=
KFET 231915Z AUTO 16022G30KT 10SM CLR 30/13 A2933 RMK AO2
     T02970134=
KFSW 231915Z AUTO 17015G22KT 10SM OVC001 24/15 A2969 RMK AO2=
KGPC 231915Z AUTO 18022G28KT 10SM CLR 25/11 A3000 RMK AO2
     T02540110=
KGWB 231915Z AUTO 17007KT 125V225 10SM SCT055 BKN075 23/11 A3005
     RMK AO2=
KHCD 231915Z AUTO 12021G28KT 10SM CLR 24/12 A2946 RMK AO2
     T02440122=
KLNN 231915Z AUTO 13008KT 10SM CLR 23/05 A3014 RMK AO1
     T02300048=
KMJQ 231915Z AUTO 15023G30KT 10SM CLR 24/11 A2943 RMK AO2=
