SAUS70 KWBC 231800 RRG
METAR
KPUB 231753Z 23024G33KT 10SM CLR 22/01 A2939 RMK AO2 PK WND
     21036/1737 SLP888 T02170006 10228 20183 56000=
KRKP 231753Z AUTO 16013G21KT 10SM FEW029 SCT060 31/21 A2991 RMK
     AO2 SLP128 T03060211 10306 20256 50000=
KUTS 231753Z AUTO 18012G26KT 10SM BKN060 29/15 A2994 RMK AO2 PK
     WND 18027/1731 SLP133 T02890150 10289 20206 57009=
KCMI 231753Z 17023G34KT 10SM FEW090 26/13 A2992 RMK AO2 PK WND
     17035/1710 SLP127 T02560133 10256 20172 58014=
KDKK 231753Z AUTO 32006KT 10SM CLR 20/07 A3021 RMK AO2 SLP230
     T02000072 10217 20117 58007=
KDUJ 231753Z AUTO VRB04KT 10SM CLR 19/02 A3024 RMK AO2 SLP240
     T01940017 10194 20039 58010=
KEWB 231753Z 03005KT 10SM -RA BKN110 15/13 A3029 RMK AO2
     RAB09E22B45 SLP257 P0001 60001 T01500133 10167 20111
     58013=
KHAO 231753Z AUTO VRB05KT 10SM CLR 26/09 A3012 RMK AO2 SLP198
     T02560089 10256 20100 58019=
KHUL 231753Z AUTO 24003KT 10SM CLR 21/09 A3033 RMK AO2 SLP272
     T02060089 10206 20044 58016=
KMBS 231753Z 16013G27KT 10SM CLR 23/11 A3007 RMK AO2 PK WND
     17027/1745 SLP182 T02330106 10239 20128 58017=
KOTM 231753Z AUTO 16023G31KT 10SM CLR 24/14 A2964 RMK AO2 PK WND
     15031/1753 SLP030 T02390139 10244 20172 58015=
KOWD 231753Z 02006KT 10SM CLR 15/12 A3034 RMK AO2 SLP273 T01500117
     10161 20067 56009=
KPEO 231753Z AUTO 22005KT 10SM CLR 20/04 A3026 RMK AO2 SLP245
     T02000039 10200 20072 58017=
KPOU 231753Z 30004KT 10SM FEW120 13/08 A3028 RMK AO2 SLP249
     T01330083 10133 20067 58020=
KRME 231753Z 15006KT 10SM CLR 17/06 A3030 RMK AO2 SLP261 T01670061
     10167 20022 58015=
KTTN 231753Z 05010KT 10SM OVC045 17/11 A3024 RMK AO2 RAB02E13
     SLP234 P0000 60000 T01670106 10172 20128 58005=
KZZV 231753Z AUTO 00000KT 10SM CLR 23/10 A3018 RMK AO2 SLP218
     T02280100 10233 20072 58014=
PABA 231752Z AUTO 09021KT 10SM OVC008 M04/M05 A3006 RMK AO2 PK WND
     09026/1734 CIG 006V011 SLP186 6//// T10391050 11039 21044
     51002 FZRANO PNO $=
KCEZ 231753Z AUTO 19016G24KT 10SM OVC095 06/02 A2972 RMK AO2 PK
     WND 19028/1743 RAE11 SLP019 P0000 60006 T00560022 10122 20039
     50018 $=
KCNM 231753Z AUTO 21013G22KT 10SM CLR 29/09 A2971 RMK AO2 PK WND
     25026/1706 SLP005 T02890094 10289 20139 58009=
KCPR 231753Z 36004KT 3SM -RA BR BKN009 BKN019 OVC023 03/01 A2950
     RMK AO2 RAE1659B17UPB26E30 SLP968 P0001 60013 I6000 T00330011
     10039 20011 51013=
KDFW 231753Z 18026G36KT 10SM BKN039 BKN250 28/17 A2981 RMK AO2 PK
     WND 18038/1711 SLP086 T02780167 10278 20211 58006=
KDHT 231753Z AUTO 22032G46KT 10SM CLR 26/05 A2957 RMK AO2 PK WND
     21047/1743 SLP957 T02610050 10261 20167 58020=
KDRO 231753Z AUTO 28025G36KT 10SM BKN030 BKN037 OVC050 06/00 A2973
     RMK AO2 PK WND 29036/1753 WSHFT 1729 SLP024 60024 T00560000
     10111 20028 51016 $=
KHLN 231753Z 32012G17KT 3SM -SN FEW015 FEW023 OVC032 02/M01 A2982
     RMK AO2 SNB13 SLP134 P0000 60000 T00221011 10022 20011
     53023=
KPIH 231753Z 24016KT 10SM SCT055 BKN075 02/M02 A2982 RMK AO2
     SLP104 60000 T00221022 10022 20006 51020 $=
KRAL 231753Z 00000KT 10SM BKN031 18/09 A2986 RMK AO2 SLP101
     T01830089 10183 20139 50009 $=
KTRL 231753Z AUTO 18025G34KT 10SM BKN044 28/16 A2987 RMK AO2 PK
     WND 19034/1753 SLP109 T02830156 10283 20200 58007=
KTYR 231753Z 17019G28KT 10SM SCT044 29/17 A2991 RMK AO2 PK WND
     19031/1722 SLP119 T02890167 10289 20194 58005=
PAHN 231754Z AUTO 30011KT 10SM CLR 04/02 A2960 RMK AO2 SLP027
     T00440022 10044 20028 58022 TSNO $=
PAKN 231754Z 00000KT 10SM CLR M04/M06 A3008 RMK AO2 SLP186 I1001
     I6001 T10441056 11011 21056 51013=
