SAUS70 KWBC 231900 RRF
METAR
KCRS 231853Z AUTO 17024G34KT 10SM BKN050 29/15 A2985 RMK AO2 PK
     WND 16035/1755 SLP103 T02940150 $=
KCSM 231853Z AUTO 19014KT 10SM CLR 23/14 A2963 RMK AO2 PK WND
     19029/1754 SLP012 T02330139=
KCUB 231853Z AUTO 10SM CLR 24/07 A3015 RMK AO2 SLP210
     T02390072=
KCXO 231853Z 15019G27KT 10SM BKN060 29/14 A2991 RMK AO2 PK WND
     17030/1825 SLP126 T02940144=
KCYS 231853Z 31017G32KT 10SM -RA SCT090 BKN110 12/M01 A2937 RMK
     AO2 PK WND 31032/1850 RAB37 SLP888 P0000 T01171006=
KD25 231855Z AUTO 15015G19KT 10SM CLR 22/12 A2976 RMK AO2
     T02160121=
KDAN 231853Z AUTO 03008KT 10SM CLR 21/05 A3019 RMK AO2 SLP216
     T02110050=
KDCU 231853Z AUTO VRB06KT 10SM CLR 24/06 A3013 RMK AO2 SLP200
     T02390056=
KDEN 231853Z 22020G30KT 10SM FEW070 SCT110 BKN200 20/M02 A2932 RMK
     AO2 PK WND 22036/1754 SLP852 T02001022=
KDEQ 231853Z AUTO 18013G22KT 10SM BKN043 BKN050 28/16 A2986 RMK
     AO2 SLP107 T02780161=
KDET 231853Z 16013G19KT 8SM FEW060 25/09 A3011 RMK AO2 SLP193
     T02500094=
KDEW 231853Z AUTO 22005KT 10SM CLR 08/02 A3002 RMK AO2 SLP177
     T00830022=
KDFI 231853Z AUTO 19012G24KT 10SM CLR 24/09 A3007 RMK AO2 PK WND
     17026/1827 SLP181 T02440094=
KGEY 231853Z AUTO 33015KT 10SM FEW009 BKN040 OVC050 03/02 A2960
     RMK AO2 RAE46 SLP029 P0001 T00330017=
KGEZ 231853Z AUTO 15014G23KT 10SM FEW055 26/11 A3003 RMK AO2 PK
     WND 16026/1835 SLP164 T02610106=
KGFK 231853Z 09010G16KT 10SM FEW250 21/09 A2942 RMK AO2 SLP966
     T02060089 $=
KGFL 231853Z AUTO 00000KT 10SM CLR 17/06 A3030 RMK AO2 SLP263
     T01720061=
KGGG 231853Z 17018G24KT 10SM BKN043 29/15 A2990 RMK AO2 PK WND
     17028/1826 SLP117 T02890150=
KGIF 231853Z AUTO A3008 RMK AO2 SLPNO PWINO $=
KGJT 231853Z 27012G17KT 5SM RA BR BKN013 OVC021 04/03 A2963 RMK
     AO2 LTG DSNT E SLP011 P0010 T00390028=
KGKJ 231853Z AUTO VRB03KT 10SM CLR 22/04 A3020 RMK AO2 SLP224
     T02170039=
KGKY 231853Z 16021G39KT 10SM FEW046 29/15 A2980 RMK AO2 PK WND
     17039/1846 SLP081 T02890150=
KGLD 231853Z AUTO 23028G45KT 5SM HZ OVC030 27/M04 A2929 RMK AO2 PK
     WND 22048/1831 SLP873 T02671044=
KGLH 231853Z 18011G23KT 10SM SCT055 28/13 A3000 RMK AO2 SLP163
     T02830133=
KGLR 231853Z AUTO 16012G24KT 10SM SCT050 23/10 A3002 RMK AO2 PK
     WND 15028/1831 SLP162 T02280100=
KGMU 231853Z VRB03KT 10SM CLR 23/03 A3017 RMK AO2 SLP211
     T02330028=
KGNV 231853Z 01004KT 10SM CLR 28/09 A3012 RMK AO2 SLP198
     T02780089=
KGOK 231853Z AUTO 19019G31KT 10SM CLR 27/15 A2964 RMK AO2 PK WND
     18033/1842 SLP025 T02670150=
KGPT 231853Z 14011KT 10SM CLR 26/16 A3010 RMK AO2 SLP190
     T02560161=
KGRB 231853Z 14012KT 10SM CLR 22/12 A2985 RMK AO2 SLP106 T02170122
     $=
KGRI 231853Z 20021G38KT 10SM CLR 31/09 A2926 RMK AO2 PK WND
     20043/1812 SLP895 T03110094 $=
KGSH 231853Z AUTO 19019G27KT 10SM FEW055 24/12 A3000 RMK AO2 PK
     WND 18032/1835 SLP154 T02440117=
KGSP 231853Z 00000KT 10SM CLR 22/03 A3017 RMK AO2 SLP213
     T02220028=
KGTF 231853Z 34016G26KT 2SM -SN BR OVC006 00/M01 A2982 RMK AO2 PK
     WND 33026/1846 TWR VIS 2 1/2 CIG 005V010 SLP136 P0001
     T00001006 $=
KGUP 231853Z AUTO 24013G26KT 10SM -RA BKN022 OVC032 05/02 A2980
     RMK AO2 PK WND 24029/1838 SLP021 P0000 T00500022=
KGVL 231853Z AUTO 23003KT 10SM CLR 23/04 A3018 RMK AO2 SLP212
     T02280044=
KGWO 231853Z AUTO 22012G19KT 10SM SCT055 28/13 A3004 RMK AO2
     SLP169 T02830133=
KGZH 231853Z AUTO 10SM CLR 26/04 A3013 RMK AO2 SLP199
     T02560044=
KHAO 231853Z AUTO VRB05KT 10SM CLR 26/09 A3010 RMK AO2 SLP192
     T02560089=
