SAUS70 KWBC 231838 RRC
METAR
KW78 231835Z AUTO 33007KT 10SM CLR 19/06 A3019 RMK AO1
     T01910060=
KW81 231835Z AUTO 34006KT 10SM OVC025 17/07 A3018 RMK AO1
     T01710073=
KXNX 231835Z AUTO 19010G18KT 150V220 10SM CLR 26/06 A3013 RMK
     A01=
KY19 231835Z AUTO 05012G18KT 10SM CLR 13/07 A2930 RMK AO2=
KPGV 231835Z AUTO 35008G14KT 10SM OVC016 18/16 A3010 RMK AO2=
KPLR 231835Z AUTO 00000KT 10SM CLR 24/05 A3016 RMK A01=
KPVB 231835Z AUTO 15016G22KT 10SM CLR 24/12 A2973 RMK AO1
     T02370122=
KPVF 231835Z AUTO 29007KT 10SM CLR 13/M08 A2997 RMK AO1=
KRCE 231835Z AUTO 18025G34KT 10SM CLR 26/15 A2966 RMK AO2=
KRMN 231835Z AUTO 33007KT 10SM OVC042 19/12 A3023 RMK AO2
     T01890123=
KRNH 231835Z AUTO 12011G21KT 10SM CLR 23/16 A2959 RMK AO2
     T02330162=
KRPH 231835Z AUTO 16015G24KT 10SM CLR 29/15 A2971 RMK AO2
     T02910150 $=
KRUG 231835Z AUTO 06024G31KT 10SM CLR 09/07 A2943 RMK AO2=
KRUQ 231835Z AUTO 35006KT 10SM CLR 20/05 A3018 RMK AO2
     T02030051=
KRVL 231835Z AUTO 00000KT 8SM BKN027 BKN035 OVC090 17/08 A3026 RMK
     AO2=
KRYV 231835Z AUTO 15016G24KT 10SM CLR 23/12 A2981 RMK AO2
     T02300116=
KRZL 231835Z AUTO 16021G27KT 10SM CLR 25/11 A2995 RMK AO2=
KRZN 231835Z AUTO 14013G19KT 10SM CLR 23/12 A2962 RMK AO2
     T02260115=
KS25 231835Z AUTO 05013G21KT 10SM OVC012 07/07 A2944 RMK AO2=
KS32 231835Z AUTO 08017G23KT 10SM CLR 17/07 A2940 RMK AO2 TSNO=
KSCR 231835Z AUTO 35004KT 10SM CLR 21/05 A3018 RMK AO2
     T02090052=
KSFQ 231835Z AUTO 34006G14KT 1 3/4SM -RA OVC005 15/15 A3011 RMK
     AO2 T01500149=
KSIF 231835Z AUTO 06006KT 030V100 10SM CLR 21/03 A3019 RMK AO2
     T02100031=
KSIK 231835Z AUTO 18008G18KT 10SM SCT042 SCT060 26/15 A2997 RMK
     AO2=
KSPF 231835Z AUTO 31018G27KT 10SM OVC014 07/03 A2936 RMK AO2=
KSTF 231835Z AUTO 18009G14KT 10SM CLR 26/11 A3008 RMK AO2=
KSUZ 231835Z AUTO 18015KT 10SM SCT041 26/16 A2993 RMK A01=
KSVC 231835Z AUTO 25015G23KT 10SM CLR 19/05 A2986 RMK AO2
     T01930053=
KSXU 231835Z AUTO 24021G31KT 10SM BKN095 24/00 A2963 RMK AO2
     T02410001=
KT69 231835Z AUTO 16017G23KT 10SM CLR 29/21 A2986 RMK A01=
KTKX 231835Z AUTO 20015G26KT 9SM CLR 27/15 A2996 RMK AO2 TSNO=
KTME 231835Z AUTO 16014G21KT 10SM BKN055 BKN065 30/16 A2992 RMK
     AO2=
KTSP 231835Z AUTO 27015G21KT 9SM CLR 09/M01 A2995 RMK AO2=
KTWT 231835Z AUTO 19019G23KT 10SM CLR 27/09 A3000 RMK AO2=
KU42 231835Z AUTO 33018G22KT 10SM SCT035 SCT042 BKN065 05/01 A2980
     RMK AO1 T00460010=
KUBE 231835Z AUTO 13014G19KT 10SM CLR 22/16 A2964 RMK AO2=
KUOX 231835Z AUTO VRB04G17KT 10SM SCT049 24/13 A3006 RMK AO2
     PWINO=
K04W 231835Z AUTO 11011G17KT 10SM CLR 22/12 A2959 RMK AO2=
K22N 231835Z AUTO 00000KT 10SM SCT050 SCT070 OVC095 16/07 A3028
     RMK AO2=
K6B0 231835Z AUTO 00000KT 10SM CLR 18/07 A3030 RMK AO2
     T01830069=
KACB 231835Z AUTO 16012G20KT 10SM SCT050 25/11 A2997 RMK AO2
     T02450110=
KAEL 231835Z AUTO 15025G32KT 10SM CLR 23/13 A2954 RMK AO2=
KBBB 231835Z AUTO 15020G26KT 10SM CLR 23/12 A2939 RMK AO2=
KBVI 231835Z AUTO 15005KT 10SM CLR 24/01 A3020 RMK AO2
     T02370009=
KCAD 231835Z AUTO 16011G22KT 10SM BKN050 22/11 A2998 RMK AO2
     T02190106=
KCDI 231835Z AUTO 12003KT 10SM CLR 23/08 A3018 RMK AO2
     T02320080=
KCKC 231835Z AUTO 12006G14KT 10SM SCT100 18/11 A2978 RMK AO2=
KCNB 231835Z AUTO 10023G29KT 10SM CLR 23/12 A2936 RMK AO2
     T02340115=
KCVX 231835Z AUTO 16009G16KT 130V190 10SM SCT055 24/12 A2997 RMK
     AO2 T02350117=
KD95 231835Z AUTO 16009G16KT 10SM CLR 23/06 A3011 RMK AO2
     T02300060=
KDTL 231835Z AUTO 13016G22KT 10SM CLR 22/11 A2944 RMK AO2=
