SACA45 KWBC 231700
METAR
MGFL NIL=
MGGT 231700Z 05010KT 9999 FEW018 23/16 Q1022 A3018 FEW200=
MGHT NIL=
MHAM NIL=
MHCA 231700Z 09003KT 9999 BKN030TCU 28/23=
MHCH 231700Z 02010KT 9999 SCT034 33/26=
MHLE 231700Z 06004KT 9999 BKN022 19/15=
MHNJ NIL=
MHNO 231700Z 35004KT 9999 FEW040 26/19=
MHPL 231700Z NIL=
MHRO 231700Z 14006KT 9999 SCT020 28/24 Q1014 A2995 NOSIG=
MHSR 231700Z 00000KT 3000 VCSH BKN018 22/21 REDZ=
MHTE 231700Z VRB02KT 9999 SCT026TCU SCT080 28/25 Q1012=
MHYR 231700Z 09006KT 9999 SCT024 BKN080 26/20=
MNMG NIL=
MNPC NIL=
MPSA NIL=
MRCH NIL=
MSAC NIL=
