SAUS80 KWBC 232016
METAR
KGNT 232015Z AUTO 30014G17KT 10SM SCT022 BKN046 OVC060 11/04 A2980
     RMK AO2 T01080038=
KCLI 232015Z AUTO 12011G15KT 10SM CLR 22/13 A2980 RMK AO2
     T02240131=
KY23 232015Z AUTO 15023G31KT 10SM BKN046 25/15 A2963 RMK AO2
     T02490154=
