SAUS70 KWBC 231700 RRP
METAR
K04V 231655Z AUTO 18006KT 10SM SCT022 BKN065 OVC110 08/03 A2961
     RMK AO2=
K5C1 231655Z AUTO 18015G20KT 10SM SCT031 SCT041 24/15 A2992 RMK
     AO1=
K6P9 231655Z AUTO 18015G24KT 10SM CLR 25/15 A2983 RMK AO2
     T02540153=
KFWZ 231655Z AUTO 34015G20KT 10SM SCT007 SCT060 BKN070 M01/M03
     A2952 RMK AO2=
KHCR 231655Z AUTO 36008KT 10SM SCT050 BKN110 03/M03 A2968 RMK
     AO2=
KLUV 231655Z AUTO 21020G24KT 10SM CLR 27/09 A2978 RMK AO2=
KORG 231655Z AUTO 15013KT 10SM BKN036 OVC060 30/18 A3003 RMK AO2
     T02950184=
KRBO 231655Z AUTO 10SM SCT037 SCT047 SCT055 30/19 A2990 RMK AO2
     T02950192=
KT35 231655Z AUTO 17011G23KT 10SM SCT034 BKN042 BKN050 27/18 A2991
     RMK AO2 T02650182=
KT41 231655Z AUTO 10SM BKN044 BKN050 29/17 A2999 RMK AO2
     T02860171=
TISX 231653Z 12011KT 10SM SCT034 SCT047 31/24 A2992 RMK AO2
     RAB16E30 SLP130 P0000 T03110244 $=
