SAUS70 KWBC 231900 RRX
METAR
KTFP 231855Z AUTO 16018G26KT 10SM CLR 30/22 A2983 RMK AO2
     T02970216=
