SAUS70 KWBC 231628
METAR
K1S5 231635Z AUTO 00000KT 10SM BKN085 05/01 A3006 RMK AO2
     T00480008=
KCPF 231635Z AUTO 26003KT 10SM CLR 22/04 A3023 RMK AO2=
KEMV 231635Z AUTO 33008G15KT 10SM OVC015 16/12 A3020 RMK AO2
     T01590116=
KFFA 231635Z AUTO 32007G14KT 280V350 3SM RA OVC003 17/17 A3004 RMK
     AO2 P0006 T01690169=
KMCJ 231635Z AUTO 16018KT 10SM FEW055 27/13 A2995 RMK A01=
KSUW 231635Z AUTO 07010KT 10SM SCT075 BKN095 12/09 A2971 RMK AO2
     T01180091=
