SAUS80 KWBC 231954
METAR
KLZZ 231935Z AUTO 18015G22KT 10SM CLR 29/15 A2977 RMK AO2
     T02860148=
