SAKA31 PTYA 231700
METAR PTYA 231654Z 17007KT 12SM SCT016CB OVC120 25/25 A2971 RMK
SHRAE45 CB ALQDS SLP062 T02530248=
