SAUS70 KWBC 232000 RRT
METAR
K6P9 231955Z AUTO 19016G26KT 10SM CLR 29/14 A2974 RMK AO2
     T02860140=
KCPW 231955Z AUTO 24030G45KT M1/4SM +SN OVC001 M07/M07 A2967 RMK
     AO2=
KE38 231955Z AUTO 21010G18KT 10SM CLR 28/07 A2989 RMK AO2
     T02750067=
KFWZ 231955Z AUTO 35005KT 10SM SCT016 BKN022 BKN029 M01/M05 A2958
     RMK AO2=
KLMO 231955Z AUTO 23005KT 5SM HZ BKN110 19/M05 A2934 RMK AO2
     T01911052=
KLUV 231955Z AUTO 21018G28KT 10SM CLR 30/10 A2969 RMK AO2=
KORG 231955Z AUTO 14008G16KT 10SM OVC050 29/20 A2997 RMK AO2
     T02870195=
KPPA 231955Z AUTO 22021G26KT 10SM CLR 27/11 A2959 RMK AO2
     T02680112=
KRBO 231955Z AUTO 10SM SCT001 SCT035 BKN042 30/21 A2981 RMK AO2
     T02970207=
KSBS 231955Z AUTO 24010G14KT 1 1/2SM OVC003 M01/M01 A2956 RMK AO1
     T10061006=
KT35 231955Z AUTO 17015G21KT 10SM BKN050 OVC055 29/17 A2981 RMK
     AO2 T02930169=
KXBP 231955Z AUTO 17019G24KT 10SM CLR 30/14 A2972 RMK AO2
     T03010136=
