SACA31 KWBC 232000 RRC
METAR
MUCU 231950Z VRB03KT 8000 VCTS SCT020CB SCT070 29/21 Q1012 RMK CB
     AT I AND IV QUAD AD=
