SAUS70 KWBC 231618 RRB
METAR
KJZI 231615Z AUTO 36008KT 10SM CLR 22/11 A3017 RMK AO2=
KKY8 231615Z AUTO 17014KT 9SM CLR 23/13 A3010 RMK A01=
KL08 231615Z AUTO 16007KT 10SM CLR 20/02 A2980 RMK AO2=
KL35 231615Z AUTO 26006KT 10SM CLR 04/M03 A2992 RMK AO2=
KL52 231615Z AUTO 35004KT 9SM CLR 15/07 A2993 RMK A01=
KLBO 231615Z AUTO 18016G27KT 10SM SCT120 24/12 A2982 RMK AO2=
KLKR 231615Z AUTO 02005KT 10SM CLR 21/09 A3022 RMK AO2=
KLKU 231615Z AUTO 36010KT 10SM OVC022 15/06 A3025 RMK AO2
     T01530063=
KLRO 231615Z AUTO 33009KT 300V360 10SM CLR 22/11 A3016 RMK AO2=
KLRU 231615Z AUTO 24022G29KT 10SM SCT042 SCT049 SCT070 22/08 A2984
     RMK AO2 T02190082=
KLRY 231615Z AUTO 21019G25KT 10SM CLR 26/13 A2970 RMK AO2=
KLVL 231615Z AUTO 32008KT 10SM OVC018 18/12 A3020 RMK AO1
     T01830117=
KM40 231615Z AUTO 18012G17KT 10SM CLR 23/12 A3018 RMK AO2=
KMAN 231615Z AUTO 30013KT 10SM CLR 06/00 A2996 RMK A01=
KMAO 231615Z AUTO 36010G16KT 10SM CLR 20/00 A3018 RMK AO2=
KMBO 231615Z AUTO 14008G15KT 120V180 10SM CLR 24/16 A3013 RMK
     AO2=
KMBY 231615Z AUTO 16013G18KT 10SM CLR 24/13 A2973 RMK AO2=
KMDS 231615Z AUTO 14024G33KT 10SM CLR 18/14 A2935 RMK AO2=
KMEZ 231615Z AUTO VRB04KT 10SM OVC016 21/17 A2995 RMK AO2 CIG
     015V021 T02140166 $=
KMKJ 231615Z AUTO 00000KT 10SM CLR 21/03 A3029 RMK AO2
     T02050033=
KMNI 231615Z AUTO 01004G14KT 10SM CLR 21/09 A3019 RMK AO2=
KMTV 231615Z AUTO 00000KT 10SM CLR 18/03 A3026 RMK AO2
     T01800033=
KN38 231615Z AUTO 17009KT 10SM CLR 15/04 A3029 RMK AO2=
KO22 231615Z AUTO 00000KT 10SM CLR 10/M01 A2992 RMK A01=
KO32 231615Z AUTO 33005KT 8SM CLR 11/04 A2991 RMK AO2 T01090037
     $=
KOCQ 231615Z AUTO 16011KT 10SM CLR 18/12 A2990 RMK AO1
     T01770123=
KUTA 231615Z AUTO 19016G23KT 10SM CLR 25/16 A3007 RMK AO2
     T02470161 $=
KVGC 231615Z AUTO 16005KT 10SM CLR 15/05 A3033 RMK AO2=
KVJI 231615Z AUTO 00000KT 10SM CLR 20/05 A3026 RMK AO2
     T01960045=
KW78 231615Z AUTO 02005KT 10SM CLR 17/06 A3023 RMK AO1
     T01650057=
KW81 231615Z AUTO 34005KT 10SM BKN025 18/07 A3021 RMK AO1
     T01780073=
KX07 231615Z AUTO 05006KT 10SM CLR 27/18 A3013 RMK A01=
KXNX 231615Z AUTO 19010G19KT 160V220 10SM CLR 23/06 A3020 RMK
     A01=
KY19 231615Z AUTO 08013G18KT 10SM CLR 08/05 A2938 RMK AO2=
KOEO 231615Z AUTO 14012G16KT 10SM CLR 21/14 A2967 RMK AO2
     T02100144=
KOKV 231615Z AUTO 30004KT 10SM CLR 13/05 A3027 RMK AO2=
KOLG 231615Z AUTO 15006KT 10SM CLR 18/10 A2970 RMK AO1=
KOMH 231615Z AUTO 36006KT 10SM OVC025 16/08 A3027 RMK AO2=
KONM 231615Z AUTO 19004KT 10SM CLR 19/07 A2977 RMK AO2
     T01940066=
KORS 231615Z AUTO 00000KT 10SM FEW014 BKN029 08/08 A3009 RMK
     AO2=
KOZS 231615Z AUTO 18016G23KT 10SM CLR 25/13 A2980 RMK AO2=
KPAN 231615Z AUTO 20009G19KT 10SM SCT019 BKN024 OVC060 10/07 A2986
     RMK AO2 PWINO TSNO=
KPCM 231615Z AUTO 03004KT 10SM SCT035 28/18 A3015 RMK AO2=
KPGV 231615Z AUTO 01010KT 10SM OVC014 17/15 A3015 RMK AO2=
KPLR 231615Z AUTO 00000KT 10SM CLR 21/07 A3023 RMK A01=
KPVF 231615Z AUTO 00000KT 7SM CLR 10/M05 A2995 RMK AO1=
KRCE 231615Z AUTO 18026G32KT 10SM CLR 22/16 A2970 RMK AO2=
KRMN 231615Z AUTO 01006KT 4SM HZ OVC017 15/12 A3029 RMK AO2 LTG
     DSNT SE T01510116=
KRNH 231615Z AUTO 15013G16KT 10SM CLR 20/15 A2966 RMK AO2
     T02040151=
KRPH 231615Z AUTO 16015G22KT 130V200 7SM CLR 26/17 A2976 RMK AO2
     T02550167 $=
KRUG 231615Z AUTO 07025KT 10SM OVC009 07/06 A2949 RMK AO2=
KRVL 231615Z AUTO 00000KT 9SM CLR 14/07 A3029 RMK AO2=
KRYV 231615Z AUTO 17013G18KT 10SM CLR 20/11 A2986 RMK AO2
     T02040107=
KRZN 231615Z AUTO 15010G14KT 10SM CLR 19/11 A2968 RMK AO2
     T01940105=
