SAUS70 KWBC 232042 RRC
METAR
KNRN 232035Z AUTO 24027G36KT 7SM OVC030 31/02 A2927 RMK AO2=
KORG 232035Z AUTO 14008G14KT 10SM SCT026 BKN037 OVC055 28/21 A2997
     RMK AO2 T02820205=
KPPA 232035Z AUTO 21021G28KT 10SM CLR 26/11 A2958 RMK AO2
     T02600112=
KPTT 232035Z AUTO 18031G42KT 2 1/2SM HZ CLR 29/11 A2943 RMK AO2
     T02930107=
KRBO 232035Z AUTO 10SM SCT001 SCT005 BKN037 30/21 A2980 RMK AO2
     T03020207=
KRCR 232035Z AUTO 17014G23KT 10SM CLR 24/11 A2997 RMK AO2=
KSLB 232035Z AUTO 16026G32KT 10SM CLR 27/13 A2937 RMK AO2=
KSNL 232035Z AUTO 17024G29KT 10SM CLR 29/12 A2967 RMK AO2
     T02890116=
KT35 232035Z AUTO 18017G26KT 10SM BKN065 29/16 A2980 RMK AO2
     T02930164=
KTAZ 232035Z AUTO 18018G31KT 10SM SCT038 25/14 A2983 RMK AO2
     T02460143=
KTBR 232035Z AUTO 33004KT 10SM CLR 25/09 A3013 RMK AO2
     T02470085=
KTIF 232035Z AUTO 30019G31KT 10SM CLR 23/M01 A2921 RMK AO2
     T02311015=
KTIP 232035Z AUTO 17021G33KT 10SM CLR 23/12 A2989 RMK AO2
     T02330123=
KTQK 232035Z AUTO 22038G46KT 3SM HZ SCT025 OVC034 29/01 A2934 RMK
     AO2 T02940011=
KTVI 232035Z AUTO 36003KT 10SM CLR 25/07 A3012 RMK AO2=
KUNI 232035Z AUTO 13005KT 1 1/2SM HZ VV007 25/06 A3013 RMK AO2
     T02500056=
KVDI 232035Z AUTO 33004KT 10SM CLR 26/10 A3012 RMK AO2=
KVPC 232035Z AUTO VRB03KT 10SM CLR 24/02 A3014 RMK AO2=
KVUJ 232035Z AUTO 04006KT 10SM CLR 22/05 A3019 RMK AO2
     T02240050=
KW22 232035Z AUTO 000KT 10SM A3017 RMK AO2=
KWDR 232035Z AUTO 00000KT 10SM CLR 23/00 A3016 RMK AO2=
KXBP 232035Z AUTO 19018G27KT 10SM CLR 30/14 A2972 RMK AO2
     T03020136=
KZER 232035Z AUTO 08006KT 10SM OVC050 15/08 A3027 RMK AO2=
KUMP 232035Z AUTO 16014G20KT 10SM CLR 25/11 A3001 RMK AO2
     T02540113=
K11R 232035Z AUTO 15011G16KT 10SM SCT055 OVC070 30/17 A2985 RMK
     AO2 T02980166=
K19S 232035Z AUTO 21027G39KT 3SM HZ SCT033 30/04 A2939 RMK AO2 VIS
     2V4 T02980038=
K20V 232035Z AUTO 24017G23KT 10SM SCT038 SCT050 BKN100 05/M02
     A2955 RMK AO2=
K2J5 232035Z AUTO 33005KT 10SM CLR 25/09 A3014 RMK AO2
     T02460092=
K6I2 232035Z AUTO 17008KT 10SM CLR 24/06 A3009 RMK AO2=
K8A0 232035Z AUTO 18005KT 10SM CLR 23/03 A3011 RMK AO2=
KADH 232035Z AUTO 18019G24KT 10SM CLR 28/15 A2971 RMK AO2=
KADT 232035Z AUTO 22019G33KT 10SM CLR 30/M03 A2930 RMK AO2
     T02991035=
KAPS 232038Z AUTO 16011G15KT 10SM CLR 27/13 A3004 RMK AO2=
KAXX 232035Z AUTO 27011G17KT 240V300 5SM -RA BKN020 OVC027 03/01
     A2972 RMK AO2 T00340011=
KBMT 232035Z AUTO 16005KT 10SM -RA SCT027 BKN034 OVC045 24/20
     A2994 RMK AO2 T02350203=
KCNI 232035Z AUTO 07004KT 10SM CLR 23/02 A3015 RMK AO2
     T02310021=
KDCY 232035Z AUTO 17016G23KT 10SM CLR 26/09 A2999 RMK AO2
     T02570093=
KDED 232035Z AUTO 02011KT 10SM SCT050 26/16 A3009 RMK AO2
     T02630160=
KDUX 232035Z AUTO 19028G35KT 10SM CLR 27/08 A2954 RMK AO2
     T02660081=
KEBS 232035Z AUTO 15018G29KT 10SM FEW110 25/15 A2946 RMK AO2=
KETN 232035Z AUTO 18020G26KT 10SM CLR 29/14 A2972 RMK AO2
     T02890140=
KGNB 232035Z AUTO 27007G16KT 240V310 10SM SCT038 BKN050 OVC065
     04/M03 A2954 RMK AO2 T00431028=
KGNC 232035Z AUTO 23017G24KT 10SM CLR 30/09 A2972 RMK AO2
     T02970086=
KHEQ 232035Z AUTO 35021G30KT 10SM CLR 23/01 A2928 RMK AO2=
KHVE 232035Z AUTO 31018G25KT 10SM SCT100 09/M02 A2971 RMK AO2=
KHZR 232035Z AUTO 16005G15KT 10SM SCT065 27/16 A3001 RMK AO2
     T02710156=
KJES 232035Z AUTO 00000KT 10SM CLR 21/05 A3014 RMK AO2=
KK62 232035Z AUTO 18006G17KT 10SM CLR 25/05 A3009 RMK AO2=
KMHP 232035Z AUTO 11003KT 10SM CLR 24/10 A3012 RMK AO2
     T02440102=
KMQW 232035Z AUTO 35003KT 7SM CLR 26/10 A3012 RMK AO2
     T02550103=
