SAUS70 KWBC 231938
METAR
KPWC 231935Z AUTO 14011G19KT 10SM CLR 23/13 A2954 RMK AO2=
KRGK 231935Z AUTO 13013KT 10SM CLR 24/12 A2954 RMK AO2=
KROX 231935Z AUTO 07018G23KT 10SM CLR 17/08 A2953 RMK AO2=
KSAZ 231935Z AUTO 14012G25KT 10SM CLR 24/12 A2946 RMK AO2=
KSGS 231935Z AUTO 14013G20KT 10SM CLR 24/12 A2952 RMK AO2
     T02440116=
KTEW 231935Z AUTO 17010G18KT 10SM SCT050 25/09 A3005 RMK AO2
     T02480094=
KTWM 231935Z AUTO 07015G18KT 10SM CLR 19/11 A2965 RMK AO2=
KUKT 231935Z AUTO 09006G13KT 10SM BKN046 17/10 A3024 RMK A01=
KVVV 231935Z 14028G33KT 10SM 23/13 A2931 RMK AO2=
KY63 231935Z AUTO 13016G30KT 10SM CLR 22/12 A2936 RMK AO2
     T02180120=
K14Y 231935Z AUTO 13021G27KT 10SM CLR 22/12 A2945 RMK AO2=
K21D 231935Z AUTO 13010G19KT 10SM CLR 24/12 A2955 RMK AO2=
KACQ 231935Z AUTO 13024G28KT 10SM CLR 23/12 A2951 RMK AO2=
KAIT 231935Z AUTO 12013G20KT 10SM CLR 24/12 A2953 RMK AO2=
KAMN 231935Z AUTO 15014G20KT 10SM SCT055 25/08 A3003 RMK AO2
     T02470084=
KAUM 231935Z AUTO 15016G22KT 10SM CLR 24/13 A2955 RMK AO2=
KBDH 231935Z AUTO 14026G34KT 7SM CLR 24/12 A2943 RMK AO2=
KCBG 231935Z AUTO 13015G24KT 10SM CLR 25/13 A2953 RMK AO2=
KCFE 231935Z AUTO 13023G28KT 10SM CLR 24/13 A2947 RMK AO2=
KCOQ 231935Z AUTO 10011G20KT 10SM CLR 18/09 A2960 RMK AO2 TSNO=
KCVH 231935Z AUTO 00000KT 10SM CLR 18/04 A2998 RMK A01=
KDLZ 231935Z AUTO 17010KT 10SM CLR 23/08 A3013 RMK AO2=
KDRM 231935Z AUTO 14009KT 10SM CLR 18/11 A3004 RMK AO2
     T01810105=
KDXX 231935Z AUTO 14028G34KT 10SM CLR 26/12 A2934 RMK AO2=
KEDJ 231935Z AUTO 20010G16KT 160V230 10SM SCT055 24/09 A3011 RMK
     A01=
KELO 231935Z AUTO 13013G17KT 10SM SCT090 21/09 A2967 RMK AO2=
KFBL 231935Z AUTO 13020G26KT 10SM CLR 24/13 A2952 RMK AO2=
KFFM 231935Z AUTO 12023G29KT 10SM CLR 23/12 A2935 RMK AO2=
KFSE 231935Z AUTO 11011G19KT 10SM CLR 23/10 A2945 RMK AO2=
KGHW 231935Z AUTO 11024G31KT 10SM CLR 23/12 A2940 RMK AO2=
KGYL 231935Z AUTO 13021G30KT 7SM CLR 24/13 A2945 RMK AO2
     T02440125=
KHAF 231935Z AUTO 33015KT 7SM CLR 16/09 A3002 RMK AO2=
KHCO 231935Z AUTO 07013G17KT 10SM CLR 19/10 A2947 RMK AO2=
KI69 231935Z AUTO 17004KT 10SM SCT060 25/08 A3011 RMK AO2
     T02450083=
KJKJ 231935Z AUTO 12019G26KT 10SM CLR 24/12 A2935 RMK AO2 TSNO=
KJMR 231935Z AUTO 13008G17KT 10SM SCT043 24/12 A2957 RMK AO2=
KLDM 231935Z AUTO 18011G19KT 140V200 10SM BKN050 OVC055 24/12
     A2992 RMK AO2 T02370116=
KLJF 231935Z AUTO 14019G25KT 10SM CLR 24/11 A2944 RMK AO2=
KMGG 231935Z AUTO 12013G21KT 10SM CLR 24/12 A2948 RMK AO2
     T02400115 PWINO=
KMGN 231935Z AUTO 18008G16KT 140V210 10SM CLR 24/11 A2998 RMK AO2
     T02450109=
KMVE 231935Z AUTO 15020G30KT 10SM CLR 24/13 A2935 RMK AO2=
KOVL 231935Z AUTO 15024G30KT 4SM HZ CLR 24/12 A2940 RMK AO2=
KOZW 231935Z AUTO 17016G21KT 10SM SCT055 24/10 A3007 RMK AO2
     T02350096=
K08D 231935Z AUTO 05016G24KT 10SM OVC013 07/06 A2943 RMK AO2=
K10G 231935Z AUTO 17006KT 10SM CLR 23/05 A3017 RMK AO2=
K20U 231935Z AUTO 01008KT 10SM OVC008 06/06 A2942 RMK AO2=
K2C8 231935Z AUTO 04010KT 9SM CLR 16/09 A2948 RMK AO2=
K4R5 231935Z AUTO 14004KT 10SM BKN110 21/13 A2967 RMK AO2
     T02140125=
KAQP 231933Z AUTO 16023G29KT 10SM SCT085 25/11 A2933 RMK AO2=
KARV 231935Z AUTO 15014G22KT 10SM BKN039 22/12 A2976 RMK AO2
     T02170119=
KC29 231935Z AUTO 15017G22KT 10SM CLR 24/13 A2976 RMK AO1
     T02430127=
KD50 231935Z AUTO 04013G22KT 10SM OVC013 05/03 A2952 RMK AO2=
KD55 231935Z AUTO 05022G29KT 10SM CLR 12/12 A2946 RMK AO2=
KDVP 231933Z AUTO 14025G31KT 10SM CLR 24/12 A2937 RMK AO2
     T02380124=
KETH 231933Z AUTO 12025G32KT 10SM 23/12 A2933 RMK AO2=
