SAUS70 KWBC 232120 RRC
METAR
KTYQ 232115Z AUTO 17015G23KT 10SM CLR 25/10 A2999 RMK AO2
     T02450099=
KVHN 232115Z AUTO 23016G23KT 10SM CLR 30/07 A2975 RMK AO2
     T03040067=
KVTP 232115Z AUTO 25017G28KT 10SM SCT019 BKN029 OVC036 M10/M16
     A2964 RMK AO2=
KVVS 232115Z AUTO 07010KT 10SM CLR 22/01 A3018 RMK AO2
     T02170010=
KVYS 232115Z AUTO 15021G30KT 10SM CLR 24/14 A2978 RMK AO2
     T02400140=
KZPH 232115Z AUTO 01007KT 10SM CLR 28/14 A3007 RMK A02
     T02760143=
KARM 232115Z AUTO 16017G20KT 10SM BKN050 BKN065 28/15 A2988 RMK
     AO2 T02820154 TSNO=
KAZC 232115Z AUTO 33008G18KT 310V030 10SM SCT110 07/M02 A2989 RMK
     AO2=
KBKD 232115Z AUTO 19016G24KT 7SM CLR 31/14 A2970 RMK AO2
     T03080138=
KC07 232115Z AUTO M1/4SM +SN OVC001 M07/M07 A2961 RMK AO2
     P0001=
KCXP 232115Z AUTO VRB06G13KT 10SM BKN060 07/M08 A3005 RMK AO2=
KDTA 232115Z AUTO 34012G19KT 10SM BKN070 05/M03 A2987 RMK AO1=
KDZB 232115Z AUTO 17015G23KT 10SM CLR 29/14 A2980 RMK AO2
     T02870140=
KEIK 232115Z AUTO 29015G20KT 10SM BKN110 17/M07 A2934 RMK AO2
     T01701066 PWINO=
KF17 232115Z AUTO 17012G21KT 10SM SCT050 BKN070 30/14 A2990 RMK
     AO2=
KFLY 232115Z AUTO 24009G30KT 7SM -RA SCT060 BKN080 OVC110 11/01
     A2946 RMK AO2 T01050010=
KFTN 232115Z AUTO 15012KT 10SM CLR 31/17 A2975 RMK A01=
KPYX 232115Z AUTO 20030G36KT 10SM CLR 26/08 A2951 RMK AO2
     T02560081=
KRTS 232115Z AUTO 05011G21KT 10SM SCT060 06/M10 A3006 RMK AO2=
KSWW 232115Z AUTO 17021G25KT 10SM CLR 31/11 A2971 RMK AO2
     T03050113=
KANW 232115Z AUTO 28020G28KT 10SM CLR 21/M01 A2920 RMK AO2
     T02141014=
KBNW 232115Z AUTO 16021G28KT 10SM SCT110 27/14 A2949 RMK AO2=
KBTN 232115Z AUTO 13024G33KT 10SM CLR 22/11 A2922 RMK AO2=
KBWP 232115Z AUTO 13024G34KT 8SM CLR 23/12 A2929 RMK AO2=
KC09 232115Z AUTO 18018G27KT 10SM SCT049 25/14 A2981 RMK AO2
     T02520144=
KCCY 232115Z AUTO 15020G28KT 10SM FEW043 SCT170 23/13 A2956 RMK
     AO2=
KCKZ 232115Z AUTO 04006KT 10SM OVC043 15/09 A3024 RMK AO2=
KCSQ 232115Z AUTO 18028G39KT 9SM FEW060 FEW110 27/14 A2950 RMK
     AO2=
KDEH 232115Z AUTO 17014G24KT 140V200 10SM CLR 24/13 A2960 RMK
     AO2=
KEGV 232115Z AUTO 13010G19KT 10SM SCT038 21/11 A2976 RMK AO2
     T02070106=
KGGI 232115Z AUTO 13015G21KT 10SM CLR 26/15 A2957 RMK AO2
     T02640153=
KGRN 232115Z AUTO 33014G20KT 10SM CLR 14/01 A2933 RMK AO2
     T01380012=
KM30 232115Z AUTO 19011G16KT 10SM CLR 26/10 A2997 RMK AO2
     T02620100=
KPTD 232115Z AUTO 04006KT 10SM CLR 20/05 A3025 RMK AO2=
KPVB 232115Z AUTO 16014G19KT 10SM CLR 23/13 A2970 RMK AO1
     T02300128=
KRNH 232115Z AUTO 14013G22KT 10SM CLR 24/16 A2955 RMK AO2
     T02380163=
KRZL 232115Z AUTO 16015G23KT 10SM SCT120 25/11 A2993 RMK AO2=
KSAR 232115Z AUTO 18019G25KT 10SM CLR 26/14 A2987 RMK AO2
     T02560143=
KSLO 232115Z AUTO 17014G27KT 10SM SCT045 26/14 A2989 RMK AO2 LTG
     DSNT NW T02620136=
KTNU 232115Z AUTO 14019G25KT 10SM CLR 27/15 A2952 RMK A01=
KUSE 232115Z AUTO 15012G19KT 10SM CLR 24/09 A3005 RMK AO2=
KATA 232115Z AUTO 16009G18KT 130V190 10SM FEW060 29/14 A2984 RMK
     AO2 SLP004 T02890140 $=
KAVQ 232115Z AUTO 29010KT 10SM CLR 22/08 A2976 RMK AO2
     T02200079=
KAXH 232115Z AUTO 15009G19KT 10SM CLR 29/14 A2989 RMK AO2
     T02900141=
KBAM 232115Z AUTO 31013G18KT 10SM SCT039 SCT048 BKN055 06/M01
     A3004 RMK AO1=
KBDU 232115Z AUTO 27015G27KT 10SM SCT095 BKN120 16/M05 A2936 RMK
     AO2=
KBPC 232115Z AUTO 21018G24KT 10SM CLR 26/08 A2953 RMK AO2=
KERV 232115Z AUTO 15017KT 10SM SCT045 27/16 A2981 RMK AO2
     T02670155=
KF05 232115Z AUTO 19021G30KT 10SM CLR 34/12 A2959 RMK AO2
     T03380118=
