SAKA31 PTYA 232100
METAR PTYA 232052Z VRB06KT 11SM -RA SCT016CB OVC120 25/25 A2973 RMK
CB N-E-SE SLP069 60017 8/32/ T02490245 53005=
