SAUS70 KWBC 231640 RRG
METAR
KBBP 231635Z AUTO 36007KT 10SM CLR 21/07 A3018 RMK AO2=
KBDG 231635Z AUTO 20012KT 10SM 04/02 A2975 RMK AO1 T00380016=
KBEC 231635Z AUTO 18025G33KT 10SM CLR 27/12 A2958 RMK AO2
     T02700124=
KBQK 231635Z AUTO 03006KT 10SM CLR 24/13 A3017 RMK AO2
     T02440126=
KBUU 231635Z AUTO 15011G17KT 10SM CLR 22/12 A2989 RMK AO2
     T02210124 PWINO=
KBVS 231635Z AUTO 07004KT 10SM BKN014 OVC021 07/07 A3011 RMK
     A01=
KBYY 231635Z AUTO 16017G25KT 10SM SCT038 BKN060 28/17 A2997 RMK
     AO2 T02790180=
KC65 231635Z AUTO 19010G21KT 10SM FEW050 23/12 A3002 RMK A01=
KGHG 231635Z AUTO 06007KT 10SM CLR 15/13 A3034 RMK AO2=
KGMJ 231635Z AUTO 19019G26KT 10SM CLR 19/06 A2977 RMK AO2=
KGOP 231635Z AUTO 10SM SCT031 BKN038 25/16 A2989 RMK AO2=
KGVT 231635Z AUTO 18022G25KT 10SM CLR 26/16 A2989 RMK AO2 TSNO
     T02620165=
KGZL 231635Z AUTO 19019G26KT 10SM BKN029 24/17 A2983 RMK AO2=
KHDE 231635Z AUTO 18018G25KT 10SM CLR 24/10 A2930 RMK AO2
     T02350095=
KHDL 231635Z AUTO VRB04KT 10SM CLR 22/03 A3019 RMK AO2=
KHHG 231635Z AUTO 19011G16KT 10SM CLR A3009 RMK AO2=
KHII 231635Z AUTO 34011G20KT 10SM CLR 20/00 A2978 RMK AO2=
KHMZ 231635Z AUTO 00000KT 10SM CLR 13/04 A3029 RMK AO2
     T01280040=
KHNR 231635Z AUTO 18022G32KT 9SM CLR 24/15 A2944 RMK A01=
KHPT 231635Z AUTO 16019G26KT 10SM CLR 22/12 A2960 RMK AO2=
KI63 231635Z AUTO 15015G22KT 10SM SCT120 21/13 A2980 RMK AO2
     T02140133=
KI74 231635Z AUTO 19004KT 10SM CLR 20/11 A3018 RMK AO2=
KIBM 231635Z AUTO 33019G27KT 10SM CLR 14/01 A2931 RMK AO2
     T01370010=
KICL 231635Z AUTO 19020G29KT 10SM CLR 26/13 A2952 RMK AO2=
KIDP 231635Z AUTO 19027G32KT 10SM CLR 26/15 A2969 RMK AO2
     T02570152=
KIKK 231635Z AUTO 18016G23KT 10SM SCT065 23/13 A2995 RMK AO2
     T02250125=
KIKV 231635Z AUTO 16020G27KT 10SM CLR 23/13 A2958 RMK AO2=
KJAS 231635Z AUTO 16009G23KT 9SM FEW039 FEW055 27/18 A2999 RMK
     AO2=
KJOT 231635Z AUTO 17015G21KT 10SM CLR 23/13 A2992 RMK AO2
     T02300133=
KJVW 231635Z AUTO 16008G14KT 120V180 10SM CLR 26/15 A3011 RMK
     AO2=
KJYR 231635Z AUTO 18023KT 10SM CLR 25/12 A2935 RMK AO2=
KLAM 231635Z AUTO 20020G32KT 180V240 10SM BKN060 OVC070 12/M01
     A2972 RMK AO2 T01181015=
KLCQ 231635Z AUTO 05003KT 10SM CLR 23/12 A3016 RMK AO2=
KLGC 231635Z AUTO 00000KT 10SM CLR 21/03 A3023 RMK AO2
     T02080029=
KLLN 231635Z AUTO 21019G27KT 10SM SCT120 26/10 A2976 RMK AO2=
KLOM 231635Z AUTO 07006KT 10SM BKN110 17/10 A3026 RMK AO2
     T01660103=
KLOT 231635Z AUTO 17021G29KT 10SM CLR 22/13 A2993 RMK AO2=
KLRJ 231635Z AUTO 16021G28KT 10SM CLR 23/13 A2934 RMK AO2=
KLXN 231635Z AUTO 19021G30KT 10SM CLR 27/06 A2926 RMK AO2
     T02650060=
KMDD 231635Z AUTO 19017G21KT 10SM CLR 25/11 A2980 RMK AO2
     T02550107=
KMGC 231635Z AUTO 17011G19KT 10SM CLR 22/12 A2999 RMK AO2=
KMJD 231635Z AUTO 14010G15KT 10SM FEW038 25/16 A3014 RMK AO2=
KMLJ 231635Z AUTO VRB03KT 10SM CLR 22/10 A3020 RMK AO2=
KMNH 231635Z AUTO 23017G25KT 10SM SCT120 16/M04 A2943 RMK AO2=
KMQI 231635Z AUTO 36014G21KT 5SM -DZ OVC004 17/16 A3006 RMK AO2
     P0003 T01650162=
KMQS 231635Z AUTO VRB05G12KT 10SM SCT047 SCT075 15/10 A3027 RMK
     AO2=
