SAUS70 KWBC 232142
METAR
KBJI 232135Z AUTO 11018G21KT 10SM CLR 21/12 A2946 RMK AO2
     T02070115=
KOWX 232135Z AUTO 17011G15KT 10SM CLR 24/05 A3007 RMK AO1=
KAHQ 232135Z AUTO 18021G32KT 7SM CLR 29/12 A2933 RMK AO2
     T02900115=
KC35 232135Z AUTO 15011G18KT 10SM SCT046 23/13 A2970 RMK AO2
     T02300133 PWINO=
KC75 232135Z AUTO 19014G34KT 10SM CLR 25/16 A2977 RMK AO2
     T02470161=
KCAV 232135Z AUTO 14021G35KT 10SM CLR 24/15 A2947 RMK A01=
KCFS 232135Z AUTO 14009KT 10SM CLR 23/08 A3005 RMK AO2
     T02320080=
KCKN 232135Z AUTO 12016G22KT 10SM CLR 24/11 A2938 RMK AO2=
KCNC 232135Z AUTO 17019G33KT 9SM SCT110 27/15 A2956 RMK AO2=
KDNV 232135Z AUTO 17016G26KT 10SM CLR 24/11 A2993 RMK AO2
     T02430111=
KFET 232135Z AUTO 17015G27KT 5SM HZ SCT035 SCT041 29/13 A2932 RMK
     AO2 T02920128=
KFFL 232135Z AUTO 16019G30KT 9SM CLR 26/14 A2961 RMK A01=
KFKR 232135Z AUTO 17013G19KT 10SM CLR 24/10 A2996 RMK AO2=
KFOA 232135Z AUTO 19018G29KT 10SM CLR 26/12 A2992 RMK AO2=
KGBG 232135Z AUTO 16015G21KT 10SM CLR 24/16 A2972 RMK AO2
     T02380156=
KGGF 232135Z AUTO 36022G28KT 10SM FEW120 19/02 A2927 RMK AO2=
KMLE 232135Z AUTO 16015G32KT 10SM SCT110 29/13 A2935 RMK AO2
     T02890130=
KMQS 232135Z AUTO 01005KT 3SM -RA FEW024 OVC035 14/13 A3023 RMK
     AO2=
KMWO 232135Z AUTO 16011KT 10SM CLR 24/06 A3007 RMK AO2
     T02430062=
KOGA 232135Z AUTO 35019KT 10SM SCT110 21/04 A2929 RMK AO2
     T02050035=
KOOA 232135Z AUTO 17025G33KT 10SM CLR 28/19 A2957 RMK AO2
     T02830185=
KPEA 232135Z AUTO 16015G22KT 10SM CLR 27/14 A2955 RMK AO2
     T02720141=
KPNT 232135Z AUTO 16020G25KT 10SM CLR 24/16 A2983 RMK AO2
     T02360163=
KPPO 232135Z AUTO 17013G19KT 10SM CLR 24/14 A2993 RMK AO2
     T02400142=
KPPQ 232135Z AUTO 17015G26KT 10SM CLR 25/15 A2976 RMK AO2
     T02480152=
KPRG 232135Z AUTO 16017G23KT 10SM CLR 24/13 A2993 RMK AO2
     T02410125=
KRSV 232135Z AUTO 18019KT 10SM CLR 25/09 A2995 RMK AO2
     T02530087=
KTYQ 232135Z AUTO 16017KT 10SM CLR 24/10 A2999 RMK AO2
     T02390097=
K2G2 232135Z AUTO 13004KT 10SM CLR 22/02 A3014 RMK A01=
K33N 232135Z AUTO 01010KT 4SM BR BKN006 OVC013 14/14 A3016 RMK
     A01=
KADU 232135Z AUTO 16017G29KT 10SM BKN002 BKN016 OVC065 27/13 A2942
     RMK AO2 PWINO=
KAFK 232135Z AUTO 19028G35KT 10SM CLR 27/15 A2942 RMK AO2
     T02730145=
KAJG 232135Z AUTO 17018G24KT 10SM CLR 27/08 A2995 RMK AO2
     T02680081=
KANW 232135Z AUTO 29021G25KT 10SM CLR 21/M01 A2922 RMK AO2
     T02061008=
KASW 232135Z AUTO 17010G17KT 110V220 10SM CLR 23/10 A2998 RMK AO2
     T02370099=
KAWG 232135Z AUTO 15023G30KT 10SM CLR 26/16 A2960 RMK AO2=
KAXA 232135Z AUTO 14023G33KT 9SM CLR 25/15 A2942 RMK A01=
KCSQ 232135Z AUTO 15022G33KT 9SM CLR 24/16 A2945 RMK AO2=
KDEH 232135Z AUTO 16015G25KT 130V190 10SM CLR 23/13 A2961 RMK
     AO2=
KEGV 232135Z AUTO 14010G17KT 10SM SCT038 20/11 A2977 RMK AO2
     T02010107=
KFWC 232135Z AUTO 16016KT CLR 26/10 A2992 RMK AO1 T02580098
     PWINO=
KGDB 232135Z AUTO 12020G30KT 10SM CLR 26/13 A2935 RMK AO2
     T02600131=
KGGI 232135Z AUTO 14020G25KT 10SM CLR 27/15 A2957 RMK AO2
     T02710153=
KGLX 232135Z AUTO 06008KT 10SM CLR 24/13 A3005 RMK A01=
KGPC 232135Z AUTO 10SM CLR 23/10 A2998 RMK AO2 T02340102=
KHCD 232135Z AUTO 13024G32KT 10SM CLR 25/13 A2943 RMK AO2
     T02530125=
KHHV 232135Z AUTO 14017G23KT 10SM FEW034 27/19 A2987 RMK A01=
KIMS 232135Z AUTO 15006KT 10SM CLR 23/08 A3008 RMK AO2=
KLNN 232135Z AUTO 14005KT 10SM CLR 21/01 A3012 RMK AO1
     T02140014=
KMJQ 232135Z AUTO 16021G31KT 10SM CLR 25/12 A2940 RMK AO2=
KOLY 232135Z AUTO 16013G22KT 10SM CLR 26/08 A2993 RMK AO2
     T02620075=
