SACA33 KWBC 232000 RRB
METAR
TFFF 232030Z AUTO 10009KT 9999 BKN025 BKN036 30/25 Q1011 TEMPO
     4000 SHRA SCT018TCU=
TFFR 232030Z AUTO 07008KT 9999 FEW020/// BKN038/// ///TCU 28/24
     Q1011 TEMPO 4000 SHRA=
