SAUS70 KWBC 232200 RRZ
METAR
KOMN 232150Z 03010G16KT 10SM CLR 25/20 A3009=
