SAUS70 KWBC 231842 RRC
METAR
KZER 231835Z AUTO 10007KT 10SM OVC033 14/08 A3028 RMK AO2=
KAUN 231835Z AUTO VRB06KT 10SM CLR 17/M04 A2997 RMK A01=
KBBD 231835Z AUTO 17017G27KT 10SM CLR 26/14 A2980 RMK AO2=
KBDG 231835Z AUTO 23016G25KT 10SM 07/M03 A2976 RMK AO1
     T00691033=
KBYY 231835Z AUTO 18016G22KT 10SM CLR 29/16 A2993 RMK AO2
     T02950167=
KCCU 231835Z AUTO 19004KT 3/4SM -SN OVC001 M02/M05 A2963 RMK
     AO2=
KCOM 231835Z AUTO 19018G24KT 10SM CLR 29/14 A2979 RMK AO2
     T02870137=
KDKR 231835Z AUTO 18011G21KT 10SM BKN055 BKN065 28/15 A2992 RMK
     AO2=
KE41 231835Z AUTO 18017G23KT 10SM CLR 24/15 A2981 RMK AO2
     T02450150=
KECU 231835Z AUTO 16012G23KT 10SM CLR 24/16 A2990 RMK AO2=
KFMM 231835Z AUTO 35013G21KT 10SM CLR 21/M00 A2929 RMK AO2=
KGVT 231835Z AUTO 18019G27KT 10SM BKN045 28/16 A2985 RMK AO2 TSNO
     T02840159=
KJAS 231835Z AUTO 18010G16KT 120V200 9SM FEW039 SCT046 SCT050
     28/19 A2995 RMK AO2=
KLAM 231835Z AUTO 21021G29KT 10SM OVC060 11/M01 A2970 RMK AO2
     T01131015=
KLLN 231835Z AUTO 22021G30KT 10SM CLR 27/10 A2971 RMK AO2=
KPLU 231835Z AUTO 00000KT 10SM SCT016 SCT022 10/07 A3015 RMK
     AO2=
KPOY 231835Z AUTO 33022G31KT 4SM -SN SCT020 01/M02 A2959 RMK
     AO2=
KSBS 231835Z AUTO 22006KT 1 3/4SM OVC007 00/00 A2954 RMK AO1
     T00020002=
KT35 231835Z AUTO 18017G23KT 10SM SCT042 BKN050 28/17 A2986 RMK
     AO2 T02810172=
KASW 231835Z AUTO 17009G18KT 140V200 10SM CLR 23/11 A3001 RMK AO2
     T02410119=
KAWG 231835Z AUTO 17018G27KT 9SM CLR 24/15 A2965 RMK AO2=
KAXA 231835Z AUTO 15025G32KT 10SM CLR 25/14 A2946 RMK A01=
KBUU 231835Z AUTO 16012G19KT 10SM CLR 23/13 A2984 RMK AO2
     T02310130 PWINO=
KC65 231835Z AUTO 16016G23KT 10SM SCT050 SCT055 25/12 A2997 RMK
     A01=
KDNS 231835Z AUTO RMK AO2 PNO PWINO=
KFFL 231835Z AUTO 16021G26KT 10SM CLR 24/13 A2966 RMK A01=
KFKR 231835Z AUTO 18014G24KT 10SM CLR 25/11 A2998 RMK AO2=
KGGP 231835Z AUTO 19016G25KT 10SM SCT050 25/11 A3001 RMK AO2=
KGHG 231835Z AUTO 04005G10KT 10SM -RA FEW060 FEW070 14/12 A3031
     RMK AO2=
KI63 231835Z AUTO 15019G23KT 10SM CLR 23/14 A2977 RMK AO2
     T02290138=
KI74 231835Z AUTO 16007KT 10SM BKN060 22/11 A3013 RMK AO2=
KIBM 231835Z AUTO 34022G27KT 10SM CLR 15/00 A2934 RMK AO2
     T01531005=
KIKK 231835Z AUTO 19019G26KT 10SM CLR 25/12 A2991 RMK AO2
     T02510124=
KLXN 231835Z AUTO 21030G40KT 5SM HZ CLR 30/02 A2922 RMK AO2
     T03010022=
KMGC 231835Z AUTO 18014G21KT 10SM CLR 25/12 A2994 RMK AO2=
KMQS 231835Z AUTO 08010G18KT 10SM CLR 17/11 A3024 RMK AO2=
KOLZ 231835Z AUTO 15022KT 10SM CLR 24/13 A2963 RMK A01=
KONL 231835Z AUTO 18023G30KT 10SM CLR 27/05 A2921 RMK AO2
     T02700045=
KPNT 231835Z AUTO 17023G29KT 10SM CLR 25/16 A2987 RMK AO2
     T02520161=
KPPQ 231835Z AUTO 14015G21KT 10SM CLR 24/15 A2978 RMK AO2
     T02350149=
KSDA 231835Z AUTO 18026G33KT 10SM CLR 29/13 A2941 RMK AO2=
KUNI 231835Z AUTO 12004KT 1/2SM HZ VV005 25/07 A3016 RMK AO2
     T02520074=
K06C 231835Z AUTO 17017G23KT 10SM CLR 24/16 A2986 RMK AO2
     T02400163=
K1H2 231835Z AUTO 16010G28KT 10SM OVC042 24/14 A2995 RMK AO2
     T02430141=
K57C 231835Z AUTO 17011G18KT 10SM CLR 23/13 A2984 RMK AO2
     T02260127=
KAAA 231835Z AUTO 18019G30KT 10SM SCT120 25/15 A2984 RMK AO2
     T02460147=
KADU 231835Z AUTO 17020G26KT 10SM 28/12 A2946 RMK AO2 PWINO=
KAFK 231835Z AUTO 18023G33KT 10SM CLR 29/13 A2943 RMK AO2
     T02910130=
KAHQ 231835Z AUTO 19027G32KT 7SM CLR 29/12 A2936 RMK AO2
     T02940119=
KAIO 231835Z AUTO 17021G31KT 8SM CLR 27/15 A2944 RMK AO2=
KAJG 231835Z AUTO 17019G29KT 10SM CLR 27/10 A2998 RMK AO2
     T02700102=
