SAUS70 KWBC 232140
METAR
KADC 232136Z AUTO 13020G30KT 10SM SCT049 23/11 A2941 RMK AO2
     TSNO=
KATP 232135Z AUTO 11014KT 10SM SCT036 BKN050 25/17 A3003 RMK
     A01=
KBAX 232135Z AUTO 17011G18KT 10SM CLR 22/09 A3007 RMK AO2
     T02210089=
KBQX 232135Z AUTO 15012G18KT 9SM CLR 27/19 A2989 RMK A01=
KCDD 232134Z AUTO 14005KT 10SM CLR 22/09 A2963 RMK AO2=
KD39 232135Z AUTO 13020G28KT 10SM CLR 23/12 A2941 RMK AO2
     T02250123=
KDSF 232135Z AUTO 06006KT 10SM CLR 25/15 A3005 RMK A01=
KERY 232135Z AUTO 14011G18KT 10SM CLR 22/10 A2994 RMK AO2
     T02160104=
KGHB 232135Z AUTO VRB05G14KT 9SM CLR 26/18 A2999 RMK A01=
KGLX 232135Z AUTO 06008KT 10SM CLR 24/13 A3005 RMK A01=
KGRY 232135Z AUTO 12013KT 10SM CLR 24/16 A3002 RMK A01=
KHCD 232135Z AUTO 13024G32KT 10SM CLR 25/13 A2943 RMK AO2
     T02530125=
KHHV 232135Z AUTO 14017G23KT 10SM FEW034 27/19 A2987 RMK A01=
KHYX 232135Z AUTO 16009KT 10SM SCT060 23/10 A3004 RMK AO2
     T02270096=
KHZX 232135Z AUTO 11012G22KT 10SM SCT046 22/12 A2953 RMK AO2=
KIMS 232135Z AUTO 15006KT 10SM CLR 23/08 A3008 RMK AO2=
KLVN 232135Z AUTO 14016G24KT 10SM CLR 24/11 A2950 RMK AO2=
KMJQ 232135Z AUTO 16021G31KT 10SM CLR 25/12 A2940 RMK AO2=
KMOP 232135Z AUTO 15006G16KT 10SM CLR 23/10 A3000 RMK AO2
     T02270100=
KMZH 232135Z AUTO 14007KT 10SM SCT049 SCT055 23/12 A2955 RMK
     AO2=
KONA 232135Z AUTO 16013G26KT 10SM CLR 24/12 A2959 RMK AO2=
KPMH 232135Z AUTO 18004KT 10SM CLR 25/01 A3011 RMK AO2
     T02480011=
KPZZ 232135Z AUTO 11016KT 9SM CLR 25/16 A3002 RMK A01=
KRRT 232135Z AUTO 03015G19KT 10SM CLR 15/11 A2951 RMK AO2=
KVAF 232135Z AUTO 13017KT 10SM CLR 28/17 A2991 RMK A01=
KVOA 232140Z AUTO 09011KT 10SM CLR 25/16 A3007 RMK A01=
KWBF 232135Z AUTO VRB03KT 10SM 26/18 A3001 RMK A01=
KY31 232135Z AUTO 15007G14KT 10SM CLR 23/09 A3002 RMK AO2
     T02300085=
KY49 232135Z AUTO 09007KT 060V120 10SM BKN048 BKN055 20/11 A2947
     RMK AO2 T01990113=
KPPO 232135Z AUTO 17013G19KT 10SM CLR 24/14 A2993 RMK AO2
     T02400142=
KPRG 232135Z AUTO 16017G23KT 10SM CLR 24/13 A2993 RMK AO2
     T02410125=
KPSO 232135Z AUTO 23015G22KT 10SM OVC060 04/M07 A2973 RMK AO2
     T00391072=
KRAS 232135Z AUTO 14017G23KT 10SM CLR A2984 RMK AO2=
KRPJ 232135Z AUTO 17018G29KT 10SM CLR 24/16 A2979 RMK AO2
     T02350155 TSNO=
KRSV 232135Z AUTO 18019KT 10SM CLR 25/09 A2995 RMK AO2
     T02530087=
KRVJ 232135Z AUTO 04003KT 10SM CLR 25/11 A3012 RMK AO2
     T02470110=
KRWV 232135Z AUTO 16019G25KT 10SM SCT060 29/16 A2982 RMK AO2
     T02920163=
KRYW 232135Z AUTO 16009G21KT 10SM BKN049 28/16 A2982 RMK AO2
     T02750157=
KS33 232135Z AUTO 02004KT 10SM BKN046 10/M01 A3013 RMK AO2=
KSAA 232135Z AUTO 26015G21KT 7SM -SN SCT015 SCT026 OVC035 00/00
     A2961 RMK AO2=
KSME 232135Z AUTO 20004KT 10SM CLR 24/04 A3008 RMK AO2=
KSTE 232135Z AUTO 14012G21KT 10SM SCT046 SCT120 24/10 A2975 RMK
     AO2 T02350100=
KSTK 232135Z AUTO 33019G27KT 10SM SCT110 16/01 A2933 RMK AO2=
KSXK 232135Z AUTO 16024G34KT 10SM CLR 29/12 A2927 RMK AO2=
KT41 232135Z AUTO 10SM CLR 28/17 A2990 RMK AO2 T02820174=
KT74 232135Z AUTO 17018G23KT 10SM SCT050 BKN065 29/18 A2981 RMK
     AO2 T02880176=
KT82 232135Z AUTO 17011G21KT 10SM CLR 26/15 A2982 RMK AO2
     T02580154=
KTEX 232135Z AUTO 26008G21KT 3/4SM SN OVC008 M03/M06 A2976 RMK
     AO2=
KTTA 232135Z AUTO 35005KT 10SM CLR 21/04 A3012 RMK AO2
     T02090040=
KTYQ 232135Z AUTO 16017KT 10SM CLR 24/10 A2999 RMK AO2
     T02390097=
KVHN 232135Z AUTO 25014G26KT 10SM CLR 30/02 A2974 RMK AO2
     T03050018=
KVTP 232135Z AUTO 24017G27KT 10SM OVC027 M10/M17 A2963 RMK AO2=
