SAUS70 KWBC 232000
METAR
KASG 231948Z 18016G23KT 10SM CLR 27/17 A2980=
KBAK 231945Z 18015G25KT 10SM CLR 25/08 A3004=
KGPM 231950Z 17017G30KT 10SM SKC 29/17 A2978=
PAKU 231945Z 09018KT 10SM R06/P6000FT OVC006 M05/M05 A3000=
TJIG 231945Z 08009KT 10SM SCT040 SCT070 29/24 A2987=
PAKU 231945Z 09018KT 10SM R06/P6000FT OVC006 M05/M05 A3000=
KANE 231945Z 14019G26KT 10SM FEW045 25/12 A2951=
KCWA 231947Z 14015G22KT 10SM FEW040 22/12 A2976=
KMWC 231945Z 14010G16KT 10SM CLR 21/11 A2984=
KTIX 231947Z 02010KT 7SM FEW040 29/13 A3007=
KTZR 231947Z 16010G16KT 10SM CLR 24/08 A3012=
K1S5 231955Z AUTO 24003KT 10SM CLR 12/02 A3009 RMK AO2
     T01230020=
KCPF 231955Z AUTO 00000KT 10SM CLR 25/05 A3015 RMK AO2=
KEMV 231955Z AUTO 32007KT 5SM -DZ SCT011 BKN015 OVC028 15/14 A3015
     RMK AO2 T01480135=
KEVB 231947Z 02012G16KT 10SM CLR 25/16 A3008=
KFFA 231955Z AUTO 35010G19KT 310V030 2SM BR OVC003 16/16 A3002 RMK
     AO2 P0001 T01620162=
KGYR 231947Z 24012KT 10SM BKN070 24/08 A2975=
KMCJ 231955Z AUTO 17017G31KT 10SM SCT055 SCT065 28/15 A2988 RMK
     A01=
KSUW 231955Z AUTO 07012G20KT 10SM CLR 14/10 A2963 RMK AO2
     T01410095=
