SAUS70 KWBC 232042 RRB
METAR
KOGS 232035Z AUTO VRB03KT 10SM CLR 22/05 A3022 RMK AO2=
KOLE 232035Z AUTO 20003KT 10SM CLR 18/02 A3024 RMK AO2=
KONL 232035Z AUTO 17019G30KT 10SM CLR 30/06 A2916 RMK AO2
     T03000060=
KOOA 232035Z AUTO 17021G27KT 10SM CLR 28/18 A2958 RMK AO2
     T02800184=
KPPQ 232035Z AUTO 16017G22KT 10SM CLR 25/15 A2974 RMK AO2
     T02470153=
KRDK 232035Z AUTO 17020G35KT CLR 29/14 A2942 RMK AO2=
KSHL 232035Z AUTO 17025G32KT 10SM CLR 27/12 A2931 RMK AO2=
K04V 232035Z AUTO 30020G28KT 10SM SCT070 SCT080 BKN095 07/M03
     A2959 RMK AO2=
K17J 232035Z AUTO 04006KT 10SM CLR 25/03 A3012 RMK AO2
     T02530028=
K1A6 232035Z AUTO 22004KT 10SM CLR 23/04 A3014 RMK AO2
     T02320043=
K1R8 232035Z AUTO 11005KT 10SM CLR 27/06 A3007 RMK AO2=
K2G9 232035Z AUTO 11005KT 10SM CLR 16/02 A3024 RMK AO2=
K2W6 232039Z AUTO 36005KT 10SM OVC019 14/12 A3018 RMK AO1=
K4O4 232035Z AUTO 15017G24KT 9SM BKN050 OVC055 28/15 A2982 RMK
     AO2=
K5C1 232035Z AUTO 18010G18KT 10SM BKN042 26/15 A2982 RMK AO1=
K5R8 232035Z AUTO 16016G24KT 10SM BKN060 OVC070 27/18 A2996 RMK
     AO2 T02700177=
K6P9 232035Z AUTO 16020G27KT 10SM CLR 29/14 A2973 RMK AO2
     T02910138=
KAFO 232035Z AUTO 34008G15KT 10SM SCT032 BKN037 OVC045 00/M07
     A2975 RMK AO2=
KAQO 232035Z AUTO 15011G19KT 130V190 10SM CLR 29/14 A2977 RMK
     AO2=
KAUN 232035Z AUTO 24015KT 220V280 9SM CLR 19/M05 A2993 RMK A01=
KBHC 232035Z AUTO 07006KT 10SM CLR A3011 RMK AO2=
KBIJ 232035Z AUTO 00000KT 10SM CLR 25/01 A3012 RMK AO2=
KCCO 232035Z AUTO 00000KT 10SM CLR 23/02 A3015 RMK AO2
     T02250017=
KCGE 232035Z AUTO 33008KT 1 1/2SM BR BKN004 OVC013 15/15 A3015 RMK
     A01=
KCPW 232035Z AUTO 3/4SM -SN OVC001 M08/M08 A2966 RMK AO2=
KCQB 232035Z AUTO 17015G27KT 10SM CLR 28/15 A2965 RMK AO2
     T02850151=
KCTJ 232035Z AUTO 10003KT 10SM CLR 22/03 A3018 RMK AO2
     T02210028=
KCZT 232035Z AUTO 15009G17KT 10SM CLR 30/17 A2974 RMK AO2=
KDMW 232035Z AUTO 10SM BKN048 OVC060 17/09 A3023 RMK AO2=
KDPL 232035Z AUTO 02008KT 10SM OVC029 22/15 A3010 RMK AO2=
KDQH 232035Z AUTO 14004KT 10SM CLR 26/10 A3013 RMK AO2
     T02580095=
KE38 232035Z AUTO 20011G22KT 10SM CLR 28/05 A2987 RMK AO2
     T02760052=
KFKR 232035Z AUTO 17019KT 10SM CLR 25/10 A2996 RMK AO2=
KFME 232039Z AUTO 02006KT 10SM SCT028 BKN033 OVC039 17/08 A3021
     RMK AO1=
KFMM 232035Z AUTO 02018KT 10SM FEW095 SCT120 18/M01 A2930 RMK
     AO2=
KFQD 232035Z AUTO 21003KT 10SM CLR 23/03 A3016 RMK AO2=
KFWZ 232035Z AUTO 36004KT 2 1/2SM -SN BKN014 BKN019 OVC024 M01/M04
     A2960 RMK AO2=
KFXY 232035Z AUTO 14020G33KT 10SM CLR 25/13 A2950 RMK AO2=
KFYJ 232035Z AUTO 00000KT 10SM OVC017 15/13 A3015 RMK AO1
     T01510129=
KGEV 232035Z AUTO 06004KT 10SM CLR 19/M01 A3021 RMK AO2
     T01891010=
KGLW 232035Z AUTO 18008KT 10SM CLR 25/08 A3008 RMK AO2
     T02470080=
KHCR 232035Z AUTO 36007KT 10SM SCT049 SCT055 BKN090 04/M05 A2975
     RMK AO2=
KHDC 232039Z AUTO 14012KT 10SM CLR 27/14 A3005 RMK AO2 TSNO=
KHHW 232035Z AUTO 17015G23KT 10SM BKN049 28/15 A2978 RMK AO2=
KI75 232035Z AUTO 16019G29KT 10SM CLR 29/14 A2950 RMK AO2
     T02880141=
KIIB 232035Z AUTO 16024G30KT 10SM CLR 24/14 A2963 RMK AO2
     T02400140=
KIJX 232035Z AUTO 17020G26KT 10SM CLR 23/14 A2977 RMK AO2
     T02330143=
KLMO 232035Z AUTO 26015G25KT 4SM HZ CLR 20/M07 A2935 RMK AO2
     T01961070=
KLUV 232035Z AUTO 20018G27KT 10SM CLR 30/10 A2968 RMK AO2=
KMLE 232035Z AUTO 17016G28KT 10SM CLR 30/13 A2933 RMK AO2
     T02980127=
KMQB 232035Z AUTO 16022G27KT 10SM CLR 24/13 A2975 RMK AO2
     T02420126=
KNOW 232035Z AUTO 02004KT 10SM CLR 10/08 A3015 RMK AO2
     T01020084=
