SAUS70 KWBC 232100 RRV
METAR
KPPA 232055Z AUTO 21022G28KT 10SM CLR 26/11 A2957 RMK AO2
     T02600110=
KPPQ 232055Z AUTO 16015G21KT 10SM CLR 25/16 A2975 RMK AO2 LTG DSNT
     N T02470157=
KPTT 232055Z AUTO 18029G39KT 5SM HZ CLR 28/11 A2943 RMK AO2
     T02790107=
KPXE 232055Z AUTO 00000KT 10SM CLR 25/07 A3013 RMK AO2
     T02490070=
KRBO 232055Z AUTO 10SM SCT001 BKN036 BKN042 30/21 A2980 RMK AO2
     T03020205=
KRCR 232055Z AUTO 17012G23KT 10SM FEW060 24/11 A2997 RMK AO2 LTG
     DSNT W=
K6S8 232055Z AUTO 29016G24KT 10SM 04/01 A2968 RMK A01 Laurel=
KGPM 232050Z 17017G26KT 10SM SCT050 29/14 A2976=
KHFF 232055Z AUTO 07006KT 10SM CLR 23/06 A3011 RMK AO2 SLP198
     T02270060 57012 $=
KWDG 232055Z 18027G36KT 10 SM BKN150 27/15 A2958=
KNSE 232056Z AUTO 00000KT 10SM CLR 26/M03 A3008 RMK AO2 SLP172
     6//// T02611028 56023 PNO $=
K6I2 232055Z AUTO 19010KT 10SM CLR 24/05 A3009 RMK AO2=
KGLE 232055Z AUTO 17024G30KT 10SM CLR 29/14 A2974 RMK AO2
     T02860139=
KK62 232055Z AUTO 16009KT 10SM CLR 24/05 A3009 RMK AO2=
