SAUS70 KWBC 231712
METAR
KDYA 231715Z AUTO 16007KT 120V180 10SM CLR 24/08 A3018 RMK AO2
     T02390080=
KFRH 231715Z AUTO 19006KT 10SM CLR 23/08 A3008 RMK AO1=
KGWW 231715Z AUTO 33006KT 10SM CLR 20/12 A3014 RMK AO2
     T02010124=
KIPJ 231715Z AUTO 36003KT 10SM CLR 20/06 A3022 RMK AO2
     T02040057=
KJYO 231715Z AUTO 36003KT 10SM SCT016 OVC023 15/12 A3027 RMK
     AO2=
KMYJ 231715Z AUTO 18014G20KT 10SM CLR 23/15 A2977 RMK AO2=
KOIC 231715Z AUTO 00000KT 10SM CLR 15/07 A3032 RMK AO2
     T01450068=
KPBH 231715Z AUTO 13010G17KT 10SM CLR 19/12 A2977 RMK AO2
     T01930122=
KPTB 231715Z AUTO 01005KT 10SM -RA OVC016 15/11 A3019 RMK AO2
     T01530110=
KTGI 231715Z AUTO 36015G19KT 10SM OVC009 16/14 A3014 RMK AO1
     T01620143=
KVNW 231715Z AUTO 18009G15KT 10SM CLR 23/09 A3011 RMK AO2=
