SAUS70 KWBC 231820 RRG
METAR
KGOP 231815Z AUTO 10SM SCT042 SCT080 28/15 A2986 RMK AO2=
KGVT 231815Z AUTO 19025G31KT 10SM CLR 28/16 A2987 RMK AO2 TSNO
     T02830157=
KGZL 231815Z AUTO 19018G25KT 10SM CLR 27/17 A2979 RMK AO2=
KHDC 231819Z AUTO 15011G18KT 10SM CLR 26/14 A3009 RMK AO2=
KHDE 231815Z AUTO 20023G29KT 10SM CLR 29/08 A2926 RMK AO2
     T02900080=
KHDL 231815Z AUTO VRB03KT 10SM CLR 24/03 A3015 RMK AO2=
KHHG 231815Z AUTO 18011G19KT 10SM CLR A3005 RMK AO2=
KHII 231815Z AUTO 32017G22KT 10SM CLR 22/M03 A2978 RMK AO2=
KHMZ 231815Z AUTO 00000KT 10SM CLR 18/04 A3025 RMK AO2
     T01780041=
KHNR 231815Z AUTO 18019G33KT 9SM CLR 27/15 A2943 RMK A01=
KHPT 231815Z AUTO 15019G26KT 10SM CLR 25/12 A2955 RMK AO2=
KI63 231815Z AUTO 16018G26KT 10SM CLR 23/14 A2977 RMK AO2
     T02330137=
KI74 231815Z AUTO 19005KT 10SM BKN049 22/11 A3014 RMK AO2=
KIBM 231815Z AUTO 34018G26KT 10SM CLR 15/00 A2934 RMK AO2
     T01541002=
KICL 231815Z AUTO 20024G31KT 10SM CLR 27/14 A2950 RMK AO2=
KIDP 231815Z AUTO 18026G33KT 10SM VCTS CLR 26/15 A2966 RMK AO2 LTG
     DSNT N AND NW T02620150=
KIKK 231815Z AUTO 16015G28KT 10SM CLR 25/13 A2991 RMK AO2
     T02470127=
KIKV 231815Z AUTO 17015G25KT 10SM CLR 26/14 A2953 RMK AO2=
KJAS 231815Z AUTO 17007G15KT 120V190 9SM SCT039 BKN046 BKN055
     27/19 A2996 RMK AO2=
KJOT 231815Z AUTO 17017G28KT 10SM CLR 26/14 A2988 RMK AO2
     T02550139=
KJYR 231815Z AUTO 19024G31KT 9SM CLR 29/12 A2931 RMK AO2=
KK88 231815Z AUTO 18024G31KT 10SM 25/14 A2966 RMK AO1
     T02540137=
KLAM 231815Z AUTO 19020G27KT 10SM OVC060 11/M01 A2970 RMK AO2
     T01131015=
KLCQ 231815Z AUTO 10004KT 10SM CLR 25/11 A3012 RMK AO2=
KLGC 231815Z AUTO 00000KT 10SM CLR 23/04 A3019 RMK AO2
     T02250040=
KLLN 231815Z AUTO 21023G32KT 10SM CLR 28/10 A2973 RMK AO2=
KLOM 231815Z AUTO 05005KT 10SM BKN043 OVC050 17/11 A3024 RMK AO2
     T01700111=
KLRJ 231815Z AUTO 16027G34KT 10SM CLR 26/13 A2932 RMK AO2=
KSDA 231815Z AUTO 17027G34KT 10SM CLR 29/14 A2942 RMK AO2=
KSEF 231815Z AUTO 03006KT 10SM SCT065 28/18 A3008 RMK AO2
     T02790176=
KSHL 231815Z AUTO 15021G30KT 9SM CLR 25/13 A2936 RMK AO2=
KSIF 231815Z AUTO 04004KT 10SM CLR 21/04 A3019 RMK AO2
     T02070035=
KSJS 231815Z AUTO 00000KT 10SM CLR 24/08 A3019 RMK AO2
     T02360079=
KSLB 231815Z AUTO 16026G31KT 9SM CLR 25/13 A2942 RMK AO2=
KSME 231815Z AUTO 18007KT 10SM CLR 24/06 A3014 RMK AO2=
KSUT 231815Z AUTO 34009KT 10SM CLR 24/07 A3010 RMK AO2
     T02370071=
KT35 231815Z AUTO 18020G27KT 10SM SCT040 SCT049 BKN055 29/18 A2988
     RMK AO2 T02880175=
KT41 231815Z AUTO 10SM SCT048 BKN060 29/16 A2997 RMK AO2
     T02870162=
KTIP 231815Z AUTO 17021G28KT 10SM CLR 25/13 A2991 RMK AO2
     T02500128=
KUNI 231815Z AUTO 18004KT 10SM CLR 26/08 A3017 RMK AO2
     T02600079=
KVPC 231815Z AUTO 00000KT 10SM CLR 22/03 A3019 RMK AO2=
KW22 231815Z AUTO VRB04KT 1 3/4SM HZ CLR 24/02 A3020 RMK AO2 VIS
     1V3=
KWDR 231815Z AUTO 00000KT 10SM CLR 22/02 A3020 RMK AO2=
KZER 231815Z AUTO 09004KT 10SM OVC033 15/08 A3028 RMK AO2=
KLXN 231815Z AUTO 22030G38KT 5SM HZ CLR 30/02 A2924 RMK AO2
     T02980016=
KMGC 231815Z AUTO 19012G23KT 160V220 10SM CLR 24/12 A2994 RMK
     AO2=
KMJD 231815Z AUTO 14008G15KT 100V180 10SM FEW047 26/14 A3009 RMK
     AO2 LTG DSNT S=
KMLJ 231815Z AUTO 00000KT 10SM CLR 23/09 A3016 RMK AO2=
KMNH 231815Z AUTO 23028G37KT 10SM CLR 15/M02 A2946 RMK AO2=
KMQI 231815Z AUTO 01010G16KT 1 1/4SM DZ OVC006 17/16 A3006 RMK AO2
     P0001 T01650160=
KMQS 231815Z AUTO 06005G11KT 10SM CLR 16/11 A3024 RMK AO2=
KOBE 231815Z AUTO 05009G15KT 10SM FEW050 SCT060 28/19 A3005 RMK
     AO2=
