SAUS80 KWBC 231736
METAR
KGNT 231735Z AUTO 23014G27KT 10SM SCT028 BKN050 OVC060 14/01 A2977
     RMK AO2 T01380009=
KLZZ 231715Z AUTO 20013G22KT 10SM SCT038 25/16 A2984 RMK AO2
     T02540158=
