SAUS70 KWBC 231740 RRA
METAR
K6S2 231735Z AUTO VRB03KT 10SM FEW041 10/10 A3019 RMK AO2=
KAQP 231733Z AUTO 17019G27KT 10SM CLR 22/11 A2939 RMK AO2=
KBEA 231735Z AUTO 15020G25KT 10SM BKN044 29/16 A2987 RMK AO2
     T02930156=
KCLS 231735Z AUTO 26003KT 9SM OVC005 05/05 A3015 RMK AO2=
KCMR 231735Z AUTO 27009G16KT 10SM SCT035 BKN040 OVC060 04/M01
     A2986 RMK AO2=
KJAQ 231735Z AUTO 36003KT 10SM CLR 13/M02 A2995 RMK AO1
     T01281017=
KJSO 231735Z AUTO 21010G18KT 10SM SCT035 BKN046 26/17 A2996 RMK
     AO2 T02620168 TSNO=
KL08 231735Z AUTO VRB04KT 10SM CLR 21/01 A2980 RMK AO2=
KL18 231735Z AUTO 00000KT 10SM CLR 17/09 A2989 RMK AO2=
KLRU 231735Z AUTO 24021G28KT 10SM SCT055 SCT085 23/07 A2984 RMK
     AO2 T02250068=
KMAN 231735Z AUTO 34013KT 10SM FEW001 08/00 A2999 RMK A01=
KO22 231735Z AUTO 29005KT 10SM CLR 14/M03 A2994 RMK A01=
KRPH 231735Z AUTO 16010G24KT 130V190 9SM CLR 28/15 A2975 RMK AO2
     T02790154 $=
KSNK 231735Z AUTO 20019G23KT 10SM CLR 26/12 A2976 RMK AO2
     T02610120=
KSRR 231735Z AUTO 24038G53KT 10SM 16/02 A2981 RMK AO2=
KT69 231735Z AUTO 17012G21KT 10SM FEW030 FEW036 SCT042 28/21 A2989
     RMK A01=
KTME 231735Z AUTO 17014G23KT 10SM SCT060 30/16 A2995 RMK AO2=
KTVY 231735Z AUTO 15005KT 10SM SCT022 OVC032 01/01 A2981 RMK
     AO2=
K06D 231735Z AUTO 06022KT 10SM OVC008 07/06 A2954 RMK AO2=
K46D 231735Z AUTO 08015G23KT 10SM CLR 15/06 A2941 RMK AO2=
K5H4 231735Z AUTO 06020KT 10SM CLR 10/M02 A2944 RMK AO2=
K6B9 231735Z AUTO 11006KT 10SM CLR 19/03 A3027 RMK AO2=
K7L2 231735Z AUTO 09014KT 10SM CLR 15/08 A2930 RMK AO2=
KACB 231735Z AUTO 16015G23KT 10SM CLR 24/12 A2999 RMK AO2
     T02420115=
KAEL 231735Z AUTO 15018G27KT 10SM CLR 22/13 A2955 RMK AO2=
KAIG 231735Z AUTO 13015KT 10SM CLR 20/12 A2984 RMK AO2
     T01950121=
KANQ 231735Z AUTO 18015G20KT 10SM FEW055 23/11 A3006 RMK AO2=
KBAC 231735Z AUTO 08016KT 9SM CLR 16/09 A2940 RMK AO2=
KBVI 231735Z AUTO 15003KT 10SM CLR 23/02 A3022 RMK AO2
     T02250016=
KCAD 231735Z AUTO 16011G19KT 10SM CLR 22/11 A3000 RMK AO2
     T02160109=
KCFJ 231735Z AUTO 17015G22KT 10SM CLR 23/07 A3001 RMK AO2
     T02340070=
KCVX 231735Z AUTO 16010G18KT 10SM CLR 23/12 A2999 RMK AO2
     T02310119=
KD60 231735Z AUTO 07017KT 10SM OVC008 04/05 A2951 RMK AO2=
KMQJ 231735Z AUTO RMK AO1=
KOVL 231735Z AUTO 13020G28KT 7SM CLR 22/12 A2945 RMK AO2=
KOZW 231735Z AUTO 14006KT 10SM CLR 21/12 A3010 RMK AO2
     T02060119=
KPWC 231735Z AUTO 12009G17KT 10SM CLR 19/11 A2960 RMK AO2=
KROX 231735Z AUTO 07015KT 10SM CLR 14/08 A2959 RMK AO2=
KSAZ 231735Z AUTO 14010G14KT 103V163 10SM CLR 22/11 A2952 RMK
     AO2=
KSGS 231735Z AUTO 14014G19KT 10SM CLR 22/12 A2959 RMK AO2
     T02210115=
KSLH 231735Z AUTO 16009G14KT 10SM CLR 23/12 A3002 RMK AO2=
KUKT 231735Z AUTO 02005KT 10SM CLR 16/10 A3026 RMK A01=
KVLL 231735Z AUTO 16008KT 130V190 10SM CLR 22/11 A3015 RMK AO2
     T02230105=
KY63 231735Z AUTO 13016G23KT 10SM CLR 21/12 A2943 RMK AO2
     T02050117=
K04W 231735Z AUTO 12007KT 10SM CLR 22/12 A2962 RMK AO2=
K1P1 231735Z AUTO 00000KT 10SM CLR 17/06 A3034 RMK AO2
     T01660056=
K22N 231735Z AUTO 00000KT 10SM BKN043 OVC050 15/05 A3029 RMK
     AO2=
K2D5 231735Z AUTO 08018KT 9SM CLR 16/09 A2935 RMK AO2=
K2P2 231735Z AUTO 18011G19KT 140V210 10SM SCT110 16/12 A2994 RMK
     AO2 T01620117=
K82C 231735Z AUTO 14010G15KT 10SM CLR 22/13 A2976 RMK AO2
     T02210130=
KCDA 231735Z AUTO 11004KT 10SM 18/06 A3036 RMK AO2 T01760056=
KCDI 231735Z AUTO 00000KT 10SM CLR 22/10 A3020 RMK AO2
     T02170100=
KCKC 231735Z AUTO 14006KT 10SM SCT100 17/11 A2979 RMK AO2=
