SAUS70 KWBC 232000
METAR
KMCX 231955Z AUTO 17015G20KT 10SM CLR 25/09 A2994 RMK AO2
     T02530093=
KRID 231955Z AUTO 18014G19KT 10SM CLR 23/12 A3009 RMK AO2=
KSWF 231945Z 00000KT 10SM BKN120 14/09 A3028=
