SAUS70 KWBC 231642
METAR
KBJI 231635Z AUTO 13012KT 10SM CLR 17/09 A2957 RMK AO2
     T01720092=
KOWX 231635Z AUTO 19009KT 10SM CLR 23/08 A3016 RMK AO1=
KAXA 231635Z AUTO 15024G31KT 10SM CLR 22/14 A2950 RMK A01=
KBUU 231635Z AUTO 15011G17KT 10SM CLR 22/12 A2989 RMK AO2
     T02210124 PWINO=
KC65 231635Z AUTO 19010G21KT 10SM FEW050 23/12 A3002 RMK A01=
KC75 231635Z AUTO 19014G21KT 10SM CLR 22/15 A2985 RMK AO2
     T02240150=
KCBF 231635Z AUTO 18017G24KT 10SM CLR 25/11 A2942 RMK AO2=
KCIN 231635Z AUTO 16027G34KT 9SM CLR 23/15 A2947 RMK AO2=
KCNC 231635Z AUTO 18020G28KT 10SM CLR 24/14 A2960 RMK AO2=
KDNV 231635Z AUTO 17017G23KT 10SM CLR 24/12 A2999 RMK AO2
     T02410123=
KFEP 231635Z AUTO 16016KT 10SM SCT065 22/15 A2986 RMK AO2
     T02180146=
KFET 231635Z AUTO 16019G25KT 10SM CLR 25/13 A2939 RMK AO2
     T02530134=
KFFL 231635Z AUTO 16019KT 10SM CLR 23/13 A2969 RMK A01=
KFKR 231635Z AUTO 17014G26KT 10SM CLR 23/12 A3004 RMK AO2=
KFWC 231635Z AUTO 18021G24KT SCT038 24/13 A3000 RMK AO1 T02360128
     PWINO=
KGBG 231635Z AUTO 16012G21KT 10SM CLR 21/14 A2982 RMK AO2
     T02120140=
KGGP 231635Z AUTO 19016G23KT 10SM CLR 23/11 A3005 RMK AO2=
KGWB 231635Z AUTO 19009KT 145V215 10SM SCT060 21/12 A3010 RMK
     AO2=
KHNR 231635Z AUTO 18022G32KT 9SM CLR 24/15 A2944 RMK A01=
KHPT 231635Z AUTO 16019G26KT 10SM CLR 22/12 A2960 RMK AO2=
KI74 231635Z AUTO 19004KT 10SM CLR 20/11 A3018 RMK AO2=
KICL 231635Z AUTO 19020G29KT 10SM CLR 26/13 A2952 RMK AO2=
KIKK 231635Z AUTO 18016G23KT 10SM SCT065 23/13 A2995 RMK AO2
     T02250125=
KLOM 231635Z AUTO 07006KT 10SM BKN110 17/10 A3026 RMK AO2
     T01660103=
KLOT 231635Z AUTO 17021G29KT 10SM CLR 22/13 A2993 RMK AO2=
KLRJ 231635Z AUTO 16021G28KT 10SM CLR 23/13 A2934 RMK AO2=
KPHN 231635Z AUTO 19005KT 10SM CLR 22/08 A3016 RMK AO2=
KAJZ 231635Z AUTO 16007KT 10SM -RA SCT025 BKN035 BKN090 07/04
     A2961 RMK AO2 T00650040=
KAUN 231635Z AUTO 32004KT 10SM CLR 12/M02 A2996 RMK A01=
KBBD 231635Z AUTO 17015G24KT 10SM CLR 24/16 A2986 RMK AO2=
KBDG 231635Z AUTO 20012KT 10SM 04/02 A2975 RMK AO1 T00380016=
KBVS 231635Z AUTO 07004KT 10SM BKN014 OVC021 07/07 A3011 RMK
     A01=
KBYY 231635Z AUTO 16017G25KT 10SM SCT038 BKN060 28/17 A2997 RMK
     AO2 T02790180=
KCCU 231635Z AUTO 30008KT 1/4SM -SN OVC001 M02/M04 A2963 RMK
     AO2=
KCOM 231635Z AUTO 19016G21KT CLR 25/15 A2985 RMK AO2 T02530151
     PWINO=
KDKB 231635Z AUTO 16019G24KT 10SM CLR 21/14 A2990 RMK AO2
     T02080140=
KDKR 231635Z AUTO 16013G18KT 120V180 10SM BKN033 BKN041 BKN049
     26/19 A2995 RMK AO2=
KDVO 231635Z AUTO 32014G20KT 10SM CLR 15/01 A3002 RMK AO2=
KE11 231635Z AUTO 20014G18KT 10SM CLR 25/10 A2980 RMK AO2
     T02500100=
KGOP 231635Z AUTO 10SM SCT031 BKN038 25/16 A2989 RMK AO2=
KGVT 231635Z AUTO 18022G25KT 10SM CLR 26/16 A2989 RMK AO2 TSNO
     T02620165=
KHII 231635Z AUTO 34011G20KT 10SM CLR 20/00 A2978 RMK AO2=
KJAS 231635Z AUTO 16009G23KT 9SM FEW039 FEW055 27/18 A2999 RMK
     AO2=
KLAM 231635Z AUTO 20020G32KT 180V240 10SM BKN060 OVC070 12/M01
     A2972 RMK AO2 T01181015=
KMDD 231635Z AUTO 19017G21KT 10SM CLR 25/11 A2980 RMK AO2
     T02550107=
K7BM 231635Z AUTO 31006KT 1/4SM -SN OVC002 00/00 A2957 RMK AO2=
KBPG 231635Z AUTO 19017G20KT 10SM CLR 24/13 A2980 RMK AO2
     T02420135=
KC07 231635Z AUTO 27006KT 3/4SM BR OVC001 M03/M03 A2958 RMK
     AO2=
KCFD 231635Z AUTO 17013G18KT 10SM BKN028 BKN034 OVC050 26/19 A2995
     RMK AO2 T02610187=
KE42 231635Z AUTO 22025G32KT 10SM CLR 27/10 A2960 RMK AO2
     T02720096=
KELA 231635Z AUTO 18011G19KT 10SM SCT040 SCT050 BKN060 29/18 A2995
     RMK AO2 T02900178=
