SAUS70 KWBC 232018 RRI
METAR
KRVL 232015Z AUTO 00000KT 9SM OVC031 17/09 A3025 RMK AO2=
KS25 232015Z AUTO 04013G18KT 10SM OVC015 08/06 A2944 RMK AO2=
KSPF 232015Z AUTO 29016G26KT 10SM OVC015 04/01 A2940 RMK AO2=
KTTF 232015Z AUTO 11008KT 10SM CLR 21/10 A3009 RMK AO2
     T02070098=
KVLL 232015Z AUTO 16012G16KT 10SM CLR 24/08 A3011 RMK AO2
     T02420083=
K3N8 232015Z AUTO 11017G24KT 10SM CLR 23/12 A2940 RMK AO2
     T02330117=
K6B0 232015Z AUTO 00000KT 10SM CLR 18/09 A3029 RMK AO2
     T01760094=
K6B9 232015Z AUTO VRB04KT 10SM CLR 20/01 A3025 RMK AO2=
K7L2 232015Z AUTO 09016G23KT 10SM CLR 20/10 A2924 RMK AO2=
K9D7 232015Z AUTO 05019G26KT 10SM CLR 13/08 A2943 RMK AO2 TSNO=
KACB 232015Z AUTO 14012G22KT 10SM BKN060 24/11 A2996 RMK AO2
     T02420112=
KADC 232015Z AUTO 13023G32KT 10SM CLR 24/11 A2941 RMK AO2 TSNO=
KAEL 232015Z AUTO 15025G32KT 10SM SCT095 23/13 A2951 RMK AO2=
KD57 232015Z AUTO 05013KT 10SM BKN032 13/04 A2930 RMK AO2=
KD60 232015Z AUTO 04019KT 10SM OVC009 05/05 A2947 RMK AO2=
KDTL 232015Z AUTO 12020G28KT 10SM CLR 23/12 A2938 RMK AO2=
KDUH 232015Z AUTO 14009G14KT 10SM SCT060 24/07 A3008 RMK AO2
     T02410069=
KOEB 232015Z AUTO 18008G16KT 10SM SCT055 24/10 A3002 RMK AO2
     T02380101=
KPNM 232015Z AUTO 11015G23KT 10SM CLR 25/13 A2949 RMK AO2 TSNO=
KRNP 232015Z AUTO 15014G21KT 10SM SCT060 24/08 A3004 RMK AO2
     T02440077=
KRQB 232015Z AUTO 18016G22KT 10SM SCT070 24/11 A2997 RMK AO2
     T02350108=
KRUG 232015Z AUTO 06025G32KT 10SM CLR 12/07 A2939 RMK AO2=
KRZL 232015Z AUTO 16015G28KT 10SM CLR 25/11 A2993 RMK AO2=
KRZT 232015Z AUTO 16005KT 10SM CLR 25/03 A3011 RMK AO2 PWINO=
KS32 232015Z AUTO 09022G30KT 10SM CLR 22/10 A2934 RMK AO2 TSNO=
KSLH 232015Z AUTO 15008KT 10SM CLR 24/11 A2998 RMK AO2=
KTME 232015Z AUTO 15014G19KT 10SM BKN065 31/14 A2988 RMK AO2=
KULM 232015Z AUTO 14023G30KT 10SM CLR 26/11 A2941 RMK AO2=
K0E0 232015Z AUTO 24026G35KT 10SM BKN090 19/M04 A2970 RMK AO2
     T01911037 TSNO=
K4S2 232015Z AUTO 30004KT 10SM CLR 12/01 A3014 RMK AO2=
K6S2 232015Z AUTO 22007KT 2 1/2SM HZ CLR 13/10 A3021 RMK AO2 VIS 1
     3/4V5=
KAQP 232013Z AUTO 17023G28KT 7SM SCT085 25/11 A2933 RMK AO2=
KATS 232015Z AUTO 22020G26KT 10SM FEW075 25/11 A2969 RMK AO2=
KBEA 232015Z AUTO 16020G28KT 10SM SCT036 BKN042 BKN050 30/19 A2980
     RMK AO2 T02980186=
KBKS 232015Z AUTO 15017G25KT 10SM CLR 33/18 A2975 RMK AO2 SLP036
     T03260180 $=
KBXK 232015Z AUTO 28006G14KT 10SM CLR 24/06 A2974 RMK A01=
KCLS 232015Z AUTO 22004KT 10SM SCT028 SCT035 13/06 A3016 RMK
     AO2=
KCPT 232015Z AUTO 17023G32KT 10SM CLR 29/15 A2977 RMK A01=
KF70 232015Z AUTO 21004KT 10SM CLR 18/06 A2985 RMK AO2=
KJAQ 232015Z AUTO 32013G18KT 10SM CLR 16/M03 A2994 RMK AO1
     T01581031=
KJSO 232015Z AUTO 20012G19KT 10SM SCT060 BKN110 28/14 A2989 RMK
     AO2 T02760140 TSNO=
KL18 232015Z AUTO 00000KT 10SM CLR 19/07 A2985 RMK AO2=
KL35 232015Z AUTO 27007KT 164V274 10SM CLR 08/M10 A2993 RMK
     AO2=
KONM 232015Z AUTO 20013G24KT 170V230 10SM CLR 23/M02 A2967 RMK AO2
     T02321016=
KSNK 232015Z AUTO 19017G24KT 10SM CLR 30/11 A2968 RMK AO2
     T02950113=
KSRR 232015Z AUTO 24032G55KT 10SM 17/01 A2974 RMK AO2=
KTVY 232015Z AUTO 32009G14KT 10SM BKN040 OVC050 04/00 A2986 RMK
     AO2=
KAXV 232015Z AUTO 15011G16KT 10SM CLR 24/08 A3007 RMK AO2=
KBAC 232015Z AUTO 11019G29KT 9SM CLR 23/13 A2931 RMK AO2=
KBVI 232015Z AUTO 11004KT 10SM CLR 24/02 A3018 RMK AO2
     T02390015=
KBWP 232015Z AUTO 14020G31KT 9SM CLR 24/12 A2930 RMK AO2=
KBWW 232015Z AUTO 35017KT 10SM OVC010 06/06 A2935 RMK AO2=
KCAD 232015Z AUTO 15013G21KT 10SM SCT050 BKN060 23/10 A2997 RMK
     AO2 T02260104=
