SAUS80 KWBC 231900 RRD
METAR
KHON 231855Z AUTO 14021G35KT 10SM CLR 25/12 A2919 RMK AO2 PK WND
     13035/1851 SLP880 T02500117=
KMKG 231855Z 14014G22KT 10SM BKN060 25/13 A2994 RMK AO2 SLP136
     T02500128=
KORH 231854Z 06006KT 10SM CLR 13/06 A3032 RMK AO2 SLP272
     T01330061=
KAPN 231854Z AUTO 17016G27KT 10SM CLR 23/11 A3005 RMK AO2 PK WND
     17028/1820 SLP174 T02330106=
KMVL 231854Z AUTO 00000KT 10SM CLR 21/06 A3031 RMK AO2 SLP269
     T02060056=
KBTV 231854Z 21004KT 10SM BKN150 20/06 A3029 RMK AO2 SLP257
     T02000061=
KCRW 231854Z VRB04KT 10SM CLR 24/06 A3016 RMK AO2 SLP208
     T02390061=
KFWA 231854Z 17014G25KT 10SM SCT055 BKN190 24/10 A3005 RMK AO2
     SLP173 T02440100 $=
KROC 231854Z 07005KT 10SM SCT200 BKN250 21/06 A3023 RMK AO2 SLP239
     T02110061=
KSBN 231854Z 17021G32KT 10SM SCT055 26/13 A2997 RMK AO2 PK WND
     18032/1850 SLP142 T02560128=
KTKV 231855Z AUTO 15007G19KT 100V190 10SM BKN038 23/12 A2977 RMK
     AO2 T02270119 PWINO=
KCOS 231854Z 30010G32KT 10SM FEW033 FEW050 SCT085 BKN200 16/01
     A2945 RMK AO2 PK WND 25032/1845 RAB40E51 SLP902 P0000
     T01610006 $=
KRFI 231855Z AUTO 16010G19KT 10SM BKN050 30/11 A2992 RMK AO2
     T02950106=
KSOW 231855Z AUTO 23028G36KT 10SM SCT018 SCT029 SCT100 11/05 A2984
     RMK AO2=
KGPI 231855Z 34010KT 10SM FEW110 08/M02 A2993 RMK AO2 SLP148
     T00781017=
KANJ 231855Z AUTO 13011G20KT 10SM CLR 20/12 A3002 RMK AO2 SLP165
     T02000117=
KPIA 231854Z 17018G30KT 10SM CLR 25/14 A2980 RMK AO2 PK WND
     17030/1844 SLP086 T02500139=
KRFD 231854Z 17016G28KT 10SM FEW042 SCT130 24/14 A2981 RMK AO2 PK
     WND 18028/1854 SLP090 T02440139=
KP60 231856Z AUTO M04/M07 A2968 RMK AO1 SLP062 T10391067=
KGNA 231856Z AUTO 07009KT 14/09 A2976 RMK AO1 SLP078 T01390094=
KGNR 231856Z AUTO 16005KT 19/05 A3034 RMK AO1 SLP276 T01890050=
KALK 231856Z AUTO 25019G28KT 10SM CLR 19/02 A2989 RMK AO2 PK WND
     23029/1839 SLP039 T01940017=
