SAUS70 KWBC 232020 RRA
METAR
K81R 232015Z AUTO 17017G22KT 10SM CLR 29/14 A2979 RMK AO2
     T02950142=
K9A5 232015Z AUTO 19003KT 10SM CLR 23/02 A3013 RMK AO2
     T02300022=
KAAA 232015Z AUTO 17024G31KT 10SM CLR 24/15 A2981 RMK AO2
     T02390148=
KAHQ 232015Z AUTO 18023G33KT 7SM CLR 31/12 A2932 RMK AO2
     T03080117=
KBBB 232017Z AUTO 17023G33KT 10SM CLR 24/12 A2935 RMK AO2=
KBCK 232015Z AUTO 15011G20KT 120V180 10SM CLR 25/12 A2965 RMK AO2
     T02460120=
KBIE 232015Z AUTO 17024G31KT 10SM CLR 29/13 A2937 RMK AO2
     T02900130=
KBPG 232015Z AUTO 18019G25KT 10SM CLR 29/11 A2970 RMK AO2
     T02950115=
KBVN 232015Z AUTO 19024G35KT 7SM CLR 31/07 A2921 RMK AO2
     T03110068=
KC35 232015Z AUTO 13011G19KT 10SM CLR 24/13 A2971 RMK AO2
     T02360130 PWINO=
KCBK 232015Z AUTO 21025G42KT 7SM HZ SCT044 30/M02 A2929 RMK
     AO2=
KCFD 232015Z AUTO 15017G25KT 10SM SCT050 OVC065 30/16 A2986 RMK
     AO2 T02950160=
KCFS 232015Z AUTO 16014G21KT 10SM CLR 24/08 A3007 RMK AO2
     T02400082=
KCKC 232017Z AUTO 09008G16KT 10SM CLR 18/11 A2976 RMK AO2=
KCKN 232015Z AUTO 12015G23KT 10SM CLR 26/11 A2938 RMK AO2=
KCQF 232015Z AUTO 06009KT 10SM CLR 25/10 A3008 RMK AO2=
KDNV 232015Z AUTO 18016G26KT 10SM CLR 26/11 A2992 RMK AO2
     T02610107=
KDUC 232015Z AUTO 17021G29KT 10SM CLR 29/15 A2968 RMK AO2
     T02920153=
KDZJ 232015Z AUTO 05005KT 10SM CLR 23/00 A3016 RMK AO2
     T02261001=
KE42 232015Z AUTO 19025G33KT 10SM CLR 27/10 A2952 RMK AO2
     T02680102=
KEBA 232015Z AUTO 14004KT 10SM CLR 24/03 A3014 RMK AO2
     T02390032=
KEBG 232015Z AUTO 15021G27KT 10SM CLR 32/17 A2978 RMK AO2
     T03190173 PWINO=
KELA 232015Z AUTO 17016G23KT 10SM BKN050 OVC070 29/17 A2986 RMK
     AO2 T02940172=
KEMM 232015Z AUTO 29018G27KT 10SM SCT017 SCT044 00/M05 A2971 RMK
     AO2=
KEQA 232015Z AUTO 18029G40KT 10SM CLR 29/13 A2953 RMK AO2=
KETC 232015Z AUTO 35003KT 10SM OVC017 18/14 A3012 RMK AO2
     T01790138=
KF00 232015Z AUTO 17022G31KT 10SM CLR 29/15 A2977 RMK AO2
     T02860152=
KFET 232015Z AUTO 18019G33KT 5SM HZ CLR 31/13 A2930 RMK AO2
     T03070132=
KFHB 232015Z AUTO 05011G17KT 10SM CLR 23/17 A3013 RMK AO2=
KFOA 232015Z AUTO 17025G30KT 10SM SCT049 26/14 A2993 RMK AO2=
KFSW 232015Z AUTO 16011G24KT 10SM OVC001 26/15 A2967 RMK AO2=
KFWC 232015Z AUTO 19015G22KT SCT050 26/12 A2992 RMK AO1 T02580120
     PWINO=
KGDB 232015Z AUTO 12021G32KT 10SM CLR 26/13 A2937 RMK AO2
     T02600131=
KGPC 232015Z AUTO 18016G21KT 10SM CLR 26/11 A2999 RMK AO2
     T02560112=
KGWB 232015Z AUTO 19009G15KT 10SM SCT060 23/10 A3004 RMK AO2=
KHJH 232015Z AUTO 18021G35KT 10SM CLR 28/11 A2933 RMK AO2
     T02840112=
KHLX 232015Z AUTO 09003KT 10SM CLR 20/M09 A3019 RMK AO2
     T01971094=
KHMP 232015Z AUTO 33003KT 10SM CLR 22/03 A3018 RMK AO2
     T02230031=
KHQU 232015Z AUTO 22004KT 10SM CLR 24/09 A3014 RMK AO2
     T02420088=
KIIY 232015Z AUTO 00000KT 10SM CLR 24/05 A3015 RMK AO2
     T02370054=
KIYA 232015Z AUTO 13015G22KT 10SM SCT060 OVC070 26/14 A3002 RMK
     AO2 T02620135=
KJCA 232015Z AUTO 02003KT 10SM CLR 23/03 A3016 RMK AO2
     T02340028=
KJDD 232015Z AUTO 17007KT 130V190 10SM BKN050 29/16 A2983 RMK
     AO2=
KK88 232015Z AUTO 17020G31KT 10SM CLR 27/14 A2959 RMK AO1
     T02710137=
KLHB 232015Z AUTO 15013G20KT 10SM SCT055 BKN065 30/17 A2983 RMK
     AO2 T03000165=
KLHM 232015Z AUTO 31018G25KT 10SM CLR 21/M03 A2994 RMK AO1=
KLNN 232015Z AUTO 17006KT 10SM CLR 23/03 A3014 RMK AO1
     T02300029=
KLUA 232015Z AUTO 04004KT 10SM OVC029 17/09 A3022 RMK AO2=
KLUD 232015Z AUTO 17019G31KT 10SM CLR 29/15 A2972 RMK AO2
     T02870150=
