SAUS80 KWBC 231818
METAR
KPZQ 231815Z AUTO 16011G18KT 130V190 10SM SCT049 24/12 A3005 RMK
     AO2 T02400119=
KIKW 231815Z AUTO 17006G18KT 10SM CLR 24/11 A3005 RMK AO2
     T02440107=
KLYV 231815Z AUTO 16019G27KT 10SM CLR 23/11 A2937 RMK AO2=
KPOV 231815Z AUTO 16005KT 10SM CLR 24/03 A3018 RMK AO2 T02350025
     PWINO=
KM21 231815Z AUTO 17016KT 10SM CLR 26/09 A3005 RMK AO2
     T02620092=
KSMS 231815Z AUTO 01009KT 10SM CLR 24/08 A3016 RMK AO2=
KSNC 231815Z AUTO 00000KT 10SM -RA CLR 14/09 A3028 RMK AO2=
KSOW 231815Z AUTO 23019G25KT 10SM BKN012 OVC018 08/07 A2985 RMK
     AO2=
KSYN 231815Z AUTO 13011G22KT 10SM CLR 24/12 A2956 RMK AO2
     T02370120=
KEKX 231815Z AUTO 19009G17KT 10SM CLR 25/08 A3011 RMK AO2
     T02480080=
KIKW 231815Z AUTO 17006G18KT 10SM CLR 24/11 A3005 RMK AO2
     T02440107=
KLYV 231815Z AUTO 16019G27KT 10SM CLR 23/11 A2937 RMK AO2=
KCLI 231815Z AUTO 14013G18KT 10SM CLR 21/12 A2984 RMK AO2
     T02150125=
KPZQ 231815Z AUTO 16011G18KT 130V190 10SM SCT049 24/12 A3005 RMK
     AO2 T02400119=
KY23 231815Z AUTO 13011G17KT 10SM CLR 23/15 A2967 RMK AO2
     T02250150=
KEDU 231820Z AUTO 35017G23KT 10SM CLR 18/M01 A3000 RMK AO1=
KGNG 231815Z AUTO 28020G28KT 10SM CLR 06/M01 A2989 RMK AO2=
KCIR 231815Z AUTO 23015G20KT 10SM SCT042 OVC050 25/14 A3000 RMK
     AO2 T02470144=
KJNX 231815Z AUTO 36006KT 10SM CLR 22/10 A3013 RMK AO2=
KMKN 231815Z AUTO 17023G27KT 10SM CLR 29/16 A2982 RMK AO2
     T02870160=
KPTS 231815Z AUTO 18022G30KT 10SM CLR 28/15 A2968 RMK AO2 LTG DSNT
     W AND NW T02770154 PWINO=
KRFI 231815Z AUTO 16011G16KT 10SM BKN044 OVC050 30/12 A2994 RMK
     AO2 T02970121=
KRLD 231815Z AUTO 25003KT 10SM CLR 13/01 A3008 RMK AO2
     T01310009=
KS39 231815Z AUTO 00000KT 10SM SCT033 06/M01 A3010 RMK AO2=
KSEP 231815Z AUTO 18016G24KT 10SM CLR 28/15 A2984 RMK AO2
     T02800145=
KTKV 231815Z AUTO 15004KT 10SM CLR 23/12 A2978 RMK AO2 T02250120
     PWINO=
KVTI 231815Z AUTO 16016G25KT 10SM CLR 25/13 A2963 RMK AO2
     T02540128=
KSNC 231815Z AUTO 00000KT 10SM -RA CLR 14/09 A3028 RMK AO2=
KPOV 231815Z AUTO 16005KT 10SM CLR 24/03 A3018 RMK AO2 T02350025
     PWINO=
KSVE 231815Z AUTO 36003KT 10SM OVC050 M21/M47 A3008 RMK AO2=
