SAUS70 KWBC 231800 RRI
METAR
KPWA 231753Z 18020G31KT 10SM CLR 26/16 A2968 RMK AO2 PK WND
     19039/1739 SLP034 T02560156 10256 20194 58009=
KRAC 231753Z AUTO 16013KT 10SM CLR 18/12 A2991 RMK AO2 SLP124
     T01830122 10183 20139 58013=
KRAL 231753Z 00000KT 10SM BKN031 18/09 A2986 RMK AO2 SLP101
     T01830089 10183 20139 50009 $=
KRBD 231753Z 18021G34KT 10SM BKN040 28/17 A2984 RMK AO2 PK WND
     19040/1739 SLP096 T02780167 10278 20206 58004=
KRIL 231753Z AUTO 29007KT 10SM -RA BKN004 BKN015 OVC020 02/01
     A2959 RMK AO2 RAE18B22 SLP998 P0001 60039 I6000 T00220011
     10044 20017 51008=
KRKP 231753Z AUTO 16013G21KT 10SM FEW029 SCT060 31/21 A2991 RMK
     AO2 SLP128 T03060211 10306 20256 50000=
KRME 231753Z 15006KT 10SM CLR 17/06 A3030 RMK AO2 SLP261 T01670061
     10167 20022 58015=
KRSW 231753Z 05011KT 10SM FEW047 28/17 A3005 RMK AO2 SLP174
     T02830167 10294 20189 58018=
KRTN 231753Z AUTO 24034G49KT 10SM CLR 19/M02 A2954 RMK AO2 PK WND
     24052/1735 SLP929 T01891022 10194 20094 56018=
KRWL 231753Z AUTO 27015G21KT 10SM BKN020 OVC055 01/M02 A2954 RMK
     AO2 SLP990 60001 T00061022 10006 21011 51014=
KRXE 231753Z AUTO 28006KT 10SM BKN075 OVC090 03/M03 A2976 RMK AO2
     SLP084 T00331028 10033 20006 51018=
KHWO 231753Z 07011G19KT 10SM FEW042 28/18 A3005 RMK AO2 SLP177
     T02830183 10289 20189 58014=
KHZY 231753Z AUTO 16006KT 10SM CLR 23/06 A3021 RMK AO2 SLP227
     T02280061 10228 20094 58010=
KIAH 231753Z 17015G27KT 10SM SCT060 BKN250 29/15 A2994 RMK AO2 PK
     WND 15031/1732 SLP140 T02890150 10294 20211 58009=
KICT 231753Z 18028G41KT 7SM SCT150 BKN250 28/13 A2954 RMK AO2 PK
     WND 19045/1657 SLP989 T02780128 10278 20217 58009=
KIDA 231753Z 36003KT 10SM BKN065 BKN085 05/M05 A2977 RMK AO2
     SLP084 T00501050 10050 20006 51017=
KILM 231753Z 33013KT 10SM CLR 23/12 A3009 RMK AO2 SLP189 T02280122
     10228 20144 58014 PWINO=
KIML 231753Z AUTO 21029G46KT 10SM FEW027 27/M02 A2922 RMK AO2 PK
     WND 21049/1708 SLP869 T02671022 10267 20017 55007 $=
KINK 231753Z AUTO 21014G22KT 10SM CLR 30/08 A2974 RMK AO2 SLP027
     T03000083 10300 20144 58008 $=
KITR 231753Z AUTO 23037G52KT 2 1/2SM HZ OVC025 25/M04 A2934 RMK
     AO2 PK WND 23052/1747 SLP878 T02501039 10250 20133 58008
     $=
KIWI 231753Z AUTO VRB03KT 10SM CLR 18/11 A3037 RMK AO2 SLP285
     T01780106 10183 20072 56012=
KIXD 231753Z 19022G32KT 10SM CLR 28/14 A2961 RMK AO2 PK WND
     19036/1729 SLP015 T02780144 10278 20206 58007 $=
KJEF 231753Z 17017G28KT 10SM CLR 27/14 A2975 RMK AO2 PK WND
     16028/1746 SLP059 T02670144 10272 20194 58010 $=
KJER 231753Z AUTO 28021G29KT 10SM CLR 04/M02 A2986 RMK AO2 PK WND
     27029/1750 SLP121 T00441017 10044 21011 51024=
KJKL 231753Z AUTO 00000KT 10SM CLR 24/04 A3019 RMK AO2 SLP213
     T02440039 10250 20122 58016=
KLAA 231753Z AUTO 22032G46KT 10SM CLR 27/M01 A2936 RMK AO2 PK WND
     22046/1745 SLP890 T02721006 10272 20100 58005=
KLAR 231753Z AUTO 32012G15KT 10SM FEW032 SCT070 08/M02 A2945 RMK
     AO2 SLP910 60000 T00781017 10078 20006 58002 $=
KLAW 231753Z 18021G31KT 10SM CLR 28/16 A2969 RMK AO2 PK WND
     18032/1722 SLP041 T02780156 10278 20189 58017=
KLBF 231753Z AUTO 21023G35KT 10SM FEW043 28/M01 A2920 RMK AO2 PK
     WND 21037/1722 SLP864 T02831006 10283 20044 56016=
KLBX 231753Z AUTO 18015G27KT 10SM CLR 29/16 A2996 RMK AO2 PK WND
     18030/1735 SLP145 T02940161 10300 20217 58001=
KLCH 231753Z 17018G27KT 10SM CLR 29/16 A3001 RMK AO2 PK WND
     15027/1708 SLP170 T02890156 10289 20167 58008=
KTOR 231753Z AUTO 31028G43KT 10SM CLR 11/01 A2932 RMK AO2 PK WND
     31043/1752 SLP906 T01110011 10133 20094 51009=
