SAUS80 KWBC 231800
METAR
KCQT 231747Z AUTO 13006KT 10SM CLR 19/11 A2986 RMK AO2 SLP111
     T01940111 10200 20133 50011=
KGNT 231755Z AUTO 25022G31KT 10SM BKN046 OVC050 13/02 A2979 RMK
     AO2 T01340018 10144 20087=
KJDN 231748Z AUTO 32015KT 04/03 A2953 RMK AO1 SLP014 P0015 60028
     T00440033 10067 20044 53016=
KALB 231751Z 00000KT 10SM FEW170 FEW220 BKN250 16/06 A3031 RMK AO2
     SLP266 T01610061 10161 20039 58017=
KBDL 231751Z 35006KT 10SM FEW050 BKN140 OVC160 14/07 A3031 RMK AO2
     SLP264 T01390067 10139 20072 58018=
KBKW 231751Z AUTO VRB04KT 10SM CLR 21/01 A3023 RMK AO2 SLP218
     T02060011 10206 20039 58014=
KCON 231751Z AUTO 27003KT 10SM CLR 14/07 A3034 RMK AO2 SLP277
     T01440067 10144 20028 58013=
KCRP 231751Z 16021G31KT 10SM SCT032 SCT060 BKN190 BKN250 30/21
     A2988 RMK AO2 PK WND 17031/1744 SLP118 T03000206 10300 20206
     58006=
KEKN 231751Z AUTO 36006KT 10SM CLR 22/00 A3022 RMK AO2 SLP238
     I6000 T02170000 10217 21017 58022=
KELP 231751Z 23016G29KT 10SM FEW049 SCT075 BKN170 BKN210 24/11
     A2978 RMK AO2 PK WND 23029/1745 SLP016 T02440106 10250 20206
     58003=
KHSE 231751Z AUTO VRB06KT 7SM OVC004 17/17 A3000 RMK AO2
     RAE1657B14E39 SLP158 P0000 60084 T01720172 10178 20167 58018
     $=
KHTS 231751Z 15004KT 10SM CLR 23/06 A3017 RMK AO2 SLP214 T02330061
     10244 20072 58017=
KORF 231751Z 36014G20KT 2 1/2SM RA BR OVC005 15/15 A3012 RMK AO2
     SLP198 P0004 60004 T01500150 10156 20150 58002=
KPVD 231751Z 02009KT 10SM -RA FEW085 SCT110 OVC130 15/11 A3031 RMK
     AO2 RAB51 SLP263 P0000 60000 T01500106 10156 20100 58013=
KROW 231751Z 22027G42KT 10SM CLR 27/09 A2967 RMK AO2 PK WND
     22042/1747 SLP984 T02670089 10272 20161 58012=
KSAD 231751Z AUTO 31020G29KT 10SM CLR 22/07 A2976 RMK AO2 PK WND
     30029/1750 SLP034 T02220067 10228 20156 58001=
KSAT 231751Z 16014G24KT 10SM BKN042 BKN250 28/17 A2988 RMK AO2 PK
     WND 16027/1733 SLP101 T02780167 10278 20200 58013=
KVCT 231751Z 16022G31KT 10SM FEW036 SCT050 BKN065 30/20 A2991 RMK
     AO2 PK WND 14031/1738 SLP125 T03000200 10311 20156 58004=
KCDJ 231751Z AUTO 19016G30KT 28/14 A2962 RMK AO1 PK WND 19031/1654
     SLP017 T02830144 10283 20178 58011=
KGDP 231751Z AUTO 23034G55KT 9SM FEW065 23/09 A2982 RMK AO2 PK WND
     24058/1729 SLP022 T02330089 10233 20161 58013=
KSNT 231751Z AUTO 32011G17KT M01/M08 A2986 RMK AO1 SLP101
     T10061083 11006 21067 51018=
KABE 231751Z 06008KT 10SM BKN065 17/08 A3026 RMK AO2 SLP248
     T01670083 10167 20072 58009 $=
KCAK 231751Z 14005KT 10SM SCT250 23/07 A3019 RMK AO2 SLP219
     T02280067 10228 20106 58010=
KIGM 231751Z AUTO 01013G19KT 10SM CLR 16/M01 A2986 RMK AO2 SLP056
     T01561006 10156 20100 51015=
KMYL 231751Z AUTO 27007KT 10SM FEW015 SCT021 BKN060 02/M04 A2990
     RMK AO2 SNB27E44 SLP143 P0000 60003 T00221039 10022 21033
     51019=
KOXR 231751Z 00000KT 10SM FEW025 18/12 A2987 RMK AO2 SLP114
     T01830117 10183 20117 51016=
KSAN 231751Z 19008KT 10SM BKN043 20/08 A2989 RMK AO2 SLP121
     T02000083 10200 20150 50009=
KSMX 231751Z 31009KT 10SM CLR 17/06 A2993 RMK AO2 SLP137 T01670061
     10167 20056 50012=
KSVE 231755Z AUTO 36007KT 10SM OVC050 M23/M53 A3007 RMK AO2=
KTEB 231751Z 02004KT 10SM -RA OVC110 16/09 A3026 RMK AO2 SLP247
     P0000 60000 T01560094 10156 20117 56009=
KYNG 231751Z 00000KT 10SM FEW065 SCT180 SCT250 22/04 A3021 RMK AO2
     SLP229 T02170044 10217 20083 58008=
KCRP 231751Z 16021G31KT 10SM SCT032 SCT060 BKN190 BKN250 30/21
     A2988 RMK AO2 PK WND 17031/1744 SLP118 T03000206 10300 20206
     58006=
