SACA32 KWBC 231900 CCA
METAR
TISX 231853Z 10011KT 10SM SCT028 31/23 A2989 RMK AO2 SLP120
     T03110233 $=
TJNR 231853Z AUTO 05006KT 10SM CLR 31/24 A2990 RMK AO2 SLP126
     T03060239=
