SAUS70 KWBC 232100 RRX
METAR
KBYL 232055Z AUTO 13007KT 10SM CLR 23/02 A3012 RMK AO1=
KJVY 232055Z AUTO 17010KT 10SM CLR 26/07 A3004 RMK AO2 PWINO=
KTOA 232055Z 17005KT 10SM SCT020 23/11 A2984=
KUKF 232055Z AUTO 11005KT 10SM CLR 21/04 A3022 RMK AO2=
TISX 232053Z COR 06008KT 10SM SCT030 30/23 A2988 RMK AO2 SLP118
     T03000228 56006 $=
KGLE 232055Z AUTO 17024G30KT 10SM CLR 29/14 A2974 RMK AO2
     T02860139=
KGPM 232050Z 17017G26KT 10SM SCT050 29/14 A2976=
KNSE 232056Z AUTO 00000KT 10SM CLR 26/M03 A3008 RMK AO2 SLP172
     6//// T02611028 56023 PNO $=
KGOV 232058Z AUTO 18012G16KT 10SM CLR 23/10 A3000 RMK AO2 LTG DSNT
     W SLP166 T02250102 57009 $=
KNSE 232056Z AUTO 00000KT 10SM CLR 26/M03 A3008 RMK AO2 SLP172
     6//// T02611028 56023 PNO $=
KEFD 232054Z 14018G25KT 10SM FEW045 28/17 A2989=
KNSE 232056Z AUTO 00000KT 10SM CLR 26/M03 A3008 RMK AO2 SLP172
     6//// T02611028 56023 PNO $=
KTNB 232050Z AUTO 12005KT 10SM CLR 18/03 A3021 RMK AO2
     T01820034=
KDCY 232055Z AUTO 18015KT 10SM CLR 25/09 A2998 RMK AO2
     T02500092=
KEBS 232055Z AUTO 14025G34KT 10SM CLR 26/15 A2944 RMK AO2=
KGOV 232058Z AUTO 18012G16KT 10SM CLR 23/10 A3000 RMK AO2 LTG DSNT
     W SLP166 T02250102 57009 $=
KMPZ 232050Z AUTO 17021G28KT 10SM CLR 26/18 A2965 RMK AO2=
KRDK 232055Z AUTO 16026G37KT FEW120 29/14 A2940 RMK AO2=
KSDA 232055Z AUTO 17021G40KT 10SM FEW120 28/14 A2939 RMK AO2=
KTIF 232055Z AUTO 29017G26KT 10SM CLR 23/00 A2923 RMK AO2
     T02251005=
KUMP 232055Z AUTO 17015G23KT 10SM CLR 25/11 A3001 RMK AO2
     T02520111=
KUNI 232055Z AUTO 14005KT 10SM CLR 25/06 A3012 RMK AO2
     T02470055=
KUYF 232055Z AUTO 17008KT 10SM CLR 23/03 A3010 RMK AO2=
KVES 232055Z AUTO 19008G17KT 10SM CLR 23/05 A3007 RMK AO2=
K20V 232055Z AUTO 30011G26KT 2 1/2SM -SN SCT009 BKN031 OVC048
     02/M02 A2959 RMK AO2 VIS 1 1/2V5=
K6S8 232055Z AUTO 29016G24KT 10SM 04/01 A2968 RMK A01 LAUREL=
KANK 232050Z AUTO 28017G23KT 10SM CLR 08/M05 A2966 RMK AO1
     T00771055=
KBMC 232050Z AUTO 10SM SCT065 BKN075 06/M04 A2986 RMK AO1
     T00621044=
KDUB 232054Z AUTO 36012G26KT 10SM -SN BKN041 OVC047 00/M07 A2963
     RMK AO2=
KEAN 232050Z AUTO 35018G27KT 10SM OVC050 08/00 A2946 RMK AO2
     T00760000=
KGNB 232055Z AUTO 27009G14KT 10SM SCT046 BKN060 OVC110 04/M04
     A2956 RMK AO2 T00411041=
KGNC 232055Z AUTO 21019G25KT 10SM CLR 29/09 A2971 RMK AO2
     T02930087=
KHBV 232050Z AUTO 18013G20KT 10SM CLR 32/17 A2976 RMK AO2
     T03190169=
KHEQ 232055Z AUTO 34021G28KT 10SM CLR 22/01 A2929 RMK AO2=
KHSG 232050Z AUTO 02008KT 10SM SCT018 OVC025 03/00 A2965 RMK AO2
     T00250001=
KLUD 232050Z AUTO 16021G31KT 10SM CLR 29/15 A2973 RMK AO2
     T02870145=
KMMH 232054Z AUTO 35013G18KT 10SM CLR 07/M10 A2997 RMK AO2=
KOSA 232050Z AUTO 17014G22KT 10SM BKN050 29/15 A2983 RMK AO2
     T02890154=
KOZA 232055Z AUTO 20018G28KT 10SM CLR 25/14 A2980 RMK AO2=
KPEQ 232055Z AUTO 23015G19KT 10SM CLR 33/07 A2964 RMK AO2
     T03300072=
KPVW 232050Z AUTO 22019G27KT 10SM SCT080 27/09 A2963 RMK AO2
     T02670085=
KRAS 232050Z AUTO 14014G21KT 10SM CLR A2984 RMK AO2=
KSLR 232050Z AUTO 16017G25KT 10SM SCT050 29/14 A2981 RMK AO2
     T02900142=
KTXW 232050Z AUTO 15021G28KT 1/2SM HZ VV005 30/18 A2978 RMK AO2
     T03040183=
