SAUS70 KWBC 231750
METAR
KC62 231815Z AUTO 18015G19KT 10SM CLR 23/12 A3007 RMK AO2
     T02320130=
KOCW 231735Z AUTO 31004KT 10SM OVC013 16/13 A3011 RMK AO2
     T01630128=
