SAUS70 KWBC 232042
METAR
KOWX 232035Z AUTO 16011G15KT 10SM CLR 25/05 A3008 RMK AO1=
KAUH 232035Z AUTO 19020G31KT 7SM CLR 30/10 A2925 RMK AO2
     T03000104=
KBCK 232035Z AUTO 13010G19KT 100V160 10SM CLR 25/12 A2965 RMK AO2
     T02490121=
KBIE 232035Z AUTO 19024G32KT 10SM CLR 29/13 A2937 RMK AO2
     T02890130=
KC35 232035Z AUTO 14014G20KT 10SM CLR 23/13 A2971 RMK AO2
     T02340129 PWINO=
KCFS 232035Z AUTO 16010G19KT 10SM CLR 24/09 A3006 RMK AO2
     T02400085=
KCKN 232035Z AUTO 12020G24KT 10SM CLR 26/11 A2938 RMK AO2=
KCNC 232035Z AUTO 15022G30KT 10SM CLR 28/15 A2951 RMK AO2=
KCQM 232037Z AUTO 14007KT 100V160 10SM SCT070 23/11 A2960 RMK
     AO2=
KDKB 232035Z AUTO 17022G33KT 10SM SCT120 24/15 A2982 RMK AO2
     T02410152=
KDNV 232035Z AUTO 18015G24KT 10SM CLR 26/11 A2992 RMK AO2
     T02610107=
KEGV 232035Z AUTO 16011G18KT 10SM BKN040 21/11 A2977 RMK AO2
     T02070105=
KFEP 232035Z AUTO 16017G29KT 10SM BKN045 25/16 A2977 RMK AO2
     T02480163=
KFSW 232035Z AUTO 15014G21KT 10SM OVC001 26/15 A2967 RMK AO2=
KFWC 232035Z AUTO 18021G26KT SCT050 26/11 A2993 RMK AO1 T02610111
     PWINO=
KGDB 232035Z AUTO 13020G31KT 10SM CLR 26/13 A2936 RMK AO2
     T02590131=
KHMZ 232035Z AUTO 15006KT 10SM SCT034 18/08 A3023 RMK AO2
     T01790079=
KIBM 232035Z AUTO 33021G25KT 10SM SCT120 12/00 A2939 RMK AO2
     T01160004=
KJYG 232037Z AUTO 14026G34KT 10SM CLR 25/12 A2940 RMK AO2=
KLOT 232035Z AUTO 16020G31KT 10SM CLR 26/13 A2984 RMK AO2=
KMQS 232035Z AUTO 02006KT 10SM BKN043 BKN049 15/12 A3023 RMK
     AO2=
KPHN 232035Z AUTO 16012G18KT 10SM CLR 24/06 A3011 RMK AO2=
K2R9 232035Z AUTO 16017G23KT 10SM SCT060 30/19 A2981 RMK AO2=
K7BM 232035Z AUTO 26020G29KT 1/2SM -SN BKN006 OVC010 M02/M06 A2961
     RMK AO2=
K81R 232035Z AUTO 17016G24KT 10SM CLR 29/14 A2977 RMK AO2
     T02940142=
KASL 232035Z AUTO 00000KT 10SM CLR 30/13 A2985 RMK AO2 T02970131
     TSNO $=
KBPG 232035Z AUTO 18021G26KT 10SM CLR 29/11 A2969 RMK AO2
     T02950112=
KCFD 232035Z AUTO 18013G25KT 10SM SCT050 BKN065 30/16 A2985 RMK
     AO2 T02970159=
KDKB 232035Z AUTO 17022G33KT 10SM SCT120 24/15 A2982 RMK AO2
     T02410152=
KDKR 232035Z AUTO 16011G18KT 130V190 10SM BKN065 30/13 A2985 RMK
     AO2=
KE41 232035Z AUTO 18016G22KT 10SM CLR 25/15 A2977 RMK AO2
     T02490146=
KEBG 232035Z AUTO 15019G24KT 10SM CLR 32/18 A2977 RMK AO2
     T03190184 PWINO=
KELA 232035Z AUTO 17013G21KT 10SM SCT050 OVC070 29/17 A2986 RMK
     AO2 T02890171=
KEMM 232035Z AUTO 29021G27KT 10SM SCT019 SCT044 00/M05 A2972 RMK
     AO2=
KGCD 232035Z AUTO 00000KT 10SM OVC050 04/M01 A3009 RMK AO2
     T00411009=
KLHB 232035Z AUTO 15016G21KT 10SM SCT055 BKN065 32/16 A2983 RMK
     AO2 T03150162=
KLHM 232035Z AUTO 32017G23KT 10SM CLR 21/M03 A2993 RMK AO1=
KDNS 232035Z AUTO 17022G34KT 10SM 28/13 A2937 RMK AO2=
KFFL 232035Z AUTO 18019G29KT 9SM CLR 26/14 A2962 RMK A01=
KGBG 232035Z AUTO 16014G21KT 10SM CLR 24/16 A2973 RMK AO2
     T02400155=
KGGF 232035Z AUTO 34024KT 10SM CLR 22/M01 A2924 RMK AO2=
KGHG 232035Z AUTO VRB04KT 10SM FEW037 FEW048 SCT090 14/12 A3031
     RMK AO2=
KHDE 232035Z AUTO 21026G30KT 7SM SCT025 OVC031 30/04 A2922 RMK AO2
     T02960039=
KHHG 232035Z AUTO 17011G16KT 10SM CLR A3002 RMK AO2=
KHNR 232035Z AUTO 17020G38KT 140V200 10SM CLR 28/15 A2938 RMK
     A01=
KI63 232035Z AUTO 16019G28KT 10SM CLR 25/14 A2972 RMK AO2
     T02490141=
KI74 232035Z AUTO 18008KT 156V216 10SM CLR 23/09 A3010 RMK AO2=
KICL 232035Z AUTO 18023G35KT 10SM CLR 28/14 A2947 RMK AO2=
KIKK 232035Z AUTO 18012G25KT 10SM CLR 26/12 A2988 RMK AO2
     T02560120=
