SACA32 KWBC 231700
METAR
MDLR NIL=
MDPC NIL=
MDPP NIL=
MDSD NIL=
MDST NIL=
MTCH NIL=
MTPP 231700Z VRB02KT 9999 SCT028TCU SCT200 31/22 Q1012 A2990
     RMK/TCU/N=
MTPP 231700Z VRB02KT 9999 SCT028TCU SCT200 31/22 Q1012 A2990
     RMK:TCU/N=
MTPP 231658Z VRB02KT 9999 SCT028TCU SCT200 31/22 Q1012 A2990
     RMK/TCU/N=
MTPP 231658Z VRB02KT 9999 SCT028TCU SCT200 31/22 Q1012 A2990
     RMK:TCU/N=
TAPA NIL=
TIST 231653Z 16007KT 10SM FEW030 31/24 A2991 RMK AO2 SLP127
     T03110244=
TJBQ 231650Z 08012KT 10SM CLR 30/23 A2994=
TJMZ NIL=
TJPS NIL=
TJSJ 231656Z 04010KT 10SM FEW035 SCT060 31/24 A2991 RMK AO2 SLP129
     T03110239 $=
TKPK 231700Z 06007KT 9999 FEW024 30/24 Q1013=
TKPN NIL=
TQPF 231700Z 11009KT 9999 SCT020 29/23 Q1013=
TRPM NIL=
TUPJ 231700Z 08005KT 10SM FEW023 31/25 A2993 RMK Q1013 VIS16KM=
TUPW NIL=
