SAUS70 KWBC 231920 RRF
METAR
KOXV 231915Z AUTO 16021G29KT 10SM CLR 26/13 A2955 RMK AO2=
KPCW 231915Z AUTO 19011G18KT 10SM CLR 25/08 A3009 RMK AO2=
KPTD 231915Z AUTO 02005KT 10SM CLR 21/05 A3026 RMK AO2=
KRNH 231915Z AUTO 13018G26KT 10SM CLR 24/16 A2957 RMK AO2
     T02360163=
KRUG 231915Z AUTO 06023KT 10SM CLR 11/07 A2941 RMK AO2=
KRVL 231915Z AUTO 00000KT 8SM OVC026 17/08 A3025 RMK AO2=
KS25 231915Z AUTO 05011G17KT 10SM OVC013 07/07 A2944 RMK AO2=
KSAR 231915Z AUTO 18016G27KT 10SM BKN039 24/15 A2990 RMK AO2
     T02410149=
KSLO 231915Z AUTO 17013G24KT 130V200 10SM BKN040 25/14 A2992 RMK
     AO2 T02500143=
KSPF 231915Z AUTO 30023G31KT 10SM OVC014 05/02 A2937 RMK AO2=
KUBE 231915Z AUTO 13015G20KT 10SM SCT040 22/16 A2962 RMK AO2=
KY49 231915Z AUTO 09009G14KT 10SM CLR 20/11 A2952 RMK AO2
     T02000106=
K3S8 231915Z AUTO 00000KT 10SM CLR 09/05 A3024 RMK AO2=
K46U 231915Z AUTO 32017KT 10SM BKN042 OVC060 02/M06 A2974 RMK
     A01=
K4V0 231915Z AUTO 24004KT 4SM -SN BKN004 BKN007 OVC028 01/01 A2967
     RMK AO2 T00070007=
KEIK 231915Z AUTO 25013G17KT 10SM SCT100 SCT120 18/M05 A2933 RMK
     AO2 T01811047 PWINO=
KEKS 231910Z AUTO 34004KT M01/M02 A2982 RMK AO2 PWINO TSNO=
KF46 231915Z AUTO 19016G29KT 10SM SCT049 29/16 A2981 RMK AO2
     T02870156=
KFLY 231915Z AUTO 22015G24KT 190V250 CLR 16/M01 A2947 RMK AO2
     T01581012 PWINO=
KGDJ 231915Z AUTO 16021G25KT 10SM CLR 29/15 A2977 RMK AO2
     T02870153=
KGOO 231910Z AUTO 05010G18KT 10SM CLR 13/M08 A2997 RMK A01=
KGYB 231915Z AUTO 17011G17KT 10SM SCT046 SCT060 BKN065 28/18 A2987
     RMK AO2 T02810175=
KHRX 231915Z AUTO 22021G27KT 10SM CLR 24/11 A2964 RMK AO2
     T02430106=
KJTC 231915Z AUTO 25016G29KT 9SM FEW027 SCT038 BKN043 14/04 A2981
     RMK AO2=
KLNC 231915Z AUTO 17019G30KT 10SM SCT049 29/15 A2982 RMK AO2
     T02870146=
KM75 231915Z AUTO 01014KT 1 1/4SM BR VV007 01/01 A2964 RMK A01=
KOAR 231915Z AUTO 27007KT 10SM CLR M05/M22 A3000 RMK AO2=
K2G2 231915Z AUTO 13007KT 080V140 10SM CLR 23/03 A3018 RMK A01=
K33N 231915Z AUTO 02007KT 4SM BR SCT021 SCT030 15/15 A3018 RMK
     A01=
KAUM 231917Z AUTO 16016G23KT 10SM CLR 24/13 A2956 RMK AO2=
KCQM 231916Z AUTO 12008G16KT 10SM SCT095 22/10 A2962 RMK AO2=
KD39 231915Z AUTO 11016G26KT 10SM CLR 22/12 A2945 RMK AO2
     T02200121=
KDSF 231915Z AUTO 07005KT 10SM CLR 26/14 A3007 RMK A01=
KGGI 231915Z AUTO 14023G29KT 10SM CLR 25/15 A2960 RMK AO2
     T02500148=
KGLX 231915Z AUTO 06009G14KT 10SM CLR 26/13 A3007 RMK A01=
KHHV 231915Z AUTO 15017G22KT 10SM FEW033 FEW040 SCT050 26/19 A2990
     RMK A01=
KHYX 231915Z AUTO 17015G20KT 10SM CLR 25/09 A3006 RMK AO2
     T02450090=
KHZX 231915Z AUTO 11012G17KT 10SM CLR 22/12 A2957 RMK AO2=
KIMS 231915Z AUTO 17009G16KT 10SM CLR 25/09 A3009 RMK AO2=
KJPX 231915Z AUTO 03006KT 10SM -RA SCT037 SCT055 OVC065 13/13
     A3024 RMK AO2 P0004 T01320132=
KJYG 231916Z AUTO 15026G31KT 10SM CLR 24/12 A2943 RMK AO2=
KLVN 231915Z AUTO 14019G28KT 10SM CLR 24/11 A2952 RMK AO2=
KMOX 231915Z AUTO 13022G32KT 10SM CLR 23/09 A2937 RMK AO2=
KMZH 231915Z AUTO 11005KT 10SM CLR 23/11 A2958 RMK AO2=
KONA 231915Z AUTO 15020G24KT 10SM CLR 25/12 A2961 RMK AO2=
KOSC 231915Z AUTO 10007KT 10SM CLR 22/12 A3008 RMK AO2
     T02180119=
KPEX 231915Z AUTO 12021G26KT 10SM CLR 23/12 A2944 RMK AO2=
KRRT 231915Z AUTO 04012G18KT 10SM CLR 13/09 A2956 RMK AO2=
KVAF 231915Z AUTO 18017KT 10SM CLR 28/17 A2994 RMK A01=
KY31 231915Z AUTO 16006KT 10SM BKN060 23/10 A3004 RMK AO2
     T02250104=
K1H2 231915Z AUTO 14014G27KT 10SM OVC044 24/14 A2994 RMK AO2
     T02430141=
K3LF 231915Z AUTO 17027G33KT 10SM SCT033 23/14 A2986 RMK AO2
     T02250136=
