SAUS70 KWBC 231700 RRX
METAR
KOXI 231655Z AUTO 18016G24KT 10SM SCT075 23/11 A3000 RMK AO1=
KOXV 231655Z AUTO 16019G29KT 10SM CLR 25/13 A2960 RMK AO2=
KP08 231655Z AUTO 27012KT 10SM SCT033 BKN042 BKN048 20/15 A2980
     RMK AO2=
KPCW 231655Z AUTO 16006KT 10SM CLR 24/11 A3014 RMK AO2=
KPHT 231655Z AUTO 19014G22KT 10SM CLR 24/11 A3009 RMK A01=
KPKV 231655Z AUTO 17014G21KT 10SM SCT034 BKN050 BKN065 30/20 A2994
     RMK AO2 T02990197=
KPMH 231655Z AUTO 16003KT 10SM CLR 24/06 A3020 RMK AO2
     T02420061=
KPRO 231655Z AUTO 16022G27KT 10SM CLR 24/13 A2952 RMK AO2
     T02410125=
KCPT 231655Z AUTO 17018G29KT 10SM BKN035 26/16 A2986 RMK A01=
KEUG 231654Z 19005KT 10SM FEW035 09/07 A3016 RMK AO2 SLP215
     T00940067 $=
KGFA 231655Z AUTO 34012KT 2 3/4SM -SN OVC007 00/M00 A2975 RMK AO2
     SLP104 P0000 T00001001 $=
KPAN 231655Z AUTO 20011G17KT 10SM BKN018 BKN028 OVC045 10/07 A2986
     RMK AO2 PWINO TSNO=
KPVF 231655Z AUTO 00000KT 10SM CLR 10/M04 A2997 RMK AO1=
KRBL 231654Z AUTO 33012KT 10SM CLR 14/00 A3008 RMK AO2 SLP183
     T01440000=
KRPH 231655Z AUTO 18011G24KT 150V220 6SM HZ CLR 26/15 A2976 RMK
     AO2 T02650155 $=
KTME 231655Z AUTO 17012G22KT 10SM SCT048 BKN055 29/17 A2997 RMK
     AO2=
KTSP 231655Z AUTO 28010KT 9SM CLR 08/01 A2994 RMK AO2=
KBWP 231655Z AUTO 13017G25KT 10SM CLR 20/11 A2941 RMK AO2=
KCMX 231653Z AUTO 11008KT 10SM CLR 19/11 A2983 RMK AO2 SLP103
     T01890111=
KDSV 231654Z AUTO 00000KT 10SM CLR 21/05 A3025 RMK AO2 SLP252
     T02060050=
KEKM 231655Z AUTO 17011G16KT 130V200 9SM CLR 23/13 A3004 RMK AO2
     T02280134=
KFIG 231654Z AUTO 05004KT 10SM CLR 17/06 A3028 RMK AO2 SLP259
     T01720056=
KHZE 231655Z AUTO 06019G27KT 10SM CLR 10/05 A2940 RMK AO2=
KJST 231654Z AUTO 16004KT CLR 16/02 A3027 RMK AO2 SLP249 T01610022
     $=
KPLN 231654Z AUTO 13012KT 10SM CLR 22/12 A3003 RMK AO2 SLP169
     T02220117 $=
KRST 231654Z 14018G29KT 10SM CLR 21/12 A2964 RMK AO2 PK WND
     15030/1617 SLP031 T02110122=
KRYV 231655Z AUTO 15010G17KT 10SM CLR 22/11 A2985 RMK AO2
     T02160111=
KS25 231655Z AUTO 07010G16KT 10SM OVC010 06/06 A2948 RMK AO2=
KS32 231655Z AUTO 08016G22KT 10SM CLR 13/05 A2945 RMK AO2 TSNO=
KTME 231655Z AUTO 17012G22KT 10SM SCT048 BKN055 29/17 A2997 RMK
     AO2=
K2P2 231655Z AUTO 19009G18KT 10SM BKN110 15/12 A2995 RMK AO2
     T01510119=
K46D 231655Z AUTO 08015G24KT 10SM CLR 13/05 A2944 RMK AO2=
K5H4 231655Z AUTO 06018G23KT 10SM CLR 09/M03 A2946 RMK AO2=
K82C 231655Z AUTO 15011G16KT 10SM CLR 21/13 A2978 RMK AO2
     T02070126=
K96D 231655Z AUTO 04011KT 10SM OVC012 09/09 A2958 RMK AO2=
KAKR 231654Z AUTO 14003KT 9SM CLR 23/05 A3020 RMK AO2 SLP224
     T02330050=
KANQ 231655Z AUTO 15013KT 10SM CLR 22/11 A3008 RMK AO2=
KBAC 231655Z AUTO 08012G18KT 9SM CLR 14/08 A2942 RMK AO2=
KBWW 231655Z AUTO 06010KT 10SM OVC012 07/05 A2936 RMK AO2=
KC29 231655Z AUTO 15012G19KT 10SM CLR 22/12 A2983 RMK AO1
     T02190122=
KCFJ 231655Z AUTO 18015G21KT 10SM CLR 23/08 A3003 RMK AO2
     T02270078=
KD57 231655Z AUTO 06014KT 10SM CLR 09/03 A2935 RMK AO2=
KD60 231655Z AUTO 06020KT 10SM OVC007 04/04 A2952 RMK AO2=
KGWR 231655Z AUTO 11016KT 9SM CLR 16/11 A2939 RMK A01=
KIDI 231655Z AUTO VRB03KT 10SM CLR 19/04 A3029 RMK A01=
KISW 231654Z AUTO 12012G19KT 10SM CLR 21/12 A2981 RMK AO2 SLP091
     T02060122=
KMFI 231654Z AUTO 16013G21KT 10SM CLR 20/13 A2978 RMK AO2 SLP083
     T02000128=
KN38 231655Z AUTO 17009KT 10SM CLR 16/04 A3028 RMK AO2=
KOLG 231655Z AUTO 13007KT 10SM CLR 20/10 A2970 RMK AO1=
KRNH 231655Z AUTO 13010G15KT 10SM CLR 22/16 A2964 RMK AO2
     T02150155=
KRUG 231655Z AUTO 07022G28KT 10SM OVC011 07/06 A2950 RMK AO2=
