SAUS70 KWBC 231700 RRO
METAR
KSHL 231655Z AUTO 15020G31KT 10SM CLR 21/13 A2938 RMK AO2=
KSJS 231655Z AUTO 00000KT 10SM CLR 22/08 A3022 RMK AO2
     T02170075=
KSLB 231655Z AUTO 16026G34KT 10SM CLR 22/13 A2944 RMK AO2=
KSNL 231655Z AUTO 19023G29KT 10SM SCT023 23/14 A2974 RMK AO2
     T02310142=
KNSE 231656Z AUTO 14003KT 10SM CLR 24/ A3018 RMK AO2 SLP206 T0239
     PNO $=
KBAF 231653Z 02004KT 10SM CLR 13/06 A3033 RMK AO2 SLP275
     T01280061=
KNFE 231656Z AUTO 34006KT 1 1/4SM +RA BR OVC003 17/15 A3013 RMK
     AO2 RAB21 SLP204 P0019 T01670150=
K11R 231655Z AUTO 18015KT 10SM SCT035 SCT046 SCT050 28/19 A2994
     RMK AO2 LTG DSNT SE T02840192=
K6I2 231655Z AUTO 17010KT 10SM CLR 23/06 A3017 RMK AO2=
K8A0 231655Z AUTO 18007KT 10SM CLR 21/03 A3021 RMK AO2=
KAFO 231655Z AUTO 31011KT 10SM BKN025 OVC032 00/M06 A2970 RMK
     AO2=
KAPS 231659Z AUTO 11009KT 10SM SCT044 26/14 A3012 RMK AO2=
KAXX 231655Z AUTO 24030G42KT 10SM BKN055 BKN075 OVC085 10/M03
     A2971 RMK AO2 T01041026=
KBMT 231655Z AUTO 14012G19KT 10SM SCT043 SCT050 BKN060 29/17 A3000
     RMK AO2 T02910171=
KCNI 231655Z AUTO 17006KT 10SM CLR 21/02 A3024 RMK AO2
     T02130025=
KDED 231655Z AUTO 02007KT 330V040 10SM CLR 26/15 A3014 RMK AO2
     T02620147=
KDUX 231655Z AUTO 20025G30KT 10SM CLR 25/09 A2963 RMK AO2
     T02530094=
KETN 231655Z AUTO 17021G31KT 10SM CLR 25/15 A2981 RMK AO2
     T02510151=
KGLE 231655Z AUTO 18020G27KT 10SM CLR 26/16 A2983 RMK AO2
     T02580157=
KHVE 231655Z AUTO 00000KT 10SM CLR 07/01 A2966 RMK AO2=
KHZR 231655Z AUTO 15010G16KT 10SM SCT046 SCT060 26/15 A3009 RMK
     AO2 T02620150=
KJES 231655Z AUTO 09005KT 10SM CLR 21/09 A3019 RMK AO2=
KK62 231655Z AUTO 16012G16KT 10SM CLR 23/07 A3016 RMK AO2=
KMQW 231655Z AUTO 04003KT 10SM CLR 23/12 A3018 RMK AO2
     T02340115=
KPXE 231655Z AUTO 06006KT 10SM CLR 23/10 A3020 RMK AO2
     T02310097=
KRGA 231657Z AUTO 21006KT 10SM CLR 23/07 A3020 RMK AO2=
KT20 231655Z AUTO 19013G18KT 10SM SCT039 SCT047 SCT055 28/20 A2992
     RMK AO2 T02770197=
KTMK 231655Z AUTO 00000KT 10SM CLR 08/07 A3016 RMK AO2=
KUKL 231655Z AUTO 19024G34KT 10SM CLR A2963 RMK AO2=
KVES 231655Z AUTO 19008G14KT 10SM CLR 22/07 A3013 RMK AO2=
KW99 231658Z AUTO 00000KT 10SM CLR 17/06 A3029 RMK AO2=
PAEL 231653Z 30017G25KT 9SM -RA OVC021 04/03 A2943 RMK SPB
     E01025KT MIN 3.9 NOSPECI=
K6S8 231655Z AUTO 28015G20KT 10SM 04/M00 A2962 RMK A01 Laurel=
TISX 231653Z 12011KT 10SM SCT034 SCT047 31/24 A2992 RMK AO2
     RAB16E30 SLP130 P0000 T03110244 $=
KAOH 231653Z AUTO 16009G19KT 10SM CLR 22/11 A3014 RMK AO2 SLP201
     T02220111=
KAXA 231655Z AUTO 15025G32KT 10SM CLR 22/14 A2950 RMK A01=
KBJI 231655Z AUTO 12012KT 10SM CLR 18/09 A2956 RMK AO2
     T01770094=
KBUU 231655Z AUTO 16010G15KT 140V200 10SM CLR 22/13 A2988 RMK AO2
     T02220126 PWINO=
KCBF 231655Z AUTO 18021G28KT 9SM CLR 26/11 A2941 RMK AO2=
KCGE 231655Z AUTO 01009G14KT 340V040 10SM FEW023 FEW120 17/15
     A3017 RMK A01=
KFME 231659Z AUTO 02006KT 10SM OVC050 17/08 A3025 RMK AO1=
KFXY 231655Z AUTO 15020G28KT 10SM CLR 22/12 A2956 RMK AO2=
KIIB 231655Z AUTO 15021G27KT 10SM CLR 22/14 A2969 RMK AO2
     T02230135=
KIJX 231655Z AUTO 16012G18KT 140V200 10SM SCT110 21/14 A2985 RMK
     AO2 T02050135=
KISP 231656Z 04011KT 10SM -RA SCT085 OVC110 14/11 A3025 RMK AO2
     SLP243 P0002 T01440106=
KOWX 231655Z AUTO 20011G15KT 10SM CLR 25/08 A3015 RMK AO1=
KRDK 231655Z AUTO 18024G32KT CLR 26/13 A2946 RMK AO2=
KSDA 231655Z AUTO 18018G29KT 10SM CLR 27/13 A2945 RMK AO2=
KW22 231655Z AUTO VRB04KT 2 1/2SM HZ CLR 24/03 A3023 RMK AO2 VIS 1
     1/4V5=
