SAUS70 KWBC 231740 RRD
METAR
KMYP 231735Z AUTO M1/4SM SN OVC002 M05/M05 A2973 RMK AO2=
KMZZ 231735Z AUTO 19014G18KT 10SM CLR 24/12 A3007 RMK AO2
     T02390116=
KN03 231735Z AUTO 13004KT 10SM CLR 17/01 A3029 RMK AO2=
KOLY 231735Z AUTO 17016G27KT 10SM SCT045 25/11 A2999 RMK AO2
     T02530111=
KONX 231735Z AUTO 33011G18KT 7SM -RA BKN004 BKN034 OVC050 16/16
     A3006 RMK AO2 P0006 T01560156=
KOQN 231735Z AUTO 04005KT 10SM -RA SCT110 16/11 A3024 RMK AO2=
KPCD 231735Z AUTO 19020G30KT 180V240 10SM OVC030 23/16 A2993 RMK
     AO2 T02250161=
KPEZ 231735Z AUTO 17015G19KT 10SM SCT038 29/19 A2988 RMK AO2
     T02890186=
KPMV 231735Z AUTO 17022G30KT 10SM CLR 27/13 A2944 RMK AO2
     T02710127=
KPPO 231735Z AUTO 18011KT 10SM CLR 24/16 A2998 RMK AO2
     T02410156=
KPRG 231735Z AUTO 17023G27KT 10SM SCT110 25/14 A2999 RMK AO2
     T02530142=
KPSO 231735Z AUTO 25018G25KT 10SM SCT022 BKN033 OVC070 05/02 A2970
     RMK AO2 T00450020=
KRAS 231735Z AUTO 16016G20KT 10SM SCT060 A2993 RMK AO2=
KRPJ 231735Z AUTO 17018G23KT 10SM CLR 23/15 A2984 RMK AO2
     T02300150 TSNO=
KRSV 231735Z AUTO 19019G26KT 10SM CLR 25/11 A3001 RMK AO2
     T02510108=
KRVJ 231735Z AUTO 08008KT 050V110 10SM CLR 24/11 A3016 RMK AO2
     T02400115=
KRWV 231735Z AUTO 16016G24KT 130V190 10SM SCT039 BKN046 BKN055
     28/17 A2992 RMK AO2 T02820175=
KRYW 231735Z AUTO 18010G17KT 130V200 10SM SCT030 SCT037 SCT044
     26/17 A2991 RMK AO2 T02630167=
KS33 231735Z AUTO 16003KT 10SM CLR 06/00 A3011 RMK AO2=
KSAA 231735Z AUTO 27012KT 10SM OVC034 00/M02 A2956 RMK AO2=
KSME 231735Z AUTO 00000G10KT 10SM CLR 23/06 A3016 RMK AO2=
KSTE 231735Z AUTO 13007G10KT 10SM CLR 22/10 A2981 RMK AO2
     T02180101=
KSTK 231735Z AUTO 31015KT 10SM CLR 21/00 A2924 RMK AO2=
KSXK 231735Z AUTO 16022G34KT 10SM CLR 24/13 A2934 RMK AO2=
KT41 231735Z AUTO 10SM BKN046 OVC060 29/16 A2998 RMK AO2
     T02870164=
KT74 231735Z AUTO 19018G22KT 10SM SCT040 SCT046 28/17 A2989 RMK
     AO2 T02810173=
KT82 231735Z AUTO 18016G23KT 10SM BKN034 26/15 A2990 RMK AO2
     T02580153=
KTEX 231735Z AUTO 27011G17KT 1/2SM SN BKN005 OVC009 00/M02 A2970
     RMK AO2=
KTTA 231735Z AUTO 03010G14KT 10SM CLR 20/05 A3018 RMK AO2
     T02000049=
KTYQ 231735Z AUTO 17017G21KT 10SM CLR 24/12 A3005 RMK AO2
     T02350116=
KVHN 231735Z AUTO 22014G19KT 10SM CLR 27/08 A2988 RMK AO2
     T02660081=
KVTP 231735Z AUTO 24015G32KT 210V270 2 1/2SM -SN BKN005 BKN012
     OVC025 M12/M14 A2960 RMK AO2=
KVVS 231735Z AUTO 04005KT 10SM CLR 21/02 A3023 RMK AO2
     T02110018=
KZPH 231735Z AUTO 05006KT 10SM CLR 28/15 A3012 RMK A02
     T02770147=
KCFS 231735Z AUTO 16012G16KT 10SM CLR 23/11 A3010 RMK AO2
     T02330106=
KCKN 231735Z AUTO 07004KT 10SM CLR 21/08 A2948 RMK AO2=
KCQM 231737Z AUTO 15008KT 10SM CLR 21/09 A2966 RMK AO2=
KGDB 231735Z AUTO 11021G28KT 10SM CLR 23/13 A2943 RMK AO2
     T02260129=
KJYG 231737Z AUTO 14020G28KT 10SM CLR 23/12 A2947 RMK AO2=
KPHN 231735Z AUTO 19011G15KT 10SM CLR 24/08 A3014 RMK AO2=
K0S9 231735Z AUTO 11005KT 10SM CLR 10/07 A3010 RMK AO2=
K4S2 231735Z AUTO 31008KT 10SM CLR 11/05 A3011 RMK AO2=
KALM 231735Z AUTO 26015G22KT 22/08 A2982 RMK AO2=
KATS 231735Z AUTO 22020G31KT 10SM CLR 25/11 A2973 RMK AO2=
KBKS 231735Z AUTO 15015G24KT 10SM SCT040 31/20 A2984 RMK AO2 PK
     WND 16026/1717 SLP066 T03080201 $=
KBVU 231735Z AUTO 32016G23KT 10SM CLR 16/M13 A2985 RMK AO2=
KBXK 231735Z AUTO 25008G14KT 10SM BKN075 22/10 A2979 RMK A01=
KCPT 231735Z AUTO 17023G29KT 10SM SCT038 27/17 A2984 RMK A01=
KCVH 231735Z AUTO 00000KT 10SM CLR 13/06 A3002 RMK A01=
KDNA 231735Z AUTO 23019G30KT 10SM SCT060 SCT075 SCT085 26/08 A2982
     RMK AO2=
