SAUS70 KWBC 231904
METAR
KW13 231915Z AUTO 10SM OVC030 16/06 A3023 RMK AO1 T01580056=
KDLL 231915Z AUTO 15014G24KT 10SM CLR 22/12 A2975 RMK AO2
     T02180116=
PAFS 231901Z AUTO 00000KT 10SM OVC013 M02/M03 A3006 RMK AO2 SLP189
     T10221028 FZRANO=
KGZN 231840Z AUTO 17019G29KT 10SM CLR 28/15 A2974 RMK AO2=
KEVM 231901Z AUTO 14011G16KT 10SM SCT100 21/11 A2966 RMK AO2=
PAHX 231902Z AUTO 14005KT 10SM SCT090 BKN110 M03/M03 A3003 RMK AO2
     SLP170 T10281028 FZRANO=
