SAUS70 KWBC 231720 RRB
METAR
KPSO 231715Z AUTO 24015G25KT 10SM -RA SCT013 BKN023 OVC070 05/03
     A2968 RMK AO2 T00460032=
KRAS 231715Z AUTO 16016G20KT 10SM SCT060 A2994 RMK AO2=
KRPJ 231715Z AUTO 16020G24KT 10SM CLR 23/15 A2986 RMK AO2
     T02250147 TSNO=
KRSV 231715Z AUTO 19021G25KT 10SM SCT110 25/11 A3001 RMK AO2
     T02490109=
KRVJ 231715Z AUTO 03004KT 10SM CLR 25/12 A3017 RMK AO2
     T02510123=
KRWV 231715Z AUTO 16014G19KT 10SM SCT034 BKN040 OVC050 27/18 A2993
     RMK AO2 T02750181=
KRYW 231715Z AUTO 19012KT 10SM SCT033 BKN041 25/17 A2992 RMK AO2
     T02530170=
KS33 231715Z AUTO 00000KT 10SM CLR 06/00 A3011 RMK AO2=
KSAA 231715Z AUTO 28011G17KT 10SM BKN032 OVC049 00/M02 A2955 RMK
     AO2=
KSTE 231715Z AUTO 14010G17KT 10SM CLR 21/10 A2982 RMK AO2
     T02110100=
KSTK 231715Z AUTO 31013G18KT 10SM CLR 21/00 A2924 RMK AO2=
KSXK 231715Z AUTO 17023G34KT 10SM CLR 24/13 A2935 RMK AO2=
KT74 231715Z AUTO 17015G27KT 10SM SCT044 SCT050 27/18 A2990 RMK
     AO2 T02740176=
KT82 231715Z AUTO 19016G23KT 10SM BKN032 25/16 A2990 RMK AO2
     T02490156=
KTEX 231715Z AUTO 28008G15KT 2 1/2SM -SN SCT031 BKN038 OVC055
     00/M02 A2968 RMK AO2=
KTTA 231715Z AUTO 03008KT 10SM CLR 19/05 A3018 RMK AO2
     T01850054=
KTYL 231715Z AUTO 25017G26KT 10SM BKN022 BKN028 OVC042 10/08 A2983
     RMK AO2=
KTYQ 231715Z AUTO 18015G22KT 10SM CLR 23/12 A3006 RMK AO2
     T02330117=
KVHN 231715Z AUTO 21014G22KT 10SM CLR 26/08 A2988 RMK AO2
     T02600080=
KVTP 231715Z AUTO 24024G38KT 5SM HZ SCT013 SCT018 OVC026 M09/M13
     A2958 RMK AO2=
KVVS 231715Z AUTO 04005KT 10SM CLR 21/03 A3023 RMK AO2
     T02120027=
KVYS 231715Z AUTO 17018G24KT 10SM CLR 24/13 A2985 RMK AO2
     T02370133=
KZPH 231715Z AUTO 02007KT 10SM SCT047 28/15 A3013 RMK A02
     T02770149=
K04W 231715Z AUTO 10012G15KT 10SM CLR 21/12 A2963 RMK AO2=
K3N8 231715Z AUTO 13012G18KT 10SM CLR 19/10 A2950 RMK AO2
     T01880097=
K6B0 231715Z AUTO 00000KT 10SM CLR 18/07 A3032 RMK AO2
     T01810065=
KACB 231715Z AUTO 16009G19KT 10SM CLR 24/11 A3000 RMK AO2
     T02350114=
KBVI 231715Z AUTO 13004KT 10SM CLR 22/02 A3023 RMK AO2
     T02230024=
KCAD 231715Z AUTO 15011G15KT 10SM CLR 22/11 A3001 RMK AO2
     T02150109=
KCDI 231715Z AUTO 04005KT 10SM CLR 21/10 A3021 RMK AO2
     T02120099=
KCNB 231715Z AUTO 10019G25KT 10SM CLR 22/12 A2940 RMK AO2
     T02160116=
KCVX 231715Z AUTO 15011G16KT 10SM CLR 23/12 A3000 RMK AO2
     T02280118=
KDYT 231715Z AUTO 06011KT 10SM OVC080 12/10 A2969 RMK AO2=
KFFX 231715Z AUTO 16010G15KT 140V210 10SM BKN050 BKN070 23/11
     A3000 RMK AO2 T02310110=
KFKA 231715Z AUTO 15019G24KT 7SM CLR 21/13 A2966 RMK AO2
     T02110125=
KFPK 231715Z AUTO 16015G23KT 10SM SCT055 23/10 A3005 RMK AO2
     T02270103=
KHZL 231715Z AUTO 08003KT 10SM OVC032 16/08 A3031 RMK AO2=
KI23 231715Z AUTO 18005KT 10SM CLR 22/09 A3017 RMK AO1=
KIRS 231715Z AUTO 18015G18KT 10SM CLR 23/10 A3005 RMK AO2
     T02260099=
KJYM 231715Z AUTO 18013G19KT 10SM CLR 22/09 A3010 RMK AO2
     T02200091=
KMCD 231715Z AUTO 16007G14KT 120V190 10SM CLR 20/12 A3003 RMK AO2
     T02010115=
KMOX 231715Z AUTO 13023G27KT 10SM CLR 21/09 A2943 RMK AO2=
KMWM 231715Z AUTO 14021G30KT 10SM CLR 21/12 A2945 RMK AO2=
KONZ 231715Z AUTO 19004KT 10SM SCT100 16/06 A3015 RMK AO2
     T01630062=
KOXD 231715Z AUTO 17011G15KT 10SM CLR 25/08 A3014 RMK AO2
     T02530076=
KRMY 231715Z AUTO 17011G17KT 10SM SCT055 22/11 A3007 RMK AO2
     T02210107=
KULM 231715Z AUTO 15020G24KT 10SM CLR 22/11 A2949 RMK AO2=
KVLL 231715Z AUTO 18006KT 150V220 10SM CLR 23/10 A3015 RMK AO2
     T02250103=
