SAUS70 KWBC 231738
METAR
KMQJ 231735Z AUTO RMK AO1=
KMVE 231735Z AUTO 14022G27KT 10SM CLR 22/13 A2940 RMK AO2=
KOVL 231735Z AUTO 13020G28KT 7SM CLR 22/12 A2945 RMK AO2=
KOZW 231735Z AUTO 14006KT 10SM CLR 21/12 A3010 RMK AO2
     T02060119=
KPWC 231735Z AUTO 12009G17KT 10SM CLR 19/11 A2960 RMK AO2=
KRGK 231735Z AUTO 13012G16KT 10SM CLR 22/12 A2960 RMK AO2=
KROX 231735Z AUTO 07015KT 10SM CLR 14/08 A2959 RMK AO2=
KRZT 231735Z AUTO 16004KT 10SM CLR 23/07 A3017 RMK AO2 PWINO=
KSAZ 231735Z AUTO 14010G14KT 103V163 10SM CLR 22/11 A2952 RMK
     AO2=
KSGS 231735Z AUTO 14014G19KT 10SM CLR 22/12 A2959 RMK AO2
     T02210115=
KSLH 231735Z AUTO 16009G14KT 10SM CLR 23/12 A3002 RMK AO2=
KSYM 231735Z AUTO VRB03KT 10SM CLR 23/06 A3019 RMK AO2=
KTEW 231735Z AUTO 15012KT 10SM CLR 24/11 A3008 RMK AO2
     T02400105=
KTWM 231735Z AUTO 08009KT 10SM BKN090 18/10 A2970 RMK AO2=
KUKT 231735Z AUTO 02005KT 10SM CLR 16/10 A3026 RMK A01=
KVVV 231735Z 14021G27KT 10SM 21/13 A2937 RMK AO2=
KY63 231735Z AUTO 13016G23KT 10SM CLR 21/12 A2943 RMK AO2
     T02050117=
K14Y 231735Z AUTO 13010G15KT 10SM CLR 20/11 A2952 RMK AO2=
K21D 231735Z AUTO 15015G20KT 10SM CLR 22/12 A2961 RMK AO2=
KACQ 231735Z AUTO 13020G27KT 10SM CLR 22/12 A2957 RMK AO2=
KAIT 231735Z AUTO 14011G15KT 10SM BKN065 21/11 A2959 RMK AO2=
KAMN 231735Z AUTO 15013G19KT 10SM BKN060 23/09 A3006 RMK AO2
     T02340088=
KAUM 231735Z AUTO 14016G22KT 10SM CLR 22/13 A2959 RMK AO2=
KAXV 231735Z AUTO 18011G17KT 10SM CLR 23/10 A3012 RMK AO2=
KBDH 231735Z AUTO 13019G27KT 10SM CLR 23/12 A2949 RMK AO2=
KCBG 231735Z AUTO 11010G18KT 10SM CLR 23/12 A2959 RMK AO2=
KCFE 231735Z AUTO 14013G20KT 10SM CLR 23/12 A2954 RMK AO2=
KCOQ 231735Z AUTO 10011KT 10SM SCT070 16/09 A2966 RMK AO2 TSNO=
KCVH 231735Z AUTO 00000KT 10SM CLR 13/06 A3002 RMK A01=
KDLZ 231735Z AUTO 17006KT 10SM CLR 20/10 A3017 RMK AO2=
KDRM 231735Z AUTO 13007KT 10SM CLR 19/11 A3006 RMK AO2
     T01850107=
KDXX 231735Z AUTO 13021G29KT 10SM CLR 23/12 A2939 RMK AO2=
KDYT 231735Z AUTO 06011KT 10SM OVC075 12/10 A2969 RMK AO2=
KELO 231735Z AUTO 12013KT 10SM CLR 19/09 A2970 RMK AO2=
KFBL 231735Z AUTO 12019G25KT 10SM CLR 23/13 A2957 RMK AO2=
KFFM 231735Z AUTO 12017KT 10SM CLR 21/12 A2942 RMK AO2=
KFGN 231735Z AUTO 08009KT 10SM CLR 12/06 A2964 RMK AO2=
KFSE 231735Z AUTO 13012KT 10SM CLR 21/09 A2951 RMK AO2=
KFSO 231735Z AUTO 24004KT 10SM CLR 20/06 A3031 RMK AO2
     T01960055=
KGHW 231735Z AUTO 12019G25KT 10SM CLR 22/12 A2947 RMK AO2=
KGYL 231735Z AUTO 13016G24KT 7SM CLR 22/12 A2952 RMK AO2
     T02210121=
KHAF 231735Z AUTO 33013KT 7SM 15/09 A3002 RMK AO2=
KHCO 231735Z AUTO 06013G18KT 10SM CLR 15/08 A2953 RMK AO2=
KI69 231735Z AUTO 21006G09KT 10SM CLR 24/09 A3016 RMK AO2
     T02350092=
KJKJ 231735Z AUTO 11010G16KT 10SM CLR 22/11 A2943 RMK AO2 TSNO=
KJMR 231735Z AUTO 12009G15KT 10SM CLR 22/12 A2964 RMK AO2=
KLDM 231735Z AUTO 18013G17KT 10SM CLR 23/11 A2995 RMK AO2
     T02310109=
KLJF 231735Z AUTO 13019G24KT 10SM CLR 22/11 A2950 RMK AO2=
KMGG 231735Z AUTO 12009G16KT 10SM CLR 22/11 A2955 RMK AO2
     T02190112 PWINO=
KMGN 231735Z AUTO 19006G16KT 10SM SCT050 22/11 A3001 RMK AO2
     T02300115=
K04W 231735Z AUTO 12007KT 10SM CLR 22/12 A2962 RMK AO2=
K06D 231735Z AUTO 06022KT 10SM OVC008 07/06 A2954 RMK AO2=
K0S9 231735Z AUTO 11005KT 10SM CLR 10/07 A3010 RMK AO2=
K0VG 231735Z AUTO 00000KT 10SM CLR 22/04 A3022 RMK AO2=
K15M 231735Z AUTO 19008KT 10SM CLR 23/08 A3014 RMK AO2 T02310079
     $=
K1P1 231735Z AUTO 00000KT 10SM CLR 17/06 A3034 RMK AO2
     T01660056=
K1R7 231735Z AUTO 17009KT 10SM FEW044 FEW050 25/18 A3012 RMK AO2
     PWINO=
