SAUS70 KWBC 231700 RRK
METAR
PAKT 231653Z 14029G41KT 4SM RA BR SCT028 OVC035 06/03 A2953 RMK
     AO2 PK WND 13045/1643 PRESFR SLP002 HARBOR WIND 12025G40KT
     ROOF WIND 11032G48KT P0010 T00560033=
PAKV 231653Z AUTO 00000KT 10SM BKN012 OVC080 M04/M05 A3003 RMK AO2
     SLP172 T10441050 TSNO=
PALH 231653Z 03003KT 10SM CLR M02/M06 A2988 RMK AO2 SLP120
     T10221056=
PAMR 231653Z 00000KT 10SM CLR M05/M07 A2987 RMK AO2 SLP118
     T10501072=
PAPB 231653Z AUTO 19025G34KT 5SM -RA BKN007 OVC015 06/ A2987 RMK
     AO2 PK WND 19035/1632 RAB1557 CIG 006V011 SLP103 P0007 T0061
     TSNO $=
PASC 231653Z 09017KT 10SM BKN005 OVC011 M07/M08 A3001 RMK AO2
     SLP166 I1000 T10671078 $=
PASO 231653Z AUTO 00000KT 10SM CLR M02/M02 A2989 RMK AO2 SLP123
     T10171017 TSNO=
KBPK 231653Z AUTO 21011G19KT 10SM SCT032 SCT100 25/15 A2989 RMK
     AO2 SLP111 T02500150=
KBRD 231653Z AUTO 14009G18KT 10SM SCT060 20/11 A2959 RMK AO2
     SLP020 T02000106=
KBRO 231653Z 18020G31KT 10SM FEW036 31/21 A2988 RMK AO2 PK WND
     15034/1638 SLP118 T03110206=
KBWG 231653Z AUTO 19015KT 10SM CLR 24/07 A3014 RMK AO2 SLP203
     T02440072=
KCCR 231653Z VRB03KT 10SM CLR 14/03 A3001 RMK AO2 SLP149
     T01440033=
KCFE 231655Z AUTO 14019G25KT 10SM CLR 21/12 A2956 RMK AO2=
KCKB 231653Z 00000KT 10SM CLR 21/04 A3024 RMK AO2 SLP231
     T02110039=
KCKI 231655Z AUTO 01005KT 10SM CLR 21/05 A3017 RMK AO2=
KCLM 231653Z AUTO 24003KT 10SM CLR 09/04 A3010 RMK AO2 SLP195
     T00940039=
KD25 231655Z AUTO 14011G19KT 10SM BKN100 18/12 A2981 RMK AO2
     T01820118=
KDCU 231653Z AUTO 18008KT 10SM CLR 22/08 A3019 RMK AO2 SLP219
     T02220078=
KDET 231653Z 19009KT 8SM CLR 24/10 A3014 RMK AO2 SLP205
     T02390100=
KDEW 231653Z AUTO 16003KT 10SM FEW055 06/02 A2999 RMK AO2 SLP166
     T00560022=
KDFI 231653Z AUTO 18011G20KT 10SM CLR 23/11 A3011 RMK AO2 SLP194
     T02280111=
KDKK 231653Z AUTO 35005KT 10SM CLR 21/05 A3023 RMK AO2 SLP234
     T02060050=
KDLS 231653Z AUTO 31007KT 10SM CLR 12/04 A3009 RMK AO2 SLP190
     T01220044=
KDNL 231653Z AUTO 35005KT 10SM CLR 23/09 A3020 RMK AO2 SLP223
     T02280094=
KDTW 231653Z 17005KT 10SM FEW080 BKN220 23/11 A3015 RMK AO2 SLP207
     T02280106 $=
KEDE 231655Z AUTO 34011KT 7SM -RA OVC006 16/16 A3012 RMK AO2
     T01600160=
KEET 231653Z AUTO 16004KT 10SM CLR 22/07 A3020 RMK AO2 SLP224
     T02220067=
KELN 231653Z AUTO 31013KT 10SM CLR 08/00 A3003 RMK AO2 SLP176
     T00830000 $=
KEPH 231653Z AUTO 33011KT 10SM 10/M03 A3000 RMK AO2 SLP166
     T01001033 $=
KEQY 231653Z AUTO 34006KT 10SM CLR 21/06 A3020 RMK AO2 SLP233
     T02110061=
KESF 231653Z AUTO 15013G20KT 10SM CLR 28/16 A3004 RMK AO2 SLP170
     T02780161=
KFBL 231655Z AUTO 13017G25KT 10SM CLR 22/12 A2959 RMK AO2=
KFCM 231653Z 14017KT 10SM CLR 22/12 A2957 RMK AO2 SLP011 T02220117
     $=
KFDY 231653Z AUTO 15011KT 10SM CLR 24/12 A3014 RMK AO2 SLP199
     T02440117=
KFFC 231653Z AUTO VRB04KT 10SM CLR 22/04 A3023 RMK AO2 SLP236
     T02170039=
KFHR 231653Z AUTO 00000KT 9SM SCT003 SCT014 OVC023 09/08 A3011 RMK
     AO2 SLP196 T00890083=
KFSE 231655Z AUTO 12006KT 10SM CLR 19/09 A2952 RMK AO2=
KFSM 231653Z 18011G25KT 10SM CLR 27/17 A2987 RMK AO2 SLP108
     T02720167=
K10G 231655Z AUTO 00000KT 10SM CLR 21/07 A3022 RMK AO2=
K1P1 231655Z AUTO 00000KT 10SM CLR 15/06 A3037 RMK AO2
     T01480058=
K20U 231655Z AUTO 04012KT 9SM OVC010 06/05 A2942 RMK AO2=
K27K 231655Z AUTO 20007G15KT 10SM CLR 22/07 A3018 RMK AO1=
K35A 231655Z AUTO 12004KT 10SM CLR 21/09 A3025 RMK A02
     T02060091=
K3D2 231655Z AUTO 17010G21KT 10SM CLR 16/11 A2993 RMK AO2
     T01600105=
