SACA41 KWBC 231900 RRA
METAR
TDCF 231900Z 20001KT 9999 SCT017 SCT036 30/25 Q1010=
