SAUS80 KWBC 232100 CCB
METAR
KP28 232056Z AUTO 19026G47KT 28/12 A2946 RMK AO1 PK WND 20047/2048
     SLP959 T02830122 55004 $=
KP58 232055Z AUTO 14010KT 18/12 A3008 RMK AO1 SLP182 T01830122
     56008=
KMEH 232056Z AUTO VRB03KT 10SM FEW024 SCT030 BKN048 04/00 A3007
     RMK AO2 SLP200 T00390000 53015=
