SAUS70 KWBC 231738 RRD
METAR
KPLR 231735Z AUTO 00000KT 10SM CLR 23/06 A3020 RMK A01=
KPNM 231735Z AUTO 12012G19KT 10SM CLR 23/13 A2958 RMK AO2 TSNO=
KPVF 231735Z AUTO 00000KT 10SM CLR 12/M05 A2997 RMK AO1=
KRCE 231735Z AUTO 18026G36KT 10SM CLR 25/16 A2968 RMK AO2=
KRMN 231735Z AUTO 33007KT 10SM BKN028 OVC036 17/13 A3024 RMK AO2
     T01720128=
KRMY 231735Z AUTO 17010G16KT 10SM SCT055 23/11 A3006 RMK AO2
     T02270108=
KRNP 231735Z AUTO 16008KT 10SM CLR 22/10 A3008 RMK AO2
     T02210098=
KRPH 231735Z AUTO 16010G24KT 130V190 9SM CLR 28/15 A2975 RMK AO2
     T02790154 $=
KRQB 231735Z AUTO 16014G19KT 10SM SCT055 SCT070 22/11 A3001 RMK
     AO2 T02210114=
KRUG 231735Z AUTO 06025KT 10SM OVC013 09/06 A2946 RMK AO2=
KRVL 231735Z AUTO 00000KT 9SM OVC025 16/06 A3027 RMK AO2=
KRYV 231735Z AUTO 16010KT 10SM CLR 22/11 A2984 RMK AO2
     T02200113=
KRZN 231735Z AUTO 14013G16KT 10SM CLR 21/11 A2965 RMK AO2
     T02090111=
KS25 231735Z AUTO 06014KT 10SM OVC011 07/07 A2946 RMK AO2=
KS32 231735Z AUTO 08016G22KT 10SM CLR 15/06 A2944 RMK AO2 TSNO=
KSCR 231735Z AUTO 01008G14KT 10SM CLR 20/06 A3019 RMK AO2
     T02020062=
KSIK 231735Z AUTO 20012G19KT 10SM BKN038 25/15 A3000 RMK AO2=
KSJX 231735Z AUTO 15009G14KT 10SM CLR 22/12 A2999 RMK AO2
     T02170115=
KSPF 231735Z AUTO 30017G22KT 10SM SCT020 08/03 A2935 RMK AO2=
KSTF 231735Z AUTO 14010KT 10SM CLR 24/13 A3012 RMK AO2=
KSUZ 231735Z AUTO 19010G17KT 10SM BKN038 OVC045 25/16 A2997 RMK
     A01=
KT69 231735Z AUTO 17012G21KT 10SM FEW030 FEW036 SCT042 28/21 A2989
     RMK A01=
KTKX 231735Z AUTO 19015G24KT 9SM BKN050 27/15 A2999 RMK AO2
     TSNO=
KTME 231735Z AUTO 17014G23KT 10SM SCT060 30/16 A2995 RMK AO2=
KTOB 231735Z AUTO 13022G29KT 10SM CLR 22/12 A2960 RMK AO2=
KJZI 231735Z AUTO 01011KT 10SM CLR 24/11 A3015 RMK AO2=
KKY8 231735Z AUTO 16012G19KT 10SM CLR 25/13 A3007 RMK A01=
KL08 231735Z AUTO VRB04KT 10SM CLR 21/01 A2980 RMK AO2=
KL35 231735Z AUTO 25005KT 10SM CLR 06/M06 A2993 RMK AO2=
KL52 231735Z AUTO 32006KT 7SM CLR 18/06 A2993 RMK A01=
KLBO 231735Z AUTO 16015G24KT 10SM SCT120 25/12 A2981 RMK AO2=
KLKR 231735Z AUTO VRB04KT 10SM CLR 22/06 A3019 RMK AO2=
KLKU 231735Z AUTO 01008G15KT 340V050 10SM OVC022 16/09 A3022 RMK
     AO2 T01630092=
KLRO 231735Z AUTO VRB06G11KT 9SM CLR 23/11 A3014 RMK AO2=
KLRU 231735Z AUTO 24021G28KT 10SM SCT055 SCT085 23/07 A2984 RMK
     AO2 T02250068=
KLRY 231735Z AUTO 21021G25KT 10SM CLR 28/13 A2968 RMK AO2=
KLVL 231735Z AUTO 34005KT 10SM OVC020 18/12 A3019 RMK AO1
     T01830117=
KLWA 231735Z AUTO 14010G20KT 110V170 10SM CLR 24/12 A2997 RMK AO2
     T02390121=
KLXL 231735Z AUTO 13011G17KT 10SM CLR 22/12 A2954 RMK AO2=
KM40 231735Z AUTO 12.45833312G18KT 10SM CLR 25/09 A3015 RMK
     AO2=
KMAN 231735Z AUTO 34013KT 10SM FEW001 08/00 A2999 RMK A01=
KMAO 231735Z AUTO 35010KT 340V060 10SM CLR 21/00 A3015 RMK AO2=
KMBO 231735Z AUTO VRB06G12KT 8SM CLR 26/15 A3010 RMK AO2=
KMBY 231735Z AUTO 17013G25KT 10SM CLR 26/12 A2972 RMK AO2 LTG DSNT
     SE=
KMCD 231735Z AUTO 15008G15KT 10SM CLR 20/11 A3003 RMK AO2
     T02040113=
KMDS 231735Z AUTO 14023G32KT 10SM CLR 21/13 A2931 RMK AO2=
KMEZ 231735Z AUTO VRB03KT 10SM BKN023 BKN029 23/17 A2993 RMK AO2
     CIG 021V028 BKN029 V OVC T02280168 $=
KMKJ 231735Z AUTO 00000KT 10SM CLR 22/02 A3025 RMK AO2
     T02210022=
KMNI 231735Z AUTO 03003KT 10SM CLR 22/08 A3016 RMK AO2=
KMOX 231735Z AUTO 13023G32KT 10SM CLR 22/09 A2942 RMK AO2=
KMTV 231735Z AUTO 07009KT 4SM HZ CLR 20/02 A3023 RMK AO2
     T02010019=
KMWM 231735Z AUTO 13022G29KT 10SM CLR 22/12 A2944 RMK AO2=
KMZH 231735Z AUTO 13007KT 102V172 10SM BKN070 22/11 A2964 RMK
     AO2=
