SAUS70 KWBC 231836 RRA
METAR
KEDE 231835Z AUTO 34011G15KT 10SM OVC006 17/16 A3010 RMK AO2
     T01660164=
KEYF 231835Z AUTO 01006KT 10SM CLR 23/04 A3012 RMK AO2
     T02270035=
KEZM 231835Z AUTO 10004KT 10SM CLR 25/09 A3015 RMK AO2=
KGGE 231835Z AUTO 36009KT 10SM CLR 23/07 A3013 RMK AO2=
KHAE 231835Z AUTO 15010G21KT 123V183 10SM CLR 26/13 A2973 RMK
     AO2=
KHBI 231835Z AUTO 02007KT 10SM CLR 20/04 A3021 RMK AO2
     T02030039=
KHRJ 231835Z AUTO 36009KT 7SM CLR 21/03 A3015 RMK AO2
     T02080033=
KHSP 231835Z AUTO 05004KT 5SM HZ CLR 16/00 A3028 RMK AO2
     T01581003=
KHWY 231835Z AUTO 36007KT 10SM OVC042 19/11 A3025 RMK AO2
     T01900106=
KINF 231835Z AUTO 00000KT 7SM CLR 27/15 A3010 RMK AO2=
KJFX 231835Z AUTO 00000KT 10SM CLR 25/08 A3014 RMK AO2=
KJSO 231835Z AUTO 19011G20KT 10SM SCT050 27/15 A2994 RMK AO2
     T02740147 TSNO=
K10G 231835Z AUTO 14010KT 10SM CLR 23/05 A3018 RMK AO2=
K08D 231835Z AUTO 06016G22KT 10SM OVC010 07/06 A2946 RMK AO2=
K4R5 231835Z AUTO 09004KT 10SM BKN110 20/12 A2969 RMK AO2
     T02040121=
KARV 231835Z AUTO 16012G23KT 10SM SCT039 21/12 A2978 RMK AO2
     T02130119=
KD50 231835Z AUTO 06018G26KT 10SM OVC014 05/03 A2955 RMK AO2=
KDVP 231833Z AUTO 14025G30KT 10SM CLR 23/12 A2938 RMK AO2
     T02270121=
KETB 231835Z AUTO 14011KT 10SM SCT080 20/12 A2985 RMK AO2=
KFOZ 231833Z AUTO 11009G15KT 10SM CLR 23/11 A2965 RMK AO2=
KFRH 231835Z AUTO 19008G15KT 161V241 10SM CLR 25/07 A3004 RMK
     AO1=
KHFY 231835Z AUTO 18013G17KT 10SM SCT050 26/13 A3005 RMK AO2
     T02600125=
KIUA 231835Z AUTO 14007KT 10SM CLR 20/05 A3023 RMK AO2
     T02000049=
KLDJ 231835Z AUTO 09008G14KT 030V110 10SM BKN110 17/08 A3025 RMK
     AO2 T01680082=
KLUM 231835Z AUTO 12018G24KT 10SM CLR 24/17 A2963 RMK AO2
     T02430172 PWINO=
KMDZ 231835Z AUTO 15010G19KT 10SM CLR 21/13 A2974 RMK AO2
     T02120125 PWINO=
KMRJ 231835Z AUTO 15017G23KT 10SM CLR 22/10 A2975 RMK AO2=
KOIC 231835Z AUTO 18004KT 10SM CLR 17/08 A3031 RMK AO2
     T01700081=
KOWA 231833Z AUTO 14021G27KT 10SM CLR 23/13 A2953 RMK AO2=
KPBH 231835Z AUTO 14015G21KT 10SM CLR 22/13 A2973 RMK AO2
     T02150125=
KRRL 231835Z AUTO 16011G18KT 10SM SCT038 22/13 A2977 RMK AO2
     T02200127 TSNO=
KVNW 231835Z AUTO 20014G20KT 10SM CLR 25/08 A3009 RMK AO2=
KXVG 231833Z AUTO 10009G14KT 084V144 10SM SCT065 21/11 A2955 RMK
     AO2=
KY51 231835Z AUTO 14018G24KT 10SM CLR 22/15 A2970 RMK AO1
     T02230145=
