SAUS70 KWBC 232054
METAR
KJVY 232035Z AUTO 18010KT 10SM CLR 25/08 A3005 RMK AO2 PWINO=
K6S8 232040Z AUTO 30013G18KT 9SM 04/02 A2968 RMK A01 LAUREL=
KTFP 232015Z AUTO 17022G26KT 10SM SCT021 30/22 A2981 RMK AO2
     T02950222=
