SAUS70 KWBC 231638 RRK
METAR
KRZN 231635Z AUTO 14012KT 10SM CLR 20/11 A2968 RMK AO2
     T01970106=
KS25 231635Z AUTO 06017KT 10SM OVC009 06/06 A2947 RMK AO2=
KSPF 231635Z AUTO 29020G25KT 10SM CLR 08/02 A2934 RMK AO2=
KULM 231635Z AUTO 14017G24KT 10SM CLR 21/11 A2951 RMK AO2=
KY19 231635Z AUTO 08014KT 10SM CLR 09/05 A2936 RMK AO2=
K04W 231635Z AUTO 13009KT 10SM CLR 21/12 A2965 RMK AO2=
K7L2 231635Z AUTO 09012KT 10SM CLR 14/07 A2934 RMK AO2=
KBAC 231635Z AUTO 09010KT 9SM CLR 13/08 A2944 RMK AO2=
KBWW 231635Z AUTO 05015KT 10SM OVC010 07/05 A2935 RMK AO2=
KCAD 231635Z AUTO 13010KT 10SM CLR 21/11 A3003 RMK AO2
     T02080109=
KCDI 231635Z AUTO 00000KT 10SM CLR 20/09 A3022 RMK AO2
     T01960089=
KD57 231635Z AUTO 07016KT 10SM CLR 08/03 A2935 RMK AO2=
KD60 231635Z AUTO 07016KT 10SM OVC008 04/04 A2952 RMK AO2=
KDTL 231635Z AUTO 13016KT 10SM CLR 17/09 A2950 RMK AO2=
KDUH 231635Z AUTO 14006KT 10SM CLR 23/09 A3014 RMK AO2
     T02250091=
KFGN 231635Z AUTO 09007KT 10SM CLR 11/06 A2965 RMK AO2=
KFPK 231635Z AUTO 17011G14KT 10SM CLR 21/11 A3007 RMK AO2
     T02140112=
KHZE 231635Z AUTO 07018G25KT 10SM CLR 09/05 A2940 RMK AO2=
KI23 231635Z AUTO 20008KT 10SM CLR 22/09 A3019 RMK AO1=
KIDI 231635Z AUTO 12005KT 10SM CLR 18/04 A3029 RMK A01=
KLWA 231635Z AUTO 15007KT 10SM SCT055 SCT075 22/12 A3000 RMK AO2
     T02180116=
KMCD 231635Z AUTO 15008KT 120V180 10SM CLR 19/12 A3005 RMK AO2
     T01910115=
KN38 231635Z AUTO 15007KT 10SM CLR 15/04 A3029 RMK AO2=
KPNM 231635Z AUTO 13011G16KT 10SM CLR 21/12 A2960 RMK AO2 TSNO=
KRNP 231635Z AUTO 16009G14KT 10SM CLR 23/10 A3010 RMK AO2
     T02290098=
KRUG 231635Z AUTO 08021G31KT 10SM BKN009 OVC013 07/06 A2950 RMK
     AO2=
KS32 231635Z AUTO 07017KT 10SM CLR 13/05 A2946 RMK AO2 TSNO=
KSJX 231635Z AUTO 16010G17KT 10SM CLR 21/12 A3002 RMK AO2
     T02060116=
KTOB 231635Z AUTO 14020G27KT 10SM CLR 21/12 A2963 RMK AO2=
KVGC 231635Z AUTO 15005KT 10SM CLR 15/05 A3032 RMK AO2=
KY70 231635Z AUTO 16012G17KT 10SM CLR 21/10 A3006 RMK AO2
     T02110099=
