SAUS70 KWBC 232100
METAR
KW13 232055Z AUTO 10SM OVC030 17/06 A3022 RMK AO1 T01710060=
KCNW 232055Z 17018G25KT 10SM BKN055 30/14 A2979=
KDLL 232055Z AUTO 16019G29KT 10SM CLR 22/12 A2972 RMK AO2
     T02210120=
KGAF 232055Z AUTO 05014G19KT 8SM CLR 20/09 A2940 RMK AO2=
KGPH 232055Z AUTO 20014G21KT 160V220 10SM -TSRA SCT120 27/12 A2957
     RMK AO2 LTG DSNT N AND NW=
KGYY 232045Z 17017G28KT 10SM CLR 25/12 A2987=
KW63 232055Z AUTO 00000KT 10SM CLR 20/11 A3014 RMK AO1=
