SAUS70 KWBC 231720 RRE
METAR
KU42 231715Z AUTO 33015G20KT 10SM SCT045 BKN055 BKN085 04/02 A2977
     RMK AO1 T00360024=
K2G2 231715Z AUTO 00000KT 10SM CLR 21/04 A3022 RMK A01=
KBNW 231715Z AUTO 15023G28KT 10SM CLR 23/14 A2955 RMK AO2=
KCCY 231715Z AUTO 15023G29KT 10SM CLR 22/13 A2962 RMK AO2=
KGGI 231715Z AUTO 15022G27KT 10SM CLR 24/14 A2964 RMK AO2
     T02430144=
KGRN 231715Z AUTO 32013KT 10SM CLR 10/01 A2924 RMK AO2
     T01040007=
KHHV 231715Z AUTO 16011G20KT 10SM CLR 26/17 A2996 RMK A01=
KHYX 231715Z AUTO 18014G19KT 10SM CLR 23/11 A3009 RMK AO2
     T02320109=
KHZX 231715Z AUTO 12011G14KT 10SM BKN075 20/11 A2963 RMK AO2=
KI67 231715Z AUTO 18010G15KT 10SM CLR 23/10 A3013 RMK AO1=
KIGQ 231715Z AUTO 17019G25KT 10SM CLR 24/13 A2994 RMK AO2
     T02360133=
KIMS 231715Z AUTO 20011G16KT 10SM CLR 23/10 A3015 RMK AO2=
KJYG 231716Z AUTO 15020G26KT 10SM CLR 22/12 A2947 RMK AO2=
KMJQ 231715Z AUTO 15018G24KT 10SM CLR 22/11 A2947 RMK AO2=
KMOP 231715Z AUTO 18012G16KT 10SM SCT055 23/11 A3005 RMK AO2
     T02250107=
KMUT 231715Z AUTO 16016G26KT 10SM CLR 24/14 A2974 RMK AO2=
KOLG 231715Z AUTO 13007KT 100V170 10SM SCT070 21/10 A2969 RMK
     AO1=
KONA 231715Z AUTO 12011G16KT 10SM CLR 22/12 A2967 RMK AO2=
KOXI 231715Z AUTO 19016G23KT 10SM SCT075 24/12 A2999 RMK AO1=
KPEX 231715Z AUTO 13014G17KT 10SM CLR 20/12 A2952 RMK AO2=
KPMH 231715Z AUTO 00000KT 10SM CLR 25/07 A3019 RMK AO2
     T02450066=
KPTD 231715Z AUTO 00000KT 10SM CLR 21/03 A3028 RMK AO2=
KPVB 231715Z AUTO 15017KT 10SM CLR 22/12 A2978 RMK AO1
     T02170119=
KRNH 231715Z AUTO 15011G18KT 10SM CLR 22/16 A2964 RMK AO2
     T02180158=
KXLL 231715Z AUTO 05006KT 10SM BKN095 15/08 A3028 RMK AO2=
K0F2 231715Z AUTO 16021G27KT 10SM CLR 27/16 A2978 RMK AO2
     T02650161=
KARM 231715Z AUTO 15015G22KT 10SM SCT045 BKN050 OVC060 28/16 A2996
     RMK AO2 T02840163 TSNO=
KATA 231715Z AUTO 19010G16KT 140V220 10SM BKN039 27/18 A2994 RMK
     AO2 SLP037 T02650180 $=
KAXH 231715Z AUTO 21007KT 180V240 10SM SCT060 30/14 A2998 RMK AO2
     T03020142=
KAZC 231715Z AUTO 28017G23KT 10SM CLR 07/00 A2985 RMK AO2=
KBQX 231715Z AUTO 16021KT 9SM 27/17 A2997 RMK A01=
KC83 231715Z AUTO 32013G22KT 10SM CLR 17/00 A2999 RMK AO2=
KCWC 231715Z AUTO 18018G27KT 10SM CLR 27/15 A2974 RMK AO2
     T02710152=
KGOO 231715Z AUTO VRB05KT 10SM CLR 10/M06 A2996 RMK A01=
KGYB 231715Z AUTO 17012G22KT 10SM SCT031 SCT037 BKN050 27/18 A2993
     RMK AO2 T02690182=
KHHF 231715Z AUTO 21018G23KT 10SM CLR 27/12 A2961 RMK AO2
     T02720117=
KHHV 231715Z AUTO 16011G20KT 10SM CLR 26/17 A2996 RMK A01=
KHRX 231715Z AUTO 22014KT 10SM CLR 23/11 A2970 RMK AO2
     T02300110=
KMHV 231720Z AUTO 26013G18KT 10SM CLR 13/M01 A2990 RMK A01=
KOAR 231715Z AUTO 00000KT 10SM CLR M06/M16 A3000 RMK AO2=
KPKV 231715Z AUTO 16016G24KT 10SM SCT036 SCT046 BKN065 29/20 A2994
     RMK AO2 T02920198=
KSXU 231715Z AUTO 22025G36KT 10SM CLR 23/03 A2966 RMK AO2
     T02270030=
KU68 231715Z AUTO 31024G30KT 10SM OVC048 03/00 A2960 RMK AO2=
KVCV 231715Z AUTO 25013KT 9SM CLR 13/M02 A2993 RMK AO2=
K1V6 231715Z AUTO 24016G23KT 10SM SCT085 SCT110 20/00 A2942 RMK
     AO2=
K82V 231715Z AUTO 34022KT 10SM SCT120 15/M01 A2931 RMK AO2=
KAEJ 231715Z AUTO 30008KT 7SM -RA 04/02 A2953 RMK AO2
     T00430015=
KDSF 231715Z AUTO 08006KT 10SM CLR 25/13 A3012 RMK A01=
KECS 231715Z AUTO 32026G33KT 10SM SCT100 06/01 A2937 RMK AO2=
KEKS 231715Z AUTO 36007KT 3SM -SN FEW004 SCT033 BKN042 M01/M02
     A2979 RMK AO2=
KERV 231715Z AUTO 17016G25KT 10SM BKN031 BKN038 25/17 A2990 RMK
     AO2 T02450166=
KF17 231715Z AUTO 17015G24KT 10SM BKN050 29/13 A2999 RMK AO2=
