SAKA31 PTRO 232000
METAR PTRO 231950Z 25007KT 12SM BKN014CB BKN110 OVC280 25/24 A2969
RMK CB ALQDS=
