SAUS80 KWBC 231700 RRB
METAR
KP68 231653Z AUTO 36010KT M02/M03 A2991 RMK AO1 SLP133 P0001
     T10171028=
KBTV 231654Z 22003KT 10SM BKN150 BKN250 19/05 A3032 RMK AO2 SLP267
     T01890050=
KCRW 231654Z VRB03KT 10SM FEW100 FEW230 22/07 A3021 RMK AO2 SLP228
     T02170072=
KDSM 231654Z 16017G28KT 10SM FEW120 FEW180 SCT250 23/13 A2956 RMK
     AO2 PK WND 16032/1624 SLP003 T02330133=
KFWA 231654Z 19015KT 10SM FEW060 FEW180 SCT250 23/11 A3009 RMK AO2
     SLP188 T02330111 $=
KORH 231654Z 04005KT 10SM CLR 14/05 A3034 RMK AO2 SLP276
     T01440050=
KSYR 231654Z 08006KT 10SM FEW150 FEW200 BKN250 19/06 A3028 RMK AO2
     SLP252 T01890056 $=
KBNO 231653Z AUTO 26005KT 10SM OVC041 03/M02 A3004 RMK AO2 SLP187
     T00281022 $=
KGEG 231653Z 16004KT 10SM FEW024 BKN039 BKN075 03/01 A2998 RMK AO2
     SLP165 T00330006 $=
KSEA 231653Z 19004KT 10SM SCT010 BKN026 BKN048 07/06 A3012 RMK AO2
     SLP207 T00720061 $=
KYKM 231653Z AUTO 00000KT 10SM CLR 08/00 A3005 RMK AO2 SLP181
     T00830000=
KLAN 231653Z AUTO 16012G17KT 10SM FEW055 22/12 A3009 RMK AO2
     SLP186 T02170117 $=
KODX 231653Z AUTO 17016G26KT 10SM CLR 23/07 A2926 RMK AO2 PK WND
     17026/1649 SLP899 T02330067=
KPOV 231655Z AUTO 13004KT 10SM CLR 20/04 A3022 RMK AO2 T01950040
     PWINO=
KACY 231654Z 05014G23KT 4SM -RA BR SCT010 BKN015 OVC036 16/14
     A3020 RMK AO2 PK WND 08029/1631 RAB36 SLP225 P0000
     T01610144=
KCAR 231654Z AUTO VRB06KT 10SM CLR 19/06 A3033 RMK AO2 SLP277
     T01890061=
KFAR 231653Z AUTO 11014KT 10SM CLR 19/10 A2944 RMK AO2 SLP972
     T01940100 TSNO $=
KIKW 231655Z AUTO 15008G15KT 10SM CLR 24/12 A3007 RMK AO2
     T02360116=
KLYV 231655Z AUTO 15019G27KT 10SM CLR 20/11 A2939 RMK AO2=
KMVL 231654Z AUTO VRB05KT 10SM CLR 19/05 A3034 RMK AO2 SLP279
     T01890050=
KRFD 231654Z 17014G26KT 10SM CLR 22/13 A2987 RMK AO2 PK WND
     15029/1640 SLP111 T02170128=
KSBN 231654Z 17015G21KT 10SM SCT075 23/13 A3002 RMK AO2 SLP160
     T02330128=
KMWN 231652Z 12010KT 80SM SCT060 BKN100 OVC200 11/M13 RMK
     BINOVC=
KPTS 231655Z AUTO 19018G31KT 10SM SCT120 26/16 A2971 RMK AO2
     T02630155 PWINO=
KROC 231654Z VRB03KT 10SM SCT200 BKN250 20/05 A3025 RMK AO2 SLP247
     T02000050=
KSHV 231656Z 17016G25KT 10SM SCT043 SCT300 28/15 A2997 RMK
     SLPNO=
KSMS 231655Z AUTO VRB05G12KT 10SM CLR 23/08 A3019 RMK AO2=
KSNC 231655Z AUTO 01004KT 10SM CLR 14/08 A3030 RMK AO2=
KSOW 231655Z AUTO 22016G27KT 2 1/2SM -RA FEW001 BKN016 OVC021
     09/07 A2982 RMK AO2=
K12N 231654Z AUTO VRB03KT 16/07 A3029 RMK AO1 SLP258 T01560072=
KAPN 231654Z AUTO 16016G21KT 10SM CLR 22/12 A3009 RMK AO2 SLP188
     T02220117=
KFNT 231653Z 16012KT 10SM CLR 22/12 A3012 RMK AO2 SLP197
     T02220122=
KY23 231655Z AUTO 13011G17KT 10SM CLR 21/15 A2971 RMK AO2
     T02050145=
KFAT 231653Z 31012KT 10SM CLR 14/02 A2994 RMK AO2 SLP137
     T01390022=
KHTL 231653Z AUTO 17013G19KT 10SM CLR 21/11 A3007 RMK AO2 SLP180
     T02060111=
KSTC 231653Z 12010KT 10SM CLR 21/12 A2956 RMK AO2 PK WND
     14026/1633 SLP014 T02110117=
KPDX 231653Z 15006KT 10SM FEW006 BKN055 11/07 A3014 RMK AO2 SLP204
     T01060072=
KUIL 231653Z AUTO 10SM CLR 06/04 A3009 RMK AO2 SLP191
     T00560044=
K6R6 231651Z AUTO 13010KT 18/16 A2988 RMK AO1 SLP094 T01780161=
KCQC 231653Z AUTO 24034G45KT 10SM FEW049 SCT070 SCT090 15/03 A2976
     RMK AO2 PK WND 23045/1637 SLP999 T01500033=
KGDP 231651Z AUTO 24044G58KT 8SM CLR 22/09 A2982 RMK AO2 PK WND
     25058/1646 SLP024 T02220089=
PADK 231656Z AUTO 26018G27KT OVC010 09/08 A3021 RMK AO2 PK WND
     24041/1620 SLP229 P0003 T00940083 PWINO $=
