SAUS70 KWBC 231848
METAR
K6S8 231840Z AUTO 27013G26KT 9SM 04/01 A2965 RMK A01 Laurel=
KTFP 231815Z AUTO 17016G22KT 10SM CLR 29/21 A2986 RMK AO2
     T02880211=
