SAUS70 KWBC 231920
METAR
KATP 231915Z AUTO 11013KT 10SM SCT038 BKN044 25/17 A3004 RMK
     A01=
KAUM 231917Z AUTO 16016G23KT 10SM CLR 24/13 A2956 RMK AO2=
KBQX 231915Z AUTO 16013G21KT 9SM 28/18 A2992 RMK A01=
KCQM 231916Z AUTO 12008G16KT 10SM SCT095 22/10 A2962 RMK AO2=
KD39 231915Z AUTO 11016G26KT 10SM CLR 22/12 A2945 RMK AO2
     T02200121=
KDSF 231915Z AUTO 07005KT 10SM CLR 26/14 A3007 RMK A01=
KERY 231915Z AUTO 16013G24KT 10SM CLR 22/11 A2996 RMK AO2
     T02160110=
KGHB 231920Z AUTO 00000G14KT 8SM CLR 26/16 A3001 RMK A01=
KGLX 231915Z AUTO 06009G14KT 10SM CLR 26/13 A3007 RMK A01=
KGRY 231915Z AUTO 10012KT 10SM FEW036 FEW042 24/16 A3005 RMK
     A01=
KHCD 231915Z AUTO 12021G28KT 10SM CLR 24/12 A2946 RMK AO2
     T02440122=
KHHV 231915Z AUTO 15017G22KT 10SM FEW033 FEW040 SCT050 26/19 A2990
     RMK A01=
KHZX 231915Z AUTO 11012G17KT 10SM CLR 22/12 A2957 RMK AO2=
KJYG 231916Z AUTO 15026G31KT 10SM CLR 24/12 A2943 RMK AO2=
KLVN 231915Z AUTO 14019G28KT 10SM CLR 24/11 A2952 RMK AO2=
KMJQ 231915Z AUTO 15023G30KT 10SM CLR 24/11 A2943 RMK AO2=
KMOX 231915Z AUTO 13022G32KT 10SM CLR 23/09 A2937 RMK AO2=
KMZH 231915Z AUTO 11005KT 10SM CLR 23/11 A2958 RMK AO2=
KONA 231915Z AUTO 15020G24KT 10SM CLR 25/12 A2961 RMK AO2=
KOSC 231915Z AUTO 10007KT 10SM CLR 22/12 A3008 RMK AO2
     T02180119=
KPEX 231915Z AUTO 12021G26KT 10SM CLR 23/12 A2944 RMK AO2=
KPMH 231915Z AUTO 17005KT 10SM CLR 26/03 A3014 RMK AO2
     T02630030=
KPZZ 231915Z AUTO 12016KT 10SM CLR 25/16 A3004 RMK A01=
KRRT 231915Z AUTO 04012G18KT 10SM CLR 13/09 A2956 RMK AO2=
KVAF 231915Z AUTO 18017KT 10SM CLR 28/17 A2994 RMK A01=
KVOA 231920Z AUTO 08013KT 10SM CLR 25/16 A3009 RMK A01=
KWBF 231910Z AUTO 00000KT 10SM 27/18 A3003 RMK A01=
KY31 231915Z AUTO 16006KT 10SM BKN060 23/10 A3004 RMK AO2
     T02250104=
KLJF 231915Z AUTO 14019G30KT 10SM CLR 23/11 A2944 RMK AO2=
KLWA 231915Z AUTO 18016G21KT 10SM SCT050 26/12 A2994 RMK AO2
     T02600121=
KLXL 231915Z AUTO 13017G23KT 10SM CLR 23/12 A2948 RMK AO2=
KMCD 231915Z AUTO 10005KT 10SM CLR 18/10 A3000 RMK AO2
     T01760104=
KMCX 231935Z AUTO 16012G21KT 10SM CLR 25/10 A2995 RMK AO2
     T02530096=
KMQJ 231915Z AUTO RMK AO1=
KOXD 231915Z AUTO 20014G18KT 10SM SCT050 26/05 A3009 RMK AO2
     T02600047=
KPJC 231915Z AUTO RMK AO2 TSNO PWINO=
KRMY 231915Z AUTO 15010G18KT 10SM BKN055 24/10 A3003 RMK AO2
     T02390104=
KRQB 231915Z AUTO 16016G22KT 10SM SCT070 24/11 A2998 RMK AO2
     T02370111=
KS24 231915Z AUTO 16009KT 10SM CLR 25/09 A3010 RMK AO2=
KSJX 231915Z AUTO 16008G14KT 10SM CLR 24/11 A2996 RMK AO2
     T02420110=
KSLH 231915Z AUTO 16009KT 10SM SCT060 24/11 A2999 RMK AO2=
KTOB 231915Z AUTO 14025G33KT 10SM CLR 24/12 A2956 RMK AO2=
KULM 231915Z AUTO 14020G30KT 10SM CLR 24/11 A2943 RMK AO2=
KVLL 231915Z AUTO 16011G14KT 10SM CLR 23/09 A3012 RMK AO2
     T02340094=
KVWU 231915Z AUTO 12013G18KT 10SM CLR 26/12 A2953 RMK AO2=
KY63 231915Z AUTO 12024G31KT 10SM CLR 22/12 A2938 RMK AO2
     T02180120=
KY70 231915Z AUTO 17016G26KT 10SM SCT055 24/09 A3001 RMK AO2
     T02420088=
K0E0 231915Z AUTO 24021G34KT 10SM SCT075 SCT090 18/M03 A2972 RMK
     AO2 T01811035 TSNO=
K3N8 231915Z AUTO 13016G21KT 10SM CLR 23/12 A2943 RMK AO2
     T02280115=
K4S2 231915Z AUTO 30007KT 10SM CLR 12/02 A3013 RMK AO2=
K6S2 231915Z AUTO 00000KT 9SM FEW012 SCT021 BKN037 13/12 A3021 RMK
     AO2=
KAQP 231913Z AUTO 17022G28KT 10SM CLR 24/11 A2934 RMK AO2=
KBEA 231915Z AUTO 16016G22KT 10SM SCT037 SCT047 BKN050 30/18 A2982
     RMK AO2 T02960183=
KCVH 231915Z AUTO 00000KT 10SM CLR 17/04 A2999 RMK A01=
KF70 231915Z AUTO 23004KT 10SM CLR 17/06 A2987 RMK AO2=
