SAUS80 KWBC 231624
METAR
KDVK 231613Z AUTO 23011G14KT 10SM CLR 22/06 A3020 RMK AO2=
KM25 231635Z AUTO 19013G22KT 10SM CLR 23/12 A3009 RMK AO2
     PWINO=
