SACA31 KWBC 231900 RRA
METAR
MKJS 231900Z 05011KT 9999 FEW020CB 30/23 Q1011=
