SACA35 KWBC 231700
METAR
MGGI NIL=
MGPB NIL=
MGSJ NIL=
MHLC 231700Z 31003KT 9999 FEW028 29/21 Q1014 A2995 NOSIG=
MHLM 231700Z 09005KT 9999 SCT028 BKN080 29/22 Q1015 A2997
     NOSIG=
MHTG 231700Z 01010KT 9999 FEW024 BKN032 25/18 Q1020 A3012
     NOSIG=
MNPC NIL=
MPBO NIL=
MPCH NIL=
MPDA 231700Z 18006KT 9999 SCT016 29/24 Q1011=
MPMG NIL=
MPSA NIL=
MPTO 231700Z 13010KT 9999 FEW010 SCT017TCU SCT080 29/25 Q1012
     NOSIG=
MRLB 231700Z 10008KT 060V130 9999 FEW030 31/24 A2985=
MRLM 231700Z 15006KT 9999 -DZ FEW015 BKN100 25/24 A2992=
MROC 231700Z 10010KT 060V130 9999 BKN040 27/18 A3005 NOSIG=
MRPV 231700Z 07010KT 9999 FEW035 SCT050 26/18 A3005 NOSIG=
MSLP 231650Z VRB03KT 9999 FEW037 32/24 Q1012 A2988 NOSIG=
MSSS NIL=
MZBZ 231700Z 07005KT 9999 FEW025 29/22 A2998 Q1015 NOSIG=
