SANZ31 NZKL 232130
METAR NZAA 232130Z AUTO 22011KT 9999 FEW027/// SCT034/// 18/13 Q1028
NOSIG=
METAR NZWN 232130Z AUTO 36022KT 9999 NCD 18/09 Q1022 NOSIG=
METAR NZCH 232130Z AUTO 25002KT 9999 NCD 15/07 Q1020 BECMG FM2300
21018G30KT=
