SAUS80 KWBC 232100 RRC
METAR
KJLN 232053Z 19027G41KT 30/12 A2966 RMK AO2 PK WND 19045/2017
     SLP032 T03000122 56019 $=
KCRQ 232053Z 22010KT 10SM FEW049 19/09 A2984 RMK AO2 SLP101
     T01940094 58008=
KDRT 232053Z AUTO 13012G18KT 10SM -RA FEW037 FEW090 SCT110 25/19
     A2974 RMK AO2 RAB51 SLP063 P0000 60000 T02500194 56026=
KFAT 232053Z 29013KT 10SM FEW100 21/00 A2991 RMK AO2 SLP126 CU
     OMTNS NE-E T02060000 58012=
KBIL 232053Z 30015G22KT 10SM FEW010 SCT028 OVC046 04/01 A2966 RMK
     AO2 RAE49 SLP057 VIRGA VCSH ALQDS P0000 60001 T00390006
     51010=
KBNO 232053Z AUTO 32012KT 10SM SCT044 OVC055 07/M06 A3008 RMK AO2
     SLP201 T00671061 53008 $=
KBTR 232053Z 14009KT 10SM BKN060 28/15 A3001 RMK AO2 SLP162
     T02780150 56019 $=
KCHA 232053Z 20004KT 10SM FEW060 SCT250 24/03 A3012 RMK AO2 SLP196
     T02440033 56023=
KCLL 232053Z 14018G27KT 10SM FEW050 BKN065 31/16 A2983 RMK AO2 PK
     WND 15029/1954 SLP095 T03060161 56028=
KCNY 232053Z AUTO 12014KT 10SM FEW075 06/04 A2967 RMK AO2 SLP041
     60000 T00610039 51013=
KLAN 232053Z 18014G23KT 10SM CLR 23/10 A3003 RMK AO2 SLP167
     T02330100 56010=
KLAX 232053Z 23012KT 10SM FEW013 FEW037 SCT055 21/12 A2985 RMK AO2
     SLP106 T02110122 58004=
KLIT 232053Z 18011G17KT 10SM SCT050 SCT250 29/14 A2989 RMK AO2
     SLP119 T02890144 56025=
KLND 232053Z AUTO 06005KT 10SM BKN013 OVC019 02/M01 A2962 RMK AO2
     SLP026 60001 T00221006 52012=
KMCN 232053Z 12005KT 10SM CLR 26/09 A3013 RMK AO2 SLP200 T02560089
     56015=
KBDR 232052Z 05008KT 10SM SCT047 OVC085 14/08 A3027 RMK AO2 SLP249
     60000 T01390083 55000=
KBFF 232053Z AUTO 29021G31KT 10SM CLR 12/01 A2939 RMK AO2 PK WND
     30037/2015 SLP936 T01170011 53025=
KYKM 232053Z AUTO 10SM CLR 14/M02 A3008 RMK AO2 SLP191 T01391017
     51005=
KRIW 232053Z AUTO 01009G17KT 10SM FEW014 OVC080 02/M01 A2961 RMK
     AO2 SLP026 60000 I3001 T00221006 53010=
KRMG 232053Z AUTO 13004KT 10SM CLR 24/04 A3012 RMK AO2 SLP193
     T02440039 56023=
KRNM 232053Z 00000KT 10SM BKN045 19/08 A2985 RMK AO2 SLP097
     T01890078 58010=
KSEA 232053Z 25006KT 10SM FEW014 SCT030 BKN110 11/06 A3017 RMK AO2
     SLP225 T01110056 51011 $=
KFNB 232053Z AUTO 17023G39KT 10SM CLR 27/16 A2944 RMK AO2 PK WND
     16043/2021 RAE08 SLP962 P0000 60000 T02720161 57010=
KFNT 232053Z 15013G21KT 10SM CLR 23/11 A3006 RMK AO2 PK WND
     17026/2043 SLP176 T02330111 56013=
KGEG 232053Z VRB05KT 10SM FEW037 SCT044 SCT200 09/01 A3004 RMK AO2
     SLP181 T00890006 51012 $=
KSTC 232053Z 14019G28KT 10SM CLR 24/12 A2944 RMK AO2 PK WND
     14032/1959 SLP974 T02390122 56027=
KTRI 232053Z 00000KT 10SM CLR 23/03 A3015 RMK AO2 SLP196 T02330028
     56018 $=
KTYS 232053Z 00000KT 10SM FEW250 23/05 A3012 RMK AO2 SLP194
     T02330050 56022=
KUIL 232053Z AUTO 18005KT 10SM SCT021 13/07 A3012 RMK AO2 SLP200
     T01280072 50000=
KPDX 232053Z 00000KT 10SM SCT035 BKN065 15/06 A3019 RMK AO2 SLP222
     T01500056 51008=
KPOF 232053Z AUTO 20017G26KT 10SM BKN050 27/14 A2991 RMK AO2 PK
     WND 20026/2051 SLP125 60000 T02670139 56015 $=
KMGM 232053Z VRB04KT 10SM CLR 26/06 A3010 RMK AO2 SLP191 T02560056
     56023=
KMSO 232053Z VRB05KT 10SM FEW025 BKN050 OVC070 08/01 A2996 RMK AO2
     RAB21E40 SLP157 P0000 60000 T00780011 51015 $=
KODX 232053Z AUTO 19023G34KT 10SM BKN036 BKN110 31/04 A2917 RMK
     AO2 PK WND 20040/2010 SLP867 60000 T03110044 56021=
K6R6 232051Z AUTO 09007KT 19/16 A2980 RMK AO1 SLP065 T01940161
     56023=
KGDP 232051Z AUTO 24033G46KT 8SM CLR 22/08 A2977 RMK AO2 PK WND
     24046/1952 SLP009 T02170078 58016=
