SACA45 KWBC 232000 RRC
METAR
MSAC 231950Z 22005KT 9999 FEW030 FEW040CB 34/21 Q1010 A2983=
