SAUS70 KWBC 232138
METAR
KSGS 232135Z AUTO 15015G21KT 10SM CLR 25/12 A2950 RMK AO2
     T02460117=
KTEW 232135Z AUTO 17013G16KT 10SM CLR 24/09 A3003 RMK AO2
     T02380085=
KTWM 232135Z AUTO 06011G15KT 10SM BKN055 17/11 A2963 RMK AO2=
KUKT 232135Z AUTO 04004KT 10SM FEW037 OVC044 16/10 A3022 RMK
     A01=
KVVV 232135Z 14016G27KT 10SM 24/13 A2928 RMK AO2=
KY63 232135Z AUTO 14022G30KT 10SM SCT047 22/12 A2935 RMK AO2
     T02180121=
K14Y 232135Z AUTO 14019G29KT 10SM SCT045 22/12 A2943 RMK AO2=
KACQ 232135Z AUTO 14023G35KT 10SM CLR 23/13 A2951 RMK AO2=
KAIT 232135Z AUTO 13014G22KT 10SM SCT049 23/12 A2950 RMK AO2=
KAMN 232135Z AUTO 13012G18KT 10SM CLR 24/08 A3001 RMK AO2
     T02350080=
KAUM 232135Z AUTO 15017G27KT 10SM CLR 23/13 A2954 RMK AO2=
KBDH 232135Z AUTO 14019G26KT 10SM CLR 26/12 A2940 RMK AO2=
KCBG 232135Z AUTO 13013G20KT 10SM SCT050 25/13 A2949 RMK AO2=
KCFE 232135Z AUTO 14020G26KT 10SM CLR 24/13 A2945 RMK AO2=
KCOQ 232135Z AUTO 10011G18KT 10SM CLR 17/09 A2958 RMK AO2 TSNO=
KCQM 232135Z AUTO 14009G16KT 10SM CLR 22/11 A2960 RMK AO2=
KCVH 232135Z AUTO 30007G13KT 250V320 10SM CLR 21/01 A2994 RMK
     A01=
KDLZ 232135Z AUTO 18008KT 10SM CLR 22/06 A3010 RMK AO2=
KDRM 232135Z AUTO 13010G17KT 10SM CLR 16/11 A3004 RMK AO2
     T01550105=
KDXX 232135Z AUTO 14024G36KT 10SM CLR 27/12 A2931 RMK AO2=
KELO 232135Z AUTO 13013G19KT 10SM CLR 19/10 A2965 RMK AO2=
KFBL 232135Z AUTO 14020G36KT 10SM CLR 24/13 A2951 RMK AO2=
KFFM 232135Z AUTO 14021G28KT 10SM CLR 23/12 A2935 RMK AO2=
KFGN 232135Z AUTO 04011KT 10SM CLR 16/08 A2956 RMK AO2=
KFSE 232135Z AUTO 12014G22KT 10SM CLR 22/10 A2942 RMK AO2=
KGHW 232135Z AUTO 12017G30KT 10SM CLR 23/12 A2940 RMK AO2=
KGYL 232135Z AUTO 14015G28KT 7SM CLR 25/13 A2945 RMK AO2
     T02460128=
KHAF 232135Z AUTO 33013G18KT 6SM HZ CLR 16/10 A3001 RMK AO2=
KHCO 232135Z AUTO 06015G20KT 10SM CLR 19/09 A2943 RMK AO2=
KJKJ 232135Z AUTO 13016G25KT 10SM SCT050 23/12 A2934 RMK AO2
     TSNO=
KJMR 232135Z AUTO 12011KT 10SM SCT050 24/12 A2954 RMK AO2=
KLDM 232135Z AUTO 15009G16KT 10SM OVC090 24/12 A2990 RMK AO2
     T02420116=
KLJF 232135Z AUTO 15015G29KT 10SM CLR 23/11 A2942 RMK AO2=
KMGG 232135Z AUTO 12008G15KT 10SM CLR 24/12 A2947 RMK AO2
     T02350117 PWINO=
KMGN 232135Z AUTO 17007KT 140V210 10SM OVC060 22/11 A2997 RMK AO2
     T02280111=
KMVE 232135Z AUTO 15019G28KT 10SM CLR 25/13 A2933 RMK AO2=
KOVL 232135Z AUTO 15027G33KT 3SM HZ CLR 25/12 A2937 RMK AO2=
KOZW 232135Z AUTO 15012G16KT 10SM CLR 23/09 A3005 RMK AO2
     T02280093=
KPWC 232135Z AUTO 14018G24KT 10SM CLR 22/13 A2951 RMK AO2=
KRGK 232135Z AUTO 14009G19KT 10SM CLR 24/12 A2952 RMK AO2=
KROX 232135Z AUTO 06019G26KT 10SM CLR 18/09 A2948 RMK AO2=
KSAZ 232135Z AUTO 14010G22KT 10SM SCT049 24/12 A2943 RMK AO2=
K04W 232135Z AUTO 12009G19KT 10SM SCT048 SCT050 23/13 A2954 RMK
     AO2=
K06D 232135Z AUTO 03022G27KT 10SM OVC018 09/07 A2947 RMK AO2=
K0S9 232135Z AUTO 14008KT 10SM FEW027 13/07 A3013 RMK AO2=
K0VG 232135Z AUTO 00000KT 10SM CLR 23/02 A3014 RMK AO2=
K15M 232135Z AUTO 18007KT 9SM CLR 23/06 A3006 RMK AO2 T02340058
     $=
K1R7 232135Z AUTO 18007KT 10SM CLR 26/15 A3003 RMK AO2 PWINO=
K21D 232135Z AUTO 14018G24KT 10SM CLR 23/12 A2952 RMK AO2=
K22N 232135Z AUTO 00000KT 10SM OVC050 16/08 A3025 RMK AO2=
K24A 232135Z AUTO 24004KT 10SM CLR 22/M04 A3017 RMK AO2
     T02211036=
K24J 232135Z AUTO 00000KT 10SM 27/07 A3009 RMK A01=
K28J 232135Z AUTO 07010KT 10SM CLR 23/16 A3010 RMK AO2 TSNO=
K2D5 232135Z AUTO 13022KT 7SM CLR 21/12 A2925 RMK AO2=
K2P2 232135Z AUTO 18011G17KT 10SM BKN110 17/12 A2988 RMK AO2
     T01720122=
