SAUS70 KWBC 231900 RRH
METAR
KPIM 231855Z AUTO 33005KT 10SM CLR 23/03 A3016 RMK AO2
     T02320027=
KPLU 231855Z AUTO 00000KT 10SM BKN017 BKN022 BKN026 11/07 A3016
     RMK AO2=
KPMU 231855Z AUTO 19011KT 10SM FEW050 27/13 A3002 RMK AO2=
KPNA 231855Z AUTO 29023G28KT 10SM CLR 01/M07 A2961 RMK AO2=
KSUT 231855Z AUTO 33009KT 10SM CLR 25/07 A3009 RMK AO2
     T02450072=
KC65 231855Z AUTO 18015G27KT 10SM FEW050 25/12 A2997 RMK A01=
KC75 231855Z AUTO 18017G29KT 10SM CLR 24/16 A2980 RMK AO2
     T02440160=
KCAV 231855Z AUTO 15023G33KT 10SM CLR 25/15 A2950 RMK A01=
KCBF 231855Z AUTO 19022G32KT 9SM CLR 29/10 A2937 RMK AO2=
KCCU 231855Z AUTO 28006G17KT 7SM -SN SCT003 BKN022 OVC029 M01/M05
     A2962 RMK AO2=
KCIN 231855Z AUTO 18025G33KT 10SM CLR 27/14 A2943 RMK AO2=
KCKF 231855Z AUTO 00000KT 10SM CLR 25/07 A3015 RMK AO2
     T02460065=
KCMD 231855Z AUTO 22006G12KT 10SM CLR 24/04 A3015 RMK AO2=
KCNC 231855Z AUTO 18022KT 10SM CLR 27/15 A2954 RMK AO2=
KCOM 231855Z AUTO 19021G25KT 10SM CLR 29/14 A2977 RMK AO2
     T02870138=
KCUH 231855Z AUTO 18020G25KT 10SM CLR 28/15 A2965 RMK AO2
     T02790154=
KCWV 231855Z AUTO 00000KT 10SM CLR 25/11 A3013 RMK AO2
     T02540106=
KD73 231855Z AUTO 01004KT 10SM CLR 22/03 A3017 RMK AO2
     T02230029=
KDKB 231855Z AUTO 16021G28KT 7SM CLR 24/15 A2984 RMK AO2
     T02360152=
KDKR 231855Z AUTO 16012G20KT 10SM OVC060 28/15 A2990 RMK AO2=
KDNS 231855Z AUTO RMK AO2 PNO PWINO=
KDNV 231855Z AUTO 17023G28KT 5SM HZ CLR 26/12 A2994 RMK AO2
     T02600120=
KDVO 231855Z AUTO 36008G15KT 10SM CLR 21/M01 A3001 RMK AO2=
KE11 231855Z AUTO 20018G25KT 10SM CLR 29/10 A2974 RMK AO2
     T02870098=
KE16 231855Z AUTO 33011G19KT 10SM CLR 17/03 A3000 RMK AO2=
KE41 231855Z AUTO 18015G23KT 10SM CLR 25/15 A2980 RMK AO2
     T02500150=
KECU 231855Z AUTO 15018G27KT 10SM CLR 25/16 A2988 RMK AO2=
KEZZ 231855Z AUTO 18020G30KT 10SM CLR 28/14 A2957 RMK AO2
     T02850144=
KFEP 231855Z AUTO 17014G25KT 10SM CLR 24/16 A2979 RMK AO2
     T02390156=
KFFL 231855Z AUTO 15019G27KT 10SM CLR 24/13 A2965 RMK A01=
KFKR 231855Z AUTO 17019G26KT 10SM FEW055 26/11 A2998 RMK AO2=
KFMM 231855Z AUTO 01014G23KT 10SM CLR 21/M00 A2929 RMK AO2=
KFPY 231855Z AUTO 00000KT 10SM CLR 27/08 A3012 RMK AO2 T02730077
     TSNO=
KFSK 231855Z AUTO 20025G33KT 10SM SCT120 28/14 A2965 RMK AO2
     T02780144=
KFZG 231855Z AUTO 00000KT 10SM CLR 25/11 A3015 RMK AO2
     T02490106=
KGBG 231855Z AUTO 16016G23KT 10SM CLR 23/15 A2976 RMK AO2
     T02310152=
KGCD 231855Z AUTO 28005KT 10SM SCT037 OVC045 04/00 A3006 RMK AO2
     T00350000=
KGCM 231855Z AUTO 19017G22KT 10SM SCT039 26/12 A2973 RMK AO2=
KGEU 231855Z 22011KT 10SM SCT050 BKN080 BKN200 23/09 A2976=
K06C 231855Z AUTO 17011G24KT 10SM CLR 24/16 A2986 RMK AO2
     T02410164=
K0R4 231855Z AUTO 14011KT 10SM SCT047 SCT065 28/15 A3002 RMK AO2
     T02790151=
K1R8 231855Z AUTO VRB03KT 10SM CLR 27/05 A3010 RMK AO2=
K33V 231855Z AUTO 36010KT 10SM OVC034 01/M02 A2954 RMK AO1=
K3K3 231855Z AUTO 22034G43KT 3SM BR BKN034 OVC042 A2937 RMK
     AO2=
K49A 231855Z AUTO 26003KT 10SM CLR 23/01 A3020 RMK AO2
     T02310011=
K4O4 231855Z AUTO 17014G24KT 8SM BKN042 28/17 A2986 RMK AO2=
K66R 231855Z AUTO 17011G18KT 10SM SCT045 BKN060 OVC065 29/17 A2989
     RMK AO2 T02880174=
K74V 231855Z AUTO 15004KT 10SM 03/01 A2970 RMK AO2=
KADU 231855Z AUTO 18016G26KT 10SM BKN002 BKN027 OVC045 27/12 A2945
     RMK AO2 PWINO=
KAFK 231855Z AUTO 19024G34KT 10SM CLR 30/13 A2942 RMK AO2
     T02950130=
KAIO 231855Z AUTO 19023G35KT 7SM CLR 27/15 A2943 RMK AO2=
KAJG 231855Z AUTO 17021G26KT 10SM CLR 27/10 A2997 RMK AO2
     T02730103=
