SAUS70 KWBC 231640 RRB
METAR
KELA 231635Z AUTO 18011G19KT 10SM SCT040 SCT050 BKN060 29/18 A2995
     RMK AO2 T02900178=
KEMM 231635Z AUTO 29020G25KT 10SM OVC037 M01/M04 A2964 RMK AO2=
KEQA 231635Z AUTO 19029G34KT 10SM CLR 27/12 A2960 RMK AO2=
KETC 231635Z AUTO 35008KT 10SM OVC015 17/13 A3016 RMK AO2
     T01730133=
KPCD 231635Z AUTO 20021G30KT 180V250 10SM OVC028 23/16 A2995 RMK
     AO2 T02250160=
KPEZ 231635Z AUTO 17015G21KT 10SM SCT030 SCT038 27/19 A2990 RMK
     AO2 T02740190=
KPHN 231635Z AUTO 19005KT 10SM CLR 22/08 A3016 RMK AO2=
KPMV 231635Z AUTO 17025G31KT 10SM CLR 26/13 A2944 RMK AO2
     T02570129 PWINO=
KPPO 231635Z AUTO 18012G20KT 10SM CLR 23/15 A3001 RMK AO2
     T02250150=
KPRG 231635Z AUTO 17017G24KT 10SM CLR 24/14 A3000 RMK AO2
     T02440140=
KPSO 231635Z AUTO 25015G26KT 4SM -RA OVC013 04/03 A2967 RMK AO2
     T00380033=
KRAS 231635Z AUTO 16016G21KT 10SM SCT043 OVC050 A2994 RMK AO2=
KRPJ 231635Z AUTO 17018G24KT 10SM CLR 22/14 A2987 RMK AO2
     T02160143 TSNO=
KRSV 231635Z AUTO 19018G26KT 10SM SCT110 24/11 A3002 RMK AO2
     T02400113=
KRVJ 231635Z AUTO 03007KT 010V070 10SM CLR 24/12 A3018 RMK AO2
     T02410124=
KRWV 231635Z AUTO 17011KT 10SM BKN026 BKN044 BKN050 26/19 A2993
     RMK AO2 T02630191=
KRYW 231635Z AUTO 19009G18KT 10SM BKN024 BKN042 25/18 A2992 RMK
     AO2 T02500178=
KS33 231635Z AUTO 00000KT 10SM CLR 03/01 A3010 RMK AO2=
KSME 231635Z AUTO VRB06KT 10SM CLR 22/06 A3018 RMK AO2=
KSTE 231635Z AUTO 14008KT 10SM CLR 21/10 A2983 RMK AO2
     T02050101=
KSTK 231635Z AUTO 25010KT 10SM CLR 21/00 A2924 RMK AO2=
KSXK 231635Z AUTO 15027G32KT 10SM CLR 22/13 A2935 RMK AO2=
KT41 231635Z AUTO 10SM BKN046 BKN060 29/17 A2999 RMK AO2
     T02870169=
KT74 231635Z AUTO 19017G22KT 10SM SCT026 BKN030 OVC046 26/18 A2991
     RMK AO2 T02620182=
KT82 231635Z AUTO 20013KT 10SM SCT028 24/16 A2992 RMK AO2
     T02350160=
KTEX 231635Z AUTO 22013G32KT 180V250 10SM SCT028 BKN046 OVC050
     02/M05 A2967 RMK AO2=
KTTA 231635Z AUTO 04007KT 10SM CLR 18/06 A3020 RMK AO2
     T01750061=
KTYQ 231635Z AUTO 19015G21KT 10SM CLR 22/12 A3008 RMK AO2
     T02230115=
KVHN 231635Z AUTO 21016G22KT 10SM CLR 25/08 A2989 RMK AO2
     T02500076=
KVTP 231635Z AUTO 24018G33KT 10SM BKN023 BKN030 OVC045 M07/M14
     A2959 RMK AO2=
KVVS 231635Z AUTO 09007KT 050V130 10SM CLR 21/04 A3025 RMK AO2
     T02060036=
KVYS 231635Z AUTO 17019G26KT 10SM CLR 23/13 A2986 RMK AO2
     T02290130=
KZPH 231635Z AUTO 02005KT 10SM CLR 27/14 A3014 RMK A02
     T02670145=
KF00 231635Z AUTO 20016G24KT 10SM OVC029 25/17 A2987 RMK AO2
     T02490174=
KFET 231635Z AUTO 16019G25KT 10SM CLR 25/13 A2939 RMK AO2
     T02530134=
KFHB 231635Z AUTO 03011KT 10SM SCT018 24/18 A3016 RMK AO2=
KFOA 231635Z AUTO 17021G25KT 10SM SCT037 23/14 A3000 RMK AO2=
KFSW 231635Z AUTO 16014G17KT 10SM OVC001 23/14 A2975 RMK AO2=
KFWC 231635Z AUTO 18021G24KT SCT038 24/13 A3000 RMK AO1 T02360128
     PWINO=
KGDB 231635Z AUTO 12018G24KT 10SM CLR 21/13 A2947 RMK AO2
     T02110127=
KGPC 231635Z AUTO 19020G29KT 10SM CLR 24/12 A3006 RMK AO2
     T02360117=
KGRN 231635Z AUTO 31013G19KT 10SM CLR 10/01 A2923 RMK AO2
     T00960006=
KGWB 231635Z AUTO 19009KT 145V215 10SM SCT060 21/12 A3010 RMK
     AO2=
KHJH 231635Z AUTO 20024G30KT 10SM CLR 26/12 A2939 RMK AO2
     T02580116=
KHMP 231635Z AUTO 15003KT 10SM CLR 20/05 A3027 RMK AO2
     T02010050=
KHQU 231635Z AUTO 00000KT 10SM CLR 22/10 A3022 RMK AO2
     T02170104=
KIIY 231635Z AUTO 00000KT 10SM CLR 21/09 A3022 RMK AO2
     T02100087=
KIYA 231635Z AUTO 12012G20KT 10SM SCT050 SCT070 27/14 A3008 RMK
     AO2 T02710143 PWINO=
