SAUS80 KWBC 232000 CCB
METAR
KP28 231956Z AUTO 18025G39KT 28/12 A2945 RMK AO1 PK WND 19041/1908
     SLP956 T02830122 $=
KP53 231956Z AUTO 18014G32KT 20/12 A2989 RMK AO1 PK WND 18032/1953
     SLP122 T02000117=
K8D3 231956Z AUTO 13024G34KT 24/12 A2928 RMK AO1 PK WND 12037/1917
     SLP910 T02390117=
KMEH 231956Z AUTO 26004KT 10SM SCT019 SCT024 BKN044 04/00 A3005
     RMK AO2 SLP192 T00390000=
