SACA45 KWBC 232000
METAR
MGFL NIL=
MGGT 232000Z 04010KT 9999 SCT020TCU 25/18 Q1019 A3009 TCU
     E/ESE/SE/S=
MGHT 232000Z 07006KT 9999 SCT018 25/13 FEW060=
MHAM NIL=
MHCA 232000Z 04004KT 9999 7000NE RA SCT028TCU FEW030CB BKN080
     29/23 CB N W=
MHCH 232000Z 36010KT 9999 SCT034 34/27=
MHLE 232000Z 05004KT 9999 BKN022 20/14=
MHNJ NIL=
MHNO 232000Z 35006KT 9999 FEW040TCU 28/19=
MHPL 232000Z 00000KT 9999 BKN022TCU SCT080 27/23 Q1011 RERA=
MHRO 232000Z 35004KT 9999 FEW020 28/23 Q1012 A2989 NOSIG=
MHSR 232000Z 00000KT 9999 BKN025 26/20=
MHTE 232000Z 06004KT 9999 BKN028TCU FEW036CB BKN080 29/25
     Q1010=
MHYR 232000Z 09006KT 9999 SCT024TCU SCT080 28/21=
MNMG NIL=
MNPC NIL=
MPSA NIL=
MRCH NIL=
MSAC NIL=
