SAUS80 KWBC 231700
METAR
KM25 231655Z AUTO 22015G22KT 10SM CLR 23/12 A3008 RMK AO2
     PWINO=
