SAUS80 KWBC 232122
METAR
KIZA 232115Z AUTO 34009KT 10SM CLR 23/M07 A2985 RMK AO2=
K40U 232115Z AUTO 31015G26KT 10SM SCT038 BKN050 03/M06 A2972 RMK
     AO2 T00261057=
K4BM 232115Z AUTO 16015G23KT 10SM SCT013 BKN025 OVC046 M01/M04
     A2962 RMK AO2=
K77S 232135Z AUTO 26005KT 10SM BKN043 BKN065 15/04 A3019 RMK
     A01=
K9V9 232115Z AUTO 17006KT 10SM CLR 28/04 A2911 RMK AO2
     T02820039=
KAYS 232115Z AUTO 00000KT 10SM CLR 26/10 A3011 RMK AO2
     T02580101=
KGIC 232115Z AUTO 00000KT 10SM SCT022 BKN029 OVC034 03/00 A3005
     RMK AO1=
K9MN 232115Z AUTO 12020G33KT 10SM CLR 23/12 A2956 RMK AO1
     T02330117=
KTKC 232115Z AUTO 15024G30KT 10SM 26/10 A2934 RMK AO2
     T02600100=
KSFY 232123Z AUTO 16019G26KT 10SM CLR 25/14 A2971 RMK AO2=
KSOA 232115Z AUTO 17019G24KT 10SM 25/14 A2983 RMK AO2=
KCBE 232115Z AUTO 00000KT 10SM OVC037 18/05 A3025 RMK AO2
     T01830053=
KGIC 232115Z AUTO 00000KT 10SM SCT022 BKN029 OVC034 03/00 A3005
     RMK AO1=
KPSN 232115Z AUTO 16011G20KT 10SM BKN070 30/12 A2983 RMK AO2=
