SAUS80 KWBC 232000
METAR
KREO 231952Z AUTO 31008G23KT 07/M06 A3001 RMK AO1 SLP170
     T00671061=
KABI 231952Z 18021G36KT 10SM CLR 31/14 A2970 RMK AO2 PK WND
     18036/1952 SLP031 T03060139=
KABQ 231952Z 24019G33KT 10SM BKN095 20/00 A2967 RMK AO2 PK WND
     26037/1939 SLP977 SHRA DSNT W T02000000=
KALS 231952Z AUTO 28019G25KT 10SM SCT048 BKN060 BKN070 09/M01
     A2962 RMK AO2 PK WND 25035/1939 WSHFT 1938 SLP965
     T00891006=
KBIL 231953Z 30015KT 10SM -RA FEW010 OVC035 03/01 A2965 RMK AO2
     RAB03 SLP053 P0001 T00280011=
KBLU 231952Z AUTO VRB06KT 10SM CLR 07/M08 A3001 RMK AO2 SLP142
     T00721078 $=
KCID 231952Z 17020G31KT 10SM CLR 24/13 A2963 RMK AO2 PK WND
     16032/1940 SLP028 T02390133 $=
KCNU 231952Z AUTO 17028G37KT 10SM CLR 29/15 A2960 RMK AO2 PK WND
     17037/1951 RAB1856E05 SLP009 P0000 T02890150 $=
KMHK 231952Z 18022G33KT 10SM CLR 30/13 A2942 RMK AO2 PK WND
     19033/1946 SLP951 T03000133=
KSAV 231953Z 01007KT 330V040 10SM FEW045 26/10 A3012 RMK AO2
     SLP200 T02560100=
KSPS 231952Z 17021G30KT 10SM CLR 32/13 A2964 RMK AO2 PK WND
     16032/1916 SLP023 T03170133=
KP59 231951Z AUTO 19013G29KT 170V240 18/12 A2978 RMK AO1 PK WND
     18030/1908 SLP083 T01830117 $=
KP69 231952Z AUTO 00000KT 06/04 A3006 RMK AO1 SLP191 T00610044=
KCDJ 231951Z AUTO 17014G31KT 30/14 A2956 RMK AO1 PK WND 17031/1944
     SLP997 T03000144=
KGDP 231951Z AUTO 24037G49KT 8SM CLR 23/08 A2979 RMK AO2 PK WND
     24054/1905 SLP011 T02280083=
KMBG 231952Z AUTO 14014G22KT 10SM BKN036 21/11 A2917 RMK AO2
     SLP874 T02110106=
KMFD 231952Z 16008KT 10SM CLR 22/08 A3014 RMK AO2 SLP201
     T02170078=
KNYC 231951Z AUTO 07007KT 030V120 10SM OVC060 16/08 A3028 RMK AO2
     SLP245 T01610078 $=
KTOL 231952Z 17009G15KT 10SM BKN060 26/10 A3007 RMK AO2 SLP182
     T02560100=
KN60 231952Z AUTO 04014G25KT 10/06 A2934 RMK AO1 PK WND 05028/1940
     SLP943 T01000056=
KCRP 231951Z 15023G34KT 10SM SCT028 BKN036 BKN170 BKN250 29/22
     A2982 RMK AO2 PK WND 14034/1945 SLP096 T02940217=
KELP 231951Z 26021G32KT 10SM FEW055 SCT080 BKN160 BKN210 26/07
     A2974 RMK AO2 PK WND 26036/1911 SLP997 T02610067=
KGDP 231951Z AUTO 24037G49KT 8SM CLR 23/08 A2979 RMK AO2 PK WND
     24054/1905 SLP011 T02280083=
KIGM 231951Z AUTO 02012KT 10SM CLR 16/M03 A2985 RMK AO2 SLP057
     T01561028=
KMYL 231951Z AUTO VRB04KT 10SM FEW023 FEW030 BKN060 03/M06 A2992
     RMK AO2 SNB07E42 SLP146 P0000 T00331056=
KOXR 231951Z 27010KT 10SM FEW025 20/12 A2987 RMK AO2 SLP113
     T02000122=
KROW 231951Z 22021G27KT 10SM CLR 27/09 A2964 RMK AO2 PK WND
     21033/1854 SLP974 T02670094=
KSAD 231951Z AUTO 29016G30KT 10SM FEW075 23/04 A2971 RMK AO2 PK
     WND 31030/1945 SLP017 T02330044=
KSVE 231955Z AUTO 05007KT 10SM BKN060 OVC075 M19/M32 A3007 RMK
     AO2=
KABE 231951Z 05009KT 10SM BKN050 17/09 A3025 RMK AO2 SLP243
     T01670089 $=
KALB 231951Z 31003KT 10SM FEW160 BKN200 BKN250 16/08 A3030 RMK AO2
     SLP260 T01610078=
KBDL 231951Z 02005KT 10SM -RA OVC100 13/08 A3030 RMK AO2 RAB41
     SLP262 P0000 T01280078=
KBKW 231951Z AUTO VRB03KT 10SM CLR 22/01 A3019 RMK AO2 SLP206
     T02170011=
KCAK 231951Z 15008KT 10SM FEW060 FEW180 SCT250 24/05 A3015 RMK AO2
     SLP206 T02440050=
KCON 231951Z AUTO 00000KT 10SM CLR 15/07 A3034 RMK AO2 SLP276
     T01500072=
KEKN 231951Z AUTO 31006KT 8SM CLR 23/M01 A3018 RMK AO2 SLP226
     T02331006=
KHTS 231951Z 17006KT 8SM CLR 25/05 A3013 RMK AO2 SLP198
     T02500050=
KTEB 231951Z 05006KT 10SM OVC065 17/08 A3025 RMK AO2 SLP244
     T01670078=
KYNG 231951Z 15008KT 10SM SCT250 23/03 A3017 RMK AO2 SLP216
     T02280028=
