SAPA31 KWBC 231600 RRB
METAR
AGGH 231600Z 16002KT 9999 FEW013 FEW014CB BKN300 23/23 Q1007=
