SAUS70 KWBC 231700 RRO
METAR
KLZU 231656Z VRB05KT 10SM CLR 21/07 A3023 RMK AO2 SLP246
     T02060072=
KM19 231656Z AUTO 20020G29KT 10SM BKN034 OVC048 24/15 A2998 RMK
     AO2 PK WND 20029/1650 SLP150 T02440150 PNO $=
KMBL 231656Z AUTO 16008G15KT 120V200 8SM CLR 22/12 A2997 RMK AO2
     SLP148 T02170117=
KMCD 231655Z AUTO 14008KT 110V180 10SM CLR 20/12 A3004 RMK AO2
     T01970117=
KMKT 231656Z AUTO 15021G26KT 10SM CLR 22/12 A2954 RMK AO2 PK WND
     14027/1600 SLP999 T02170122=
KMKY 231656Z AUTO VRB06KT 10SM SCT042 29/17 A3008 RMK AO2 SLP187
     T02940172 TSNO $=
KMML 231656Z AUTO 15018G27KT 10SM CLR 21/12 A2941 RMK AO2 PK WND
     15030/1643 SLP958 T02060122=
KMNM 231656Z AUTO 17007G14KT 10SM CLR 17/12 A2992 RMK AO2 SLP133
     T01720117 PNO $=
KMOT 231654Z 05018G25KT 10SM OVC008 08/04 A2950 RMK AO2 SLP001
     T00780044 $=
KMOX 231655Z AUTO 13019G26KT 10SM CLR 21/09 A2944 RMK AO2=
KCOD 231656Z AUTO 36007KT 10SM -RA SCT018 OVC027 02/M01 A2961 RMK
     AO2 RAE01B38UPB47E52SNB01E38 SLP028 P0000 T00171011
     FZRANO=
KCQM 231655Z AUTO 15009KT 10SM CLR 19/09 A2967 RMK AO2=
KCVN 231656Z AUTO 21015G21KT 10SM CLR 21/11 A2972 RMK AO2 PK WND
     21028/1627 SLP031 T02110106=
KCVX 231655Z AUTO 14008G16KT 130V190 10SM CLR 22/12 A3001 RMK AO2
     T02240121=
KCWI 231656Z AUTO 17016G22KT 10SM CLR 23/13 A2980 RMK AO2 SLP088
     T02280133=
KD95 231655Z AUTO 17010G15KT 10SM CLR 22/07 A3014 RMK AO2
     T02220067=
KDIJ 231656Z AUTO 31005KT 9SM -SN OVC026 M01/M04 A2972 RMK AO2
     SLP082 P0000 T10111044=
KDTL 231655Z AUTO 12014G20KT 10SM CLR 18/10 A2950 RMK AO2=
KDUH 231655Z AUTO 14005KT 10SM CLR 22/09 A3013 RMK AO2
     T02230091=
KDYR 231656Z AUTO 18010G19KT 10SM FEW034 24/15 A3007 RMK AO2
     SLP186 T02440150=
KDYT 231655Z AUTO 07011KT 10SM BKN085 11/10 A2970 RMK AO2=
KEEN 231656Z AUTO 00000KT 10SM CLR 12/07 A3035 RMK AO2 SLP287
     T01170067 $=
KEFK 231655Z AUTO 00000KT 10SM CLR 19/05 A3034 RMK AO2
     T01930045=
KEGE 231656Z 21008KT 10SM BKN047 OVC055 04/00 A2959 RMK AO2 SLP956
     T00440000=
KEHR 231656Z AUTO 17017G27KT 10SM CLR 25/11 A3005 RMK AO2 PK WND
     16027/1652 SLP173 T02500111=
KEKQ 231656Z AUTO 24008KT 10SM CLR 23/06 A3021 RMK AO2 SLP221
     T02330061=
KEKY 231656Z AUTO VRB05KT 10SM CLR 22/06 A3021 RMK AO2 SLP077
     T02220056=
KENV 231656Z AUTO 31023G32KT 10SM CLR 05/M08 A2982 RMK AO2 PK WND
     30032/1654 SLP103 T00501083=
KESC 231656Z AUTO 17011KT 10SM CLR 15/11 A2995 RMK AO2 SLP145
     T01500111 PNO $=
KEWK 231656Z AUTO 19028G35KT 10SM CLR 26/13 A2955 RMK AO2 PK WND
     20039/1638 SLP991 T02560128=
KFAM 231656Z AUTO 18016G27KT 10SM OVC020 20/14 A2994 RMK AO2 PK
     WND 17027/1652 SLP141 T02000144=
KFCI 231656Z AUTO 36007KT 10SM OVC018 16/11 A3020 RMK AO2 SLP239
     T01560111=
KFFX 231655Z AUTO 18009KT 10SM SCT050 23/11 A3001 RMK AO2
     T02260110=
KFGN 231655Z AUTO 10005KT 10SM CLR 12/06 A2966 RMK AO2=
KFKA 231655Z AUTO 15014G22KT 10SM CLR 21/13 A2967 RMK AO2
     T02050125=
KFKL 231656Z AUTO 09006KT 10SM CLR 19/04 A3025 RMK AO2 SLP244
     T01940044=
KFKS 231655Z AUTO 18013G16KT 10SM SCT060 SCT065 22/11 A2998 RMK
     AO2 T02170114=
KRNP 231655Z AUTO 13010KT 020V160 10SM CLR 23/10 A3009 RMK AO2
     T02260100=
KRQB 231655Z AUTO 18010KT 10SM SCT055 SCT065 21/12 A3003 RMK AO2
     T02140116=
KRUT 231656Z AUTO 10010KT 10SM CLR 18/03 A3033 RMK AO2 SLP267
     T01830028 $=
KRZT 231655Z AUTO 13007KT 10SM CLR 22/08 A3018 RMK AO2 PWINO=
KSDY 231656Z AUTO 03011KT 10SM OVC009 07/05 A2948 RMK AO2 SLP994
     T00670050 PNO $=
KSFM 231656Z AUTO 00000KT 10SM CLR 17/07 A3036 RMK AO2 SLP287
     T01720072=
