SASA31 KWBC 232000 RRA
METAR
SKRG 232000Z 03009KT 9999 -DZ BKN017CB 18/15 Q1022 TEMPO FM2030
     TSRA BKN012CB RMK A3018=
SPZO 232000Z 03012KT 360V060 9999 SCT050 SCT100 21/03 Q1025 NOSIG
     RMK BIRD HAZARD RWY 10/28 PP000=
SVBC 232003Z AUTO 34010KT NCD 31/24 Q1009=
SVBC 232000Z 02010KTS 9000 HZ SCT013 31/// Q1008=
SVMC 232003Z AUTO NIL=
SVMG 232003Z AUTO 11013KT NCD 25/24 Q1009=
SVMI 232003Z AUTO 08009KT NCD ///// Q1010=
SVMI 232000Z 09003KT 9999 SCT080 31/24 Q1010=
SYCJ 232000Z 04008KT 9999 FEW020CB SCT023 30/25 Q1008 NOSIG RMK CB
     S-N=
