SAUS70 KWBC 231638 RRE
METAR
KUKT 231635Z AUTO 06004KT 10SM FEW100 16/09 A3027 RMK A01=
KXVG 231633Z AUTO 13008KT 094V154 10SM CLR 19/10 A2961 RMK AO2=
KY63 231635Z AUTO 13016G21KT 10SM CLR 19/11 A2946 RMK AO2
     T01890111=
K21D 231635Z AUTO 14012G17KT 10SM CLR 20/12 A2964 RMK AO2=
KAMN 231635Z AUTO 12010KT 10SM CLR 22/11 A3008 RMK AO2
     T02240108=
KBDH 231635Z AUTO 13020G24KT 10SM CLR 22/12 A2952 RMK AO2=
KCBG 231635Z AUTO 00000KT 10SM CLR 22/11 A2961 RMK AO2=
KCFE 231635Z AUTO 15014G21KT 10SM CLR 21/12 A2957 RMK AO2=
KCOQ 231635Z AUTO 11008KT 10SM BKN080 14/09 A2967 RMK AO2 TSNO=
KDXX 231635Z AUTO 13018G24KT 10SM CLR 21/12 A2943 RMK AO2=
KDYT 231635Z AUTO 06011KT 10SM FEW075 BKN095 11/10 A2970 RMK
     AO2=
KEDJ 231635Z AUTO 21012KT 9SM FEW045 22/11 A3017 RMK A01=
KFSE 231635Z AUTO 12003KT 10SM CLR 18/08 A2953 RMK AO2=
KFSO 231635Z AUTO 19004KT 10SM CLR 19/05 A3033 RMK AO2
     T01890053=
KGHW 231635Z AUTO 13017KT 10SM CLR 20/12 A2950 RMK AO2=
KGYL 231635Z AUTO 14015G21KT 7SM CLR 21/12 A2955 RMK AO2
     T02080119=
KHCO 231635Z AUTO 06012G18KT 10SM CLR 13/08 A2955 RMK AO2=
KI69 231635Z AUTO 19009KT 10SM CLR 23/10 A3018 RMK AO2
     T02270099=
KJKJ 231635Z AUTO 15012G18KT 10SM CLR 19/10 A2947 RMK AO2 TSNO=
KLJF 231635Z AUTO 14013KT 10SM CLR 21/11 A2953 RMK AO2=
KMGG 231635Z AUTO 12007KT 090V150 10SM CLR 21/11 A2958 RMK AO2
     T02050107=
KMGN 231635Z AUTO 14006KT 10SM CLR 22/12 A3003 RMK AO2
     T02240122=
KMQJ 231635Z AUTO RMK AO1=
KMVE 231635Z AUTO 14019G24KT 10SM CLR 20/12 A2945 RMK AO2=
KOZW 231635Z AUTO 15010G14KT 10SM CLR 20/11 A3012 RMK AO2
     T02030114=
KPWC 231635Z AUTO 13007KT 10SM CLR 19/11 A2963 RMK AO2=
KROX 231635Z AUTO 06015KT 10SM CLR 12/08 A2960 RMK AO2=
KTEW 231635Z AUTO 14010G18KT 10SM CLR 23/11 A3010 RMK AO2
     T02250109=
PAAD 231635Z AUTO 10015KT 10SM OVC007 M09/M10 A3002 RMK AO2
     T10901100=
PAUT 231635Z AUTO 19004KT 10SM CLR 05/03 A3025 RMK AO2=
KCXE 231635Z AUTO 36006KT 10SM CLR 16/07 A3022 RMK AO1
     T01570073=
KCXP 231635Z AUTO 00000KT 10SM CLR 02/M03 A3004 RMK AO2=
KCXU 231635Z AUTO 04004KT 10SM CLR 23/05 A3019 RMK AO1
     T02340049=
KCXW 231635Z AUTO 16011G17KT 10SM OVC030 23/16 A2997 RMK A01=
KCZL 231635Z AUTO 00000KT 10SM CLR 19/06 A3025 RMK AO2=
KDCM 231635Z AUTO 31005KT 10SM CLR 20/07 A3023 RMK AO2=
KDEH 231635Z AUTO 16008G21KT 10SM CLR 21/12 A2969 RMK AO2=
KDKX 231635Z AUTO 00000KT 10SM CLR 19/06 A3024 RMK A01=
KDTA 231635Z AUTO 35011G18KT 10SM SCT047 BKN050 OVC065 02/M01
     A2978 RMK AO1=
KDUA 231635Z AUTO 19017G25KT 10SM SCT025 25/16 A2986 RMK AO2=
KDZB 231635Z AUTO 19011G19KT 10SM SCT029 OVC036 25/17 A2991 RMK
     AO2 T02460166=
KECS 231635Z AUTO 34021G26KT 10SM BKN090 07/00 A2934 RMK AO2=
KEDN 231635Z AUTO 00000KT 10SM CLR 22/05 A3019 RMK AO2
     T02200052=
KEGV 231635Z AUTO 15007KT 10SM CLR 19/11 A2984 RMK AO2
     T01880110=
KEIK 231635Z AUTO 05003KT 10SM CLR 17/M07 A2930 RMK AO2 T01721072
     PWINO=
KEKS 231630Z AUTO 03007KT 4SM -SN SCT038 BKN046 M01/M02 A2977 RMK
     AO2=
KERV 231635Z AUTO 16015G23KT 10SM BKN025 23/17 A2992 RMK AO2
     T02340171=
KF05 231635Z AUTO 20024G30KT 10SM CLR 29/12 A2969 RMK AO2
     T02900124=
KF17 231635Z AUTO 18016G23KT 10SM SCT050 27/13 A3000 RMK AO2=
KF44 231635Z AUTO 18015G21KT 160V220 10SM BKN032 BKN039 26/17
     A2991 RMK AO2=
KF46 231635Z AUTO 20016G31KT 10SM BKN031 OVC035 26/17 A2988 RMK
     AO2 T02590166=
KFGX 231635Z AUTO 27008KT 10SM CLR 23/09 A3021 RMK AO2
     T02270092=
KFKN 231635Z AUTO 35005KT 10SM OVC007 14/12 A3017 RMK AO2
     T01420124=
