SAUS70 KWBC 231800 RRE
METAR
KSRQ 231753Z 09009KT 10SM FEW049 28/16 A3005 RMK AO2 SLP176
     T02830161 10294 20172 58019=
KSSI 231753Z AUTO 08012KT 10SM CLR 24/15 A3014 RMK AO2 SLP208
     T02440150 10250 20139 58013=
KSTJ 231753Z 18026G38KT 10SM CLR 26/14 A2953 RMK AO2 PK WND
     18038/1751 SLP991 T02560144 10267 20172 58010=
KTCC 231753Z AUTO 22027G44KT 10SM CLR 24/09 A2961 RMK AO2 PK WND
     22045/1740 SLP971 60000 T02390089 10239 20144 58011=
KTDZ 231753Z AUTO 19011G21KT 10SM FEW055 24/11 A3013 RMK AO2
     SLP199 T02390106 10250 20122 58013=
KTHV 231753Z AUTO 04005KT 10SM OVC044 16/08 A3025 RMK AO2 SLP248
     T01610083 10167 20050 56010=
KTKI 231753Z 18023G35KT 10SM BKN040 28/16 A2983 RMK AO2 PK WND
     17035/1749 SLP097 T02780161 10278 20206 58008=
KTMB 231753Z 08009KT 10SM FEW050 29/18 A3003 RMK AO2 SLP170
     T02890183 10300 20211 58015=
KTOP 231753Z 18024G36KT 10SM CLR 29/14 A2954 RMK AO2 PK WND
     17038/1707 SLP992 T02890144 10294 20222 58007=
KEYW 231753Z 05011KT 10SM CLR 28/20 A3004 RMK AO2 SLP172 T02780200
     10278 20233 58011=
KFAY 231753Z 36011KT 10SM CLR 22/07 A3015 RMK AO2 SLP203 T02170067
     10222 20122 58013 $=
KFDY 231753Z AUTO 18011KT 10SM FEW050 25/11 A3011 RMK AO2 SLP190
     T02500111 10250 20122 58016=
KFFT 231753Z AUTO 19005KT 10SM CLR 24/08 A3013 RMK AO2 SLP196
     T02440083 10250 20111 58016=
KFLD 231753Z AUTO 15013G22KT 10SM CLR 23/12 A2983 RMK AO2 SLP099
     T02330117 10233 20139 58017=
KFLL 231753Z 07010KT 10SM FEW041 FEW060 28/19 A3004 RMK AO2 SLP171
     T02830194 10289 20206 58012 $=
KFLO 231753Z VRB06KT 10SM CLR 23/06 A3016 RMK AO2 SLP210 T02330061
     10233 20111 58015 $=
KFMY 231753Z 05009G16KT 10SM SCT048 28/17 A3005 RMK AO2 SLP177
     T02830167 10294 20189 58018=
KFOE 231753Z 18028G35KT 10SM CLR 28/16 A2954 RMK AO2 SLP992
     T02830161 10283 20211 58008 $=
KFPR 231753Z 02009G18KT 10SM CLR 27/18 A3007 RMK AO2 SLP183
     T02720183 10278 20183 58010=
KFRG 231753Z 03006KT 10SM BKN060 OVC100 14/11 A3027 RMK AO2 RAE45
     SLP249 P0000 60000 T01440106 10150 20139 55009 $=
KFST 231753Z AUTO 24012KT 10SM CLR 29/08 A2979 RMK AO2 SLP043
     T02890078 10294 20161 58003 $=
KFTW 231753Z 16020G31KT 10SM FEW040 28/17 A2981 RMK AO2 PK WND
     17031/1751 SLP085 T02780167 10283 20200 58005 $=
KFUL 231753Z VRB04KT 10SM BKN035 19/11 A2986 RMK AO2 SLP109
     T01940106 10200 20139 51014=
KFVE 231753Z AUTO 15004KT 10SM CLR 18/06 A3031 RMK AO2 SLP265
     T01830061 10183 20061 58013=
KFWN 231753Z AUTO 05007KT 10SM BKN110 15/07 A3028 RMK AO2 SLP256
     T01500072 10150 20067 $=
KFWS 231752Z 18018G30KT 10SM SCT039 28/15 A2984=
KGAG 231753Z AUTO 20025G31KT 10SM CLR 28/12 A2956 RMK AO2 PK WND
     18031/1743 SLP980 60000 T02780117 10283 20189 58012=
KGEY 231753Z AUTO 33015KT 8SM -RA FEW009 BKN014 OVC023 02/01 A2960
     RMK AO2 SLP032 P0001 60004 T00220011 10050 20022 51027=
KGEZ 231753Z AUTO 17017G23KT 10SM CLR 26/11 A3006 RMK AO2 SLP174
     T02560111 10256 20167 58014=
KGFL 231753Z AUTO 00000KT 10SM CLR 17/06 A3031 RMK AO2 SLP266
     T01720061 10172 20000 58019=
KGGG 231753Z 18018G26KT 10SM BKN043 28/16 A2993 RMK AO2 PK WND
     20026/1727 SLP127 T02830156 10289 20178 58005=
KGGW 231753Z AUTO 05013KT 3SM RA BR OVC021 02/01 A2956 RMK AO2
     SLP025 P0010 60018 T00220006 10061 20022 53014=
KGIF 231753Z AUTO 34006KT 10SM FEW050 A3010 RMK AO2 SLPNO
     58017=
KGJT 231753Z VRB04KT 10SM -RA FEW021 BKN035 OVC042 06/03 A2958 RMK
     AO2 RAE14B39 SLP992 P0001 60013 T00610028 10061 20044
     50004=
