SAUS80 KWBC 231800
METAR
KM25 231755Z AUTO 20015G21KT 160V230 10SM CLR 25/10 A3005 RMK AO2
     PWINO=
