SAUS70 KWBC 231920 RRK
METAR
KMWO 231915Z AUTO 20011G17KT 10SM SCT055 25/08 A3010 RMK AO2
     T02510080=
KPHN 231915Z AUTO 15015KT 10SM CLR 24/07 A3012 RMK AO2=
KPMH 231915Z AUTO 17005KT 10SM CLR 26/03 A3014 RMK AO2
     T02630030=
KTYQ 231915Z AUTO 18014G19KT 10SM SCT050 25/11 A3001 RMK AO2
     T02500107=
KVVS 231915Z AUTO 15003KT 10SM CLR 22/01 A3020 RMK AO2
     T02240009=
KVYS 231915Z AUTO 17024G30KT 10SM CLR 25/14 A2979 RMK AO2
     T02540141=
KWBF 231910Z AUTO 00000KT 10SM 27/18 A3003 RMK A01=
