SASA41 KWBC 231800 RRA
METAR
SKBG 231800Z 32004KT 9999 BKN017TCU SCT270 26/21 Q1014 RMK TCUE/SE
     A2996=
SKMD 231800Z 02010KT 9999 FEW040 SCT100 26/16 Q1018 RMK A3007=
SKPE 231800Z 19005KT 9999 SCT025TCU 26/18 Q1016 RMK TCUSE
     A3000=
SKSM 231800Z 27003KT 9999 FEW017TCU SCT070 30/25 Q1011 RMK TCUE
     A2986=
