SAUS70 KWBC 231700 RRL
METAR
KLOM 231655Z AUTO 06004KT 10SM SCT075 SCT120 17/11 A3026 RMK AO2
     T01680107=
KMGC 231655Z AUTO 16012G19KT 140V200 10SM CLR 23/12 A2998 RMK
     AO2=
KONL 231655Z AUTO 16022G25KT 10SM CLR 23/05 A2924 RMK AO2
     T02250048=
K0CO 231655Z AUTO 29014G24KT 3SM -SN SCT002 BKN010 OVC037 M04/M07
     A2962 RMK AO2=
K2R9 231655Z AUTO 17014G25KT 10SM SCT035 SCT044 29/18 A2991 RMK
     AO2=
K2V5 231655Z AUTO 24022G35KT 10SM CLR 25/M04 A2924 RMK AO2=
K5SM 231655Z AUTO 3/4SM -SN OVC002 M04/M06 A2964 RMK AO2=
K81R 231655Z AUTO 17016G22KT 10SM BKN031 26/17 A2987 RMK AO2
     T02560167=
KBPG 231655Z AUTO 19017KT 10SM CLR 25/13 A2979 RMK AO2
     T02500131=
KCFD 231655Z AUTO 17016G24KT 10SM SCT030 BKN035 OVC050 27/18 A2995
     RMK AO2 T02740183=
KELA 231655Z AUTO 18015G20KT 10SM SCT043 SCT050 BKN060 29/18 A2994
     RMK AO2 T02870176=
KJDD 231655Z AUTO 17008KT 130V200 10SM SCT030 BKN037 OVC043 26/18
     A2992 RMK AO2=
KLHB 231655Z AUTO 17013G23KT 10SM SCT032 SCT040 BKN050 27/18 A2994
     RMK AO2 T02700181=
KLHM 231655Z AUTO 34013KT 10SM CLR 13/01 A2997 RMK AO1=
KLUD 231655Z AUTO 17018G25KT 10SM CLR 26/16 A2981 RMK AO2
     T02590156=
KMDD 231655Z AUTO 19014G19KT 10SM CLR 26/10 A2980 RMK AO2
     T02620104=
KPSO 231655Z AUTO 26014G25KT 4SM UP SCT008 OVC013 04/03 A2968 RMK
     AO2 T00350032=
KE42 231655Z AUTO 21023G36KT 10SM CLR 28/10 A2959 RMK AO2
     T02770096=
KEBG 231655Z AUTO 15017G23KT 10SM SCT041 30/20 A2986 RMK AO2
     T03040195 PWINO=
KEMM 231655Z AUTO 29021G28KT 10SM SCT040 M01/M05 A2964 RMK AO2=
KF00 231655Z AUTO 19022G27KT 10SM BKN031 25/17 A2987 RMK AO2
     T02540169=
KGYI 231650Z 17026G31KT 10SM SKC 26/16 A2985=
KMYP 231655Z AUTO OVC002 M04/M05 A2972 RMK AO2 PWINO=
KRAS 231655Z AUTO 16016G22KT 10SM OVC050 A2994 RMK AO2=
KRYW 231655Z AUTO 19012G21KT 10SM SCT024 BKN031 BKN039 24/17 A2992
     RMK AO2 T02410170=
KS33 231655Z AUTO 00000KT 10SM CLR 05/00 A3010 RMK AO2=
KSTK 231655Z AUTO 27009G17KT 10SM CLR 21/00 A2924 RMK AO2=
KT74 231655Z AUTO 18019G31KT 10SM SCT032 BKN044 BKN050 27/17 A2991
     RMK AO2 T02690170=
KT82 231655Z AUTO 18019G23KT 10SM BKN030 24/16 A2991 RMK AO2
     T02410160=
KTEX 231655Z AUTO 26011G18KT 220V280 10SM SCT038 BKN060 OVC070
     02/M04 A2967 RMK AO2=
KVHN 231655Z AUTO 22016G20KT 10SM CLR 26/08 A2989 RMK AO2
     T02570078=
KVTP 231655Z AUTO 24018G35KT 10SM BKN026 BKN030 OVC036 M07/M15
     A2958 RMK AO2=
K4S2 231655Z AUTO 00000KT 10SM CLR 10/04 A3010 RMK AO2=
K66R 231655Z AUTO 17009G16KT 10SM SCT042 OVC060 28/18 A2995 RMK
     AO2 T02760175=
KAJZ 231655Z AUTO 19006KT 10SM SCT033 BKN045 BKN090 07/04 A2964
     RMK AO2 T00650036=
KAQO 231655Z AUTO 20017G23KT 10SM BKN036 26/16 A2988 RMK AO2=
KBBD 231655Z AUTO 17017G28KT 10SM CLR 24/16 A2986 RMK AO2=
KBYY 231655Z AUTO 18017G24KT 10SM SCT040 BKN060 28/17 A2997 RMK
     AO2 T02840175=
KCCU 231655Z AUTO 28016KT 1/4SM -SN OVC001 M02/M05 A2962 RMK
     AO2=
KDKB 231655Z AUTO 16018G25KT 10SM CLR 21/14 A2989 RMK AO2
     T02140142=
KDKR 231655Z AUTO 16010G19KT 10SM SCT036 SCT045 BKN050 26/18 A2995
     RMK AO2=
KE16 231655Z AUTO 34014G18KT 10SM CLR 13/05 A3001 RMK AO2=
KE41 231655Z AUTO 18011G20KT 10SM CLR 22/15 A2986 RMK AO2
     T02210153=
KFMM 231655Z AUTO 27017KT 10SM CLR 19/M02 A2927 RMK AO2=
KGCD 231655Z AUTO 28005KT 10SM SCT014 OVC032 02/00 A3004 RMK AO2
     T00180000=
KGVT 231655Z AUTO 19023G32KT 10SM SCT035 27/16 A2989 RMK AO2 TSNO
     T02660158=
KLAM 231655Z AUTO 19021G30KT 10SM BKN060 OVC065 11/M01 A2972 RMK
     AO2 T01101013=
KMNH 231655Z AUTO 23023G31KT 10SM CLR 16/M04 A2943 RMK AO2=
