SAUS70 KWBC 231618 RRH
METAR
KERV 231615Z AUTO 17013G23KT 10SM OVC020 23/18 A2992 RMK AO2
     T02290175=
KERY 231615Z AUTO 17013G18KT 10SM CLR 19/11 A3001 RMK AO2
     T01850114=
KF05 231615Z AUTO 20021G27KT 10SM CLR 29/13 A2970 RMK AO2
     T02870125=
KF17 231615Z AUTO 17016G24KT 10SM CLR 27/13 A3000 RMK AO2=
KF44 231615Z AUTO 19011G21KT 10SM SCT030 25/17 A2992 RMK AO2=
KF46 231615Z AUTO 19017G25KT 10SM OVC027 25/17 A2988 RMK AO2
     T02540174=
KFFX 231615Z AUTO 16005KT 10SM SCT050 BKN070 22/11 A3002 RMK AO2
     T02210111=
KFGX 231615Z AUTO 22006KT 10SM CLR 22/09 A3021 RMK AO2
     T02210090=
KFKA 231615Z AUTO 15016G21KT 7SM CLR 19/12 A2968 RMK AO2
     T01920122=
KFKN 231615Z AUTO 33006KT 10SM OVC009 14/13 A3017 RMK AO2
     T01410125=
KFLY 231615Z AUTO 22029G43KT CLR 15/M04 A2945 RMK AO2 T01521040
     PWINO=
KFOT 231610Z AUTO 29004KT 6SM CLR 09/09 A3014 RMK AO1=
KFSO 231615Z AUTO 20003KT 10SM CLR 19/06 A3034 RMK AO2
     T01870062=
KFTN 231615Z AUTO 14011KT 10SM CLR 24/19 A2987 RMK A01=
KFYE 231610Z AUTO 19012G21KT 10SM CLR 23/14 A3008 RMK A01=
KFYM 231620Z AUTO 18010KT 10SM CLR 21/07 A3022 RMK A01=
KGAO 231615Z AUTO 11007KT 090V150 10SM CLR 26/16 A3013 RMK AO2
     T02620162=
KGCY 231615Z AUTO 23005KT 10SM CLR 18/03 A3025 RMK A01=
KGDJ 231615Z AUTO 18019G26KT 10SM CLR 26/16 A2985 RMK AO2
     T02570163=
KGGI 231615Z AUTO 16018KT 10SM CLR 23/14 A2966 RMK AO2
     T02300142=
KGHB 231615Z AUTO VRB03G13KT 8SM SCT043 OVC060 26/18 A3006 RMK
     A01=
KGKT 231615Z AUTO 00000KT 10SM CLR 20/07 A3024 RMK A01=
KGLX 231615Z AUTO 06008KT 10SM CLR 25/12 A3014 RMK A01=
KGOO 231615Z AUTO VRB04KT 10SM CLR 09/M06 A2995 RMK A01=
KGRY 231615Z AUTO 13009KT 10SM FEW045 BKN055 25/15 A3011 RMK
     A01=
KGYB 231615Z AUTO 18015G21KT 10SM BKN029 BKN042 OVC050 26/19 A2994
     RMK AO2 T02570185=
KGZS 231615Z AUTO 16005KT 10SM CLR 20/10 A3019 RMK A01=
KH71 231615Z AUTO 19017G33KT 10SM CLR 26/16 A2975 RMK AO2=
KHAI 231615Z AUTO 17012G19KT 10SM CLR 21/12 A3006 RMK AO2
     T02110116=
KHCD 231615Z AUTO 14016G23KT 10SM CLR 21/12 A2955 RMK AO2
     T02090118=
KHFJ 231615Z AUTO 18017G24KT 10SM SCT110 25/14 A2979 RMK AO2=
KHHF 231615Z AUTO 20013KT 10SM VCTS SCT110 25/13 A2961 RMK AO2
     T02480130=
KHHV 231615Z AUTO 18018KT 10SM CLR 26/16 A2997 RMK A01=
KHLB 231615Z AUTO VRB06G14KT 10SM CLR 21/10 A3014 RMK A01=
KHLX 231615Z AUTO 00000KT 10SM CLR 16/M04 A3026 RMK AO2
     T01571038=
KLNC 231615Z AUTO 18019G27KT 10SM BKN030 BKN034 25/17 A2988 RMK
     AO2 T02470169=
KLNP 231615Z AUTO 33004KT 10SM CLR 17/03 A3028 RMK AO2=
KLNQ 231615Z AUTO 13007KT 10SM SCT041 28/14 A3015 RMK AO2
     T02760140=
KLUG 231615Z AUTO 20014KT 10SM CLR 21/08 A3017 RMK A01=
KLVN 231615Z AUTO 14014G20KT 10SM CLR 21/11 A2961 RMK AO2=
KLWA 231615Z AUTO 15008G16KT 120V180 10SM SCT055 SCT075 21/11
     A3001 RMK AO2 T02080112=
KLXL 231615Z AUTO 13010KT 10SM CLR 20/11 A2957 RMK AO2=
KLXY 231615Z AUTO 18020G37KT 10SM BKN035 BKN041 26/17 A2991 RMK
     AO2 T02580168=
KLYO 231615Z AUTO 18026KT 3 1/2SM HZ SCT011 25/12 A2950 RMK AO2
     T02530119=
KM02 231615Z AUTO 21014G20KT 10SM 22/08 A3014 RMK A01=
KM04 231615Z AUTO 20011G18KT 10SM FEW034 24/15 A3007 RMK A01=
KM08 231615Z AUTO 18010G17KT 150V210 10SM CLR 23/13 A3010 RMK
     A01=
KM30 231615Z AUTO 19012G20KT 10SM SCT047 24/13 A3005 RMK AO2
     T02360130=
KM54 231610Z AUTO 18011G18KT 10SM CLR 23/06 A3015 RMK A01=
KM75 231615Z AUTO 01016KT 10SM OVC015 02/02 A2957 RMK A01=
KM91 231610Z AUTO 21012KT 10SM CLR 22/10 A3014 RMK A01=
KMBT 231615Z AUTO 20010G18KT 10SM CLR 23/05 A3016 RMK A01=
