SAUS70 KWBC 232000
METAR
KAFN 231952Z AUTO 00000KT 10SM CLR 14/08 A3033 RMK AO2 SLP282
     T01440083=
KAQW 231952Z AUTO VRB04KT 10SM CLR 17/03 A3029 RMK AO2 SLP261
     T01720028=
KARR 231952Z 16019G33KT 10SM CLR 25/14 A2980 RMK AO2 PK WND
     18035/1936 SLP088 T02500139=
KBLF 231952Z AUTO VRB03KT 10SM CLR 20/00 A3021 RMK AO2 SLP211
     T02000000=
KBML 231952Z AUTO 19004KT 10SM CLR 18/06 A3034 RMK AO2 SLP280
     T01830061=
KBRL 231953Z AUTO 17017G28KT 10SM CLR 24/14 A2969 RMK AO2 PK WND
     18028/1953 SLP050 T02440144=
KBYI 231953Z AUTO 27012G24KT 10SM SCT034 07/M01 A2986 RMK AO2 PK
     WND 28028/1932 SLP108 T00721011=
KCFV 231952Z AUTO 17024G36KT 10SM CLR 28/15 A2960 RMK AO2 PK WND
     18039/1925 SLP016 T02830150 PWINO $=
KCQX 231952Z AUTO 03006KT 6SM RA BR OVC006 15/13 A3027 RMK AO2
     SLP252 P0003 T01500133=
KCVG 231952Z 18009KT 10SM FEW055 25/08 A3008 RMK AO2 SLP177
     T02500083=
KDCA 231952Z 06009KT 10SM BKN032 BKN050 OVC100 18/12 A3020 RMK AO2
     SLP225 T01830122 $=
KDDC 231952Z AUTO 22036G55KT 3SM HZ CLR 32/06 A2938 RMK AO2 PK WND
     22060/1859 SLP910 T03170056 $=
KDLN 231953Z AUTO 12007KT 10SM BKN047 OVC055 M01/M02 A2980 RMK AO2
     SLP113 T10061022=
KDPA 231952Z 17019G34KT 10SM CLR 26/13 A2982 RMK AO2 PK WND
     18034/1943 SLP092 T02560133=
KDVN 231952Z AUTO 15020G30KT 10SM CLR 25/14 A2972 RMK AO2 PK WND
     16030/1951 SLP057 T02500139=
KDVP 231953Z AUTO 14027G34KT 10SM CLR 24/12 A2935 RMK AO2
     T02440124=
KFIT 231952Z AUTO 00000KT 10SM CLR 14/06 A3033 RMK AO2 SLP274
     T01440061=
KFOZ 231953Z AUTO 12012G17KT 10SM CLR 23/11 A2962 RMK AO2=
KGLS 231952Z 16014KT 10SM CLR 28/21 A2992 RMK AO2 SLP131
     T02830206=
KHIE 231952Z AUTO 00000KT 10SM CLR 18/08 A3033 RMK AO2 SLP277
     T01780078=
KHRL 231952Z 16021G30KT 10SM BKN047 32/19 A2978 RMK AO2 PK WND
     18034/1903 SLP085 T03170189 $=
KHUT 231952Z 17028G42KT 3SM BLDU FEW026 29/12 A2942 RMK AO2 PK WND
     17045/1911 SLP940 T02940122=
KIAD 231952Z 34009KT 10SM CLR 19/11 A3020 RMK AO2 SLP226
     T01890111=
KIEN 231952Z AUTO 31014G20KT 10SM CLR 15/02 A2930 RMK AO2 SLP915
     T01500022=
KIJD 231952Z AUTO 01005KT 9SM -RA BKN110 13/08 A3030 RMK AO2
     SLP260 P0000 T01330083=
KIOW 231952Z AUTO 16021G32KT 10SM CLR 25/14 A2967 RMK AO2 PK WND
     16032/1947 SLP044 T02500139=
KLAA 231953Z AUTO 22025G43KT 10SM FEW110 27/M01 A2932 RMK AO2 PK
     WND 22045/1941 SLP877 T02721011=
KLWC 231952Z AUTO 19022G32KT 10SM VCTS SCT120 27/14 A2957 RMK AO1
     PK WND 16038/1908 LTG DSNT NW-NE PRESRR SLP005 T02670144=
KMDH 231952Z 18023G33KT 10SM FEW049 26/14 A2991 RMK AO2 PK WND
     19043/1932 SLP126 T02610139=
KMEB 231952Z AUTO 36011G17KT 10SM CLR 24/05 A3014 RMK AO2 SLP204
     T02390050=
KMKE 231952Z 14015KT 10SM FEW045 21/13 A2983 RMK AO2 SLP100
     T02110128 $=
KMLI 231952Z 15018G27KT 10SM CLR 25/14 A2969 RMK AO2 PK WND
     14031/1914 SLP052 T02500139=
KNQA 231950Z 17010G17KT 10SM FEW048 26/12 A2997=
KOKB 231952Z AUTO 24007KT 190V270 8SM BKN041 21/11 A2985 RMK AO2
     SLP106 T02110111=
KOKC 231952Z 19019G30KT 10SM FEW100 BKN130 BKN250 27/15 A2965 RMK
     AO2 PK WND 18033/1915 SLP023 T02670150=
KORB 231953Z AUTO 10SM SCT095 22/11 A2960 RMK AO2=
KORE 231952Z AUTO 00000KT 10SM CLR 14/09 A3033 RMK AO2 SLP272
     T01440089=
KOWA 231953Z AUTO 13018G31KT 10SM CLR 24/13 A2951 RMK AO2=
KPWK 231952Z 17024G34KT 10SM FEW050 26/13 A2984 RMK AO2 PK WND
     16034/1949 SLP102 T02560133=
KPYM 231952Z AUTO 02008KT 10SM BKN070 OVC090 14/12 A3029 RMK AO2
     SLP261 T01440122=
