SAUS70 KWBC 231800 RRK
METAR
KMOT 231754Z 04018G26KT 10SM OVC008 08/05 A2946 RMK AO2 PK WND
     03027/1740 SLP986 T00830050 10083 20061 58017 $=
KMRY 231754Z 33005KT 10SM CLR 14/06 A3002 RMK AO2 SLP176 T01440061
     10144 20078 51019=
KN38 231755Z AUTO 19006G11KT 10SM CLR 16/03 A3027 RMK AO2=
KO22 231755Z AUTO VRB03KT 10SM CLR 15/M03 A2994 RMK A01=
KO32 231755Z AUTO VRB04KT 10SM CLR 15/03 A2994 RMK AO2 T01490034
     $=
KOCQ 231755Z AUTO 15012G16KT 10SM CLR 19/12 A2988 RMK AO1
     T01880121 10189 20102=
KOLG 231755Z AUTO 15009G14KT 10SM SCT070 22/10 A2967 RMK AO1=
KORS 231755Z AUTO 18007KT 10SM BKN012 10/09 A3012 RMK AO2
     P0003=
KOZS 231755Z AUTO 19015G22KT 10SM CLR 27/12 A2977 RMK AO2=
KPAN 231755Z AUTO 20010G17KT 10SM FEW016 SCT023 BKN029 11/06 A2986
     RMK AO2 PWINO TSNO=
KPGV 231755Z AUTO 01009KT 10SM OVC016 18/16 A3012 RMK AO2=
KPLN 231754Z AUTO 18014G21KT 10SM CLR 24/11 A3002 RMK AO2 SLP163
     T02390106 10239 20072 58009 $=
KPLR 231755Z AUTO 26005KT 10SM CLR 24/06 A3019 RMK A01=
KPVB 231755Z AUTO 15018KT 10SM CLR 23/12 A2976 RMK AO1 T02260120
     10229 20143=
KPVF 231755Z AUTO 27003KT 10SM CLR 13/M04 A2997 RMK AO1=
KRBL 231754Z AUTO 34014KT 10SM CLR 17/M01 A3007 RMK AO2 SLP179
     T01671011 10172 20100 50014=
KRCE 231755Z AUTO 18026G33KT 10SM CLR 25/16 A2967 RMK AO2=
KRMN 231755Z AUTO 35005KT 10SM SCT018 OVC034 18/12 A3024 RMK AO2
     T01750124 10175 20100=
KRNH 231755Z AUTO 13012G19KT 10SM CLR 23/16 A2962 RMK AO2
     T02250161 10225 20137=
KRPH 231755Z AUTO 17013G21KT 10SM CLR 28/15 A2974 RMK AO2
     T02840151 $=
KIRS 231755Z AUTO 18015G25KT 10SM CLR 23/10 A3003 RMK AO2
     T02310096 10231 20135=
KISQ 231755Z AUTO 13009KT 10SM CLR 16/11 A2997 RMK AO2 T01590109
     10159 20094=
KITH 231756Z 00000KT 10SM CLR 19/04 A3027 RMK AO2 SLP253 T01940039
     10200 20028 58017=
KIWD 231756Z AUTO 17012G24KT 10SM FEW110 21/12 A2975 RMK AO2 PK
     WND 17028/1742 SLP069 T02110122 10211 20144 58006=
KJAC 231756Z 28011G16KT 10SM BKN030 OVC070 01/M06 A2967 RMK AO2
     UPB09E18SNE09 SLP066 6//// T00061056 10011 21017 51017 PNO
     $=
KJRB 231756Z AUTO 03010KT 10SM UP FEW030 BKN042 OVC050 A3027 RMK
     AO2 RAE39UPB1659E06B39 SLPNO P0000 60000 56007 FZRANO $=
KJYG 231755Z AUTO 14020G28KT 10SM CLR 23/12 A2946 RMK AO2=
KJYM 231755Z AUTO 17011G17KT 10SM CLR 23/08 A3008 RMK AO2
     T02310084 10231 20110=
KLBL 231756Z AUTO 21034G41KT 2 1/2SM HZ FEW008 29/06 A2949 RMK AO2
     PK WND 21046/1726 VIS 1 3/4V5 SLP949 T02940061 10294 20189
     58012=
KLCI 231756Z AUTO 00000KT 10SM CLR 15/07 A3035 RMK AO2 SLP280
     T01500072 10150 20044 58017=
KLEW 231756Z AUTO 00000KT 10SM CLR 17/08 A3036 RMK AO2 SLP289
     T01670078 10167 20033 58014=
KLLJ 231755Z AUTO 33013G16KT 10SM OVC055 03/M08 A2984 RMK AO2
     SLP110 T00331078 10033 21017 51016 $=
KLPC 231756Z AUTO 33010G16KT 10SM CLR 19/04 A2992 RMK AO2 SLP132
     T01890044 10189 20061 50009=
KLRD 231756Z 16018G22KT 10SM CLR 31/18 A2981 RMK AO2 PK WND
     14027/1718 SLP091 T03060183 10306 20206 58013=
KLVS 231753Z AUTO 23035G48KT 10SM FEW085 16/M02 A2970 RMK AO2 PK
     WND 22051/1713 SLP958 T01611017 10167 20111 55008=
KLWA 231755Z AUTO 16018G26KT 120V180 10SM CLR 25/12 A2997 RMK AO2
     T02450121 10245 20160=
KLXL 231755Z AUTO 13013G22KT 10SM CLR 22/12 A2953 RMK AO2=
KM19 231756Z AUTO 19021G28KT 10SM BKN038 25/15 A2996 RMK AO2 PK
     WND 19031/1708 SLP143 6//// T02500150 10250 20172 58012 PNO
     $=
KMBL 231756Z AUTO 14010G17KT 9SM CLR 23/12 A2994 RMK AO2 SLP136
     T02280122 10228 20117 58017=
