SAUS70 KWBC 231900
METAR
KRID 231855Z AUTO 20014KT 10SM SCT050 23/12 A3011 RMK AO2=
