SAUS70 KWBC 231900 RRB
METAR
KSJT 231851Z 18016G27KT 10SM CLR 29/13 A2975 RMK AO2 PK WND
     20027/1811 SLP051 T02890133=
KTPL 231851Z AUTO 16022G28KT 10SM BKN049 29/17 A2983 RMK AO2 PK
     WND 17032/1810 SLP090 T02940167=
K2C8 231855Z AUTO 04010G17KT 10SM CLR 15/08 A2950 RMK AO2=
KALN 231850Z 18021G32KT 10SM BKN030 23/14 A2985=
KBED 231851Z 04004KT 10SM CLR 16/09 A3032 RMK AO2 SLP282
     T01560094=
KD50 231855Z AUTO 05021G28KT 10SM OVC014 05/03 A2954 RMK AO2=
KDAW 231851Z AUTO 10004KT 10SM CLR 18/08 A3034 RMK AO2 SLP274
     T01780078=
KGYY 231845Z 16014G28KT 10SM CLR 26/13 A2990=
KLWB 231851Z 00000KT 10SM CLR 20/03 A3021=
KMPV 231851Z AUTO 16004KT 10SM CLR 20/03 A3035 RMK AO2 SLP281
     T02000033=
KOQU 231850Z 03012KT 8SM OVC110 15/12 A3030=
KORD 231851Z 18019G33KT 10SM FEW055 26/13 A2985 RMK AO2 PK WND
     18033/1849 SLP104 T02560128=
KOXC 231851Z 04007KT 10SM -RA BKN100 13/07 A3029 RMK AO2 RAB06
     SLP270 P0000 T01330072=
KPWM 231851Z 11004KT 10SM FEW120 BKN150 OVC200 14/11 A3036 RMK AO2
     SLP281 SUN DMLY VSBL T01440111=
KSLK 231851Z AUTO 00000KT 10SM CLR 20/03 A3028 RMK AO2 SLP260
     T02000028=
KUNV 231853Z 28004KT 10SM OVC031 18/08 A3026=
KY51 231855Z AUTO 14019G24KT 10SM CLR 23/14 A2969 RMK AO1
     T02250144=
