SAUS70 KWBC 232038 RRF
METAR
K5H4 232035Z AUTO 07020G30KT 10SM CLR 15/02 A2936 RMK AO2=
K6B9 232035Z AUTO 12005KT 10SM CLR 20/00 A3025 RMK AO2=
K7L2 232035Z AUTO 10016KT 10SM CLR 20/11 A2924 RMK AO2=
K96D 232035Z AUTO 03013KT 10SM CLR 15/09 A2948 RMK AO2=
K9D7 232035Z AUTO 05018G26KT 10SM CLR 14/08 A2943 RMK AO2 TSNO=
KBAC 232035Z AUTO 11018G25KT 10SM CLR 23/13 A2931 RMK AO2=
KBWW 232035Z AUTO 36018KT 10SM OVC010 06/06 A2935 RMK AO2=
KD57 232035Z AUTO 05011KT 10SM OVC031 13/04 A2930 RMK AO2=
KEKM 232035Z AUTO 15014G22KT 9SM CLR 24/12 A2997 RMK AO2 PK WND
     17028/1952 T02450118=
KGWR 232035Z AUTO 12022G32KT 9SM CLR 22/13 A2928 RMK A01=
KHZE 232035Z AUTO 04010G17KT 10SM CLR 12/06 A2935 RMK AO2=
KI67 232035Z AUTO 19009KT 10SM CLR 25/07 A3006 RMK AO1=
KI68 232035Z AUTO 15010G15KT 10SM CLR 25/09 A3008 RMK AO1
     T02450090=
KIDI 232035Z AUTO 11007KT 10SM CLR 20/02 A3025 RMK A01=
KMDS 232035Z AUTO 14020G31KT 10SM CLR 25/12 A2924 RMK AO2=
KN38 232035Z AUTO 19007KT 10SM CLR 17/08 A3025 RMK AO2=
KOCQ 232035Z AUTO 16013G17KT 10SM CLR 18/12 A2984 RMK AO1
     T01800119=
KOLG 232035Z AUTO 16013G24KT 10SM SCT046 23/11 A2961 RMK AO1=
KRYV 232035Z AUTO 15013G21KT 10SM SCT045 24/12 A2977 RMK AO2
     T02350121=
KRZL 232035Z AUTO 15016G24KT 10SM CLR 25/10 A2993 RMK AO2=
KS32 232035Z AUTO 09019G25KT 10SM CLR 23/11 A2934 RMK AO2 TSNO=
KSPF 232035Z AUTO 30017G23KT 10SM OVC014 04/01 A2943 RMK AO2=
KTME 232035Z AUTO 17010G19KT 10SM BKN060 BKN070 31/15 A2988 RMK
     AO2=
KY19 232035Z AUTO 07010G17KT 10SM CLR 16/09 A2927 RMK AO2=
K0S9 232035Z AUTO 11008G14KT 10SM SCT025 12/07 A3013 RMK AO2=
KATA 232035Z AUTO 17010G17KT 140V200 10SM BKN060 29/14 A2985 RMK
     AO2 SLP008 T02890144 $=
KBVU 232035Z AUTO 04013KT 10SM CLR 17/M09 A2984 RMK AO2=
KBXK 232035Z AUTO 25010KT 10SM CLR 24/06 A2974 RMK A01=
KCMR 232035Z AUTO 27014G24KT 10SM FEW060 08/M06 A2985 RMK AO2=
KDNA 232035Z AUTO 25015G26KT 10SM CLR 26/07 A2976 RMK AO2=
KL08 232035Z AUTO 00000KT 10SM CLR 24/M00 A2977 RMK AO2=
KL52 232035Z AUTO 28013G18KT 4SM HZ CLR 18/12 A2990 RMK A01=
KLRU 232035Z AUTO 24024G34KT 10SM CLR 24/02 A2978 RMK AO2
     T02430019=
KMAN 232035Z AUTO 31013G21KT 10SM CLR 10/M02 A3000 RMK A01=
KO22 232035Z AUTO 25010KT 10SM CLR 17/M06 A2991 RMK A01=
KO32 232035Z AUTO 28004KT 10SM CLR 19/02 A2991 RMK AO2 T01910021
     $=
KORS 232035Z AUTO 18006KT 10SM CLR 11/08 A3013 RMK AO2=
KPAN 232035Z AUTO 26013G20KT 10SM FEW036 BKN043 BKN060 14/02 A2982
     RMK AO2 PWINO TSNO=
KPVF 232035Z AUTO 28007KT 10SM CLR 14/M06 A2996 RMK AO1=
KRPH 232035Z AUTO 17014G26KT 130V200 10SM CLR 30/15 A2966 RMK AO2
     PK WND 18026/2028 T03040146 $=
KSVC 232035Z AUTO 26016G22KT 10SM CLR 19/04 A2983 RMK AO2
     T01880042=
KT69 232035Z AUTO 16015G26KT 9SM FEW039 SCT046 BKN050 28/22 A2981
     RMK A01=
KTME 232035Z AUTO 17010G19KT 10SM BKN060 BKN070 31/15 A2988 RMK
     AO2=
KTSP 232035Z AUTO 31018KT 8SM CLR 11/M02 A2994 RMK AO2=
KU42 232035Z AUTO 33011KT 10SM BKN039 OVC046 04/00 A2985 RMK AO1
     T00410001=
KDEH 232035Z AUTO 15015G25KT 10SM CLR 24/13 A2959 RMK AO2=
KDKX 232035Z AUTO 00000KT 10SM CLR 24/04 A3013 RMK A01=
KDSF 232035Z AUTO 06006KT 10SM CLR 25/14 A3006 RMK A01=
KDTA 232035Z AUTO 35012G17KT 10SM SCT042 BKN070 05/M03 A2987 RMK
     AO1=
KDUA 232035Z AUTO 18020G30KT 10SM CLR 30/12 A2976 RMK AO2=
KDZB 232035Z AUTO 18012G21KT 10SM SCT050 29/14 A2980 RMK AO2
     T02880142=
KECS 232035Z AUTO 34023G31KT 10SM -RA BKN013 OVC075 02/01 A2943
     RMK AO2=
KEDN 232035Z AUTO 12004KT 10SM CLR 25/05 A3010 RMK AO2
     T02450047=
