SAUS70 KWBC 232018
METAR
KRGK 232015Z AUTO 14011G16KT 10SM CLR 24/12 A2954 RMK AO2=
KROX 232015Z AUTO 07021G24KT 10SM CLR 18/09 A2951 RMK AO2=
KSAZ 232015Z AUTO 12012G21KT 10SM CLR 24/12 A2944 RMK AO2=
KSGS 232015Z AUTO 15012G24KT 10SM CLR 25/12 A2951 RMK AO2
     T02480116=
KTEW 232015Z AUTO 15014G21KT 10SM BKN060 25/09 A3004 RMK AO2
     T02520089=
KTWM 232015Z AUTO 07015G22KT 10SM CLR 19/11 A2964 RMK AO2=
KUKT 232015Z AUTO 06006G12KT 10SM BKN048 BKN060 17/09 A3024 RMK
     A01=
KVVV 232015Z 14025G33KT 10SM 23/13 A2931 RMK AO2=
KY63 232015Z AUTO 13019G29KT 10SM CLR 23/12 A2935 RMK AO2
     T02260121=
K14Y 232015Z AUTO 12019G23KT 10SM CLR 22/12 A2943 RMK AO2=
KACQ 232015Z AUTO 15019G32KT 10SM CLR 24/12 A2951 RMK AO2=
KAIT 232015Z AUTO 12012G19KT 080V140 10SM SCT049 24/12 A2952 RMK
     AO2=
KAMN 232015Z AUTO 15013G19KT 10SM BKN055 24/08 A3002 RMK AO2
     T02400082=
KBDH 232015Z AUTO 14027G35KT 10SM CLR 25/12 A2941 RMK AO2=
KCBG 232015Z AUTO 12015G25KT 10SM CLR 26/13 A2951 RMK AO2=
KCFE 232015Z AUTO 13019G28KT 10SM CLR 25/13 A2946 RMK AO2=
KCOQ 232015Z AUTO 10010G17KT 10SM CLR 18/09 A2960 RMK AO2 TSNO=
KCVH 232015Z AUTO 31008KT 280V340 10SM CLR 19/02 A2997 RMK A01=
KDLZ 232015Z AUTO 19005G08KT 10SM CLR 23/07 A3012 RMK AO2=
KDRM 232015Z AUTO 13006KT 10SM CLR 18/11 A3004 RMK AO2
     T01750107=
KDXX 232015Z AUTO 14025G35KT 10SM CLR 27/12 A2933 RMK AO2=
KDYT 232015Z AUTO 06020KT 10SM FEW055 12/10 A2961 RMK AO2=
KEDJ 232015Z AUTO 19012KT 10SM CLR 24/09 A3010 RMK A01=
KELO 232015Z AUTO 13014G18KT 10SM CLR 21/10 A2967 RMK AO2=
KFBL 232015Z AUTO 11020G28KT 10SM CLR 24/13 A2950 RMK AO2=
KFFM 232015Z AUTO 13021G29KT 10SM CLR 23/12 A2934 RMK AO2=
KFGN 232015Z AUTO 04007KT 10SM CLR 14/07 A2957 RMK AO2=
KFSE 232015Z AUTO 10010G18KT 10SM CLR 23/10 A2943 RMK AO2=
KGHW 232015Z AUTO 12025G31KT 10SM CLR 23/12 A2940 RMK AO2=
KGYL 232015Z AUTO 14018G26KT 7SM CLR 25/13 A2945 RMK AO2
     T02460126=
KHAF 232015Z AUTO 34012G19KT 8SM CLR 16/09 A3001 RMK AO2=
KHCO 232015Z AUTO 07015G20KT 10SM CLR 20/10 A2945 RMK AO2=
KJKJ 232015Z AUTO 13015G27KT 10SM CLR 25/12 A2933 RMK AO2 TSNO=
KJMR 232015Z AUTO 13012G16KT 10SM SCT046 24/12 A2957 RMK AO2=
KLDM 232015Z AUTO 17010G19KT 10SM BKN060 BKN090 24/12 A2991 RMK
     AO2 T02430118=
KLJF 232015Z AUTO 14015G29KT 10SM CLR 24/11 A2943 RMK AO2=
KMGG 232015Z AUTO 12010G19KT 090V150 10SM SCT046 SCT055 25/12
     A2948 RMK AO2 T02450115 PWINO=
KMGN 232015Z AUTO 19008KT 10SM CLR 22/10 A2998 RMK AO2
     T02260107=
KMVE 232015Z AUTO 15020G29KT 10SM CLR 25/13 A2934 RMK AO2=
KOVL 232015Z AUTO 14024G32KT 5SM HZ CLR 25/11 A2938 RMK AO2=
KOZW 232015Z AUTO 15010G20KT 10SM SCT055 24/10 A3006 RMK AO2
     T02350100=
KPWC 232015Z AUTO 12014G26KT 10SM CLR 23/13 A2953 RMK AO2=
K6S8 232010Z AUTO 31015G24KT 8SM 04/02 A2967 RMK A01 Laurel=
K08D 232015Z AUTO 04021G30KT 10SM OVC011 06/06 A2941 RMK AO2=
K4R5 232015Z AUTO 13003KT 10SM BKN110 21/13 A2966 RMK AO2
     T02130126=
KAQP 232013Z AUTO 17023G28KT 7SM SCT085 25/11 A2933 RMK AO2=
KARV 232015Z AUTO 16013G19KT 10SM SCT043 21/12 A2975 RMK AO2
     T02140118=
KD25 232015Z AUTO 14013G19KT 10SM SCT041 22/12 A2974 RMK AO2
     T02170121=
KD55 232015Z AUTO 06024G31KT 10SM CLR 13/12 A2945 RMK AO2=
KDVP 232013Z AUTO 14027G34KT 10SM CLR 25/13 A2934 RMK AO2
     T02490125=
KETH 232013Z AUTO 12030G37KT 10SM 23/12 A2931 RMK AO2=
KFOZ 232013Z AUTO 12007G17KT 10SM SCT060 24/12 A2961 RMK AO2=
KHFY 232015Z AUTO 15013G19KT 10SM SCT060 26/12 A3002 RMK AO2
     T02580117=
KIUA 232015Z AUTO 14007KT 10SM CLR 20/04 A3023 RMK AO2
     T02000044=
