SAUS80 KWBC 231800
METAR
KESN 231745Z 36005KT 7SM RA BKN009 BKN023 15/14 A3022=
K77S 231755Z AUTO 17003KT 10SM SCT038 10/09 A3017 RMK A01=
