SAUS70 KWBC 231828
METAR
K4I3 231822Z AUTO 18009KT 10SM CLR 24/08 A3017 RMK AO2=
KDCY 231815Z AUTO 20016G24KT 10SM CLR 26/11 A3001 RMK AO2
     T02550106=
KDLL 231835Z AUTO 16014KT 10SM CLR 21/12 A2977 RMK AO2
     T02140115=
KEBS 231815Z AUTO 16024G32KT 10SM CLR 24/14 A2949 RMK AO2=
KEVM 231821Z AUTO 14011KT 10SM SCT085 21/11 A2967 RMK AO2=
KIJX 231815Z AUTO 16019G26KT 10SM CLR 23/14 A2982 RMK AO2
     T02280140=
KLOT 231815Z AUTO 17022G29KT 10SM CLR 25/14 A2988 RMK AO2=
KMLE 231815Z AUTO 16011G30KT 10SM CLR 28/13 A2938 RMK AO2
     T02840128=
KMPZ 231810Z AUTO 17016G27KT 10SM CLR 23/17 A2970 RMK AO2=
KMQB 231815Z AUTO 16019G26KT 10SM CLR 21/12 A2980 RMK AO2
     T02140121=
KTAZ 231815Z AUTO 17017G25KT 10SM BKN120 24/14 A2988 RMK AO2
     T02360140=
KTIF 231815Z AUTO 20022G28KT 10SM CLR 25/02 A2918 RMK AO2
     T02540019=
KUYF 231815Z AUTO 17009G18KT 10SM SCT049 24/06 A3014 RMK AO2=
KVES 231815Z AUTO 20006G14KT 10SM CLR 23/06 A3010 RMK AO2=
KW99 231820Z AUTO 00000KT 10SM CLR 18/06 A3025 RMK AO2=
K11R 231815Z AUTO 16015G21KT 10SM BKN049 BKN060 29/17 A2990 RMK
     AO2 T02910172=
K20V 231815Z AUTO 22011KT 10SM BKN049 BKN070 OVC085 04/00 A2957
     RMK AO2=
KANK 231810Z AUTO 23016G23KT 10SM SCT027 BKN038 OVC065 08/M01
     A2964 RMK AO1 T00761007=
KBMC 231810Z AUTO 10SM BKN070 OVC095 05/M02 A2980 RMK AO1
     T00471019=
KBMT 231815Z AUTO 15009G18KT 10SM BKN037 BKN044 OVC055 27/17 A2997
     RMK AO2 T02720174=
KDUB 231816Z AUTO 28021G28KT 10SM BKN120 00/M08 A2957 RMK AO2=
KDUX 231815Z AUTO 19027G36KT 10SM CLR 27/08 A2960 RMK AO2
     T02700076=
KEAN 231810Z AUTO 34010G17KT 10SM -DZ SCT033 BKN045 BKN055 08/03
     A2942 RMK AO2 T00760033=
KGNB 231815Z AUTO 25006KT 10SM SCT020 SCT031 BKN095 04/M01 A2957
     RMK AO2 T00371014=
KHBV 231810Z AUTO 17014G19KT 10SM CLR 30/17 A2984 RMK AO2
     T03010170=
KHEQ 231815Z AUTO 29012G18KT 10SM CLR 27/M02 A2921 RMK AO2=
KHSG 231810Z AUTO 35004KT 1 1/4SM -SN SCT008 OVC015 00/00 A2961
     RMK AO2 T00040000=
KMMH 231819Z AUTO 34010G14KT 10SM CLR 05/M11 A2997 RMK AO2=
KOSA 231810Z AUTO 18015KT 10SM OVC046 27/17 A2990 RMK AO2
     T02680173=
KPEQ 231815Z AUTO 23020G24KT 10SM CLR 32/08 A2972 RMK AO2
     T03160079=
KPVW 231810Z AUTO 23024G32KT 10SM CLR 27/09 A2967 RMK AO2
     T02710090=
KSLR 231810Z AUTO 18019G23KT 10SM BKN044 28/15 A2989 RMK AO2
     T02840147=
KTXW 231810Z AUTO 16020G28KT 1/2SM HZ VV005 31/18 A2983 RMK AO2
     T03100180=
KCPF 231835Z AUTO 00000KT 10SM CLR 24/05 A3018 RMK AO2=
KEMV 231835Z AUTO 32007KT 10SM OVC017 17/12 A3016 RMK AO2
     T01660123=
KFFA 231835Z AUTO 33006KT 1 1/4SM DZ OVC003 16/16 A3004 RMK AO2
     P0002 T01600160=
KHNZ 231835Z AUTO 04008KT 360V060 10SM CLR 18/08 A3017 RMK AO2
     T01830078=
KPDC 231835Z AUTO 12012G22KT 10SM CLR 24/12 A2968 RMK AO2
     T02360117=
KSUW 231835Z AUTO 06009G15KT 10SM SCT075 15/09 A2968 RMK AO2
     T01450092=
