SAUS80 KWBC 231800 RRG
METAR
KMEH 231756Z AUTO 00000KT 10SM BKN013 BKN022 02/00 A3002 RMK AO2
     SLP184 60001 T00220000 10022 20006 51022=
K8D3 231756Z AUTO 13018G27KT 22/11 A2934 RMK AO1 PK WND 14029/1736
     SLP931 T02220111 10222 20022 58036=
KCUL 231753Z AUTO 19021G25KT 10SM SCT049 27/12 A2999 RMK AO2=
KP58 231755Z AUTO 12012KT 16/12 A3010 RMK AO1 SLP191 T01560122
     10189 20133 58012=
