SAUS70 KWBC 231740 RRF
METAR
KUVA 231735Z AUTO 15009G14KT 10SM CLR 25/19 A2989 RMK AO2
     T02530190=
KVAF 231735Z AUTO 18016KT 10SM CLR 28/15 A2999 RMK A01=
KVCV 231735Z AUTO 25015KT 10SM CLR 14/M02 A2993 RMK AO2=
KWBF 231735Z AUTO 00000KT 10SM 26/18 A3007 RMK A01=
KBTN 231735Z AUTO 13016KT 10SM CLR 21/10 A2932 RMK AO2=
KGGI 231735Z AUTO 15019G26KT 10SM CLR 25/15 A2963 RMK AO2
     T02500145=
KHHV 231735Z AUTO 16010G20KT 10SM CLR 26/17 A2995 RMK A01=
KHYX 231735Z AUTO 16011G18KT 10SM CLR 23/11 A3008 RMK AO2
     T02250106=
KI67 231735Z AUTO 20007G15KT 10SM CLR 23/09 A3012 RMK AO1=
KI68 231735Z AUTO 20011G14KT 10SM CLR 23/10 A3014 RMK AO1
     T02340099=
KIFA 231735Z AUTO 14020G30KT 10SM CLR 24/14 A2958 RMK AO2
     T02380141=
KLCG 231735Z AUTO 17024G27KT 10SM CLR 26/12 A2933 RMK AO2
     T02570121=
KLVN 231735Z AUTO 14015G25KT 10SM CLR 22/11 A2957 RMK AO2=
KM30 231735Z AUTO 19010G18KT 10SM BKN049 25/12 A3003 RMK AO2
     T02470122=
KMJQ 231735Z AUTO 14020G27KT 10SM CLR 22/11 A2946 RMK AO2=
KMOP 231735Z AUTO 16012G16KT 10SM CLR 22/11 A3004 RMK AO2
     T02240107=
KMUT 231735Z AUTO 16021G26KT 10SM CLR 24/14 A2972 RMK AO2=
KONA 231735Z AUTO 13015G19KT 10SM CLR 23/12 A2965 RMK AO2=
KOXI 231735Z AUTO 19020G25KT 10SM CLR 24/12 A2998 RMK AO1=
KOXV 231735Z AUTO 17023G31KT 10SM CLR 25/13 A2959 RMK AO2=
KPCW 231735Z AUTO 18008KT 10SM CLR 24/11 A3013 RMK AO2=
KPEX 231735Z AUTO 12013G22KT 10SM CLR 21/12 A2951 RMK AO2=
KPMH 231735Z AUTO 11004KT 10SM CLR 25/07 A3018 RMK AO2
     T02500071=
KPRO 231735Z AUTO 16022G30KT 10SM CLR 25/13 A2951 RMK AO2
     T02520126=
KPTD 231735Z AUTO 00000KT 10SM CLR 22/03 A3027 RMK AO2=
KPVB 231735Z AUTO 15015G21KT 10SM CLR 22/12 A2977 RMK AO1
     T02210120=
KRNH 231735Z AUTO 13016G22KT 10SM CLR 22/16 A2963 RMK AO2
     T02200158=
KRRT 231735Z AUTO 04012G17KT 10SM CLR 11/08 A2962 RMK AO2=
KSLO 231735Z AUTO 15014G18KT 10SM OVC034 24/14 A2995 RMK AO2
     T02350143=
KTNU 231735Z AUTO 17022G31KT 10SM CLR 25/14 A2958 RMK A01=
KUSE 231735Z AUTO 18016G21KT 10SM CLR 25/11 A3010 RMK AO2=
K33N 231735Z AUTO 05011KT 10SM BKN021 BKN040 BKN055 17/13 A3019
     RMK A01=
K3LF 231735Z AUTO 16023G32KT 10SM SCT031 BKN120 23/13 A2990 RMK
     AO2 T02260134=
KADC 231736Z AUTO 12012G18KT 10SM CLR 22/11 A2950 RMK AO2 TSNO=
KBAX 231735Z AUTO 17011G15KT 10SM CLR 23/12 A3011 RMK AO2
     T02260115=
KBWP 231735Z AUTO 13015G25KT 10SM CLR 22/12 A2938 RMK AO2=
KCCY 231735Z AUTO 15023G29KT 10SM CLR 23/13 A2961 RMK AO2=
KCSQ 231735Z AUTO 16015G29KT 10SM CLR 26/14 A2952 RMK AO2=
KD39 231735Z AUTO 12013G22KT 10SM CLR 21/12 A2950 RMK AO2
     T02090119=
KDEH 231735Z AUTO 15011G24KT 10SM CLR 22/13 A2966 RMK AO2=
KEGV 231735Z AUTO 16010G16KT 130V200 10SM SCT034 20/10 A2982 RMK
     AO2 T02030103=
KGLX 231735Z AUTO VRB05KT 10SM FEW044 25/13 A3012 RMK A01=
KHCD 231735Z AUTO 12018G25KT 10SM CLR 23/12 A2952 RMK AO2
     T02250120=
KHLB 231735Z AUTO 18008G15KT 10SM CLR 23/10 A3011 RMK A01=
KHSB 231735Z AUTO 19018G25KT 10SM SCT045 26/17 A3000 RMK AO2
     T02580170=
KHZX 231735Z AUTO 13010G14KT 10SM SCT075 20/11 A2963 RMK AO2=
KIGQ 231735Z AUTO 18021G28KT 10SM SCT060 24/14 A2993 RMK AO2
     T02400135=
KIMS 231735Z AUTO 18013KT 10SM CLR 24/10 A3014 RMK AO2=
KJPX 231735Z AUTO 06007KT 10SM -RA SCT050 OVC070 14/14 A3026 RMK
     AO2 P0002 T01380138=
KOLG 231735Z AUTO 16010G14KT 10SM SCT070 21/10 A2968 RMK AO1=
K0F2 231735Z AUTO 17013G28KT 10SM CLR 27/16 A2977 RMK AO2
     T02710163=
KCXP 231735Z AUTO 32010KT 10SM CLR 05/M04 A3005 RMK AO2=
KDTA 231735Z AUTO 34020G26KT 10SM OVC090 03/M02 A2981 RMK AO1=
