SAUS70 KWBC 231800 RRA
METAR
KHZL 231755Z AUTO 00000KT 10SM OVC032 16/08 A3031 RMK AO2=
KJYG 231755Z AUTO 14020G28KT 10SM CLR 23/12 A2946 RMK AO2=
KLWA 231755Z AUTO 16018G26KT 120V180 10SM CLR 25/12 A2997 RMK AO2
     T02450121 10245 20160=
KLXL 231755Z AUTO 13013G22KT 10SM CLR 22/12 A2953 RMK AO2=
KMBL 231756Z AUTO 14010G17KT 9SM CLR 23/12 A2994 RMK AO2 SLP136
     T02280122 10228 20117 58017=
KMCD 231755Z AUTO 14007KT 100V190 10SM CLR 21/11 A3002 RMK AO2
     T02050111 10205 20131=
KVWU 231755Z AUTO 12013KT 10SM CLR 23/11 A2956 RMK AO2=
KHVN 231753Z 01007KT 9SM -RA BKN110 14/09 A3027 RMK AO2 RAB31
     SLP251 P0000 60000 T01390094 10144 20117 58016=
KHYA 231756Z 04005KT 8SM -RA BKN100 OVC120 14/13 A3029 RMK AO2
     SLP258 P0002 60002 T01390128 10161 20133 58012=
KHYX 231755Z AUTO 17012G17KT 10SM CLR 23/10 A3008 RMK AO2
     T02320104 10234 20102=
KHZX 231755Z AUTO 11007G16KT 10SM CLR 21/11 A2961 RMK AO2=
KIMS 231755Z AUTO 17012G15KT 10SM CLR 24/10 A3013 RMK AO2=
KLAS 231756Z 33016G23KT 10SM FEW120 16/M10 A2986 RMK AO2 PK WND
     35029/1711 SLP098 T01611100 10161 20133 51021=
KLNR 231756Z AUTO 13013G22KT 10SM CLR 26/13 A2975 RMK AO2 SLP065
     T02560128 10256 20161 58020=
KLVN 231755Z AUTO 15015G22KT 10SM CLR 23/11 A2956 RMK AO2=
KMDT 231756Z 31006KT 6SM HZ OVC044 16/08 A3025 RMK AO2 SLP244
     T01560083 10156 20067 58016=
KMJQ 231755Z AUTO 15017G26KT 10SM CLR 23/11 A2946 RMK AO2=
KMOP 231755Z AUTO 15015G21KT 10SM SCT055 23/11 A3004 RMK AO2
     T02280107 10228 20078=
KMTN 231757Z 36003KT 10SM OVC060 18/11 A3022=
KMZH 231755Z AUTO 13006KT 10SM BKN060 22/11 A2963 RMK AO2=
KONA 231755Z AUTO 14014G22KT 10SM CLR 23/12 A2964 RMK AO2=
KPEX 231755Z AUTO 12014G22KT 10SM CLR 21/12 A2949 RMK AO2=
KPMH 231755Z AUTO 14008KT 10SM CLR 25/06 A3018 RMK AO2 T02500063
     10253 20068=
KPZZ 231755Z AUTO 11019KT 9SM CLR 25/16 A3006 RMK A01=
KRRT 231755Z AUTO 04013G18KT 10SM CLR 11/09 A2961 RMK AO2=
KSBP 231756Z 36013KT 10SM CLR 18/04 A2994 RMK AO2 SLP137 T01780044
     10178 20089 51014=
KSDF 231756Z 20008G17KT 10SM FEW070 26/09 A3010 RMK AO2 SLP188
     T02560089 10256 20133 58018=
KVAF 231755Z AUTO 16016KT 10SM CLR 29/15 A2998 RMK A01=
KVOA 231800Z AUTO 09011KT 10SM CLR 25/16 A3012 RMK A01=
K6B0 231755Z AUTO 00000KT 10SM CLR 18/06 A3031 RMK AO2 T01830057
     10184 20042=
K7L2 231755Z AUTO 07013KT 10SM CLR 16/08 A2928 RMK AO2=
KAEL 231755Z AUTO 16019G26KT 10SM CLR 23/13 RMK AO2=
KASH 231756Z 00000KT 10SM CLR 14/08 A3035 RMK AO2 SLP282 T01440083
     10144 20039 58013 $=
KAUW 231754Z AUTO 11014G26KT 10SM CLR 22/12 A2978 RMK AO2 PK WND
     11026/1753 SLPNO T02220117 10222 20111 58017 $=
KBLM 231756Z AUTO 05015G19KT 10SM BKN019 OVC110 16/13 A3025 RMK
     AO2 SLP242 60001 T01560133 10156 20150 58006=
KCDA 231755Z AUTO 11004KT 10SM 18/06 A3035 RMK AO2 T01760060 10176
     20023=
KCNB 231755Z AUTO 10022G30KT 10SM CLR 23/12 A2938 RMK AO2
     T02250116 10225 20059=
KFPK 231755Z AUTO 19015G22KT 10SM SCT055 24/10 A3004 RMK AO2
     T02350102 10235 20120=
KHNB 231756Z AUTO 19013G23KT 10SM CLR 25/11 A3005 RMK AO2 SLP174
     T02500111 10250 20167 58017=
KI23 231755Z AUTO 15008G14KT 10SM CLR 23/08 A3015 RMK AO1=
KITH 231756Z 00000KT 10SM CLR 19/04 A3027 RMK AO2 SLP253 T01940039
     10200 20028 58017=
KJYM 231755Z AUTO 17011G17KT 10SM CLR 23/08 A3008 RMK AO2
     T02310084 10231 20110=
KWWD 231756Z AUTO 04018G26KT 3SM -RA BR 16/15 A3016 RMK AO2 PK WND
     05026/1751 RAB1658 SLP214 P0000 60000 T01560150 10178 20150
     58012 $=
KY70 231755Z AUTO 15013G17KT 10SM CLR 23/10 A3003 RMK AO2
     T02300098 10230 20106=
