SAUS70 KWBC 232100 RRO
METAR
KCIN 232055Z AUTO 17025G33KT 9SM CLR 28/14 A2940 RMK AO2=
KCKF 232055Z AUTO 00000KT 10SM CLR 25/06 A3013 RMK AO2
     T02510056=
KCKV 232052Z AUTO 18009G19KT 10SM CLR 27/06 A3003 RMK AO2 SLP163
     T02670061 56017=
KCMD 232055Z AUTO 21010KT 10SM CLR 24/04 A3011 RMK AO2=
KCNC 232055Z AUTO 16022G27KT 10SM CLR 28/15 A2951 RMK AO2=
KCOM 232055Z AUTO 18020G27KT 10SM CLR 30/12 A2974 RMK AO2
     T02970121=
KCUH 232055Z AUTO 18015G26KT 10SM CLR 28/15 A2962 RMK AO2
     T02820149=
KCWV 232055Z AUTO 07003KT 10SM CLR 26/10 A3013 RMK AO2
     T02550097=
KD73 232055Z AUTO 06003KT 10SM CLR 23/03 A3015 RMK AO2
     T02320034=
KDKB 232055Z AUTO 17026G30KT 10SM CLR 24/15 A2981 RMK AO2 LTG DSNT
     W T02370151=
KDKR 232055Z AUTO 17016KT 10SM SCT060 31/13 A2985 RMK AO2=
KDNS 232055Z AUTO 10SM CLR RMK AO2 PNO PWINO=
KDVO 232055Z AUTO 35011G17KT 10SM CLR 23/M04 A2998 RMK AO2=
KE11 232055Z AUTO 18015G20KT 10SM CLR 29/11 A2969 RMK AO2
     T02870112=
KE16 232055Z AUTO 30013G17KT 10SM CLR 20/01 A2997 RMK AO2=
KE41 232055Z AUTO 18013G25KT 10SM CLR 25/14 A2976 RMK AO2
     T02460145=
KECU 232055Z AUTO 15014G22KT 10SM CLR 23/17 A2987 RMK AO2=
KEGT 232055Z AUTO 19018G33KT 7SM CLR A2954 RMK AO2=
KFEP 232055Z AUTO 17019G25KT 10SM BKN045 25/16 A2977 RMK AO2 LTG
     DSNT W T02450163=
KFFL 232055Z AUTO 16019G26KT 9SM CLR 27/14 A2961 RMK A01=
KFFZ 232054Z 24011KT 10SM CLR 23/06 A2973 RMK AO2 SLP049 T02330061
     56016=
KFKR 232055Z AUTO 18018G24KT 9SM CLR 25/10 A2996 RMK AO2=
KFMM 232055Z AUTO 01021KT 10SM BKN090 17/01 A2930 RMK AO2 LTG DSNT
     W=
KFPY 232055Z AUTO 02004KT 10SM CLR 28/08 A3010 RMK AO2 T02790075
     TSNO=
PAWG 232056Z 09012G18KT 10SM -RA BKN035 OVC040 07/04 A2941=
KPBX 232055Z AUTO 12003KT 10SM CLR 23/05 A3015 RMK AO2
     T02250052=
KPEA 232055Z AUTO 15013G24KT 10SM CLR 28/14 A2954 RMK AO2
     T02790144=
KPIM 232055Z AUTO 00000KT 10SM CLR 24/02 A3014 RMK AO2
     T02420015=
KPLU 232055Z AUTO 00000KT 10SM SCT034 12/05 A3017 RMK AO2=
KPMU 232055Z AUTO 15007G14KT 10SM FEW055 26/12 A2998 RMK AO2=
KPNA 232055Z AUTO 30023G27KT 7SM -SN SCT032 SCT041 SCT050 00/M05
     A2966 RMK AO2=
KPNT 232055Z AUTO 16024G30KT 10SM CLR 24/17 A2983 RMK AO2 LTG DSNT
     NW T02350165=
KROG 232058Z 10SM CLR 27/14 A2976 RMK AO2 SLP061 T02670139 56022
     $=
KSBD 232051Z 26012KT 7SM FEW040 22/02 A2982=
KSUT 232055Z AUTO 31006KT 10SM CLR 23/10 A3008 RMK AO2
     T02290096=
KTTS 232055Z AUTO 01012KT 10SM CLR 25/17 A3006 RMK AO2 VIS 3/4
     RWY15/33 SLP184 T02510168 55006 $=
KJAS 232055Z AUTO 16009G18KT 9SM FEW041 FEW055 BKN070 27/18 A2991
     RMK AO2=
KJOT 232055Z AUTO 17018G24KT 10SM CLR 26/14 A2984 RMK AO2
     T02620138=
KJSV 232055Z AUTO 19014G26KT 1/4SM HZ VV002 28/15 A2974 RMK
     AO2=
KJYR 232055Z AUTO 17028G39KT 9SM CLR 28/11 A2928 RMK AO2=
KLAM 232055Z AUTO 24012G16KT 10SM OVC050 07/01 A2976 RMK AO2
     T00660012=
KLCQ 232055Z AUTO 36003KT 10SM CLR 25/10 A3010 RMK AO2=
KLGC 232055Z AUTO 14003KT 10SM CLR 24/02 A3013 RMK AO2
     T02390024=
KLLN 232055Z AUTO 24019KT 10SM FEW080 27/09 A2967 RMK AO2=
KLOM 232055Z AUTO 05007KT 10SM -RA BKN038 BKN048 OVC055 14/11
     A3022 RMK AO2 T01440115=
KLOT 232055Z AUTO 17021G32KT 10SM CLR 26/13 A2984 RMK AO2=
KLRJ 232055Z AUTO 16023G28KT 10SM CLR 28/12 A2927 RMK AO2=
KLXN 232055Z AUTO 21025G35KT 10SM CLR 31/01 A2922 RMK AO2
     T03050009=
KMGC 232055Z AUTO 17014G21KT 10SM CLR 25/11 A2992 RMK AO2=
KMJD 232055Z AUTO 16007G13KT 10SM CLR 26/14 A3005 RMK AO2=
KMLJ 232055Z AUTO 00000KT 10SM CLR 25/08 A3013 RMK AO2 LTG DSNT
     S=
