SAUS70 KWBC 231900 RRO
METAR
TIST 231853Z VRB04KT 10SM SCT030 29/24 A2988 RMK AO2 SLP119
     T02940239=
KCPR 231853Z 27003KT 8SM FEW011 FEW017 OVC041 03/02 A2951 RMK AO2
     RAE08B20E30 SLP977 P0000 T00280017=
KCVH 231855Z AUTO 00000KT 10SM CLR 17/05 A3000 RMK A01=
KCYS 231853Z 31017G32KT 10SM -RA SCT090 BKN110 12/M01 A2937 RMK
     AO2 PK WND 31032/1850 RAB37 SLP888 P0000 T01171006=
KDEN 231853Z 22020G30KT 10SM FEW070 SCT110 BKN200 20/M02 A2932 RMK
     AO2 PK WND 22036/1754 SLP852 T02001022=
KEMT 231850Z 21003KT 10SM SCT040 20/09 A2987=
KHAF 231855Z AUTO 33014KT 6SM HZ CLR 15/08 A3003 RMK AO2=
KMFE 231853Z 16019G28KT 10SM CLR 32/18 A2980 RMK AO2 PK WND
     13035/1800 SLP089 T03220183 $=
KOVE 231853Z AUTO 34008G17KT 10SM CLR 21/M03 A3002 RMK AO2 SLP166
     T02061033=
KPDT 231853Z 25010KT 10SM CLR 10/02 A3008 RMK AO2 SLP184
     T01000017=
KPIH 231853Z 22015KT 10SM FEW016 BKN075 03/M02 A2983 RMK AO2
     SLP107 T00331017 $=
KPIL 231853Z AUTO 15019G27KT 10SM SCT039 31/22 A2983 RMK AO2 PK
     WND 18032/1807 RAB1758E52 SLP101 P0000 T03110217=
KPMD 231853Z AUTO 28008KT 10SM CLR 16/M02 A2991 RMK AO2 SLP117
     T01561022=
KSRR 231855Z AUTO 25041G55KT 10SM 17/01 A2975 RMK AO2=
K0E0 231855Z AUTO 23027G33KT 10SM SCT080 18/M02 A2973 RMK AO2
     T01821025 TSNO=
KAQP 231853Z AUTO 18022G30KT 10SM SCT085 24/11 A2935 RMK AO2=
KASE 231853Z 35007KT 8SM -SN SCT009 OVC030 01/M01 A2958 RMK AO2
     SLP949 P0002 T00061006=
KBKE 231853Z AUTO 34013KT 10SM SCT050 06/M02 A3003 RMK AO2 SLP187
     T00611017=
KBMQ 231853Z AUTO 17016G31KT 10SM CLR 28/16 A2984 RMK AO2 PK WND
     18034/1813 SLP087 T02830156=
KCEZ 231853Z AUTO 19014G20KT 10SM FEW060 08/01 A2972 RMK AO2 PK
     WND 19026/1754 SLP014 T00780011 $=
KDWH 231853Z 18008G23KT 120V200 10SM FEW065 31/14 A2990 RMK AO2
     SLP124 T03060144=
KELN 231853Z AUTO 32005KT 10SM CLR 12/M02 A3005 RMK AO2 SLP181
     T01221022 $=
KEVW 231853Z AUTO 29016KT 10SM SCT035 BKN043 OVC060 M01/M06 A2971
     RMK AO2 SLP058 T10061056 $=
KIDA 231853Z VRB05KT 10SM FEW043 BKN070 BKN080 06/M05 A2978 RMK
     AO2 SLP088 T00561050=
KL18 231855Z AUTO 18005KT 10SM SCT038 19/09 A2988 RMK AO2
     P0001=
KLKV 231853Z AUTO VRB04KT 10SM BKN034 OVC049 05/M03 A3008 RMK AO2
     SLP209 T00501033=
KMWH 231852Z 30008KT 270V350 10SM CLR 12/M02 A3005 RMK AO2 SLP229
     T01221022=
KSGR 231853Z 15014G27KT 10SM SCT065 32/14 A2990 RMK AO2 PK WND
     15028/1804 SLP125 T03170139=
KTRM 231852Z AUTO 26007KT 10SM CLR 24/06 A2978 RMK AO2 SLP085
     T02390056=
K08D 231855Z AUTO 06017G26KT 10SM OVC011 07/06 A2944 RMK AO2=
K14Y 231855Z AUTO 13016G24KT 10SM CLR 22/12 A2947 RMK AO2=
KAXN 231853Z AUTO 12019G28KT 10SM CLR 22/12 A2943 RMK AO2 PK WND
     12034/1819 SLP966 T02220117=
KAZO 231853Z 16011G27KT 10SM CLR 24/11 A3000 RMK AO2 PK WND
     17027/1845 SLP156 T02440111=
KBFD 231853Z AUTO 12009KT 10SM CLR 21/01 A3025 RMK AO2 SLP242
     T02060006=
KBGM 231853Z 12003KT 10SM CLR 16/08 A3028 RMK AO2 SLP254
     T01560083=
KBMG 231853Z 17013G20KT 10SM FEW055 25/11 A3002 RMK AO2 SLP159
     T02500106 $=
KC29 231855Z AUTO 14017G23KT 10SM CLR 24/13 A2977 RMK AO1
     T02400125=
KCFE 231855Z AUTO 13023G29KT 10SM CLR 24/13 A2949 RMK AO2=
KDET 231853Z 16013G19KT 8SM FEW060 25/09 A3011 RMK AO2 SLP193
     T02500094=
KEDJ 231855Z AUTO 17009G16KT 9SM SCT050 23/10 A3013 RMK A01=
KELO 231855Z AUTO 13014G20KT 10SM CLR 21/09 A2968 RMK AO2=
KFFM 231855Z AUTO 12016G27KT 10SM CLR 23/12 A2937 RMK AO2=
KFSE 231855Z AUTO 12011KT 10SM CLR 23/10 A2947 RMK AO2=
KJMR 231855Z AUTO 11011G17KT 10SM CLR 23/12 A2959 RMK AO2=
