SAUS80 KWBC 232000 RRB
METAR
KHLC 231953Z AUTO 21026G40KT 3SM HZ BKN036 OVC045 32/03 A2927 RMK
     AO2 PK WND 23045/1927 SLP887 T03170033=
KEMP 231953Z AUTO 17025G45KT 10SM CLR 28/14 A2951 RMK AO2 PK WND
     17045/1927 SLP981 T02780144=
KFMN 231953Z 25015KT 10SM OVC070 08/M05 A2973 RMK AO2 PK WND
     26026/1854 SLP037 T00781050=
KFNB 231953Z AUTO 19025G39KT 10SM -RA FEW070 FEW090 BKN110 27/15
     A2947 RMK AO2 PK WND 17040/1911 LTG DSNT SE AND S RAB37
     SLP971 P0000 T02670150=
KGCC 231953Z AUTO 10SM OVC009 02/ A2948 RMK AO2 CIG 009V015 SLP987
     T0017 $=
KHSV 231953Z 15008KT 10SM FEW250 25/05 A3010 RMK AO2 SLP189
     T02500050=
KHTL 231953Z AUTO 16011G20KT 10SM FEW050 22/11 A3002 RMK AO2
     SLP165 T02220106 $=
KJBR 231953Z AUTO 19017G25KT 10SM SCT049 27/14 A2994 RMK AO2 PK
     WND 19030/1920 SLP134 T02670139 $=
KJLN 231953Z 19026G41KT 10SM FEW120 30/13 A2967 RMK AO2 PK WND
     19047/1936 SLP033 T03000133 $=
KLBB 231953Z 21022G28KT 10SM FEW060 FEW120 BKN200 BKN220 BKN260
     28/10 A2966 RMK AO2 PK WND 23034/1916 SLP991 T02780100=
KMLU 231953Z 18012G21KT 10SM BKN065 28/15 A2997 RMK AO2 SLP148
     T02830150=
KMSN 231953Z 16020G29KT 10SM FEW045 FEW120 24/13 A2975 RMK AO2 PK
     WND 15030/1940 SLP070 T02390128=
KODX 231953Z AUTO 20026G43KT 10SM FEW038 31/02 A2917 RMK AO2 PK
     WND 19043/1944 SLP868 T03110022=
KSTC 231953Z 13016G32KT 10SM CLR 24/12 A2946 RMK AO2 PK WND
     14032/1948 SLP981 T02390122=
KTCS 231953Z AUTO 21022G32KT 10SM CLR 21/M01 A2972 RMK AO2 PK WND
     22036/1924 SLP992 T02111011=
KTLH 231953Z AUTO VRB06KT 10SM CLR 27/07 A3010 RMK AO2 SLP191
     T02670067=
KTUP 231953Z 16010KT 10SM CLR 27/08 A3005 RMK AO2 SLP173 T02670083
     $=
KTUS 231953Z 28009G17KT 10SM CLR 23/08 A2980 RMK AO2 SLP052
     T02330083=
KFAR 231953Z AUTO 12018G34KT 10SM CLR 24/11 A2933 RMK AO2 PK WND
     12034/1947 SLP933 T02390111 TSNO $=
KNUI 231953Z AUTO VRB04KT -RA OVC017 17/13 A3015 RMK AO2 RAB1854
     SLP208 P0001 T01720128=
KVTN 231952Z AUTO 28018G28KT 10SM CLR 21/M01 A2919 RMK AO2 PK WND
     27028/1944 WSHFT 1910 SLP871 T02061011=
PABE 231953Z 15011KT 10SM OVC050 M01/M01 A2998 RMK AO2 SLP154
     T10061011=
PADQ 231953Z 29016G25KT 10SM CLR 07/M03 A2992 RMK AO2 SLP132
     T00721033=
PHNL 231953Z 06011G17KT 10SM FEW024 SCT045 BKN060 29/21 A3004 RMK
     AO2 SLP172 VCSH NE T02940206=
KTCS 231953Z AUTO 21022G32KT 10SM CLR 21/M01 A2972 RMK AO2 PK WND
     22036/1924 SLP992 T02111011=
KDRA 231953Z AUTO 01010G20KT 320V050 10SM CLR 15/M12 A2989 RMK AO2
     WSHFT 1938 SLP096 T01501122=
PAYA 231953Z AUTO 36008KT 10SM CLR 10/M01 A2947 RMK AO2 SLP981
     T01001011 TSNO $=
PHJR 231953Z VRB06G16KT 10SM FEW036 30/21 A3005 RMK AO2 SLP182
     T03000206=
PHNL 231953Z 06011G17KT 10SM FEW024 SCT045 BKN060 29/21 A3004 RMK
     AO2 SLP172 VCSH NE T02940206=
KCID 231952Z 17020G31KT 10SM CLR 24/13 A2963 RMK AO2 PK WND
     16032/1940 SLP028 T02390133 $=
KNYC 231951Z AUTO 07007KT 030V120 10SM OVC060 16/08 A3028 RMK AO2
     SLP245 T01610078 $=
PABE 231953Z 15011KT 10SM OVC050 M01/M01 A2998 RMK AO2 SLP154
     T10061011=
PABT 231953Z 02003KT 5SM BR SCT004 OVC035 M06/M07 A3003 RMK AO2
     SLP186 T10561072 $=
PACD 231953Z 16007KT 10SM FEW100 07/04 A3020 RMK AO2 SLP228
     T00720039=
PADQ 231953Z 29016G25KT 10SM CLR 07/M03 A2992 RMK AO2 SLP132
     T00721033=
PAFA 231953Z 00000KT 1/2SM -SN FZFG VV003 M01/M03 A3001 RMK AO2
     SLP172 P0000 T10111028 RVRNO $=
PAHO 231953Z 05004KT 10SM CLR 02/M03 A2992 RMK AO2 SLP134
     T00171028=
PAJN 231953Z 14007KT 10SM -RA FEW022 BKN039 OVC050 04/01 A2951 RMK
     AO2 SLP991 P0000 T00440006 $=
