SAUS70 KWBC 231702
METAR
KW75 231715Z AUTO 33006KT 10SM OVC009 15/13 A3016 RMK AO1
     T01500132=
