SAUS80 KWBC 232100
METAR
K77S 232055Z AUTO 00000KT 10SM BKN043 BKN049 14/03 A3018 RMK
     A01=
