SAUS70 KWBC 232000 RRO
METAR
KCNO 231953Z 23006KT 10SM SCT040 22/08 A2986 RMK AO2 SLP107
     T02170083=
KDLS 231953Z AUTO 30009KT 10SM CLR 16/02 A3011 RMK AO2 SLP197
     T01560017=
KDVT 231953Z 25007KT 230V290 10SM BKN080 23/07 A2974 RMK AO2
     SLP052 T02280072=
KEPH 231953Z AUTO 33007KT 10SM CLR 13/M04 A3005 RMK AO2 SLP179
     T01281039 $=
KPSP 231953Z 07003KT 10SM CLR 24/03 A2980 RMK AO2 SLP088 T02440033
     $=
KPUW 231953Z AUTO 27009KT 10SM BKN018 BKN036 07/02 A3004 RMK AO2
     SLP188 T00670017 $=
KSHR 231953Z AUTO 31025G34KT 10SM BKN017 BKN022 OVC050 04/01 A2957
     RMK AO2 PK WND 31034/1947 SLP017 T00390006=
KSIY 231953Z AUTO 01008KT 10SM CLR 11/M01 A3015 RMK AO2 SLP225
     T01061006=
KSMF 231953Z 34018G23KT 10SM CLR 21/M03 A2996 RMK AO2 PK WND
     35026/1935 SLP146 T02111028=
KSNA 231953Z 21010KT 10SM SCT041 22/10 A2985 RMK AO2 SLP107
     T02170100=
KUAO 231953Z 19005KT 10SM SCT022 SCT032 BKN041 13/07 A3019 RMK AO2
     SLP221 T01330072=
PAVD 231956Z 01020G27KT 350V050 10SM FEW060 BKN200 BKN300 A2980
     RMK AO2 PK WND 02032/1942 SLPNO 05/M06 PNO $=
PAWG 231956Z 09012G18KT 10SM -RA BKN035 OVC040 07/04 A2946 RMK AO2
     SLPNO T00700040 $=
PAWS 231956Z AUTO 00000KT 10SM CLR M02/M05 A2990 RMK AO2 SLP130
     T10171050 FZRANO=
PAZK 231956Z AUTO 14003KT 9SM OVC026 M05/M08 A2978 RMK AO2 SNE51
     SLP147 P0000 T10501083 FZRANO=
PFYU 231956Z 00000KT 9SM OVC044 M08/M09 A3005 RMK AO2 SNE37 SLP191
     P0000 T10781089=
PPIZ 231956Z AUTO 12013KT 10SM SCT037 BKN049 M04/M06 A2975 RMK AO2
     SLP079 T10441056 FZRANO=
KBYS 231955Z AUTO 34007KT 10SM CLR 17/M10 A2986 RMK AO2 SLP098
     T01671101=
KGFA 231955Z AUTO 34014G21KT 3SM -SN BKN007 OVC012 M00/M00 A2984
     RMK AO2 SLP135 P0001 T10011002 $=
KGUR 231955Z AUTO 32026G34KT 10SM BKN020 OVC170 07/03 A2940 RMK
     AO2 PK WND 31035/33 SLPNO T00700027=
PAAD 231955Z AUTO 11008KT 10SM OVC005 M07/M08 A3003 RMK AO2
     T10711078=
PAAK 231956Z AUTO 24005KT 10SM -RA BKN026 OVC032 A3026 RMK AO2
     SLPNO P0000 FZRANO $=
PABL 231956Z AUTO 13007KT 10SM OVC016 01/00 A2987 RMK AO2
     RAB39E55SNE39 SLP116 P0002 T00060000 FZRANO $=
PABV 231956Z AUTO 22004KT 10SM CLR M02/M03 A2991 RMK AO2 SLP135
     T10171033 FZRANO=
PADL 231956Z 20003KT 10SM CLR 02/00 A3011 RMK AO2 SLP200 MIFG SE-S
     T00170000=
PADM 231956Z AUTO 10017G21KT 10SM BKN028 01/M02 A2998 RMK AO2
     SLP160 T00111017 FZRANO=
PADU 231956Z 20007KT 10SM SCT028 SCT050 08/03 A3021 RMK AO2 SLP236
     T00780033=
PAFM 231956Z AUTO 13009G16KT 10SM OVC018 M01/M02 A2997 RMK AO2
     SLP158 T10111022 FZRANO=
PAGA 231956Z AUTO 9SM -SN FEW028 OVC037 M01/M02 A3002 RMK AO2
     UPB15E18SNB18 SLP167 P0000 T10061017 FZRANO $=
PAGL 231956Z AUTO 16022G27KT 10SM OVC013 03/01 A2983 RMK AO2 PK
     WND 16027/1952 SLP096 T00280011 PWINO $=
PAGN 231956Z AUTO 08011G16KT 040V100 10SM -RA FEW009 OVC036 03/03
     A2943 RMK AO2 SLP956 P0002 T00330028=
PAGS 231956Z AUTO 34011G15KT 10SM -RA OVC037 06/01 A2948 RMK AO2
     SLP984 P0000 T00560006=
PAHL 231956Z AUTO 14007KT 2 1/2SM -SN BR BKN022 BKN028 OVC035
     M02/M02 A2999 RMK AO2 VIS 2V4 SLP161 P0000 T10171022
     FZRANO=
PAHY 231956Z AUTO 11018G25KT 10SM -RA FEW015 BKN041 OVC070 09/07
     A2935 RMK AO2 PK WND 13029/1922 SLP935 P0007 T00940067 $=
PAIG 231956Z AUTO 21009KT 10SM CLR M01/M02 A3010 RMK AO2 SLP201
     T10061022 FZRANO $=
PAIK 231956Z AUTO 10004KT 10SM OVC003 M01/M02 A2991 RMK AO2 SLP133
     T10111017 FZRANO=
PAIN 231956Z AUTO 00000KT 10SM FEW017 OVC026 M06/M07 A2997 RMK AO2
     SNE41 SLP191 P0000 T10561072 FZRANO $=
