SAUS70 KWBC 231842 RRA
METAR
KGPC 231835Z AUTO 18019G28KT 10SM SCT050 25/11 A3001 RMK AO2
     T02530111=
KGWB 231835Z AUTO 18007KT 10SM SCT055 23/12 A3006 RMK AO2=
KHJH 231835Z AUTO 18023G30KT 10SM CLR 30/11 A2935 RMK AO2
     T02960110=
KLNN 231835Z AUTO 13007KT 10SM CLR 24/05 A3015 RMK AO1
     T02380047=
KMJQ 231835Z AUTO 15019G25KT 10SM CLR 23/11 A2944 RMK AO2=
KMWO 231835Z AUTO 16008KT 10SM SCT055 25/08 A3011 RMK AO2
     T02460083=
KN03 231835Z AUTO 16004KT 10SM CLR 18/03 A3028 RMK AO2=
KRPJ 231835Z AUTO 15020G26KT 10SM SCT120 24/16 A2982 RMK AO2
     T02400155 TSNO=
KRSV 231835Z AUTO 19019G29KT 10SM CLR 26/11 A2998 RMK AO2
     T02600105=
KTYQ 231835Z AUTO 16016G22KT 10SM SCT050 24/11 A3003 RMK AO2
     T02420113=
KVVS 231835Z AUTO 05004KT 10SM CLR 22/03 A3021 RMK AO2
     T02190026=
KY49 231835Z AUTO 08007KT 10SM CLR 19/11 A2953 RMK AO2
     T01930105=
KMLE 231835Z AUTO 16015G27KT 10SM CLR 29/13 A2937 RMK AO2
     T02880128=
KMQB 231835Z AUTO 16018G24KT 10SM SCT120 22/12 A2979 RMK AO2
     T02200124=
KNOW 231835Z AUTO 04005KT 10SM CLR 10/07 A3013 RMK AO2
     T01030072=
KORG 231835Z AUTO 17011G18KT 10SM SCT036 OVC050 30/18 A3000 RMK
     AO2 T02950183=
KPPA 231835Z AUTO 23018G25KT 10SM CLR 27/12 A2962 RMK AO2
     T02660116=
KPTT 231835Z AUTO 19023G31KT 10SM CLR 32/10 A2946 RMK AO2
     T03150104=
KRBO 231835Z AUTO 10SM SCT001 SCT035 SCT042 30/21 A2985 RMK AO2
     T03010206=
KSNL 231835Z AUTO 18020G31KT 10SM CLR 27/13 A2969 RMK AO2
     T02720130=
KTAZ 231835Z AUTO 16019G27KT 10SM SCT037 BKN110 24/14 A2987 RMK
     AO2 T02400140=
KTBR 231835Z AUTO 33004KT 10SM CLR 24/10 A3015 RMK AO2
     T02420099=
KTIF 231835Z AUTO 20019G27KT 10SM CLR 26/01 A2918 RMK AO2
     T02600013=
KTQK 231835Z AUTO 22035G40KT 2 1/2SM HZ BKN029 OVC036 29/03 A2934
     RMK AO2 T02930033=
KTVI 231835Z AUTO 04004KT 10SM CLR 24/07 A3014 RMK AO2=
KVDI 231835Z AUTO 00000KT 10SM CLR 26/11 A3014 RMK AO2=
KXBP 231835Z AUTO 18017G26KT 10SM CLR 29/14 A2977 RMK AO2
     T02890139=
K04V 231835Z AUTO 20007G19KT 182V272 10SM SCT070 SCT090 10/00
     A2957 RMK AO2=
K17J 231835Z AUTO 09006KT 10SM CLR 24/04 A3014 RMK AO2
     T02450042=
K1A6 231835Z AUTO 18003KT 10SM CLR 22/05 A3018 RMK AO2
     T02230046=
K2G9 231835Z AUTO 14005KT 10SM CLR 16/02 A3025 RMK AO2=
K2W6 231839Z AUTO 35004KT 10SM OVC021 15/11 A3018 RMK AO1=
K5C1 231835Z AUTO 16013G22KT 10SM SCT037 25/15 A2988 RMK AO1=
K5R8 231835Z AUTO 17013G19KT 10SM BKN045 OVC070 28/17 A3000 RMK
     AO2 T02800167=
K6P9 231835Z AUTO 18018G25KT 10SM CLR 27/15 A2978 RMK AO2
     T02740145=
KAFO 231835Z AUTO 31011KT 10SM BKN026 OVC032 00/M07 A2972 RMK
     AO2=
KBHC 231835Z AUTO 08006KT 10SM CLR A3013 RMK AO2=
KBIJ 231835Z AUTO 06003KT 10SM CLR 24/01 A3014 RMK AO2=
KCCO 231835Z AUTO 00000KT 10SM CLR 22/02 A3018 RMK AO2
     T02150019=
KCGE 231835Z AUTO 35008KT 9SM OVC019 16/16 A3016 RMK A01=
KCPW 231835Z AUTO 23034KT M1/4SM +SN OVC001 M06/M06 A2968 RMK
     AO2=
KCQB 231835Z AUTO 18020G28KT 10SM CLR 28/16 A2968 RMK AO2
     T02760160=
KCTJ 231835Z AUTO 10004KT 10SM CLR 22/03 A3021 RMK AO2
     T02150032=
KCZT 231835Z AUTO 15011G17KT 10SM CLR 28/18 A2980 RMK AO2=
KDMW 231835Z AUTO 02005KT 10SM BKN046 OVC050 18/10 A3023 RMK
     AO2=
KDQH 231835Z AUTO 06006KT 10SM CLR 25/11 A3015 RMK AO2
     T02530108=
KE38 231835Z AUTO 19010G18KT 10SM CLR 26/07 A2993 RMK AO2
     T02640067=
KEGT 231835Z AUTO 19025G34KT 7SM CLR A2954 RMK AO2=
KFME 231839Z AUTO 01004KT 10SM OVC050 17/08 A3022 RMK AO1=
KFWZ 231835Z AUTO 34013G18KT 10SM SCT036 OVC046 M02/M05 A2956 RMK
     AO2=
