SAUS70 KWBC 231700 RRX
METAR
KGZN 231700Z AUTO 17016G27KT 10SM CLR 26/15 A2979 RMK AO2=
