SAUS70 KWBC 232100 RRM
METAR
KGSP 232053Z 00000KT 10SM CLR 23/03 A3016 RMK AO2 SLP208 T02280028
     56014=
KGTF 232053Z 34019G27KT 1 1/2SM -SN BR BKN007 OVC010 00/M01 A2987
     RMK AO2 PK WND 34028/2026 TWR VIS 1 3/4 SLP153 P0000 60001
     T00001006 53020 $=
KGVL 232053Z AUTO VRB03KT 10SM CLR 24/04 A3016 RMK AO2 SLP204
     T02390039 56016=
KGWO 232053Z AUTO 18014G17KT 10SM BKN060 29/12 A2999 RMK AO2
     SLP155 T02890122 56023=
KHAE 232055Z AUTO 15014G23KT 10SM CLR 27/13 A2971 RMK AO2 LTG DSNT
     NW=
KHBG 232053Z AUTO 16011G15KT 10SM CLR 28/10 A3005 RMK AO2 SLP175
     T02780100 56023=
KHEI 232053Z AUTO 34012G21KT 10SM OVC025 11/04 A2933 RMK AO2
     SLP934 T01060044 53008=
KSPB 232053Z AUTO VRB03KT 10SM FEW029 SCT046 BKN060 13/06 A3017
     RMK AO2 SLP216 T01330061 51007=
KSPG 232053Z 04004KT 10SM CLR 27/21 A3003 RMK AO2 SLP169 T02670206
     56013=
KSRQ 232053Z VRB03KT 10SM SCT060 29/16 A3002 RMK AO2 SLP163
     T02940156 56013=
KSRR 232055Z AUTO 24037G49KT 10SM 17/02 A2974 RMK AO2=
KSSF 232053Z 16014G27KT 10SM FEW055 31/17 A2976 RMK AO2 PK WND
     16027/2046 SLP068 T03110167 56028=
KSTP 232053Z 14018G28KT 10SM CLR 25/13 A2950 RMK AO2 PK WND
     14034/2040 SLP984 T02500128 56026=
KSTS 232053Z AUTO 10SM CLR 21/M02 A3000 RMK AO2 SLP151 T02111022
     58015=
KSWO 232053Z 18022G33KT 10SM CLR 29/14 A2960 RMK AO2 PK WND
     19036/2029 SLP010 T02940144 56021=
KTCL 232053Z 21007KT 10SM CLR 26/06 A3009 RMK AO2 SLP187 T02560061
     56024=
KTDZ 232053Z AUTO 16013KT 10SM CLR 24/10 A3008 RMK AO2 SLP182
     T02440100 56016=
KTHV 232053Z AUTO 01004KT 10SM FEW049 BKN065 16/09 A3023 RMK AO2
     SLP240 T01610094 56008=
KTIW 232053Z 32003KT 10SM SCT011 BKN016 11/07 A3017 RMK AO2 SLP218
     T01060067 51009=
KTMB 232053Z 07013KT 10SM FEW048 FEW060 28/18 A3000 RMK AO2 SLP160
     T02830178 55010=
KTOI 232053Z AUTO VRB04KT 10SM CLR 28/06 A3011 RMK AO2 SLP194
     T02780056 56019=
KTTD 232053Z 00000KT 10SM BKN060 14/06 A3019 RMK AO2 SLP222
     T01390061 53003=
KTTN 232053Z 03010KT 10SM OVC037 16/09 A3022 RMK AO2 RAB15E31
     SLP226 P0000 60000 T01560089 55007=
KTVC 232053Z 17011G22KT 10SM BKN060 BKN250 24/11 A2992 RMK AO2
     SLP131 T02440106 56010=
KTVL 232053Z AUTO 10008G16KT 10SM BKN060 05/M10 A3000 RMK AO2
     SLP152 T00501100 53005=
KTWF 232053Z 29022G33KT 10SM FEW038 FEW055 06/M02 A2990 RMK AO2 PK
     WND 30035/2005 SLP117 T00611022 53007=
KUAO 232053Z 16004KT 10SM BKN032 BKN043 BKN050 14/04 A3020 RMK AO2
     SLP225 T01440039 53006=
KUNO 232053Z AUTO 17014G23KT 10SM CLR 25/14 A2987 RMK AO2 PK WND
     20029/2040 SLP104 T02500144 56013=
KUTS 232053Z AUTO 17012G25KT 10SM BKN065 31/13 A2986 RMK AO2 PK
     WND 18029/2024 SLP105 T03060133 56027=
KVCB 232053Z AUTO 36016G30KT 10SM CLR 22/M03 A2999 RMK AO2 PK WND
     01030/2044 SLP153 T02171033 58007=
KVDF 232055Z AUTO 02003KT 10SM SCT060 29/17 A3006 RMK AO2=
KVEL 232053Z AUTO 24006KT 10SM CLR 04/01 A2968 RMK AO2 SLP051
     60000 T00440006 51014=
KPAE 232053Z 21007KT 180V240 10SM BKN005 BKN016 BKN038 11/06 A3017
     RMK AO2 SLP217 T01060056 51012=
KPBF 232053Z AUTO 18017G23KT 10SM CLR 29/12 A2991 RMK AO2 SLP124
     T02940117 56028=
KPBG 232053Z AUTO 00000KT 10SM CLR 15/08 A3028 RMK AO2 SLP257
     T01500083 56004=
KPCZ 232055Z AUTO 10015KT 10SM SCT049 23/13 A2977 RMK AO2
     T02250125=
KPDK 232053Z 00000KT 10SM CLR 23/02 A3014 RMK AO2 SLP205 T02280017
     56020=
KPDT 232053Z 29010KT 10SM CLR 12/03 A3010 RMK AO2 SLP192 T01170028
     53009=
KPEO 232053Z AUTO 14006KT 10SM CLR 19/03 A3024 RMK AO2 SLP240
     T01940028 58006=
