SAPA31 KWBC 232100 RRC
METAR
PKWA 232120Z AUTO 16013KT 5SM -RA SCT009 BKN065 OVC090 24/23 A2992
     RMK AO2 T02440232 PNO=
