SAUS80 KWBC 232020
METAR
K9MN 232015Z AUTO 13020G30KT 110V170 10SM CLR 23/12 A2956 RMK AO1
     T02320117=
KTKC 232015Z AUTO 15027G33KT 10SM 25/10 A2935 RMK AO2
     T02530101=
K40U 232015Z AUTO 30011G24KT 7SM -RA SCT024 BKN043 OVC060 02/M03
     A2971 RMK AO2 T00171032=
KCTY 232015Z AUTO 03007KT 10SM CLR 28/10 A3008 RMK AO2
     T02810103=
KJNX 232015Z AUTO 36006KT 10SM CLR 22/12 A3012 RMK AO2=
KCIR 232015Z AUTO 22015G20KT 10SM SCT050 SCT100 27/14 A2995 RMK
     AO2 T02700142=
KLYV 232015Z AUTO 16018G28KT 10SM CLR 26/10 A2931 RMK AO2=
KPOV 232015Z AUTO 15004KT 10SM CLR 24/00 A3015 RMK AO2 T02351005
     PWINO=
KGNG 232015Z AUTO 27023G32KT 10SM CLR 08/M01 A2989 RMK AO2=
KS39 232015Z AUTO 33006KT 10SM SCT041 09/M02 A3010 RMK AO2=
K40B 232016Z AUTO VRB03KT 19/05 A3032 RMK AO1 SLP270 T01910054
     56004=
KVTI 232015Z AUTO 15022G32KT 10SM CLR 25/13 A2961 RMK AO2
     T02460130=
K9MN 232015Z AUTO 13020G30KT 110V170 10SM CLR 23/12 A2956 RMK AO1
     T02320117=
KTKC 232015Z AUTO 15027G33KT 10SM 25/10 A2935 RMK AO2
     T02530101=
KEDU 232020Z AUTO 36015G21KT 320V020 10SM CLR 19/M02 A2998 RMK
     AO1=
KMKN 232015Z AUTO 18016G24KT 10SM CLR 31/15 A2976 RMK AO2
     T03050145=
KCKP 232015Z AUTO 17020G28KT 10SM SCT120 27/12 A2935 RMK AO2
     T02700117=
KDBN 232015Z AUTO 07004KT 10SM CLR 26/07 A3016 RMK AO2=
KEHA 232015Z AUTO 21033G43KT 7SM HZ CLR 28/04 A2945 RMK AO2
     T02810041=
KIZA 232015Z AUTO 05008G14KT 10SM CLR 23/M05 A2986 RMK AO2=
K48A 232015Z AUTO 06007KT 050V110 10SM CLR 25/10 A3014 RMK AO2
     T02470097=
K4BM 232015Z AUTO 13006G18KT 10SM BKN008 BKN014 OVC037 M01/M02
     A2961 RMK AO2=
K40U 232015Z AUTO 30011G24KT 7SM -RA SCT024 BKN043 OVC060 02/M03
     A2971 RMK AO2 T00171032=
KRLD 232015Z AUTO 23003KT 10SM CLR 15/00 A3010 RMK AO2
     T01510002=
KSEP 232015Z AUTO 18017G25KT 10SM CLR 30/14 A2978 RMK AO2
     T02960135=
