SASA31 KWBC 231800 RRA
METAR
SVBC 231803Z AUTO 32010KT NCD 31/25 Q1011=
SVMC 231803Z AUTO NIL=
SVMG 231803Z AUTO 10013KT NCD 32/24 Q1010=
SVMI 231803Z AUTO 07010KT NCD ///// Q1012=
