SASA31 KWBC 231700 RRA
METAR
SVBC 231703Z AUTO 32004KT NCD 31/25 Q1012=
SVBC 231700Z 34010KTS 9000 HZ SCT013 33/// Q1010=
SVMC 231703Z AUTO NIL=
SVMG 231703Z AUTO 09013KT NCD 31/25 Q1012=
SVMI 231703Z AUTO 07011KT NCD ///// Q1013=
SYCJ 231700Z 04006KT 9999 FEW023CB BKN024 32/26 Q1009 NOSIG RMK CB
     S-W=
