SAUS70 KWBC 231840
METAR
KWBF 231835Z AUTO VRB05G11KT 10SM 26/18 A3004 RMK A01=
KY31 231835Z AUTO 13010KT 10SM BKN050 23/11 A3004 RMK AO2
     T02270105=
KY49 231835Z AUTO 08007KT 10SM CLR 19/11 A2953 RMK AO2
     T01930105=
KADC 231836Z AUTO 11015G22KT 10SM CLR 23/11 A2946 RMK AO2 TSNO=
KATP 231835Z AUTO 10014KT 10SM CLR 25/17 A3006 RMK A01=
KBAX 231835Z AUTO 17010G19KT 10SM CLR 23/11 A3010 RMK AO2
     T02270111=
KBQX 231835Z AUTO 16012G17KT 9SM 28/17 A2994 RMK A01=
KCDD 231833Z AUTO 13003KT 10SM CLR 22/09 A2967 RMK AO2=
KD39 231835Z AUTO 11018G24KT 10SM CLR 22/12 A2946 RMK AO2
     T02170120=
KDSF 231835Z AUTO 07005KT 10SM CLR 25/14 A3009 RMK A01=
KERY 231835Z AUTO 16012G19KT 10SM CLR 21/11 A2997 RMK AO2
     T02090113=
KGHB 231835Z AUTO 00000KT 8SM OVC060 26/16 A3002 RMK A01=
KGLX 231835Z AUTO 04010KT 10SM CLR 26/13 A3008 RMK A01=
KGRY 231835Z AUTO 12011KT 10SM CLR 24/16 A3006 RMK A01=
KHCD 231835Z AUTO 11021G27KT 10SM CLR 24/12 A2948 RMK AO2
     T02380122=
KHHV 231835Z AUTO 15013G21KT 10SM FEW031 26/19 A2992 RMK A01=
KHYX 231835Z AUTO 17016G24KT 10SM CLR 24/10 A3007 RMK AO2
     T02400100=
KIMS 231835Z AUTO 18013G17KT 10SM SCT055 25/10 A3011 RMK AO2=
KLVN 231835Z AUTO 13014G26KT 10SM CLR 24/11 A2953 RMK AO2=
KLXL 231835Z AUTO 13013G25KT 10SM CLR 23/12 A2950 RMK AO2=
KMCD 231835Z AUTO 14007KT 10SM SCT050 21/11 A3001 RMK AO2
     T02100108=
KMJQ 231835Z AUTO 15019G25KT 10SM CLR 23/11 A2944 RMK AO2=
KMOP 231835Z AUTO 16017G22KT 10SM BKN060 23/10 A3003 RMK AO2
     T02310097=
KMZH 231835Z AUTO 12004KT 10SM CLR 23/11 A2961 RMK AO2=
KONA 231835Z AUTO 14011G19KT 10SM CLR 25/12 A2962 RMK AO2=
KORB 231837Z AUTO 12007G16KT 090V150 10SM CLR 23/11 A2962 RMK
     AO2=
KOSC 231835Z AUTO 16009G14KT 10SM CLR 22/11 A3008 RMK AO2
     T02210114=
KPEX 231835Z AUTO 12017G23KT 10SM CLR 22/12 A2946 RMK AO2=
KPMH 231835Z AUTO 17005KT 10SM CLR 26/05 A3016 RMK AO2
     T02620047=
KPZZ 231835Z AUTO 11019KT 9SM CLR 25/17 A3005 RMK A01=
KRMY 231835Z AUTO 18011G18KT 10SM CLR 24/11 A3004 RMK AO2
     T02350105=
KVAF 231835Z AUTO 17017KT 10SM CLR 28/16 A2996 RMK A01=
KVOA 231840Z AUTO 07011KT 10SM CLR 24/16 A3011 RMK A01=
K04W 231835Z AUTO 11011G17KT 10SM CLR 22/12 A2959 RMK AO2=
K33N 231835Z AUTO 03008KT 10SM OVC021 16/14 A3017 RMK A01=
K3LF 231835Z AUTO 15023G30KT 10SM BKN031 23/14 A2988 RMK AO2
     T02280137=
KAEL 231835Z AUTO 15025G32KT 10SM CLR 23/13 A2954 RMK AO2=
KCNB 231835Z AUTO 10023G29KT 10SM CLR 23/12 A2936 RMK AO2
     T02340115=
KDTL 231835Z AUTO 13016G22KT 10SM CLR 22/11 A2944 RMK AO2=
KDYT 231835Z AUTO 07011KT 10SM FEW070 12/10 A2967 RMK AO2=
KFFX 231835Z AUTO 17009G14KT 10SM BKN055 BKN065 24/12 A2996 RMK
     AO2 T02430116=
KFPK 231835Z AUTO 18015G23KT 10SM SCT055 24/10 A3003 RMK AO2
     T02370102=
KHSB 231835Z AUTO 18015G22KT 10SM BKN049 25/17 A2998 RMK AO2
     T02500165=
KIFA 231835Z AUTO 15021G27KT 10SM CLR 24/14 A2956 RMK AO2
     T02420143=
KIRS 231835Z AUTO 19019G24KT 10SM CLR 24/09 A3002 RMK AO2
     T02360094=
KISQ 231835Z AUTO 14009G15KT 10SM CLR 17/11 A2996 RMK AO2
     T01660111=
KJPX 231835Z AUTO 04007KT 7SM -RA BKN011 BKN017 OVC060 14/14 A3025
     RMK AO2 P0032 T01350135=
KLWA 231835Z AUTO 15014G20KT 10SM CLR 25/12 A2995 RMK AO2
     T02540123=
KOXD 231835Z AUTO 19008G17KT 10SM SCT050 26/05 A3011 RMK AO2
     T02640051=
KS24 231835Z AUTO 17012KT 10SM FEW060 25/10 A3012 RMK AO2=
KSLH 231835Z AUTO 16006G15KT 10SM CLR 23/11 A3000 RMK AO2=
KUKT 231835Z AUTO 05005KT 10SM CLR 17/10 A3025 RMK A01=
KULM 231835Z AUTO 15022G28KT 10SM CLR 24/11 A2945 RMK AO2=
