SAUS70 KWBC 231844
METAR
KSLR 231830Z AUTO 18015G26KT 10SM BKN046 28/15 A2988 RMK AO2
     T02810147=
KTOC 231835Z AUTO 29004KT 10SM CLR 23/01 A3017 RMK AO2
     T02290010=
KTXW 231830Z AUTO 16018G27KT 1SM HZ VV007 31/18 A2983 RMK AO2 VIS
     1/2V3 T03130181=
KULS 231835Z AUTO 22042G54KT 1 1/2SM HZ VV007 28/00 A2938 RMK
     AO2=
KWWR 231835Z AUTO 18022G30KT 10SM CLR 26/11 A2958 RMK AO2=
KX07 231835Z AUTO 02007KT 10SM FEW049 SCT060 28/17 A3008 RMK
     A01=
KX26 231835Z AUTO 01014KT 10SM CLR 27/20 A3007 RMK AO2
     T02660195=
K19S 231835Z AUTO 21030G44KT 3SM HZ CLR 30/05 A2941 RMK AO2
     T02960049=
K20V 231835Z AUTO 20008KT 10SM SCT022 SCT029 BKN050 05/00 A2955
     RMK AO2=
K2J5 231835Z AUTO 29004KT 10SM CLR 24/10 A3016 RMK AO2
     T02420099=
KADH 231835Z AUTO 17019G24KT 10SM CLR 27/16 A2977 RMK AO2=
KADT 231835Z AUTO 22024G34KT 10SM CLR 28/M01 A2931 RMK AO2
     T02821008=
KANK 231830Z AUTO 27014G22KT 10SM SCT024 SCT030 SCT035 09/00 A2962
     RMK AO1 T00871005=
KBMC 231830Z AUTO 10SM BKN070 OVC095 05/M02 A2980 RMK AO1
     T00501022=
KCHK 231830Z AUTO 18021G29KT 10SM CLR 27/16 A2966 RMK AO2
     T02700158=
KDCY 231835Z AUTO 16017G20KT 10SM CLR 26/10 A3001 RMK AO2
     T02580103=
KDUB 231834Z AUTO 28020G27KT 10SM SCT031 SCT120 01/M08 A2957 RMK
     AO2=
KEAN 231830Z AUTO 34017G26KT 10SM BKN037 OVC070 09/03 A2941 RMK
     AO2 T00850031=
KEBS 231835Z AUTO 16021G33KT 10SM CLR 25/14 A2948 RMK AO2=
KGLE 231835Z AUTO 17020G28KT 10SM CLR 28/15 A2979 RMK AO2
     T02780147=
KGNB 231835Z AUTO 23004KT 10SM SCT026 BKN034 OVC110 04/M01 A2956
     RMK AO2 T00371011=
KGNC 231835Z AUTO 23015G27KT 10SM CLR 28/10 A2977 RMK AO2
     T02810099=
KHBV 231830Z AUTO 18015G23KT 10SM CLR 30/17 A2983 RMK AO2
     T03000169=
KHEQ 231835Z AUTO 28013G18KT 10SM CLR 27/M02 A2922 RMK AO2=
KHSG 231830Z AUTO 36011KT 5SM -SN SCT012 BKN016 OVC023 01/00 A2962
     RMK AO2 T00100001=
KMHP 231835Z AUTO 00000KT 10SM CLR 25/11 A3014 RMK AO2
     T02470113=
KMMH 231834Z AUTO 34011KT 10SM CLR 06/M10 A2997 RMK AO2=
KMPZ 231830Z AUTO 17019G27KT 10SM CLR 24/17 A2970 RMK AO2=
KMYP 231834Z AUTO OVC002 M05/M06 A2972 RMK AO2 PWINO=
KMYZ 231830Z AUTO 19024G31KT 10SM CLR 28/13 A2943 RMK AO2=
KOSA 231830Z AUTO 17014G23KT 10SM BKN046 27/17 A2989 RMK AO2
     T02720171=
KOZA 231835Z AUTO 19012G23KT 10SM CLR 26/14 A2984 RMK AO2=
KPEQ 231835Z AUTO 23015G25KT 10SM CLR 32/08 A2972 RMK AO2
     T03150076=
KPVW 231830Z AUTO 23021G31KT 10SM CLR 28/09 A2967 RMK AO2
     T02770091=
KRBW 231835Z AUTO 02007KT 10SM CLR 23/10 A3015 RMK AO2=
KOAR 231835Z AUTO 27004KT 10SM CLR M06/M20 A3000 RMK AO2=
KOSC 231835Z AUTO 16009G14KT 10SM CLR 22/11 A3008 RMK AO2
     T02210114=
K11R 231835Z AUTO 16012G18KT 10SM SCT049 SCT060 OVC065 30/17 A2990
     RMK AO2 T02960170=
KAFO 231835Z AUTO 31011KT 10SM BKN026 OVC032 00/M07 A2972 RMK
     AO2=
KAXX 231835Z AUTO 22027G39KT 10SM SCT048 BKN050 OVC070 11/M01
     A2967 RMK AO2 T01081014=
KBMC 231830Z AUTO 10SM BKN070 OVC095 05/M02 A2980 RMK AO1
     T00501022=
KBMT 231835Z AUTO 15014G19KT 10SM OVC039 27/17 A2997 RMK AO2
     T02740174=
KDUX 231835Z AUTO 19023G31KT 10SM CLR 27/09 A2958 RMK AO2
     T02670086=
KETN 231835Z AUTO 17017G25KT 10SM CLR 27/15 A2977 RMK AO2
     T02720152=
KFWZ 231835Z AUTO 34013G18KT 10SM SCT036 OVC046 M02/M05 A2956 RMK
     AO2=
KGNB 231835Z AUTO 23004KT 10SM SCT026 BKN034 OVC110 04/M01 A2956
     RMK AO2 T00371011=
KHCR 231835Z AUTO 36011G15KT 10SM OVC055 05/M07 A2972 RMK AO2=
KHEQ 231835Z AUTO 28013G18KT 10SM CLR 27/M02 A2922 RMK AO2=
