SAUS70 KWBC 231926
METAR
KOAR 231915Z AUTO 27007KT 10SM CLR M05/M22 A3000 RMK AO2=
KOSC 231915Z AUTO 10007KT 10SM CLR 22/12 A3008 RMK AO2
     T02180119=
KEZS 231935Z AUTO 13011G16KT 10SM CLR 23/14 A2981 RMK AO2
     T02300141=
KJVY 231915Z AUTO 19011G16KT 10SM CLR 26/08 A3006 RMK AO2
     PWINO=
KRGA 231921Z AUTO 13005KT 10SM CLR 26/06 A3014 RMK AO2=
KTNB 231910Z AUTO 00000KT 10SM CLR 20/02 A3021 RMK AO2
     T02040015=
