SAUS70 KWBC 231900 RRA
METAR
KFHR 231853Z AUTO 12003KT 10SM CLR 11/08 A3015 RMK AO2 SLP209
     T01110078=
KFTW 231853Z 16021G39KT 10SM CLR 29/17 A2977 RMK AO2 PK WND
     18039/1849 SLP073 T02890167 $=
KGGG 231853Z 17018G24KT 10SM BKN043 29/15 A2990 RMK AO2 PK WND
     17028/1826 SLP117 T02890150=
KGUP 231853Z AUTO 24013G26KT 10SM -RA BKN022 OVC032 05/02 A2980
     RMK AO2 PK WND 24029/1838 SLP021 P0000 T00500022=
KHLN 231852Z 32011KT 2SM -SN FEW013 OVC021 02/M01 A2984 RMK AO2
     SLP143 P0000 T00171011=
KLVJ 231853Z AUTO 17016G23KT 10SM SCT055 29/17 A2994 RMK AO2 PK
     WND 18026/1757 SLP137 T02890167=
KLVK 231853Z 35009KT 10SM CLR 19/M01 A2999 RMK AO2 SLP154
     T01891011=
KMAE 231853Z AUTO 31012KT 10SM CLR 18/01 A2994 RMK AO2 SLP138
     T01830011=
KMYF 231853Z 22009KT 10SM SCT032 19/09 A2987 RMK AO2 SLP112
     T01890089=
KOAK 231853Z 34007G16KT 270V010 10SM CLR 19/03 A3001 RMK AO2
     SLP162 T01890028=
KOLF 231853Z AUTO 06017G25KT -RA BKN009 OVC012 05/04 A2953 RMK AO2
     CIG 005V010 SLP014 P0001 T00500039=
KOMK 231853Z AUTO 35009KT 10SM CLR 12/M02 A3004 RMK AO2 SLP179
     T01221022=
KVGT 231853Z 35021G35KT 10SM CLR 17/M09 A2984 RMK AO2 PK WND
     32035/1844 SLP112 T01671094 $=
KASX 231853Z AUTO 14012G21KT 10SM CLR 24/13 A2968 RMK AO2 SLP052
     T02440128=
KBIS 231852Z 07012KT 10SM CLR 14/06 A2929 RMK AO2 SLP922
     T01440056=
KDTW 231853Z 16010KT 10SM FEW060 BKN220 23/10 A3011 RMK AO2 SLP195
     T02330100 $=
KEWB 231853Z 03007KT 10SM SCT060 BKN070 OVC120 14/14 A3028 RMK AO2
     RAE30 SLP253 P0000 T01440144=
KGFK 231853Z 09010G16KT 10SM FEW250 21/09 A2942 RMK AO2 SLP966
     T02060089 $=
KHAO 231853Z AUTO VRB05KT 10SM CLR 26/09 A3010 RMK AO2 SLP192
     T02560089=
KHGR 231853Z 02009KT 10SM FEW026 OVC041 18/10 A3024 RMK AO2 SLP250
     T01780100 $=
KHUL 231853Z AUTO VRB03KT 10SM CLR 21/07 A3033 RMK AO2 SLP272
     T02060072=
KICR 231853Z AUTO 17010KT CLR 26/04 A2914 RMK AO2 SLP853
     T02560039=
KIML 231853Z AUTO 23019G41KT 10SM FEW039 28/M03 A2920 RMK AO2 PK
     WND 21045/1813 SLP860 T02831028 $=
KLHQ 231853Z AUTO 17007KT 10SM CLR 24/09 A3014 RMK AO2 SLP205
     T02440089=
KMTJ 231853Z AUTO 21011KT 10SM FEW070 BKN085 07/01 A2963 RMK AO2
     SLP982 T00720011 $=
KMTO 231853Z AUTO 15020G36KT 10SM SCT044 24/13 A2992 RMK AO2 PK
     WND 17037/1826 SLP125 T02440133=
KRCX 231855Z AUTO 15015G23KT 10SM CLR 23/16 A2971 RMK AO2
     T02270155=
KTTN 231853Z 06016KT 10SM SCT048 17/10 A3023 RMK AO2 SLP229
     T01670100=
KEYE 231853Z AUTO 16012G22KT 10SM FEW055 25/11 A3000 RMK AO2
     SLP154 T02500106 $=
KFCM 231853Z 13020G28KT 10SM CLR 25/12 A2950 RMK AO2 PK WND
     15033/1812 SLP985 T02500122 $=
KFLD 231853Z AUTO 15014KT 10SM CLR 25/12 A2980 RMK AO2 SLP089
     T02500117=
KFRG 231853Z 04007KT 10SM OVC060 15/10 A3025 RMK AO2 SLP242
     T01500100 $=
KFVE 231853Z AUTO 16004KT 10SM CLR 20/06 A3031 RMK AO2 SLP262
     T02000061=
KFWN 231853Z AUTO 04006KT 10SM CLR 16/08 A3029 RMK AO2 SLP257
     T01610078 $=
KGRB 231853Z 14012KT 10SM CLR 22/12 A2985 RMK AO2 SLP106 T02170122
     $=
KHEI 231853Z AUTO 35008KT 10SM BKN024 BKN030 11/04 A2932 RMK AO2
     SLP932 T01110039=
KHZY 231853Z AUTO 17008KT 10SM CLR 23/06 A3019 RMK AO2 SLP219
     T02330061=
KMBS 231853Z 16017G24KT 10SM FEW055 24/11 A3006 RMK AO2 PK WND
     18028/1813 SLP177 T02390111=
KMSP 231853Z 14020G36KT 10SM FEW045 24/12 A2952 RMK AO2 PK WND
     13036/1846 SLP993 T02390122=
KOSH 231853Z 13015G23KT 10SM CLR 23/13 A2980 RMK AO2 SLP084
     T02280128=
KUUU 231853Z AUTO 04006KT 10SM BKN050 OVC110 14/12 A3028 RMK AO2
     RAE47 SLP255 P0001 T01440117=
