SAUS80 KWBC 231720
METAR
KCTY 231715Z AUTO 01008KT 320V020 10SM CLR 25/12 A3014 RMK AO2
     T02540124=
K40U 231715Z AUTO 30010KT 10SM OVC048 01/M04 A2967 RMK AO2
     T00071038=
K48A 231715Z AUTO 02007KT 10SM CLR 22/10 A3019 RMK AO2
     T02230105=
K4BM 231715Z AUTO 17014G26KT 1/4SM SN OVC002 M01/M02 A2962 RMK
     AO2=
KSNC 231715Z AUTO 02005KT 10SM CLR 14/08 A3029 RMK AO2=
KEDU 231720Z AUTO 34018G24KT 9SM CLR 17/00 A3000 RMK AO1=
KMKN 231715Z AUTO 19019G26KT 10SM SCT031 27/17 A2985 RMK AO2
     T02690166=
KRFI 231715Z AUTO 17012G17KT 10SM BKN038 BKN046 28/13 A2995 RMK
     AO2 T02840130=
KRLD 231715Z AUTO 00000KT 10SM SCT100 12/03 A3006 RMK AO2
     T01160026=
KSYN 231715Z AUTO 13013G22KT 10SM CLR 23/12 A2959 RMK AO2
     T02250120=
KTKV 231715Z AUTO 15004KT 10SM CLR 21/12 A2981 RMK AO2 T02060118
     PWINO=
KGNG 231715Z AUTO 28019G24KT 10SM CLR 04/M01 A2988 RMK AO2=
KSEP 231715Z AUTO 18018G25KT 10SM SCT033 27/15 A2986 RMK AO2
     T02680152=
KCIR 231715Z AUTO 21010G19KT 10SM OVC046 24/15 A3003 RMK AO2
     T02380147=
KCKP 231715Z AUTO 17020G30KT 10SM CLR 24/13 A2941 RMK AO2
     T02350130=
KDBN 231715Z AUTO 05006KT 10SM CLR 25/09 A3020 RMK AO2=
KEHA 231715Z AUTO 22032G41KT 10SM CLR 27/05 A2951 RMK AO2
     T02660053=
KIZA 231715Z AUTO 24004KT 10SM CLR 13/08 A2990 RMK AO2=
KPSN 231715Z AUTO 17012G22KT 140V200 10SM FEW041 SCT050 27/17
     A2992 RMK AO2=
KSOA 231715Z AUTO 10SM 25/16 A2990 RMK AO2=
