SAUS70 KWBC 231632
METAR
KDLL 231635Z AUTO 16014G18KT 10SM CLR 19/11 A2981 RMK AO2
     T01860110=
KEFT 231635Z AUTO 18019G22KT 10SM CLR 20/12 A2983 RMK AO2
     T02030115=
KEVM 231621Z AUTO 17008KT 10SM CLR 18/10 A2970 RMK AO2=
KEZS 231635Z AUTO 17006KT 10SM CLR 21/14 A2987 RMK AO2
     T02100136=
KGAF 231635Z AUTO 04014KT 9SM CLR 11/06 A2954 RMK AO2=
KPDC 231635Z AUTO 12012G16KT 10SM CLR 21/12 A2973 RMK AO2
     T02140117=
KSUW 231635Z AUTO 07010KT 10SM SCT075 BKN095 12/09 A2971 RMK AO2
     T01180091=
KDYA 231635Z AUTO 17005KT 10SM CLR 23/09 A3019 RMK AO2
     T02320093=
KFRH 231635Z AUTO 19004KT 10SM CLR 22/09 A3010 RMK AO1=
KGWW 231635Z AUTO 32010G14KT 10SM CLR 20/12 A3016 RMK AO2
     T01980121=
KJYO 231635Z AUTO 06006KT 10SM SCT015 OVC025 16/10 A3028 RMK
     AO2=
KLQK 231635Z AUTO 10SM CLR 22/03 A3022 RMK AO2 T02170028=
KMRN 231635Z AUTO 00000KT 10SM CLR 19/07 A3027 RMK AO2
     T01910069=
KMYJ 231635Z AUTO 18012G19KT 10SM CLR 24/15 A2977 RMK AO2=
KOIC 231635Z AUTO 00000KT 10SM CLR 13/07 A3034 RMK AO2
     T01320066=
KPBH 231635Z AUTO 14010G15KT 10SM CLR 18/12 A2978 RMK AO2
     T01800120=
KPTB 231635Z AUTO 01008KT 10SM OVC016 16/11 A3020 RMK AO2
     T01550108=
KTGI 231635Z AUTO 35012KT 10SM OVC009 16/14 A3015 RMK AO1
     T01640143=
KVNW 231635Z AUTO 19009KT 10SM CLR 22/09 A3013 RMK AO2=
K6S8 231625Z AUTO 30016G29KT 10SM 05/M01 A2960 RMK A01 Laurel=
