SAUS70 KWBC 231800 RRX
METAR
PANV 231756Z AUTO 14006KT 10SM BKN100 M03/M03 A2999 RMK AO2 SLP259
     T10281033 11028 21039 58006 FZRANO TSNO=
PANV 231756Z AUTO 14006KT 10SM BKN100 M03/M03 A2999 RMK AO2 SLP259
     T10281033 11028 21039 58006 FZRANO TSNO=
KGZN 231800Z AUTO 18019G28KT 10SM CLR 27/15 A2977 RMK AO2=
KBBG 231745Z 17010G18KT 10SM CLR 27/14 A2985=
