SAUS70 KWBC 231700 RRM
METAR
KHZY 231653Z AUTO 13004KT 10SM CLR 22/06 A3023 RMK AO2 SLP235
     T02220061=
KI69 231655Z AUTO 21009G14KT 10SM CLR 23/10 A3018 RMK AO2
     T02300096=
KIMT 231654Z AUTO 15007KT 10SM CLR 18/12 A2989 RMK AO2 SLP122
     T01830122=
KLDM 231655Z AUTO 18013G18KT 10SM CLR 23/11 A2997 RMK AO2
     T02250109=
KMSP 231653Z 14016G29KT 10SM CLR 22/12 A2959 RMK AO2 PK WND
     15032/1636 SLP018 T02170117=
KPKD 231653Z AUTO 13014G20KT 10SM CLR 18/09 A2955 RMK AO2 SLP006
     T01830094=
KSUX 231652Z 16019G28KT 10SM CLR 24/13 A2936 RMK AO2 PK WND
     16030/1623 SLP939 T02390133=
KTVC 231653Z 14008G16KT 10SM FEW200 SCT250 23/11 A2998 RMK AO2
     SLP149 T02280111=
KBKL 231653Z 15007KT 10SM CLR 24/07 A3018 RMK AO2 SLP217
     T02390072=
KFFM 231655Z AUTO 12016G20KT 10SM CLR 19/11 A2945 RMK AO2=
KGRI 231653Z 18020G30KT 10SM CLR 26/10 A2931 RMK AO2 PK WND
     17030/1647 SLP915 T02610100 $=
KHEI 231653Z AUTO 05012G19KT 10SM CLR 09/03 A2932 RMK AO2 SLP930
     T00890033=
KHSI 231653Z AUTO 18018G35KT 10SM -RA CLR 26/11 A2933 RMK AO2 PK
     WND 19035/1653 SLP917 P0000 T02560106 $=
KJKJ 231655Z AUTO 12010KT 10SM CLR 20/11 A2945 RMK AO2 TSNO=
KJMR 231655Z AUTO 12008G15KT 10SM CLR 20/10 A2966 RMK AO2=
KLJF 231655Z AUTO 13017G22KT 10SM CLR 21/11 A2952 RMK AO2=
KLNL 231655Z AUTO 16008G18KT 10SM CLR 19/11 A2986 RMK AO2
     T01920110=
KMGG 231655Z AUTO 12008KT 10SM CLR 21/11 A2957 RMK AO2 T02110110
     PWINO=
KMHE 231653Z AUTO 14024G34KT 10SM CLR 22/11 A2925 RMK AO2 PK WND
     15034/1647 SLP900 T02220111=
KMVE 231655Z AUTO 14019G25KT 10SM CLR 21/12 A2944 RMK AO2=
KPCZ 231655Z AUTO 13010KT 10SM CLR 22/12 A2984 RMK AO2
     T02170122=
KPEO 231653Z AUTO 22006KT 10SM CLR 19/04 A3028 RMK AO2 SLP252
     T01890044=
KPHD 231653Z AUTO VRB03KT 10SM CLR 20/08 A3022 RMK AO2 SLP233
     T02000078=
KPTK 231653Z 14008KT 10SM BKN200 20/11 A3015 RMK AO2 SLP206
     T02000106 $=
KTEW 231655Z AUTO 14012G16KT 10SM CLR 23/11 A3010 RMK AO2
     T02270108=
KTQE 231654Z AUTO 17025G34KT 10SM CLR 27/13 A2938 RMK AO2 PK WND
     17034/1654 SLP939 T02670133=
KBKE 231653Z AUTO 31005KT 10SM OVC055 03/01 A3001 RMK AO2 SLP181
     T00330006=
KBLI 231653Z 00000KT 10SM FEW007 OVC042 06/06 A3009 RMK AO2 SLP200
     T00610061=
KHJO 231653Z AUTO 32014G26KT 8SM CLR 16/02 A2995 RMK AO2 PK WND
     30026/1648 SLP142 T01560017=
KIWA 231650Z 24016KT 10SM SCT055 21/09 A2980 HZ=
KJSO 231655Z AUTO 19012G20KT 10SM SCT034 SCT041 SCT047 26/18 A2997
     RMK AO2 T02610176 TSNO=
KL18 231655Z AUTO 14003KT 10SM SCT020 16/11 A2989 RMK AO2=
KLMT 231653Z VRB03KT 10SM FEW029 BKN035 02/M01 A3008 RMK AO2
     SLP197 T00221011=
KLVK 231653Z 00000KT 10SM CLR 12/05 A3000 RMK AO2 SLP158
     T01220050=
KMCE 231653Z AUTO 34016KT 10SM CLR 16/01 A2994 RMK AO2 SLP139
     T01560011=
KMFR 231653Z 00000KT 10SM CLR 08/05 A3017 RMK AO2 SLP219
     T00830050=
KOMK 231653Z AUTO 00000KT 10SM CLR 08/M02 A3004 RMK AO2 SLP180
     T00831017=
KPDT 231653Z 25008KT 10SM FEW075 BKN095 08/02 A3006 RMK AO2 SLP178
     T00830022=
KSAC 231653Z 32014KT 10SM CLR 16/01 A2998 RMK AO2 SLP152
     T01560011=
KSHN 231653Z AUTO 00000KT M1/4SM FG VV002 03/03 A3011 RMK AO2
     SLP199 T00330033=
KSNS 231653Z 27005KT 10SM CLR 14/07 A2999 RMK AO2 SLP165
     T01390072=
KTTD 231653Z 12004KT 10SM FEW028 OVC055 11/08 A3014 RMK AO2 SLP205
     T01060078=
K1MW 231655Z AUTO 34015KT 10SM M 19/M02 A2513 RMK AO2 SLP440
     T01851019 FZRANO $=
KGGW 231653Z AUTO 04014KT 8SM -RA OVC020 04/03 A2952 RMK AO2
     SLP010 P0004 T00440028=
KHAF 231655Z AUTO 34012KT 7SM CLR 14/08 A3002 RMK AO2=
