SAUS80 KWBC 231648
METAR
KGIC 231635Z AUTO 27005KT 10SM OVC029 02/01 A2996 RMK AO1=
KPSN 231635Z AUTO 17013G25KT 140V200 10SM SCT036 BKN045 BKN055
     27/18 A2992 RMK AO2=
KSOA 231635Z AUTO 15014KT 10SM CLR 23/16 A2991 RMK AO2=
KCBE 231635Z AUTO 00000KT 10SM CLR 13/05 A3034 RMK AO2
     T01300054=
KLZZ 231635Z AUTO 19014G25KT 10SM SCT036 25/16 A2986 RMK AO2
     T02470161=
