SAUS70 KWBC 231800 RRX
METAR
KFTN 231755Z AUTO 15011KT 130V190 10SM CLR 27/18 A2983 RMK A01=
KFYE 231745Z AUTO 19011G17KT 160V220 10SM SCT041 25/14 A3005 RMK
     A01=
KFYM 231750Z AUTO 19010G16KT 10SM CLR 22/05 A3019 RMK A01=
KGAD 231756Z AUTO 17006KT 10SM CLR 23/06 A3019 RMK AO2 SLP224
     T02280056 10233 20039 58021 $=
KGAO 231755Z AUTO 11010G17KT 10SM CLR 27/15 A3010 RMK AO2
     T02650147 10265 20185=
KGCY 231745Z AUTO 00000KT 10SM CLR 20/04 A3020 RMK A01=
KGDJ 231755Z AUTO 18023G28KT 10SM CLR 28/16 A2983 RMK AO2
     T02790157 10279 20201=
KGGI 231755Z AUTO 15022G27KT 10SM CLR 26/14 A2962 RMK AO2
     T02590144 10259 20169=
KGKT 231745Z AUTO VRB04KT 10SM CLR 22/05 A3020 RMK A01=
KGOO 231755Z AUTO 01007G13KT 340V040 10SM CLR 12/M08 A2996 RMK
     A01=
KGRN 231755Z AUTO 32013G18KT 10SM CLR 11/01 A2923 RMK AO2
     T01100010 10110 21012=
KGTR 231756Z 16012G18KT 10SM CLR 25/08 A3014 RMK AO2 SLP212
     T02500083 10250 20117 58016=
KGVQ 231756Z AUTO 08004KT 10SM CLR 21/07 A3023 RMK AO2 SLP234
     T02110067 10211 20106 58011=
KGYB 231755Z AUTO 17013G22KT 10SM SCT038 SCT043 SCT060 28/18 A2991
     RMK AO2 T02750181 10283 20182=
KGZS 231745Z AUTO 18007G14KT 150V220 10SM CLR 23/08 A3015 RMK
     A01=
KH71 231750Z AUTO 19018G30KT 10SM CLR 27/15 A2974 RMK AO2=
KHEZ 231756Z AUTO 14014G20KT 10SM FEW042 27/16 A3007 RMK AO2
     SLP181 T02670156 10267 20156 58014=
KHFJ 231755Z AUTO 18020G30KT 10SM OVC120 26/13 A2978 RMK AO2=
KUCP 231756Z AUTO VRB05KT 10SM CLR 22/04 A3022 RMK AO2 SLP247
     T02220044 10222 20033 58012=
KUCY 231745Z AUTO 19015G22KT 10SM CLR 26/13 A3002 RMK A01=
KUSE 231755Z AUTO 16017G22KT 10SM FEW050 24/10 A3009 RMK AO2=
KUVA 231755Z AUTO 16010KT 10SM CLR 26/18 A2988 RMK AO2 T02550182
     10255 20172=
KUXL 231755Z AUTO 14018G23KT 10SM BKN065 29/17 A3002 RMK AO2
     T02850170 10288 20178=
KVCV 231755Z AUTO 27013KT 10SM CLR 14/M03 A2993 RMK AO2=
KYKN 231756Z AUTO 16021G27KT 10SM CLR 25/12 A2927 RMK AO2 PK WND
     15027/1755 SLP915 T02500117 10250 20122 56024=
PAAD 231755Z AUTO 11012KT 10SM BKN003 BKN010 OVC039 M09/M10 A3003
     RMK AO2 T10891099 11065 21096=
PAUT 231755Z AUTO 22005KT 10SM BKN011 OVC070 06/05 A3023 RMK
     AO2=
KBTN 231755Z AUTO 14010G22KT 10SM CLR 20/10 A2931 RMK AO2=
KOAR 231755Z AUTO 00000KT 10SM CLR M05/M18 A3000 RMK AO2=
KRZR 231745Z AUTO 21005KT 10SM CLR 22/01 A3017 RMK A01=
KS33 231755Z AUTO 00000KT 10SM CLR 07/00 A3012 RMK AO2=
KSAR 231755Z AUTO 18019G26KT 10SM BKN033 23/15 A2993 RMK AO2
     T02250146 10228 20179=
KSCD 231755Z AUTO 21003KT 10SM CLR 24/05 A3019 RMK AO2 T02370054
     10239 20045=
KSCX 231745Z AUTO 19006KT 10SM CLR 22/03 A3019 RMK A01=
KSEM 231755Z AUTO 00000KT 10SM CLR 25/04 A3016 RMK AO2=
KSEZ 231755Z AUTO 27015G18KT 10SM 13/04 A2982 RMK AO2=
KSGH 231756Z AUTO 19009G16KT 10SM SCT055 24/10 A3014 RMK AO2
     SLP203 T02440100 10244 20122 58015=
KSLO 231755Z AUTO 18016G21KT 10SM OVC036 24/15 A2994 RMK AO2
     T02440145 10244 20180=
KSRB 231745Z AUTO 15007G14KT 10SM CLR 24/06 A3016 RMK A01=
KSRE 231755Z AUTO 10SM CLR 27/15 A2975 RMK AO2=
KSTE 231755Z AUTO 13011G20KT 10SM CLR 23/10 A2980 RMK AO2
     T02250100 10225 20120=
KSVH 231755Z AUTO 36004KT 10SM CLR 21/05 A3019 RMK AO2 T02100052
     10210 20030=
KSWW 231755Z AUTO 18022G29KT 10SM CLR 28/13 A2979 RMK AO2
     T02750131 10275 20191=
KSYF 231755Z AUTO 22028G40KT 4SM BKN034 OVC042 26/M04 A2927 RMK
     AO2 T02561042 10256 20163 PWINO=
KSYI 231745Z AUTO 19010G16KT 10SM CLR 23/06 A3016 RMK A01=
KSZT 231755Z AUTO 05008KT 10SM SCT018 08/02 A2999 RMK AO2=
KSZY 231745Z AUTO 17015G23KT 10SM CLR 23/08 A3010 RMK A01=
