SAHA31 KWBC 231800
METAR
KQHA NIL=
MTCA NIL=
MTCH NIL=
MTEG NIL=
MTJA NIL=
MTJE NIL=
MTPP 231800Z VRB02KT 9999 SCT028 31/22 Q1011 A2987=
MTPX NIL=
MTTP NIL=
