SAUS70 KWBC 232140 RRI
METAR
KBIJ 232135Z AUTO 07004KT 10SM CLR 25/02 A3011 RMK AO2=
KBQK 232135Z AUTO 09009KT 10SM CLR 23/12 A3013 RMK AO2
     T02250125=
KBUU 232135Z AUTO 18007KT 10SM SCT110 24/14 A2980 RMK AO2
     T02430139 PWINO=
KBVS 232135Z AUTO 14007KT 10SM CLR 13/06 A3015 RMK A01=
KBYY 232135Z AUTO 16011G14KT 10SM CLR 27/16 A2988 RMK AO2
     T02750166=
KC65 232135Z AUTO 15011G18KT 10SM CLR 24/10 A2995 RMK A01=
KCCO 232135Z AUTO 00000KT 10SM CLR 23/02 A3015 RMK AO2
     T02250016=
KCCU 232135Z AUTO 26015G26KT 1/2SM -SN OVC004 M05/M08 A2963 RMK
     AO2=
KCMD 232135Z AUTO 16007KT 10SM CLR 24/04 A3010 RMK AO2=
KUMP 232135Z AUTO 17014G23KT 10SM CLR 25/11 A3000 RMK AO2
     T02500107=
