SAUS70 KWBC 232100 RRX
METAR
KOZA 232055Z AUTO 20018G28KT 10SM CLR 25/14 A2980 RMK AO2=
KPEQ 232055Z AUTO 23015G19KT 10SM CLR 33/07 A2964 RMK AO2
     T03300072=
KPVW 232050Z AUTO 22019G27KT 10SM SCT080 27/09 A2963 RMK AO2
     T02670085=
KRAS 232050Z AUTO 14014G21KT 10SM CLR A2984 RMK AO2=
KRBW 232055Z AUTO 35004KT 10SM CLR 23/10 A3014 RMK AO2=
KSLR 232050Z AUTO 16017G25KT 10SM SCT050 29/14 A2981 RMK AO2
     T02900142=
KTOC 232055Z AUTO 10007KT 10SM CLR 24/02 A3015 RMK AO2
     T02350023=
KTXW 232050Z AUTO 15021G28KT 1/2SM HZ VV005 30/18 A2978 RMK AO2
     T03040183=
KULS 232055Z AUTO 21032G45KT 7SM CLR 28/02 A2937 RMK AO2=
KUYF 232055Z AUTO 17008KT 10SM CLR 23/03 A3010 RMK AO2=
KWWR 232055Z AUTO 18021G30KT 10SM CLR 25/11 A2954 RMK AO2=
KX26 232055Z AUTO 01014G19KT 10SM SCT075 26/15 A3006 RMK AO2
     T02600153=
KFOE 232053Z COR 17023G37KT 10SM CLR 27/17 A2951 RMK AO2 SLP980
     60004 T02670167 55007 $=
