SASA41 KWBC 232100 RRA
METAR
SKMD 232100Z 18016KT 9999 4000S TS SCT040CB SCT100 23/16 Q1016 RMK
     CB VCSH/SE/S A3003=
SKSM 232100Z 31008KT 9999 FEW020 SCT070 32/25 Q1009 RMK A2980=
