SAUS70 KWBC 231616
METAR
KTFP 231535Z AUTO 19014G22KT 10SM CLR 28/21 A2991 RMK AO2
     T02820209=
K08D 231615Z AUTO 06015G22KT 10SM OVC006 05/05 A2950 RMK AO2=
K0E0 231615Z AUTO 24022G29KT 10SM SCT065 17/00 A2977 RMK AO2
     T01710000 TSNO=
KBEA 231615Z AUTO 16018G23KT 10SM SCT033 SCT050 28/18 A2990 RMK
     AO2 T02830176=
KCQW 231615Z AUTO 33008KT 10SM CLR 21/07 A3019 RMK AO2 PWINO=
KD55 231615Z AUTO 07015G24KT 10SM OVC005 07/07 A2956 RMK AO2=
KEHO 231615Z AUTO 08003KT 10SM CLR 20/07 A3024 RMK AO2
     T01950072=
KEYF 231615Z AUTO 36009G16KT 330V030 10SM CLR 19/06 A3017 RMK AO2
     LTG DSNT E T01890061=
KJHN 231615Z AUTO 22029G47KT 3SM HZ BKN001 26/06 A2943 RMK AO2
     T02550057=
KLUM 231615Z AUTO 12014G17KT 10SM CLR 21/16 A2969 RMK AO2
     T02100164 PWINO=
KMAW 231615Z AUTO 20019G26KT 10SM SCT045 24/13 A3002 RMK AO1=
KMCX 231635Z AUTO 17013G20KT 10SM CLR 23/11 A3002 RMK AO2
     T02250113=
KMHL 231615Z AUTO 19019G27KT 10SM CLR 25/15 A2970 RMK AO2=
KMRJ 231615Z AUTO 15016G20KT 10SM CLR 19/10 A2980 RMK AO2=
KRCZ 231615Z AUTO 35009KT 330V030 10SM CLR 20/06 A3019 RMK AO2
     T02010060=
KRID 231635Z AUTO 19012G15KT 10SM CLR 21/12 A3016 RMK AO2=
KRNV 231615Z AUTO 18017G24KT 10SM CLR A3008 RMK AO2 TSNO=
KRPD 231615Z AUTO 13015G20KT 10SM CLR 19/15 A2972 RMK AO2
     T01890145=
KSNK 231615Z AUTO 19017G23KT 10SM CLR 23/12 A2978 RMK AO2
     T02330123=
KAQP 231613Z AUTO 18017G23KT 10SM CLR 20/11 A2944 RMK AO2=
KETH 231613Z AUTO 13018G23KT 10SM 18/11 A2944 RMK AO2=
KOWA 231613Z AUTO 15018G27KT 10SM CLR 20/12 A2960 RMK AO2=
KL18 231615Z AUTO 15005KT 10SM SCT040 SCT048 15/12 A2989 RMK
     AO2=
KLDM 231615Z AUTO 17015G19KT 10SM CLR 21/11 A2999 RMK AO2
     T02130109=
KLJF 231615Z AUTO 14011G18KT 10SM CLR 20/11 A2954 RMK AO2=
KLNL 231615Z AUTO 14010G14KT 10SM CLR 18/11 A2987 RMK AO2
     T01840112=
KMGG 231615Z AUTO 12006G15KT 10SM CLR 20/11 A2958 RMK AO2
     T01980106=
KMGN 231615Z AUTO 14004KT 10SM CLR 22/12 A3003 RMK AO2
     T02200123=
KMVE 231615Z AUTO 14018G24KT 10SM CLR 19/12 A2945 RMK AO2=
KOIN 231615Z AUTO 21024G32KT 10SM CLR 26/08 A2934 RMK AO1
     T02620083=
KOVL 231615Z AUTO 14018G25KT 7SM CLR 20/11 A2950 RMK AO2=
KOZW 231615Z AUTO 16008G14KT 10SM CLR 21/12 A3013 RMK AO2
     T02120117=
KPCZ 231615Z AUTO 14011KT 10SM CLR 21/12 A2985 RMK AO2
     T02070121=
KPSK 231615Z AUTO 00000KT 10SM CLR 15/06 A3027 RMK AO2
     T01510057=
KPWC 231615Z AUTO 14011G18KT 10SM CLR 18/11 A2963 RMK AO2=
KRCM 231615Z AUTO 18017G25KT 10SM SCT120 25/13 A2968 RMK AO2=
KRCX 231615Z AUTO 13011G16KT 10SM CLR 19/15 A2977 RMK AO2
     T01870145=
KRGK 231615Z AUTO 13009G14KT 10SM CLR 21/12 A2964 RMK AO2=
KRHP 231615Z AUTO 22004KT 10SM CLR 20/01 A3025 RMK AO2
     T01980010=
KROX 231615Z AUTO 06015KT 10SM CLR 12/08 A2960 RMK AO2=
KSAZ 231615Z AUTO 15012KT 10SM CLR 19/10 A2956 RMK AO2=
KSGS 231615Z AUTO 15012G16KT 10SM CLR 20/11 A2962 RMK AO2
     T02000110=
KSHD 231615Z AUTO 02004KT 10SM CLR 12/05 A3031 RMK AO2
     T01190047=
KSRR 231615Z AUTO 25027G42KT 10SM 16/05 A2982 RMK AO2=
KTEW 231615Z AUTO 13010G16KT 10SM CLR 21/11 A3011 RMK AO2
     T02100108=
KTVY 231615Z AUTO 09005KT 4SM -SN BKN029 BKN034 OVC048 01/01 A2978
     RMK AO2 P0001=
KTWM 231615Z AUTO 08006KT 10SM SCT090 16/09 A2972 RMK AO2=
KUKT 231615Z AUTO 06006KT 10SM FEW085 SCT100 16/09 A3027 RMK
     A01=
KVDF 231615Z AUTO 00000KT 10SM CLR 27/18 A3014 RMK AO2=
KVVV 231615Z 14016G23KT 10SM 18/12 A2942 RMK AO2=
KX60 231615Z AUTO 10SM CLR 25/14 A3015 RMK AO2 T02500141=
KXSA 231615Z AUTO 33006KT 2 1/2SM BR OVC003 13/13 A3021 RMK AO2
     LTG DSNT SE T01320132=
