SAUS70 KWBC 231800
METAR
KANE 231745Z 14014G24KT 10SM CLR 23/12 A2957=
KUES 231745Z 16012G20KT 10SM CLR 21/12 A2987=
KJWN 231750Z 21011KT 10SM CLR 25/09 A3011=
KMMU 231745Z 07006KT 10SM BKN060 19/10 A3027=
KDLL 231755Z AUTO 14016KT 10SM CLR 21/11 A2978 RMK AO2 T02050113
     10206 20132=
KEVB 231747Z 02012G16KT 10SM CLR 25/16 A3011=
KW13 231755Z AUTO 10SM CLR 14/05 A3025 RMK AO1 T01390049 10146
     20014=
