SAUS70 KWBC 231700 RRQ
METAR
KBKX 231656Z AUTO 15022G30KT 10SM CLR A2936 RMK AO2 PK WND
     14030/1653 SLPNO FZRANO $=
KBLM 231656Z AUTO 05009KT 10SM BKN031 BKN055 16/14 A3025 RMK AO2
     RAE52 SLP245 P0001 T01560144=
KBMI 231656Z 17022G28KT 10SM CLR 22/14 A2991 RMK AO2 PK WND
     17032/1612 SLP120 T02220139=
KBTP 231656Z AUTO 10004KT 10SM CLR 19/05 A3025 RMK AO2 SLP247
     T01890050 TSNO=
KBVI 231655Z AUTO 10003KT 10SM CLR 22/02 A3024 RMK AO2
     T02170020=
KCAD 231655Z AUTO 16010G15KT 10SM SCT049 SCT065 21/11 A3002 RMK
     AO2 T02070108=
KCDA 231655Z AUTO 00000KT 10SM 18/05 A3037 RMK AO2 T01750048=
KCDI 231655Z AUTO 00000KT 10SM CLR 21/10 A3021 RMK AO2
     T02050098=
KCGZ 231656Z AUTO 25017G20KT 10SM FEW048 SCT065 22/08 A2980 RMK
     AO2 SLP079 T02220083 $=
KCIU 231656Z AUTO 13012G20KT 10SM CLR 20/12 A3005 RMK AO2 SLP175
     T02000122=
KCMA 231655Z 05004KT 10SM CLR 19/11 A2987 RMK AO2 SLP123
     T01890111=
KCNB 231655Z AUTO 10018G26KT 10SM CLR 21/12 A2940 RMK AO2
     T02090116=
KFLP 231656Z AUTO 20014G23KT 10SM FEW032 24/16 A2989 RMK AO2
     SLP115 T02390156=
KFNL 231656Z 06011KT 10SM CLR 19/M02 A2931 RMK AO2 SLP873
     T01941022=
KFOD 231656Z AUTO 17015G25KT 10SM CLR 23/13 A2952 RMK AO2 PK WND
     17027/1635 SLP001 T02330128=
KFPK 231655Z AUTO 17010G17KT 10SM CLR 22/11 A3006 RMK AO2
     T02220109=
KFRM 231656Z AUTO 15022G31KT 10SM CLR 22/13 A2950 RMK AO2 PK WND
     15032/1625 SLP989 T02170128=
KFSO 231655Z AUTO 21003KT 10SM CLR 19/06 A3032 RMK AO2
     T01930063=
KGAD 231656Z AUTO 00000KT 10SM CLR 22/07 A3022 RMK AO2 SLP234
     T02170072 $=
KGAI 231656Z AUTO 00000KT 10SM OVC043 17/11 A3026 RMK AO2 SLP260
     T01670111=
KGBD 231656Z AUTO 18019G29KT 10SM CLR 27/12 A2945 RMK AO2 PK WND
     17033/1637 SLP955 T02670122=
KGDV 231656Z AUTO 04011KT 10SM OVC010 07/06 A2944 RMK AO2 CIG
     008V012 SLP977 P0001 T00670056=
KGTR 231656Z 16013KT 10SM CLR 24/10 A3017 RMK AO2 SLP221
     T02390100=
KGTU 231656Z 19020G25KT 10SM BKN032 BKN041 26/17 A2991 RMK AO2 PK
     WND 19027/1639 SLP122 T02610172=
KGUC 231656Z AUTO 21007G14KT 10SM -RA FEW011 BKN034 BKN045 02/01
     A2960 RMK AO2 RAE18B39UPB30E39 SLP981 P0000 T00220006
     FZRANO=
KGXY 231656Z 03009KT 10SM CLR 18/M02 A2931 RMK AO2 SLP905
     T01831017 $=
KHAI 231655Z AUTO 17012G19KT 10SM CLR 23/12 A3005 RMK AO2
     T02300115=
KHDN 231656Z AUTO 27008KT 1/2SM SN FG BKN003 OVC008 00/00 A2958
     RMK AO2 RAE05UPB05E15SNB15 SLP001 P0001 T00000000 FZRANO=
KHEF 231656Z 33009KT 10SM BKN021 OVC030 16/11 A3025 RMK AO2 SLP249
     T01610106=
KHEZ 231656Z AUTO 15016G20KT 10SM CLR 26/16 A3009 RMK AO2 SLP188
     T02560156=
KHNB 231656Z AUTO 18016G22KT 10SM CLR 23/12 A3009 RMK AO2 SLP185
     T02330117=
KHND 231656Z 35013KT 10SM CLR 14/M09 A2987 RMK AO2 SLP122
     T01441089=
KHYI 231656Z 18021G24KT 10SM FEW035 SCT055 RMK AO2 PK WND
     18027/1645 SLPNO $=
KHYS 231656Z AUTO 19023G36KT 10SM CLR 27/11 A2939 RMK AO2 PK WND
     21036/1650 SLP936 T02720106 $=
KHZL 231655Z AUTO 00000KT 10SM OVC032 16/08 A3032 RMK AO2=
KI23 231655Z AUTO 19005KT 10SM CLR 22/09 A3018 RMK AO1=
KILE 231656Z AUTO 18019G27KT 10SM BKN039 BKN046 27/17 A2990 RMK
     AO2 PK WND 17028/1607 SLP113 T02670172=
KIRS 231655Z AUTO 19015G19KT 10SM CLR 22/10 A3005 RMK AO2
     T02220100=
KMQY 231656Z 18007G15KT 10SM CLR 23/07 A3018 RMK AO2 SLP222
     T02330072=
KMRF 231656Z AUTO 17011KT 10SM CLR 24/08 A2996 RMK AO2 SLP091
     T02390078=
KMSV 231656Z AUTO 11006KT 10SM BKN032 16/11 A3030 RMK AO2 SLP265
     T01610106=
KMTN 231655Z 35004KT 10SM OVC050 17/11 A3025=
