SAUS70 KWBC 232142 RRB
METAR
KBPG 232135Z AUTO 18019G23KT 10SM CLR 30/11 A2968 RMK AO2
     T02990106=
KCFD 232135Z AUTO 14016G23KT 10SM SCT055 SCT065 29/16 A2984 RMK
     AO2 T02920156=
KELA 232135Z AUTO 16016G23KT 10SM SCT050 BKN060 29/17 A2985 RMK
     AO2 T02880169=
KEMM 232135Z AUTO 29027G33KT 10SM CLR 00/M07 A2974 RMK AO2=
KMDD 232135Z AUTO 17018G23KT 10SM CLR 29/12 A2969 RMK AO2
     T02860117=
KMYP 232135Z AUTO OVC002 M07/M08 A2970 RMK AO2 PWINO=
KPSO 232135Z AUTO 23015G22KT 10SM OVC060 04/M07 A2973 RMK AO2
     T00391072=
KRAS 232135Z AUTO 14017G23KT 10SM CLR A2984 RMK AO2=
KTEX 232135Z AUTO 26008G21KT 3/4SM SN OVC008 M03/M06 A2976 RMK
     AO2=
K5SM 232135Z AUTO M1/4SM +SN OVC002 M07/M09 A2967 RMK AO2=
KCOM 232135Z AUTO 17019G25KT 10SM CLR 30/12 A2973 RMK AO2
     T03010121=
KDVO 232135Z AUTO 36012KT 330V030 10SM CLR 23/M05 A2998 RMK
     AO2=
KE16 232135Z AUTO 29012G17KT 10SM CLR 20/00 A2995 RMK AO2=
KE42 232135Z AUTO 19025G32KT 10SM CLR 26/10 A2951 RMK AO2
     T02640103=
KEBG 232135Z AUTO 14021G27KT 10SM CLR 30/18 A2977 RMK AO2
     T03030182 PWINO=
KF00 232135Z AUTO 17019G30KT 10SM CLR 29/15 A2977 RMK AO2
     T02880154=
KJDD 232135Z AUTO 17008G20KT 120V210 10SM CLR 29/15 A2981 RMK
     AO2=
KLUD 232135Z AUTO 16017G26KT 7SM CLR 29/15 A2973 RMK AO2
     T02860146=
KPEZ 232135Z AUTO 15008G17KT 10SM SCT050 31/18 A2978 RMK AO2
     T03130180=
KPNA 232135Z AUTO 31023G30KT 10SM CLR 02/M07 A2967 RMK AO2=
KRWV 232135Z AUTO 16019G25KT 10SM SCT060 29/16 A2982 RMK AO2
     T02920163=
KRYW 232135Z AUTO 16009G21KT 10SM BKN049 28/16 A2982 RMK AO2
     T02750157=
KS33 232135Z AUTO 02004KT 10SM BKN046 10/M01 A3013 RMK AO2=
KSAA 232135Z AUTO 26015G21KT 7SM -SN SCT015 SCT026 OVC035 00/00
     A2961 RMK AO2=
KSTK 232135Z AUTO 33019G27KT 10SM SCT110 16/01 A2933 RMK AO2=
KT41 232135Z AUTO 10SM CLR 28/17 A2990 RMK AO2 T02820174=
KT82 232135Z AUTO 17011G21KT 10SM CLR 26/15 A2982 RMK AO2
     T02580154=
KVHN 232135Z AUTO 25014G26KT 10SM CLR 30/02 A2974 RMK AO2
     T03050018=
KVTP 232135Z AUTO 24017G27KT 10SM OVC027 M10/M17 A2963 RMK AO2=
K5C1 232135Z AUTO 15012G20KT 10SM BKN046 26/15 A2982 RMK AO1=
KAFO 232135Z AUTO 32011G15KT 10SM SCT038 BKN055 OVC065 00/M08
     A2977 RMK AO2=
KAJZ 232135Z AUTO 27017G21KT 10SM CLR 07/02 A2968 RMK AO2
     T00660019=
KASL 232135Z AUTO 00000KT 10SM FEW060 29/13 A2985 RMK AO2
     T02870134 TSNO $=
KAUN 232135Z AUTO 34009G18KT 280V040 10SM CLR 20/M08 A2993 RMK
     A01=
KBYY 232135Z AUTO 16011G14KT 10SM CLR 27/16 A2988 RMK AO2
     T02750166=
KCCU 232135Z AUTO 26015G26KT 1/2SM -SN OVC004 M05/M08 A2963 RMK
     AO2=
KGOP 232135Z AUTO 10SM SCT050 SCT120 29/16 A2980 RMK AO2=
KGVT 232135Z AUTO 18026G30KT 10SM SCT050 30/16 A2978 RMK AO2 TSNO
     T02980157=
KHII 232135Z AUTO 32011G19KT 10SM CLR 24/M05 A2977 RMK AO2=
KJAS 232135Z AUTO 16009G19KT 130V190 9SM BKN042 BKN055 BKN070
     27/18 A2991 RMK AO2=
KLLN 232135Z AUTO 23016G23KT 10SM FEW085 27/08 A2966 RMK AO2=
KMNH 232135Z AUTO 24015G21KT 10SM SCT055 BKN070 OVC080 08/00 A2950
     RMK AO2=
KORG 232135Z AUTO 15010G17KT 10SM BKN037 OVC055 28/20 A2996 RMK
     AO2 T02810204=
KRCV 232135Z AUTO 23011G22KT 10SM SCT038 OVC048 04/M05 A2965 RMK
     AO2 T00431051=
KT35 232135Z AUTO 17017G25KT 10SM BKN055 30/17 A2980 RMK AO2
     T03040166=
KXBP 232135Z AUTO 17016G24KT 10SM CLR 30/14 A2973 RMK AO2
     T02980136=
KCPW 232135Z AUTO 1 1/2SM -SN OVC005 M10/M10 A2969 RMK AO2=
KCZT 232135Z AUTO 16010G16KT 10SM CLR 31/15 A2974 RMK AO2=
KDKR 232135Z AUTO 16013G23KT 120V180 10SM BKN060 30/12 A2985 RMK
     AO2=
