SAUS70 KWBC 231638 RRD
METAR
KPVF 231635Z AUTO 00000KT 10SM CLR 10/M05 A2996 RMK AO1=
KRCE 231635Z AUTO 18025G33KT 10SM CLR 23/16 A2969 RMK AO2=
KRMN 231635Z AUTO 34005KT 3SM HZ OVC017 15/13 A3028 RMK AO2
     T01480125=
KRMY 231635Z AUTO 15008KT 10SM CLR 21/11 A3008 RMK AO2
     T02130114=
KRNH 231635Z AUTO 13010G15KT 10SM CLR 21/15 A2965 RMK AO2
     T02100153=
KRNP 231635Z AUTO 16009G14KT 10SM CLR 23/10 A3010 RMK AO2
     T02290098=
KRPH 231635Z AUTO 17015G22KT 140V220 6SM HZ CLR 26/16 A2976 RMK
     AO2 T02580159 $=
KRQB 231635Z AUTO 16013G19KT 10SM SCT060 SCT075 21/11 A3004 RMK
     AO2 T02060112=
KRUG 231635Z AUTO 08021G31KT 10SM BKN009 OVC013 07/06 A2950 RMK
     AO2=
KRVL 231635Z AUTO 00000KT 9SM CLR 15/06 A3029 RMK AO2=
KRYV 231635Z AUTO 15012KT 10SM CLR 21/11 A2986 RMK AO2
     T02070108=
KRZN 231635Z AUTO 14012KT 10SM CLR 20/11 A2968 RMK AO2
     T01970106=
KS25 231635Z AUTO 06017KT 10SM OVC009 06/06 A2947 RMK AO2=
KS32 231635Z AUTO 07017KT 10SM CLR 13/05 A2946 RMK AO2 TSNO=
KSCR 231635Z AUTO 01009G16KT 10SM CLR 19/06 A3021 RMK AO2
     T01900060=
KSIK 231635Z AUTO 16010G19KT 152V222 10SM CLR 23/15 A3002 RMK
     AO2=
KSJX 231635Z AUTO 16010G17KT 10SM CLR 21/12 A3002 RMK AO2
     T02060116=
KSLH 231635Z AUTO 15008G14KT 120V190 10SM CLR 21/12 A3004 RMK
     AO2=
KSPF 231635Z AUTO 29020G25KT 10SM CLR 08/02 A2934 RMK AO2=
KSTF 231635Z AUTO 16012G17KT 10SM CLR 23/13 A3014 RMK AO2=
KSUZ 231635Z AUTO 19016KT 10SM BKN034 BKN041 25/16 A2999 RMK
     A01=
KT69 231635Z AUTO 18011G17KT 9SM SCT035 SCT041 30/21 A2991 RMK
     A01=
KTKX 231635Z AUTO 20015G25KT 7SM OVC048 25/15 A3001 RMK AO2
     TSNO=
KTME 231635Z AUTO 17015G21KT 10SM FEW044 SCT049 BKN060 29/17 A2997
     RMK AO2=
KTOB 231635Z AUTO 14020G27KT 10SM CLR 21/12 A2963 RMK AO2=
KTSP 231635Z AUTO 28011KT 8SM CLR 07/01 A2994 RMK AO2=
KTTF 231635Z AUTO 17008KT 10SM CLR 21/10 A3014 RMK AO2
     T02100099=
KTWT 231635Z AUTO 20020G29KT 10SM CLR 25/11 A3005 RMK AO2=
KS24 231635Z AUTO VRB06KT 10SM CLR 24/11 A3015 RMK AO2=
K08D 231635Z AUTO 07015G23KT 10SM OVC006 05/05 A2951 RMK AO2=
K10G 231635Z AUTO 14003KT 10SM CLR 20/07 A3022 RMK AO2=
K14Y 231635Z AUTO 13012G18KT 10SM CLR 18/11 A2955 RMK AO2=
K1P1 231635Z AUTO 00000KT 10SM CLR 14/06 A3037 RMK AO2
     T01390055=
K20U 231635Z AUTO 11/29166711KT 10SM OVC009 06/05 A2943 RMK
     AO2=
K3D2 231635Z AUTO 18013G19KT 10SM CLR 16/11 A2994 RMK AO2
     T01620107=
K6L4 231635Z AUTO VRB03KT 10SM CLR 20/04 A3024 RMK AO2=
KAQP 231633Z AUTO 17018G22KT 10SM SCT095 21/11 A2943 RMK AO2=
KAUM 231635Z AUTO 16015G23KT 10SM CLR 21/13 A2962 RMK AO2=
KAXV 231635Z AUTO 16010KT 10SM CLR 21/10 A3014 RMK AO2=
KD25 231635Z AUTO 14013G17KT 10SM SCT110 18/12 A2981 RMK AO2
     T01780116=
KD55 231635Z AUTO 07021G29KT 10SM OVC006 08/08 A2954 RMK AO2=
KELO 231635Z AUTO 16008KT 10SM SCT110 18/08 A2972 RMK AO2=
KETH 231633Z AUTO 12018G25KT 10SM 19/11 A2943 RMK AO2=
KJMR 231635Z AUTO 15008KT 10SM CLR 20/11 A2967 RMK AO2=
KLNL 231635Z AUTO 15008G15KT 10SM CLR 19/11 A2987 RMK AO2
     T01870111=
KLUM 231635Z AUTO 12013KT 10SM CLR 22/17 A2969 RMK AO2 T02150165
     PWINO=
KMRJ 231635Z AUTO 15015G21KT 10SM CLR 20/10 A2980 RMK AO2=
KPCZ 231635Z AUTO 14008KT 10SM CLR 21/12 A2984 RMK AO2
     T02110121=
KRCX 231635Z AUTO 12012G15KT 10SM CLR 19/15 A2977 RMK AO2
     T01940147=
KRGK 231635Z AUTO 13009KT 10SM CLR 21/12 A2963 RMK AO2=
KRPD 231635Z AUTO 12017G21KT 10SM CLR 20/15 A2972 RMK AO2
     T01950147=
KSDC 231635Z AUTO 00000KT 10SM CLR 19/03 A3028 RMK AO2=
KSGS 231635Z AUTO 15009G16KT 10SM CLR 21/11 A2961 RMK AO2
     T02050111=
