SAUS70 KWBC 231800 RRC
METAR
KCSM 231753Z AUTO 19026G32KT 10SM CLR 24/13 A2966 RMK AO2 PK WND
     19034/1743 SLP022 T02390133 10250 20172 58000=
KCUB 231753Z AUTO VRB04KT 10SM CLR 23/08 A3017 RMK AO2 SLP215
     T02330083 10239 20083 58022=
KCXO 231753Z 18020G29KT 10SM BKN060 30/14 A2995 RMK AO2 PK WND
     17031/1721 SLP139 T03000144 10300 20156 58009=
KCYS 231753Z 31019G34KT 10SM SCT110 09/M01 A2938 RMK AO2 PK WND
     31037/1710 SLP893 T00941011 10122 20094 53008=
KDAN 231753Z AUTO 02009KT 10SM CLR 21/05 A3020 RMK AO2 SLP221
     T02060050 10206 20033 58017=
KDEN 231753Z 21025G38KT 10SM FEW070 SCT120 BKN200 19/M01 A2931 RMK
     AO2 PK WND 21038/1745 SLP856 T01941011 10200 20133 52003=
KDEQ 231753Z AUTO 17013G18KT 10SM SCT032 BKN041 26/17 A2990 RMK
     AO2 SLP118 T02610167 10261 20206 58014=
KDET 231753Z 20008KT 8SM CLR 24/11 A3013 RMK AO2 SLP201 T02390106
     10250 20111 58014=
KDFI 231753Z AUTO 19011G25KT 10SM CLR 24/10 A3009 RMK AO2 PK WND
     17026/1730 SLP186 T02440100 10244 20139 58015=
KBFM 231753Z 11006KT 10SM CLR 26/08 A3015 RMK AO2 SLP210 T02560083
     10256 20117 58012=
KBGM 231753Z VRB03KT 10SM FEW026 16/08 A3029 RMK AO2 SLP259
     T01610083 10161 20050 56010=
KBGR 231753Z 00000KT 10SM SCT150 OVC200 18/10 A3036 RMK AO2 SLP278
     T01780100 10178 20078 58016=
KBIV 231753Z AUTO 16015G27KT 10SM FEW060 24/13 A2997 RMK AO2 PK
     WND 15027/1747 SLP147 T02390128 10239 20133 58018=
KBKL 231753Z 14008KT 10SM CLR 24/08 A3015 RMK AO2 SLP207 T02440078
     10244 20139 58011=
KBKV 231753Z 10SM CLR 28/16 A3010 RMK AO2 SLP193 T02780161 10283
     20150 58018=
KBMG 231753Z 15013G22KT 10SM CLR 24/11 A3004 RMK AO2 SLP166
     T02440111 10256 20144 58014 $=
KBMQ 231753Z AUTO 18014G33KT 10SM FEW037 27/16 A2988 RMK AO2 PK
     WND 18033/1710 SLP102 T02670161 10267 20211 58013=
KBOI 231753Z 32014G23KT 10SM CLR 07/M01 A2996 RMK AO2 SLP152
     T00721006 10072 20011 51021=
KBPI 231753Z AUTO 33023G33KT 10SM CLR 02/M08 A2962 RMK AO2 PK WND
     34033/1750 SLP007 T00221083 10022 21028 51008=
KBPT 231753Z 15016G25KT 10SM FEW039 BKN048 29/19 A2998 RMK AO2
     SLP151 T02890189 10289 20189 58008=
KBTL 231753Z 16013G24KT 10SM CLR 24/11 A3004 RMK AO2 SLP167
     T02390111 10239 20139 58015=
KBTM 231753Z AUTO 30008KT 5SM -SN BR BKN022 BKN026 OVC040 M01/M03
     A2979 RMK AO2 SLP113 P0000 60000 T10061028 11006 21017
     53019=
KBVO 231753Z AUTO 18019G32KT 10SM CLR 27/16 A2968 RMK AO2 PK WND
     18037/1725 LTG DSNT N SLP039 T02720156 10278 20211 58013=
KBVY 231753Z 03005KT 10SM CLR 14/10 A3034 RMK AO2 SLP270 T01390100
     10139 20067 56009=
KBYG 231753Z AUTO 33023G34KT 5SM -SN BR FEW005 OVC060 02/00 A2950
     RMK AO2 PK WND 34037/1715 UPE1659SNB1659 SLP983 P0000 60025
     T00170000 10050 20011 53010=
KBYI 231753Z AUTO 27014G26KT 10SM CLR 04/M02 A2984 RMK AO2 PK WND
     27030/1707 SLP106 T00441017 10044 20006 52022=
KCAG 231753Z AUTO 29009KT 2 1/2SM -SN BKN016 OVC026 01/M02 A2960
     RMK AO2 VIS 1 1/4V4 SLP024 P0004 60011 T00111017 10011 20006
     53013=
KCDC 231753Z AUTO 34009KT 1/2SM SN FZFG FEW006 OVC010 M01/M01
     A2985 RMK AO2 SLP111 6//// T10061011 10011 21011 51030 PNO
     $=
KCDS 231753Z AUTO 19019G27KT 10SM CLR 27/12 A2966 RMK AO2 PK WND
     18027/1751 SLP015 T02670117 10267 20183 58008=
KCDW 231753Z 07007KT 10SM BKN060 OVC100 17/07 A3027 RMK AO2 SLP257
     T01720072 10172 20100 56010=
KCEW 231753Z AUTO 35003KT 10SM CLR 27/06 A3016 RMK AO2 SLP212
     T02720056 10272 20033 58014=
KDFW 231753Z 18026G36KT 10SM BKN039 BKN250 28/17 A2981 RMK AO2 PK
     WND 18038/1711 SLP086 T02780167 10278 20211 58006=
