SACA33 KWBC 231600 RRD
METAR
TFFF 231630Z AUTO 11008KT 060V160 CAVOK 32/24 Q1012 TEMPO 4000
     SHRA SCT018TCU=
TFFR 231630Z AUTO VRB04KT 9999 BKN028 BKN033 BKN039 32/24 Q1012
     TEMPO 4000 SHRA SCT018TCU=
