SAUS80 KWBC 231940
METAR
KLYV 231935Z AUTO 15020G27KT 10SM CLR 25/11 A2932 RMK AO2=
KPOV 231935Z AUTO 13005KT 10SM CLR 24/M01 A3016 RMK AO2 T02371006
     PWINO=
K9MN 231935Z AUTO 12024G32KT 10SM CLR 23/12 A2957 RMK AO1
     T02290117=
KTKC 231935Z AUTO 15021G31KT 10SM 25/10 A2937 RMK AO2
     T02460100=
KGNG 231935Z AUTO 28023G31KT 10SM CLR 08/M03 A2989 RMK AO2=
KCIR 231935Z AUTO 22012G23KT 10SM BKN048 OVC050 26/14 A2997 RMK
     AO2 T02560143=
KPZQ 231935Z AUTO 16008G17KT 140V200 10SM SCT055 25/11 A3003 RMK
     AO2 T02500112=
KEDU 231940Z AUTO 35014G22KT 10SM CLR 19/M02 A2999 RMK AO1=
KMKN 231935Z AUTO 17021G25KT 10SM CLR 30/15 A2977 RMK AO2
     T03010153=
KS39 231935Z AUTO 30008KT 260V320 10SM OVC036 08/M01 A3009 RMK
     AO2=
KRFI 231935Z AUTO 15013G20KT 10SM BKN060 30/10 A2990 RMK AO2
     T02980095=
KRLD 231935Z AUTO 23003KT 10SM CLR 15/00 A3009 RMK AO2
     T01460000=
KSEP 231935Z AUTO 16021G27KT 10SM CLR 29/14 A2978 RMK AO2
     T02940136=
KJNX 231935Z AUTO 36003KT 10SM CLR 21/11 A3012 RMK AO2=
K40U 231935Z AUTO 28013G21KT 10SM SCT041 BKN048 OVC060 02/M04
     A2969 RMK AO2 T00211035=
KCTY 231935Z AUTO 00000KT 10SM CLR 27/10 A3009 RMK AO2
     T02740103=
K48A 231935Z AUTO 12005KT 10SM CLR 25/10 A3014 RMK AO2
     T02470098=
KCKP 231935Z AUTO 16023G27KT 10SM CLR 27/12 A2937 RMK AO2
     T02720118=
KDBN 231935Z AUTO 00000KT 10SM CLR 26/08 A3016 RMK AO2=
KEHA 231935Z AUTO 22034G47KT 10SM CLR 28/05 A2947 RMK AO2
     T02770049=
KTKC 231935Z AUTO 15021G31KT 10SM 25/10 A2937 RMK AO2
     T02460100=
KVTI 231935Z AUTO 15016G25KT 10SM CLR 25/13 A2962 RMK AO2
     T02450125=
K9MN 231935Z AUTO 12024G32KT 10SM CLR 23/12 A2957 RMK AO1
     T02290117=
K40U 231935Z AUTO 28013G21KT 10SM SCT041 BKN048 OVC060 02/M04
     A2969 RMK AO2 T00211035=
