SANZ31 NZKL 232100
METAR NZAA 232100Z AUTO 21009KT 9999 NCD 17/13 Q1029 NOSIG=
METAR NZWN 232100Z AUTO 36021KT 9999 NCD 18/09 Q1022 NOSIG=
METAR NZCH 232100Z AUTO 26001KT 9999 NCD 13/06 Q1020 NOSIG=
