SAUS80 KWBC 231816
METAR
KGNT 231815Z AUTO 25016G24KT 10SM SCT039 BKN044 OVC050 13/03 A2980
     RMK AO2 T01270030=
KCLI 231815Z AUTO 14013G18KT 10SM CLR 21/12 A2984 RMK AO2
     T02150125=
KY23 231815Z AUTO 13011G17KT 10SM CLR 23/15 A2967 RMK AO2
     T02250150=
