SAUS70 KWBC 232140 RRF
METAR
KCNC 232135Z AUTO 17019G33KT 9SM SCT110 27/15 A2956 RMK AO2=
KCOM 232135Z AUTO 17019G25KT 10SM CLR 30/12 A2973 RMK AO2
     T03010121=
KCPW 232135Z AUTO 1 1/2SM -SN OVC005 M10/M10 A2969 RMK AO2=
KCQB 232135Z AUTO 17019G30KT 10SM CLR 27/15 A2966 RMK AO2
     T02750145=
KCTJ 232135Z AUTO 13003KT 10SM CLR 22/04 A3017 RMK AO2
     T02150040=
KCUH 232135Z AUTO 19018G34KT 10SM CLR 28/14 A2963 RMK AO2
     T02830138=
KCWV 232135Z AUTO 00000KT 7SM CLR 25/10 A3012 RMK AO2
     T02510097=
KCZT 232135Z AUTO 16010G16KT 10SM CLR 31/15 A2974 RMK AO2=
KD73 232135Z AUTO 00000KT 10SM CLR 22/05 A3015 RMK AO2
     T02220053=
KDKR 232135Z AUTO 16013G23KT 120V180 10SM BKN060 30/12 A2985 RMK
     AO2=
KDNS 232135Z AUTO RMK AO2 PNO PWINO=
KDQH 232135Z AUTO 00000KT 10SM CLR 26/09 A3013 RMK AO2
     T02550092=
KDVO 232135Z AUTO 36012KT 330V030 10SM CLR 23/M05 A2998 RMK
     AO2=
KE11 232135Z AUTO 19016G21KT 10SM CLR 29/12 A2968 RMK AO2
     T02900117=
KE16 232135Z AUTO 29012G17KT 10SM CLR 20/00 A2995 RMK AO2=
KE38 232135Z AUTO 21013G19KT 10SM CLR 28/05 A2987 RMK AO2
     T02780049=
KE41 232135Z AUTO 17019G23KT 10SM CLR 24/14 A2976 RMK AO2
     T02370142=
KECU 232135Z AUTO 15012G21KT 10SM SCT110 24/15 A2986 RMK AO2=
KEGT 232135Z AUTO 18030G35KT 10SM CLR 26/15 A2953 RMK AO2=
KFEP 232135Z AUTO 17022G27KT 10SM CLR 24/17 A2976 RMK AO2
     T02410165=
KFFL 232135Z AUTO 16019G30KT 9SM CLR 26/14 A2961 RMK A01=
KFKR 232135Z AUTO 17013G19KT 10SM CLR 24/10 A2996 RMK AO2=
KFMM 232135Z AUTO 35024G32KT 8SM -RA FEW055 BKN065 BKN095 12/01
     A2937 RMK AO2=
KFPY 232135Z AUTO 06003KT 10SM CLR 27/07 A3010 RMK AO2 T02730065
     TSNO=
KFSK 232135Z AUTO 19025G34KT 10SM CLR 29/13 A2962 RMK AO2
     T02890130=
KFWZ 232135Z AUTO 34003KT 1/4SM +SN OVC003 M03/M04 A2962 RMK
     AO2=
KFXY 232135Z AUTO 14021G30KT 10SM CLR 23/13 A2949 RMK AO2=
KFZG 232135Z AUTO 00000KT 10SM CLR 25/10 A3012 RMK AO2
     T02480099=
KGBG 232135Z AUTO 16015G21KT 10SM CLR 24/16 A2972 RMK AO2
     T02380156=
KGCD 232135Z AUTO 29004KT 10SM OVC060 05/00 A3011 RMK AO2
     T00461005=
KGCM 232135Z AUTO 19018G25KT 10SM CLR 28/11 A2970 RMK AO2=
KGGF 232135Z AUTO 36022G28KT 10SM FEW120 19/02 A2927 RMK AO2=
KGGP 232135Z AUTO 16015G22KT 10SM CLR 24/09 A2997 RMK AO2=
KGHG 232135Z AUTO VRB05KT 9SM -RA BKN042 BKN049 OVC080 13/11 A3030
     RMK AO2=
KGLW 232135Z AUTO 18006KT 10SM CLR 24/08 A3007 RMK AO2
     T02430077=
KGMJ 232135Z AUTO 18025G34KT 10SM CLR 21/04 A2968 RMK AO2=
KGOP 232135Z AUTO 10SM SCT050 SCT120 29/16 A2980 RMK AO2=
KGVT 232135Z AUTO 18026G30KT 10SM SCT050 30/16 A2978 RMK AO2 TSNO
     T02980157=
KGZL 232135Z AUTO 19014G29KT 10SM CLR 28/15 A2974 RMK AO2=
KHCR 232135Z AUTO 29009KT 10SM SCT060 BKN070 OVC090 05/M06 A2978
     RMK AO2=
KHDE 232135Z AUTO 21024G33KT 7SM BKN031 BKN037 OVC044 31/01 A2922
     RMK AO2 T03050006=
KHDL 232135Z AUTO VRB04KT 10SM CLR 25/03 A3010 RMK AO2=
KHHG 232135Z AUTO 18013KT 10SM CLR M09/M19 A3001 RMK AO2
     T10891195=
KHII 232135Z AUTO 32011G19KT 10SM CLR 24/M05 A2977 RMK AO2=
KHMZ 232135Z AUTO 00000KT 10SM BKN035 BKN048 18/07 A3021 RMK AO2
     T01840073=
KHNR 232135Z AUTO 17029G38KT 10SM CLR 28/16 A2936 RMK A01=
KHPT 232135Z AUTO 15014G23KT 10SM SCT110 23/12 A2953 RMK AO2=
KI63 232135Z AUTO 16020G25KT 10SM CLR 24/14 A2973 RMK AO2
     T02380141=
KI74 232135Z AUTO 17005G08KT 10SM CLR 22/09 A3009 RMK AO2=
KI75 232135Z AUTO 17018G26KT 7SM SCT065 SCT080 BKN110 28/14 A2958
     RMK AO2 T02750142=
KIBM 232135Z AUTO 33020G27KT 10SM BKN110 09/00 A2942 RMK AO2
     T00870000=
KICL 232135Z AUTO 19022G32KT 10SM CLR 27/14 A2946 RMK AO2=
