SAUS80 KWBC 231900 RRA
METAR
KACY 231854Z 03010G18KT 1 3/4SM RA BR BKN008 OVC012 15/14 A3018
     RMK AO2 SFC VIS 2 SLP219 P0015 T01500144=
KAKQ 231854Z AUTO 34007KT 10SM OVC007 14/13 A3014 RMK AO2 SLP208
     T01440128=
KAPN 231854Z AUTO 17016G27KT 10SM CLR 23/11 A3005 RMK AO2 PK WND
     17028/1820 SLP174 T02330106=
KGSO 231854Z 05005KT 10SM FEW250 21/06 A3018 RMK AO2 SLP216
     T02060061=
KINL 231854Z AUTO 12012G19KT 10SM CLR 23/11 A2960 RMK AO2 SLP025
     T02330106=
KJAN 231854Z 17010G19KT 10SM FEW050 27/13 A3006 RMK AO2 SLP173
     T02720128=
KMVL 231854Z AUTO 00000KT 10SM CLR 21/06 A3031 RMK AO2 SLP269
     T02060056=
KN60 231852Z AUTO 05014G27KT 10/06 A2936 RMK AO1 PK WND 05030/1816
     SLP950 T01000056=
KNYC 231851Z AUTO 05006KT 10SM SCT065 OVC110 16/08 A3028 RMK AO2
     RAE03 SLP245 P0000 T01610078 $=
KORH 231854Z 06006KT 10SM CLR 13/06 A3032 RMK AO2 SLP272
     T01330061=
KPIA 231854Z 17018G30KT 10SM CLR 25/14 A2980 RMK AO2 PK WND
     17030/1844 SLP086 T02500139=
KPTS 231855Z AUTO 19021G31KT 10SM CLR 29/15 A2965 RMK AO2
     T02890150 PWINO=
KRFD 231854Z 17016G28KT 10SM FEW042 SCT130 24/14 A2981 RMK AO2 PK
     WND 18028/1854 SLP090 T02440139=
PHMK 231854Z 04008G16KT 10SM FEW046 27/21 A3005 RMK AO2 SLP175
     T02670211=
PHOG 231854Z 07016G22KT 10SM CLR 30/18 A3001 RMK AO2 PK WND
     08027/1844 SLP168 T03000183=
KSYR 231854Z 05006KT 10SM FEW120 FEW200 BKN250 21/06 A3025 RMK AO2
     SLP241 T02060061 $=
KTKV 231855Z AUTO 15007G19KT 100V190 10SM BKN038 23/12 A2977 RMK
     AO2 T02270119 PWINO=
KWAL 231854Z AUTO 01008G15KT 2SM +RA BR BKN008 OVC013 17/16 A3011
     RMK AO2 RAB04 SLP192 P0010 T01670156=
KLEX 231854Z 17012G18KT 10SM CLR 24/06 A3012 RMK AO2 SLP194
     T02440056=
KLYH 231854Z 06007KT 10SM CLR 22/03 A3019 RMK AO2 SLP220
     T02170033=
KM21 231855Z AUTO 18014KT 10SM CLR 26/09 A3004 RMK AO2
     T02620087=
KRFI 231855Z AUTO 16010G19KT 10SM BKN050 30/11 A2992 RMK AO2
     T02950106=
KRIC 231854Z 34009KT 3SM -RA BR BKN006 OVC011 14/13 A3017 RMK AO2
     RAB04 SLP222 P0001 T01440128 $=
KROA 231854Z 06011KT 10SM CLR 21/03 A3022 RMK AO2 SLP230 T02110028
     $=
KROC 231854Z 07005KT 10SM SCT200 BKN250 21/06 A3023 RMK AO2 SLP239
     T02110061=
KSBN 231854Z 17021G32KT 10SM SCT055 26/13 A2997 RMK AO2 PK WND
     18032/1850 SLP142 T02560128=
KSHV 231856Z 17015G24KT 10SM BKN055 31/15 A2993 RMK SLPNO=
KSMS 231855Z AUTO 00000G10KT 10SM CLR 24/07 A3015 RMK AO2=
KSNC 231855Z AUTO 02005KT 6SM -RA FEW001 FEW031 BKN046 13/10 A3028
     RMK AO2=
KSOW 231855Z AUTO 23028G36KT 10SM SCT018 SCT029 SCT100 11/05 A2984
     RMK AO2=
KSUS 231854Z 19015G29KT 10SM CLR 24/15 A2980 RMK AO2 PK WND
     20029/1854 SLP084 T02440150=
KBNO 231853Z AUTO 31010G18KT 10SM BKN034 BKN042 OVC050 05/M03
     A3006 RMK AO2 SLP194 T00501033 $=
KBLU 231852Z AUTO VRB04KT 10SM CLR 07/M08 A3001 RMK AO2 SLP143
     T00671078 $=
KRQE 231853Z AUTO 26014G21KT 10SM SCT030 OVC040 06/01 A2979 RMK
     AO2 RAB1756E29 SLP022 P0000 T00610006 $=
KSDM 231853Z 25005KT 10SM BKN040 19/09 A2987 RMK AO2 SLP113
     T01890089=
KSEA 231853Z 21007KT 10SM SCT010 SCT015 BKN030 09/06 A3016 RMK AO2
     SLP220 T00940061 $=
KTUS 231853Z 28010G20KT 10SM CLR 24/08 A2981 RMK AO2 SLP055
     T02390083=
KBFF 231853Z AUTO 31021G39KT 10SM CLR 16/02 A2932 RMK AO2 PK WND
     29039/1844 SLP900 T01560017=
KLAN 231853Z AUTO 15017G25KT 10SM SCT055 23/11 A3005 RMK AO2 PK
     WND 14030/1835 SLP174 T02330111=
KMBG 231852Z AUTO 11015G23KT 10SM CLR 21/11 A2917 RMK AO2 SLP875
     T02110106=
KMFD 231852Z 14011KT 10SM CLR 23/09 A3016 RMK AO2 SLP207
     T02280089=
