SAUS70 KWBC 231700 RRD
METAR
KMIW 231653Z AUTO 16024G34KT 10SM CLR 23/13 A2961 RMK AO2 PK WND
     16036/1641 SLP020 T02280128=
KMMK 231653Z AUTO 36005KT 10SM CLR 13/06 A3031 RMK AO2 SLP264
     T01330056=
KMVY 231653Z 08009KT 6SM -RA BR OVC110 15/13 A3031 RMK AO2 RAB26
     SLP263 P0002 T01500133=
KOSU 231653Z 19005KT 10SM CLR 23/11 A3018 RMK AO2 SLP215
     T02330111=
KPOU 231653Z 34003KT 10SM BKN110 13/08 A3030 RMK AO2 SLP257
     T01330078=
KSBM 231653Z AUTO 16016G24KT 10SM CLR 17/13 A2991 RMK AO2 PK WND
     17026/1614 SLP129 T01720128=
KASE 231653Z 00000KT 1/2SM SN FG VV007 00/00 A2958 RMK AO2 SLP943
     P0008 T00000000=
KBUR 231653Z 32006KT 10SM CLR 20/01 A2986 RMK AO2 SLP101
     T02000011=
KCAG 231653Z AUTO 31009KT 2SM -SN BR FEW005 BKN016 OVC022 01/M01
     A2957 RMK AO2 SLP002 P0004 T00061006=
KCOT 231653Z AUTO 15014G21KT 8SM CLR 27/18 A2986 RMK AO2 SLP104
     T02720183=
KEEO 231653Z AUTO 32004KT 10SM -RA FEW006 BKN012 OVC019 01/01
     A2955 RMK AO2 UPB02E06RAB43SNE02B10E43 SLP984 P0000
     T00110006=
KGEY 231653Z AUTO 33016KT 9SM -RA SCT013 BKN028 OVC036 03/01 A2956
     RMK AO2 SLP018 P0002 T00280011=
KPIL 231653Z AUTO 16021G33KT 10SM -RA FEW034 FEW047 29/21 A2988
     RMK AO2 PK WND 17033/1608 SLP117 P0000 T02890211=
KPMD 231653Z AUTO 29015KT 10SM CLR 13/M01 A2992 RMK AO2 SLP120
     T01331006=
KPSP 231653Z 33019G31KT 10SM CLR 22/06 A2980 RMK AO2 SLP090
     T02170061 $=
KRBD 231653Z 18023G35KT 10SM BKN020 26/17 A2985 RMK AO2 PK WND
     18040/1636 SLP101 T02610172=
KSSF 231653Z 16018G24KT 10SM FEW038 29/18 A2988 RMK AO2 SLP107
     T02890178=
KTWF 231653Z 28020G30KT 10SM CLR 03/M02 A2986 RMK AO2 PK WND
     28031/1556 SLP106 T00331022=
KVEL 231653Z AUTO 16004KT 10SM BKN042 OVC050 02/M01 A2961 RMK AO2
     UPB1558E02SNE1558 SLP012 P0000 T00221006=
KVGT 231653Z 33021G29KT 10SM CLR 16/M08 A2984 RMK AO2 PK WND
     35033/1643 SLP110 T01561078 $=
KAPA 231653Z 25019G38KT 10SM FEW035 FEW050 BKN080 BKN200 16/M02
     A2936 RMK AO2 PK WND 22039/1600 SLP889 T01561017=
KFTW 231653Z 18019G33KT 10SM FEW033 27/17 A2982 RMK AO2 PK WND
     19033/1649 SLP090 T02670172 $=
KGGG 231653Z 18014G24KT 10SM BKN039 27/17 A2994 RMK AO2 PK WND
     18034/1627 SLP132 T02720167=
KLAA 231653Z AUTO 23028G41KT 10SM CLR 26/03 A2937 RMK AO2 PK WND
     22046/1611 SLP899 T02560028=
KLVM 231653Z AUTO 25016KT 5SM -SN BKN026 OVC033 01/M02 A2969 RMK
     AO2 SNB27 SLP075 P0000 T00111017 $=
KPIH 231653Z 25015KT 10SM BKN011 BKN016 BKN041 02/M02 A2980 RMK
     AO2 SNE02B20E36 SLP098 P0000 T00171017 $=
KPSX 231653Z AUTO 15018G29KT 10SM BKN065 28/19 A2995 RMK AO2 PK
     WND 13029/1648 SLP141 T02830189=
KRAL 231653Z 14004KT 10SM BKN034 17/10 A2987 RMK AO2 SLP103
     T01670100 $=
KRKP 231653Z AUTO 17011G19KT 10SM BKN060 30/21 A2992 RMK AO2
     SLP133 T03000211=
KRXE 231653Z AUTO 28004KT 10SM BKN065 OVC090 02/M03 A2975 RMK AO2
     SLP083 T00171033=
KSGR 231653Z 17017G27KT 10SM FEW060 31/14 A2996 RMK AO2 PK WND
     16027/1647 SLP148 T03060144=
KSNA 231653Z VRB05KT 10SM FEW035 21/09 A2986 RMK AO2 SLP110
     T02060089=
KAMA 231653Z 22024G35KT 10SM CLR 24/10 A2967 RMK AO2 PK WND
     23035/1645 SLP995 T02390100=
KBOI 231653Z 30011KT 10SM CLR 06/00 A2995 RMK AO2 SLP147
     T00560000=
KCXO 231653Z 17015G27KT 10SM BKN042 BKN055 29/17 A2996 RMK AO2 PK
     WND 16027/1631 SLP142 T02890167=
KDFW 231653Z 17025G32KT 10SM SCT034 BKN250 27/17 A2982 RMK AO2 PK
     WND 19040/1603 SLP091 T02720172=
KFUL 231653Z VRB03KT 10SM FEW020 FEW050 18/12 A2986 RMK AO2 SLP109
     T01830117=
KHHR 231653Z 10004KT 10SM CLR 19/12 A2987 RMK AO2 SLP114
     T01890122=
