SAUS80 KWBC 231942
METAR
KGIC 231935Z AUTO 35003KT 10SM BKN016 OVC035 03/00 A3002 RMK
     AO1=
KIZA 231935Z AUTO 34008G15KT 10SM CLR 22/M02 A2988 RMK AO2=
KPSN 231935Z AUTO 19014G25KT 10SM BKN060 30/14 A2985 RMK AO2=
KSOA 231935Z AUTO 17016KT 10SM 27/14 A2983 RMK AO2=
K9V9 231935Z AUTO 15011KT 10SM CLR 25/07 A2915 RMK AO2
     T02450067=
KAYS 231935Z AUTO 00000KT 10SM CLR 26/10 A3012 RMK AO2
     T02610103=
KCBE 231935Z AUTO 23004KT 10SM CLR 19/05 A3028 RMK AO2
     T01880054=
K9V9 231935Z AUTO 15011KT 10SM CLR 25/07 A2915 RMK AO2
     T02450067=
KCKP 231935Z AUTO 16023G27KT 10SM CLR 27/12 A2937 RMK AO2
     T02720118=
KGIC 231935Z AUTO 35003KT 10SM BKN016 OVC035 03/00 A3002 RMK
     AO1=
KPSN 231935Z AUTO 19014G25KT 10SM BKN060 30/14 A2985 RMK AO2=
KSFY 231943Z AUTO 16021G27KT 10SM CLR 26/13 A2973 RMK AO2=
