SAPA31 KWBC 231800 CCA
METAR
PTYA 231753Z COR 17008KT 12SM -SHRA SCT016CB OVC120 25/25 A2972
     RMK SHRAB30 CB ALQDS MOV N SLP064 60199 8/32/ T02500247 10257
     20250 55014=
