SAUS70 KWBC 232018 RRC
METAR
KMWM 232015Z AUTO 13019G29KT 10SM CLR 25/12 A2937 RMK AO2=
KN38 232015Z AUTO 17007KT 10SM CLR 17/07 A3025 RMK AO2=
KO22 232015Z AUTO 26010KT 10SM CLR 17/M05 A2992 RMK A01=
KO32 232015Z AUTO VRB03KT 10SM CLR 18/02 A2991 RMK AO2 T01830017
     $=
KOCQ 232015Z AUTO 14013G16KT 10SM CLR 19/12 A2985 RMK AO1
     T01870120=
KOEB 232015Z AUTO 18008G16KT 10SM SCT055 24/10 A3002 RMK AO2
     T02380101=
KOEO 232015Z AUTO 13015G28KT 10SM CLR 25/16 A2958 RMK AO2
     T02490155=
KOLG 232015Z AUTO 15015G22KT 10SM SCT046 23/11 A2962 RMK AO1=
KONZ 232015Z AUTO 16006KT 10SM BKN100 BKN120 23/05 A3009 RMK AO2
     T02250047=
KORS 232015Z AUTO 17004KT 10SM FEW016 11/08 A3014 RMK AO2=
KOXD 232015Z AUTO 18008G14KT 10SM CLR 26/04 A3007 RMK AO2
     T02630036=
KOZS 232015Z AUTO 16021G25KT 10SM CLR 28/11 A2972 RMK AO2=
KPAN 232015Z AUTO 21010G18KT 10SM SCT036 BKN046 BKN060 14/04 A2983
     RMK AO2 PWINO TSNO=
KPGV 232015Z AUTO 35009KT 10SM OVC018 18/16 A3011 RMK AO2=
KT69 232015Z AUTO 16017G25KT 10SM FEW026 FEW033 SCT040 28/22 A2982
     RMK A01=
KTKX 232015Z AUTO 18013G23KT 8SM FEW050 BKN055 27/14 A2993 RMK AO2
     TSNO=
KTME 232015Z AUTO 15014G19KT 10SM BKN065 31/14 A2988 RMK AO2=
KTOB 232015Z AUTO 14028KT 10SM CLR 24/12 A2954 RMK AO2=
KTSP 232015Z AUTO 29014G20KT 8SM CLR 11/M03 A2995 RMK AO2=
KTTF 232015Z AUTO 11008KT 10SM CLR 21/10 A3009 RMK AO2
     T02070098=
KTWT 232015Z AUTO 16014G23KT 10SM CLR 27/08 A2998 RMK AO2=
KU42 232015Z AUTO 33013KT 10SM OVC039 04/00 A2984 RMK AO1
     T00400000=
KULM 232015Z AUTO 14023G30KT 10SM CLR 26/11 A2941 RMK AO2=
KUOX 232015Z AUTO VRB05G17KT 10SM CLR 26/12 A3003 RMK AO2
     PWINO=
KUTA 232015Z AUTO 17016G24KT 10SM FEW055 SCT270 28/13 A2996 RMK
     AO2 T02770132 $=
KUXL 232015Z AUTO 13015G20KT 10SM SCT034 BKN065 BKN075 27/19 A2997
     RMK AO2 T02700188=
KVJI 232015Z AUTO 00000KT 10SM CLR 24/M03 A3017 RMK AO2
     T02351027=
KVLL 232015Z AUTO 16012G16KT 10SM CLR 24/08 A3011 RMK AO2
     T02420083=
KVWU 232015Z AUTO 12011G20KT 10SM CLR 26/12 A2951 RMK AO2=
KW78 232015Z AUTO 36004KT 10SM CLR 20/05 A3017 RMK AO1
     T02040054=
KW81 232015Z AUTO 34004KT 10SM OVC025 17/09 A3017 RMK AO1
     T01720088=
KX07 232015Z AUTO 04008KT 10SM FEW055 28/16 A3006 RMK A01=
KXNX 232015Z AUTO 17006G13KT 10SM CLR 25/06 A3009 RMK A01=
KY19 232015Z AUTO 08013KT 10SM CLR 16/09 A2927 RMK AO2=
KY70 232015Z AUTO 17017G22KT 10SM CLR 24/08 A3000 RMK AO2
     T02360084=
K04W 232015Z AUTO 11010G19KT 10SM SCT046 22/13 A2956 RMK AO2=
K06D 232015Z AUTO 03020KT 10SM OVC017 09/07 A2947 RMK AO2=
K0S9 232015Z AUTO 15005G11KT 10SM FEW026 12/06 A3013 RMK AO2=
K0VG 232015Z AUTO 00000KT 10SM CLR 23/03 A3016 RMK AO2=
K15M 232015Z AUTO 18007G16KT 9SM CLR 25/06 A3006 RMK AO2 T02490060
     $=
K1R7 232015Z AUTO 17009KT 10SM CLR 27/16 A3004 RMK AO2 PWINO=
K21D 232015Z AUTO 13014G22KT 10SM CLR 23/12 A2954 RMK AO2=
K22N 232015Z AUTO 07004KT 10SM SCT050 BKN110 17/08 A3027 RMK
     AO2=
K24J 232015Z AUTO VRB03KT 10SM 27/08 A3009 RMK A01=
K28J 232015Z AUTO 36007KT 320V020 10SM CLR 25/12 A3008 RMK AO2
     TSNO=
K2D5 232015Z AUTO 11022G33KT 8SM CLR 22/12 A2927 RMK AO2=
K3AU 232015Z AUTO 18026G33KT 10SM CLR 27/11 A2953 RMK AO2=
K3N8 232015Z AUTO 11017G24KT 10SM CLR 23/12 A2940 RMK AO2
     T02330117=
K42J 232015Z AUTO 00000KT 10SM CLR 26/09 A3008 RMK A01=
K46D 232015Z AUTO 09017G28KT 10SM CLR 19/09 A2934 RMK AO2=
K4A6 232015Z AUTO VRB04KT 10SM CLR 24/06 A3011 RMK AO2=
K4M9 232015Z AUTO 19019G26KT 10SM SCT049 27/17 A2992 RMK AO2
     PWINO=
K5H4 232015Z AUTO 06019KT 10SM CLR 15/02 A2936 RMK AO2=
