SAUS70 KWBC 231718 RRA
METAR
KCTZ 231715Z AUTO 02008KT 10SM CLR 21/11 A3015 RMK AO2
     T02080106=
KD57 231715Z AUTO 07013G18KT 10SM CLR 10/03 A2935 RMK AO2=
KD60 231715Z AUTO 06015G22KT 10SM OVC007 04/04 A2952 RMK AO2=
KDNA 231715Z AUTO 25025G33KT 10SM SCT060 BKN075 25/09 A2982 RMK
     AO2=
KDNN 231715Z AUTO 00000KT 10SM CLR 21/04 A3022 RMK AO2
     T02110036=
KDRI 231715Z AUTO 18014G18KT 9SM FEW047 28/17 A3003 RMK AO2
     T02760173 $=
KDYB 231715Z AUTO 36009KT 320V020 10SM CLR 23/10 A3016 RMK AO2=
KEKM 231715Z AUTO 17011G20KT 130V200 9SM CLR 23/13 A3003 RMK AO2
     T02300133=
KELK 231715Z AUTO 19021G29KT 9SM FEW290 24/12 A2967 RMK AO2 PK WND
     19029/1710 SLP337 T02430120 $=
KEVU 231715Z AUTO 20024G32KT 10SM CLR 27/15 A2952 RMK AO2
     T02710150=
KEXX 231715Z AUTO 02004KT 10SM CLR 20/06 A3020 RMK AO2
     T02010062=
KEZF 231715Z AUTO 34004KT 10SM -RA OVC018 14/12 A3020 RMK AO2
     T01400120=
KEZM 231715Z AUTO 11005KT 10SM CLR 23/10 A3019 RMK AO2=
KF70 231715Z AUTO 18006KT 10SM CLR 15/07 A2989 RMK AO2=
KFVX 231715Z AUTO 01006KT 10SM SCT025 18/08 A3020 RMK AO2
     T01810084=
KFWB 231715Z AUTO 18007G21KT 120V250 10SM CLR 26/15 A2983 RMK
     AO2=
KGLY 231715Z AUTO 19017G25KT 10SM CLR 28/15 A2969 RMK AO2=
KGWR 231715Z AUTO 10015G20KT 10SM CLR 17/11 A2938 RMK A01=
K06D 231715Z AUTO 06021KT 10SM OVC007 07/06 A2955 RMK AO2=
K0S9 231715Z AUTO 00000KT 10SM CLR 08/07 A3010 RMK AO2=
K0VG 231715Z AUTO VRB03KT 10SM CLR 21/04 A3023 RMK AO2=
K15M 231715Z AUTO 18011G16KT 10SM CLR 23/08 A3015 RMK AO2
     T02290080 $=
K1P1 231715Z AUTO 00000KT 10SM CLR 16/06 A3035 RMK AO2
     T01600061=
K1R7 231715Z AUTO 12007KT 090V150 10SM FEW042 26/18 A3012 RMK AO2
     PWINO=
K24A 231715Z AUTO 00000KT 10SM CLR 19/02 A3025 RMK AO2 LTG DSNT SE
     T01920024=
K24J 231715Z AUTO 01006KT 10SM 25/10 A3014 RMK A01=
K28J 231715Z AUTO VRB05KT 10SM CLR 24/13 A3013 RMK AO2 TSNO=
K2D5 231715Z AUTO 07016G21KT 7SM CLR 15/08 A2936 RMK AO2=
K2P2 231715Z AUTO 18009G15KT 150V210 10SM BKN110 16/12 A2995 RMK
     AO2 T01590118=
K35A 231715Z AUTO 05005KT 10SM CLR 21/09 A3024 RMK A02
     T02100087=
K3AU 231715Z AUTO 20022G32KT 10SM CLR 27/10 A2960 RMK AO2=
K3D2 231715Z AUTO 17014G22KT 10SM CLR 16/10 A2993 RMK AO2
     T01590104=
K42J 231715Z AUTO 35006KT 10SM CLR 25/11 A3013 RMK A01=
K46D 231715Z AUTO 07019KT 10SM CLR 14/05 A2942 RMK AO2=
K4A6 231715Z AUTO VRB06G12KT 10SM CLR 22/07 A3020 RMK AO2=
K4M9 231715Z AUTO 19019G25KT 10SM SCT035 BKN044 24/17 A2998 RMK
     AO2 PWINO=
K4S2 231715Z AUTO 26003KT 10SM CLR 10/04 A3011 RMK AO2=
K5H4 231715Z AUTO 07016G21KT 10SM CLR 10/M03 A2946 RMK AO2=
K6B9 231715Z AUTO VRB06KT 10SM CLR 19/04 A3027 RMK AO2=
K6L4 231715Z AUTO 00000KT 10SM CLR 21/05 A3022 RMK AO2=
K7L2 231715Z AUTO 09013G18KT 10SM CLR 15/08 A2931 RMK AO2=
K7W6 231715Z AUTO 33009KT 4SM -RA OVC004 17/17 A3006 RMK AO2 P0001
     T01680168=
K82C 231715Z AUTO 14014G17KT 10SM CLR 21/13 A2977 RMK AO2
     T02130128=
K96D 231715Z AUTO 03011G19KT 10SM OVC013 10/10 A2956 RMK AO2=
K9D7 231715Z AUTO 06013G21KT 10SM BKN013 09/07 A2952 RMK AO2
     TSNO=
KACJ 231715Z AUTO 35005KT 10SM CLR 22/08 A3018 RMK AO2
     T02210077=
KAGO 231715Z AUTO 18016G23KT 10SM SCT042 27/15 A2997 RMK A01=
KAIG 231715Z AUTO 14014G18KT 10SM CLR 19/12 A2985 RMK AO2
     T01910122=
KAIK 231715Z AUTO 32007KT 10SM CLR 22/10 A3019 RMK AO2
     T02250100=
KALM 231715Z AUTO 27011KT 10SM CLR 22/10 A2982 RMK AO2=
KANQ 231715Z AUTO 15012G18KT 10SM CLR 22/11 A3007 RMK AO2=
KAQX 231715Z AUTO 36007KT 10SM CLR 23/10 A3017 RMK AO2=
KARW 231715Z AUTO 36009KT 10SM CLR 22/11 A3016 RMK AO2=
