SACA35 KWBC 231800 RRC
METAR
MSLP 231750Z 22007KT 170V250 9999 SCT043 31/23 Q1011 A2986=
