SAUS70 KWBC 231642 RRD
METAR
KIJX 231635Z AUTO 16022G29KT 10SM SCT110 21/14 A2985 RMK AO2
     T02050135=
KJES 231635Z AUTO 00000KT 10SM CLR 21/08 A3019 RMK AO2=
KLMO 231635Z AUTO 36007KT 10SM CLR 19/M04 A2932 RMK AO2
     T01861036=
KLUV 231635Z AUTO 21021G26KT 10SM CLR 26/10 A2978 RMK AO2=
KMLE 231635Z AUTO 16018G25KT 10SM CLR 25/13 A2941 RMK AO2
     T02530129=
KMQB 231635Z AUTO 17023G27KT 10SM SCT110 22/12 A2983 RMK AO2
     T02170115=
KMQW 231635Z AUTO 03005KT 10SM CLR 24/12 A3019 RMK AO2
     T02360120=
KNOW 231635Z AUTO 00000KT 10SM CLR 09/06 A3010 RMK AO2
     T00900061=
KNRN 231635Z AUTO 21021G31KT 10SM CLR 27/08 A2934 RMK AO2=
KORG 231635Z AUTO 16011G16KT 10SM BKN038 BKN060 30/18 A3004 RMK
     AO2 T02990183=
KPMU 231635Z AUTO 21012KT 10SM CLR 25/14 A3009 RMK AO2=
KPNA 231635Z AUTO 31019G29KT 10SM OVC120 00/M06 A2959 RMK AO2=
KPNT 231635Z AUTO 17020G26KT 10SM CLR 23/15 A2992 RMK AO2
     T02280154=
KPOY 231635Z AUTO 35019G28KT 7SM -SN SCT026 SCT031 BKN039 00/M03
     A2957 RMK AO2=
KPPA 231635Z AUTO 22019G27KT 10SM CLR 25/12 A2967 RMK AO2
     T02540121=
KPPQ 231635Z AUTO 17015G19KT 10SM SCT120 22/14 A2983 RMK AO2
     T02160143=
KPTT 231635Z AUTO 19027G33KT 10SM CLR 26/12 A2950 RMK AO2 LTG DSNT
     SW T02550115=
KPXE 231635Z AUTO 10008KT 070V150 10SM CLR 22/09 A3021 RMK AO2=
KRBO 231635Z AUTO 10SM SCT039 SCT046 SCT055 29/19 A2990 RMK AO2
     T02870193=
KRCR 231635Z AUTO 17013G20KT 10SM CLR 23/13 A3004 RMK AO2=
KRCV 231635Z AUTO 22003KT 10SM -DZ BKN029 OVC036 06/02 A2959 RMK
     AO2 T00550019=
KRDK 231635Z AUTO 18020G34KT CLR 25/13 A2947 RMK AO2=
KREG 231635Z AUTO 11009KT 10SM CLR 26/16 A3010 RMK AO2
     T02640160=
KRGA 231636Z AUTO 21009KT 10SM CLR 23/07 A3021 RMK AO2=
KRQO 231635Z AUTO 18026G29KT CLR 24/16 A2972 RMK AO2 PWINO
     T02370161=
K04V 231635Z AUTO 19008G14KT 10SM -RA BKN020 BKN027 OVC050 06/03
     A2961 RMK AO2=
K11R 231635Z AUTO 18012G15KT 10SM SCT033 SCT039 28/19 A2994 RMK
     AO2 T02810190=
K17J 231635Z AUTO 06003KT 10SM CLR 23/04 A3019 RMK AO2
     T02270043=
K1A6 231635Z AUTO 16005KT 10SM CLR 20/05 A3024 RMK AO2
     T02000051=
K2G9 231635Z AUTO 07004KT 10SM CLR 15/02 A3028 RMK AO2=
K5C1 231635Z AUTO 18012G21KT 160V220 10SM BKN029 BKN041 23/16
     A2992 RMK AO1=
K5R8 231635Z AUTO 13014G18KT 10SM SCT036 SCT060 27/18 A3003 RMK
     AO2 T02670176=
K5SM 231638Z AUTO 23011KT 170V270 1/4SM SN OVC002 M03/M05 A2964
     RMK AO2=
K6P9 231635Z AUTO 19014G23KT 10SM CLR 25/16 A2983 RMK AO2
     T02470155=
K8A0 231635Z AUTO 21005KT 10SM CLR 21/03 A3021 RMK AO2=
KAFO 231635Z AUTO 31011KT 10SM BKN031 OVC036 00/M06 A2969 RMK
     AO2=
KAXX 231635Z AUTO 23023G42KT 190V250 10SM BKN055 BKN065 BKN075
     10/M03 A2971 RMK AO2 T01021028=
KBHC 231635Z AUTO 07003KT 10SM CLR A3018 RMK AO2=
KBIJ 231635Z AUTO 12005KT 10SM CLR 22/02 A3020 RMK AO2=
KBMT 231635Z AUTO 14008G15KT 10SM SCT050 SCT060 28/17 A3000 RMK
     AO2 T02820165=
KCCO 231635Z AUTO 00000KT 10SM CLR 20/04 A3024 RMK AO2
     T01970038=
KCNI 231635Z AUTO 14007KT 10SM CLR 21/03 A3025 RMK AO2
     T02120029=
KCPW 231635Z AUTO M1/4SM +SN OVC001 M03/M03 A2967 RMK AO2
     P0002=
KCQB 231635Z AUTO 18019G29KT 10SM CLR 24/16 A2974 RMK AO2
     T02430164=
KCTJ 231635Z AUTO 10003KT 10SM CLR 19/03 A3027 RMK AO2
     T01890033=
KCZT 231635Z AUTO 14010G18KT 10SM CLR 25/18 A2985 RMK AO2=
KDED 231635Z AUTO 34006KT 10SM CLR 26/15 A3014 RMK AO2
     T02600151=
KDPL 231635Z AUTO 36012KT 10SM CLR 20/13 A3015 RMK AO2=
KDQH 231635Z AUTO 00000KT 10SM CLR 23/12 A3020 RMK AO2
     T02320118=
