SAUS70 KWBC 231700 RRP
METAR
KSFZ 231656Z AUTO 04006KT 10SM CLR 13/09 A3034 RMK AO2 SLP273
     T01330094=
KSGH 231656Z AUTO 18009G16KT 10SM FEW050 23/11 A3016 RMK AO2
     SLP211 T02330106=
KSGJ 231656Z 02011KT 10SM CLR 24/20 A3015 RMK AO2 SLP209
     T02390200=
KSGT 231656Z AUTO 17021G26KT 10SM SCT042 BKN049 25/15 A3003 RMK
     AO2 PK WND 18026/1650 SLP166 T02500150=
KSGU 231656Z AUTO 28014KT 10SM CLR 11/M02 A2983 RMK AO2 SLP090
     T01061022=
KSJX 231655Z AUTO 16008G15KT 10SM CLR 21/11 A3001 RMK AO2
     T02120114=
KSKX 231656Z AUTO 23027G36KT 10SM -RA BKN065 OVC075 12/M01 A2968
     RMK AO2 PK WND 21036/1649 RAB51 SLP004 P0000 T01221006=
KSLG 231656Z AUTO 19022G29KT 10SM CLR 25/16 A2983 RMK AO2 PK WND
     18034/1625 SLP089 T02500156=
KSMN 231656Z AUTO 04008KT 10SM FEW040 OVC070 04/M03 A2985 RMK AO2
     SLP809 T00391033=
KSOP 231656Z AUTO 04008KT 360V070 10SM CLR 20/07 A3020 RMK AO2
     SLP231 T02000072 TSNO=
KSQI 231656Z AUTO 16009G18KT 130V200 10SM CLR 22/13 A2983 RMK AO2
     SLP967 T02220133=
KSUE 231656Z AUTO 18017G24KT 10SM CLR 16/11 A2993 RMK AO2 PK WND
     18026/1632 SLP131 T01610111=
KSYM 231655Z AUTO VRB05KT 10SM CLR 23/07 A3021 RMK AO2=
KTOB 231655Z AUTO 14022G27KT 10SM CLR 21/12 A2962 RMK AO2=
KTTF 231655Z AUTO 18007KT 10SM CLR 22/10 A3014 RMK AO2
     T02170101=
KTVF 231656Z AUTO 09008KT 10SM CLR 17/09 A2953 RMK AO2 SLP004
     T01670094=
KUDG 231656Z AUTO 36012G16KT 10SM CLR 23/07 A3018 RMK AO2 SLP221
     T02280072=
KUGN 231655Z 14011KT 10SM CLR 21/12 A2990 RMK AO2 SLP115
     T02060122=
KULM 231655Z AUTO 14020G26KT 10SM CLR 22/11 A2950 RMK AO2=
KVBT 231656Z AUTO 18010G24KT 10SM CLR 26/15 A2984 RMK AO2 PK WND
     18026/1610 SLP097 T02560150=
KVIS 231656Z AUTO 32010KT 10SM CLR 14/03 A2995 RMK AO2 SLP149
     T01390028=
KVLL 231655Z AUTO 17008KT 10SM CLR 22/10 A3016 RMK AO2
     T02210101=
KVWU 231655Z AUTO 13009KT 10SM CLR 21/11 A2959 RMK AO2=
KWVL 231656Z AUTO 00000KT 10SM CLR 14/09 A3036 RMK AO2 SLP308
     T01390094=
KWWD 231656Z AUTO 04020G24KT 5SM HZ 17/14 A3017 RMK AO2 SLP219
     T01720144 $=
KS24 231655Z AUTO 16010KT 8SM CLR 24/11 A3015 RMK AO2=
K04W 231655Z AUTO 13010G14KT 10SM CLR 21/12 A2964 RMK AO2=
K1M4 231656Z AUTO 20011KT 10SM CLR 22/09 A3020 RMK AO2 SLP213
     T02220089=
K22N 231655Z AUTO 00000KT 10SM OVC043 14/05 A3030 RMK AO2=
K3N8 231655Z AUTO 13010KT 10SM CLR 19/10 A2951 RMK AO2
     T01850098=
K6B0 231655Z AUTO 00000KT 10SM CLR 18/06 A3033 RMK AO2
     T01750055=
K7N0 231656Z AUTO 15008KT 120V180 10SM CLR 26/14 A3013 RMK AO2
     SLP203 T02560144 PNO $=
KACB 231655Z AUTO 16011G17KT 10SM CLR 23/12 A3001 RMK AO2
     T02310116=
KADF 231656Z AUTO 19013G17KT 10SM OVC032 25/17 A2998 RMK AO2
     SLP149 T02500172=
KAEL 231655Z AUTO 15021G27KT 10SM CLR 21/13 A2957 RMK AO2=
KAFJ 231656Z AUTO 00000KT 10SM CLR 20/05 A3026 RMK AO2 SLP247
     T02000050=
KAIZ 231656Z AUTO 19013G26KT 10SM CLR 26/15 RMK AO2 PK WND
     20026/1652 SLPNO T02560150 $=
KAJO 231656Z AUTO 00000KT 10SM FEW041 17/12 A2988 RMK AO2 SLP113
     T01720117=
KARG 231656Z AUTO 19022G28KT 10SM BKN033 OVC044 24/15 A2998 RMK
     AO2 PK WND 19029/1618 SLP150 T02440150=
KASH 231656Z 33003KT 10SM CLR 14/08 A3036 RMK AO2 SLP286 T01390083
     $=
KAUM 231656Z AUTO 16011G21KT 10SM CLR 21/13 A2961 RMK AO2=
KAUO 231656Z AUTO 15005KT 10SM CLR 22/06 A3022 RMK AO2 SLP253
     T02170056=
KBHB 231656Z AUTO 11004KT 10SM CLR 16/11 A3038 RMK AO2 SLP288
     T01610111 PNO $=
KBID 231656Z AUTO 05010KT 9SM -RA SCT070 OVC100 14/12 A3030 RMK
     AO2 RAB04 SLP259 P0001 T01440122=
