SAUS70 KWBC 232100 RRX
METAR
KGZN 232100Z AUTO 18021G34KT 10SM CLR 30/13 A2970 RMK AO2=
KJKA 232055Z 11009G14KT 10SM CLR 25/13 A3011=
