SAUS80 KWBC 231840
METAR
K9MN 231835Z AUTO 12015G24KT 10SM CLR 22/12 A2959 RMK AO1
     T02220117=
KS39 231835Z AUTO VRB03KT 10SM BKN028 BKN034 06/M00 A3009 RMK
     AO2=
KLYV 231835Z AUTO 15016G28KT 10SM CLR 23/11 A2936 RMK AO2=
KVTI 231835Z AUTO 15020G25KT 10SM CLR 26/13 A2963 RMK AO2
     T02580128=
KIKW 231835Z AUTO 20012G20KT 10SM SCT060 25/10 A3004 RMK AO2
     T02520102=
KSYN 231835Z AUTO 14012G20KT 10SM CLR 24/12 A2954 RMK AO2
     T02410120=
KTKC 231835Z AUTO 16024G30KT 10SM 24/10 A2939 RMK AO2
     T02370101=
KTKV 231835Z AUTO 14009G15KT 10SM SCT038 22/12 A2977 RMK AO2
     T02240120 PWINO=
KSEP 231835Z AUTO 19015G21KT 150V210 10SM CLR 29/15 A2982 RMK AO2
     T02900145=
KMKN 231835Z AUTO 19019G27KT 10SM CLR 29/16 A2981 RMK AO2
     T02870156=
KRFI 231835Z AUTO 16011G18KT 10SM SCT046 BKN050 30/11 A2993 RMK
     AO2 T03020114=
KEDU 231840Z AUTO 34014G23KT 10SM CLR 18/M02 A3000 RMK AO1=
KGNG 231835Z AUTO 27021G29KT 10SM CLR 06/M00 A2989 RMK AO2=
KRLD 231835Z AUTO 28005KT 10SM CLR 14/01 A3008 RMK AO2
     T01350008=
KCIR 231835Z AUTO 23015G19KT 10SM BKN044 OVC050 25/15 A2999 RMK
     AO2 T02540145=
KCTY 231835Z AUTO 01006KT 10SM CLR 27/11 A3011 RMK AO2
     T02720112=
K40U 231835Z AUTO 28010KT 10SM SCT039 01/M04 A2969 RMK AO2
     T00151036=
K48A 231835Z AUTO 36006KT 10SM CLR 24/10 A3016 RMK AO2
     T02410097=
K4BM 231835Z AUTO M1/4SM +SN OVC002 M02/M03 A2962 RMK AO2=
K9MN 231835Z AUTO 12015G24KT 10SM CLR 22/12 A2959 RMK AO1
     T02220117=
KEHA 231835Z AUTO 22034G38KT 10SM CLR 27/06 A2950 RMK AO2
     T02750057=
KIZA 231835Z AUTO 29006KT 10SM CLR 19/03 A2989 RMK AO2=
KCKP 231835Z AUTO 18021G28KT 10SM CLR 26/12 A2939 RMK AO2
     T02640120=
KDBN 231835Z AUTO 00000KT 10SM CLR 25/08 A3017 RMK AO2=
KPSN 231835Z AUTO 16012G20KT 120V180 10SM SCT050 BKN060 BKN065
     29/16 A2988 RMK AO2=
KSOA 231835Z AUTO 17016G22KT 10SM 27/15 A2986 RMK AO2=
