SAUS70 KWBC 232000 RRL
METAR
KDTW 231953Z 14013G18KT 10SM FEW055 SCT120 SCT220 23/10 A3010 RMK
     AO2 SLP190 T02330100 $=
KPTK 231953Z 16013G20KT 10SM FEW050 SCT220 22/09 A3009 RMK AO2
     SLP188 T02220094 $=
KUUU 231953Z AUTO 04005KT 7SM -RA OVC039 14/12 A3029 RMK AO2 RAB25
     SLP256 P0001 T01390122=
KBUR 231953Z 26008KT 10SM CLR 23/M01 A2984 RMK AO2 SLP094
     T02331011=
KTOI 231953Z AUTO 36005KT 10SM CLR 28/05 A3012 RMK AO2 SLP197
     T02830050=
TIST 231953Z 08007KT 10SM SCT033 31/23 A2988 RMK AO2 SLP117
     T03060228=
KMCE 231953Z AUTO 33018G27KT 10SM CLR 20/M01 A2993 RMK AO2 PK WND
     32028/1940 SLP133 T02001011=
KMFR 231953Z VRB03KT 10SM FEW039 12/02 A3019 RMK AO2 SLP224
     T01220022=
KMLS 231953Z AUTO 31017KT 10SM -RA OVC014 04/03 A2950 RMK AO2
     SLP997 P0005 T00440028=
KMYV 231953Z AUTO 34017G23KT 10SM CLR 21/M03 A2998 RMK AO2 SLP156
     T02111028 $=
KOAK 231953Z 31014G20KT 10SM CLR 20/02 A2999 RMK AO2 SLP156
     T02000022=
KOGD 231953Z 33016G25KT 10SM FEW028 SCT036 OVC090 08/M02 A2980 RMK
     AO2 SLP079 T00781017=
KOLF 231953Z AUTO 05011KT BKN006 OVC010 04/04 A2954 RMK AO2
     RAE00B09E42 SLP016 P0000 T00440039=
KONT 231953Z 00000KT 10SM FEW026 BKN034 19/09 A2985 RMK AO2 SLP100
     T01940094 $=
KPAE 231953Z 20004KT 10SM BKN005 BKN016 OVC038 11/06 A3015 RMK AO2
     SLP211 T01060056=
KPRC 231953Z 36010KT 10SM BKN055 OVC070 11/02 A2983 RMK AO2 SLP051
     T01060017=
KTWF 231953Z 29026G38KT 10SM FEW033 07/M02 A2989 RMK AO2 PK WND
     30038/1953 SLP113 T00671017=
KWRL 231953Z AUTO 34014G29KT 10SM FEW022 OVC060 04/M01 A2960 RMK
     AO2 PK WND 34031/1925 SLP029 T00391006=
PABA 231952Z AUTO 10020KT 9SM -SN OVC010 M04/M06 A3007 RMK AO2 PK
     WND 09027/1909 SNB03 SLP188 T10391056 FZRANO PNO $=
KCVH 231955Z AUTO 30006G14KT 10SM CLR 19/03 A2998 RMK A01=
KDEW 231953Z AUTO 16004KT 10SM FEW031 10/01 A3002 RMK AO2 SLP179
     T01000006=
KELN 231953Z AUTO 23003KT 10SM CLR 12/M02 A3005 RMK AO2 SLP182
     T01221022 $=
KHHR 231953Z 25011G16KT 10SM FEW060 22/11 A2985 RMK AO2 SLP107
     T02220106=
KLMT 231953Z 33009KT 10SM SCT043 BKN050 07/M04 A3010 RMK AO2
     SLP194 T00721039=
KLVK 231953Z 01009G16KT 10SM CLR 20/M04 A2998 RMK AO2 SLP148
     T02001039=
KRXE 231953Z AUTO 34008G18KT 290V030 10SM BKN044 OVC060 05/M05
     A2977 RMK AO2 SLP087 T00501050=
KSAC 231953Z 34016G24KT 10SM CLR 21/M02 A2996 RMK AO2 PK WND
     33026/1912 SLP145 T02111022=
KSNS 231953Z 31011KT 10SM CLR 19/04 A2997 RMK AO2 SLP158
     T01890044=
KSPB 231953Z AUTO 13005KT 10SM BKN050 BKN065 13/07 A3017 RMK AO2
     SLP215 T01330067=
KSTS 231953Z AUTO VRB06G15KT 10SM CLR 20/M01 A3001 RMK AO2 SLP155
     T02001011=
K1MW 231955Z AUTO 36022KT 10SM M 19/M02 A2517 RMK AO2 SLP459
     T01921019 FZRANO $=
KEVW 231953Z AUTO 01010KT 10SM SCT030 BKN049 OVC060 00/M03 A2973
     RMK AO2 SLP064 T00001033 $=
KFUL 231953Z VRB04KT 10SM BKN035 22/09 A2984 RMK AO2 SLP103
     T02170089=
KGUR 231955Z AUTO 32026G34KT 10SM BKN020 OVC170 07/03 A2940 RMK
     AO2 PK WND 31035/33 SLPNO T00700027=
KHLN 231953Z 32014KT 4SM -SN BKN018 OVC025 02/M01 A2985 RMK AO2
     SNE10B41 SLP146 P0000 T00221011=
KJER 231953Z AUTO 28018G31KT 10SM CLR 07/M02 A2987 RMK AO2 PK WND
     26032/1929 SLP120 T00721022=
KACQ 231955Z AUTO 13021G30KT 10SM CLR 24/12 A2951 RMK AO2=
KALO 231954Z 15018G30KT 10SM CLR 24/13 A2957 RMK AO2 PK WND
     18035/1925 SLP006 T02440133=
KAMN 231955Z AUTO 15014G19KT 10SM BKN055 24/08 A3002 RMK AO2
     T02410084=
KBWI 231954Z 01006KT 10SM SCT032 BKN055 OVC140 19/10 A3019 RMK AO2
     SLP224 BINOVC T01890100 $=
