SAUS70 KWBC 231900 RRD
METAR
KBWG 231853Z AUTO 17014G19KT 10SM CLR 26/07 A3008 RMK AO2 SLP184
     T02560072=
KBYG 231853Z AUTO 34031G42KT 10SM FEW010 BKN055 OVC070 03/00 A2948
     RMK AO2 PK WND 34042/1845 SNE15 SLP975 P0000 T00280000=
KC29 231855Z AUTO 14017G23KT 10SM CLR 24/13 A2977 RMK AO1
     T02400125=
KCAG 231853Z AUTO 31012G22KT 1 1/4SM -SN BR FEW006 SCT010 OVC019
     00/M02 A2963 RMK AO2 SLP040 P0003 T00001022=
KCCR 231853Z VRB06KT 10SM CLR 19/01 A3000 RMK AO2 SLP144
     T01940006=
KCDC 231853Z AUTO 36009KT 1/2SM SN FZFG SCT004 OVC008 M01/M01
     A2987 RMK AO2 SLP118 T10061011 PNO $=
KCDS 231853Z AUTO 19018G29KT 10SM CLR 27/11 A2962 RMK AO2 PK WND
     19029/1844 SLP004 T02670111=
KCDW 231853Z 05005KT 10SM SCT060 OVC120 17/07 A3027 RMK AO2 SLP254
     T01670072=
KCEW 231853Z AUTO 00000KT 10SM CLR 27/05 A3013 RMK AO2 SLP201
     T02720050=
KCEZ 231853Z AUTO 19014G20KT 10SM FEW060 08/01 A2972 RMK AO2 PK
     WND 19026/1754 SLP014 T00780011 $=
KCGC 231855Z AUTO 31006KT 10SM CLR 27/15 A3009 RMK AO2=
KCGI 231853Z 19016G26KT 10SM BKN046 OVC055 27/15 A2995 RMK AO2 PK
     WND 19032/1810 SLP139 T02670150=
KCHO 231853Z 04008KT 10SM BKN035 OVC043 20/09 A3019 RMK AO2 SLP222
     T02000089=
KCKB 231853Z 35004KT 10SM CLR 24/04 A3019 RMK AO2 SLP215
     T02390044=
PAAQ 231853Z 00000KT 10SM CLR M03/M04 A2985 RMK AO2 SLP114
     T10281044=
PABR 231853Z 12024G32KT 10SM OVC050 M06/M07 A2996 RMK AO2 PK WND
     12032/1850 SLP147 T10561072=
PACV 231853Z 11004KT 10SM CLR 01/M01 A2965 RMK AO2 SLP039
     T00111006=
PAEN 231853Z 00000KT 10SM CLR M03/M03 A2992 RMK AO2 SLP134
     T10281033=
PAGK 231853Z AUTO 33008KT 10SM CLR M04/M09 A2984 RMK AO2 SLP137
     T10391089 TSNO=
PAGY 231853Z AUTO 02010G18KT 10SM CLR 08/M02 A2958 RMK AO2 PRESFR
     SLP017 T00781022 TSNO $=
PAIL 231853Z 33006KT 10SM FEW020 FEW060 M01/M04 A3004 RMK AO2
     SLP174 T10061039=
PAKT 231853Z 13028G41KT 6SM -RA BR SCT022 OVC030 06/03 A2947 RMK
     AO2 PK WND 13041/1846 SLP979 HARBOR WIND 10028G41KT ROOF WIND
     11035G45KT P0009 T00560033=
PAKV 231853Z AUTO 00000KT 10SM OVC014 M05/M06 A3002 RMK AO2 SLP168
     T10501056 TSNO=
PAKW 231853Z AUTO 08009G17KT 4SM -RA BR OVC033 08/06 A2935 RMK AO2
     SLP941 P0014 T00780056 TSNO $=
PALH 231853Z 03005KT 10SM CLR M01/M06 A2990 RMK AO2 SLP126
     T10111056=
PAMR 231853Z 00000KT 10SM CLR M03/M06 A2989 RMK AO2 SLP123
     T10331061=
PAPB 231853Z AUTO 22022G31KT 7SM SCT006 BKN009 OVC034 08/ A2982
     RMK AO2 PK WND 20037/1808 RAE42 CIG 008V014 SLP085 P0000
     T0078 TSNO $=
PASC 231853Z 11008KT 10SM SCT004 BKN050 M11/M12 A3000 RMK AO2
     SLP162 T11061117 $=
PASI 231854Z 07021G30KT 10SM CLR 08/M01 A2923=
K4R5 231855Z AUTO 06004KT 10SM SCT110 21/12 A2969 RMK AO2
     T02070122=
KARV 231855Z AUTO 16016G23KT 10SM SCT039 21/12 A2977 RMK AO2
     T02140117=
KEWR 231851Z 02009KT 10SM FEW045 SCT060 BKN110 OVC140 17/09 A3025
     RMK AO2 RAE1759 SLP244 P0000 T01670089=
KIJD 231852Z AUTO 04006KT 10SM -RA FEW080 OVC110 15/07 A3031 RMK
     AO2 RAB32 SLP262 P0000 T01500067=
KIOW 231852Z AUTO 16022G31KT 10SM CLR 25/13 A2967 RMK AO2 PK WND
     17033/1832 SLP044 T02500133=
KMDH 231852Z 19022G32KT 10SM FEW043 27/14 A2993 RMK AO2 PK WND
     18034/1804 SLP132 T02670144=
KMDZ 231855Z AUTO 14013G22KT 10SM CLR 22/13 A2973 RMK AO2
     T02200125 PWINO=
KMKE 231852Z 14015KT 10SM FEW031 21/13 A2986 RMK AO2 SLP107
     T02110128 $=
KORE 231852Z AUTO 00000KT 10SM CLR 16/08 A3033 RMK AO2 SLP272
     T01560078=
KPWK 231852Z 18022G28KT 10SM CLR 26/13 A2987 RMK AO2 PK WND
     18033/1804 SLP111 T02560133=
