SAUS70 KWBC 232100 RRB
METAR
KLKV 232053Z AUTO 35011G17KT 10SM SCT050 07/M07 A3008 RMK AO2
     SLP204 T00721067 51002=
KMTJ 232053Z AUTO 27015G21KT 10SM FEW041 SCT049 BKN095 06/00 A2968
     RMK AO2 PK WND 26029/2030 WSHFT 1940 RAE1957B29E39 SLP004
     P0000 60000 T00560000 51020 $=
KMWL 232053Z AUTO 16017G32KT 10SM CLR 31/14 A2970 RMK AO2 PK WND
     16038/2040 SLP042 T03110144 56026=
KODO 232053Z AUTO 17016G26KT 10SM CLR 29/12 A2969 RMK AO2 PK WND
     20028/2022 SLP007 T02890117 56031 $=
KOKB 232052Z AUTO 25009KT 8SM CLR 21/11 A2984 RMK AO2 SLP102
     T02110106 58009=
KSNK 232055Z AUTO 19015G25KT 10SM CLR 30/11 A2967 RMK AO2
     T03020107=
KTRM 232052Z AUTO 25006KT 10SM CLR 26/04 A2974 RMK AO2 SLP073
     T02560044 58014=
KCMI 232053Z 16020G32KT 10SM FEW043 24/13 A2988 RMK AO2 PK WND
     16034/2035 SLP115 T02440128 56013=
KDUJ 232053Z AUTO 12005KT 10SM CLR 18/02 A3022 RMK AO2 SLP236
     T01780017 56007=
KETH 232053Z AUTO 12029G34KT 10SM 23/12 A2931 RMK AO2=
KFLD 232053Z AUTO 14017G23KT 10SM CLR 23/12 A2979 RMK AO2 SLP084
     T02280117 56016=
KLHQ 232053Z AUTO 15010KT 10SM CLR 24/07 A3011 RMK AO2 SLP193
     T02390067 56017=
KLUK 232053Z 17008KT 10SM CLR 25/07 A3007 RMK AO2 SLP181 T02500072
     56017=
KLWB 232051Z 00000KT 10SM CLR 21/01 A3018=
KLWV 232053Z AUTO 18019G25KT 10SM CLR 26/09 A2996 RMK AO2 PK WND
     19029/2016 SLP141 T02560089 56014 $=
KMGY 232053Z AUTO 16010KT 10SM CLR 24/09 A3007 RMK AO2 SLP178
     T02390089 56018=
KMHT 232053Z 00000KT 10SM OVC120 16/07 A3032 RMK AO2 SLP283
     T01560072 55003=
KMVY 232053Z 01013KT 2SM -RA BR BKN006 OVC033 14/13 A3025 RMK AO2
     SLP242 P0020 60028 T01390133 56010=
KOSH 232053Z 13012KT 10SM CLR 21/13 A2978 RMK AO2 PK WND
     12026/2021 SLP078 T02110128 56015=
KOVS 232053Z AUTO 15008G18KT 120V190 10SM CLR 25/13 A2967 RMK AO2
     SLP045 T02500133 56019 $=
KOWA 232053Z AUTO 14015G32KT 10SM CLR 24/13 A2950 RMK AO2=
KTZR 232055Z 15010KT 10SM CLR 24/07 A3011=
KUUU 232053Z AUTO 03011KT 6SM -RA BR FEW035 SCT046 OVC100 13/12
     A3027 RMK AO2 SLP248 P0005 60007 T01280122 58006=
KCAG 232053Z AUTO 27010KT 1 1/4SM -SN BR SCT011 BKN016 OVC022
     01/M02 A2967 RMK AO2 SLP060 P0009 60016 T00061017 53020=
KCNM 232053Z AUTO 25016G23KT 10SM CLR 29/08 A2964 RMK AO2 PK WND
     27027/2021 SLP982 T02890083 56022=
KCYS 232053Z 34019G29KT 10SM BKN060 OVC080 08/M04 A2939 RMK AO2 PK
     WND 31033/1954 LTG DSNT S RAB00E24 SLP905 P0000 60000
     T00831039 53004=
KDEN 232053Z VRB03KT 10SM SCT070 BKN120 BKN200 18/M03 A2934 RMK
     AO2 PK WND 25032/1956 LTG DSNT N SLP869 T01781028 53009=
KDFW 232053Z 18026G38KT 10SM FEW050 FEW250 30/16 A2972 RMK AO2 PK
     WND 17039/2017 SLP055 T03000156 56030=
KDGW 232053Z AUTO 32018G25KT 10SM SCT024 OVC041 05/00 A2951 RMK
     AO2 PK WND 33029/2039 SLP974 60001 T00500000 53008=
KDHT 232053Z AUTO 21028G52KT 10SM SCT100 26/03 A2950 RMK AO2 PK
     WND 21052/2045 SLP932 T02610033 56022=
KFTW 232053Z 16018G30KT 10SM CLR 29/16 A2972 RMK AO2 PK WND
     16039/2022 SLP055 T02940161 56029 $=
KONT 232053Z VRB06KT 10SM FEW033 SCT042 BKN050 20/09 A2983 RMK AO2
     SLP095 T02000089 58012 $=
KTKI 232053Z 17024G34KT 10SM CLR 29/14 A2975 RMK AO2 PK WND
     17040/2027 SLP069 T02890144 56028=
KTRL 232053Z AUTO 16020G27KT 10SM BKN050 30/16 A2979 RMK AO2 PK
     WND 18031/2021 SLP080 T03000156 56028=
KCQX 232052Z AUTO 03008KT 2SM RA BR BKN004 OVC026 14/13 A3026 RMK
     AO2 SLP248 P0017 60022 T01440133 58008=
KDPA 232052Z AUTO 16013G29KT 10SM CLR 26/13 A2981 RMK AO2 PK WND
     18038/1953 SLP090 T02560133 56018=
