SACA33 KWBC 231900 RRD
METAR
TFFF 231930Z AUTO 10011KT 9999 FEW026 31/25 Q1010 TEMPO 4000 SHRA
     SCT018TCU=
TFFR 231930Z AUTO 08010KT 050V110 9999 -RA BKN025/// BKN033///
     BKN043/// ///TCU 29/24 Q1011 TEMPO 4000 SHRA=
