SAUS80 KWBC 231630
METAR
KGNT 231635Z AUTO 23016G26KT 10SM BKN060 OVC080 13/01 A2979 RMK
     AO2 T01280010=
