SAUS80 KWBC 232110
METAR
KGNT 232115Z AUTO 29015G22KT 10SM SCT033 SCT046 11/02 A2979 RMK
     AO2 T01140024=
