SAUS80 KWBC 231800 RRB
METAR
KLBB 231753Z 20016G28KT 10SM FEW120 BKN200 BKN260 26/11 A2971 RMK
     AO2 PK WND 23030/1659 SLP010 T02610106 10272 20167 58008=
KTUS 231753Z 31010KT 10SM CLR 23/08 A2983 RMK AO2 SLP061 T02330083
     10233 20178 58004=
PABE 231753Z 14008KT 6SM BR OVC002 M01/M02 A3001 RMK AO2 SLP166
     60000 I1001 I6013 T10111017 11011 21044 58012=
PADQ 231753Z 30008KT 10SM CLR 06/M03 A2990 RMK AO2 SLP126
     T00561033 10061 20050 51017=
KMWT 231753Z AUTO VRB04G15KT 10SM OVC031 24/16 A2992 RMK AO2
     SLP120 T02390161 10239 20200 58007=
PHNL 231753Z 05009KT 10SM FEW021 BKN044 BKN065 26/22 A3002 RMK AO2
     RAB20E34 SLP165 VCSH N P0000 60001 T02560222 10261 20244
     53015=
KTCS 231753Z AUTO 22020G33KT 10SM CLR 21/02 A2977 RMK AO2 PK WND
     22033/1749 SLP008 T02060017 10206 20161 50002=
KBIL 231753Z 30015G27KT 10SM BKN042 OVC050 04/M01 A2963 RMK AO2 PK
     WND 31027/1746 SLP041 SHRASN DSNT ALQDS 60000 T00441011 10044
     20033 51024=
KBNO 231753Z AUTO 30008G18KT 10SM BKN038 04/M03 A3005 RMK AO2
     SLP192 T00391033 10044 21067 51024 $=
KCHA 231753Z 23007KT 10SM FEW060 23/03 A3019 RMK AO2 SLP219
     T02280033 10228 20061 58022=
KCLI 231755Z AUTO 15013G19KT 10SM CLR 21/12 A2985 RMK AO2
     T02110125 10214 20105=
KCNY 231753Z AUTO 21004KT 10SM -RA FEW006 BKN023 OVC034 02/01
     A2963 RMK AO2 RAE07B46SNB07E46 SLP026 P0011 60018 T00170011
     10061 20006 53019=
KCRQ 231753Z 17005KT 10SM FEW029 BKN044 18/10 A2986 RMK AO2 SLP111
     T01830100 10189 20144 50009=
KFAT 231753Z 31012KT 10SM CLR 16/02 A2995 RMK AO2 SLP139 T01610022
     10161 20094 51017=
KFNB 231753Z AUTO 18021G37KT 10SM CLR 28/14 A2948 RMK AO2 PK WND
     17037/1753 SLP971 T02830144 10283 20172 58009=
KGEG 231753Z VRB03KT 10SM FEW021 FEW075 06/02 A3000 RMK AO2 SLP171
     T00560017 10056 20000 51024 $=
KHSV 231753Z 17008KT 10SM FEW250 24/06 A3017 RMK AO2 SLP212
     T02390056 10244 20100 58014=
KHTL 231753Z AUTO 16011G22KT 10SM CLR 22/11 A3004 RMK AO2 SLP172
     T02220111 10222 20111 58015=
KJBR 231753Z AUTO 19017G25KT 10SM BKN041 OVC050 25/14 A2999 RMK
     AO2 PK WND 20029/1708 SLP153 T02500139 10256 20172 58010
     $=
KLAN 231753Z AUTO 18015G24KT 10SM CLR 24/11 A3006 RMK AO2 SLP177
     T02390111 10239 20122 58017 $=
KLIT 231753Z 16013KT 10SM BKN040 27/16 A2996 RMK AO2 SLP144
     T02670156 10272 20194 58015=
KMCN 231753Z 08006KT 10SM CLR 24/09 A3017 RMK AO2 SLP214 T02390094
     10244 20033 58018=
KPDX 231753Z 00000KT 10SM FEW015 BKN030 12/07 A3016 RMK AO2 SLP214
     T01170067 10117 20089 53023=
KRMG 231753Z AUTO 00000KT 10SM CLR 23/05 A3019 RMK AO2 SLP216
     T02330050 10233 20061 58019=
KSEA 231753Z 21004KT 9SM BKN007 OVC026 08/07 A3014 RMK AO2 SLP215
     T00830067 10089 20056 52020 $=
PHNL 231753Z 05009KT 10SM FEW021 BKN044 BKN065 26/22 A3002 RMK AO2
     RAB20E34 SLP165 VCSH N P0000 60001 T02560222 10261 20244
     53015=
PHTO 231753Z 25005KT 10SM SCT030 BKN070 26/20 A3004 RMK AO2 SLP171
     60006 T02560200 10256 20211 52016=
PHKO 231753Z 12003KT 10SM SCT050 SCT070 27/20 A2999 RMK AO2 SLP155
     T02720200 10272 20250 53019=
PHLI 231753Z 06010KT 10SM CLR 26/21 A3005 RMK AO2 SLP173 60000
     T02610211 10267 20250 53014 $=
PHJR 231753Z 00000KT 5SM -RA BR FEW025 BKN036 OVC050 23/21 A3004
     RMK AO2 RAB35 SLP178 P0001 60001 T02330211 10244 20228
     53016=
KMGM 231753Z VRB03KT 10SM CLR 24/06 A3017 RMK AO2 SLP214 T02440056
     10244 20056 58015=
KODX 231753Z AUTO 16015G24KT 10SM CLR 28/07 A2923 RMK AO2 PK WND
     17028/1741 SLP888 T02780072 10278 20089 58016=
