SAUS70 KWBC 231800 RRW
METAR
KAWO 231756Z AUTO 18005KT 10SM FEW011 BKN021 OVC048 09/06 A3014
     RMK AO2 SLP211 T00940061 10094 20061 53017=
KAXH 231755Z AUTO 18009G15KT 10SM OVC060 29/14 A2996 RMK AO2
     T02930140 10303 20204=
KAXS 231755Z AUTO 19020G26KT 10SM CLR 29/11 A2967 RMK AO2
     T02920111 10293 20181=
KAZC 231755Z AUTO 28017G26KT 10SM CLR 07/M01 A2985 RMK AO2=
KBAM 231755Z AUTO 30007KT 10SM SCT021 BKN033 OVC049 04/00 A3001
     RMK AO1=
KBCK 231755Z AUTO 12009KT 080V160 10SM CLR 24/12 A2970 RMK AO2
     T02390124 10239 20086=
KBDU 231755Z AUTO 00000KT 10SM SCT120 17/M01 A2932 RMK AO2=
KBGF 231745Z AUTO 18008KT 150V210 9SM CLR 23/05 A3016 RMK A01=
KBKD 231755Z AUTO 19015G25KT 10SM CLR 29/15 A2977 RMK AO2
     T02870147 10287 20205=
KBKX 231756Z AUTO 13023G28KT 10SM CLR A2933 RMK AO2 SLPNO 6////
     FZRANO $=
KBOK 231756Z AUTO VRB04KT 10SM CLR 13/04 A3018 RMK AO2 SLP221
     60001 T01330044 10133 20050 51015 $=
KBPC 231755Z AUTO 22027G31KT 10SM CLR 28/08 A2959 RMK AO2=
KBTA 231755Z AUTO 17019G29KT 10SM CLR 27/13 A2939 RMK AO2
     T02700130 10271 20172=
KBTN 231755Z AUTO 14010G22KT 10SM CLR 20/10 A2931 RMK AO2=
KBTP 231756Z AUTO 07007KT 10SM CLR 20/05 A3023 RMK AO2 SLP241
     T02000050 10200 20033 58012 TSNO=
KBXA 231755Z AUTO 13005KT 10SM CLR 27/13 A3011 RMK AO2 T02730126
     10279 20090=
KC07 231755Z AUTO 25006KT 2 1/2SM BR OVC001 M02/M02 A2959 RMK AO2
     VIS 1V5=
KC09 231755Z AUTO 17019G27KT 10SM SCT044 25/14 A2986 RMK AO2
     T02490141 10250 20158=
KC83 231755Z AUTO 31014G24KT 10SM CLR 18/M00 A3000 RMK AO2=
PAAD 231755Z AUTO 11012KT 10SM BKN003 BKN010 OVC039 M09/M10 A3003
     RMK AO2 T10891099 11065 21096=
PAAK 231756Z AUTO 22007KT 10SM -RA OVC024 A3023 RMK AO2
     RAE17B40UPB1657E32 SLPNO P0000 60000 52010 FZRANO $=
PABL 231756Z AUTO 13008KT 10SM -RA BKN021 01/00 A2988 RMK AO2
     RAB13 SLP120 P0000 60000 T00060000 10017 20006 51001 FZRANO
     $=
PABV 231756Z AUTO 19006KT 10SM CLR M04/M06 A2989 RMK AO2 SLP130
     T10441056 11033 21050 51014 FZRANO=
PADL 231756Z 04003KT 10SM CLR M05/M06 A3010 RMK AO2 SLP197
     T10501056 11022 21056 53008=
PADM 231756Z AUTO 10012G18KT 10SM OVC028 01/M02 A3001 RMK AO2
     SLP169 T00061022 10011 21039 58014 FZRANO=
PADU 231756Z 18005KT 10SM FEW034 BKN058 07/02 A3023 RMK AO2 SLP241
     60001 T00670017 10078 20067 58008=
PAFM 231756Z AUTO 13009G14KT 9SM -SN BKN006 OVC020 M02/M02 A2997
     RMK AO2 SLP157 P0000 60000 T10171022 11017 21022 58002
     FZRANO=
PAGA 231756Z AUTO 10SM OVC042 M01/M02 A3002 RMK AO2 UPB41E46SNE41
     SLP167 P0000 60000 T10111022 11011 21017 58002 FZRANO $=
PAGL 231756Z AUTO 17019G23KT 10SM OVC015 03/01 A2986 RMK AO2
     SLP105 60005 T00330011 10033 20017 56004 PWINO $=
PAGN 231756Z AUTO 06011G16KT 10SM -RA SCT009 BKN024 OVC029 03/03
     A2947 RMK AO2 SLP969 P0008 60019 T00330033 10061 20033
     56039=
PAGS 231756Z AUTO 04008G16KT 340V070 10SM -RA FEW031 OVC045 07/M01
     A2951 RMK AO2 RAB42 SLP991 P0000 60000 T00671006 10067 20028
     56033=
PAHL 231756Z AUTO 15004KT 5SM -SN BR OVC027 M02/M03 A3000 RMK AO2
     SLP164 P0000 60000 T10221033 11022 21039 56001 FZRANO=
PAHY 231756Z AUTO 11025G33KT 4SM -RA BR OVC012 09/08 A2940 RMK AO2
     PK WND 11034/1744 SLP954 P0016 60061 T00940078 10094 20072
     58025 $=
PAIG 231756Z AUTO 18005KT 10SM CLR M04/M04 A3008 RMK AO2 SLP194
     T10391044 11006 21039 51014 FZRANO $=
PAIK 231756Z AUTO 08004KT 10SM SCT014 BKN021 OVC028 M01/M02 A2991
     RMK AO2 SLP132 60001 T10111017 11006 21011 51004 FZRANO=
