SAUS70 KWBC 231818 RRE
METAR
KEGV 231815Z AUTO 14009G20KT 10SM SCT040 21/10 A2981 RMK AO2
     T02130104=
KEIK 231815Z AUTO 05004KT 10SM CLR 18/M04 A2932 RMK AO2 T01811043
     PWINO=
KEKS 231815Z AUTO 32007KT M01/M02 A2980 RMK AO2 PWINO TSNO=
KERV 231815Z AUTO 18018G23KT 10SM BKN037 26/16 A2988 RMK AO2
     T02620160=
KF05 231815Z AUTO 20023G30KT 10SM CLR 31/12 A2967 RMK AO2
     T03140121=
KF17 231815Z AUTO 15016G20KT 10SM BKN050 28/13 A2997 RMK AO2=
KF44 231815Z AUTO 19013G23KT 10SM SCT044 BKN050 27/16 A2988 RMK
     AO2=
KF46 231815Z AUTO 21021G30KT 10SM BKN043 27/16 A2986 RMK AO2
     T02730161=
KFGX 231815Z AUTO 18008KT 10SM CLR 23/08 A3016 RMK AO2
     T02340082=
KFKN 231815Z AUTO 35003KT 10SM OVC007 15/13 A3014 RMK AO2
     T01500127=
KFLY 231815Z AUTO 24024G31KT CLR 16/M02 A2948 RMK AO2 T01601017
     PWINO=
KFOT 231810Z AUTO 34008KT 9SM FEW026 13/07 A3014 RMK AO1=
KFTN 231815Z AUTO 15012G17KT 10SM CLR 28/19 A2983 RMK A01=
KGAO 231815Z AUTO 10010G16KT 10SM CLR 27/15 A3009 RMK AO2
     T02670148=
KGDJ 231815Z AUTO 16018G23KT 10SM CLR 28/16 A2981 RMK AO2
     T02820158=
KGGI 231815Z AUTO 16020G26KT 10SM CLR 25/14 A2962 RMK AO2
     T02490144=
KGOO 231815Z AUTO VRB05G15KT 10SM CLR 12/M08 A2996 RMK A01=
KGRN 231815Z AUTO 30009G12KT 10SM CLR 11/01 A2925 RMK AO2
     T01120008=
KGYB 231815Z AUTO 17013G17KT 10SM SCT040 SCT047 SCT060 28/18 A2989
     RMK AO2 T02830178=
KH71 231815Z AUTO 15022G31KT 10SM CLR 27/16 A2972 RMK AO2=
KHFJ 231815Z AUTO 19022G29KT 10SM SCT120 27/13 A2976 RMK AO2=
KHHF 231815Z AUTO 21022G29KT 10SM CLR 27/11 A2958 RMK AO2
     T02720111=
KHLB 231815Z AUTO 17012KT 10SM CLR 24/10 A3009 RMK A01=
KHLX 231815Z AUTO 33005KT 10SM CLR 18/M10 A3021 RMK AO2
     T01841099=
KHOE 231815Z AUTO 13003KT 10SM CLR 25/11 A3014 RMK AO2
     T02550115=
KHQG 231815Z AUTO 23033G46KT 4SM HZ BKN001 OVC006 28/04 A2947 RMK
     AO2 T02830039=
KHRX 231815Z AUTO 22016G21KT 10SM CLR 24/11 A2968 RMK AO2
     T02370108=
KHSB 231815Z AUTO 19015G27KT 10SM BKN049 25/17 A2998 RMK AO2
     T02510165=
K05U 231815Z AUTO 34009KT 10SM 01/M03 A2997 RMK A01=
K0A0 231815Z AUTO 23016G22KT 10SM CLR 20/05 A2979 RMK AO2=
K0F2 231815Z AUTO 16017G27KT 10SM CLR 28/16 A2976 RMK AO2
     T02810155=
K0R0 231815Z AUTO VRB04G13KT 10SM CLR 28/11 A3012 RMK AO2=
K1A9 231815Z AUTO 00000KT 10SM CLR 24/05 A3016 RMK AO2
     T02370049=
K1K1 231815Z AUTO 20029G38KT 10SM CLR 27/11 A2957 RMK AO2
     T02730114=
K1V6 231815Z AUTO 25014G22KT 10SM SCT070 SCT075 BKN090 19/01 A2943
     RMK AO2=
K2G2 231810Z AUTO 11005KT 10SM CLR 22/03 A3020 RMK A01=
K33N 231815Z AUTO 02012KT 10SM OVC022 17/14 A3018 RMK A01=
K36K 231810Z AUTO 21032G43KT 10SM CLR 29/00 A2940 RMK AO2=
K3J7 231815Z AUTO 08003KT 10SM CLR 22/06 A3017 RMK AO2=
K3LF 231815Z AUTO 17024G30KT 10SM SCT031 22/14 A2989 RMK AO2
     T02180135=
K3S8 231815Z AUTO 00000KT 10SM OVC006 08/06 A3023 RMK AO2=
K46U 231815Z AUTO 33017KT 10SM SCT038 BKN045 BKN055 02/M05 A2973
     RMK A01=
K4V0 231815Z AUTO 19003KT 2SM -SN OVC006 00/00 A2965 RMK AO2
     T00010001=
K54A 231815Z AUTO 08009KT 10SM CLR 29/19 A3004 RMK AO2=
K5T9 231815Z AUTO 14009G15KT 10SM CLR 26/20 A2980 RMK A01=
K65S 231815Z AUTO 00000KT 10SM BKN004 BKN007 OVC011 05/05 A2999
     RMK AO2=
K6A2 231815Z AUTO 00000KT 10SM CLR 21/01 A3019 RMK AO2=
K7W4 231815Z AUTO 35003KT 10SM OVC017 15/12 A3020 RMK AO1
     T01500117=
K82V 231815Z AUTO 32018G25KT 10SM CLR 16/00 A2935 RMK AO2=
KAAS 231815Z AUTO 18009KT 10SM CLR 23/07 A3019 RMK AO1=
KACP 231815Z AUTO 17007KT 10SM BKN043 BKN065 29/16 A3001 RMK
     AO2=
