SAPA32 KWBC 231600 RRB
METAR
NWWW 231630Z AUTO 08009KT 040V120 CAVOK 24/17 Q1011 TEMPO SHRA
     FEW020TCU=
