SASA31 KWBC 231700 RRB
METAR
SKBO 231700Z 05006KT 9999 VCSH BKN020TCU 19/12 Q1026 NOSIG RMK
     TCUVCSH/SE/S A3030=
SKRG 231700Z 13009KT 9999 VCSH BKN017TCU 21/14 Q1025 NOSIG RMK
     TCUSE/NW VCSH/SE A3027=
