SAUS70 KWBC 231800 RRQ
METAR
KMFR 231753Z 00000KT 10SM FEW044 10/05 A3017 RMK AO2 SLP220
     T01000050 10100 20044 51020=
KMYV 231753Z AUTO 33015KT 10SM CLR 18/00 A3000 RMK AO2 SLP164
     T01780000 10178 20106 51016 $=
KOMK 231753Z AUTO 35007KT 10SM CLR 11/M02 A3004 RMK AO2 SLP181
     T01061017 10106 20000 51016=
KPSC 231753Z 23006KT 10SM CLR 12/02 A3007 RMK AO2 SLP185 T01170017
     10122 20039 51021 $=
KSNS 231753Z 31005KT 10SM CLR 17/05 A3000 RMK AO2 SLP167 T01670050
     10167 20083 51015=
KTVY 231755Z AUTO 31003KT 10SM BKN032 OVC042 01/01 A2981 RMK
     AO2=
K10G 231755Z AUTO 17004KT 10SM CLR 22/06 A3020 RMK AO2=
KARB 231753Z 15008KT 110V180 10SM CLR 23/11 A3010 RMK AO2 SLP193
     T02280106 10239 20033 58016=
KAXN 231753Z AUTO 11016G30KT 10SM CLR 22/12 A2947 RMK AO2 PK WND
     12030/1746 RAB32E41 SLP978 P0000 60000 T02170117 10217 20111
     58026=
KCMX 231753Z AUTO 14009G18KT 10SM CLR 20/12 A2983 RMK AO2 SLP100
     T02000117 10200 20100 50000=
KGKJ 231753Z AUTO VRB04KT 10SM CLR 21/03 A3022 RMK AO2 SLP229
     T02110033 10211 20094 58011=
KGRB 231753Z 14010G18KT 10SM CLR 22/13 A2987 RMK AO2 SLP113
     T02170128 10217 20117 58011 $=
KHIB 231753Z AUTO 12014KT 10SM FEW065 FEW085 19/11 A2965 RMK AO2
     SLP046 T01890111 10200 20006 58011=
KICR 231753Z AUTO 16014G21KT CLR 23/06 A2916 RMK AO2 SLP860
     T02330056 10233 20078 56024=
KLNK 231754Z 18028G35KT 10SM CLR 29/13 A2936 RMK AO2 PK WND
     18041/1739 SLP929 T02940128 10294 20167 58015=
KLNL 231755Z AUTO 17011G23KT 130V190 10SM CLR 21/11 A2983 RMK AO2
     T02090105 10209 20120=
KPKD 231753Z AUTO 11014G20KT 10SM CLR 21/11 A2952 RMK AO2 SLP996
     T02060106 10206 20072 58019=
KRCX 231755Z AUTO 12012KT 10SM CLR 22/15 A2973 RMK AO2 T02150152
     10215 20126=
K4S2 231755Z AUTO 29004KT 10SM CLR 11/04 A3011 RMK AO2=
KALW 231753Z 21008KT 10SM BKN100 08/02 A3006 RMK AO2 SLP184
     T00830022 10083 20050 51023 $=
KBLI 231753Z 00000KT 10SM OVC042 09/09 A3013 RMK AO2 SLP209
     T00890089 10089 20011 53018=
KBRO 231753Z 15019G32KT 10SM CLR 33/19 A2985 RMK AO2 PK WND
     16033/1717 SLP107 T03280189 10328 20211 58012=
KDVT 231753Z 30008G14KT 10SM FEW044 BKN075 21/09 A2978 RMK AO2
     SLP068 T02060089 10211 20183 51010=
KELN 231753Z AUTO 31012KT 10SM CLR 11/M01 A3004 RMK AO2 SLP179
     T01061006 10106 20028 51018 $=
KHRI 231753Z AUTO 25008KT 10SM CLR 11/03 A3009 RMK AO2 SLP188
     T01110033 10111 20067 51025=
KMFE 231753Z 16020G33KT 10SM CLR 32/17 A2983 RMK AO2 PK WND
     16033/1657 SLP098 T03170172 10317 20217 58019 $=
KSFF 231753Z 00000KT 10SM SCT045 06/02 A3001 RMK AO2 SLP172
     T00610017 10061 20022 51022=
KSTS 231753Z AUTO 34011KT 10SM CLR 17/01 A3004 RMK AO2 SLP166
     T01720011 10172 20089 51016=
KTIW 231753Z VRB03KT 10SM BKN005 09/07 A3014 RMK AO2 SLP209
     T00890067 10089 20061 53020=
KTWF 231753Z 29024G32KT 10SM FEW023 05/M01 A2988 RMK AO2 PK WND
     28032/1745 SLP109 T00501011 10050 20000 51024=
KVCB 231753Z AUTO 36018G31KT 10SM CLR 19/M02 A3001 RMK AO2 PK WND
     35032/1738 SLP160 T01891017 10189 20122 51017=
KABR 231753Z AUTO 12013G22KT 10SM -RA CLR 23/12 A2928 RMK AO2 PK
     WND 12026/1714 RAB11 SLP913 P0000 60000 T02280122 10228 20033
     56033=
KADG 231753Z AUTO 20010G21KT 10SM FEW055 23/10 A3011 RMK AO2
     SLP195 T02280100 10233 20089 58016=
KANQ 231755Z AUTO 17016G22KT 10SM CLR 23/11 A3006 RMK AO2=
KBRD 231753Z AUTO 10008G18KT 060V130 10SM CLR 21/11 A2956 RMK AO2
     SLP008 T02060111 10217 20117 58017=
KC29 231755Z AUTO 15016G20KT 10SM CLR 23/12 A2980 RMK AO1
     T02300122 10230 20153=
