SAUS70 KWBC 231700
METAR
PAKU 231645Z 12012KT 5SM R06/P6000FT BR OVC004 M05/M05 A3003=
KBAK 231645Z 17014G20KT 10SM CLR 23/10 A3010=
KMMU 231645Z 05006KT 10SM BKN110 18/10 A3028=
KOUN 231646Z 15020G30KT 10SM CLR 23/17 A2972=
KSAW 231645Z 19013KT 10SM FEW015 17/13 A2992=
TJBQ 231650Z 08012KT 10SM CLR 30/23 A2994=
KHXD 231650Z 02010G16KT 10SM CLR 23/12 A3018=
KNQA 231650Z 19011G15KT 10SM CLR 25/15 A3005=
K1S5 231655Z AUTO 00000KT 10SM SCT085 06/01 A3006 RMK AO2
     T00550010=
KADS 231647Z 18018G26KT 10SM SCT031 26/16 A2986=
KCPF 231655Z AUTO 00000KT 10SM CLR 22/04 A3022 RMK AO2=
KCWA 231647Z 12009KT 10SM CLR 19/12 A2983=
KEMV 231655Z AUTO 32011G14KT 10SM OVC015 16/12 A3020 RMK AO2
     T01580117=
KEVB 231647Z 01010G15KT 10SM CLR 25/18 A3013=
KFFA 231655Z AUTO 32007KT 290V350 7SM OVC003 17/17 A3004 RMK AO2
     P0006 T01660166=
KFWS 231646Z 17019G35KT 10SM SCT033 27/16 A2986=
KMCJ 231655Z AUTO 14023G32KT 10SM FEW060 28/11 A2994 RMK A01=
KSUW 231655Z AUTO 05008KT 10SM BKN075 OVC095 12/09 A2971 RMK AO2
     T01220091=
