SAUS80 KWBC 231700 CCA
METAR
KCQT 231647Z AUTO 00000KT 10SM SCT018 BKN027 17/13 A2987 RMK AO2
     SLP115 T01720128=
