SAUS70 KWBC 232000 RRA
METAR
KRAP 231952Z 34030G41KT 10SM CLR 09/03 A2928 RMK AO2 PK WND
     35050/1911 SLP916 T00940033 $=
KRSL 231953Z AUTO 20035G51KT 1 3/4SM HZ BKN029 OVC041 33/05 A2930
     RMK AO2 PK WND 21053/1939 SLP902 T03330050=
KRVS 231953Z 18021G31KT 10SM CLR 29/15 A2965 RMK AO2 PK WND
     18031/1953 SLP043 T02940150=
KSGF 231952Z 17019G32KT 10SM CLR 29/14 A2973 RMK AO2 PK WND
     18036/1916 SLP053 T02890139 $=
KSPI 231952Z 17016G32KT 10SM CLR 24/14 A2980 RMK AO2 PK WND
     18036/1919 SLP088 T02390139=
KTAN 231952Z AUTO A3030 RMK AO2 SLPNO PWINO FZRANO TSNO $=
KTRM 231952Z AUTO 30005KT 10SM CLR 25/04 A2976 RMK AO2 SLP077
     T02500044=
K2C8 231955Z AUTO 04011KT 9SM CLR 17/09 A2947 RMK AO2=
KALN 231950Z 17019G30KT 10SM SCT030 24/14 A2983=
KATW 231945Z 13013KT 10SM CLR 21/12 A2979=
KCGF 231945Z 16006KT 10SM SCT150 23/08 A3014=
KD50 231955Z AUTO 03013KT 10SM OVC012 05/03 A2953 RMK AO2=
KEFT 231955Z AUTO 17021G28KT 10SM CLR 24/13 A2974 RMK AO2
     T02400127=
KETB 231955Z AUTO 14012G20KT 10SM CLR 20/12 A2983 RMK AO2=
KFRH 231955Z AUTO 17009G17KT 141V201 10SM CLR 25/06 A3002 RMK
     AO1=
KJVL 231945Z 16019G26KT 10SM SCT090 25/10 A2977=
KMMU 231945Z 06008KT 10SM BKB060 OVC110 18/11 A3026=
KMWA 231945Z 20021G28KT 20SM BKN043 25/15 A2993=
KOIC 231955Z AUTO 00000KT 10SM CLR 18/09 A3029 RMK AO2
     T01770092=
KOQU 231950Z 06019KT 10SM SCT050 OVC100 15/10 A3031=
KOXC 231951Z 03004KT 10SM FEW050 SCT110 13/08 A3028 RMK AO2 RAE48
     SLP270 P0000 T01280083=
KPBH 231955Z AUTO 15018G23KT 10SM SCT045 22/13 A2970 RMK AO2
     T02220127=
KPDC 231955Z AUTO 12012G22KT 10SM CLR 25/12 A2964 RMK AO2
     T02490117=
KRRL 231955Z AUTO 14014G17KT 110V180 10SM SCT042 23/13 A2974 RMK
     AO2 T02260127 TSNO=
KSAW 231947Z 16020G24KT 10SM CLR 18/11 A2988=
KSCH 231947Z 00000KT 15SM SCT180 BKN250 16/07 A3030=
KUNU 231955Z AUTO 13018G23KT 10SM CLR 23/13 A2980 RMK AO2
     T02260131=
KUNV 231953Z VRB04KT 10SM OVC029 17/10 A3025=
KVNW 231955Z AUTO 16013G19KT 10SM SCT060 25/07 A3006 RMK AO2=
KY51 231955Z AUTO 14018G25KT 10SM CLR 23/15 A2967 RMK AO1
     T02300145=
KBLH 231952Z AUTO 30009KT 10SM CLR 24/01 A2977 RMK AO2 SLP074
     T02440011 TSNO=
PASI 231951Z 07011G25KT 10SM OVC110 09/00 A2923=
PATA 231952Z 00000KT 10SM OVC005 M02/M03 A3005 RMK AO2 SLP182 VIS
     NW 5 N 4 NE 3 E 3 S 10 VCFG E OVR LAKES T10221033 $=
K08D 231955Z AUTO 04022KT 10SM OVC012 07/06 A2942 RMK AO2=
K0E0 231955Z AUTO 22025G33KT 10SM BKN090 19/M03 A2971 RMK AO2
     T01851035 TSNO=
KAQP 231953Z AUTO 17020G30KT 7SM SCT085 SCT090 25/11 A2933 RMK
     AO2=
KATL 231952Z 00000KT 10SM FEW200 FEW250 23/03 A3016 RMK AO2 SLP208
     T02330028 $=
KBEA 231955Z AUTO 15021G26KT 10SM SCT036 SCT043 SCT050 29/18 A2980
     RMK AO2 T02890183=
KBIS 231952Z AUTO 08012KT 10SM CLR 17/07 A2927 RMK AO2 SLP911
     T01670072=
KCQW 231955Z AUTO VRB04KT 10SM CLR 24/05 A3013 RMK AO2 PWINO=
KD55 231955Z AUTO 06024G31KT 10SM CLR 13/13 A2946 RMK AO2=
KEHO 231955Z AUTO 00000KT 10SM CLR 23/04 A3016 RMK AO2
     T02280035=
KEST 231952Z AUTO 15029G38KT 10SM CLR 26/13 A2941 RMK AO2 PK WND
     17040/1942 SLP955 T02560128=
KJHN 231955Z AUTO 20038G44KT 5SM HZ OVC001 29/01 A2938 RMK AO2
     T02850014=
KLDJ 231955Z AUTO 04007KT 10SM OVC055 17/07 A3025 RMK AO2
     T01660073=
KLKV 231953Z AUTO 03009KT 10SM SCT039 BKN047 06/M04 A3008 RMK AO2
     SLP207 T00611039=
KLUM 231955Z AUTO 12018G26KT 10SM SCT049 26/17 A2960 RMK AO2
     T02550174 PWINO=
KMAW 231955Z AUTO 19016G24KT 10SM BKN048 28/13 A2995 RMK AO1=
KMHL 231955Z AUTO 17019G27KT 10SM CLR 30/15 A2963 RMK AO2=
