SAUS80 KWBC 232100
METAR
KJQF 232050Z 05005KT 10SM CLR 23/04 A3018=
