SAUS80 KWBC 231900 CCA
METAR
KCQC 231853Z AUTO 24031G44KT 10SM BKN065 BKN080 BKN095 16/01 A2973
     RMK AO2 PK WND 23045/1818 SLP987 T01610006=
