SAPA31 KWBC 231700 RRG
METAR
PHJR 231747Z 08004KT 2SM -RA BR FEW023 BKN030 OVC047 23/21 A3004
     RMK AO2 RAB35 P0001=
