SAUS70 KWBC 231916 RRB
METAR
KMGG 231915Z AUTO 13011G19KT 10SM CLR 24/12 A2950 RMK AO2
     T02370115 PWINO=
KMGN 231915Z AUTO 16011G19KT 10SM SCT060 24/11 A2998 RMK AO2
     T02430109=
KMNI 231915Z AUTO 04006KT 10SM CLR 23/07 A3013 RMK AO2=
KMTV 231915Z AUTO 07006KT 10SM CLR 21/02 A3021 RMK AO2
     T02070022=
KMVE 231915Z AUTO 15020G32KT 10SM CLR 24/13 A2936 RMK AO2=
KOIN 231915Z AUTO 24025G38KT 10SM SCT035 SCT047 BKN110 30/04 A2931
     RMK AO1 T02990036=
KOKV 231915Z AUTO 00000KT 7SM OVC026 16/08 A3022 RMK AO2=
KOMH 231915Z AUTO 36006KT 10SM SCT027 SCT036 OVC042 17/10 A3021
     RMK AO2=
KONM 231915Z AUTO 20019G30KT 10SM CLR 23/M01 A2970 RMK AO2
     T02271010=
KOVL 231915Z AUTO 14021G30KT 5SM HZ CLR 23/12 A2941 RMK AO2=
KOZW 231915Z AUTO 15017G20KT 10SM SCT055 24/10 A3007 RMK AO2
     T02400097=
K10G 231915Z AUTO 19008KT 10SM CLR 23/06 A3017 RMK AO2=
KPCZ 231915Z AUTO 12014KT 10SM CLR 24/12 A2978 RMK AO2
     T02400123=
KPSK 231915Z AUTO 00000KT 10SM CLR 19/04 A3019 RMK AO2
     T01930043=
KPWC 231915Z AUTO 12014G20KT 10SM CLR 22/13 A2955 RMK AO2=
KRCM 231915Z AUTO 16016G24KT 10SM CLR 29/12 A2961 RMK AO2=
KRCX 231915Z AUTO 14017G24KT 10SM CLR 23/15 A2969 RMK AO2
     T02280154=
KRGK 231915Z AUTO 13014G20KT 10SM CLR 24/12 A2954 RMK AO2=
KRHP 231915Z AUTO 24006KT 10SM CLR 24/00 A3015 RMK AO2
     T02411002=
KROX 231915Z AUTO 07019KT 10SM CLR 17/08 A2953 RMK AO2=
KSAZ 231915Z AUTO 13011G22KT 10SM CLR 24/12 A2947 RMK AO2=
KSGS 231915Z AUTO 14011G23KT 120V180 10SM CLR 24/12 A2952 RMK AO2
     T02400117=
KSHD 231915Z AUTO 06003KT 10SM OVC035 18/06 A3024 RMK AO2
     T01840064=
KSRR 231915Z AUTO 25040G58KT 10SM 17/01 A2974 RMK AO2=
KTEW 231915Z AUTO 16015G19KT 10SM BKN050 24/10 A3005 RMK AO2
     T02400095=
KTVY 231915Z AUTO 28009KT 10SM BKN055 OVC065 03/00 A2984 RMK
     AO2=
KTWM 231915Z AUTO 07013G18KT 10SM SCT070 19/11 A2966 RMK AO2=
KUKT 231915Z AUTO VRB06G13KT 10SM SCT047 18/10 A3025 RMK A01=
KVDF 231915Z AUTO 04004KT 10SM CLR 30/17 A3007 RMK AO2=
KVGC 231915Z AUTO 16004KT 10SM CLR 17/07 A3028 RMK AO2=
KVVV 231915Z 13017G33KT 10SM 23/13 A2932 RMK AO2=
KX60 231915Z AUTO 02005KT 10SM CLR 27/12 A3010 RMK AO2
     T02740119=
KXSA 231915Z AUTO 32003KT 10SM SCT011 OVC018 15/15 A3018 RMK AO2
     T01500150=
