SAUS70 KWBC 231722
METAR
K3LF 231715Z AUTO 17022G27KT 10SM BKN120 22/14 A2991 RMK AO2
     T02220135=
KANW 231715Z AUTO 20015G20KT 10SM CLR 22/00 A2919 RMK AO2
     T02240002=
KBAX 231715Z AUTO 17012G18KT 10SM CLR 22/11 A3012 RMK AO2
     T02200114=
KEGV 231715Z AUTO 14009G15KT 10SM CLR 20/11 A2983 RMK AO2
     T01960105=
KFOA 231715Z AUTO 19021G27KT 10SM BKN039 25/14 A2998 RMK AO2=
KFSW 231715Z AUTO 17017G22KT 10SM OVC001 23/14 A2974 RMK AO2=
KGPC 231715Z AUTO 19016KT 10SM CLR 24/12 A3004 RMK AO2
     T02420117=
KGWB 231715Z AUTO 19006KT 10SM CLR 22/12 A3009 RMK AO2=
KHJH 231715Z AUTO 19024G32KT 10SM CLR 28/12 A2938 RMK AO2
     T02780115=
KHLB 231715Z AUTO 16011G16KT 10SM CLR 23/10 A3012 RMK A01=
KHSB 231715Z AUTO 20018G26KT 10SM SCT043 25/17 A3001 RMK AO2
     T02540169=
KIFA 231715Z AUTO 14021G27KT 10SM CLR 23/14 A2959 RMK AO2
     T02340141=
KLCG 231715Z AUTO 17021G29KT 10SM CLR 25/12 A2933 RMK AO2
     T02480122=
KLNN 231715Z AUTO 18005KT 10SM CLR 24/05 A3018 RMK AO1
     T02370045=
KLXL 231715Z AUTO 12011G16KT 10SM CLR 21/12 A2955 RMK AO2=
KM30 231715Z AUTO 20014G22KT 10SM BKN055 24/12 A3004 RMK AO2
     T02420121=
KMWO 231715Z AUTO 17008KT 10SM CLR 24/09 A3015 RMK AO2
     T02390086=
KMZZ 231715Z AUTO 19014G24KT 10SM CLR 24/12 A3008 RMK AO2
     T02350116=
KN03 231715Z AUTO 11005KT 10SM CLR 17/01 A3029 RMK AO2=
KOLY 231715Z AUTO 16019G27KT 10SM BKN041 25/11 A3000 RMK AO2
     T02460112=
K06C 231715Z AUTO 16012G18KT 10SM CLR 23/16 A2990 RMK AO2
     T02270160=
K1H2 231715Z AUTO 15019G24KT 10SM SCT038 24/14 A2998 RMK AO2
     T02350142=
K57C 231715Z AUTO 16011G17KT 10SM CLR 22/12 A2987 RMK AO2
     T02160122=
KAAA 231715Z AUTO 17016G24KT 10SM SCT120 23/15 A2986 RMK AO2
     T02310146=
KAJG 231715Z AUTO 16022G26KT 10SM CLR 26/11 A3000 RMK AO2
     T02580110=
KASW 231715Z AUTO 17009G16KT 140V210 10SM CLR 23/11 A3004 RMK AO2
     T02340118=
KAUH 231715Z AUTO 19022G28KT 10SM CLR 26/11 A2933 RMK AO2
     T02600112=
KAWG 231715Z AUTO 16018G25KT 10SM CLR 24/15 A2969 RMK AO2=
KAXA 231715Z AUTO 16020G30KT 10SM CLR 23/14 A2950 RMK A01=
KBIE 231715Z AUTO 19024G32KT 10SM CLR 28/13 A2941 RMK AO2
     T02790128=
KBVN 231715Z AUTO 17017G23KT 10SM CLR 25/09 A2930 RMK AO2
     T02460091 PWINO=
KC35 231715Z AUTO 15009G14KT 10SM CLR 21/12 A2978 RMK AO2
     T02110122 PWINO=
KFET 231715Z AUTO 17017G25KT 10SM CLR 26/13 A2938 RMK AO2
     T02600132=
KFWC 231715Z AUTO 19015G25KT SCT042 25/13 A2998 RMK AO1 T02500129
     PWINO=
KGDB 231715Z AUTO 12018G29KT 10SM CLR 22/13 A2944 RMK AO2
     T02220129=
KPMV 231715Z AUTO 18021G30KT 10SM CLR 27/13 A2944 RMK AO2
     T02660127=
KPPO 231715Z AUTO 18012G20KT 10SM CLR 23/15 A2999 RMK AO2
     T02340154=
KRPJ 231715Z AUTO 16020G24KT 10SM CLR 23/15 A2986 RMK AO2
     T02250147 TSNO=
KSTE 231715Z AUTO 14010G17KT 10SM CLR 21/10 A2982 RMK AO2
     T02110100=
KSXK 231715Z AUTO 17023G34KT 10SM CLR 24/13 A2935 RMK AO2=
KTYQ 231715Z AUTO 18015G22KT 10SM CLR 23/12 A3006 RMK AO2
     T02330117=
KVVS 231715Z AUTO 04005KT 10SM CLR 21/03 A3023 RMK AO2
     T02120027=
KVYS 231715Z AUTO 17018G24KT 10SM CLR 24/13 A2985 RMK AO2
     T02370133=
K0CO 231715Z AUTO 30011G26KT 271V341 1/2SM FZFG BKN001 BKN007
     OVC015 M03/M05 A2961 RMK AO2 VIS M1/4V5=
K3S8 231715Z AUTO 00000KT 10SM OVC004 06/06 A3022 RMK AO2=
K46U 231715Z AUTO 33012G19KT 10SM SCT039 BKN049 BKN080 02/M04
     A2972 RMK A01=
K4V0 231715Z AUTO 00000KT 3/4SM -SN BKN004 OVC008 00/00 A2962 RMK
     AO2 T00000000=
K5T9 231715Z AUTO 12008KT 10SM SCT021 26/20 A2982 RMK A01=
K65S 231715Z AUTO 00000KT M1/4SM FG OVC002 03/03 A2998 RMK AO2=
