SAUS80 KWBC 232000 RRB
METAR
KSOA 231955Z AUTO 16014G21KT 10SM 27/14 A2982 RMK AO2=
KPSN 231955Z AUTO 17015G23KT 10SM SCT060 29/14 A2984 RMK AO2=
K9V9 231955Z AUTO 16012G17KT 10SM CLR 26/06 A2914 RMK AO2
     T02560058=
KAYS 231955Z AUTO 00000KT 10SM CLR 26/10 A3011 RMK AO2
     T02640098=
KCAO 231955Z AUTO 21031G43KT 10SM FEW095 24/M01 A2950 RMK AO2 PK
     WND 20051/1909 SLP924 T02391006=
KD07 231956Z AUTO 35013KT 12/04 A2926 RMK AO1 SLP915 T01170039=
KGIC 231955Z AUTO 36004KT 10SM SCT016 BKN031 OVC037 03/00 A3002
     RMK AO1=
KCKP 231955Z AUTO 16022G29KT 10SM CLR 28/12 A2936 RMK AO2
     T02750116=
K4BM 231955Z AUTO 15007G17KT 110V180 10SM SCT008 SCT014 SCT021
     00/M02 A2962 RMK AO2=
KIZA 231955Z AUTO 00000G12KT 10SM CLR 22/M03 A2987 RMK AO2=
KFAR 231954Z COR 12020G28KT 10SM CLR 24/12 A2933=
KCBE 231955Z AUTO 00000KT 10SM CLR 18/05 A3027 RMK AO2
     T01840047=
KNY0 231955Z AUTO 00000KT 10SM CLR 14/07 A3030 RMK AO2=
KSOW 231955Z AUTO 22023G38KT 10SM SCT032 BKN038 OVC055 11/04 A2983
     RMK AO2=
KCHS 231956Z 32008KT 10SM CLR 24/11 A3012 RMK AO2 SLP199
     T02390106=
K8D3 231956Z AUTO 13024G34KT 24/12 A2928 RMK AO1 PK WND 12037/1917
     SLP910 T02390117=
KD07 231956Z AUTO 35013KT 12/04 A2926 RMK AO1 SLP915 T01170039=
KGNR 231956Z AUTO VRB04KT 18/06 A3034 RMK AO1 SLP279 T01780056=
KP58 231955Z AUTO 14011G18KT 20/12 A3008 RMK AO1 SLP183
     T02000122=
KFLG 231957Z 24011G26KT 10SM FEW034 BKN044 OVC055 06/M02 A2982 RMK
     AO2 PK WND 23028/1929 SLP038 T00611017=
KSXT 231956Z AUTO 00000KT 10SM FEW002 SCT010 BKN026 04/01 A3016
     RMK AO2 SLP229 T00390011=
KCAO 231955Z AUTO 21031G43KT 10SM FEW095 24/M01 A2950 RMK AO2 PK
     WND 20051/1909 SLP924 T02391006=
KGIC 231955Z AUTO 36004KT 10SM SCT016 BKN031 OVC037 03/00 A3002
     RMK AO1=
KPSN 231955Z AUTO 17015G23KT 10SM SCT060 29/14 A2984 RMK AO2=
KSOA 231955Z AUTO 16014G21KT 10SM 27/14 A2982 RMK AO2=
