SAUS70 KWBC 231800 RRR
METAR
KEKO 231756Z AUTO 32014G21KT 10SM FEW038 OVC065 03/M04 A2994 RMK
     AO2 SLP143 T00331039 10039 21011 51023=
KLHB 231755Z AUTO 16015G23KT 10SM SCT043 BKN050 29/18 A2992 RMK
     AO2 T02900179 10292 20185=
KT74 231755Z AUTO 18015G23KT 10SM SCT042 BKN050 28/18 A2989 RMK
     AO2 T02810177 10286 20175=
KTEX 231755Z AUTO 30006KT 1/2SM SN BKN005 OVC009 00/M02 A2971 RMK
     AO2=
KNSE 231756Z AUTO 00000KT 10SM CLR 26/ A3015 RMK AO2 SLP195 6////
     T0256 10256 20061 58013 PNO $=
