SAUS70 KWBC 232028
METAR
KDUB 232021Z AUTO 28021G28KT 10SM SCT041 OVC049 02/M09 A2960 RMK
     AO2=
K1S5 232035Z AUTO 11003KT 10SM CLR 13/02 A3009 RMK AO2
     T01340020=
KCPF 232035Z AUTO 00000KT 10SM CLR 25/05 A3014 RMK AO2=
KEMV 232035Z AUTO 30008KT 10SM BKN010 OVC017 15/13 A3016 RMK AO2
     T01530132=
KFFA 232035Z AUTO 35010G19KT 300V020 5SM BR OVC003 17/17 A3003 RMK
     AO2 T01650165=
KMCJ 232035Z AUTO 17023G34KT 10SM FEW055 28/14 A2986 RMK A01=
KSUW 232035Z AUTO 07015G18KT 10SM SCT050 14/10 A2963 RMK AO2
     T01410095=
