SAUS70 KWBC 231800 RRW
METAR
KLAM 231755Z AUTO 20015G34KT 10SM OVC050 11/M01 A2971 RMK AO2
     T01101013 10124 20096=
KPNA 231755Z AUTO 30023G31KT 10SM CLR 00/M06 A2959 RMK AO2=
KRCV 231755Z AUTO 22011G14KT 10SM -DZ SCT023 SCT038 OVC046 05/01
     A2962 RMK AO2 T00470012 10085 20038=
KNFE 231756Z AUTO 35013G21KT 4SM RA BR BKN005 BKN047 OVC070 17/14
     A3007 RMK AO2 PRESFR SLP183 P0020 60039 T01670144 10167 20161
     58020=
K6S8 231755Z AUTO 29018G26KT 10SM 05/M02 A2964 RMK A01 Laurel=
K11R 231755Z AUTO 18017KT 10SM SCT047 BKN060 30/17 A2991 RMK AO2
     T02960174 10297 20180=
K6I2 231755Z AUTO 18008KT 10SM CLR 24/07 A3014 RMK AO2=
K8A0 231755Z AUTO 19005KT 10SM CLR 22/04 A3019 RMK AO2=
KAXX 231755Z AUTO 23026G35KT 10SM SCT050 BKN060 OVC070 11/M01
     A2969 RMK AO2 T01091015 10113 20072=
KBMT 231755Z AUTO 14013KT 10SM SCT039 SCT044 BKN050 29/17 A2998
     RMK AO2 T02860171 10291 20185=
KCNI 231755Z AUTO 19004KT 5SM HZ CLR 22/03 A3021 RMK AO2 T02210028
     10227 20031=
KDED 231755Z AUTO 30005KT 10SM CLR 27/14 A3011 RMK AO2 T02680141
     10270 20151=
KDUX 231755Z AUTO 21032G42KT 10SM CLR 27/07 A2960 RMK AO2
     T02650070 10265 20175=
KETN 231755Z AUTO 17019G26KT 10SM CLR 27/15 A2980 RMK AO2
     T02660151 10270 20176=
KFQD 231755Z AUTO 20003KT 10SM CLR 21/04 A3020 RMK AO2=
KHHW 231756Z AUTO 18017G25KT 10SM BKN039 27/15 A2986 RMK AO2=
KHVE 231755Z AUTO 30013KT 10SM OVC095 09/00 A2967 RMK AO2=
KHZR 231755Z AUTO 16011G16KT 10SM SCT046 OVC060 26/15 A3007 RMK
     AO2 T02620154 10268 20152=
KIWA 231757Z 28012KT 10SM SCT075 21/09 A2980=
KJES 231755Z AUTO 00000KT 10SM SCT048 21/07 A3016 RMK AO2=
KK62 231755Z AUTO 18008G15KT 150V210 10SM CLR 24/06 A3014 RMK
     AO2=
KLOT 231755Z AUTO 16022G27KT 10SM CLR 25/14 A2989 RMK AO2=
KMQW 231755Z AUTO 10005KT 10SM CLR 24/11 A3016 RMK AO2 T02450109
     10250 20052=
KPXE 231755Z AUTO 17003KT 10SM CLR 23/07 A3017 RMK AO2 T02300066
     10240 20035=
KT20 231755Z AUTO 19012G20KT 10SM SCT038 SCT044 BKN055 29/19 A2988
     RMK AO2 T02930193 10297 20188=
KTMK 231755Z AUTO 00000KT 10SM CLR 11/08 A3018 RMK AO2=
KUKL 231755Z AUTO 18026G32KT 10SM CLR A2961 RMK AO2=
KVES 231755Z AUTO 19009G18KT 10SM SCT050 23/07 A3011 RMK AO2=
KVKS 231755Z AUTO 15011G17KT 10SM CLR 27/15 A3005 RMK A01=
KW99 231759Z AUTO 00000KT 10SM CLR 18/06 A3026 RMK AO2=
