SAUS70 KWBC 231800 CCA
METAR
TISX 231753Z 11011KT 10SM SCT048 31/23 A2990 RMK AO2 SLP123 60000
     T03110233 10317 20289 58019 $=
