SAUS80 KWBC 231926
METAR
KNY0 231918Z AUTO 00000KT 10SM CLR 15/06 A3030 RMK AO2=
KROS 231923Z AUTO 12014G23KT 10SM SCT045 25/14 A2955 RMK AO2=
