SAUS80 KWBC 232142
METAR
K40U 232135Z AUTO 31019G30KT 10SM OVC050 02/M07 A2973 RMK AO2
     T00221068=
KIZA 232135Z AUTO VRB06G12KT 300V020 10SM CLR 23/M07 A2985 RMK
     AO2=
KSOA 232135Z AUTO 17015KT 10SM 25/15 A2983 RMK AO2=
KGIC 232135Z AUTO 07006KT 10SM BKN018 OVC024 03/01 A3006 RMK
     AO1=
KPSN 232135Z AUTO 17013G18KT 130V190 10SM FEW070 29/12 A2983 RMK
     AO2=
KCKP 232135Z AUTO 16020G26KT 10SM CLR 28/12 A2935 RMK AO2
     T02810120=
K9V9 232135Z AUTO 21009G18KT 10SM CLR 29/03 A2911 RMK AO2
     T02920027=
KCBE 232135Z AUTO 00000KT 10SM BKN037 OVC042 18/04 A3025 RMK AO2
     T01830044=
KSFY 232142Z AUTO 16020G26KT 5SM HZ CLR 25/14 A2971 RMK AO2=
