SAPA32 KWBC 231800
METAR
NCRG 231800Z AUTO 03007KT 360V080 9999 -RA BKN011/// BKN020///
     25/24 Q1011=
NFFN 231800Z 00000KT 9999 FEW030 SCT050 BKN290 24/20 Q1011
     NOSIG=
NFNA NIL=
NFTF 231800Z 15011KT 9999 FEW009 SCT017 22/19 Q1015=
NFTV 231800Z 17006KT 9999 FEW008 SCT016TCU BKN035 23/22 Q1012=
NGFU 231800Z 06011KT 9999 FEW018TCU BKN110 26/24 Q1011=
NSFA 231800Z 10003KT 9999 FEW020 SCT060 BKN140 25/24 Q1011=
NSTU 231750Z 01009KT 7SM -SHRA SCT016TCU BKN040 OVC100 25/24 A2986
     RMK SHRAB15 TCU ALQDS SLP112 60102 8/47/ T02520242 10263
     20252 52019=
NTAA NIL=
NWWW 231800Z AUTO 07009KT 020V120 9999 FEW043 BKN130 25/17 Q1011
     NOSIG=
