SAUS70 KWBC 231838 RRB
METAR
KMAO 231835Z AUTO 33007KT 10SM CLR 22/M01 A3014 RMK AO2=
KMBO 231835Z AUTO VRB04G14KT 10SM FEW050 26/15 A3006 RMK AO2=
KMDS 231835Z AUTO 14024G32KT 10SM CLR 23/13 A2929 RMK AO2=
KMEZ 231835Z AUTO VRB05KT 10SM BKN029 OVC034 24/16 A2991 RMK AO2
     CIG 026V033 T02370163 $=
KMKJ 231835Z AUTO 10005KT 1SM HZ VV007 22/01 A3022 RMK AO2
     T02200007=
KN38 231835Z AUTO 18009KT 10SM CLR 17/03 A3026 RMK AO2=
KO22 231835Z AUTO 22007KT 10SM CLR 16/M02 A2994 RMK A01=
KO32 231835Z AUTO 00000KT 10SM CLR 16/03 A2994 RMK AO2 T01580035
     $=
KOLG 231835Z AUTO 14011G15KT 110V180 10SM CLR 23/10 A2965 RMK
     AO1=
KONM 231835Z AUTO 21020G26KT 10SM CLR 22/M01 A2972 RMK AO2
     T02191012=
KORS 231835Z AUTO 18005KT 10SM FEW026 FEW042 11/08 A3013 RMK
     AO2=
KOZS 231835Z AUTO 19014G23KT 10SM SCT110 27/12 A2975 RMK AO2=
KPAN 231835Z AUTO 24012G21KT 220V280 10SM SCT025 SCT030 BKN065
     12/05 A2986 RMK AO2 PWINO TSNO=
KPCM 231835Z AUTO 06005KT 10SM CLR 29/17 A3009 RMK AO2=
KBVU 231835Z AUTO 35011G20KT 330V030 10SM CLR 17/M12 A2985 RMK
     AO2=
KBWP 231835Z AUTO 12019G29KT 10SM CLR 24/12 A2934 RMK AO2=
KBWW 231835Z AUTO 35010KT 10SM OVC015 08/05 A2936 RMK AO2=
KBXK 231835Z AUTO 29011KT 10SM FEW050 FEW060 FEW075 23/08 A2979
     RMK A01=
KC29 231835Z AUTO 15015G20KT 10SM CLR 24/12 A2978 RMK AO1
     T02370124=
KCDN 231835Z AUTO VRB05KT 10SM CLR 24/06 A3016 RMK AO2=
KCEY 231835Z AUTO 15008G21KT 9SM CLR 25/10 A3003 RMK A01=
KCFJ 231835Z AUTO 18022G27KT 10SM CLR 24/07 A2999 RMK AO2
     T02380067=
KCGC 231835Z AUTO 29005KT 10SM CLR 28/14 A3009 RMK AO2=
KCJR 231835Z AUTO 01009G15KT 10SM SCT032 OVC039 20/10 A3022 RMK
     AO2 T01960104=
KCKM 231835Z AUTO 18012G20KT 10SM FEW048 28/14 A3002 RMK A01=
KCKZ 231835Z AUTO 07009G16KT 10SM CLR 17/10 A3025 RMK AO2=
KCLS 231835Z AUTO 00000KT 10SM CLR 10/07 A3016 RMK AO2=
KCMR 231835Z AUTO 28011G20KT 10SM CLR 07/M01 A2986 RMK AO2=
KCPT 231835Z AUTO 17021G27KT 10SM FEW043 29/16 A2981 RMK A01=
KCTZ 231835Z AUTO 30007KT 10SM CLR 22/11 A3012 RMK AO2
     T02160105=
KCXE 231835Z AUTO 35004KT 10SM SCT026 19/10 A3017 RMK AO1
     T01910101=
KD57 231835Z AUTO 05016KT 10SM CLR 12/03 A2929 RMK AO2=
KD60 231835Z AUTO 05013KT 10SM OVC008 05/05 A2949 RMK AO2=
KDNA 231835Z AUTO 27011G25KT 10SM SCT065 SCT090 23/08 A2981 RMK
     AO2=
KDNN 231835Z AUTO 00000KT 10SM CLR 22/03 A3017 RMK AO2
     T02220028=
KDRI 231835Z AUTO 17011KT 9SM SCT047 OVC060 28/17 A3000 RMK AO2
     T02820167 $=
KDYB 231835Z AUTO 35006KT 10SM CLR 23/11 A3013 RMK AO2=
KEKM 231835Z AUTO 17015G23KT 8SM FEW049 25/13 A3000 RMK AO2
     T02480134=
KELK 231835Z AUTO 19017G22KT 9SM SCT210 24/12 A2964 RMK AO2 PK WND
     19030/1805 SLP330 T02380118 $=
KEVU 231835Z AUTO 17018G23KT 10SM CLR 27/15 A2950 RMK AO2
     T02750156=
KEXX 231835Z AUTO 00000KT 10SM CLR 21/06 A3017 RMK AO2
     T02110059=
KEZF 231835Z AUTO 01006KT 10SM SCT019 OVC038 17/12 A3018 RMK AO2
     T01680120=
KF70 231835Z AUTO 20004KT 10SM SCT030 16/08 A2988 RMK AO2=
KFVX 231835Z AUTO 03007KT 10SM OVC027 20/11 A3018 RMK AO2
     T02000107=
KFWB 231835Z AUTO 15012G23KT 130V190 10SM FEW100 27/14 A2981 RMK
     AO2=
KFYG 231835Z AUTO 15019G24KT 10SM CLR 26/16 A2980 RMK AO2=
KGLY 231835Z AUTO 17016G23KT 10SM FEW110 29/14 A2966 RMK AO2=
KGWR 231835Z AUTO 11023KT 9SM CLR 21/12 A2932 RMK A01=
KUTA 231835Z AUTO 20011KT 10SM FEW047 26/15 A3000 RMK AO2
     T02650148 $=
KUXL 231835Z AUTO 14018G24KT 10SM SCT065 OVC070 28/18 A3001 RMK
     AO2 T02770182 PWINO=
KVJI 231835Z AUTO 00000KT 10SM CLR 24/01 A3019 RMK AO2
     T02400009=
