SAUS80 KWBC 231700 RRF
METAR
K8D3 231656Z AUTO 13018KT 19/10 A2938 RMK AO1 PK WND 14027/1651
     SLP944 T01940100=
KCUL 231653Z AUTO 17021G29KT 10SM SCT047 26/12 A3001 RMK AO2=
KNY0 231656Z AUTO 00000KT 10SM CLR 14/07 A3033 RMK AO2=
KP58 231655Z AUTO 13010KT 14/12 A3012 RMK AO1 SLP198 T01440117=
KMEH 231656Z AUTO 00000KT 10SM BKN012 BKN060 02/01 A3000 RMK AO2
     SNB31E48 SLP179 P0000 T00220006=
