SAUS80 KWBC 231800 RRB
METAR
PHNL 231753Z 05009KT 10SM FEW021 BKN044 BKN065 26/22 A3002 RMK AO2
     RAB20E34 SLP165 VCSH N P0000 60001 T02560222 10261 20244
     53015=
PHNY 231756Z AUTO 35008KT 10SM CLR 23/19 A3008 RMK AO2 SLP165
     T02330194 10233 20183 53018 $=
PHOG 231754Z 13010KT 070V190 10SM CLR 28/18 A3000 RMK AO2 SLP163
     T02780178 10283 20222 51012=
PHTO 231753Z 25005KT 10SM SCT030 BKN070 26/20 A3004 RMK AO2 SLP171
     60006 T02560200 10256 20211 52016=
K12N 231754Z AUTO 00000KT 17/08 A3027 RMK AO1 SLP253 T01670083
     10167 20089 58014=
K9MN 231755Z AUTO 11015G23KT 10SM CLR 22/12 A2961 RMK AO1
     T02160116 10216 20146=
KMTP 231754Z AUTO 05006G16KT 15/13 A3027 RMK AO1 SLP251 P0007
     60008 T01500133 10167 20150 58013=
KD07 231756Z AUTO 01010KT 11/04 A2925 RMK AO1 SLP910 T01110044
     10117 20028 56013=
KTKC 231755Z AUTO 14022G26KT 10SM 23/11 A2941 RMK AO2 T02260105
     10226 20125=
KINW 231756Z AUTO 34013KT 10SM SCT048 BKN060 OVC070 09/M01 A2981
     RMK AO2 RAB09E19 SLP056 P0000 60000 T00941006 10133 20072
     51020=
KSCK 231755Z 33007KT 10SM CLR 17/02 A2998 RMK AO2 SLP152 T01720017
     10172 20083 51016=
KSEP 231755Z AUTO 16017G25KT 10SM CLR 28/15 A2985 RMK AO2
     T02760149 10276 20186=
K48A 231755Z AUTO 04009KT 10SM CLR 23/10 A3017 RMK AO2 T02340103
     10238 20037=
KCKP 231755Z AUTO 18017G24KT 10SM CLR 26/12 A2940 RMK AO2
     T02550120 10255 20125=
KDBN 231755Z AUTO 01004KT 10SM CLR 25/08 A3019 RMK AO2=
KEHA 231755Z AUTO 23035G43KT 10SM CLR 27/04 A2951 RMK AO2
     T02680042 10274 20169=
KIZA 231755Z AUTO 22005KT 10SM CLR 16/07 A2990 RMK AO2=
KPSN 231755Z AUTO 18012G18KT 10SM SCT046 BKN055 28/17 A2991 RMK
     AO2=
KFAR 231754Z COR 10013G19KT 10SM CLR 22/11 A2942=
KCRW 231754Z COR 28003KT 10SM FEW100 24/07 A3018 RMK AO2 SLP218
     VIRGA W-NW PRESFR T02390072 10239 20044 58016=
KVTI 231755Z AUTO 17016G27KT 10SM CLR 25/13 A2965 RMK AO2
     T02540127 10258 20160=
KFSD 231756Z 16025G37KT 10SM FEW250 24/12 A2932 RMK AO2 PK WND
     15037/1755 SLP921 T02440122 10244 20133 56026=
KBIH 231756Z AUTO 33019G26KT 10SM CLR 12/M08 A2992 RMK AO2 PK WND
     32030/1729 SLP111 T01171083 10117 20022 51013=
KLWS 231756Z 34003KT 10SM OVC080 06/03 A3004 RMK AO2 SLP179
     T00610033 10061 20022 51027=
K40U 231755Z AUTO 30018KT 10SM SCT040 OVC050 01/M04 A2967 RMK AO2
     T00111037 10011 21007=
KSXT 231756Z AUTO VRB04KT 4SM BR BKN004 BKN011 OVC018 02/02 A3013
     RMK AO2 SLP219 T00220017 10028 20006 51020=
TJSJ 231756Z 06010KT 10SM FEW034 SCT050 SCT085 31/24 A2990 RMK AO2
     SLP124 T03060244 10311 20261 56021 $=
