SAUS70 KWBC 231624
METAR
K7BM 231615Z AUTO 29006G15KT 1/4SM SN OVC002 00/00 A2958 RMK
     AO2=
K81R 231615Z AUTO 18011G26KT 10SM OVC027 24/17 A2989 RMK AO2
     T02360170=
KBDG 231615Z AUTO 20009KT 10SM 04/01 A2974 RMK AO1 T00360011=
KBPG 231615Z AUTO 18018G24KT 10SM CLR 24/13 A2979 RMK AO2
     T02360134=
KC07 231615Z AUTO 28005KT 1SM BR OVC001 M03/M03 A2956 RMK AO2=
KCCU 231615Z AUTO 30010KT 1/4SM SN OVC003 M01/M04 A2963 RMK
     AO2=
KCFD 231615Z AUTO 18011G15KT 10SM BKN026 BKN034 OVC046 26/19 A2996
     RMK AO2 T02550191=
KE42 231615Z AUTO 22023G32KT 10SM -RA CLR 26/11 A2960 RMK AO2
     T02580105=
KEBG 231615Z AUTO 16014G26KT 10SM SCT038 29/20 A2988 RMK AO2
     T02910195 PWINO=
KELA 231615Z AUTO 18017G20KT 10SM SCT036 SCT044 BKN060 29/18 A2995
     RMK AO2 T02870184=
KEMM 231615Z AUTO 30016G24KT 10SM OVC035 M01/M04 A2963 RMK AO2=
KGCD 231615Z AUTO 29006KT 10SM BKN023 BKN028 OVC037 02/00 A3002
     RMK AO2 T00170000=
KGOP 231615Z AUTO 10SM SCT031 BKN038 BKN110 25/17 A2991 RMK
     AO2=
KGVT 231615Z AUTO 18023G30KT 10SM CLR 26/16 A2989 RMK AO2 TSNO
     T02560164=
KHII 231615Z AUTO 34011G17KT 10SM CLR 20/02 A2977 RMK AO2=
KPLU 231615Z AUTO 00000KT 10SM -DZ CLR 05/05 A3011 RMK AO2=
KPNA 231615Z AUTO 31017G22KT 10SM BKN120 00/M05 A2959 RMK AO2=
KPOY 231615Z AUTO 35020G24KT 10SM BKN046 BKN050 01/M04 A2955 RMK
     AO2=
KRCV 231615Z AUTO 19005KT 10SM -DZ SCT027 BKN037 OVC042 05/02
     A2960 RMK AO2 T00500023=
K19S 231615Z AUTO 21028G40KT 4SM HZ CLR 27/06 A2945 RMK AO2
     T02730064=
K5SM 231614Z AUTO 1/2SM -SN OVC002 M04/M05 A2964 RMK AO2=
KADH 231615Z AUTO 18015G23KT 10SM SCT021 23/16 A2981 RMK AO2=
KADT 231615Z AUTO 20028G38KT 7SM CLR 26/04 A2933 RMK AO2
     T02580041=
KAHQ 231610Z AUTO 18023G29KT 5SM HZ CLR 25/13 A2940 RMK AO2
     T02460125=
KANK 231610Z AUTO 20008G25KT 7SM SCT022 BKN035 OVC070 07/03 A2959
     RMK AO1 T00700027=
KBMC 231610Z AUTO 10SM SCT035 OVC090 04/M01 A2975 RMK AO1
     T00421011=
KC99 231611Z AUTO 24007G17KT 10SM BKN110 02/M05 A2954 RMK AO2=
KDCM 231615Z AUTO 00000KT 10SM CLR 19/08 A3023 RMK AO2 LTG DSNT
     E=
KEAN 231610Z AUTO 28011G17KT 10SM SCT060 SCT070 BKN085 11/M01
     A2938 RMK AO2 T01101009=
KEBS 231615Z AUTO 15024G30KT 10SM CLR 22/14 A2953 RMK AO2=
KGLE 231615Z AUTO 18022G27KT 10SM SCT027 25/16 A2983 RMK AO2
     T02460159=
KGNC 231615Z AUTO 22015G20KT 10SM CLR 25/10 A2982 RMK AO2
     T02510097=
KHBV 231610Z AUTO 18013G23KT 10SM CLR 26/17 A2988 RMK AO2
     T02570173=
KHSG 231610Z AUTO 01003KT 3SM -SN BKN008 OVC013 01/00 A2958 RMK
     AO2 P0001 T00060002=
KK62 231615Z AUTO 19008G14KT 10SM CLR 22/08 A3017 RMK AO2=
KLUX 231615Z AUTO 00000KT 10SM CLR 19/08 A3024 RMK AO2=
KMPZ 231610Z AUTO 17017G23KT 10SM CLR 23/16 A2975 RMK AO2=
KMYZ 231610Z AUTO 18018G26KT 10SM CLR 26/13 A2946 RMK AO2=
KOSA 231610Z AUTO 18011G17KT 10SM BKN025 OVC032 25/19 A2994 RMK
     AO2 T02540185=
KOZA 231615Z AUTO 19017G22KT 10SM CLR 22/15 A2988 RMK AO2=
KPVW 231610Z AUTO 22022G29KT 10SM CLR 24/11 A2971 RMK AO2
     T02360105 TSNO=
KRBW 231615Z AUTO 36008KT 10SM CLR 22/10 A3020 RMK AO2=
KSLR 231610Z AUTO 18014G24KT 10SM SCT032 25/17 A2992 RMK AO2
     T02520165=
KTOC 231615Z AUTO 00000KT 10SM CLR 21/02 A3024 RMK AO2
     T02060020=
KTXW 231610Z AUTO 17018G24KT 2 1/2SM HZ CLR 29/19 A2988 RMK AO2
     VIS 1V5 T02880191=
KW75 231635Z AUTO 35006KT 10SM OVC007 15/13 A3017 RMK AO1
     T01480133=
KWWR 231610Z AUTO 19023G30KT 10SM SCT080 SCT110 26/11 A2963 RMK
     AO2=
K20V 231615Z AUTO 07003KT 10SM SCT014 BKN029 OVC070 02/02 A2953
     RMK AO2=
