SAUS70 KWBC 231820 RRA
METAR
KULM 231815Z AUTO 13019G25KT 10SM CLR 23/11 A2946 RMK AO2=
KVAF 231815Z AUTO 18016KT 10SM CLR 28/15 A2997 RMK A01=
KVLL 231815Z AUTO 16005KT 10SM CLR 22/11 A3014 RMK AO2
     T02230105=
KVOA 231820Z AUTO 08010KT 10SM CLR 24/16 A3012 RMK A01=
KVWU 231815Z AUTO 11013G18KT 10SM CLR 24/11 A2955 RMK AO2=
KWBF 231815Z AUTO 00000G10KT 10SM 28/18 A3005 RMK A01=
KY31 231815Z AUTO 13007G15KT 090V160 10SM BKN050 BKN055 23/11
     A3005 RMK AO2 T02260105=
KY49 231815Z AUTO 09008KT 050V120 10SM CLR 19/10 A2954 RMK AO2
     T01920101=
KALM 231815Z AUTO 26017G25KT 10SM SCT070 25/07 A2979 RMK AO2=
KATS 231815Z AUTO 23025KT 10SM CLR 26/11 A2973 RMK AO2=
KBKS 231815Z AUTO 14013G25KT 10SM SCT047 31/20 A2982 RMK AO2
     SLP059 T03070196 $=
KINJ 231815Z AUTO 20022G29KT 10SM BKN042 28/17 A2985 RMK AO2
     T02780166=
KJTC 231815Z AUTO 22026G34KT 10SM FEW021 FEW034 BKN041 14/03 A2981
     RMK AO2=
KL08 231815Z AUTO 12003KT 10SM CLR 22/00 A2980 RMK AO2=
KL52 231815Z AUTO 34008KT 9SM CLR 20/05 A2993 RMK A01=
KLRU 231815Z AUTO 24020G30KT 10SM BKN070 OVC080 22/07 A2983 RMK
     AO2 T02190069=
KMAN 231815Z AUTO 32014G20KT 10SM CLR 08/M01 A3000 RMK A01=
KO22 231815Z AUTO 25007KT 10SM CLR 16/M03 A2994 RMK A01=
KO32 231815Z AUTO VRB05KT 10SM CLR 15/04 A2993 RMK AO2 T01530036
     $=
KORS 231815Z AUTO 19005KT 10SM FEW015 10/08 A3013 RMK AO2=
KPAN 231815Z AUTO 22010G16KT 10SM FEW019 BKN025 OVC050 12/06 A2986
     RMK AO2 PWINO TSNO=
KPVF 231815Z AUTO 29003KT 10SM CLR 13/M06 A2997 RMK AO1=
KRPH 231815Z AUTO 16016G22KT 10SM CLR 29/15 A2972 RMK AO2
     T02890149 $=
KT69 231815Z AUTO 17016G24KT 10SM FEW041 FEW049 SCT055 29/22 A2987
     RMK A01=
KTSP 231815Z AUTO 28010G18KT 9SM CLR 09/M00 A2995 RMK AO2=
KU42 231815Z AUTO 33018G21KT 10SM SCT043 SCT049 BKN065 05/01 A2979
     RMK AO1 T00450013=
K05U 231815Z AUTO 34009KT 10SM 01/M03 A2997 RMK A01=
K5T9 231815Z AUTO 14009G15KT 10SM CLR 26/20 A2980 RMK A01=
KDZB 231815Z AUTO 17011G24KT 10SM CLR 29/14 A2986 RMK AO2
     T02870143=
KEIK 231815Z AUTO 05004KT 10SM CLR 18/M04 A2932 RMK AO2 T01811043
     PWINO=
KGOO 231815Z AUTO VRB05G15KT 10SM CLR 12/M08 A2996 RMK A01=
KJWY 231815Z AUTO 18017G31KT 10SM BKN042 28/16 A2986 RMK AO2
     T02820162=
KLNC 231815Z AUTO 18016G27KT 10SM SCT047 28/15 A2986 RMK AO2
     T02840153=
KLXY 231815Z AUTO 16021G29KT 10SM SCT048 BKN060 29/16 A2989 RMK
     AO2 T02850161=
KMEV 231815Z AUTO 02004KT 10SM CLR 05/M04 A3004 RMK AO2=
KMHV 231820Z AUTO 25015KT 10SM CLR 15/M02 A2989 RMK A01=
KMNZ 231815Z AUTO 18022G27KT 10SM CLR 28/15 A2984 RMK AO2
     T02820151=
KMVH 231815Z AUTO 30018G27KT 4SM HZ CLR 00/M02 A2962 RMK AO2
     PWINO=
KPYX 231815Z AUTO 22034G41KT 4SM CLR 30/07 A2954 RMK AO2
     T02950067=
KRTS 231815Z AUTO 36010KT 10SM BKN044 BKN050 BKN060 05/M07 A3005
     RMK AO2=
KU68 231815Z AUTO 31021G30KT 10SM OVC055 03/00 A2962 RMK AO2=
K65S 231815Z AUTO 00000KT 10SM BKN004 BKN007 OVC011 05/05 A2999
     RMK AO2=
KBDU 231815Z AUTO 25004KT 10SM CLR 18/M01 A2932 RMK AO2=
KC07 231815Z AUTO 22004KT 7SM BKN003 BKN015 OVC026 M02/M02 A2960
     RMK AO2=
KECS 231815Z AUTO 32024G30KT 10SM OVC013 04/00 A2939 RMK AO2=
KERV 231815Z AUTO 18018G23KT 10SM BKN037 26/16 A2988 RMK AO2
     T02620160=
KF17 231815Z AUTO 15016G20KT 10SM BKN050 28/13 A2997 RMK AO2=
KF46 231815Z AUTO 21021G30KT 10SM BKN043 27/16 A2986 RMK AO2
     T02730161=
KFLY 231815Z AUTO 24024G31KT CLR 16/M02 A2948 RMK AO2 T01601017
     PWINO=
KFOT 231810Z AUTO 34008KT 9SM FEW026 13/07 A3014 RMK AO1=
KFTN 231815Z AUTO 15012G17KT 10SM CLR 28/19 A2983 RMK A01=
