SAUS70 KWBC 231900 RRI
METAR
KTTD 231853Z VRB03KT 10SM BKN021 OVC032 12/07 A3018 RMK AO2 SLP219
     T01220067=
KATY 231853Z AUTO 13016G28KT 10SM -RA CLR 23/12 A2929 RMK AO2 PK
     WND 14034/1754 SLP913 P0000 T02280117=
KBBW 231853Z AUTO 20025G39KT 10SM CLR 29/02 A2919 RMK AO2 PK WND
     18042/1807 SLP867 T02940022=
KBDE 231853Z AUTO 10007KT 10SM CLR 22/10 A2957 RMK AO2 SLP014
     T02220100=
KBEH 231853Z AUTO 17017G30KT 10SM CLR 26/14 A2993 RMK AO2 PK WND
     17030/1853 SLP133 T02560139=
KBVY 231853Z 04004KT 10SM CLR 14/11 A3034 RMK AO2 SLP269
     T01390106=
KCDW 231853Z 05005KT 10SM SCT060 OVC120 17/07 A3027 RMK AO2 SLP254
     T01670072=
KCKB 231853Z 35004KT 10SM CLR 24/04 A3019 RMK AO2 SLP215
     T02390044=
KDKK 231853Z AUTO 02006KT 10SM CLR 21/06 A3020 RMK AO2 SLP224
     T02110056=
KDUJ 231853Z AUTO 13008KT 10SM CLR 18/01 A3024 RMK AO2 SLP240
     T01830011=
KLDJ 231855Z AUTO 09010KT 10SM SCT060 BKN120 17/07 A3026 RMK AO2
     T01680072=
KLEB 231853Z 00000KT 10SM CLR 17/06 A3033 RMK AO2 SLP270
     T01670061=
KRHI 231853Z AUTO 16011G27KT 10SM CLR 21/11 A2979 RMK AO2 PK WND
     14029/1816 SLP085 T02110111=
KRPD 231855Z AUTO 11015G19KT 10SM CLR 23/16 A2965 RMK AO2
     T02260160=
KBIV 231853Z AUTO 17015G24KT 10SM FEW055 24/13 A2995 RMK AO2
     SLP141 T02440128=
KBKL 231853Z 12010KT 10SM CLR 24/08 A3013 RMK AO2 SLP201
     T02440083=
KBRD 231853Z AUTO 10013G30KT 10SM CLR 22/12 A2952 RMK AO2 PK WND
     14030/1845 SLP998 T02170117=
KCMX 231853Z AUTO 14013KT 10SM CLR 21/12 A2980 RMK AO2 SLP091
     T02060117=
KELM 231853Z VRB04KT 10SM CLR 21/03 A3024 RMK AO2 SLP243
     T02060028=
KENW 231853Z 15012G22KT 10SM CLR 23/13 A2986 RMK AO2 SLP107
     T02330133=
KIWI 231853Z AUTO 00000KT 10SM CLR 18/12 A3037 RMK AO2 SLP285
     T01780117=
KLBF 231853Z AUTO 22023G40KT 10SM FEW041 29/M01 A2918 RMK AO2 PK
     WND 21040/1849 RAB20E51 SLP858 P0000 T02891006=
KRME 231853Z 12008KT 10SM CLR 18/05 A3030 RMK AO2 SLP260
     T01830050=
KRWF 231853Z AUTO 13026G37KT 10SM CLR 25/13 A2940 RMK AO2 PK WND
     13038/1833 SLP953 T02500128=
KSBM 231853Z AUTO 16012G23KT 10SM CLR 19/13 A2988 RMK AO2 PK WND
     17028/1806 SLP116 T01890128=
KSEG 231853Z AUTO 00000KT 10SM OVC040 17/08 A3027 RMK AO2 SLP251
     T01670078=
KSNY 231853Z AUTO 36023G29KT 10SM CLR 18/02 A2930 RMK AO2 PK WND
     34031/1838 SLP890 T01780017=
KSPW 231853Z AUTO 17027G37KT 10SM CLR 27/12 A2940 RMK AO2 PK WND
     15038/1832 SLP947 T02720122=
KTHV 231853Z AUTO 03005KT 10SM FEW043 OVC055 17/09 A3024 RMK AO2
     SLP244 T01670089=
KANE 231855Z 14019G26KT 10SM FEW045 24/12 A2952=
KARB 231853Z 18011G20KT 10SM SCT055 23/10 A3009 RMK AO2 SLP187
     T02330100=
KAUG 231853Z AUTO 13003KT 10SM CLR 18/08 A3036 RMK AO2 SLP284
     T01780083=
KBGR 231853Z 18004KT 10SM SCT150 OVC200 19/09 A3036 RMK AO2 SLP279
     T01940089=
KBTL 231853Z 17012G31KT 10SM SCT055 24/11 A3003 RMK AO2 PK WND
     16031/1844 SLP164 T02390111=
KETH 231853Z AUTO 12026G33KT 10SM 23/12 A2935 RMK AO2=
KIMT 231854Z AUTO 14012G23KT 10SM CLR 21/12 A2985 RMK AO2 PK WND
     14026/1834 SLP108 T02110122=
KLUM 231855Z AUTO 11016G22KT 10SM SCT045 25/18 A2962 RMK AO2
     T02500175 PWINO=
KMRJ 231855Z AUTO 14016G22KT 10SM CLR 22/10 A2974 RMK AO2=
KOMA 231852Z 17023G35KT 10SM FEW170 FEW200 29/13 A2937 RMK AO2 PK
     WND 17038/1812 SLP935 T02890133=
KRAC 231853Z AUTO 16011G26KT 10SM CLR 20/13 A2989 RMK AO2 PK WND
     16027/1835 SLP117 T02000128=
KSTP 231853Z 13017G27KT 10SM CLR 24/13 A2954 RMK AO2 PK WND
     14028/1829 SLP999 T02390128=
