SAUS70 KWBC 231900 RRR
METAR
KTXW 231850Z AUTO 17016G27KT 1/2SM HZ VV005 31/18 A2982 RMK AO2
     VIS 1/4V3 T03120181=
KULS 231855Z AUTO 22040G51KT 2 1/2SM HZ CLR 28/01 A2938 RMK
     AO2=
KUYF 231855Z AUTO 16006G15KT 10SM CLR 24/06 A3012 RMK AO2=
KWWR 231855Z AUTO 17021G31KT 10SM CLR 26/11 A2956 RMK AO2=
KX26 231855Z AUTO 02013KT 10SM CLR 26/19 A3007 RMK AO2
     T02620188=
K19S 231855Z AUTO 22035G45KT 2 1/2SM HZ SCT017 SCT028 SCT041 29/06
     A2941 RMK AO2 T02940062=
K20V 231855Z AUTO 24013G16KT 10SM SCT031 SCT046 BKN120 05/00 A2956
     RMK AO2=
K2J5 231855Z AUTO 00000KT 10SM CLR 24/09 A3016 RMK AO2
     T02420087=
KADH 231855Z AUTO 17021G26KT 10SM CLR 27/15 A2975 RMK AO2=
KADT 231855Z AUTO 22027G40KT 10SM SCT008 29/M02 A2931 RMK AO2
     T02901025=
KANK 231855Z AUTO 28011G22KT 10SM SCT022 SCT039 BKN050 06/00 A2961
     RMK AO1 T00631001=
KBMC 231850Z AUTO 10SM BKN070 OVC095 05/M02 A2981 RMK AO1
     T00511021=
KCHK 231855Z AUTO 18021G27KT 10SM CLR 27/15 A2964 RMK AO2
     T02670154=
KCPC 231855Z AUTO 35006KT 10SM CLR 23/03 A3012 RMK AO2
     T02300027=
KDCY 231855Z AUTO 17018G25KT 10SM CLR 26/10 A3000 RMK AO2
     T02600101=
KDUB 231854Z AUTO 29020G26KT 10SM SCT033 SCT042 02/M08 A2957 RMK
     AO2=
KEAN 231850Z AUTO 35017G26KT 10SM SCT039 08/02 A2940 RMK AO2
     T00830022=
KEBS 231855Z AUTO 15023G29KT 10SM CLR 26/15 A2948 RMK AO2=
KGNB 231855Z AUTO 28009G14KT 10SM SCT024 OVC031 05/M01 A2956 RMK
     AO2 T00461013=
KGNC 231855Z AUTO 23019G30KT 10SM CLR 28/10 A2976 RMK AO2
     T02810098=
KHBV 231850Z AUTO 18018G23KT 10SM CLR 30/17 A2981 RMK AO2
     T03030168=
KHEQ 231855Z AUTO 29015G23KT 10SM CLR 27/M02 A2923 RMK AO2=
KHSG 231850Z AUTO 02007KT 10SM -SN BKN013 OVC022 02/00 A2962 RMK
     AO2 T00150003=
KMHP 231855Z AUTO 34003KT 10SM CLR 25/10 A3014 RMK AO2
     T02480102=
KMMH 231854Z AUTO 36009G16KT 10SM CLR 06/M11 A2997 RMK AO2=
KMPZ 231850Z AUTO 17016G24KT 10SM CLR 23/17 A2969 RMK AO2=
KMYZ 231855Z AUTO 19021G31KT 10SM SCT041 SCT070 SCT100 27/13 A2942
     RMK AO2 LTG DSNT S=
KOSA 231855Z AUTO 16015G22KT 10SM BKN048 29/17 A2988 RMK AO2
     T02920168=
KOZA 231855Z AUTO 19015G27KT 10SM CLR 26/14 A2983 RMK AO2=
KPEQ 231855Z AUTO 22018G21KT 10SM CLR 32/08 A2970 RMK AO2
     T03200077=
KPVW 231855Z AUTO 22023G29KT 10SM CLR 29/09 A2965 RMK AO2
     T02890093=
KRBW 231855Z AUTO 02006KT 10SM CLR 24/10 A3014 RMK AO2=
TISX 231853Z 10011KT 10SM SCT028 31/23 A2989 RMK AO2 SLP120
     T03110233 $=
