SAHA31 KWBC 232100 RRB
METAR
MTPP 232100Z 31006KT 280V340 9999 SCT025TCU 31/21 Q1010 A2983
     RMK/TCU/S=
