SACA32 KWBC 231600 RRB
METAR
MDPC 231600Z 06010KT 8000 VCSH FEW018CB SCT018 30/24 Q1014
     CB/W=
MDPP 231600Z 05012KT 9999 FEW020 30/26 Q1014=
MDSD 231600Z 14011KT 8000 VCSH SCT020 31/23 Q1014=
MDST 231600Z 14006KT 9999 FEW022 30/23 Q1014=
