SAUS80 KWBC 231614
METAR
KGNT 231615Z AUTO 21012G22KT 10SM SCT041 BKN047 OVC080 12/01 A2978
     RMK AO2 T01230008=
KSVE 231615Z AUTO 18003KT 10SM CLR 03/M03 A3004 RMK AO2=
