SAUS70 KWBC 232000
METAR
KW75 231955Z AUTO 32006KT 10SM BKN009 OVC017 15/14 A3014 RMK AO1
     P0004 T01450137=
KOUN 231945Z 15021G29KT 10SM CLR 27/15 A2965=
KSUA 231945Z 02012G17KT 10SM CLR 27/18 A3006=
KDLL 231955Z AUTO 15016G22KT 10SM CLR 22/12 A2974 RMK AO2
     T02220116=
KGAF 231955Z AUTO 06011KT 9SM CLR 19/09 A2945 RMK AO2=
KGPH 231955Z AUTO 20020G28KT 10SM CLR 29/12 A2957 RMK AO2 LTG DSNT
     W AND NW=
KGYY 231945Z 16014G28KT 10SM FEW050 26/13 A2988=
KW13 231955Z AUTO 10SM BKN030 17/06 A3022 RMK AO1 T01680059=
