SAUS70 KWBC 231600 RRX
METAR
KTFP 231555Z AUTO 18017G25KT 10SM CLR 29/21 A2991 RMK AO2
     T02860210=
