SAUS70 KWBC 231800 RRR
METAR
KLGA 231751Z 06010KT 10SM -RA BKN045 BKN065 BKN120 BKN150 OVC250
     17/07 RMK AO2 SLPNO P0000 6//// T01670067 $=
KMDZ 231755Z AUTO 13012G16KT 100V170 10SM CLR 21/13 A2976 RMK AO2
     T02080126 10208 20123 PWINO=
KPIT 231751Z VRB04KT 10SM FEW120 FEW250 20/03 A3021 RMK AO2 SLP237
     T02000033 10211 20022 58012=
K0E0 231755Z AUTO 23019G28KT 10SM SCT075 SCT090 18/M01 A2976 RMK
     AO2 T01801007 10180 20081 TSNO=
KAKO 231753Z AUTO 23022G34KT 10SM CLR 24/M03 A2927 RMK AO2 PK WND
     25034/1746 SLP852 T02391033 10239 20150 $=
KAQP 231753Z AUTO 16021G30KT 10SM CLR 23/11 A2937 RMK AO2=
KAVX 231751Z AUTO 36003KT 10SM FEW010 17/11 A2989 RMK AO2 SLP111
     T01670111 10167 20117 51018=
KBHK 231751Z AUTO 03005KT 10SM OVC013 07/04 A2941 RMK AO2 SLP964
     T00720039 10072 20056 53003=
KLGU 231751Z AUTO 34014KT 10SM SCT038 SCT044 OVC060 04/M01 A2977
     RMK AO2 RAB14E16UPB26E27SNB16E26B27E28 SLP084 P0000 60000
     T00391006 10039 20017 51022=
KSEE 231747Z 00000KT 10SM BKN035 18/11 A2989=
KSMO 231751Z 02009G14KT 10SM CLR 22/00 A2986 RMK AO2 SLP108
     T02170000 10217 20133 50010=
KGLS 231752Z 17008KT 10SM SCT042 BKN048 OVC060 27/21 A2999 RMK AO2
     SLP155 T02720211 10283 20239 50001=
KHRL 231752Z 17023G33KT 10SM CLR 32/19 A2984 RMK AO2 PK WND
     18035/1700 SLP103 T03220189 10322 20194 58013 $=
KJAQ 231755Z AUTO 35005KT 10SM CLR 13/M03 A2996 RMK AO1 T01341030
     10137 20062=
KOKB 231752Z AUTO 18006KT 8SM FEW040 20/11 A2986 RMK AO2 SLP111
     T02000106 10200 20144 50010=
KTRM 231752Z AUTO 28008KT 10SM CLR 23/06 A2979 RMK AO2 SLP087
     T02330061 10233 20183 51021=
KVNY 231751Z 02017G23KT 10SM CLR 22/M01 A2986 RMK AO2 SLP103
     T02171011 10217 20150 50013 $=
KAQW 231752Z AUTO 00000KT 10SM CLR 17/07 A3031 RMK AO2 SLP267
     T01670072 10167 20011 58019=
KARR 231752Z 17021G29KT 10SM CLR 24/13 A2985 RMK AO2 PK WND
     17030/1731 SLP107 T02390133 10239 20156 58019=
KBML 231752Z AUTO 00000KT 10SM CLR 19/04 A3034 RMK AO2 SLP281
     T01940044 10194 21011 56017=
KCLE 231751Z 14010KT 10SM SCT250 24/08 A3015 RMK AO2 SLP221
     T02390078 10244 20128 58013 $=
KDPA 231752Z 15016KT 10SM CLR 24/13 A2986 RMK AO2 PK WND
     17029/1659 SLP108 T02390133 10239 20150 58018=
KDVN 231752Z AUTO 16014G23KT 10SM CLR 23/13 A2977 RMK AO2 PK WND
     16030/1706 SLP072 T02280128 10244 20161 58016=
KFOZ 231753Z AUTO 13009G14KT 10SM CLR 22/11 A2966 RMK AO2=
KHIE 231752Z AUTO 00000KT 10SM CLR 18/07 A3034 RMK AO2 SLP280
     T01780072 10183 21011 56014=
KIEN 231752Z AUTO 30010KT 10SM CLR 13/02 A2926 RMK AO2 SLP900
     T01280022 10128 21022 50011=
KIJD 231752Z AUTO 04006KT 10SM FEW100 16/07 A3030 RMK AO2 SLP259
     T01560067 10156 20061 58018=
KMKE 231752Z 14014KT 10SM FEW085 20/13 A2988 RMK AO2 SLP114
     T02000128 10206 20139 58014 $=
KORB 231753Z AUTO 14009KT 110V170 10SM CLR 22/11 A2964 RMK AO2=
KORE 231752Z AUTO 34003KT 10SM CLR 16/07 A3034 RMK AO2 SLP276
     T01560067 10156 20022 58014=
KPWK 231752Z 17018G30KT 10SM CLR 24/13 A2989 RMK AO2 PK WND
     16030/1750 SLP117 T02440133 10244 20161 58019=
KTAN 231752Z AUTO A3031 RMK AO2 SLPNO 57010 PWINO FZRANO TSNO
     $=
KXWA 231751Z AUTO 05018G26KT 10SM OVC006 04/03 A2948 RMK AO2 PK
     WND 05026/1747 SLP005 T00440028 10044 20044 58006=
