SAUS70 KWBC 231800
METAR
KAAO 231754Z AUTO 18024G39KT 10SM BKN034 28/12 A2956 RMK AO2 PK
     WND 19043/1728 SLP995 T02830122 10283 20217 58007=
KACQ 231755Z AUTO 13020G26KT 10SM CLR 22/12 A2955 RMK AO2=
KAIT 231755Z AUTO 13009G14KT 10SM SCT065 22/11 A2958 RMK AO2=
KALO 231754Z 15020G34KT 10SM CLR 25/13 A2961 RMK AO2 PK WND
     16034/1743 SLP021 T02500128 10250 20161 58021=
KAMN 231755Z AUTO 17015G21KT 10SM BKN060 25/09 A3005 RMK AO2
     T02460085 10246 20106=
KBDH 231755Z AUTO 13024G28KT 10SM CLR 23/12 A2947 RMK AO2=
KBFL 231754Z 34009KT 10SM CLR 16/02 A2996 RMK AO2 SLP143 T01560017
     10156 20083 51017=
KBUY 231754Z AUTO 02012KT 10SM CLR 21/06 A3018 RMK AO2 SLP220
     T02060061 10206 20056 58018=
KBWI 231754Z 02007KT 10SM BKN055 OVC130 19/11 A3021 RMK AO2 SLP228
     T01890106 10189 20100 58012 $=
KCBG 231755Z AUTO 13008G15KT 10SM CLR 24/12 A2957 RMK AO2=
KCFE 231755Z AUTO 12019G25KT 10SM CLR 23/12 A2953 RMK AO2=
KCOQ 231755Z AUTO 09008KT 10SM CLR 17/09 A2965 RMK AO2 TSNO=
KCVH 231755Z AUTO 00000KT 10SM CLR 14/05 A3001 RMK A01=
KDEC 231754Z 17018G31KT 10SM CLR 24/15 A2989 RMK AO2 PK WND
     18031/1751 SLP118 T02390150 10244 20172 58015=
KDRM 231755Z AUTO 14009G14KT 10SM CLR 19/11 A3006 RMK AO2
     T01850108 10188 20104=
KDXR 231753Z 06006KT 10SM FEW110 16/06 A3029 RMK AO2 SLP256
     T01610056 10161 20106 58017=
KDXX 231755Z AUTO 13021G27KT 10SM CLR 23/12 A2938 RMK AO2=
KDYL 231754Z AUTO 03006KT 10SM SCT055 18/09 A3025 RMK AO2 SLP243
     T01780089 10178 20122 58004=
KECG 231754Z 33009KT 10SM -RA BKN005 OVC010 17/16 A3007 RMK AO2 PK
     WND 33026/1708 CIG 003V008 SLP182 P0034 60053 T01720161 10172
     20156 58011=
KEVV 231754Z 18019G26KT 10SM CLR 26/09 A3003 RMK AO2 PK WND
     19028/1732 SLP165 T02610094 10261 20172 58016=
KFBL 231755Z AUTO 14020G25KT 10SM CLR 23/13 A2956 RMK AO2=
KFFM 231755Z AUTO 12017G20KT 10SM CLR 21/12 A2941 RMK AO2=
KFOK 231753Z 04006KT 4SM RA BR BKN110 14/13 A3027 RMK AO2 SLP248
     P0006 60008 T01390128 10161 20139 55012 $=
KFSE 231755Z AUTO 12008G15KT 10SM CLR 22/09 A2950 RMK AO2=
KFXE 231753Z 07011G16KT 10SM FEW040 FEW055 29/19 A3004 RMK AO2
     SLP176 T02890194 10294 20194 58012=
KGCK 231754Z 22039G56KT 3SM BLDU CLR 29/03 A2939 RMK AO2 PK WND
     22056/1753 SLP914 60000 T02940028 10294 20122 56015=
KGCN 231754Z 30013G19KT 260V350 10SM FEW033 05/M03 A2982 RMK AO2
     SLP048 60001 T00501028 10050 21006 51012=
KGED 231754Z AUTO 03012KT 2SM -RA BR BKN006 OVC012 17/15 A3016 RMK
     AO2 SLP212 P0002 60002 T01670150 10178 20139 58012=
KGHW 231755Z AUTO 10020G27KT 10SM CLR 22/12 A2946 RMK AO2=
KGYL 231755Z AUTO 13018G22KT 7SM CLR 23/12 A2951 RMK AO2 T02270123
     10227 20125=
KHAF 231755Z AUTO 7SM 15/09 A3002 RMK AO2=
KHCO 231755Z AUTO 07015KT 10SM CLR 16/09 A2951 RMK AO2=
KILN 231754Z AUTO 20011KT 10SM FEW050 24/09 A3014 RMK AO2 SLP201
     T02390089 10239 20133 58016=
KIND 231754Z 19016KT 10SM FEW050 FEW250 24/11 A3003 RMK AO2 PK WND
     19026/1742 SLP165 T02440111 10244 20139 58014 $=
KIPT 231754Z 00000KT 10SM OVC033 17/06 A3027 RMK AO2 SLP250
     T01720061 10172 20017 58016=
KIZG 231754Z AUTO 00000KT 10SM CLR 17/06 A3036 RMK AO2 SLP283
     T01670056 10172 20011 58013=
KJKJ 231755Z AUTO 10011KT 10SM CLR 22/11 A2942 RMK AO2 TSNO=
KJMR 231755Z AUTO 14010KT 10SM CLR 22/12 A2963 RMK AO2=
KLAF 231754Z 19008G26KT 140V210 10SM CLR 26/12 A2996 RMK AO2 PK
     WND 18028/1721 SLP143 T02560117 10256 20167 58018=
KLDM 231755Z AUTO 16009G16KT 10SM CLR 24/11 A2994 RMK AO2
     T02350111 10235 20132=
