SAUS80 KWBC 231948
METAR
KCUL 231933Z AUTO 18018KT 10SM CLR 27/09 A2997 RMK AO2=
KNY0 231934Z AUTO 00000KT 10SM CLR 15/07 A3030 RMK AO2=
KROS 231943Z AUTO 12014G20KT 10SM SCT045 26/14 A2955 RMK AO2=
KLZZ 231935Z AUTO 18015G22KT 10SM CLR 29/15 A2977 RMK AO2
     T02860148=
