SAUS70 KWBC 231710
METAR
KDLL 231715Z AUTO 16011G14KT 10SM CLR 20/11 A2980 RMK AO2
     T02020114=
KEVM 231701Z AUTO 15007KT 10SM CLR 19/11 A2969 RMK AO2=
KEZS 231715Z AUTO 13008KT 10SM CLR 22/14 A2986 RMK AO2
     T02180140=
KGAF 231715Z AUTO 05013G18KT 8SM CLR 13/07 A2953 RMK AO2=
K1A5 231715Z AUTO 00000KT 10SM CLR 20/M01 A3026 RMK AO2
     T02041008=
KEFT 231715Z AUTO 16015G21KT 10SM CLR 21/12 A2982 RMK AO2
     T02100115=
KHNZ 231715Z AUTO 36007KT 320V040 10SM CLR 18/08 A3019 RMK AO2
     T01750075=
KJXI 231715Z AUTO 16012G19KT 10SM SCT034 SCT044 26/16 A2994 RMK
     AO2 T02630156=
KPDC 231715Z AUTO 12014KT 10SM CLR 23/12 A2972 RMK AO2
     T02250119=
KW31 231715Z AUTO 33009KT 10SM SCT024 16/09 A3019 RMK AO1
     T01630086=
KW96 231715Z AUTO 35003KT 7SM OVC005 13/13 A3019 RMK AO1
     T01340125=
KBNL 231715Z AUTO VRB04G12KT 10SM CLR 23/10 A3019 RMK AO2=
KC62 231735Z AUTO 19010G19KT 10SM CLR 22/13 A3008 RMK AO2
     T02260130=
KETB 231715Z AUTO 15011G15KT 120V180 10SM CLR 20/12 A2988 RMK
     AO2=
KLHZ 231715Z AUTO 35007KT 10SM CLR 17/10 A3020 RMK AO2=
KRRL 231715Z AUTO 14009KT 10SM CLR 20/13 A2980 RMK AO2 T01990125
     TSNO=
KUNU 231715Z AUTO 13012G20KT 10SM CLR 21/12 A2986 RMK AO2
     T02060122=
