SAUS80 KWBC 231900 CCB
METAR
K2WX 231856Z AUTO 33016G25KT 08/03 A2931 RMK AO1 SLP932
     T00780033=
KP28 231856Z AUTO 20023G38KT 29/12 A2946 RMK AO1 PK WND 19038/1847
     SLP961 T02940122 $=
KP58 231855Z AUTO 12013KT 14/12 A3009 RMK AO1 SLP190 T01440117=
KMEH 231856Z AUTO VRB04KT 10SM BKN016 04/01 A3003 RMK AO2 SLP188
     T00390006=
