SAUS70 KWBC 231616 RRA
METAR
KY63 231615Z AUTO 13012G19KT 10SM CLR 18/11 A2948 RMK AO2
     T01830108=
K10G 231615Z AUTO 14003KT 10SM CLR 19/07 A3023 RMK AO2=
K1P1 231615Z AUTO 00000KT 10SM CLR 13/05 A3038 RMK AO2
     T01270052=
K20U 231615Z AUTO 06014KT 10SM OVC009 06/05 A2943 RMK AO2=
K27K 231615Z AUTO 20011KT 10SM CLR 22/07 A3019 RMK AO1=
K35A 231615Z AUTO 05005KT 10SM CLR 20/09 A3027 RMK A02
     T01980091=
K3D2 231615Z AUTO 19009G19KT 10SM CLR 16/11 A2994 RMK AO2
     T01570106=
K54J 231615Z AUTO 13005KT 10SM CLR 22/05 A3020 RMK AO2
     T02220051=
K6L4 231615Z AUTO 00000KT 10SM CLR 20/05 A3024 RMK AO2=
K6S2 231615Z AUTO 00000KT 10SM FEW002 06/06 A3016 RMK AO2=
KACQ 231615Z AUTO 15019G27KT 10SM CLR 20/12 A2961 RMK AO2=
KAIT 231615Z AUTO 14006KT 10SM SCT065 18/11 A2962 RMK AO2=
KAMN 231615Z AUTO 17008KT 10SM SCT055 21/11 A3008 RMK AO2
     T02090106=
KBDH 231615Z AUTO 13022G26KT 10SM CLR 21/12 A2953 RMK AO2=
KCBG 231615Z AUTO 00000KT 10SM CLR 22/11 A2962 RMK AO2=
KCFE 231615Z AUTO 14012G17KT 10SM CLR 20/12 A2957 RMK AO2=
KCKI 231615Z AUTO 36007KT 310V060 10SM CLR 21/06 A3018 RMK AO2=
KCOQ 231615Z AUTO 11006KT 10SM BKN080 14/09 A2967 RMK AO2 TSNO=
KCVH 231615Z AUTO 00000KT 10SM CLR 11/06 A3001 RMK A01=
KD25 231615Z AUTO 13007G16KT 100V160 10SM BKN110 17/12 A2982 RMK
     AO2 T01740115=
KDLZ 231615Z AUTO 17006KT 10SM CLR 20/09 A3019 RMK AO2=
KDRM 231615Z AUTO 17006KT 10SM CLR 18/11 A3008 RMK AO2
     T01770107=
KDXX 231615Z AUTO 14022G26KT 10SM CLR 20/12 A2944 RMK AO2=
KEDE 231615Z AUTO 35010KT 7SM OVC006 16/16 A3014 RMK AO2
     T01590157=
KELO 231615Z AUTO 14010KT 10SM CLR 18/08 A2971 RMK AO2=
KFBL 231615Z AUTO 14015G19KT 10SM CLR 21/12 A2961 RMK AO2=
KFFM 231615Z AUTO 13017G20KT 10SM CLR 18/11 A2946 RMK AO2=
KFSE 231615Z AUTO 14009KT 10SM CLR 17/08 A2953 RMK AO2=
KGGE 231615Z AUTO 36007G15KT 10SM CLR 21/07 A3017 RMK AO2=
KGHW 231615Z AUTO 13017KT 10SM CLR 19/12 A2952 RMK AO2=
KGYL 231615Z AUTO 12016G21KT 7SM CLR 21/12 A2956 RMK AO2
     T02050119=
KHAE 231615Z AUTO 15011G20KT 10SM CLR 22/13 A2978 RMK AO2=
KHAF 231615Z AUTO 35010KT 7SM CLR 13/08 A3001 RMK AO2=
KHCO 231615Z AUTO 05014KT 10SM CLR 12/08 A2956 RMK AO2=
KHSP 231615Z AUTO 03003KT 10SM CLR 15/02 A3030 RMK AO2
     T01460015=
KHWY 231615Z AUTO 01006KT 10SM OVC025 17/06 A3030 RMK AO2
     T01710056=
KJFX 231615Z AUTO VRB05KT 10SM CLR 20/11 A3020 RMK AO2=
KJKJ 231615Z AUTO 14013G17KT 10SM CLR 18/10 A2947 RMK AO2 TSNO=
KJMR 231615Z AUTO 15010G14KT 10SM SCT060 20/11 A2967 RMK AO2=
KJSO 231615Z AUTO 19010G22KT 10SM BKN029 BKN035 BKN045 25/18 A2998
     RMK AO2 T02450177 TSNO=
K10G 231615Z AUTO 14003KT 10SM CLR 19/07 A3023 RMK AO2=
