SAUS70 KWBC 231744
METAR
K06C 231735Z AUTO 17010G22KT 10SM CLR 23/16 A2989 RMK AO2
     T02260158=
K9D7 231735Z AUTO 05019KT 10SM FEW014 10/07 A2951 RMK AO2 TSNO=
KADU 231735Z AUTO 17017G27KT 10SM 25/13 A2947 RMK AO2 PWINO=
KAFK 231735Z AUTO 19021G35KT 10SM CLR 28/13 A2945 RMK AO2
     T02770130=
KAIO 231735Z AUTO 18020G25KT 9SM CLR 26/15 A2945 RMK AO2=
KAJG 231735Z AUTO 17020G30KT 10SM CLR 26/11 A3000 RMK AO2
     T02630110=
KASW 231735Z AUTO 19010G17KT 130V220 10SM CLR 23/11 A3003 RMK AO2
     T02360119=
KAUH 231735Z AUTO 18021G27KT 10SM CLR 28/11 A2932 RMK AO2
     T02760113=
KAWG 231735Z AUTO 18024G29KT 10SM CLR 25/15 A2967 RMK AO2=
KAXA 231735Z AUTO 15022G32KT 9SM CLR 23/14 A2949 RMK A01=
KBJI 231735Z AUTO 12009G15KT 10SM CLR 19/10 A2955 RMK AO2
     T01880099=
KBUU 231735Z AUTO 15011G15KT 10SM CLR 22/13 A2987 RMK AO2
     T02240126 PWINO=
KCFS 231735Z AUTO 16012G16KT 10SM CLR 23/11 A3010 RMK AO2
     T02330106=
KCKN 231735Z AUTO 07004KT 10SM CLR 21/08 A2948 RMK AO2=
KCQM 231737Z AUTO 15008KT 10SM CLR 21/09 A2966 RMK AO2=
KFEP 231735Z AUTO 15017G22KT 10SM CLR 23/15 A2983 RMK AO2
     T02300151=
KFFL 231735Z AUTO 17017G25KT 10SM CLR 23/13 A2968 RMK A01=
KFKR 231735Z AUTO 18012G21KT 150V210 10SM CLR 25/12 A3001 RMK
     AO2=
KGBG 231735Z AUTO 16015G20KT 10SM CLR 23/15 A2979 RMK AO2
     T02310149=
KGDB 231735Z AUTO 11021G28KT 10SM CLR 23/13 A2943 RMK AO2
     T02260129=
KGHG 231735Z AUTO VRB05KT 10SM CLR 15/12 A3033 RMK AO2=
KHNR 231735Z AUTO 18025G31KT 10SM CLR 26/15 A2943 RMK A01=
KIKV 231735Z AUTO 17014G24KT 10SM CLR 25/14 A2956 RMK AO2=
KJYG 231737Z AUTO 14020G28KT 10SM CLR 23/12 A2947 RMK AO2=
KOLZ 231735Z AUTO 17022G33KT 10SM CLR 23/13 A2966 RMK A01=
KPHN 231735Z AUTO 19011G15KT 10SM CLR 24/08 A3014 RMK AO2=
KUMP 231735Z AUTO 17012G19KT 10SM CLR 25/13 A3006 RMK AO2
     T02460131=
K66R 231735Z AUTO 16013G20KT 10SM SCT045 BKN065 29/18 A2993 RMK
     AO2 T02900176=
K6P9 231735Z AUTO 19016G28KT 10SM CLR 26/15 A2981 RMK AO2
     T02630151=
K74V 231735Z AUTO 11007KT 10SM 01/00 A2966 RMK AO2=
KAFO 231735Z AUTO 32011G15KT 10SM BKN025 OVC032 00/M06 A2971 RMK
     AO2=
KAJZ 231735Z AUTO 12005KT 10SM SCT012 SCT049 BKN095 06/03 A2963
     RMK AO2 T00620033=
KBVS 231735Z AUTO 00000KT 10SM FEW029 OVC046 09/08 A3013 RMK
     A01=
KBYY 231735Z AUTO 18018G23KT 10SM SCT060 28/16 A2996 RMK AO2
     T02890166=
KCPW 231735Z AUTO 1/4SM -SN OVC001 M05/M05 A2968 RMK AO2 P0002=
KCZT 231735Z AUTO 13011G14KT 10SM SCT029 26/18 A2983 RMK AO2=
KE16 231735Z AUTO 33012G20KT 10SM CLR 14/04 A3001 RMK AO2=
KE41 231735Z AUTO 19016G22KT 10SM CLR 23/15 A2984 RMK AO2
     T02320150=
KECU 231735Z AUTO 15016G25KT 10SM CLR 23/16 A2993 RMK AO2=
KHCR 231735Z AUTO 36010G15KT 10SM SCT050 SCT055 03/M03 A2969 RMK
     AO2=
KLUV 231735Z AUTO 21020G26KT 10SM CLR 28/09 A2976 RMK AO2=
KNOW 231735Z AUTO 00000KT 10SM CLR 10/06 A3011 RMK AO2
     T01020058=
KORG 231735Z AUTO 16013G18KT 10SM SCT070 31/18 A3002 RMK AO2
     T03050181=
KPPA 231735Z AUTO 22017G25KT 10SM CLR 26/12 A2965 RMK AO2
     T02560118=
KXBP 231735Z AUTO 20019G28KT 10SM CLR 28/15 A2981 RMK AO2
     T02830146=
K2G9 231735Z AUTO 15006KT 10SM CLR 16/02 A3026 RMK AO2=
K2W6 231739Z AUTO 00000KT 10SM BKN021 OVC055 15/12 A3020 RMK
     AO1=
KCGE 231735Z AUTO 36007KT 6SM BR OVC020 16/16 A3017 RMK A01=
KFME 231739Z AUTO 03006KT 10SM SCT050 BKN065 17/08 A3024 RMK
     AO1=
KFXY 231735Z AUTO 14023G29KT 10SM CLR 23/13 A2954 RMK AO2=
KI75 231735Z AUTO 16018G22KT 10SM CLR 25/15 A2957 RMK AO2
     T02520145=
KIIB 231735Z AUTO 15016G22KT 10SM CLR 23/14 A2968 RMK AO2
     T02340138=
