SAUS70 KWBC 231940 RRI
METAR
KBPG 231935Z AUTO 18020KT 10SM CLR 29/12 A2972 RMK AO2
     T02910116=
KCFD 231935Z AUTO 15016G23KT 10SM SCT050 BKN065 30/17 A2987 RMK
     AO2 T02990165=
KEBG 231935Z AUTO 15022G27KT 10SM CLR 32/19 A2979 RMK AO2
     T03200185 PWINO=
KF00 231935Z AUTO 17021G32KT 10SM SCT046 28/16 A2979 RMK AO2
     T02820158=
KLHB 231935Z AUTO 17014G23KT 10SM SCT050 BKN065 30/16 A2985 RMK
     AO2 T03010162=
KRAS 231935Z AUTO 14017G22KT 10SM SCT055 A2986 RMK AO2=
KSAA 231935Z AUTO 26011KT 4SM -SN SCT013 BKN028 OVC042 00/M02
     A2958 RMK AO2=
KSTK 231935Z AUTO 33017G22KT 10SM CLR 20/01 A2929 RMK AO2=
KT82 231935Z AUTO 17014G24KT 10SM SCT045 28/15 A2983 RMK AO2
     T02770151=
KTEX 231935Z AUTO 24018G38KT 10SM BKN048 OVC060 00/M11 A2971 RMK
     AO2 P0001=
KTYL 231935Z AUTO 24024G35KT 10SM BKN050 BKN065 14/00 A2981 RMK
     AO2=
KBQX 231935Z AUTO 16012G20KT 9SM 28/18 A2991 RMK A01=
KDSF 231930Z AUTO 07005KT 10SM CLR 25/14 A3007 RMK A01=
KGLX 231935Z AUTO 05010KT 10SM CLR 26/13 A3006 RMK A01=
KHHV 231935Z AUTO 15019KT 10SM CLR 26/19 A2989 RMK A01=
KJWY 231935Z AUTO 18020G30KT 10SM SCT050 29/16 A2981 RMK AO2
     T02890157=
KLNC 231935Z AUTO 18015G27KT 10SM SCT055 30/15 A2982 RMK AO2
     T02950148=
KLXY 231935Z AUTO 16015G25KT 10SM SCT050 30/15 A2983 RMK AO2
     T02960153=
KM75 231935Z AUTO 01016KT 1SM BR VV007 01/01 A2965 RMK A01=
KMEV 231935Z AUTO 21003KT 10SM SCT048 07/M04 A3004 RMK AO2=
KOAR 231935Z AUTO 29006KT 10SM CLR M02/M20 A3000 RMK AO2=
KT89 231935Z AUTO 00000KT 10SM CLR 31/05 A2975 RMK A01=
KU68 231935Z AUTO 31021G31KT 10SM OVC075 03/00 A2963 RMK AO2=
KUVA 231935Z AUTO 15012KT 10SM CLR 28/17 A2982 RMK AO2
     T02750171=
KVAF 231935Z AUTO 15017KT 10SM CLR 28/17 A2994 RMK A01=
KVCV 231935Z AUTO 28010G15KT 10SM CLR 16/M03 A2993 RMK AO2=
KWBF 231935Z AUTO VRB04G10KT 10SM 26/18 A3003 RMK A01=
