SAUS70 KWBC 231820 RRB
METAR
KGDJ 231815Z AUTO 16018G23KT 10SM CLR 28/16 A2981 RMK AO2
     T02820158=
KGYB 231815Z AUTO 17013G17KT 10SM SCT040 SCT047 SCT060 28/18 A2989
     RMK AO2 T02830178=
KM75 231815Z AUTO 01012KT 4SM BR CLR 01/01 A2962 RMK A01=
KACB 231815Z AUTO 16010G21KT 10SM SCT050 24/11 A2998 RMK AO2
     T02390114=
KEGV 231815Z AUTO 14009G20KT 10SM SCT040 21/10 A2981 RMK AO2
     T02130104=
KGRN 231815Z AUTO 30009G12KT 10SM CLR 11/01 A2925 RMK AO2
     T01120008=
KHSB 231815Z AUTO 19015G27KT 10SM BKN049 25/17 A2998 RMK AO2
     T02510165=
KHZE 231815Z AUTO 05013G23KT 10SM CLR 12/06 A2937 RMK AO2=
KI67 231815Z AUTO 20011G16KT 10SM CLR 24/08 A3011 RMK AO1=
KI68 231815Z AUTO 19008KT 10SM CLR 24/10 A3013 RMK AO1
     T02420098=
KIFA 231815Z AUTO 15022G28KT 10SM CLR 24/14 A2956 RMK AO2
     T02440141=
KIGQ 231815Z AUTO 18016G24KT 10SM CLR 25/14 A2991 RMK AO2
     T02480135=
KIRS 231815Z AUTO 17013G19KT 10SM CLR 23/10 A3003 RMK AO2
     T02320097=
KJPX 231815Z AUTO 06007KT 5SM RA SCT012 BKN070 OVC085 14/14 A3025
     RMK AO2 P0018 T01350135=
KLCG 231815Z AUTO 17023G29KT 10SM CLR 28/11 A2932 RMK AO2
     T02800113=
KMUT 231815Z AUTO 17020G26KT 10SM CLR 25/14 A2971 RMK AO2=
KN38 231815Z AUTO 19008KT 10SM CLR 17/02 A3027 RMK AO2=
KOLG 231815Z AUTO 14010KT 10SM CLR 22/10 A2966 RMK AO1=
KPCW 231815Z AUTO 16009KT 10SM CLR 25/09 A3011 RMK AO2=
KPJC 231815Z AUTO RMK AO2 TSNO PWINO=
KPRO 231815Z AUTO 16020G27KT 10SM CLR 26/13 A2949 RMK AO2
     T02630127=
KRZN 231815Z AUTO 12011G16KT 090V160 10SM CLR 22/11 A2963 RMK AO2
     T02190114=
KRZT 231815Z AUTO 15006KT 10SM CLR 24/06 A3015 RMK AO2 PWINO=
KS32 231815Z AUTO 08017G23KT 10SM CLR 16/07 A2940 RMK AO2 TSNO=
KXLL 231815Z AUTO 05008KT 10SM CLR 16/09 A3027 RMK AO2=
KPCD 231815Z AUTO 22016G27KT 190V260 10SM OVC034 24/16 A2992 RMK
     AO2 T02350164=
KPEZ 231815Z AUTO 16015G20KT 10SM SCT041 BKN050 30/18 A2986 RMK
     AO2 T02980182=
KPHN 231815Z AUTO 15009G17KT 10SM SCT055 24/08 A3013 RMK AO2=
KPMV 231815Z AUTO 16020G30KT 10SM CLR 28/13 A2942 RMK AO2
     T02840129=
KPPO 231815Z AUTO 18016G24KT 10SM CLR 25/16 A2996 RMK AO2
     T02460156=
KPRG 231815Z AUTO 18024G29KT 10SM CLR 26/14 A2997 RMK AO2
     T02580139=
KPSO 231815Z AUTO 23019G24KT 10SM OVC085 05/00 A2971 RMK AO2
     T00480003=
KRAS 231815Z AUTO 15016G20KT 10SM SCT060 A2991 RMK AO2=
KRPJ 231815Z AUTO 16022G27KT 10SM CLR 24/15 A2983 RMK AO2
     T02370153 TSNO=
KRSV 231815Z AUTO 18019G24KT 10SM CLR 26/11 A2999 RMK AO2
     T02600107=
KRVJ 231815Z AUTO 00000KT 10SM CLR 25/12 A3015 RMK AO2
     T02510118=
KRWV 231815Z AUTO 17016G22KT 10SM SCT040 SCT047 BKN055 29/17 A2990
     RMK AO2 T02880168=
KRYW 231815Z AUTO 19015G25KT 10SM SCT044 27/15 A2988 RMK AO2
     T02720154=
KS33 231815Z AUTO 26004KT 10SM CLR 07/00 A3012 RMK AO2=
KSAA 231815Z AUTO 28007KT 10SM OVC040 00/M02 A2957 RMK AO2=
KSTE 231815Z AUTO 13011G16KT 100V160 10SM CLR 23/10 A2979 RMK AO2
     T02290100=
KSTK 231815Z AUTO 32015G24KT 10SM CLR 21/01 A2927 RMK AO2=
KSXK 231815Z AUTO 17023G32KT 10SM CLR 26/13 A2932 RMK AO2=
KT74 231815Z AUTO 18018G23KT 10SM SCT041 BKN050 28/18 A2988 RMK
     AO2 T02820176=
KT82 231815Z AUTO 17018G24KT 10SM BKN038 26/15 A2987 RMK AO2
     T02620149=
KTEX 231815Z AUTO 22016G26KT 5SM -SN SCT009 BKN030 OVC060 00/M07
     A2971 RMK AO2=
KTTA 231815Z AUTO 34008KT 10SM CLR 20/04 A3016 RMK AO2
     T02040044=
KTYQ 231815Z AUTO 18010KT 10SM CLR 24/11 A3003 RMK AO2
     T02390114=
KVHN 231815Z AUTO 23015G21KT 10SM SCT080 28/08 A2985 RMK AO2
     T02810082=
KVTP 231815Z AUTO 23022G31KT 2SM -SN OVC006 M11/M13 A2959 RMK
     AO2=
