SAUS70 KWBC 232020 RRB
METAR
KLUL 232015Z AUTO 15006KT 10SM CLR 27/09 A3006 RMK A02
     T02680094=
KMDD 232015Z AUTO 18016G21KT 10SM CLR 29/12 A2970 RMK AO2
     T02900117=
KMGR 232015Z AUTO 09004KT 10SM CLR 25/08 A3012 RMK AO2=
KMKS 232015Z AUTO 01003KT 10SM CLR 22/08 A3013 RMK AO2=
KMPR 232015Z AUTO 17036G40KT 3 1/2SM HZ CLR 29/13 A2943 RMK AO2
     T02940126=
KMWK 232015Z AUTO 11004KT 10SM CLR 21/06 A3018 RMK AO2
     T02130057=
KMWO 232015Z AUTO 18011KT 10SM CLR 25/07 A3008 RMK AO2
     T02480072=
KMZZ 232015Z AUTO 19017G23KT 7SM CLR 25/10 A3003 RMK AO2
     T02450104=
KOEL 232015Z AUTO 24029G41KT 7SM CLR 30/M06 A2928 RMK AO1
     T02981060=
KOLY 232015Z AUTO 16018G27KT 10SM CLR 26/11 A2995 RMK AO2
     T02550105=
KONX 232015Z AUTO 33008G15KT 5SM BR OVC008 16/16 A3006 RMK AO2
     T01610161=
KPCD 232015Z AUTO 20019G29KT 10SM BKN046 27/17 A2988 RMK AO2
     T02680165=
KPEZ 232015Z AUTO 17009KT 10SM SCT049 30/18 A2979 RMK AO2
     T03030175=
KPHN 232015Z AUTO 17010G19KT 10SM CLR 24/06 A3011 RMK AO2=
KPMV 232015Z AUTO 18026G34KT 10SM CLR 29/13 A2938 RMK AO2
     T02900130=
KPPO 232015Z AUTO 17011G19KT 10SM CLR 25/15 A2993 RMK AO2
     T02530151=
KPRG 232015Z AUTO 17022G35KT 10SM CLR 25/12 A2994 RMK AO2
     T02530123=
KPSO 232015Z AUTO 23016G22KT 10SM SCT050 BKN055 BKN100 05/M05
     A2973 RMK AO2 T00521048=
KRAS 232015Z AUTO 14017G22KT 10SM CLR A2985 RMK AO2=
KRPJ 232015Z AUTO 18024G29KT 10SM SCT044 25/16 A2979 RMK AO2
     T02450156 TSNO=
KRSV 232015Z AUTO 17019G26KT 10SM SCT060 26/11 A2996 RMK AO2
     T02580105=
KRVJ 232015Z AUTO 01004KT 10SM CLR 26/11 A3012 RMK AO2
     T02610111=
KRWV 232015Z AUTO 18020G28KT 10SM BKN065 30/16 A2983 RMK AO2
     T03030159=
KRYW 232015Z AUTO 15012G23KT 10SM SCT049 29/16 A2981 RMK AO2
     T02860157=
KS33 232015Z AUTO 28005KT 10SM SCT040 09/00 A3013 RMK AO2=
KSAA 232015Z AUTO 25013G17KT 7SM -SN SCT010 SCT019 OVC042 00/00
     A2958 RMK AO2=
KSME 232015Z AUTO VRB06KT 10SM CLR 25/05 A3009 RMK AO2=
KSTE 232015Z AUTO 14012G16KT 10SM SCT048 24/10 A2975 RMK AO2
     T02410100=
KSTK 232015Z AUTO 33017G22KT 10SM CLR 20/01 A2929 RMK AO2=
KSXK 232015Z AUTO 16029G34KT 10SM SCT120 29/12 A2928 RMK AO2=
KT74 232015Z AUTO 16016G23KT 10SM BKN050 30/18 A2980 RMK AO2
     T03000177=
KT82 232015Z AUTO 18014G19KT 10SM CLR 27/15 A2982 RMK AO2
     T02660149=
KTDF 232015Z AUTO 02008KT 10SM CLR 19/03 A3019 RMK AO2=
KTEX 232015Z AUTO 24013G21KT 10SM -SN SCT031 SCT041 OVC050 00/M08
     A2970 RMK AO2=
K14Y 232015Z AUTO 12019G23KT 10SM CLR 22/12 A2943 RMK AO2=
KBNW 232015Z AUTO 15021KT 9SM FEW120 26/15 A2950 RMK AO2=
KBTN 232015Z AUTO 12029G37KT 7SM CLR 22/12 A2921 RMK AO2=
KC09 232015Z AUTO 19020G28KT 10SM CLR 26/15 A2981 RMK AO2
     T02630145=
KCCY 232015Z AUTO 15022G31KT 9SM CLR 23/13 A2956 RMK AO2=
KDEH 232015Z AUTO 14014G26KT 10SM CLR 23/13 A2960 RMK AO2=
KGGI 232015Z AUTO 16025G29KT 10SM CLR 25/15 A2959 RMK AO2
     T02540149=
KHSB 232015Z AUTO 19012G23KT 10SM SCT055 26/16 A2995 RMK AO2
     T02640161=
KIFA 232015Z AUTO 15024G29KT 10SM SCT045 24/15 A2955 RMK AO2
     T02400145=
KJMR 232015Z AUTO 13012G16KT 10SM SCT046 24/12 A2957 RMK AO2=
KLCG 232015Z AUTO 18024G32KT 10SM CLR 31/11 A2926 RMK AO2
     T03050113=
KLJF 232015Z AUTO 14015G29KT 10SM CLR 24/11 A2943 RMK AO2=
KM30 232015Z AUTO 19018G22KT 10SM CLR 27/10 A2997 RMK AO2
     T02650100=
KMGG 232015Z AUTO 12010G19KT 090V150 10SM SCT046 SCT055 25/12
     A2948 RMK AO2 T02450115 PWINO=
KMGN 232015Z AUTO 19008KT 10SM CLR 22/10 A2998 RMK AO2
     T02260107=
KMVE 232015Z AUTO 15020G29KT 10SM CLR 25/13 A2934 RMK AO2=
