SAUS70 KWBC 231914
METAR
K2C8 231915Z AUTO 05011G17KT 10SM CLR 16/08 A2948 RMK AO2=
KCLK 231915Z AUTO 17020G27KT 10SM CLR 25/13 A2962 RMK AO2=
KD50 231915Z AUTO 05020KT 10SM OVC013 05/03 A2952 RMK AO2=
KFRR 231915Z AUTO 08003KT 10SM OVC026 16/07 A3023 RMK AO1=
KLQK 231915Z AUTO 10SM CLR 24/03 A3015 RMK AO2 T02400027=
KY51 231915Z AUTO 14014G26KT 10SM CLR 23/15 A2968 RMK AO1
     T02270145=
K1S5 231915Z AUTO 00000KT 10SM CLR 11/02 A3009 RMK AO2
     T01120020=
KJXI 231915Z AUTO 18013G23KT 10SM SCT048 28/14 A2988 RMK AO2
     T02810139=
KMCJ 231915Z AUTO 18024G33KT 10SM SCT060 SCT065 28/14 A2988 RMK
     A01=
K4R5 231915Z AUTO 08004KT 10SM CLR 21/12 A2967 RMK AO2
     T02130124=
K8W2 231915Z AUTO 04004KT 10SM SCT033 20/01 A3022 RMK AO1
     T02010006=
KARV 231915Z AUTO 15013G21KT 10SM SCT039 22/12 A2977 RMK AO2
     T02150118=
KCCA 231915Z AUTO 18007G14KT 150V220 10SM OVC035 25/16 A2990 RMK
     AO2=
KCDH 231915Z AUTO 17010G21KT 10SM SCT049 29/17 A2992 RMK AO2=
KCPK 231915Z AUTO 33007KT 15/14 A3008 RMK AO2 P0001 T01480140=
KEOE 231915Z AUTO 29003KT 10SM CLR 22/05 A3019 RMK AO2=
KFDW 231915Z AUTO 00000KT 10SM CLR 23/06 A3015 RMK AO1=
KHFY 231915Z AUTO 17012G18KT 10SM SCT060 26/12 A3003 RMK AO2
     T02600123=
KIUA 231915Z AUTO 12009KT 10SM CLR 23/06 A3023 RMK AO2
     T02270055=
KIXA 231915Z AUTO 36008KT 10SM OVC017 16/15 A3013 RMK AO2=
KJAQ 231915Z AUTO 31009KT 10SM CLR 15/M02 A2996 RMK AO1
     T01481022=
KMDZ 231915Z AUTO 13015G20KT 10SM CLR 22/13 A2973 RMK AO2
     T02200125 PWINO=
KSPA 231915Z AUTO 00000KT 10SM CLR 22/03 A3016 RMK AO2=
KVER 231915Z AUTO 16018G25KT 10SM CLR 29/16 A2967 RMK AO2
     T02940161=
