SAUS80 KWBC 231936
METAR
KGNT 231935Z AUTO 28009KT 10SM -DZ SCT027 BKN035 OVC055 10/05
     A2981 RMK AO2 T00980051=
KLZZ 231915Z AUTO 20012G20KT 10SM CLR 29/15 A2977 RMK AO2
     T02860146=
KY23 231935Z AUTO 14018G24KT 10SM SCT044 24/15 A2963 RMK AO2
     T02420154=
KCLI 231935Z AUTO 14013G17KT 10SM CLR 23/13 A2980 RMK AO2
     T02280133=
