SAUS70 KWBC 232000 RRT
METAR
KGAD 231956Z AUTO 13004KT 10SM CLR 24/04 A3013 RMK AO2 SLP204
     T02440039 $=
KGAO 231955Z AUTO 10007KT 070V140 10SM CLR 27/16 A3006 RMK AO2
     T02650156=
KGCY 231955Z AUTO 35004KT 10SM CLR 22/03 A3015 RMK A01=
KGDJ 231955Z AUTO 18017G32KT 10SM CLR 29/15 A2976 RMK AO2
     T02890153=
KGGI 231955Z AUTO 15023G28KT 10SM CLR 24/15 A2960 RMK AO2
     T02440149=
KGKT 231955Z AUTO 00000KT 10SM CLR 23/05 A3014 RMK A01=
KGOO 231955Z AUTO VRB06G14KT 10SM CLR 14/M08 A2996 RMK A01=
KGRN 231955Z AUTO 32015G21KT 10SM CLR 13/01 A2928 RMK AO2
     T01340010=
KGTR 231956Z 16009KT 10SM CLR 26/09 A3008 RMK AO2 SLP190
     T02610094=
KGVQ 231956Z AUTO 10008KT 10SM CLR 21/05 A3021 RMK AO2 SLP229
     T02110050=
KGYB 231955Z AUTO 17011G22KT 10SM SCT047 SCT060 SCT070 29/17 A2984
     RMK AO2 T02940174=
KGZS 231955Z AUTO 17012KT 10SM CLR 25/08 A3009 RMK A01=
KH71 231955Z AUTO 16020G30KT 10SM CLR 28/15 A2967 RMK AO2=
KHEZ 231956Z AUTO 15012G20KT 10SM FEW049 28/15 A3002 RMK AO2
     SLP164 T02780150=
KHFJ 231955Z AUTO 17023G29KT 10SM CLR 27/12 A2973 RMK AO2=
KHHF 231955Z AUTO 17019G25KT 10SM CLR 27/12 A2954 RMK AO2
     T02660116=
KHLB 231955Z AUTO 19008G16KT 160V230 10SM CLR 24/08 A3006 RMK
     A01=
KHOE 231955Z AUTO 00000KT 10SM CLR 26/10 A3011 RMK AO2
     T02610101=
KHQG 231955Z AUTO 21031G42KT 4SM HZ OVC003 29/03 A2944 RMK AO2
     T02920027=
KHRX 231955Z AUTO 20018G25KT 10SM CLR 25/10 A2963 RMK AO2
     T02450100=
KHSB 231955Z AUTO 18019G25KT 10SM SCT055 27/16 A2996 RMK AO2
     T02690164=
KHSD 231955Z AUTO 17021G26KT 10SM CLR 26/15 A2962 RMK A01=
KHYX 231955Z AUTO 16013G19KT 10SM CLR 23/10 A3005 RMK AO2
     T02340095=
KHZD 231955Z AUTO 17011G19KT 10SM CLR 26/06 A3001 RMK A01=
KI35 231955Z AUTO 00000KT 10SM CLR 23/04 A3015 RMK AO2
     T02290036=
KIER 231955Z AUTO 18010KT 10SM SCT050 OVC065 30/16 A2996 RMK AO2
     T03000159=
KIFA 231955Z AUTO 16021G32KT 10SM CLR 26/15 A2955 RMK AO2
     T02580145=
KIGQ 231955Z AUTO 17016G27KT 10SM CLR 25/13 A2988 RMK AO2
     T02540129=
KIMS 231955Z AUTO 15010G16KT 119V179 10SM CLR 25/08 A3008 RMK
     AO2=
KINJ 231955Z AUTO 18022G29KT 10SM BKN048 29/16 A2979 RMK AO2
     T02930161=
KISO 231956Z 02008KT 10SM OVC020 19/15 A3011=
KJAU 232000Z AUTO 20007KT 10SM CLR 23/01 A3018 RMK A01=
KJPX 231955Z AUTO 03006KT 10SM -RA SCT034 BKN065 OVC075 13/13
     A3026 RMK AO2 P0020 T01300130=
KJTC 231955Z AUTO 28023G28KT 10SM SCT034 BKN039 BKN045 15/04 A2980
     RMK AO2=
KJWG 231955Z AUTO 17017G29KT 10SM CLR 25/15 A2962 RMK AO2
     T02520149=
KJWY 231955Z AUTO 17018G24KT 10SM SCT050 30/16 A2980 RMK AO2
     T02960155=
KJYL 231955Z AUTO 35003KT 10SM CLR 26/10 A3014 RMK AO2
     T02570100=
KK70 231955Z AUTO 04010G15KT 10SM CLR 29/21 A3000 RMK AO2=
KARM 231955Z AUTO 15018G24KT 10SM SCT048 OVC055 28/16 A2988 RMK
     AO2 T02830159 TSNO=
KASN 231955Z AUTO 00000KT 10SM CLR 25/04 A3012 RMK AO2
     T02480042=
KAUO 231956Z AUTO 05005KT 10SM CLR 24/06 A3015 RMK AO2 SLP229
     T02390056=
KAVK 231955Z AUTO 19039G45KT 6SM HZ CLR 27/12 A2950 RMK AO2
     PWINO=
KAVQ 231955Z AUTO 30012G16KT 10SM CLR 23/09 A2978 RMK AO2
     T02260089=
KAWO 231956Z AUTO 15007KT 10SM FEW018 OVC048 11/06 A3016 RMK AO2
     SLP218 T01110061=
KAXH 231955Z AUTO 20008G16KT 10SM CLR 30/14 A2990 RMK AO2
     T03040135=
KAXS 231955Z AUTO 18019G29KT 10SM CLR 30/12 A2961 RMK AO2
     T02950115=
KAZC 231955Z AUTO 32014G24KT 10SM SCT065 BKN090 08/M02 A2988 RMK
     AO2=
KBAM 231955Z AUTO 31010G17KT 10SM BKN035 BKN045 OVC070 05/M01
     A3002 RMK AO1=
KBBB 231956Z AUTO 16022G31KT 10SM CLR 23/12 A2935 RMK AO2=
