SAUS80 KWBC 231738
METAR
KPOV 231735Z AUTO 00000KT 10SM CLR 22/04 A3021 RMK AO2 T02200039
     PWINO=
KPZQ 231735Z AUTO 16012G15KT 10SM CLR 24/12 A3006 RMK AO2
     T02350121=
KIKW 231735Z AUTO 17012G21KT 10SM SCT055 25/11 A3006 RMK AO2
     T02450105=
KLYV 231735Z AUTO 14021G27KT 10SM CLR 21/11 A2938 RMK AO2=
KEKX 231735Z AUTO 19011G17KT 10SM CLR 24/08 A3013 RMK AO2
     T02420080=
KCLI 231735Z AUTO 15013G17KT 10SM CLR 21/12 A2985 RMK AO2
     T02070123=
KY23 231735Z AUTO 12013G18KT 10SM CLR 22/15 A2969 RMK AO2
     T02170148=
KSMS 231735Z AUTO 34007KT 10SM CLR 23/08 A3017 RMK AO2=
KSNC 231735Z AUTO 01006KT 10SM CLR 14/09 A3028 RMK AO2=
KSOW 231735Z AUTO 23020G29KT 4SM -DZ BKN010 OVC014 08/07 A2984 RMK
     AO2=
KSYN 231735Z AUTO 16016G20KT 10SM CLR 23/12 A2958 RMK AO2
     T02300120=
KM21 231735Z AUTO 19011G19KT 10SM CLR 26/10 A3008 RMK AO2
     T02550095=
KEDU 231740Z AUTO 35016G26KT 9SM CLR 17/00 A3000 RMK AO1=
KGNG 231735Z AUTO 28023G29KT 10SM CLR 05/M00 A2988 RMK AO2=
KJNX 231735Z AUTO 01006KT 10SM CLR 21/11 A3014 RMK AO2=
KS39 231735Z AUTO 22003KT 10SM CLR 06/M00 A3008 RMK AO2=
KSEP 231735Z AUTO 17016G24KT 10SM CLR 27/15 A2986 RMK AO2
     T02700150=
KTKC 231735Z AUTO 15021G27KT 10SM 22/11 A2942 RMK AO2
     T02220105=
KTKV 231735Z AUTO 00000KT 10SM CLR 22/12 A2979 RMK AO2 T02170122
     PWINO=
K9MN 231735Z AUTO 13013G25KT 10SM CLR 21/12 A2962 RMK AO1
     T02110116=
KCIR 231735Z AUTO 22012G23KT 190V250 10SM OVC048 24/15 A3002 RMK
     AO2 T02400145=
KPTS 231735Z AUTO 19018G31KT 10SM BKN120 27/15 A2970 RMK AO2
     T02690153 PWINO=
KRFI 231735Z AUTO 17011G17KT 10SM SCT040 BKN050 29/13 A2995 RMK
     AO2 T02930125=
KRLD 231735Z AUTO 24005KT 10SM CLR 13/02 A3007 RMK AO2
     T01250019=
KMKN 231735Z AUTO 20020G28KT 10SM SCT033 27/17 A2984 RMK AO2
     T02680165=
KVTI 231735Z AUTO 15019G26KT 10SM CLR 25/12 A2966 RMK AO2
     T02450121=
