SAUS70 KWBC 231700 RRB
METAR
KMGR 231655Z AUTO 02004KT 10SM CLR 22/11 A3019 RMK AO2=
KMKS 231655Z AUTO 01005KT 10SM CLR 21/10 A3017 RMK AO2=
KMPR 231655Z AUTO 18027G35KT 7SM CLR 25/12 A2951 RMK AO2
     T02470125=
KMWK 231655Z AUTO 00000KT 10SM CLR 19/05 A3024 RMK AO2
     T01910045=
KMWO 231655Z AUTO 17011KT 10SM CLR 23/09 A3016 RMK AO2
     T02330087=
KMYP 231655Z AUTO OVC002 M04/M05 A2972 RMK AO2 PWINO=
KMZZ 231655Z AUTO 19016G20KT 10SM CLR 23/12 A3009 RMK AO2
     T02300116=
KN03 231655Z AUTO 11007KT 10SM CLR 17/00 A3030 RMK AO2=
KOLE 231655Z AUTO 21003KT 10SM CLR 16/03 A3028 RMK AO2=
KOLY 231655Z AUTO 17016G24KT 10SM BKN041 24/11 A3000 RMK AO2
     T02370114=
KONX 231655Z AUTO 32008G15KT 5SM RA OVC004 16/16 A3009 RMK AO2
     P0028 T01570157=
KOQN 231655Z AUTO 04005KT 10SM SCT120 16/09 A3025 RMK AO2=
KPCD 231655Z AUTO 19016G27KT 170V240 10SM OVC028 22/16 A2995 RMK
     AO2 T02180158=
KPHN 231655Z AUTO 16006KT 10SM CLR 23/08 A3015 RMK AO2=
KPMV 231655Z AUTO 17021G29KT 10SM CLR 26/13 A2944 RMK AO2
     T02600128 PWINO=
KPPO 231655Z AUTO 17013G20KT 10SM CLR 23/15 A3000 RMK AO2
     T02300152=
KPRG 231655Z AUTO 17022G29KT 10SM SCT120 25/14 A3000 RMK AO2
     T02460139=
KPSO 231655Z AUTO 26014G25KT 4SM UP SCT008 OVC013 04/03 A2968 RMK
     AO2 T00350032=
KRAS 231655Z AUTO 16016G22KT 10SM OVC050 A2994 RMK AO2=
KRPJ 231655Z AUTO 17018G26KT 10SM CLR 22/15 A2987 RMK AO2
     T02200145 TSNO=
KRSV 231655Z AUTO 20017G25KT 10SM BKN110 25/11 A3002 RMK AO2
     T02480113=
KRVJ 231655Z AUTO 06008KT 10SM CLR 24/12 A3017 RMK AO2
     T02430122=
KRWV 231655Z AUTO 16018G25KT 10SM SCT029 BKN034 OVC050 27/18 A2993
     RMK AO2 T02700182=
KRYW 231655Z AUTO 19012G21KT 10SM SCT024 BKN031 BKN039 24/17 A2992
     RMK AO2 T02410170=
KS33 231655Z AUTO 00000KT 10SM CLR 05/00 A3010 RMK AO2=
KSAA 231655Z AUTO 28015G19KT 10SM SCT013 BKN049 OVC060 00/M02
     A2955 RMK AO2=
KSME 231655Z AUTO VRB04KT 10SM CLR 23/06 A3018 RMK AO2=
KSTE 231655Z AUTO 14010KT 10SM CLR 21/10 A2983 RMK AO2
     T02060100=
KSTK 231655Z AUTO 27009G17KT 10SM CLR 21/00 A2924 RMK AO2=
KSXK 231655Z AUTO 15028KT 10SM CLR 23/13 A2935 RMK AO2=
KT74 231655Z AUTO 18019G31KT 10SM SCT032 BKN044 BKN050 27/17 A2991
     RMK AO2 T02690170=
KT82 231655Z AUTO 18019G23KT 10SM BKN030 24/16 A2991 RMK AO2
     T02410160=
KTEX 231655Z AUTO 26011G18KT 220V280 10SM SCT038 BKN060 OVC070
     02/M04 A2967 RMK AO2=
KTTA 231655Z AUTO 04005KT 10SM CLR 18/06 A3019 RMK AO2
     T01840057=
KTYQ 231655Z AUTO 17014KT 10SM CLR 23/12 A3007 RMK AO2
     T02290116=
KVHN 231655Z AUTO 22016G20KT 10SM CLR 26/08 A2989 RMK AO2
     T02570078=
KVTP 231655Z AUTO 24018G35KT 10SM BKN026 BKN030 OVC036 M07/M15
     A2958 RMK AO2=
KVVS 231655Z AUTO 08004KT 10SM CLR 20/03 A3024 RMK AO2
     T02050026=
KVYS 231655Z AUTO 18019G25KT 10SM CLR 23/13 A2986 RMK AO2
     T02340132=
KZPH 231655Z AUTO 03004KT 10SM CLR 27/14 A3014 RMK A02
     T02700142=
K0CO 231655Z AUTO 29014G24KT 3SM -SN SCT002 BKN010 OVC037 M04/M07
     A2962 RMK AO2=
K13K 231655Z AUTO 17026G33KT 10SM CLR 26/15 A2963 RMK AO2=
K18A 231655Z AUTO 00000KT 10SM CLR 21/04 A3023 RMK AO2
     T02130038=
K1F0 231655Z AUTO 16017G25KT 10SM CLR 25/17 A2980 RMK AO2
     T02540171=
K1H2 231655Z AUTO 17015G23KT 10SM SCT039 23/14 A2998 RMK AO2
     T02290140=
K2J3 231655Z AUTO 11005KT 10SM CLR 23/11 A3020 RMK AO2
     T02290108=
K2R9 231655Z AUTO 17014G25KT 10SM SCT035 SCT044 29/18 A2991 RMK
     AO2=
K2V5 231655Z AUTO 24022G35KT 10SM CLR 25/M04 A2924 RMK AO2=
K3F3 231655Z AUTO 18014G26KT 10SM CLR 28/15 A3003 RMK AO2
     T02790146=
