SAUS70 KWBC 231900 RRC
METAR
KLMT 231853Z VRB04KT 10SM SCT041 07/M03 A3010 RMK AO2 SLP196
     T00671033=
KONO 231853Z AUTO 32013G20KT 10SM BKN095 12/M01 A3002 RMK AO2
     SLP171 T01171011=
KPUB 231853Z 24023G33KT 10SM CLR 22/01 A2941 RMK AO2 PK WND
     24034/1814 SLP893 T02170006=
KRTN 231853Z AUTO 22030G51KT 10SM SCT095 21/M03 A2952 RMK AO2 PK
     WND 23051/1847 SLP921 T02061028=
KTIW 231853Z 31004KT 10SM SCT008 BKN014 10/07 A3017 RMK AO2 SLP219
     T01000072=
KGEY 231853Z AUTO 33015KT 10SM FEW009 BKN040 OVC050 03/02 A2960
     RMK AO2 RAE46 SLP029 P0001 T00330017=
KHOU 231853Z 16018G29KT 10SM FEW040 SCT060 BKN250 30/15 A2991 RMK
     AO2 PK WND 17029/1848 SLP134 T03000150=
KIAH 231853Z 16016G25KT 10SM SCT065 BKN250 29/14 A2991 RMK AO2 PK
     WND 15031/1823 SLP127 T02940144=
KLFK 231853Z AUTO 18012G23KT 10SM BKN060 29/15 A2993 RMK AO2 PK
     WND 14031/1834 SLP130 T02890150=
KLOL 231853Z AUTO 34015G20KT 10SM CLR 09/M08 A3004 RMK AO2 SLPNO
     T00891083 $=
KMCE 231853Z AUTO 31016G21KT 10SM CLR 19/M01 A2994 RMK AO2 SLP137
     T01941011=
KMWL 231853Z AUTO 17019G30KT 10SM CLR 31/14 A2974 RMK AO2 PK WND
     16034/1821 SLP057 T03060144=
KMYV 231853Z AUTO 33013G23KT 10SM CLR 21/M02 A2999 RMK AO2 SLP160
     T02061022 $=
KOGD 231853Z 33014G24KT 10SM FEW030 SCT055 BKN090 07/M01 A2978 RMK
     AO2 SLP073 T00721011=
KONT 231853Z 20005KT 10SM SCT022 SCT047 18/10 A2986 RMK AO2 SLP105
     T01830100 $=
KVCB 231853Z AUTO 35019G24KT 10SM CLR 20/M02 A3001 RMK AO2 PK WND
     36030/1821 SLP162 T02001022=
KVEL 231853Z AUTO 19004KT 10SM SCT110 03/00 A2966 RMK AO2 SNE12
     SLP040 P0000 T00280000=
KWVI 231853Z AUTO 20009KT 10SM CLR 17/08 A2999 RMK AO2 SLP155
     T01670078=
KAUW 231854Z AUTO 13020G28KT 10SM CLR 23/12 A2975 RMK AO2 PK WND
     14030/1839 SLPNO T02330117 $=
KAVC 231855Z AUTO 36010KT 10SM OVC022 19/13 A3021 RMK AO2
     T01850125=
KAVL 231854Z 00000KT 10SM CLR 21/00 A3018 RMK AO2 SLP209
     T02110000=
KBAC 231855Z AUTO 09016G21KT 10SM CLR 20/11 A2935 RMK AO2=
KBCB 231855Z AUTO 11005KT 10SM CLR 20/04 A3023 RMK AO2
     T02030041=
KBFL 231854Z 28005KT 10SM CLR 16/02 A2996 RMK AO2 SLP143
     T01610017=
KBKS 231855Z AUTO 15014G22KT 10SM SCT049 31/19 A2980 RMK AO2
     SLP051 T03120191 $=
KBKT 231855Z AUTO 36006KT 10SM OVC021 18/11 A3017 RMK AO1
     T01770107=
KBOS 231854Z 04009KT 10SM FEW020 BKN110 OVC140 14/11 A3033 RMK AO2
     SLP270 T01440106=
KBOW 231850Z 01008KT 10SM FEW035 28/14 A3007=
KBRG 231855Z AUTO 22027G35KT 10SM CLR 21/M03 A2970 RMK AO2
     T02111033=
KBRY 231855Z AUTO 16007G16KT 10SM CLR 25/08 A3008 RMK AO2
     T02510081=
KBUY 231854Z AUTO 34007KT 10SM CLR 21/04 A3017 RMK AO2 SLP216
     T02110044=
KBVU 231855Z AUTO 32012G18KT 10SM CLR 17/M10 A2985 RMK AO2=
KBWI 231854Z 36006G15KT 10SM BKN050 OVC130 19/10 A3019 RMK AO2
     SLP224 T01890100 $=
KBWP 231855Z AUTO 13018G24KT 10SM CLR 24/12 A2933 RMK AO2=
KBWW 231855Z AUTO 33014G19KT 10SM OVC015 07/05 A2936 RMK AO2=
KBXK 231855Z AUTO 29007G13KT 10SM FEW060 23/07 A2978 RMK A01=
KCDN 231855Z AUTO VRB04KT 10SM CLR 24/06 A3016 RMK AO2=
KCEU 231854Z AUTO VRB03KT 10SM CLR 22/03 A3017 RMK AO2 SLP210
     T02220028=
KCEY 231855Z AUTO 16016KT 10SM CLR 25/09 A3003 RMK A01=
KCFJ 231855Z AUTO 17017G27KT 10SM CLR 24/07 A2999 RMK AO2
     T02400065=
KCJR 231855Z AUTO 35007KT 10SM OVC041 19/10 A3022 RMK AO2
     T01910101=
KCKM 231855Z AUTO 18013G20KT 10SM FEW050 27/14 A3001 RMK A01=
KCKZ 231855Z AUTO 07010G16KT 10SM SCT048 17/09 A3025 RMK AO2=
KCLS 231855Z AUTO VRB04KT 10SM FEW017 12/07 A3016 RMK AO2=
KCMR 231855Z AUTO 27013G20KT 10SM SCT048 07/M04 A2986 RMK AO2=
