SAPA31 KWBC 231900 RRD
METAR
PKWA 231940Z AUTO 19014G20KT 1SM BR OVC015 26/24 A2989 RMK AO2 VIS
     M1/4V5 T02570237=
