SAUS70 KWBC 232000 RRX
METAR
KLBE 231947Z 06006KT 20SM CLR 22/02 A3020=
