SAUS70 KWBC 231818 RRH
METAR
KSWW 231815Z AUTO 19021G26KT 10SM CLR 28/13 A2978 RMK AO2
     T02800125=
KSXU 231815Z AUTO 22024G33KT 10SM SCT085 BKN110 24/01 A2965 RMK
     AO2 T02370013=
KSYF 231815Z AUTO 23031G37KT 3SM BKN034 OVC042 26/M04 A2927 RMK
     AO2 T02611041 PWINO=
KSZT 231815Z AUTO 03006KT 10SM CLR 08/02 A2999 RMK AO2=
KT89 231815Z AUTO 11007KT 10SM CLR 30/06 A2980 RMK A01=
KTDF 231815Z AUTO 34006KT 10SM CLR 18/05 A3020 RMK AO2=
KTME 231815Z AUTO 16016G21KT 10SM BKN055 BKN065 30/16 A2993 RMK
     AO2=
KTNU 231815Z AUTO 16021KT 10SM CLR 24/14 A2957 RMK A01=
KTQH 231815Z AUTO 16013G23KT 10SM SCT032 25/13 A2981 RMK AO2=
KTQV 231815Z AUTO 34012KT 10SM CLR 19/03 A3017 RMK A01=
KTYL 231815Z AUTO 26024G33KT 10SM SCT045 BKN060 13/04 A2983 RMK
     AO2=
KU68 231815Z AUTO 31021G30KT 10SM OVC055 03/00 A2962 RMK AO2=
KUBE 231815Z AUTO 14014G19KT 10SM CLR 21/16 A2966 RMK AO2=
KUSE 231815Z AUTO 16015G22KT 10SM FEW055 25/11 A3009 RMK AO2=
KUVA 231815Z AUTO 13013G17KT 10SM CLR 26/18 A2986 RMK AO2
     T02580179=
KUXL 231815Z AUTO 14019G22KT 10SM OVC065 28/18 A3002 RMK AO2
     T02810177 PWINO=
KVCV 231815Z AUTO 28013KT 10SM CLR 15/M03 A2993 RMK AO2=
KXLL 231815Z AUTO 05008KT 10SM CLR 16/09 A3027 RMK AO2=
PAAD 231815Z AUTO 11010KT 10SM OVC003 M08/M09 A3003 RMK AO2
     T10821090=
PAUT 231815Z AUTO 21004KT 10SM BKN070 OVC085 06/04 A3022 RMK
     AO2=
PAAD 231815Z AUTO 11010KT 10SM OVC003 M08/M09 A3003 RMK AO2
     T10821090=
PAUT 231815Z AUTO 21004KT 10SM BKN070 OVC085 06/04 A3022 RMK
     AO2=
KBTN 231815Z AUTO 12012G18KT 10SM CLR 21/10 A2930 RMK AO2=
KOAR 231815Z AUTO 28006KT 7SM CLR M04/M16 A3001 RMK AO2=
K5H4 231815Z AUTO 06019G24KT 10SM CLR 11/M01 A2941 RMK AO2=
K96D 231815Z AUTO 03013KT 10SM BKN016 12/11 A2955 RMK AO2=
K9D7 231815Z AUTO 06018KT 10SM CLR 12/07 A2948 RMK AO2 TSNO=
KAXV 231815Z AUTO 17013G17KT 10SM SCT055 23/09 A3011 RMK AO2=
KBAC 231815Z AUTO 08018KT 9SM CLR 17/09 A2938 RMK AO2=
KD57 231815Z AUTO 05017KT 10SM CLR 12/03 A2931 RMK AO2=
KEFK 231815Z AUTO 02003KT 10SM CLR 19/06 A3033 RMK AO2
     T01900060=
KFFX 231815Z AUTO 16008G16KT 10SM BKN060 24/12 A2997 RMK AO2
     T02430115=
KHZL 231815Z AUTO 00000KT 10SM OVC034 16/08 A3030 RMK AO2=
KI69 231815Z AUTO 18004KT 10SM SCT055 24/09 A3014 RMK AO2
     T02390091=
KIDI 231815Z AUTO VRB06KT 10SM CLR 20/02 A3026 RMK A01=
KJYM 231815Z AUTO 17013G19KT 10SM SCT050 23/08 A3008 RMK AO2
     T02250077=
KMDS 231815Z AUTO 14024G34KT 10SM CLR 22/13 A2930 RMK AO2=
KMQJ 231815Z AUTO RMK AO1=
KOCQ 231815Z AUTO 14010KT 10SM CLR 19/12 A2987 RMK AO1
     T01900122=
KOEO 231815Z AUTO 14015G24KT 10SM CLR 24/15 A2961 RMK AO2
     T02380154=
KPNM 231815Z AUTO 13018G24KT 10SM CLR 24/13 A2955 RMK AO2 TS=
KRQB 231815Z AUTO 17016G21KT 10SM CLR 23/11 A3000 RMK AO2
     T02300112=
KRUG 231815Z AUTO 06025G31KT 10SM SCT013 09/06 A2944 RMK AO2=
KRVL 231815Z AUTO 00000KT 7SM OVC027 17/07 A3027 RMK AO2=
KRYV 231815Z AUTO 17011G20KT 10SM CLR 23/12 A2982 RMK AO2
     T02250116=
KS25 231815Z AUTO 05016KT 10SM OVC012 07/07 A2944 RMK AO2=
KSPF 231815Z AUTO 30019G24KT 10SM OVC017 07/03 A2936 RMK AO2=
KTOB 231815Z AUTO 14020G26KT 10SM CLR 23/12 A2958 RMK AO2=
KY19 231815Z AUTO 07014KT 10SM CLR 12/06 A2931 RMK AO2=
KY70 231815Z AUTO 16013G22KT 10SM CLR 24/09 A3002 RMK AO2
     T02400091=
K06D 231815Z AUTO 04018G25KT 10SM OVC011 08/06 A2952 RMK AO2=
K21D 231815Z AUTO 13013G21KT 10SM CLR 22/12 A2959 RMK AO2=
K22N 231815Z AUTO 00000KT 10SM BKN050 OVC095 16/06 A3028 RMK
     AO2=
K2D5 231815Z AUTO 09021G31KT 8SM CLR 19/10 A2932 RMK AO2=
