SAUS80 KWBC 231800 RRC
METAR
K9V9 231755Z AUTO 15017G25KT 10SM CLR 22/10 A2918 RMK AO2
     T02170096 10229 20083=
KAYS 231755Z AUTO 13003KT 10SM CLR 25/12 A3014 RMK AO2 T02520122
     10253 20090=
KCAO 231755Z AUTO 22028G48KT 10SM CLR 23/04 A2956 RMK AO2 PK WND
     20051/1725 SLP945 T02280039 10228 20128 58014=
KGIC 231755Z AUTO 25004KT 10SM OVC025 03/00 A2999 RMK AO1=
KNY0 231755Z AUTO 00000KT 10SM CLR 16/06 A3031 RMK AO2=
KSOA 231755Z AUTO 18015G21KT 10SM 26/16 A2989 RMK AO2=
KCKP 231755Z AUTO 18017G24KT 10SM CLR 26/12 A2940 RMK AO2
     T02550120 10255 20125=
KCHS 231756Z 34012KT 10SM CLR 23/09 A3014 RMK AO2 SLP206 T02330089
     10233 20117 58014=
KFLG 231757Z 26008KT 10SM SCT017 BKN021 OVC030 04/01 A2984 RMK AO2
     RAB05E26SNB11E20 SLP048 P0000 60002 T00440011 10067 20028
     51018=
KSFO 231756Z 00000KT 10SM CLR 16/05 A3002 RMK AO2 SLP164 T01610050
     10161 20106 51016 $=
KPSN 231755Z AUTO 18012G18KT 10SM SCT046 BKN055 28/17 A2991 RMK
     AO2=
K2WX 231756Z AUTO 31014KT 08/03 A2933 RMK AO1 SLP936 T00830033
     10083 20033 55002=
K8D3 231756Z AUTO 13018G27KT 22/11 A2934 RMK AO1 PK WND 14029/1736
     SLP931 T02220111 10222 20022 58036=
K2WX 231756Z AUTO 31014KT 08/03 A2933 RMK AO1 SLP936 T00830033
     10083 20033 55002=
KCBE 231755Z AUTO 00000KT 10SM CLR 17/07 A3031 RMK AO2 T01660067
     10167 20006=
KD07 231756Z AUTO 01010KT 11/04 A2925 RMK AO1 SLP910 T01110044
     10117 20028 56013=
KIZA 231755Z AUTO 22005KT 10SM CLR 16/07 A2990 RMK AO2=
KSMP 231756Z AUTO VRB03KT 1 3/4SM BR BKN002 OVC015 01/01 A3004 RMK
     AO2 SLP196 I6001 T00060006 10006 20000 52014 $=
KSPD 231756Z AUTO 22033G49KT 26/M02 A2947 RMK AO1 PK WND
     22050/1746 SLP912 T02561017 10256 20172 57013=
