SAUS70 KWBC 231700 RRX
METAR
KCAD 231655Z AUTO 16010G15KT 10SM SCT049 SCT065 21/11 A3002 RMK
     AO2 T02070108=
KCQM 231655Z AUTO 15009KT 10SM CLR 19/09 A2967 RMK AO2=
KDTL 231655Z AUTO 12014G20KT 10SM CLR 18/10 A2950 RMK AO2=
KEEN 231656Z AUTO 00000KT 10SM CLR 12/07 A3035 RMK AO2 SLP287
     T01170067 $=
KESC 231656Z AUTO 17011KT 10SM CLR 15/11 A2995 RMK AO2 SLP145
     T01500111 PNO $=
KFFX 231655Z AUTO 18009KT 10SM SCT050 23/11 A3001 RMK AO2
     T02260110=
KFSO 231655Z AUTO 21003KT 10SM CLR 19/06 A3032 RMK AO2
     T01930063=
KGAI 231656Z AUTO 00000KT 10SM OVC043 17/11 A3026 RMK AO2 SLP260
     T01670111=
KHNB 231656Z AUTO 18016G22KT 10SM CLR 23/12 A3009 RMK AO2 SLP185
     T02330117=
KISQ 231655Z AUTO 13007KT 10SM CLR 15/11 A2999 RMK AO2
     T01490107=
KJYM 231655Z AUTO 15012G17KT 10SM CLR 22/10 A3010 RMK AO2
     T02200096=
KMTN 231655Z 35004KT 10SM OVC050 17/11 A3025=
KOEB 231655Z AUTO 17010G18KT 140V200 10SM CLR 22/11 A3008 RMK AO2
     T02180111=
KRZT 231655Z AUTO 13007KT 10SM CLR 22/08 A3018 RMK AO2 PWINO=
KSJX 231655Z AUTO 16008G15KT 10SM CLR 21/11 A3001 RMK AO2
     T02120114=
KSQI 231656Z AUTO 16009G18KT 130V200 10SM CLR 22/13 A2983 RMK AO2
     SLP967 T02220133=
KUGN 231655Z 14011KT 10SM CLR 21/12 A2990 RMK AO2 SLP115
     T02060122=
K2DP 231655Z AUTO 33012KT 8SM -DZ OVC006 M A3004 RMK AO2
     RAE15DZB15 SLPNO ALSTG ESTMD P0001 $=
K3N8 231655Z AUTO 13010KT 10SM CLR 19/10 A2951 RMK AO2
     T01850098=
KCVN 231656Z AUTO 21015G21KT 10SM CLR 21/11 A2972 RMK AO2 PK WND
     21028/1627 SLP031 T02110106=
KDIJ 231656Z AUTO 31005KT 9SM -SN OVC026 M01/M04 A2972 RMK AO2
     SLP082 P0000 T10111044=
KEGE 231656Z 21008KT 10SM BKN047 OVC055 04/00 A2959 RMK AO2 SLP956
     T00440000=
KFNL 231656Z 06011KT 10SM CLR 19/M02 A2931 RMK AO2 SLP873
     T01941022=
KGUC 231656Z AUTO 21007G14KT 10SM -RA FEW011 BKN034 BKN045 02/01
     A2960 RMK AO2 RAE18B39UPB30E39 SLP981 P0000 T00220006
     FZRANO=
KLPC 231656Z AUTO VRB05KT 10SM CLR 16/08 A2992 RMK AO2 SLP133
     T01610078=
KLVS 231653Z AUTO 23032G48KT 10SM FEW065 16/M01 A2970 RMK AO2 PK
     WND 23056/1625 SLP958 T01611011=
KMRF 231656Z AUTO 17011KT 10SM CLR 24/08 A2996 RMK AO2 SLP091
     T02390078=
KPRX 231656Z AUTO 18019G25KT 10SM BKN032 27/17 A2989 RMK AO2 PK
     WND 18026/1558 SLP118 T02670172=
KPVU 231656Z 31022G27KT 10SM SCT016 BKN110 04/01 A2974 RMK AO2 PK
     WND 31030/1641 SLP072 T00440006=
KPWG 231656Z AUTO RMK AO2 SLPNO PWINO FZRANO $=
KSDY 231656Z AUTO 03011KT 10SM OVC009 07/05 A2948 RMK AO2 SLP994
     T00670050 PNO $=
KSGU 231656Z AUTO 28014KT 10SM CLR 11/M02 A2983 RMK AO2 SLP090
     T01061022=
KSKX 231656Z AUTO 23027G36KT 10SM -RA BKN065 OVC075 12/M01 A2968
     RMK AO2 PK WND 21036/1649 RAB51 SLP004 P0000 T01221006=
KVIS 231656Z AUTO 32010KT 10SM CLR 14/03 A2995 RMK AO2 SLP149
     T01390028=
KSGH 231656Z AUTO 18009G16KT 10SM FEW050 23/11 A3016 RMK AO2
     SLP211 T02330106=
KTDR 231655Z AUTO 10004KT 10SM CLR 26/08 A3012 RMK AO2 SLP203
     T02630083 $=
KTTS 231655Z AUTO 01011G18KT 10SM CLR 26/16 A3010 RMK AO2 VIS 5/8
     RWY15/33 SLP197 T02570157 $=
KNFE 231656Z AUTO 34006KT 1 1/4SM +RA BR OVC003 17/15 A3013 RMK
     AO2 RAB21 SLP204 P0019 T01670150=
