SAUS70 KWBC 231640 RRA
METAR
KBVI 231635Z AUTO 11003KT 10SM CLR 21/02 A3024 RMK AO2
     T02090018=
KBWP 231635Z AUTO 14020G27KT 10SM CLR 20/11 A2941 RMK AO2=
KCDA 231635Z AUTO 13004KT 10SM 17/05 A3037 RMK AO2 T01680052=
KCNB 231635Z AUTO 10018G23KT 10SM CLR 20/12 A2942 RMK AO2
     T02010115=
KCVX 231635Z AUTO 15006G10KT 10SM CLR 22/12 A3001 RMK AO2
     T02150119=
KGWR 231635Z AUTO 11014KT 9SM CLR 14/09 A2941 RMK A01=
KIFA 231635Z AUTO 15019G27KT 10SM CLR 23/14 A2960 RMK AO2
     T02250140=
KISQ 231635Z AUTO 12009KT 10SM CLR 15/11 A2999 RMK AO2
     T01460107=
KMDS 231635Z AUTO 14021G28KT 10SM CLR 19/14 A2934 RMK AO2=
KMOX 231635Z AUTO 13021G26KT 10SM CLR 20/09 A2945 RMK AO2=
KMWM 231635Z AUTO 14019G26KT 10SM CLR 20/12 A2947 RMK AO2=
KOEB 231635Z AUTO 15011G15KT 10SM CLR 22/11 A3009 RMK AO2
     T02150111=
KONZ 231635Z AUTO 19005KT 10SM SCT110 16/07 A3016 RMK AO2
     T01600070=
KRMY 231635Z AUTO 15008KT 10SM CLR 21/11 A3008 RMK AO2
     T02130114=
KRQB 231635Z AUTO 16013G19KT 10SM SCT060 SCT075 21/11 A3004 RMK
     AO2 T02060112=
KRVL 231635Z AUTO 00000KT 9SM CLR 15/06 A3029 RMK AO2=
KRYV 231635Z AUTO 15012KT 10SM CLR 21/11 A2986 RMK AO2
     T02070108=
KS24 231635Z AUTO VRB06KT 10SM CLR 24/11 A3015 RMK AO2=
KSLH 231635Z AUTO 15008G14KT 120V190 10SM CLR 21/12 A3004 RMK
     AO2=
KTME 231635Z AUTO 17015G21KT 10SM FEW044 SCT049 BKN060 29/17 A2997
     RMK AO2=
KTNU 231635Z AUTO 17019G27KT 10SM CLR 24/14 A2961 RMK A01=
KTTF 231635Z AUTO 17008KT 10SM CLR 21/10 A3014 RMK AO2
     T02100099=
KVLL 231635Z AUTO 16007G15KT 10SM CLR 22/10 A3017 RMK AO2
     T02200103=
KVWU 231635Z AUTO 13006KT 10SM CLR 21/11 A2960 RMK AO2=
K0CO 231635Z AUTO 29020G36KT M1/4SM SN OVC002 M05/M05 A2962 RMK
     AO2=
K13K 231635Z AUTO 18025G33KT 10SM CLR 26/15 A2963 RMK AO2
     T02610147=
K1F0 231635Z AUTO 18016G23KT 10SM SCT026 25/17 A2980 RMK AO2
     T02510171=
K2J3 231635Z AUTO 08007KT 030V100 10SM CLR 23/11 A3021 RMK AO2
     T02260113=
K2V5 231635Z AUTO 22028G36KT 10SM CLR 25/M04 A2925 RMK AO2=
K3F3 231635Z AUTO 16016G24KT 10SM CLR 28/15 A3003 RMK AO2
     T02750153=
K57C 231635Z AUTO 15014G18KT 10SM CLR 21/12 A2988 RMK AO2
     T02060118=
K5M9 231635Z AUTO 19015G22KT 160V220 10SM CLR 24/11 A3006 RMK AO2
     T02400105=
K7BM 231635Z AUTO 31006KT 1/4SM -SN OVC002 00/00 A2957 RMK AO2=
K81R 231635Z AUTO 19012G21KT 10SM OVC029 24/17 A2989 RMK AO2
     T02380168=
K9D7 231635Z AUTO 06017KT 10SM OVC010 08/06 A2954 RMK AO2 TSNO=
KBPG 231635Z AUTO 19017G20KT 10SM CLR 24/13 A2980 RMK AO2
     T02420135=
KBVN 231635Z AUTO 17016G24KT 10SM CLR 23/09 A2931 RMK AO2
     T02250090 PWINO=
KC07 231635Z AUTO 27006KT 3/4SM BR OVC001 M03/M03 A2958 RMK
     AO2=
KC35 231635Z AUTO 14009G15KT 10SM CLR 20/12 A2980 RMK AO2
     T02010119 PWINO=
KCBK 231635Z AUTO 21030G36KT 7SM CLR 26/07 A2934 RMK AO2
     T02590067=
KCFD 231635Z AUTO 17013G18KT 10SM BKN028 BKN034 OVC050 26/19 A2995
     RMK AO2 T02610187=
KCFS 231635Z AUTO 16008KT 10SM CLR 22/11 A3012 RMK AO2
     T02230106=
KCKN 231635Z AUTO 09004KT 10SM CLR 17/08 A2951 RMK AO2=
KCQF 231635Z AUTO 00000KT 10SM CLR 23/10 A3017 RMK AO2=
KCQM 231637Z AUTO 14008KT 10SM CLR 19/09 A2968 RMK AO2=
KDUC 231635Z AUTO 18019G30KT 10SM CLR 25/17 A2977 RMK AO2
     T02480168=
KDZJ 231635Z AUTO 14003KT 7SM CLR 19/02 A3026 RMK AO2
     T01860018=
KE42 231635Z AUTO 22025G32KT 10SM CLR 27/10 A2960 RMK AO2
     T02720096=
KEBA 231635Z AUTO 08003KT 10SM CLR 21/05 A3023 RMK AO2
     T02100050=
KEBG 231635Z AUTO 17016G26KT 10SM CLR 30/20 A2987 RMK AO2
     T02970196 PWINO=
