SAUS70 KWBC 232100 RRN
METAR
KPTV 232056Z AUTO 00000KT 10SM CLR 18/03 A2993 RMK AO2 SLP135
     T01830028 58012=
KPVC 232056Z AUTO 03009KT 9SM -RA BKN032 BKN042 OVC050 14/13 A3030
     RMK AO2 RAB04 SLP260 P0002 60002 T01390128 55008=
KPVG 232056Z AUTO VRB05KT 10SM OVC006 14/14 A3012 RMK AO2 RAE1959
     SLP199 6//// T01440144 55005 PNO $=
KPVU 232056Z 33016G24KT 10SM FEW027 BKN039 BKN065 06/M01 A2985 RMK
     AO2 SLP106 T00561011 51025=
KPWG 232056Z AUTO 17018G30KT 10SM BKN055 31/17 A2978 RMK AO2 PK
     WND 15033/2031 SLPNO 6//// T03060167=
KPWT 232056Z AUTO 22004KT 10SM FEW008 09/07 A3017 RMK AO2 SLP221
     T00940072 50007=
KRKD 232056Z AUTO 00000KT 10SM CLR 13/12 A3036 RMK AO2 SLP279
     T01330122 58003=
KRMY 232055Z AUTO 17013G18KT 10SM CLR 23/10 A3002 RMK AO2
     T02320099=
KRNP 232055Z AUTO 15013G18KT 10SM SCT060 A3004 RMK AO2 6////=
KRQB 232055Z AUTO 18014G23KT 10SM SCT055 24/10 A2997 RMK AO2
     T02360104=
KRUT 232056Z AUTO 14007KT 10SM CLR 17/03 A3031 RMK AO2 SLP260
     T01720033 56003 $=
KRZT 232055Z AUTO 14007KT 10SM CLR 24/03 A3010 RMK AO2 PWINO=
KAXN 232053Z AUTO 12022G39KT 10SM CLR 23/12 A2940 RMK AO2 PK WND
     12039/2009 SLP951 T02330117 56024=
KBDE 232053Z AUTO 11015G23KT 10SM FEW070 24/11 A2952 RMK AO2
     SLP997 T02440111 56027=
KBKL 232053Z 11008KT 10SM CLR 24/07 A3010 RMK AO2 SLP192 T02440067
     58016=
KBRD 232053Z AUTO 10010G20KT 070V140 10SM CLR 23/12 A2948 RMK AO2
     PK WND 14030/1958 SLP983 T02280122 56026=
KBWI 232054Z 02009KT 350V080 9SM -RA OVC029 18/10 A3019 RMK AO2
     RAB50 SLP222 P0000 60000 T01780100 56006 $=
KCDW 232053Z 06009KT 10SM BKN060 BKN080 OVC095 17/07 A3024 RMK AO2
     SLP247 T01670072 58010=
KGFK 232053Z 11015G24KT 10SM CLR 25/12 A2936 RMK AO2 SLP942
     T02500117 56038 $=
KGRI 232053Z 19020G33KT 9SM BKN037 31/08 A2924 RMK AO2 PK WND
     21039/2007 SLP888 T03060083 56017 $=
KHIB 232053Z AUTO 12015G23KT 10SM CLR 21/12 A2959 RMK AO2 PK WND
     12026/1955 SLP027 T02110117 56019=
KHYR 232053Z AUTO 16015G26KT 10SM FEW046 23/13 A2963 RMK AO2 PK
     WND 14027/2025 SLP032 T02330128 56019=
KLSE 232053Z 15021G29KT 10SM CLR 26/13 A2961 RMK AO2 PK WND
     17033/2024 SLP016 T02560128 56021 $=
KMSP 232053Z 15024G39KT 10SM FEW045 25/12 A2949 RMK AO2 PK WND
     14041/2042 SLP982 T02500122 56024=
KZZV 232053Z AUTO 15007KT 10SM CLR 23/08 A3013 RMK AO2 SLP199
     T02330083 56018=
KBFI 232053Z 25005KT 10SM BKN015 BKN024 12/07 A3018 RMK AO2 SLP218
     T01170067 51010=
KBKE 232053Z AUTO 34014G19KT 10SM SCT080 08/M02 A3006 RMK AO2
     SLP194 T00781022 51012=
KBPI 232053Z AUTO 34022G33KT 10SM CLR 03/M10 A2967 RMK AO2 PK WND
     35036/2036 SLP032 T00331100 53015=
KBRO 232053Z 14021G31KT 10SM BKN037 OVC046 31/22 A2980 RMK AO2 PK
     WND 17034/2039 SLP089 T03110217 56019=
KBYI 232053Z AUTO 27014G21KT 10SM SCT042 BKN050 07/M03 A2986 RMK
     AO2 PK WND 29028/1958 SLP113 T00671028 51008=
KPRC 232053Z 27018G25KT 10SM BKN060 BKN075 14/M01 A2981 RMK AO2
     WSHFT 2021 SLP039 T01441006 58012=
KPSC 232053Z 34004KT 10SM CLR 15/M02 A3011 RMK AO2 SLP195
     T01501022 53011 $=
KPUW 232053Z AUTO 27010KT 10SM SCT022 OVC039 06/02 A3007 RMK AO2
     SLP197 T00610017 53016 $=
KRBG 232053Z AUTO 29003KT 10SM FEW050 12/04 A3020 RMK AO2 SLP230
     T01220039 58000=
KSAC 232053Z 32020G27KT 10SM CLR 22/M03 A2994 RMK AO2 PK WND
     32027/2053 SLP139 T02171028 58013=
KSFF 232053Z 23004KT 10SM SCT034 BKN055 09/01 A3005 RMK AO2 SLP182
     T00940006 51010=
KSNS 232053Z 29013KT 10SM CLR 19/03 A2996 RMK AO2 SLP154 T01890033
     58012=
