SAUS70 KWBC 232100
METAR
KPOC 232047Z 27003KT 10SM SCT022 A2985=
KFMH 232045Z 04013KT 3SM RA BR SCT006 BKN024 OVC029 143/13
     A3027=
TJBQ 232050Z 08009KT 10SM SCT025 SCT050 SCT070 28/23 A2990 RMK LTG
     DSNT SE AND S=
KFMH 232045Z 04013KT 3SM RA BR SCT006 BKN024 OVC029 143/13
     A3027=
KATW 232045Z 13015G23KT 10SM CLR 19/12 A2979=
KBAK 232050Z 16018G25KT 10SM CLR 25/08 A3003=
KCGF 232045Z 15006KT 10SM SCT150 23/06 A3013=
KCWA 232047Z 12015G22KT 10SM SCT046 21/12 A2975=
KEFT 232055Z AUTO 17022G28KT 10SM BKN042 24/13 A2975 RMK AO2
     T02400130=
KETB 232055Z AUTO 13011KT 10SM CLR 20/13 A2982 RMK AO2=
KEZS 232055Z AUTO 12009G17KT 10SM CLR 22/14 A2980 RMK AO2
     T02230138=
KFDK 232047Z 05008KT 10SM OVC050 18/11 A3022=
KFMH 232045Z 04013KT 3SM RA BR SCT006 BKN024 OVC029 143/13
     A3027=
KFRH 232055Z AUTO 19008KT 161V221 10SM CLR 25/06 A3002 RMK AO1=
KJVL 232045Z 16019G24KT 10SM SCT090 BKN120 25/10 A2977=
KMMU 232045Z 04007KT 10SM SCT045 OVC060 17/12 A3024=
KMWC 232045Z 13008G15KT 10SM CLR 22/11 A2982=
KOIC 232055Z AUTO 18003KT 10SM CLR 17/10 A3029 RMK AO2
     T01720102=
KPBH 232055Z AUTO 16014G19KT 130V190 10SM SCT047 22/13 A2969 RMK
     AO2 T02160127=
KPDC 232055Z AUTO 15010G19KT 10SM CLR 25/12 A2963 RMK AO2
     T02450118=
KRRL 232055Z AUTO 14013G20KT 10SM BKN044 23/13 A2973 RMK AO2
     T02260129 TSNO=
KSAW 232047Z 17015G23KT 10SM CLR 18/11 A2988=
KSUW 232055Z AUTO 06013G21KT 10SM BKN050 13/09 A2963 RMK AO2
     T01320093=
KUES 232045Z 12008G20KT 10SM CLR 22/13 A2981=
KUNU 232055Z AUTO 14015G20KT 10SM SCT120 23/13 A2979 RMK AO2
     T02280134=
KVNW 232055Z AUTO 17010G15KT 10SM CLR 25/07 A3006 RMK AO2=
K1S5 232055Z AUTO 00000KT 10SM CLR 14/01 A3010 RMK AO2
     T01380005=
KADS 232047Z 17022G29KT 13SM FEW050 29/13 A2975 RMK LLWS=
KAEG 232047Z 29021G28KT 10SM BKN075 15/03 A2972=
KBJC 232047Z 33010KT 10SM VCSH BKN080 BKN120 18/M03 A2935=
KCHD 232047Z 24006G15KT 10SM CLR 24/07 A2975=
KEMT 232045Z 19007KT 10SM SCT050 22/08 A2983=
KFWS 232048Z 16022G30KT 10SM FEW050 30/14 A2977=
KGYI 232050Z 16019G29KT 10SM SKC 29/14 A2975=
KGYR 232047Z 24009KT 10SM BKN070 24/08 A2974=
KHOB 232050Z 22022G31KT 10SM SKC 28/07 A2968=
KIFP 232049Z 35012KT 10SM FEW150 22/M10 A2979=
KJXI 232055Z AUTO 16009G21KT 10SM SCT055 28/12 A2985 RMK AO2
     T02820120=
KMCJ 232055Z AUTO 17018G28KT 10SM FEW055 28/14 A2987 RMK A01=
KPAO 232047Z 32013G16KT 10SM SKC 20/02 A2998=
KSBA 232053Z 22006KT 10SM CLR 22/09 A2985=
KSEE 232047Z VRB06KT 10SM BKN046 19/09 A2985=
KTRK 232045Z 02013G18KT 10SM CLR 06/M08 A3002=
KWHP 232050Z 28016G25KT 10SM SKC 22/M04 A2986 RMK OBSERVER HT=
K2C8 232055Z AUTO 02011KT 9SM CLR 18/09 A2944 RMK AO2=
KCLK 232055Z AUTO 17020G29KT 10SM CLR 26/12 A2960 RMK AO2=
KD50 232055Z AUTO 03014KT 10SM OVC012 05/03 A2953 RMK AO2=
KDAG 232050Z AUTO 00000KT 10SM CLR 19/M08 A2986 RMK AO2 SLP095
     T01941078 58007=
KFRR 232055Z AUTO 00000KT 10SM OVC040 17/08 A3021 RMK AO1=
KLQK 232055Z AUTO 10SM CLR A3015 RMK AO2=
KMPV 232051Z AUTO 00000KT 10SM CLR 18/05 A3035 RMK AO2 SLP282
     T01830050 56006=
KOCF 232051Z 05004KT 10SM CLR 28/13 A3008 RMK AO2 SLP187 6////
     T02780128 55011 PNO $=
KOXC 232051Z 04007KT 10SM BKN050 BKN095 13/08 A3028 RMK AO2 SLP268
     60000 T01280078 58001=
KRHV 232050Z 31010G16KT 10SM SKC 19/02 A2997=
KTPL 232051Z AUTO 17021G29KT 10SM FEW050 31/16 A2979 RMK AO2 PK
     WND 15031/2034 SLP075 6//// T03060161 56029=
KY51 232055Z AUTO 14016G22KT 10SM CLR 23/15 A2966 RMK AO1
     T02260145=
PAMD 232051Z AUTO 32018G24KT 10SM CLR 07/01 A2965 RMK AO2 PK WND
     32027/2040 SLP028 6//// T00720011 50000 PNO $=
