SAUS70 KWBC 231800 RRX
METAR
KHOB 231750Z 20017G24KT 10SM SKC 27/09 A2976=
