SAUS80 KWBC 231900
METAR
KCQT 231847Z AUTO 00000KT 10SM CLR 21/08 A2986 RMK AO2 SLP109
     T02060083=
KGNT 231855Z AUTO 30015G20KT 5SM -RA SCT018 BKN028 OVC034 10/06
     A2981 RMK AO2 T01000062=
KJDN 231848Z AUTO 33014KT 03/02 A2956 RMK AO1 SLP025 P0011
     T00330017=
KVCT 231851Z 16019G32KT 10SM CLR 30/19 A2987 RMK AO2 PK WND
     16032/1843 SLP111 T03000189=
KCDJ 231851Z AUTO 18015G28KT 29/14 A2959 RMK AO1 PK WND 17029/1817
     SLP005 T02890144=
KSNT 231851Z AUTO 32007G17KT 00/M08 A2988 RMK AO1 SLP107
     T00001078=
KALB 231851Z 31003KT 10SM FEW160 SCT200 BKN250 16/07 A3030 RMK AO2
     SLP262 T01610072=
KBDL 231851Z 35004KT 10SM FEW050 BKN110 OVC130 14/07 A3030 RMK AO2
     SLP261 T01390067=
KCON 231851Z AUTO 00000KT 10SM CLR 15/07 A3035 RMK AO2 SLP278
     T01500067=
KCRP 231851Z 13022G33KT 10SM FEW028 SCT036 BKN045 BKN170 BKN250
     30/22 A2984 RMK AO2 PK WND 13033/1851 SLP105 T03000217=
KEKN 231851Z AUTO 32006KT 10SM CLR 23/M01 A3020 RMK AO2 SLP233
     T02281006=
KELP 231851Z 24024G34KT 10SM FEW055 SCT075 BKN160 BKN210 27/08
     A2976 RMK AO2 PK WND 23035/1828 SLP005 T02720078=
KHSE 231851Z AUTO 35008G19KT 320V040 10SM OVC005 17/17 A3001 RMK
     AO2 LTG DSNT SW SLP161 T01720172 $=
KORF 231851Z 35020G26KT 4SM RA BR OVC008 15/15 A3006 RMK AO2 PK
     WND 36026/1848 PRESFR SLP179 P0006 T01500150=
KPVD 231851Z 01007KT 10SM -RA FEW070 SCT090 OVC130 14/12 A3030 RMK
     AO2 SLP261 P0001 T01390117=
KROW 231851Z 21022G32KT 10SM CLR 26/09 A2967 RMK AO2 PK WND
     22039/1754 SLP985 T02610094=
KSAD 231851Z AUTO 28015G24KT 10SM CLR 23/07 A2973 RMK AO2 PK WND
     31026/1836 SLP022 T02330067=
KSAT 231851Z 16018G25KT 10SM BKN047 BKN180 OVC250 29/17 A2985 RMK
     AO2 PK WND 17026/1752 SLP089 T02890167=
KGDP 231851Z AUTO 24040G52KT 9SM BKN065 23/08 A2981 RMK AO2 PK WND
     24058/1758 SLP018 T02280078=
KMYL 231851Z AUTO 30004KT 10SM SCT022 BKN039 OVC050 02/M04 A2992
     RMK AO2 SLP150 T00221044=
KOXR 231851Z 27007KT 10SM CLR 20/13 A2988 RMK AO2 SLP116
     T02000128=
KSAN 231851Z 17008KT 10SM BKN039 19/08 A2989 RMK AO2 SLP122
     T01940083=
KSMX 231851Z 32007KT 10SM CLR 19/06 A2992 RMK AO2 SLP134
     T01890056=
KSVE 231855Z AUTO 05006KT 10SM SCT060 M15/M27 A3008 RMK AO2=
KTEB 231851Z 01004KT 10SM BKN110 16/09 A3025 RMK AO2 RAE16 SLP244
     P0000 T01610094=
KVTN 231852Z AUTO 19008G15KT 10SM CLR 23/M01 A2916 RMK AO2 SLP859
     T02331006=
KYNG 231851Z VRB06KT 10SM FEW180 SCT250 22/04 A3019 RMK AO2 SLP221
     T02220039=
KABE 231851Z 07012KT 10SM FEW090 17/09 A3025 RMK AO2 SLP244
     T01670089 $=
KBKW 231851Z AUTO 00000KT 10SM CLR 21/01 A3020 RMK AO2 SLP208
     T02110006=
KCAK 231851Z 17008KT 10SM SCT250 24/06 A3017 RMK AO2 SLP213
     T02390056=
KHTS 231851Z VRB04KT 10SM CLR 25/06 A3015 RMK AO2 SLP205
     T02500056=
KIGM 231851Z AUTO 01009G18KT 10SM SCT070 16/M02 A2986 RMK AO2
     SLP059 T01561022=
KCRP 231851Z 13022G33KT 10SM FEW028 SCT036 BKN045 BKN170 BKN250
     30/22 A2984 RMK AO2 PK WND 13033/1851 SLP105 T03000217=
KELP 231851Z 24024G34KT 10SM FEW055 SCT075 BKN160 BKN210 27/08
     A2976 RMK AO2 PK WND 23035/1828 SLP005 T02720078=
KROW 231851Z 21022G32KT 10SM CLR 26/09 A2967 RMK AO2 PK WND
     22039/1754 SLP985 T02610094=
KSAT 231851Z 16018G25KT 10SM BKN047 BKN180 OVC250 29/17 A2985 RMK
     AO2 PK WND 17026/1752 SLP089 T02890167=
KVCT 231851Z 16019G32KT 10SM CLR 30/19 A2987 RMK AO2 PK WND
     16032/1843 SLP111 T03000189=
KALB 231851Z 31003KT 10SM FEW160 SCT200 BKN250 16/07 A3030 RMK AO2
     SLP262 T01610072=
KBDL 231851Z 35004KT 10SM FEW050 BKN110 OVC130 14/07 A3030 RMK AO2
     SLP261 T01390067=
