SACA32 KWBC 231600 RRA
METAR
TKPN 231600Z 09012KT 9999 FEW022 30/25 Q1013=
