SAPA31 KWBC 232000 RRF
METAR
PKMR 231952Z 08004KT 15SM FEW015 SCT050 BKN120 OVC300 27/24 A2987
     RMK SLP117 T02740238=
