SAUS70 KWBC 231626
METAR
K11R 231615Z AUTO 16010G21KT 10SM SCT060 27/19 A2994 RMK AO2
     T02690192=
K5SM 231614Z AUTO 1/2SM -SN OVC002 M04/M05 A2964 RMK AO2=
KANK 231610Z AUTO 20008G25KT 7SM SCT022 BKN035 OVC070 07/03 A2959
     RMK AO1 T00700027=
KBMC 231610Z AUTO 10SM SCT035 OVC090 04/M01 A2975 RMK AO1
     T00421011=
KBMT 231615Z AUTO 14009G14KT 10SM SCT037 BKN046 BKN060 28/17 A3001
     RMK AO2 T02750170=
KC99 231611Z AUTO 24007G17KT 10SM BKN110 02/M05 A2954 RMK AO2=
KDUX 231615Z AUTO 21023G29KT 10SM CLR 24/10 A2965 RMK AO2
     T02380097=
KEAN 231610Z AUTO 28011G17KT 10SM SCT060 SCT070 BKN085 11/M01
     A2938 RMK AO2 T01101009=
KETN 231615Z AUTO 18019G26KT 10SM CLR 24/15 A2982 RMK AO2
     T02440154=
KGLE 231615Z AUTO 18022G27KT 10SM SCT027 25/16 A2983 RMK AO2
     T02460159=
KGNB 231615Z AUTO 00000KT 10SM SCT012 BKN017 OVC031 03/02 A2954
     RMK AO2 T00260015=
KGNC 231615Z AUTO 22015G20KT 10SM CLR 25/10 A2982 RMK AO2
     T02510097=
KHBV 231610Z AUTO 18013G23KT 10SM CLR 26/17 A2988 RMK AO2
     T02570173=
KHSG 231610Z AUTO 01003KT 3SM -SN BKN008 OVC013 01/00 A2958 RMK
     AO2 P0001 T00060002=
KHVE 231615Z AUTO 00000KT 10SM SCT043 BKN060 OVC110 05/01 A2964
     RMK AO2=
KPVW 231610Z AUTO 22022G29KT 10SM CLR 24/11 A2971 RMK AO2
     T02360105 TSNO=
KSLR 231610Z AUTO 18014G24KT 10SM SCT032 25/17 A2992 RMK AO2
     T02520165=
KTXW 231610Z AUTO 17018G24KT 2 1/2SM HZ CLR 29/19 A2988 RMK AO2
     VIS 1V5 T02880191=
KJVY 231615Z AUTO 18012KT 10SM CLR 23/10 A3013 RMK AO2 PWINO=
KUKF 231615Z AUTO 00000KT 10SM CLR 17/05 A3030 RMK AO2=
KW63 231635Z AUTO 36005KT 10SM CLR 16/08 A3022 RMK AO1=
KAHQ 231610Z AUTO 18023G29KT 5SM HZ CLR 25/13 A2940 RMK AO2
     T02460125=
KCNC 231615Z AUTO 18021G27KT 10SM CLR 23/14 A2960 RMK AO2=
KDCY 231615Z AUTO 18014G19KT 10SM CLR 23/12 A3006 RMK AO2
     T02320116=
KDKB 231615Z AUTO 17019G22KT 10SM CLR 21/14 A2990 RMK AO2
     T02050138=
KDNS 231615Z AUTO RMK AO2 PNO PWINO=
KDNV 231615Z AUTO 17013G22KT 10SM CLR 23/12 A2999 RMK AO2
     T02330121=
KEBS 231615Z AUTO 15024G30KT 10SM CLR 22/14 A2953 RMK AO2=
KFEP 231615Z AUTO 16015KT 10SM CLR 21/14 A2986 RMK AO2
     T02090143=
KFFL 231615Z AUTO 17019G27KT 10SM CLR 23/12 A2970 RMK A01=
KGBG 231615Z AUTO 17015G21KT 10SM CLR 21/14 A2982 RMK AO2
     T02140140=
KIKV 231615Z AUTO 16016G21KT 10SM CLR 23/13 A2958 RMK AO2=
KJOT 231615Z AUTO 16014G17KT 10SM CLR 23/13 A2992 RMK AO2
     T02260131=
KJVY 231615Z AUTO 18012KT 10SM CLR 23/10 A3013 RMK AO2 PWINO=
KJYR 231615Z AUTO 18018G26KT 10SM CLR 24/12 A2935 RMK AO2=
KLOM 231615Z AUTO 07008KT 10SM SCT048 SCT070 OVC100 16/10 A3026
     RMK AO2 T01590100=
KLOT 231615Z AUTO 16019G24KT 10SM CLR 22/13 A2993 RMK AO2=
KLRJ 231615Z AUTO 16022G30KT 10SM CLR 22/14 A2935 RMK AO2=
KLXN 231615Z AUTO 20019G32KT 10SM CLR 25/05 A2926 RMK AO2
     T02520054=
KMGC 231615Z AUTO 17014G19KT 10SM CLR 21/12 A3000 RMK AO2=
KMPZ 231610Z AUTO 17017G23KT 10SM CLR 23/16 A2975 RMK AO2=
KMQS 231615Z AUTO 06003G11KT 10SM SCT046 15/09 A3027 RMK AO2=
KOGA 231615Z AUTO 00000KT 10SM CLR 18/00 A2922 RMK AO2
     T01770001=
KOGS 231615Z AUTO VRB04KT 10SM CLR 20/04 A3028 RMK AO2=
KOLZ 231615Z AUTO 16019G25KT 10SM CLR 21/13 A2970 RMK A01=
KONL 231615Z AUTO 17018G23KT 10SM CLR 20/06 A2926 RMK AO2
     T01990055=
KOOA 231615Z AUTO 17022G28KT 10SM CLR 23/17 A2966 RMK AO2
     T02320171=
KUYF 231615Z AUTO 20006KT 10SM CLR 22/08 A3019 RMK AO2=
KVES 231615Z AUTO 19006KT 10SM CLR 21/08 A3015 RMK AO2=
KEZS 231635Z AUTO 17006KT 10SM CLR 21/14 A2987 RMK AO2
     T02100136=
KMMH 231619Z AUTO 34012G17KT 10SM CLR 01/M08 A2992 RMK AO2=
