SAUS70 KWBC 231718 RRD
METAR
KAEL 231715Z AUTO 15020G25KT 10SM CLR 22/13 A2956 RMK AO2=
KBVI 231715Z AUTO 13004KT 10SM CLR 22/02 A3023 RMK AO2
     T02230024=
KCAD 231715Z AUTO 15011G15KT 10SM CLR 22/11 A3001 RMK AO2
     T02150109=
KCDA 231715Z AUTO 10003KT 10SM 18/06 A3036 RMK AO2 T01750056=
KCDI 231715Z AUTO 04005KT 10SM CLR 21/10 A3021 RMK AO2
     T02120099=
KCNB 231715Z AUTO 10019G25KT 10SM CLR 22/12 A2940 RMK AO2
     T02160116=
KCVX 231715Z AUTO 15011G16KT 10SM CLR 23/12 A3000 RMK AO2
     T02280118=
KD95 231715Z AUTO 19010KT 10SM CLR 23/07 A3013 RMK AO2
     T02300067=
KDTL 231715Z AUTO 12014G19KT 10SM CLR 19/10 A2949 RMK AO2=
KDUH 231715Z AUTO 16006KT 7SM CLR 23/09 A3013 RMK AO2
     T02260090=
KDYT 231715Z AUTO 06011KT 10SM OVC080 12/10 A2969 RMK AO2=
KEFK 231715Z AUTO 02003KT 10SM CLR 19/05 A3034 RMK AO2
     T01880054=
KFFX 231715Z AUTO 16010G15KT 140V210 10SM BKN050 BKN070 23/11
     A3000 RMK AO2 T02310110=
KFGN 231715Z AUTO 09005KT 10SM CLR 12/06 A2965 RMK AO2=
KFKA 231715Z AUTO 15019G24KT 7SM CLR 21/13 A2966 RMK AO2
     T02110125=
KFKS 231715Z AUTO 16009G15KT 10SM CLR 22/11 A2996 RMK AO2
     T02170114=
KFPK 231715Z AUTO 16015G23KT 10SM SCT055 23/10 A3005 RMK AO2
     T02270103=
KHAF 231715Z AUTO 33012KT 6SM HZ CLR 14/09 A3002 RMK AO2=
KHAI 231715Z AUTO 17013G18KT 10SM CLR 23/12 A3004 RMK AO2
     T02320115=
KHZL 231715Z AUTO 08003KT 10SM OVC032 16/08 A3031 RMK AO2=
KI23 231715Z AUTO 18005KT 10SM CLR 22/09 A3017 RMK AO1=
KIRS 231715Z AUTO 18015G18KT 10SM CLR 23/10 A3005 RMK AO2
     T02260099=
KISQ 231715Z AUTO 13009KT 10SM CLR 16/11 A2998 RMK AO2
     T01560111=
KJYM 231715Z AUTO 18013G19KT 10SM CLR 22/09 A3010 RMK AO2
     T02200091=
KLWA 231715Z AUTO 17011G17KT 10SM SCT060 SCT070 24/12 A2999 RMK
     AO2 T02360120=
KMCD 231715Z AUTO 16007G14KT 120V190 10SM CLR 20/12 A3003 RMK AO2
     T02010115=
KMOX 231715Z AUTO 13023G27KT 10SM CLR 21/09 A2943 RMK AO2=
KMWM 231715Z AUTO 14021G30KT 10SM CLR 21/12 A2945 RMK AO2=
KOEB 231715Z AUTO 18011G15KT 10SM CLR 22/11 A3008 RMK AO2
     T02230112=
K20U 231715Z AUTO 04011KT 8SM OVC010 06/05 A2943 RMK AO2=
KACQ 231715Z AUTO 14021G26KT 10SM CLR 21/12 A2958 RMK AO2=
KAXV 231715Z AUTO 17012G17KT 10SM CLR 22/10 A3013 RMK AO2=
KBDH 231715Z AUTO 14022G29KT 10SM CLR 22/12 A2950 RMK AO2=
KCFE 231715Z AUTO 13016KT 10SM CLR 22/12 A2955 RMK AO2=
KCOQ 231715Z AUTO 08007KT 10SM BKN070 15/09 A2967 RMK AO2 TSNO=
KD25 231715Z AUTO 15012G17KT 10SM SCT100 19/12 A2980 RMK AO2
     T01890117=
KDLZ 231715Z AUTO 16006KT 10SM CLR 21/10 A3018 RMK AO2=
KEDJ 231715Z AUTO 19011KT 10SM CLR 22/11 A3016 RMK A01=
KELO 231715Z AUTO 14009KT 10SM CLR 19/09 A2971 RMK AO2=
KFFM 231715Z AUTO 12015G18KT 10SM CLR 21/11 A2944 RMK AO2=
KFSE 231715Z AUTO 13006KT 10SM CLR 21/09 A2951 RMK AO2=
KLDM 231715Z AUTO 19015KT 10SM CLR 23/11 A2995 RMK AO2
     T02300110=
KLNL 231715Z AUTO 15011G16KT 130V190 10SM CLR 20/11 A2985 RMK AO2
     T02010109=
KMCX 231735Z AUTO 17010G21KT 10SM SCT070 24/12 A3000 RMK AO2
     T02410116=
KMGN 231715Z AUTO 16010G17KT 10SM CLR 22/11 A3002 RMK AO2
     T02300113=
KMVE 231715Z AUTO 14021G29KT 10SM CLR 21/12 A2942 RMK AO2=
KOZW 231715Z AUTO 14012G15KT 10SM CLR 21/12 A3011 RMK AO2
     T02050118=
KRCX 231715Z AUTO 14013G17KT 10SM CLR 20/15 A2975 RMK AO2
     T02020150=
KSAZ 231715Z AUTO 13009G14KT 10SM CLR 21/11 A2953 RMK AO2=
KSGS 231715Z AUTO 15011G18KT 10SM CLR 22/12 A2960 RMK AO2
     T02150115=
KTWM 231715Z AUTO 08007KT 10SM SCT090 17/10 A2970 RMK AO2=
KVVV 231715Z 14019G29KT 10SM 20/13 A2939 RMK AO2=
KY19 231715Z AUTO 08015KT 10SM CLR 11/05 A2934 RMK AO2=
