SAUS70 KWBC 231906
METAR
KGAF 231915Z AUTO 06011G19KT 9SM CLR 17/08 A2947 RMK AO2=
KW63 231915Z AUTO 33003KT 10SM SCT027 20/09 A3017 RMK AO1=
KEZS 231915Z AUTO 13013G18KT 10SM CLR 23/14 A2982 RMK AO2
     T02300140=
