SAUS80 KWBC 231700 RRA
METAR
KALB 231651Z 00000KT 10SM FEW180 OVC250 16/07 A3034 RMK AO2 SLP273
     T01560067=
KYNG 231651Z 12008KT 10SM FEW200 SCT250 21/04 A3023 RMK AO2 SLP235
     T02060044=
KABE 231651Z 06009KT 10SM BKN050 OVC100 16/07 A3027 RMK AO2 SLP252
     T01560072 $=
KBKW 231651Z AUTO VRB03KT 10SM CLR 19/02 A3025 RMK AO2 SLP227
     T01940017=
KCAK 231651Z 13003KT 10SM FEW250 20/07 A3022 RMK AO2 SLP230
     T02000067=
KCON 231651Z AUTO 36005KT 10SM CLR 14/06 A3036 RMK AO2 SLP284
     T01390056=
KHTS 231651Z 00000KT 10SM CLR 23/06 A3020 RMK AO2 SLP222
     T02280061=
KPVD 231651Z 03007KT 10SM SCT090 SCT110 OVC140 15/11 A3033 RMK AO2
     SLP270 T01500106=
KTEB 231651Z 02005KT 10SM -RA FEW060 SCT070 BKN110 16/08 A3026 RMK
     AO2 DZE28RAB48 SLP247 P0000 T01560078=
KBDL 231651Z 02005KT 10SM FEW050 BKN170 OVC200 14/06 A3033 RMK AO2
     SLP272 T01390061=
KEKN 231651Z AUTO 36004KT 10SM CLR 19/03 A3025 RMK AO2 SLP249
     T01940028=
KCID 231652Z 16019G29KT 10SM CLR 23/13 A2969 RMK AO2 PK WND
     16032/1639 SLP048 T02330128 $=
KNYC 231651Z AUTO VRB06KT 10SM -RA OVC120 14/08 A3029 RMK AO2
     RAB07 SLP247 P0000 T01440083 $=
KP68 231653Z AUTO 36010KT M02/M03 A2991 RMK AO1 SLP133 P0001
     T10171028=
KNUI 231653Z AUTO BKN017 BKN050 19/12 A3016 RMK AO2 SLP213
     T01890122=
KSDB 231653Z AUTO 10SM CLR 07/M01 A2994 RMK AO2 SLP116 T00721011
     $=
KMWT 231653Z AUTO VRB06G19KT 10SM OVC026 23/16 A2994 RMK AO2
     SLP127 T02280161=
KFAR 231653Z AUTO 11014KT 10SM CLR 19/10 A2944 RMK AO2 SLP972
     T01940100 TSNO $=
KDRA 231653Z AUTO 02012KT 10SM CLR 12/M07 A2988 RMK AO2 SLP097
     T01171072=
KGRR 231653Z 16016KT 10SM FEW055 SCT070 SCT200 BKN250 23/12 A3004
     RMK AO2 SLP168 T02280117 $=
KHLC 231653Z AUTO 21021G34KT 7SM BKN032 28/11 A2934 RMK AO2 PK WND
     18034/1631 SLP912 T02830106=
KHVR 231653Z AUTO 01012G23KT FEW009 BKN018 OVC023 02/01 A2971 RMK
     AO2 SLP082 T00170006 $=
KRNM 231653Z VRB04KT 10SM OVC032 14/10 A2989 RMK AO2 SLP113
     T01440100=
KRQE 231653Z AUTO 26017G28KT 6SM -RA FEW020 OVC039 06/02 A2977 RMK
     AO2 PK WND 25040/1607 SLP010 P0000 T00610022 $=
KSDM 231653Z 23005KT 10SM BKN036 17/10 A2989 RMK AO2 SLP118
     T01720100=
KTCS 231653Z AUTO 20017G29KT 10SM CLR 19/04 A2978 RMK AO2 PK WND
     19029/1648 SLP014 T01940039=
KTLH 231653Z AUTO VRB05KT 10SM CLR 24/06 A3017 RMK AO2 SLP214
     T02390061=
KBTR 231653Z 14010KT 10SM OVC047 27/16 A3009 RMK AO2 SLP187
     T02670156 $=
KCDR 231653Z AUTO 31012G24KT 10SM CLR 13/03 A2928 RMK AO2 PK WND
     29026/1641 SLP913 T01330028=
KCLL 231653Z 18015G31KT 10SM SCT035 SCT047 BKN055 27/18 A2993 RMK
     AO2 PK WND 16031/1645 SLP129 T02670178=
KEMP 231653Z AUTO 19027G40KT 10SM CLR 27/14 A2958 RMK AO2 PK WND
     18046/1601 SLP005 T02670139=
KFMN 231653Z 29016G26KT 10SM SCT018 BKN040 OVC060 07/02 A2973 RMK
     AO2 PK WND 29028/1628 RAE01 SLP035 P0000 T00670022=
KFNB 231653Z AUTO 18019G33KT 10SM CLR 27/14 A2949 RMK AO2 PK WND
     17041/1559 SLP976 T02670139=
KGCC 231653Z AUTO 3/4SM -SN VV016 01/ A2945 RMK AO2 SLP971 P0005
     T0006 $=
KTCS 231653Z AUTO 20017G29KT 10SM CLR 19/04 A2978 RMK AO2 PK WND
     19029/1648 SLP014 T01940039=
KCRQ 231653Z 09007KT 10SM BKN044 18/10 A2987 RMK AO2 SLP111
     T01780100=
KCUT 231653Z AUTO 28007KT 10SM SCT120 15/00 A2931 RMK AO2 SLP878
     T01500000=
KDAB 231653Z 02011KT 10SM FEW017 SCT031 27/16 A3013 RMK AO2 SLP202
     T02670161=
KDAL 231653Z 17018G29KT 10SM FEW032 SCT038 BKN250 26/17 A2985 RMK
     AO2 PK WND 17035/1622 SLP103 T02610167=
