SAUS70 KWBC 232138 RRJ
METAR
KTVY 232135Z AUTO 00000KT 10SM BKN060 OVC075 05/00 A2988 RMK
     AO2=
KU42 232135Z AUTO 29011G16KT 4SM OVC039 03/00 A2987 RMK AO1
     T00270002=
K3N8 232135Z AUTO 12014G28KT 10SM CLR 22/12 A2939 RMK AO2
     T02210116=
K6L4 232135Z AUTO 00000KT 10SM CLR 23/04 A3014 RMK AO2=
K96D 232135Z AUTO 03012G18KT 10SM CLR 16/09 A2947 RMK AO2=
KACB 232135Z AUTO 15008G16KT 10SM OVC060 24/11 A2995 RMK AO2
     T02350112=
KAXV 232135Z AUTO 15010KT 10SM CLR 23/08 A3006 RMK AO2=
KBBB 232135Z AUTO 17020G28KT 10SM CLR 24/12 A2934 RMK AO2=
KCAD 232135Z AUTO 14012G16KT 10SM SCT050 22/10 A2997 RMK AO2
     T02160101=
KDYT 232135Z AUTO 06016KT 10SM BKN055 11/10 A2961 RMK AO2=
KEFK 232135Z AUTO 00000KT 10SM CLR 15/05 A3031 RMK AO2
     T01510054=
KEKM 232135Z AUTO 17015G20KT 9SM CLR 24/11 A2997 RMK AO2
     T02400106=
KFFX 232135Z AUTO 16012G18KT 130V190 10SM CLR 25/11 A2994 RMK AO2
     T02450105=
KFPK 232135Z AUTO 15008KT 10SM CLR 23/09 A3001 RMK AO2
     T02270091=
KHAI 232135Z AUTO 16014G22KT 10SM CLR 24/10 A2999 RMK AO2
     T02360104=
KHZE 232135Z AUTO 03012G19KT 10SM OVC038 12/06 A2936 RMK AO2=
KHZL 232135Z AUTO 00000KT 10SM SCT120 16/09 A3029 RMK AO2=
KI69 232135Z AUTO 15006KT 10SM CLR 24/07 A3009 RMK AO2
     T02400068=
KJYM 232135Z AUTO 16011G17KT 10SM CLR 22/07 A3004 RMK AO2
     T02200070=
KLWA 232135Z AUTO 16010G22KT 10SM CLR 25/11 A2993 RMK AO2
     T02500106=
KMCD 232135Z AUTO 11006KT 10SM BKN080 15/10 A2998 RMK AO2
     T01480096=
KMDS 232135Z AUTO 16021G27KT 10SM CLR 26/12 A2924 RMK AO2=
KMQJ 232135Z AUTO RMK AO1=
KOEO 232135Z AUTO 12021G26KT 10SM CLR 25/15 A2955 RMK AO2
     T02480152=
KPJC 232135Z AUTO RMK AO2 TSNO PWINO=
KRNP 232135Z AUTO 15009G15KT 10SM CLR 23/08 A3003 RMK AO2
     T02330081=
KRUG 232135Z AUTO 06025G32KT 10SM CLR 12/07 A2938 RMK AO2=
KS25 232135Z AUTO 36014KT 10SM OVC015 07/06 A2946 RMK AO2=
KVWU 232135Z AUTO 12015G20KT 10SM CLR 24/13 A2949 RMK AO2=
K06D 232135Z AUTO 03022G27KT 10SM OVC018 09/07 A2947 RMK AO2=
K22N 232135Z AUTO 00000KT 10SM OVC050 16/08 A3025 RMK AO2=
K2P2 232135Z AUTO 18011G17KT 10SM BKN110 17/12 A2988 RMK AO2
     T01720122=
K5H4 232135Z AUTO 06020KT 9SM CLR 15/02 A2936 RMK AO2=
K6B0 232135Z AUTO 00000KT 10SM CLR 15/09 A3030 RMK AO2
     T01490085=
K82C 232135Z AUTO 14016G22KT 10SM CLR 23/14 A2968 RMK AO2
     T02300135=
K9D7 232135Z AUTO 05017G28KT 10SM CLR 14/09 A2943 RMK AO2 TSNO=
KAIG 232135Z AUTO 12017G22KT 10SM BKN040 19/12 A2979 RMK AO2
     T01940124=
KCFJ 232135Z AUTO 18013G19KT 10SM CLR 23/06 A2996 RMK AO2
     T02250060=
KCNB 232135Z AUTO 10018G29KT 10SM CLR 25/12 A2930 RMK AO2
     T02520115=
KCVX 232135Z AUTO 14007G15KT 120V180 10SM OVC060 23/11 A2995 RMK
     AO2 T02250114=
KD57 232135Z AUTO 04012G18KT 10SM OVC032 12/04 A2932 RMK AO2=
KD95 232135Z AUTO 14009KT 10SM CLR 24/04 A3007 RMK AO2
     T02350043=
KDUH 232135Z AUTO 16008KT 10SM CLR 24/07 A3006 RMK AO2
     T02350071=
KEDJ 232135Z AUTO 19009KT 10SM CLR 23/09 A3009 RMK A01=
KFKA 232135Z AUTO 16016G30KT 7SM CLR 23/13 A2960 RMK AO2
     T02260128=
KFKS 232135Z AUTO 17009G16KT 10SM BKN060 24/12 A2990 RMK AO2
     T02410122=
KI23 232135Z AUTO 19009KT 10SM CLR 23/05 A3009 RMK AO1=
KIDI 232135Z AUTO 16004KT 10SM CLR 19/00 A3024 RMK A01=
KLXL 232135Z AUTO 12013G24KT 10SM SCT048 23/13 A2945 RMK AO2=
KMOX 232135Z AUTO 14026G35KT 10SM CLR 23/09 A2933 RMK AO2=
KN38 232135Z AUTO 21008KT 10SM CLR 17/09 A3025 RMK AO2=
KOEB 232135Z AUTO 17008G16KT 10SM CLR 23/10 A3001 RMK AO2
     T02290096=
KY19 232135Z AUTO 05008G15KT 10SM BKN042 17/10 A2928 RMK AO2=
