SAUS70 KWBC 232022 RRC
METAR
KPPO 232015Z AUTO 17011G19KT 10SM CLR 25/15 A2993 RMK AO2
     T02530151=
KPRG 232015Z AUTO 17022G35KT 10SM CLR 25/12 A2994 RMK AO2
     T02530123=
KRPJ 232015Z AUTO 18024G29KT 10SM SCT044 25/16 A2979 RMK AO2
     T02450156 TSNO=
KRSV 232015Z AUTO 17019G26KT 10SM SCT060 26/11 A2996 RMK AO2
     T02580105=
KSTE 232015Z AUTO 14012G16KT 10SM SCT048 24/10 A2975 RMK AO2
     T02410100=
KSXK 232015Z AUTO 16029G34KT 10SM SCT120 29/12 A2928 RMK AO2=
KTYQ 232015Z AUTO 18015G23KT 10SM CLR 25/10 A3000 RMK AO2
     T02500099=
KVVS 232015Z AUTO 15006KT 10SM CLR 22/00 A3019 RMK AO2
     T02251003=
KVYS 232015Z AUTO 16024G28KT 10SM CLR 26/14 A2978 RMK AO2
     T02550141=
K2W6 232019Z AUTO 00000KT 10SM OVC019 14/12 A3018 RMK AO1=
KCGE 232015Z AUTO 34008KT 2SM BR BKN014 OVC020 15/15 A3016 RMK
     A01=
KDMW 232015Z AUTO 03005KT 10SM OVC060 17/10 A3022 RMK AO2=
KFME 232019Z AUTO 01003KT 10SM BKN031 BKN039 OVC065 17/08 A3022
     RMK AO1=
K11R 232015Z AUTO 16010G17KT 10SM SCT049 OVC070 30/17 A2986 RMK
     AO2 T02970169=
K6I2 232015Z AUTO 16006KT 130V190 10SM CLR 24/07 A3009 RMK AO2=
K8A0 232015Z AUTO 20004KT 10SM CLR 23/03 A3012 RMK AO2=
KAXX 232015Z AUTO 24016G21KT 4SM -RA BKN017 BKN024 OVC030 04/01
     A2972 RMK AO2 T00350013=
KBMT 232015Z AUTO 16010G15KT 7SM -RA BKN033 BKN041 OVC048 23/20
     A2994 RMK AO2 T02320203=
KCNI 232015Z AUTO 19003KT 10SM CLR 23/02 A3015 RMK AO2
     T02310017=
KDCM 232015Z AUTO 36006KT 10SM CLR 22/04 A3016 RMK AO2=
KDED 232015Z AUTO 04009KT 10SM BKN050 26/16 A3008 RMK AO2
     T02560165=
KDUX 232015Z AUTO 17025G33KT 10SM CLR 26/09 A2953 RMK AO2
     T02600085=
KETN 232015Z AUTO 18016G31KT 10SM CLR 29/15 A2972 RMK AO2
     T02930145=
KGLE 232015Z AUTO 17026G32KT 10SM CLR 29/14 A2974 RMK AO2
     T02870142=
KHVE 232015Z AUTO 31016G26KT 10SM SCT085 10/M01 A2970 RMK AO2=
KHZR 232015Z AUTO 17008G16KT 10SM SCT050 BKN065 28/16 A3002 RMK
     AO2 T02760157=
KJES 232015Z AUTO 00000KT 10SM CLR 21/05 A3014 RMK AO2=
KK62 232015Z AUTO 16009G15KT 10SM CLR 25/05 A3009 RMK AO2=
KMQW 232015Z AUTO 11006KT 7SM CLR 26/11 A3013 RMK AO2
     T02600109=
KPXE 232015Z AUTO 10005KT 10SM CLR 26/07 A3014 RMK AO2
     T02570073=
KT20 232015Z AUTO 16012G20KT 10SM SCT048 SCT060 30/18 A2981 RMK
     AO2 T03010180=
KTMK 232015Z AUTO 00000KT 10SM BKN024 BKN030 OVC045 13/07 A3020
     RMK AO2=
KUKL 232015Z AUTO 18028G35KT 10SM CLR A2955 RMK AO2=
KVES 232015Z AUTO 18007G17KT 10SM CLR 23/05 A3007 RMK AO2=
KW75 232035Z AUTO 33007KT 7SM BKN009 OVC013 15/14 A3014 RMK AO1
     P0004 T01450136=
KDNS 232015Z AUTO RMK AO2 PNO PWINO=
KGHG 232015Z AUTO VRB03KT 10SM CLR 14/12 A3031 RMK AO2=
KHDE 232015Z AUTO 21018G32KT 7SM BKN031 OVC037 30/02 A2922 RMK AO2
     T03000019=
KHMZ 232015Z AUTO 14006KT 10SM BKN033 18/07 A3023 RMK AO2
     T01810073=
KHPT 232015Z AUTO 16018G29KT 10SM SCT046 26/12 A2955 RMK AO2=
KI74 232015Z AUTO 18007KT 10SM CLR 23/09 A3010 RMK AO2=
KIBM 232015Z AUTO 33018G24KT 10SM CLR 13/00 A2937 RMK AO2
     T01271004=
KICL 232015Z AUTO 19017G33KT 10SM CLR 29/14 A2946 RMK AO2=
KIIB 232015Z AUTO 15023G28KT 7SM CLR 23/14 A2963 RMK AO2
     T02310137=
KIJX 232015Z AUTO 17020G28KT 10SM CLR 24/15 A2978 RMK AO2
     T02390145=
KIKV 232015Z AUTO 16021G27KT 10SM CLR 27/14 A2950 RMK AO2=
KJYR 232015Z AUTO 17028G39KT 8SM CLR 29/11 A2927 RMK AO2=
KLOM 232015Z AUTO 05008KT 10SM OVC047 17/10 A3023 RMK AO2
     T01660101=
KLOT 232015Z AUTO 16026G33KT 10SM FEW120 25/13 A2984 RMK AO2=
KMGC 232015Z AUTO 17013G22KT 10SM CLR 25/11 A2991 RMK AO2=
KMQS 232015Z AUTO VRB04G10KT 4SM -RA BKN041 15/12 A3023 RMK
     AO2=
