SAUS80 KWBC 231900
METAR
KINW 231856Z AUTO 35009KT 10SM -RA FEW039 BKN050 OVC090 12/02
     A2980 RMK AO2 RAB10E28B46 SLP049 P0000 T01170022=
KJAX 231856Z 06009KT 10SM SCT038 SCT250 24/16 A3011 RMK AO2 SLP195
     T02440161=
KMOB 231856Z 14009KT 10SM FEW250 26/09 A3011 RMK AO2 SLP194
     T02610094 $=
KOFK 231856Z AUTO 16022G36KT 10SM SCT035 29/11 A2927 RMK AO2 PK
     WND 18041/1829 SLP899 T02940111=
KTKC 231855Z AUTO 15023G30KT 10SM 24/10 A2938 RMK AO2
     T02400102=
KWMC 231856Z AUTO A3003 RMK AO2 SLPNO PWINO FZRANO $=
TJSJ 231856Z 05010KT 10SM SCT034 SCT085 31/24 A2989 RMK AO2 SLP120
     VCSH S T03060239 $=
KBZN 231856Z 26005KT 1SM -SN BR FEW006 OVC014 00/M01 A2981 RMK AO2
     SLP119 P0004 T00001006=
KCAE 231856Z VRB03KT 10SM FEW200 FEW250 24/09 A3014 RMK AO2 SLP205
     T02390089=
KCHS 231856Z 02010KT 10SM CLR 24/11 A3013 RMK AO2 SLP201
     T02390106=
KCOU 231854Z COR 17018G27KT 10SM FEW110 28/15 A2971 RMK AO2 PK WND
     17029/1836 SLP052 T02830150=
KELY 231853Z AUTO 29010KT 10SM SCT047 OVC065 00/M04 A2989 RMK AO2
     SLP123 T00001044=
KSPD 231856Z AUTO 22026G43KT 26/00 A2945 RMK AO1 PK WND 23054/1815
     SLP905 T02610000=
KMHS 231856Z AUTO 31005KT 10SM FEW033 08/M01 A3011 RMK AO2 SLP218
     T00831011=
KSMP 231856Z AUTO 23004KT 9SM SCT003 BKN009 OVC015 02/01 A3007 RMK
     AO2 SLP203 T00170006 $=
KP53 231856Z AUTO 18017G32KT 20/12 A2990 RMK AO1 PK WND 19032/1856
     SLP124 T02000117=
KSXT 231856Z AUTO VRB03KT 10SM BKN020 BKN026 03/02 A3015 RMK AO2
     SLP223 T00330017=
K8D3 231856Z AUTO 14027G36KT 23/12 A2931 RMK AO1 PK WND 14036/1850
     SLP920 T02330117=
K12N 231854Z AUTO 36004KT 18/09 A3027 RMK AO1 SLP251 T01780089=
K40U 231855Z AUTO 29013G20KT 10SM BKN050 02/M04 A2969 RMK AO2
     T00171044=
KBIH 231856Z AUTO 36019G29KT 10SM CLR 12/M09 A2993 RMK AO2 PK WND
     34029/1833 SLP113 T01221089=
KSFO 231856Z 01012KT 10SM CLR 18/06 A3001 RMK AO2 SLP163 T01780056
     $=
KCTY 231855Z AUTO 30004KT 10SM CLR 27/11 A3010 RMK AO2
     T02710112=
KFSD 231856Z 14022G30KT 10SM FEW250 26/12 A2928 RMK AO2 PK WND
     15035/1802 SLP909 T02610122=
KJNX 231855Z AUTO 36005KT 10SM CLR 21/10 A3012 RMK AO2=
KLWS 231856Z 17006KT 10SM CLR 08/03 A3005 RMK AO2 SLP183
     T00780033=
KLIC 231855Z AUTO 23021G43KT 10SM CLR 22/M04 A2935 RMK AO2 PK WND
     23046/1756 SLP866 T02171039 $=
KRNO 231855Z 05006KT 10SM BKN060 08/M07 A3005 RMK AO2 SLP166 MTN
     TOPS OBSCD DSNT SW T00781067=
KSCK 231855Z 32010KT 10SM CLR 19/01 A2997 RMK AO2 SLP149
     T01940006=
KAST 231855Z AUTO 22007KT 10SM FEW019 BKN037 12/08 A3016 RMK AO2
     SLP212 T01220083=
KRLD 231855Z AUTO 25004KT 10SM CLR 14/01 A3008 RMK AO2
     T01400007=
KS39 231855Z AUTO 00000KT 10SM SCT029 SCT035 06/M01 A3009 RMK
     AO2=
KSEP 231855Z AUTO 17017G25KT 10SM CLR 29/14 A2981 RMK AO2
     T02880138=
K9MN 231855Z AUTO 12016G24KT 10SM CLR 23/12 A2958 RMK AO1
     T02270117=
KGPZ 231856Z AUTO 12007G15KT 090V180 10SM SCT060 BKN075 20/12
     A2960 RMK AO2 SLP026 T02000117=
KVTI 231855Z AUTO 15017G27KT 10SM CLR 25/13 A2963 RMK AO2
     T02450128=
KEDU 231900Z AUTO 36015G21KT 10SM CLR 18/M01 A3000 RMK AO1=
KMKN 231855Z AUTO 18014G26KT 10SM CLR 30/16 A2980 RMK AO2
     T02950157=
KCIR 231855Z AUTO 23014G25KT 10SM BKN046 OVC050 26/15 A2998 RMK
     AO2 T02610146=
KDVL 231856Z AUTO 07021KT 10SM CLR 14/06 A2941 RMK AO2 PK WND
     06027/1835 SLP978 T01390061=
KAAT 231855Z AUTO 32005KT 10SM OVC060 05/M02 A3008 RMK AO2 SLP196
     T00501022=
KGNG 231855Z AUTO 27017G28KT 10SM CLR 07/00 A2989 RMK AO2=
