SAPA31 KWBC 231900
METAR
AGGG NIL=
AGGH 231900Z 16002KT 9999 FEW013 FEW014CB SCT300 23/22 Q1008=
ANAU NIL=
AYPY NIL=
PGNT NIL=
PGRO NIL=
PGSN 231854Z 09007KT 10SM SCT022 28/25 A2980 RMK AO2 SLP112
     T02780250=
PGUA 231855Z AUTO 11012KT 10SM BKN015 26/23 A2980 RMK AO2 CIG 014
     RWY24L SLP082 T02600234 $=
PGUM 231854Z 09008KT 10SM -RA SCT018 SCT027 BKN038 27/24 A2979 RMK
     AO2 RAB53 SLP080 P0000 T02670244=
PGWT NIL=
PHJH NIL=
PHJR 231853Z 06006KT 10SM FEW029 SCT055 BKN070 27/21 A3005 RMK AO2
     RAE00 SLP181 P0000 T02720206=
PHMK 231854Z 04008G16KT 10SM FEW046 27/21 A3005 RMK AO2 SLP175
     T02670211=
PJON NIL=
PKMJ NIL=
PKMR NIL=
PKWA 231900Z AUTO 11011KT 10SM SCT048 SCT070 SCT100 26/24 RMK AO2
     T02560238=
PLCH 231900Z 10009KT 9999 SCT020 28/23 Q1011=
PMDY 231856Z AUTO 00000KT 10SM FEW110 24/20 A3014 RMK AO2 SLP206
     T02390200 TSNO=
PTKK NIL=
PTKR NIL=
PTPN NIL=
PTRO NIL=
PTSA NIL=
PTTP 231851Z 00000KT 15SM FEW018 BKN300 25/24 A2980 RMK SLP090
     T02450236=
PTYA 231851Z 15007KT 11SM -SHRA SCT016CB OVC120 25/24 A2972 RMK CB
     ALQDS SLP064 T02530240=
PWAK 231855Z AUTO 08013G19KT 9999 FEW019 SCT032 27/24 A2994 RMK
     AO2 RAB19E29RAB32E36 SLP145 P0000 T02740236 $=
