SAUS70 KWBC 231700 RRV
METAR
KSUN 231655Z 34012G21KT 10SM SKC 04/M11 A2980=
