SAUS70 KWBC 231840 RRI
METAR
KTIP 231835Z AUTO 18023G30KT 10SM CLR 25/13 A2990 RMK AO2
     T02540131=
KUNI 231835Z AUTO 12004KT 1/2SM HZ VV005 25/07 A3016 RMK AO2
     T02520074=
KVPC 231835Z AUTO 09003KT 9SM CLR 22/03 A3018 RMK AO2=
KVUJ 231835Z AUTO 03006KT 10SM CLR 22/05 A3021 RMK AO2
     T02240048=
KW22 231835Z AUTO 35004KT 3/4SM HZ VV005 24/03 A3020 RMK AO2=
KWDR 231835Z AUTO 00000KT 10SM CLR 22/01 A3019 RMK AO2=
KZER 231835Z AUTO 10007KT 10SM OVC033 14/08 A3028 RMK AO2=
KUMP 231835Z AUTO 17015KT 10SM CLR 26/13 A3003 RMK AO2
     T02550125=
