SACA31 KWBC 231800 CCA
METAR
MWCB 231800Z 05010KT 9999 SCT018CB 30/25 Q1013=
