SAUS80 KWBC 231900 RRD
METAR
KMEH 231856Z AUTO VRB04KT 10SM BKN016 04/01 A3003 RMK AO2 SLP188
     T00390006=
KSOA 231855Z AUTO 17017KT 10SM 27/15 A2984 RMK AO2=
K9V9 231855Z AUTO 14016G23KT 10SM CLR 22/08 A2915 RMK AO2
     T02240080=
KCBE 231855Z AUTO 22004KT 10SM CLR 18/06 A3029 RMK AO2
     T01780057=
KP58 231855Z AUTO 12013KT 14/12 A3009 RMK AO1 SLP190 T01440117=
KCUL 231857Z AUTO 19021G25KT 10SM CLR 27/10 A2997 RMK AO2=
