SAUS70 KWBC 231600 RRX
METAR
KTZR 231550Z 22007KT 10SM CLR 22/11 A3019=
KGZN 231600Z AUTO 19016G26KT 10SM CLR 24/16 A2980 RMK AO2=
