SAUS80 KWBC 232100 RRB
METAR
KFLG 232057Z 25018G26KT 10SM FEW040 BKN060 08/M03 A2982 RMK AO2 PK
     WND 24030/2035 SLP035 T00781028 58006=
KIZA 232055Z AUTO 02009G15KT 10SM CLR 23/M05 A2985 RMK AO2=
K12N 232054Z AUTO 04006KT 17/09 A3026 RMK AO1 SLP247 T01720089
     58006=
K2WX 232056Z AUTO 32023G29KT 08/03 A2934 RMK AO1 PK WND 32033/2010
     SLP941 T00780033 53002=
KGNA 232056Z AUTO 07012KT 16/11 A2972 RMK AO1 SLP063 T01610106
     58021=
KGNR 232056Z AUTO 14003KT 17/06 A3034 RMK AO1 SLP277 T01670061
     58001=
KMTP 232054Z AUTO 05010G21KT 14/11 A3025 RMK AO1 SLP243 P0004
     60012 T01390106 56008=
KNAK 232054Z AUTO 36007KT 10SM -RA FEW027 OVC041 16/12 A3019 RMK
     AO2 SLP224 P0003 60003 T01560122 56006=
KALK 232056Z AUTO 24018G28KT 10SM CLR 20/05 A2987 RMK AO2 PK WND
     25030/2003 SLP032 T02000050 56012=
KLWS 232056Z 19003KT 10SM BKN055 11/02 A3007 RMK AO2 SLP187
     T01060017 53010=
KP60 232056Z AUTO VRB06G16KT M03/M08 A2971 RMK AO1 SLP070
     T10281078 53011=
PHJR 232053Z 10010G17KT 10SM SCT036 BKN043 BKN050 28/20 A3004 RMK
     AO2 SLP179 60000 T02830200 50001=
PHKO 232053Z 29006KT 10SM FEW030 SCT050 29/21 A2999 RMK AO2 SLP155
     T02940211 50001=
PHMK 232054Z 02008KT 10SM SCT046 28/21 A3004 RMK AO2 SLP174
     T02830206 50001=
PHNL 232053Z 08009KT 10SM FEW030 SCT048 BKN070 29/22 A3004 RMK AO2
     RAB40E51 SLP170 P0000 60000 T02890217 50005=
PHNY 232056Z AUTO 22007KT 10SM FEW032 BKN046 26/19 A3009 RMK AO2
     SLP167 T02560189 50002 $=
PHOG 232054Z 06021G29KT 10SM FEW050 33/17 A3000 RMK AO2 PK WND
     06029/2053 WSHFT 2011 SLP163 T03280172 50000=
PHTO 232053Z 05010KT 3SM RA BKN036 OVC047 24/21 A3006 RMK AO2
     RAB49 SLP176 P0000 60000 T02440211 51005=
K40U 232055Z AUTO 29016G21KT 10SM SCT038 SCT050 SCT070 02/M04
     A2972 RMK AO2 T00211039=
KBIH 232056Z AUTO 34020G26KT 10SM CLR 14/M09 A2991 RMK AO2 PK WND
     34030/2045 SLP108 T01391094 58002=
KSFO 232056Z 26016KT 10SM CLR 18/06 A2999 RMK AO2 SLP154 T01830056
     58010 $=
