SACA45 KWBC 232100
METAR
MGFL NIL=
MGGT NIL=
MGHT NIL=
MHAM NIL=
MHCA 232100Z 00000KT 9999 SCT028TCU FEW030CB SCT080 28/22 CB NE
     NW=
MHCH 232100Z 02010KT 9999 SCT034 34/26=
MHLE 232100Z 07004KT 9999 SCT022 BKN070 20/16=
MHNJ NIL=
MHNO 232100Z 35006KT 9999 FEW040TCU 27/20=
MHPL 232100Z NIL=
MHRO 232100Z 03004KT 9999 FEW020 28/23 Q1011 A2986 NOSIG=
MHSR 232100Z 02004KT 9999 FEW012 SCT025 BKN080 23/20=
MHTE 232100Z 05006KT 9999 BKN030TCU FEW036CB BKN080 29/25
     Q1010=
MHYR 232100Z 09008KT 9999 SCT024TCU SCT080 27/21=
MHYR 232100Z 09008KT 9999 SC024TCU SCT080 27/21=
MNMG NIL=
MNPC NIL=
MPSA NIL=
MRCH NIL=
MSAC NIL=
