SACA41 KWBC 232000 RRA
METAR
TDCF 232000Z 20001KT 9999 FEW017 SCT036 32/24 Q1010=
