SAPA32 KWBC 232000
METAR
NCRG 232000Z AUTO 02008KT 350V050 9999 -RA SCT013/// BKN070///
     BKN090/// 25/24 Q1012=
NFFN 232000Z 12012KT 9999 FEW030 SCT120 BKN290 25/19 Q1013
     NOSIG=
NFNA NIL=
NFTF 232000Z 15012KT 9999 FEW017 24/18 Q1017=
NFTV 232000Z 17006KT 9999 FEW010 FEW016TCU BKN120 25/22 Q1013=
NGFU 232000Z VRB01KT 9999 FEW016CB FEW018TCU BKN110 28/24
     Q1012=
NSFA 232000Z 07004KT 9999 FEW025 SCT040 BKN160 27/24 Q1012=
NSTU 231950Z 35012G16KT 12SM SCT016TCU SCT100 BKN220 28/26 A2987
     RMK TCU N-E SLP115 T02800257=
NTAA NIL=
NWWW 232000Z AUTO 06009KT 020V120 CAVOK 26/18 Q1012 TEMPO
     08020G30KT 3000 SHRA FEW020CB=
