SAUS70 KWBC 231748
METAR
K6S8 231740Z AUTO 29016G26KT 10SM 05/M01 A2964 RMK A01 Laurel=
KDCY 231735Z AUTO 16015G23KT 10SM CLR 25/12 A3003 RMK AO2
     T02510116=
KDMW 231735Z AUTO 36006KT 10SM BKN041 OVC050 18/10 A3024 RMK
     AO2=
KEBS 231735Z AUTO 16025G33KT 10SM CLR 24/14 A2950 RMK AO2=
KEVM 231741Z AUTO 14009KT 10SM SCT075 SCT095 19/11 A2968 RMK
     AO2=
KJVY 231735Z AUTO 22012KT 10SM CLR 25/10 A3010 RMK AO2 PWINO=
KMPZ 231730Z AUTO 17016G25KT 10SM CLR 25/17 A2971 RMK AO2=
KUYF 231735Z AUTO 15006G15KT 10SM SCT049 23/07 A3015 RMK AO2=
KVES 231735Z AUTO 19011G17KT 10SM CLR 23/07 A3012 RMK AO2=
KVYS 231730Z AUTO 18018G25KT 10SM CLR 24/14 A2984 RMK AO2
     T02410135=
KTFP 231715Z AUTO 18015KT 10SM CLR 30/22 A2989 RMK AO2
     T02960216=
