SAUS70 KWBC 231716
METAR
K08D 231715Z AUTO 06014G20KT 10SM OVC006 05/05 A2950 RMK AO2=
K0E0 231715Z AUTO 24020G27KT 10SM SCT065 SCT075 17/00 A2976 RMK
     AO2 T01691004 TSNO=
K2J9 231715Z AUTO VRB05KT 10SM CLR 24/06 A3018 RMK AO2=
KBEA 231715Z AUTO 16019G26KT 10SM BKN041 29/16 A2989 RMK AO2
     T02920164=
KCQW 231715Z AUTO 36008KT 10SM CLR 22/06 A3017 RMK AO2 PWINO=
KD55 231715Z AUTO 05020KT 10SM BKN009 09/09 A2954 RMK AO2=
KEHO 231715Z AUTO 34005KT 10SM CLR 21/03 A3021 RMK AO2
     T02060033=
KEYF 231715Z AUTO 34006KT 10SM CLR 20/06 A3015 RMK AO2
     T02050060=
KJHN 231715Z AUTO 21036G45KT 2 1/2SM HZ OVC001 27/03 A2942 RMK AO2
     T02680033=
KLUM 231715Z AUTO 13015G22KT 10SM CLR 23/17 A2968 RMK AO2
     T02270168 PWINO=
KMAW 231715Z AUTO 20019G27KT 10SM SCT038 BKN047 25/13 A3001 RMK
     AO1=
KMHL 231715Z AUTO 19020G26KT 10SM CLR 26/15 A2969 RMK AO2=
KMRJ 231715Z AUTO 16014G21KT 10SM CLR 21/10 A2979 RMK AO2=
KRCZ 231715Z AUTO 02007KT 10SM CLR 22/06 A3018 RMK AO2
     T02150057=
KRID 231735Z AUTO 21012G17KT 10SM CLR 22/12 A3014 RMK AO2=
KRNV 231715Z AUTO 17016G23KT 10SM CLR A3006 RMK AO2 TSNO=
KRPD 231715Z AUTO 12014G18KT 10SM CLR 20/15 A2970 RMK AO2
     T02040151=
KSDC 231715Z AUTO 15007KT 10SM CLR 20/02 A3026 RMK AO2=
KSNK 231715Z AUTO 20020G24KT 10SM CLR 26/12 A2977 RMK AO2
     T02560119=
KAQP 231713Z AUTO 17020G28KT 10SM SCT095 22/11 A2941 RMK AO2=
KETH 231713Z AUTO 11022G26KT 10SM 21/11 A2940 RMK AO2=
KFOZ 231713Z AUTO 12007KT 10SM CLR 20/10 A2968 RMK AO2=
KOWA 231713Z AUTO 14015G25KT 10SM CLR 22/13 A2958 RMK AO2=
KXVG 231713Z AUTO 13007KT 10SM SCT065 19/11 A2959 RMK AO2=
K10G 231715Z AUTO 14005KT 10SM CLR 22/07 A3021 RMK AO2=
K20U 231715Z AUTO 04011KT 8SM OVC010 06/05 A2943 RMK AO2=
K27K 231715Z AUTO 22007G15KT 200V260 10SM CLR 23/07 A3017 RMK
     AO1=
K54J 231715Z AUTO 00000KT 10SM CLR 24/04 A3019 RMK AO2
     T02360037=
K6S2 231715Z AUTO 00000KT 10SM FEW002 09/09 A3018 RMK AO2=
KCKI 231715Z AUTO 01006KT 10SM CLR 22/05 A3017 RMK AO2=
KCVH 231715Z AUTO 00000KT 10SM CLR 13/06 A3001 RMK A01=
KD25 231715Z AUTO 15012G17KT 10SM SCT100 19/12 A2980 RMK AO2
     T01890117=
KDRM 231715Z AUTO 15007KT 110V170 10SM CLR 18/11 A3007 RMK AO2
     T01810106=
KEDE 231715Z AUTO 35012KT 10SM DZ OVC006 16/16 A3011 RMK AO2
     T01600160=
KELO 231715Z AUTO 14009KT 10SM CLR 19/09 A2971 RMK AO2=
KGGE 231715Z AUTO 35009KT 10SM CLR 22/07 A3015 RMK AO2=
KHAE 231715Z AUTO 16013G20KT 10SM CLR 23/13 A2978 RMK AO2=
KHCO 231715Z AUTO 07015G20KT 10SM CLR 14/08 A2954 RMK AO2=
KHSP 231715Z AUTO 05006KT 5SM HZ CLR 16/01 A3029 RMK AO2
     T01570008=
KJFX 231715Z AUTO 15005KT 10SM CLR 22/10 A3018 RMK AO2=
KJSO 231715Z AUTO 19014G22KT 10SM SCT033 SCT047 26/17 A2996 RMK
     AO2 T02610174 TSNO=
KL18 231715Z AUTO 15003KT 10SM CLR 16/10 A2989 RMK AO2=
KLNL 231715Z AUTO 15011G16KT 130V190 10SM CLR 20/11 A2985 RMK AO2
     T02010109=
KMCX 231735Z AUTO 17010G21KT 10SM SCT070 24/12 A3000 RMK AO2
     T02410116=
KMVE 231715Z AUTO 14021G29KT 10SM CLR 21/12 A2942 RMK AO2=
KOIN 231715Z AUTO 23024G35KT 10SM CLR 28/06 A2933 RMK AO1
     T02830056=
KPCZ 231715Z AUTO 13011KT 10SM CLR 22/12 A2983 RMK AO2
     T02220121=
KPSK 231715Z AUTO 00000KT 10SM CLR 17/04 A3023 RMK AO2
     T01700039=
KRCM 231715Z AUTO 16017G26KT 10SM CLR 27/13 A2968 RMK AO2=
KRCX 231715Z AUTO 14013G17KT 10SM CLR 20/15 A2975 RMK AO2
     T02020150=
KRHP 231715Z AUTO 25003KT 10SM CLR 22/01 A3021 RMK AO2
     T02170011=
KSHD 231715Z AUTO 00000KT 10SM CLR 13/05 A3028 RMK AO2
     T01340050=
KSRR 231715Z AUTO 24033G51KT 10SM 16/04 A2982 RMK AO2=
