SAUS70 KWBC 231638 RRI
METAR
PAAD 231635Z AUTO 10015KT 10SM OVC007 M09/M10 A3002 RMK AO2
     T10901100=
PAUT 231635Z AUTO 19004KT 10SM CLR 05/03 A3025 RMK AO2=
KAFP 231635Z AUTO 34003KT 10SM CLR 21/06 A3020 RMK AO2
     T02080063=
KAGI 231635Z AUTO 14018KT 10SM CLR 28/16 A3004 RMK AO2
     T02850163=
KAHQ 231635Z AUTO 18021G27KT 7SM 26/13 A2939 RMK AO2 T02600125
     PWINO=
KALX 231635Z AUTO 14003KT 10SM CLR 20/06 A3022 RMK AO2
     T02040056=
KANW 231635Z AUTO 19011KT 10SM CLR 19/02 A2920 RMK AO2
     T01890016=
KARM 231635Z AUTO 17017G23KT 10SM SCT042 BKN049 OVC060 28/17 A2996
     RMK AO2 T02770167 TSNO=
KASN 231635Z AUTO 12004KT 10SM CLR 22/07 A3022 RMK AO2
     T02190070=
KATA 231635Z AUTO 17008G17KT 10SM BKN037 25/18 A2995 RMK AO2
     SLP042 T02540180 $=
KAVK 231635Z AUTO 20026G34KT 8SM CLR 26/13 A2956 RMK AO2 PWINO=
KAVQ 231635Z AUTO 19003KT 10SM CLR 21/10 A2982 RMK AO2
     T02120098=
KAXH 231635Z AUTO 16010G17KT 10SM CLR 30/14 A2998 RMK AO2
     T02980138=
KAXS 231635Z AUTO 19017G22KT 7SM CLR 26/13 A2970 RMK AO2
     T02630125=
KAZC 231635Z AUTO 27015G21KT 10SM SCT027 BKN032 BKN041 07/00 A2984
     RMK AO2=
KBAM 231635Z AUTO 33006KT 10SM SCT016 BKN023 OVC036 01/00 A2999
     RMK AO1=
KBCK 231635Z AUTO 14010G15KT 10SM CLR 22/12 A2974 RMK AO2
     T02160123=
KBDU 231635Z AUTO 35009KT 10SM SCT095 17/M02 A2931 RMK AO2=
KBGE 231635Z AUTO 08007KT 10SM CLR 23/07 A3019 RMK AO2
     T02340071=
KBGF 231635Z AUTO 20007G12KT 160V230 10SM CLR 22/04 A3020 RMK
     A01=
KBIE 231635Z AUTO 19024G29KT 10SM CLR 27/13 A2941 RMK AO2
     T02660128=
KBKD 231635Z AUTO 18016G26KT 10SM CLR 26/16 A2980 RMK AO2
     T02590156=
KBNW 231635Z AUTO 16022G28KT 10SM CLR 23/14 A2956 RMK AO2=
KBPC 231635Z AUTO 22021G25KT 10SM CLR 26/08 A2962 RMK AO2=
KBTA 231635Z AUTO 17019G25KT 10SM CLR 25/13 A2941 RMK AO2
     T02480131=
KBTN 231635Z AUTO 09014KT 10SM CLR 20/12 A2933 RMK AO2=
KBXA 231635Z AUTO 16007G14KT 10SM CLR 26/14 A3015 RMK AO2
     T02640143=
KC09 231635Z AUTO 17016G25KT 10SM CLR 23/14 A2990 RMK AO2
     T02290135=
KC83 231635Z AUTO 32016KT 10SM CLR 17/M00 A2999 RMK AO2=
KCCY 231635Z AUTO 16021KT 10SM CLR 21/13 A2963 RMK AO2=
KCKZ 231635Z AUTO 06008KT 10SM BKN100 16/09 A3028 RMK AO2=
KCRX 231635Z AUTO 18016G22KT 10SM CLR 23/09 A3014 RMK AO2=
KCSQ 231635Z AUTO 17018G27KT 10SM CLR 24/14 A2953 RMK AO2=
KCVC 231635Z AUTO 06004KT 10SM CLR 20/07 A3023 RMK AO2=
KCWC 231635Z AUTO 17021G28KT 10SM CLR 27/16 A2975 RMK AO2
     T02660157=
K06D 231635Z AUTO 07019G26KT 10SM OVC005 06/06 A2956 RMK AO2=
K22N 231635Z AUTO 00000KT 10SM OVC041 13/05 A3031 RMK AO2=
K2D5 231635Z AUTO 08015KT 8SM CLR 14/07 A2938 RMK AO2=
K2P2 231635Z AUTO 18009G17KT 150V210 10SM SCT110 15/12 A2995 RMK
     AO2 T01490120=
K3N8 231635Z AUTO 13011G16KT 10SM CLR 18/09 A2951 RMK AO2
     T01770093=
K46D 231635Z AUTO 08016KT 10SM CLR 13/05 A2945 RMK AO2=
K5H4 231635Z AUTO 06015G24KT 10SM CLR 09/M03 A2947 RMK AO2=
K6B0 231635Z AUTO 00000KT 10SM CLR 17/07 A3034 RMK AO2
     T01740065=
K6B9 231635Z AUTO 10007KT 10SM CLR 18/05 A3028 RMK AO2=
KACB 231635Z AUTO 15008KT 10SM CLR 23/12 A3002 RMK AO2
     T02270117=
KACQ 231635Z AUTO 15017G26KT 10SM CLR 20/12 A2960 RMK AO2=
KAIT 231635Z AUTO 13007KT 10SM SCT065 19/11 A2962 RMK AO2=
KDLZ 231635Z AUTO 18007KT 10SM CLR 21/10 A3018 RMK AO2=
KDRM 231635Z AUTO 15010G16KT 130V190 10SM CLR 18/11 A3008 RMK AO2
     T01830105=
KFBL 231635Z AUTO 13017G23KT 10SM CLR 21/13 A2960 RMK AO2=
KFFM 231635Z AUTO 13018G23KT 10SM CLR 19/11 A2945 RMK AO2=
KHZL 231635Z AUTO 14004KT 10SM OVC030 17/08 A3033 RMK AO2=
