SAUS80 KWBC 232000 RRA
METAR
KATT 231951Z AUTO 18007G24KT 150V210 10SM FEW055 31/17 A2981 RMK
     AO2 SLP081 T03060167=
KABI 231952Z 18021G36KT 10SM CLR 31/14 A2970 RMK AO2 PK WND
     18036/1952 SLP031 T03060139=
KABQ 231952Z 24019G33KT 10SM BKN095 20/00 A2967 RMK AO2 PK WND
     26037/1939 SLP977 SHRA DSNT W T02000000=
KALS 231952Z AUTO 28019G25KT 10SM SCT048 BKN060 BKN070 09/M01
     A2962 RMK AO2 PK WND 25035/1939 WSHFT 1938 SLP965
     T00891006=
KBLU 231952Z AUTO VRB06KT 10SM CLR 07/M08 A3001 RMK AO2 SLP142
     T00721078 $=
KJDN 231948Z AUTO 32014KT 02/01 A2955 RMK AO1 SLP023 P0007
     T00220011=
KSAN 231951Z 17007KT 110V210 10SM BKN039 21/09 A2988 RMK AO2
     SLP117 T02060089=
KSAT 231951Z 15020G28KT 10SM SCT049 BKN180 BKN250 29/17 A2982 RMK
     AO2 PK WND 17028/1942 SLP079 T02890167=
KSMX 231951Z 29013KT 10SM CLR 20/06 A2991 RMK AO2 SLP129
     T02000056=
KSNT 231951Z AUTO 32010G18KT 00/M08 A2989 RMK AO1 SLP106
     T00001083=
KSPS 231952Z 17021G30KT 10SM CLR 32/13 A2964 RMK AO2 PK WND
     16032/1916 SLP023 T03170133=
KVCT 231951Z 17019G29KT 10SM CLR 31/18 A2984 RMK AO2 PK WND
     15032/1913 SLP104 T03060183=
KCQT 231947Z AUTO 00000KT 10SM CLR 22/03 A2985 RMK AO2 SLP105
     T02170033=
KGNT 231955Z AUTO 29013G23KT 10SM -RA SCT025 BKN038 OVC047 10/04
     A2980 RMK AO2 T01040041=
KPVD 231951Z 03009KT 10SM BKN060 OVC110 14/10 A3030 RMK AO2 RAE03
     SLP260 P0001 T01440100=
KSDB 231953Z AUTO 34012G21KT 10SM 10/M02 A2994 RMK AO2 PK WND
     33029/1929 SLP114 T01001022 $=
KP68 231953Z AUTO 33015G22KT M01/M03 A2996 RMK AO1 SLP151 P0001
     T10061028=
KMWT 231953Z AUTO VRB06G16KT 10SM FEW044 27/14 A2985 RMK AO2
     SLP098 T02670144=
KOQT 231953Z AUTO VRB03KT 10SM CLR 23/03 A3015 RMK AO2 SLP205
     T02280028=
KAAF 231953Z AUTO 14010KT 10SM CLR 24/14 A3010 RMK AO2 SLP193
     T02390139=
KBDR 231952Z 03011KT 10SM BKN050 OVC065 14/09 A3026 RMK AO2 RAE03
     SLP248 P0000 T01440089=
KBFF 231953Z AUTO 29018G29KT 10SM CLR 14/03 A2935 RMK AO2 PK WND
     30034/1855 SLP916 T01390028=
KBTR 231953Z 14012KT 10SM SCT050 29/16 A3002 RMK AO2 SLP165
     T02890156 $=
KCDR 231953Z AUTO 30023G39KT 10SM CLR 12/03 A2933 RMK AO2 PK WND
     31042/1939 SLP937 T01170028=
KCLL 231953Z 16020G30KT 10SM FEW050 BKN065 31/16 A2984 RMK AO2 PK
     WND 16033/1926 SLP101 T03060161=
KLIT 231953Z 18011G17KT 10SM BKN045 29/15 A2990 RMK AO2 SLP125
     T02890150=
KLWD 231953Z AUTO 18019G30KT 10SM -RA CLR 28/14 A2953 RMK AO2 PK
     WND 15031/1858 SLP990 P0000 T02780139=
KLXV 231953Z AUTO 30010G20KT 5SM -SN FEW032 BKN041 OVC070 M02/M04
     A2957 RMK AO2 PK WND 27026/1909 SNB1855E18B51 SLP924 P0000
     T10171044 $=
KCUT 231953Z AUTO 29014G23KT 10SM SCT100 10/01 A2934 RMK AO2
     SLP892 T01000011=
KDAB 231953Z 02013KT 10SM SCT032 SCT065 27/13 A3009 RMK AO2 SLP187
     T02720128=
KDAL 231953Z 17014G30KT 10SM FEW050 FEW250 29/16 A2976 RMK AO2 PK
     WND 16033/1938 SLP071 T02890156=
KDBQ 231953Z 16022G31KT 10SM CLR 24/14 A2969 RMK AO2 PK WND
     16031/1951 SLP050 T02440139=
KDMN 231953Z AUTO 25020G31KT 10SM CLR 22/03 A2978 RMK AO2 PK WND
     25035/1907 SLP019 T02220028=
KDRT 231953Z AUTO 13012G18KT 10SM FEW110 25/19 A2977 RMK AO2
     RAB33E43 SLP073 P0000 T02500189=
KPOF 231953Z AUTO 18012G24KT 10SM OVC046 26/14 A2992 RMK AO2 PK
     WND 19027/1936 RAE01B17E22 SLP127 P0000 T02560144 $=
KRQE 231953Z AUTO 27017G22KT 10SM BKN034 OVC044 07/M01 A2979 RMK
     AO2 SLP018 T00671011 $=
KGRR 231953Z 16017G26KT 10SM FEW056 FEW250 24/11 A2998 RMK AO2 PK
     WND 15029/1937 SLP150 T02390111 $=
