SAUS80 KWBC 232100
METAR
KESN 232045Z 36006KT 5SM -RA BKN006 OVC015 16/15 A3021=
