SAUS70 KWBC 231600 RRX
METAR
KLBE 231547Z 00000KT 15SM CLR 19/05 A3026=
