SAUS70 KWBC 231818 RRB
METAR
KY70 231815Z AUTO 16013G22KT 10SM CLR 24/09 A3002 RMK AO2
     T02400091=
KHVS 231815Z AUTO 02005KT 10SM CLR 22/06 A3016 RMK AO2=
KHZE 231815Z AUTO 05013G23KT 10SM CLR 12/06 A2937 RMK AO2=
KHZL 231815Z AUTO 00000KT 10SM OVC034 16/08 A3030 RMK AO2=
KI69 231815Z AUTO 18004KT 10SM SCT055 24/09 A3014 RMK AO2
     T02390091=
KIDI 231815Z AUTO VRB06KT 10SM CLR 20/02 A3026 RMK A01=
KIRS 231815Z AUTO 17013G19KT 10SM CLR 23/10 A3003 RMK AO2
     T02320097=
KJFZ 231815Z AUTO 33003KT 10SM CLR 20/01 A3022 RMK AO2
     T02000014=
KJVW 231815Z AUTO 16009G14KT 10SM BKN048 SCT055 28/14 A3007 RMK
     AO2=
KJYM 231815Z AUTO 17013G19KT 10SM SCT050 23/08 A3008 RMK AO2
     T02250077=
KJZI 231815Z AUTO 33010KT 10SM CLR 24/10 A3013 RMK AO2=
KKY8 231815Z AUTO 15012G18KT 130V190 9SM CLR 26/13 A3005 RMK
     A01=
KL08 231815Z AUTO 12003KT 10SM CLR 22/00 A2980 RMK AO2=
KL52 231815Z AUTO 34008KT 9SM CLR 20/05 A2993 RMK A01=
KLKR 231815Z AUTO 00000KT 10SM CLR 22/07 A3017 RMK AO2=
KLRO 231815Z AUTO VRB06G13KT 310V030 9SM CLR 23/10 A3012 RMK
     AO2=
KLRU 231815Z AUTO 24020G30KT 10SM BKN070 OVC080 22/07 A2983 RMK
     AO2 T02190069=
KLRY 231815Z AUTO 19014G24KT 10SM CLR 29/13 A2966 RMK AO2 LTG DSNT
     SW=
KLVL 231815Z AUTO 03004KT 10SM OVC020 18/12 A3018 RMK AO1
     T01820120=
KM40 231815Z AUTO 18010G16KT 10SM CLR 26/08 A3013 RMK AO2=
KMAN 231815Z AUTO 32014G20KT 10SM CLR 08/M01 A3000 RMK A01=
KMAO 231815Z AUTO 03008KT 10SM CLR 22/M01 A3015 RMK AO2=
KMBO 231815Z AUTO VRB06G12KT 10SM FEW049 26/15 A3008 RMK AO2=
KMDS 231815Z AUTO 14024G34KT 10SM CLR 22/13 A2930 RMK AO2=
KMEZ 231815Z AUTO VRB04KT 10SM BKN025 OVC032 23/17 A2992 RMK AO2
     CIG 023V028 T02350166 $=
KMKJ 231815Z AUTO 00000KT 10SM CLR 23/02 A3023 RMK AO2
     T02250020=
KMQJ 231815Z AUTO RMK AO1=
KN38 231815Z AUTO 19008KT 10SM CLR 17/02 A3027 RMK AO2=
KO22 231815Z AUTO 25007KT 10SM CLR 16/M03 A2994 RMK A01=
KO32 231815Z AUTO VRB05KT 10SM CLR 15/04 A2993 RMK AO2 T01530036
     $=
KOCQ 231815Z AUTO 14010KT 10SM CLR 19/12 A2987 RMK AO1
     T01900122=
KOEO 231815Z AUTO 14015G24KT 10SM CLR 24/15 A2961 RMK AO2
     T02380154=
KORS 231815Z AUTO 19005KT 10SM FEW015 10/08 A3013 RMK AO2=
KOZS 231815Z AUTO 19015G21KT 150V210 10SM SCT110 27/12 A2976 RMK
     AO2=
KPAN 231815Z AUTO 22010G16KT 10SM FEW019 BKN025 OVC050 12/06 A2986
     RMK AO2 PWINO TSNO=
KPGV 231815Z AUTO 01011G14KT 10SM OVC016 18/16 A3011 RMK AO2=
KPJC 231815Z AUTO RMK AO2 TSNO PWINO=
KPLR 231815Z AUTO 00000KT 10SM CLR 24/05 A3018 RMK A01=
KPNM 231815Z AUTO 13018G24KT 10SM CLR 24/13 A2955 RMK AO2 TS=
KPVF 231815Z AUTO 29003KT 10SM CLR 13/M06 A2997 RMK AO1=
KRCE 231815Z AUTO 18027KT 10SM CLR 25/16 A2966 RMK AO2=
KRMN 231815Z AUTO 34005KT 10SM SCT034 OVC040 18/13 A3023 RMK AO2
     T01840125=
KRPH 231815Z AUTO 16016G22KT 10SM CLR 29/15 A2972 RMK AO2
     T02890149 $=
KRQB 231815Z AUTO 17016G21KT 10SM CLR 23/11 A3000 RMK AO2
     T02300112=
KRUG 231815Z AUTO 06025G31KT 10SM SCT013 09/06 A2944 RMK AO2=
KRVL 231815Z AUTO 00000KT 7SM OVC027 17/07 A3027 RMK AO2=
KRYV 231815Z AUTO 17011G20KT 10SM CLR 23/12 A2982 RMK AO2
     T02250116=
KRZN 231815Z AUTO 12011G16KT 090V160 10SM CLR 22/11 A2963 RMK AO2
     T02190114=
KRZT 231815Z AUTO 15006KT 10SM CLR 24/06 A3015 RMK AO2 PWINO=
KS25 231815Z AUTO 05016KT 10SM OVC012 07/07 A2944 RMK AO2=
KS32 231815Z AUTO 08017G23KT 10SM CLR 16/07 A2940 RMK AO2 TSNO=
KSCR 231815Z AUTO 04010G14KT 10SM CLR 21/05 A3018 RMK AO2
     T02060049=
KSIK 231815Z AUTO 19009G20KT 142V212 10SM SCT042 SCT060 25/15
     A2998 RMK AO2=
