SAUS70 KWBC 231740 RRI
METAR
KCKF 231735Z AUTO 09003KT 10SM CLR 23/08 A3019 RMK AO2
     T02330079=
KCMD 231735Z AUTO 20011KT 10SM CLR 23/04 A3020 RMK AO2=
KCNC 231735Z AUTO 16021G28KT 10SM CLR 24/15 A2959 RMK AO2=
KCOM 231735Z AUTO 17017G24KT 10SM CLR 27/15 A2983 RMK AO2
     T02710147=
KCUH 231735Z AUTO 18018G23KT 10SM CLR 26/16 A2970 RMK AO2
     T02550159=
KCWV 231735Z AUTO 03005KT 10SM CLR 25/11 A3016 RMK AO2
     T02480114=
KD73 231735Z AUTO 33003KT 10SM CLR 22/06 A3022 RMK AO2
     T02160058=
KDKB 231735Z AUTO 16016G26KT 10SM CLR 22/15 A2987 RMK AO2
     T02210146=
KDKR 231735Z AUTO 15015G21KT 10SM FEW045 BKN055 28/17 A2993 RMK
     AO2=
KDNS 231735Z AUTO RMK AO2 PNO PWINO=
KDVO 231735Z AUTO 33012KT 10SM CLR 18/01 A3002 RMK AO2=
KE11 231735Z AUTO 21016G20KT 10SM CLR 27/09 A2979 RMK AO2
     T02670093=
KE16 231735Z AUTO 33012G20KT 10SM CLR 14/04 A3001 RMK AO2=
KE41 231735Z AUTO 19016G22KT 10SM CLR 23/15 A2984 RMK AO2
     T02320150=
KECU 231735Z AUTO 15016G25KT 10SM CLR 23/16 A2993 RMK AO2=
KEZZ 231735Z AUTO 17021G29KT 10SM CLR 28/14 A2961 RMK AO2
     T02760143=
KFEP 231735Z AUTO 15017G22KT 10SM CLR 23/15 A2983 RMK AO2
     T02300151=
KFFL 231735Z AUTO 17017G25KT 10SM CLR 23/13 A2968 RMK A01=
KFKR 231735Z AUTO 18012G21KT 150V210 10SM CLR 25/12 A3001 RMK
     AO2=
KFMM 231735Z AUTO 33014KT 10SM CLR 21/M02 A2928 RMK AO2=
KFPY 231735Z AUTO 01003KT 10SM CLR 26/10 A3015 RMK AO2 T02550095
     TSNO=
KFSK 231735Z AUTO 19023G34KT 10SM CLR 28/15 A2968 RMK AO2
     T02770148=
KFZG 231735Z AUTO 15003KT 10SM CLR 24/11 A3017 RMK AO2
     T02360113=
KGBG 231735Z AUTO 16015G20KT 10SM CLR 23/15 A2979 RMK AO2
     T02310149=
KGCD 231735Z AUTO 29003KT 10SM SCT020 BKN039 OVC046 03/00 A3005
     RMK AO2 T00260003=
KGCM 231735Z AUTO 18013G23KT 135V195 10SM CLR 26/12 A2977 RMK
     AO2=
KGGF 231735Z AUTO 22021G30KT 9SM CLR 26/M02 A2920 RMK AO2=
KGGP 231735Z AUTO 19016G19KT 10SM CLR 24/11 A3003 RMK AO2=
KGHG 231735Z AUTO VRB05KT 10SM CLR 15/12 A3033 RMK AO2=
KGMJ 231735Z AUTO 19020G29KT 10SM CLR 21/06 A2974 RMK AO2=
KOKZ 231735Z AUTO 35006KT 10SM CLR 23/09 A3018 RMK AO2
     T02320093=
KOLE 231735Z AUTO 20004KT 10SM CLR 17/02 A3027 RMK AO2=
KOLZ 231735Z AUTO 17022G33KT 10SM CLR 23/13 A2966 RMK A01=
KONL 231735Z AUTO 17020G27KT 10SM CLR 25/04 A2923 RMK AO2
     T02520036=
KOOA 231735Z AUTO 17021G32KT 10SM CLR 25/18 A2965 RMK AO2
     T02540176=
KOPL 231735Z AUTO 14016G20KT 10SM BKN039 27/16 A3005 RMK AO2
     T02690157=
KOPN 231735Z AUTO 00000KT 10SM CLR 25/02 A3021 RMK AO2=
KOWP 231735Z AUTO 17012G21KT 10SM CLR 28/16 A2975 RMK AO2
     T02770155=
KOWX 231735Z AUTO 17010G17KT 10SM CLR 25/08 A3013 RMK AO1=
KPBX 231735Z AUTO 05003KT 10SM CLR 21/07 A3021 RMK AO2
     T02140073=
KPEA 231735Z AUTO 16017G28KT 10SM CLR 24/14 A2960 RMK AO2
     T02440136=
KPIM 231735Z AUTO 00000KT 10SM CLR 23/03 A3020 RMK AO2
     T02310026=
KPLU 231735Z AUTO 00000KT 10SM -DZ CLR 08/08 A3013 RMK AO2=
KPMU 231735Z AUTO 20011G17KT 10SM FEW045 26/14 A3006 RMK AO2=
KPNA 231735Z AUTO 30023G32KT 10SM SCT120 00/M06 A2959 RMK AO2=
KPNT 231735Z AUTO 17025G30KT 10SM CLR 24/16 A2989 RMK AO2
     T02410159=
KPOY 231735Z AUTO 34018G25KT 2SM -SN 01/M02 A2958 RMK AO2 SKY
     OBSCURED=
KSUT 231735Z AUTO 32009KT 290V010 10SM CLR 24/07 A3011 RMK AO2
     T02350067=
K0CO 231735Z AUTO 30005KT M1/4SM -SN OVC001 M05/M05 A2962 RMK
     AO2=
K2V5 231735Z AUTO 22021G34KT 10SM CLR 26/M05 A2924 RMK AO2=
K7BM 231735Z AUTO 30007G16KT 260V350 3/4SM SN OVC004 00/M01 A2959
     RMK AO2=
KC07 231735Z AUTO 25006KT 3/4SM BR OVC001 M02/M02 A2959 RMK
     AO2=
