SAUS70 KWBC 232108
METAR
K1S5 232115Z AUTO 15005KT 10SM CLR 14/00 A3010 RMK AO2
     T01380003=
KCPF 232115Z AUTO 00000KT 10SM CLR 25/05 A3013 RMK AO2=
KEMV 232115Z AUTO 32009G14KT 10SM OVC012 15/13 A3015 RMK AO2
     T01530129=
KFFA 232115Z AUTO 34007G18KT 310V010 4SM BR OVC005 16/16 A3004 RMK
     AO2 T01630163=
KMCJ 232115Z AUTO 14014G29KT 100V170 10SM FEW055 28/15 A2986 RMK
     A01=
KSUW 232115Z AUTO 07014G22KT 10SM BKN050 13/09 A2962 RMK AO2
     T01280092=
KTFP 232035Z AUTO 16019G27KT 10SM CLR 29/22 A2981 RMK AO2
     T02930221=
