SAUS70 KWBC 232100 RRO
METAR
KOLF 232053Z AUTO 04015KT -RA OVC010 05/03 A2955 RMK AO2 RAB39 CIG
     007V014 SLP019 P0001 60002 T00500033 53006=
KOMK 232053Z AUTO 01006KT 10SM CLR 14/M03 A3005 RMK AO2 SLP179
     T01441028 53001=
KONO 232053Z AUTO 31015KT 10SM CLR 13/M03 A3003 RMK AO2 SLP175
     T01331033 53004=
KOPF 232053Z 08012G17KT 10SM FEW043 27/17 A3002 RMK AO2 SLP167
     T02720172 55009=
KORL 232053Z 03006KT 10SM CLR 28/14 A3006 RMK AO2 SLP183 T02830139
     55010=
KOTM 232053Z AUTO 16022G33KT 10SM CLR 27/14 A2958 RMK AO2 PK WND
     17035/2038 SLP008 T02720144 56020=
KOVE 232053Z AUTO 32010G21KT 10SM CLR 21/M01 A3000 RMK AO2 SLP161
     T02061011 57008=
KAMA 232053Z 21025G39KT 10SM CLR 24/09 A2959 RMK AO2 PK WND
     22039/2051 SLP968 T02440094 56018=
KASE 232053Z 28004KT 10SM BKN046 OVC060 02/M04 A2958 RMK AO2
     SLP954 60002 T00221044 51001=
KGGG 232053Z AUTO 18018G23KT 10SM SCT065 29/13 A2985 RMK AO2 PK
     WND 17031/2001 SLP101 T02940128 56026=
KGJT 232053Z 02007KT 5SM RA BR OVC010 01/01 A2969 RMK AO2 SLP042
     P0008 60027 T00110006 51033=
KGUP 232053Z AUTO 25009KT 10SM -RA OVC033 05/01 A2979 RMK AO2
     SLP020 P0001 60002 T00500011 51001=
KRBD 232053Z AUTO 18021G35KT 10SM CLR 29/16 A2975 RMK AO2 PK WND
     16039/2032 SLP067 T02890156 56028=
KRWL 232053Z AUTO 26007KT 9SM FEW010 BKN030 OVC039 01/M02 A2958
     RMK AO2 SNB07E52 SLP010 P0000 60000 T00111017 53012=
KSDL 232053Z 23011G19KT 10SM BKN070 24/06 A2974 RMK AO2 SLP050
     T02390061 58018=
KBUR 232053Z VRB04KT 10SM CLR 24/M02 A2982 RMK AO2 SLP087
     T02391017 58009=
PABA 232052Z AUTO 09020KT 10SM OVC008 M04/M06 A3006 RMK AO2 PK WND
     09026/2029 SNE10 SLP185 6//// T10391056 58001 FZRANO PNO
     $=
K4R5 232055Z AUTO 13004KT 10SM BKN100 OVC120 21/12 A2965 RMK AO2
     T02070124=
KARV 232055Z AUTO 15013G19KT 10SM BKN043 21/12 A2974 RMK AO2
     T02130119=
KBEH 232053Z AUTO 16018G28KT 10SM FEW060 26/12 A2991 RMK AO2 PK
     WND 17030/2025 SLP126 T02560122 56013=
KBVY 232053Z VRB03KT 9SM -RA FEW110 13/12 A3033 RMK AO2 SLP266
     P0002 60002 T01280117 55004=
KDVP 232053Z AUTO 14025G35KT 10SM CLR 26/13 A2934 RMK AO2
     T02550125=
KGSH 232053Z AUTO 16019G25KT 10SM CLR 24/11 A2997 RMK AO2 PK WND
     15029/2026 SLP146 T02440106 56013=
KHAO 232053Z AUTO VRB06KT 10SM CLR 26/07 A3007 RMK AO2 SLP180
     T02560072 56017=
KHFY 232055Z AUTO 16015G20KT 10SM CLR 26/11 A3002 RMK AO2
     T02550113=
KHGR 232053Z 36008KT 10SM OVC049 17/10 A3022 RMK AO2 SLP245
     T01670100 56011 $=
KIML 232053Z AUTO 33020G27KT 10SM CLR 22/M03 A2925 RMK AO2 PK WND
     25054/2001 WSHFT 2003 SLP884 T02171028 53009 $=
KIUA 232055Z AUTO 14005KT 10SM CLR 20/06 A3022 RMK AO2
     T02000058=
KIWI 232053Z AUTO 00000KT 10SM CLR 16/11 A3036 RMK AO2 SLP280
     T01560111 58005=
KMDZ 232055Z AUTO 13013G19KT 10SM BKN043 22/13 A2971 RMK AO2
     T02240126 PWINO=
KORB 232053Z AUTO 14008G17KT 10SM CLR 23/12 A2958 RMK AO2=
KPKB 232053Z 00000KT 10SM CLR 25/07 A3014 RMK AO2 SLP204 T02500072
     56018=
KXWA 232051Z AUTO 03022G27KT 10SM OVC006 04/03 A2947 RMK AO2 PK
     WND 03029/2032 SLP002 T00440028 56003=
KAKO 232053Z AUTO 02016KT 10SM FEW040 SCT080 BKN100 17/01 A2932
     RMK AO2 PK WND 36028/2018 RAB24E42 SLP882 P0000 60000
     T01720011 53016 $=
KAQP 232053Z AUTO 17021G29KT 10SM SCT085 25/11 A2931 RMK AO2=
KBUR 232053Z VRB04KT 10SM CLR 24/M02 A2982 RMK AO2 SLP087
     T02391017 58009=
KGKY 232053Z 15018G32KT 10SM CLR 30/15 A2974 RMK AO2 PK WND
     15034/2009 SLP062 T03000150 56029=
KINK 232053Z AUTO 21019G28KT 10SM CLR 32/07 A2964 RMK AO2 PK WND
     22031/2030 SLP990 T03220067 56033 $=
