SACA33 KWBC 231800 RRA
METAR
TDPD 231800Z 12006KT 9999 SCT016 SCT032 29/26 Q1012=
TTCP 231800Z 09011KT 9999 FEW022 31/26 Q1009 NOSIG=
TTPP 231800Z 13008KT 9999 VCSH FEW016CB FEW018TCU 31/25 Q1009
     NOSIG RMK CW W TCU W=
