SAUS70 KWBC 231634
METAR
K2C8 231635Z AUTO 04012KT 10SM FEW014 11/09 A2957 RMK AO2=
KCLK 231635Z AUTO 19021G26KT 10SM CLR 23/11 A2968 RMK AO2=
KD50 231635Z AUTO 07015G22KT 10SM OVC013 05/03 A2958 RMK AO2=
KFRR 231635Z AUTO 00000KT 10SM CLR 14/05 A3028 RMK AO1=
KSPA 231635Z AUTO 00000KT 10SM CLR 18/06 A3023 RMK AO2=
KVER 231635Z AUTO 17016G22KT 10SM SCT120 25/17 A2974 RMK AO2
     T02530165=
KY51 231635Z AUTO 15014G17KT 10SM CLR 20/14 A2975 RMK AO1
     T01970142=
K1S5 231635Z AUTO 00000KT 10SM BKN085 05/01 A3006 RMK AO2
     T00480008=
KJXI 231635Z AUTO 16012G21KT 10SM BKN032 BKN040 25/16 A2995 RMK
     AO2 T02520160=
KMCJ 231635Z AUTO 16018KT 10SM FEW055 27/13 A2995 RMK A01=
K2J9 231635Z AUTO 00000KT 10SM CLR 24/05 A3019 RMK AO2=
K4R5 231635Z AUTO 12004KT 10SM BKN100 OVC120 19/12 A2973 RMK AO2
     T01900118=
K8W2 231635Z AUTO 02005KT 10SM CLR 15/05 A3028 RMK AO1
     T01520048=
KARV 231635Z AUTO 15012G15KT 10SM SCT100 18/12 A2982 RMK AO2
     T01750115=
KCCA 231635Z AUTO 17010G16KT 140V200 10SM BKN025 OVC031 22/16
     A2997 RMK AO2=
KCDH 231635Z AUTO 17013G19KT 10SM SCT046 26/18 A3000 RMK AO2=
KCPK 231635Z AUTO 33004KT 15/14 A3013 RMK AO2 T01460138=
KEOE 231635Z AUTO 09003KT 10SM CLR 20/08 A3025 RMK AO2=
KFDW 231635Z AUTO 03003KT 10SM CLR 21/09 A3021 RMK AO1=
KHFY 231635Z AUTO 19013G17KT 10SM CLR 23/13 A3009 RMK AO2
     T02340129=
KIUA 231635Z AUTO 16004KT 10SM CLR 20/05 A3026 RMK AO2
     T02000051=
KIXA 231635Z AUTO 36009KT 10SM OVC017 16/15 A3018 RMK AO2=
KJAQ 231635Z AUTO 33005KT 10SM CLR 11/M01 A2995 RMK AO1
     T01111008=
KLDJ 231635Z AUTO 03005KT 10SM -DZ SCT120 16/08 A3027 RMK AO2
     T01560080=
KMDZ 231635Z AUTO 15010G17KT 10SM CLR 18/13 A2979 RMK AO2
     T01800125 PWINO=
KRAW 231635Z AUTO 21015G28KT 10SM SCT120 25/13 A2974 RMK AO2=
