SAUS70 KWBC 232100 RRQ
METAR
KCPS 232053Z 19013G33KT 150V220 10SM CLR 26/14 A2982 RMK AO2 PK
     WND 18033/2050 SLP093 T02560144 55018 $=
KDVN 232052Z AUTO 17016G26KT 10SM CLR 23/14 A2971 RMK AO2 PK WND
     16032/1953 SLP054 T02330139 56019=
KFIT 232052Z AUTO 00000KT 10SM SCT080 BKN090 OVC110 14/07 A3034
     RMK AO2 SLP276 T01390072 55002=
KIEN 232052Z AUTO 34014G22KT 10SM CLR 13/02 A2931 RMK AO2 SLP923
     T01330022 51016=
KLDJ 232055Z AUTO 06011G17KT 10SM -RA BKN042 OVC050 16/07 A3023
     RMK AO2 T01590073=
KMTO 232053Z AUTO 16018G29KT 10SM CLR 24/13 A2989 RMK AO2 PK WND
     18037/2029 SLP118 T02440128 55013=
KOMA 232052Z 17028G43KT 10SM BKN130 BKN170 29/14 A2933 RMK AO2 PK
     WND 16043/2051 SLP924 T02940139 56022=
KORE 232052Z AUTO 00000KT 10SM BKN100 13/09 A3033 RMK AO2 SLP276
     T01280089 55001=
KPYM 232052Z AUTO 01006KT 6SM RA BR FEW075 OVC100 14/12 A3030 RMK
     AO2 RAB08 SLP262 P0004 60005 T01390122 55008=
KSPI 232052Z 17021G31KT 10SM FEW100 25/14 A2979 RMK AO2 PK WND
     18037/2033 SLP083 T02500144 56019=
KSPW 232053Z AUTO 15026G41KT 10SM FEW120 28/12 A2937 RMK AO2 PK
     WND 14041/2050 SLP937 T02780122 56018=
KARR 232052Z 16020G33KT 10SM FEW050 25/14 A2980 RMK AO2 PK WND
     17039/2031 SLP086 T02500139 56020=
KBIS 232052Z AUTO 08014KT 10SM CLR 18/08 A2927 RMK AO2 SLP910
     T01830078 55017=
KBML 232052Z AUTO 00000KT 10SM CLR 17/07 A3033 RMK AO2 SLP280
     T01670067 56002=
KEST 232052Z AUTO 16028G37KT 10SM CLR 26/13 A2940 RMK AO2 PK WND
     15040/2013 SLP949 T02560128 56019=
KGFL 232053Z AUTO 00000KT 10SM CLR 17/07 A3029 RMK AO2 SLP260
     T01670067 56007=
KHIE 232052Z AUTO 00000KT 10SM CLR 14/11 A3032 RMK AO2 SLP276
     T01440106 56005=
KIJD 232052Z AUTO 00000KT 6SM -RA BR SCT050 BKN110 11/10 A3031 RMK
     AO2 SLP265 P0001 60001 T01110100 53005=
KMDH 232052Z 18016G28KT 10SM BKN049 27/14 A2990 RMK AO2 PK WND
     18032/1958 SLP123 T02670139 56016=
KMKE 232052Z 14013KT 10SM FEW048 SCT130 21/13 A2981 RMK AO2 SLP093
     T02110133 56021 $=
KMRJ 232055Z AUTO 15017G23KT 10SM CLR 23/11 A2971 RMK AO2=
KPWK 232052Z 17018G33KT 10SM CLR 26/13 A2983 RMK AO2 PK WND
     17034/2042 SLP098 T02560128 56019=
KRAC 232053Z AUTO 17012G23KT 10SM FEW120 19/13 A2984 RMK AO2
     SLP103 T01940128 56022=
KSBM 232053Z AUTO 15011G20KT 10SM CLR 19/13 A2984 RMK AO2 PK WND
     16029/2015 SLP103 T01940128 56020=
K0E0 232055Z AUTO 23026G35KT 10SM BKN090 18/M03 A2971 RMK AO2
     T01761031 TSNO=
KAFW 232053Z 16022G38KT 10SM FEW250 30/15 A2971 RMK AO2 PK WND
     17038/2043 SLP047 T03000150 56027=
KAPA 232053Z 22021G37KT 10SM FEW050 SCT090 SCT200 17/M06 A2937 RMK
     AO2 PK WND 22037/2049 SLP884 SHRA DSNT SW-NW T01671061
     53002=
KBYG 232053Z AUTO 33027G47KT 10SM OVC075 03/M02 A2950 RMK AO2 PK
     WND 34047/2037 SLP984 60000 T00281022 53001=
KHRL 232052Z 17025G31KT 10SM BKN050 33/18 A2977 RMK AO2 PK WND
     17033/2027 SLP082 T03280183 56021 $=
KITR 232053Z AUTO 23034G45KT 9SM SCT031 26/M04 A2933 RMK AO2 PK
     WND 21053/1957 SLP873 T02611039 55003 $=
KLHX 232053Z AUTO 25025G38KT 10SM CLR 24/M01 A2939 RMK AO2 PK WND
     22045/2006 SLP897 T02441006 53000 $=
KMWH 232052Z VRB05KT 10SM CLR 14/M03 A3007 RMK AO2 SLP236
     T01441028 52009=
KPUC 232053Z AUTO 33009G23KT 10SM BKN046 07/M07 A2971 RMK AO2
     SLP059 T00671067 51024=
