SAUS70 KWBC 231700
METAR
KGAF 231655Z AUTO 05013KT 8SM CLR 12/07 A2954 RMK AO2=
KGPH 231655Z AUTO 18020G27KT 10SM CLR 26/12 A2962 RMK AO2=
KLBE 231647Z 00000KT 15SM CLR 20/02 A3024=
KW63 231655Z AUTO 01006KT 10SM CLR 16/08 A3021 RMK AO1=
KMWC 231645Z 17012G15KT 10SM CLR 21/09 A2990=
KATW 231645Z 15014G19KT 10SM CLR 19/11 A2986=
KCNW 231655Z 17021G29KT 10SM BKN034 28/16 A2989=
KEZS 231655Z AUTO 17005KT 10SM CLR 22/14 A2987 RMK AO2
     T02150135=
KRYN 231645Z 25012KT 10SM CLR 22/09 A2984=
PAKU 231645Z 12012KT 5SM R06/P6000FT BR OVC004 M05/M05 A3003=
TJIG 231645Z 08007KT 10SM SCT040 29/24 A2991=
