SAPA32 KWBC 231700
METAR
NCRG 231700Z AUTO 03010KT 350V060 7000 -RA BKN010/// BKN026///
     BKN080/// 24/23 Q1011=
NFFN 231700Z 00000KT 9999 FEW030 BKN300 23/20 Q1011 NOSIG=
NFNA NIL=
NFTF 231700Z 14009KT 9999 FEW016 22/18 Q1014=
NFTV 231700Z 16005KT 9999 FEW008 FEW016TCU 23/22 Q1011=
NGFU 231700Z 03010KT 9999 FEW018TCU BKN110 27/24 Q1010=
NSFA 231700Z 12006KT 9999 SCT018 BKN036 24/23 Q1011=
NSTU 231650Z 33008G14KT 10SM SCT018TCU BKN040 BKN100 26/25 A2983
     RMK SHRAE50 TCU W-N-E SLP102 T02590245=
NTAA NIL=
NWWW 231700Z AUTO 07007G19KT 010V140 9999 FEW062 SCT072 OVC140
     25/17 Q1011 TEMPO SHRA FEW020TCU=
