SAUS70 KWBC 231800 RRX
METAR
KBOS 231754Z 04008KT 10SM FEW020 OVC140 14/09 A3035 RMK A02 SLP275
     T01440094 10144 20106 56009=
KBOS 231754Z 04008KT 10SM FEW020 OVC140 14/09 A3035 RMK A02 SLP275
     T01440094 10144 20106 56009=
KHOB 231750Z 20017G24KT 10SM SKC 27/09 A2976=
