SAUS80 KWBC 231900 RRB
METAR
K40U 231855Z AUTO 29013G20KT 10SM BKN050 02/M04 A2969 RMK AO2
     T00171044=
TJSJ 231856Z 05010KT 10SM SCT034 SCT085 31/24 A2989 RMK AO2 SLP120
     VCSH S T03060239 $=
K2WX 231856Z AUTO 33016G25KT 08/03 A2931 RMK AO1 SLP932
     T00780033=
K9V9 231855Z AUTO 14016G23KT 10SM CLR 22/08 A2915 RMK AO2
     T02240080=
KAYS 231855Z AUTO 00000KT 10SM CLR 26/12 A3012 RMK AO2
     T02600117=
KCAO 231855Z AUTO 21035G51KT 10SM FEW100 24/01 A2953 RMK AO2 PK
     WND 22053/1758 SLP933 T02390011=
KD07 231856Z AUTO 34011KT 12/04 A2925 RMK AO1 SLP912 T01170039=
KGIC 231855Z AUTO 29003KT 10SM SCT018 BKN025 OVC033 03/00 A3001
     RMK AO1=
KPSN 231855Z AUTO 16014G20KT 10SM SCT050 BKN060 29/16 A2987 RMK
     AO2=
KSOA 231855Z AUTO 17017KT 10SM 27/15 A2984 RMK AO2=
KCKP 231855Z AUTO 17018G26KT 10SM CLR 26/12 A2938 RMK AO2
     T02590120=
KIZA 231855Z AUTO VRB04KT 10SM CLR 19/01 A2989 RMK AO2=
KBIH 231856Z AUTO 36019G29KT 10SM CLR 12/M09 A2993 RMK AO2 PK WND
     34029/1833 SLP113 T01221089=
KFLG 231857Z 24012G20KT 10SM SCT027 OVC033 04/M01 A2984 RMK AO2
     SLP049 T00441006=
KLWS 231856Z 17006KT 10SM CLR 08/03 A3005 RMK AO2 SLP183
     T00780033=
K4BM 231855Z AUTO 16012G18KT 1/4SM -VCTSSN OVC002 M02/M03 A2962
     RMK AO2=
KMHS 231856Z AUTO 31005KT 10SM FEW033 08/M01 A3011 RMK AO2 SLP218
     T00831011=
KSMP 231856Z AUTO 23004KT 9SM SCT003 BKN009 OVC015 02/01 A3007 RMK
     AO2 SLP203 T00170006 $=
KSPD 231856Z AUTO 22026G43KT 26/00 A2945 RMK AO1 PK WND 23054/1815
     SLP905 T02610000=
KSXT 231856Z AUTO VRB03KT 10SM BKN020 BKN026 03/02 A3015 RMK AO2
     SLP223 T00330017=
KCBE 231855Z AUTO 22004KT 10SM CLR 18/06 A3029 RMK AO2
     T01780057=
