SAUS70 KWBC 232000 RRE
METAR
KSIK 231955Z AUTO 18009G18KT 10SM SCT050 26/15 A2995 RMK AO2=
KSPF 231955Z AUTO 30020G28KT 10SM OVC015 05/01 A2940 RMK AO2=
KSTF 231955Z AUTO RMK AO2 PNO PWINO TSNO=
KSUZ 231955Z AUTO 18014G23KT 10SM SCT050 28/15 A2989 RMK A01=
KSVC 231955Z AUTO 27012G22KT 10SM CLR 19/04 A2983 RMK AO2
     T01900036=
KSVH 231955Z AUTO 00000KT 10SM CLR 22/05 A3016 RMK AO2
     T02200046=
KSXU 231955Z AUTO 22030G36KT 10SM CLR 23/00 A2960 RMK AO2
     T02261005=
KT69 231955Z AUTO 15017G22KT 9SM FEW026 FEW033 28/22 A2982 RMK
     A01=
KTDF 231955Z AUTO 36006KT 10SM CLR 18/03 A3019 RMK AO2=
KTKX 231955Z AUTO 20017G25KT 9SM SCT050 SCT055 28/15 A2993 RMK AO2
     TSNO=
KTME 231955Z AUTO 18010G18KT 10SM BKN065 30/15 A2989 RMK AO2=
KTSP 231955Z AUTO 30015KT 9SM CLR 11/M03 A2995 RMK AO2=
KTVY 231955Z AUTO 33010KT 10SM BKN042 BKN049 OVC065 04/00 A2985
     RMK AO2=
KTWT 231955Z AUTO 15015G23KT 10SM CLR 27/09 A2999 RMK AO2=
KU42 231955Z AUTO 33015G19KT 10SM OVC039 04/00 A2983 RMK AO1
     T00400001=
KUBE 231955Z AUTO 13018G25KT 10SM SCT042 23/17 A2961 RMK AO2=
KUOX 231955Z AUTO 19010G16KT 10SM CLR 26/12 A3003 RMK AO2
     PWINO=
KUTA 231955Z AUTO 17016G20KT 10SM BKN055 28/14 A2997 RMK AO2
     T02750137 $=
KUXL 231955Z AUTO 14017G23KT 10SM SCT036 BKN060 OVC075 27/19 A2998
     RMK AO2 T02720188=
KUZA 231954Z AUTO 36004KT 10SM CLR 23/07 A3015 RMK AO2 SLP207
     T02280067=
KVGC 231955Z AUTO 00000KT 10SM CLR 17/06 A3028 RMK AO2=
KVJI 231955Z AUTO 00000KT 10SM CLR 25/M02 A3018 RMK AO2
     T02451025=
KW78 231955Z AUTO 01006KT 10SM CLR 20/05 A3017 RMK AO1
     T01970054=
KW81 231955Z AUTO 01005KT 10SM OVC025 18/09 A3016 RMK AO1
     T01750088=
KX07 231955Z AUTO 01006KT 10SM FEW055 28/16 A3006 RMK A01=
KX60 231955Z AUTO 32004KT 10SM CLR 28/11 A3008 RMK AO2
     T02770110=
KXNX 231955Z AUTO 17010G19KT 10SM CLR 25/06 A3010 RMK A01=
KXSA 231955Z AUTO 33003KT 10SM OVC018 15/15 A3017 RMK AO2
     T01510151=
KY19 231955Z AUTO 07011G19KT 10SM CLR 15/08 A2927 RMK AO2=
K06D 231955Z AUTO 03020G25KT 10SM OVC015 09/07 A2948 RMK AO2=
K0S9 231955Z AUTO 14009KT 10SM FEW025 SCT034 12/06 A3013 RMK
     AO2=
K0VG 231955Z AUTO 19004KT 10SM CLR 23/03 A3016 RMK AO2=
K10G 231955Z AUTO 14007KT 10SM CLR 23/05 A3016 RMK AO2=
K15M 231955Z AUTO 17009KT 10SM CLR 25/06 A3007 RMK AO2 T02500061
     $=
K1P1 231955Z AUTO 00000KT 10SM CLR 17/04 A3034 RMK AO2
     T01700040=
K1R7 231955Z AUTO 18008KT 10SM SCT055 27/16 A3005 RMK AO2
     PWINO=
K24A 231955Z AUTO 18005KT 10SM CLR 22/M04 A3018 RMK AO2
     T02181038=
K24J 231955Z AUTO 00000KT 10SM 27/07 A3009 RMK A01=
K28J 231955Z AUTO 05005KT 10SM CLR 25/12 A3008 RMK AO2 TSNO=
K2D5 231955Z AUTO 11026G33KT 8SM CLR 22/12 A2927 RMK AO2=
K2P2 231955Z AUTO 18011G19KT 150V210 10SM OVC075 17/12 A2990 RMK
     AO2 T01650117=
K35A 231955Z AUTO 00000KT 10SM CLR 23/05 A3019 RMK A02
     T02280055=
K3AU 231955Z AUTO 17029G38KT 10SM CLR 27/11 A2953 RMK AO2=
K3D2 231955Z AUTO 17016G23KT 10SM CLR 17/11 A2989 RMK AO2
     T01700107=
K42J 231955Z AUTO VRB05KT 10SM CLR 27/10 A3008 RMK A01=
K46D 231955Z AUTO 09015G24KT 10SM CLR 18/08 A2934 RMK AO2=
K4A6 231955Z AUTO VRB05KT 10SM CLR 24/07 A3012 RMK AO2=
K4M9 231955Z AUTO 19019G27KT 10SM BKN047 26/17 A2992 RMK AO2
     PWINO=
K4S2 231955Z AUTO 29003KT 10SM CLR 13/02 A3014 RMK AO2=
K5H4 231955Z AUTO 06018G23KT 10SM CLR 14/02 A2936 RMK AO2=
K6B9 231955Z AUTO 14005G10KT 10SM CLR 20/00 A3025 RMK AO2=
K6L4 231955Z AUTO 00000KT 10SM VCTS CLR 22/04 A3016 RMK AO2 LTG
     DSNT N=
K6S2 231955Z AUTO 22007KT 5SM HZ CLR 13/11 A3021 RMK AO2=
