SAUS70 KWBC 232100 RRT
METAR
KLJF 232055Z AUTO 14021G27KT 10SM CLR 24/11 A2942 RMK AO2=
KLNL 232055Z AUTO 14009G19KT 10SM SCT038 22/11 A2979 RMK AO2
     T02170110=
KMHE 232053Z AUTO 17016G33KT 10SM CLR 29/07 A2916 RMK AO2 PK WND
     18033/2045 SLP864 T02940067 56023=
KMPO 232053Z AUTO 06005KT 10SM CLR 14/08 A3027 RMK AO2 SLP259
     T01390083 56003=
KBOS 232054Z 03007KT 10SM -RA FEW070 OVC110 13/09 A3033 RMK AO2
     SLP271 P0001 60002 T01330089 55004=
KBRO 232053Z 14021G31KT 10SM BKN037 OVC046 31/22 A2980 RMK AO2 PK
     WND 17034/2039 SLP089 T03110217 56019=
KFLL 232053Z 06010KT 10SM SCT040 28/18 A3001 RMK AO2 SLP161
     T02830183 55010 $=
KJFK 232051Z 03011KT 10SM -RA SCT028 BKN038 OVC065 14/10 A3024 RMK
     AO2 SLP240 P0000 60001 T01440100 56010=
KMCO 232053Z 05009KT 10SM FEW050 29/13 A3006 RMK AO2 SLP177
     T02890128 55009 $=
KPBI 232053Z 03011KT 10SM SCT043 28/19 A3004 RMK AO2 SLP172
     T02780189 55007 $=
TIST 232053Z 05004KT 10SM FEW029 FEW037 29/23 A2988 RMK AO2 SLP118
     T02890233 55005=
KGFA 232055Z AUTO 34016KT 4SM -SN OVC008 00/M00 A2986 RMK AO2
     SLP142 P0000 60001 T00001003 52020 $=
KTOI 232053Z AUTO VRB04KT 10SM CLR 28/06 A3011 RMK AO2 SLP194
     T02780056 56019=
TIST 232053Z 05004KT 10SM FEW029 FEW037 29/23 A2988 RMK AO2 SLP118
     T02890233 55005=
KBYS 232055Z AUTO 31006KT 10SM CLR 17/M10 A2985 RMK AO2 SLP094
     T01711098 58001=
KGUR 232055Z AUTO 31026G34KT 10SM BKN026 09/02 A2941 RMK AO2 PK
     WND 34035/20 SLPNO 60000 T00900019=
PAAD 232055Z AUTO 10016G21KT 10SM OVC005 M05/M06 A3002 RMK AO2
     T10551060=
PAAK 232056Z AUTO 23005KT 10SM -RA OVC024 A3028 RMK AO2 SLPNO
     P0000 60000 52017 FZRANO $=
PABL 232056Z AUTO 16010KT 10SM FEW018 02/00 A2987 RMK AO2 SLP115
     60003 T00170000 56005 FZRANO $=
PABV 232056Z AUTO 23004KT 10SM CLR 00/M03 A2991 RMK AO2 SLP135
     T00001033 51006 FZRANO=
PADL 232056Z 12004KT 10SM CLR 02/00 A3010 RMK AO2 SLP197 MIFG OVR
     RIVER T00170000 58001=
PADM 232056Z AUTO 08018G24KT 10SM BKN032 BKN047 OVC060 01/M01
     A2996 RMK AO2 SLP151 T00111011 58019 FZRANO=
PADU 232056Z 19011KT 10SM SCT027 BKN032 OVC050 08/04 A3020 RMK AO2
     RAB22E39 SLP230 P0000 60000 T00780039 56010=
PAFM 232056Z AUTO 13008G15KT 6SM -SN BR BKN009 OVC022 M01/M02
     A2997 RMK AO2 SNB25 SLP157 P0000 60000 T10111022 58000
     FZRANO=
PAGA 232056Z AUTO 8SM -SN FEW027 BKN033 OVC042 00/M02 A3001 RMK
     AO2 UPB24E44SNE24B44 SLP164 P0000 60000 T00001017 58004
     FZRANO $=
PAGL 232056Z AUTO 17025G29KT 7SM OVC011 03/01 A2981 RMK AO2 PK WND
     16030/2006 SLP089 T00280011 58016 PWINO $=
PAGN 232056Z AUTO 05011G16KT 10SM -RA SCT011 BKN026 OVC060 04/03
     A2941 RMK AO2 SLP949 P0001 60005 T00390033 58020=
PAGS 232056Z AUTO VRB05KT 10SM OVC065 06/01 A2946 RMK AO2 RAE34
     SLP977 P0000 60001 T00610006 58014=
PAHL 232056Z AUTO 16007KT 2 1/2SM -SN BR BKN005 OVC017 M01/M01
     A2998 RMK AO2 VIS 2V4 CIG 003V009 SLP159 P0000 60000
     T10061011 58005 FZRANO=
PAHY 232056Z AUTO 10020G31KT 7SM -RA SCT018 OVC036 09/07 A2931 RMK
     AO2 PK WND 10031/2055 SLP921 P0003 60011 T00940072 58033
     $=
PAIG 232056Z AUTO 23007KT 10SM CLR 02/M02 A3009 RMK AO2 SLP200
     T00171017 50005 FZRANO $=
PAIK 232056Z AUTO 08007KT 10SM SCT005 BKN018 OVC050 M01/M01 A2991
     RMK AO2 SLP132 T10061011 51000 FZRANO=
PAIN 232056Z AUTO 00000KT 10SM BKN025 OVC032 M04/M06 A2996 RMK AO2
     SLP187 60000 T10441061 50001 FZRANO $=
PAKI 232056Z AUTO 20012KT 10SM BKN036 OVC070 05/03 A2987 RMK AO2
     SLP117 6//// T00500028 58026 PNO $=
