SAUS80 KWBC 231838
METAR
KLYV 231835Z AUTO 15016G28KT 10SM CLR 23/11 A2936 RMK AO2=
KPOV 231835Z AUTO 15004KT 10SM CLR 24/02 A3017 RMK AO2 T02350016
     PWINO=
KPZQ 231835Z AUTO 15009G16KT 10SM SCT049 23/12 A3005 RMK AO2
     T02340121=
KM21 231835Z AUTO 17017G23KT 10SM CLR 26/09 A3005 RMK AO2
     T02580086=
KEKX 231835Z AUTO 19010G15KT 10SM CLR 25/08 A3010 RMK AO2
     T02500079=
KY23 231835Z AUTO 12009G15KT 10SM CLR 23/15 A2966 RMK AO2
     T02280151=
KPTS 231835Z AUTO 17020G30KT 10SM CLR 28/16 A2967 RMK AO2
     T02840155 PWINO=
KSMS 231835Z AUTO VRB05G12KT 10SM CLR 24/08 A3016 RMK AO2=
KSNC 231835Z AUTO 01003KT 8SM -RA FEW027 FEW046 FEW060 14/09 A3029
     RMK AO2=
KSOW 231835Z AUTO 23015G27KT 10SM FEW013 BKN018 OVC029 09/07 A2984
     RMK AO2=
KIKW 231835Z AUTO 20012G20KT 10SM SCT060 25/10 A3004 RMK AO2
     T02520102=
KSYN 231835Z AUTO 14012G20KT 10SM CLR 24/12 A2954 RMK AO2
     T02410120=
KGNT 231835Z AUTO 24010G18KT 10SM SCT033 BKN039 OVC049 12/04 A2979
     RMK AO2 T01200038=
KSVE 231835Z AUTO 02005G16KT 10SM SCT048 SCT060 07/M05 A3008 RMK
     AO2=
KSOW 231835Z AUTO 23015G27KT 10SM FEW013 BKN018 OVC029 09/07 A2984
     RMK AO2=
KCLI 231835Z AUTO 16012G18KT 10SM CLR 22/13 A2983 RMK AO2
     T02190126=
KSNC 231835Z AUTO 01003KT 8SM -RA FEW027 FEW046 FEW060 14/09 A3029
     RMK AO2=
KY23 231835Z AUTO 12009G15KT 10SM CLR 23/15 A2966 RMK AO2
     T02280151=
KPZQ 231835Z AUTO 15009G16KT 10SM SCT049 23/12 A3005 RMK AO2
     T02340121=
KPOV 231835Z AUTO 15004KT 10SM CLR 24/02 A3017 RMK AO2 T02350016
     PWINO=
KEDU 231840Z AUTO 34014G23KT 10SM CLR 18/M02 A3000 RMK AO1=
KGNG 231835Z AUTO 27021G29KT 10SM CLR 06/M00 A2989 RMK AO2=
KCIR 231835Z AUTO 23015G19KT 10SM BKN044 OVC050 25/15 A2999 RMK
     AO2 T02540145=
KVTI 231835Z AUTO 15020G25KT 10SM CLR 26/13 A2963 RMK AO2
     T02580128=
KJNX 231835Z AUTO 36005KT 10SM CLR 21/11 A3013 RMK AO2=
KMKN 231835Z AUTO 19019G27KT 10SM CLR 29/16 A2981 RMK AO2
     T02870156=
KRFI 231835Z AUTO 16011G18KT 10SM SCT046 BKN050 30/11 A2993 RMK
     AO2 T03020114=
KRLD 231835Z AUTO 28005KT 10SM CLR 14/01 A3008 RMK AO2
     T01350008=
KS39 231835Z AUTO VRB03KT 10SM BKN028 BKN034 06/M00 A3009 RMK
     AO2=
KSEP 231835Z AUTO 19015G21KT 150V210 10SM CLR 29/15 A2982 RMK AO2
     T02900145=
KTKC 231835Z AUTO 16024G30KT 10SM 24/10 A2939 RMK AO2
     T02370101=
KTKV 231835Z AUTO 14009G15KT 10SM SCT038 22/12 A2977 RMK AO2
     T02240120 PWINO=
