SAUS70 KWBC 232000 RRF
METAR
KT82 231955Z AUTO 17014G23KT 10SM CLR 27/15 A2982 RMK AO2
     T02680149=
KTEX 231955Z AUTO 25016G28KT 10SM SCT042 BKN050 OVC065 00/M09
     A2970 RMK AO2 P0001=
KTPH 231956Z AUTO 33022G34KT 10SM CLR 07/M08 A2995 RMK AO2 PK WND
     34034/1954 SLP135 T00721078=
K0CO 231955Z AUTO 31005G15KT M1/4SM -SN OVC001 M06/M07 A2960 RMK
     AO2 VIS M1/4V5=
K13K 231955Z AUTO 17028G35KT 10SM CLR 28/15 A2956 RMK AO2
     T02780148=
K18A 231955Z AUTO 07004KT 10SM CLR 24/01 A3016 RMK AO2
     T02430006=
K1F0 231955Z AUTO 16020G29KT 10SM CLR 28/16 A2973 RMK AO2
     T02800158=
K1H2 231955Z AUTO 14016G22KT 10SM SCT046 25/14 A2992 RMK AO2
     T02470140=
K2J3 231955Z AUTO 31003KT 10SM CLR 25/09 A3014 RMK AO2
     T02460091=
K2R9 231955Z AUTO 15013G22KT 10SM SCT042 BKN050 BKN060 30/19 A2982
     RMK AO2=
K2V5 231955Z AUTO 26020G33KT 10SM CLR 28/M05 A2924 RMK AO2=
K3F3 231955Z AUTO 18009G21KT 10SM SCT049 BKN060 29/16 A2996 RMK
     AO2 T02910160=
K4A9 231955Z AUTO 08003KT 10SM CLR 24/03 A3012 RMK AO2
     T02360028=
K57C 231955Z AUTO 16011G18KT 10SM SCT045 SCT120 24/13 A2981 RMK
     AO2 T02360133=
K5M9 231955Z AUTO 19009G19KT 150V210 10SM CLR 26/08 A3001 RMK AO2
     T02620076=
K7BM 231955Z AUTO 32008G20KT 270V360 1/4SM SN OVC004 M01/M02 A2958
     RMK AO2=
K81R 231955Z AUTO 16014G22KT 10SM CLR 29/15 A2979 RMK AO2
     T02930146=
K9A5 231955Z AUTO 16003KT 10SM CLR 23/02 A3014 RMK AO2
     T02250023=
KAAA 231955Z AUTO 17022G31KT 10SM CLR 24/15 A2981 RMK AO2
     T02410148=
KADC 231957Z AUTO 13021G26KT 10SM CLR 24/11 A2942 RMK AO2 TSNO=
KAHQ 231955Z AUTO 18028G36KT 5SM HZ CLR 31/12 A2932 RMK AO2
     T03070117=
KAND 231956Z AUTO 00000KT 10SM CLR 23/03 A3015 RMK AO2 SLP205
     T02330028=
KAUH 231955Z AUTO 20027G37KT 10SM CLR 31/11 A2925 RMK AO2
     T03050106=
KBCK 231955Z AUTO 12012G19KT 10SM CLR 25/12 A2966 RMK AO2
     T02490121=
KBCT 231953Z 03012G23KT 10SM SCT043 28/18 A3002=
KBGE 231955Z AUTO 07005KT 10SM CLR 26/06 A3011 RMK AO2
     T02610056=
KBIE 231955Z AUTO 17022G34KT 10SM SCT120 29/13 A2936 RMK AO2 LTG
     DSNT SE T02860131=
KBJJ 231956Z AUTO 16011KT 10SM CLR 23/07 A3015 RMK AO2 SLP210
     T02280072=
KBPG 231955Z AUTO 18022G28KT 10SM CLR 29/12 A2971 RMK AO2
     T02930116=
KBRG 231955Z AUTO 21025G33KT 10SM CLR 22/M03 A2968 RMK AO2
     T02161031=
KBVN 231955Z AUTO 20026G34KT 7SM CLR 31/08 A2921 RMK AO2
     T03130081=
KTTA 231955Z AUTO 36008KT 10SM CLR 22/05 A3014 RMK AO2
     T02170049=
KTYL 231955Z AUTO 26022G31KT 10SM SCT050 BKN065 15/00 A2981 RMK
     AO2=
KTYQ 231955Z AUTO 18016G20KT 10SM SCT060 25/11 A3000 RMK AO2
     T02520106=
KUKI 231956Z AUTO 33007KT 310V020 10SM CLR 19/00 A3003 RMK AO2
     SLP164 T01890000=
KVHN 231955Z AUTO 23014G25KT 10SM CLR 29/07 A2978 RMK AO2
     T02920074=
KVTP 231955Z AUTO 24012G25KT 2SM -SN OVC003 M12/M14 A2962 RMK
     AO2=
KVVS 231955Z AUTO 14006KT 10SM CLR 23/00 A3019 RMK AO2
     T02261000=
KVYS 231955Z AUTO 17024G30KT 10SM SCT043 25/14 A2979 RMK AO2
     T02530140=
KZPH 231955Z AUTO 36005KT 10SM CLR 28/15 A3007 RMK A02
     T02810146=
K2G2 231955Z AUTO VRB05KT 10SM CLR 23/02 A3017 RMK A01=
KBTN 231955Z AUTO 12029G37KT 4SM HZ CLR 22/11 A2922 RMK AO2=
KGGI 231955Z AUTO 15023G28KT 10SM CLR 24/15 A2960 RMK AO2
     T02440149=
KHLB 231955Z AUTO 19008G16KT 160V230 10SM CLR 24/08 A3006 RMK
     A01=
KHSB 231955Z AUTO 18019G25KT 10SM SCT055 27/16 A2996 RMK AO2
     T02690164=
KHYX 231955Z AUTO 16013G19KT 10SM CLR 23/10 A3005 RMK AO2
     T02340095=
KIFA 231955Z AUTO 16021G32KT 10SM CLR 26/15 A2955 RMK AO2
     T02580145=
