SAUS70 KWBC 231744 RRA
METAR
KIJX 231735Z AUTO 17016G22KT 10SM CLR 22/14 A2983 RMK AO2
     T02210138=
KLOT 231735Z AUTO 17016G27KT 10SM CLR 24/14 A2990 RMK AO2=
KMLE 231735Z AUTO 17015G24KT 10SM CLR 28/13 A2941 RMK AO2
     T02750128=
KMQB 231735Z AUTO 16018G24KT 10SM SCT120 22/12 A2980 RMK AO2
     T02230121=
KOCQ 231735Z AUTO 16011G16KT 10SM CLR 19/12 A2989 RMK AO1
     T01850122=
KPPQ 231735Z AUTO 17015G21KT 10SM CLR 24/15 A2981 RMK AO2
     T02350150=
KRCR 231735Z AUTO 18014KT 10SM CLR 24/13 A3002 RMK AO2=
KRDK 231735Z AUTO 19023G32KT CLR 28/13 A2946 RMK AO2=
KSDA 231735Z AUTO 18023G33KT 10SM CLR 27/13 A2944 RMK AO2=
KSHL 231735Z AUTO 16025G31KT 10SM CLR 24/13 A2938 RMK AO2=
KSLB 231735Z AUTO 17025G34KT 10SM CLR 24/13 A2943 RMK AO2=
KTAZ 231735Z AUTO 17017G25KT 10SM CLR 24/14 A2988 RMK AO2
     T02350140=
KTIF 231735Z AUTO 19021G27KT 10SM CLR 24/02 A2920 RMK AO2
     T02410021=
KTIP 231735Z AUTO 18024G29KT 10SM CLR 25/13 A2994 RMK AO2
     T02470127=
KUNI 231735Z AUTO 00000KT 10SM CLR 26/07 A3018 RMK AO2
     T02550074=
KW22 231735Z AUTO VRB03KT 2 1/2SM HZ CLR 24/03 A3022 RMK AO2=
KZER 231735Z AUTO 10005KT 10SM OVC031 15/07 A3029 RMK AO2=
K5SM 231733Z AUTO 1/2SM -SN OVC004 M04/M06 A2963 RMK AO2=
KANK 231730Z AUTO 24012G20KT 10SM SCT034 BKN043 OVC110 08/01 A2962
     RMK AO1 T00800011=
KBMC 231730Z AUTO 10SM SCT045 OVC090 05/M01 A2978 RMK AO1
     T00481015=
KCHK 231730Z AUTO 16017G24KT 10SM CLR 26/17 A2968 RMK AO2
     T02620170=
KDUB 231734Z AUTO 28021G28KT 10SM SCT020 SCT029 OVC110 M01/M07
     A2957 RMK AO2=
KEAN 231730Z AUTO 28008KT 10SM RA SCT042 OVC048 09/01 A2942 RMK
     AO2 T00850014=
KHBV 231730Z AUTO 18014G26KT 10SM CLR 29/18 A2985 RMK AO2
     T02900175=
KHSG 231730Z AUTO 01007KT 1SM -SN OVC008 00/00 A2961 RMK AO2 P0002
     T00001001=
KMMH 231734Z AUTO 35011KT 10SM CLR 04/M10 A2996 RMK AO2=
KMPZ 231730Z AUTO 17016G25KT 10SM CLR 25/17 A2971 RMK AO2=
KMYZ 231730Z AUTO 18021G31KT 10SM CLR 28/13 A2945 RMK AO2=
KOSA 231730Z AUTO 19017G22KT 10SM BKN039 OVC044 27/17 A2993 RMK
     AO2 T02660168=
KPVW 231730Z AUTO 22020G30KT 10SM CLR 28/10 A2969 RMK AO2
     T02780095=
KSLR 231730Z AUTO 19015G23KT 10SM BKN042 27/15 A2990 RMK AO2
     T02720153=
KTXW 231730Z AUTO 15019G28KT 1/4SM HZ VV002 31/19 A2984 RMK AO2
     T03090186=
KVYS 231730Z AUTO 18018G25KT 10SM CLR 24/14 A2984 RMK AO2
     T02410135=
K04V 231735Z AUTO 16013G19KT 10SM SCT014 BKN026 BKN047 07/03 A2959
     RMK AO2=
K11R 231735Z AUTO 17014G20KT 10SM SCT047 BKN060 29/17 A2992 RMK
     AO2 T02860173=
K20V 231735Z AUTO 00000KT 10SM SCT016 BKN022 OVC075 03/01 A2956
     RMK AO2=
K5C1 231735Z AUTO 17013G21KT 10SM BKN035 BKN041 25/15 A2991 RMK
     AO1=
KAXX 231735Z AUTO 23020G34KT 10SM OVC050 11/M01 A2970 RMK AO2
     T01091011=
KBMT 231735Z AUTO 15011G22KT 10SM BKN039 BKN065 28/17 A2999 RMK
     AO2 T02820172=
KDUX 231735Z AUTO 20023G42KT 10SM CLR 26/08 A2961 RMK AO2
     T02610077=
KE38 231735Z AUTO 21011G15KT 10SM CLR 25/08 A2996 RMK AO2
     T02540076=
KETN 231735Z AUTO 19021G26KT 10SM CLR 26/15 A2981 RMK AO2
     T02640152=
KFWZ 231735Z AUTO 35013KT 10SM SCT009 BKN012 BKN017 M02/M03 A2955
     RMK AO2=
KGLE 231735Z AUTO 17021G26KT 10SM CLR 27/15 A2981 RMK AO2
     T02700152=
KLMO 231735Z AUTO 05006KT 7SM SCT090 SCT120 21/M03 A2932 RMK AO2
     T02141028=
KRBO 231735Z AUTO 10SM SCT001 SCT035 SCT041 29/20 A2989 RMK AO2
     T02930200=
KRCV 231735Z AUTO 23018G26KT 10SM RA SCT022 BKN032 OVC070 05/02
     A2961 RMK AO2 T00500016=
KSBS 231735Z AUTO 23003KT 3SM SCT007 OVC023 00/00 A2954 RMK AO1
     T00030003=
