SAUS70 KWBC 231640 RRF
METAR
KFPY 231635Z AUTO 04004KT 10SM CLR 24/11 A3017 RMK AO2 T02410105
     TSNO=
KFSK 231635Z AUTO 19019G30KT 10SM CLR 26/15 A2969 RMK AO2
     T02600147=
KFZG 231635Z AUTO 04003KT 10SM CLR 23/12 A3020 RMK AO2
     T02300118=
KGBG 231635Z AUTO 16012G21KT 10SM CLR 21/14 A2982 RMK AO2
     T02120140=
KGCD 231635Z AUTO 00000KT 10SM -DZ SCT014 BKN021 OVC029 02/00
     A3003 RMK AO2 T00150001=
KGCM 231635Z AUTO 18016G28KT 7SM SCT033 25/12 A2978 RMK AO2=
KGGF 231635Z AUTO 22010G15KT 10SM CLR 22/01 A2922 RMK AO2=
KGGP 231635Z AUTO 19016G23KT 10SM CLR 23/11 A3005 RMK AO2=
KOBE 231635Z AUTO 03008KT 360V080 10SM FEW036 28/20 A3009 RMK AO2
     LTG DSNT S=
KOGA 231635Z AUTO 26003KT 10SM CLR 21/01 A2922 RMK AO2
     T02130011=
KOGS 231635Z AUTO 22004KT 10SM CLR 20/04 A3028 RMK AO2=
KOKM 231635Z AUTO 18026G33KT 10SM CLR 24/16 A2978 RMK AO2
     T02390160=
KOKZ 231635Z AUTO 09005KT 10SM CLR 23/10 A3021 RMK AO2
     T02260102=
KOLZ 231635Z AUTO 16020G27KT 10SM CLR 21/13 A2969 RMK A01=
KONL 231635Z AUTO 16016G24KT 10SM CLR 22/05 A2925 RMK AO2
     T02150054=
KOOA 231635Z AUTO 17020G28KT 10SM CLR 25/18 A2966 RMK AO2
     T02480175=
KOPL 231635Z AUTO 15014G22KT 10SM SCT065 26/16 A3007 RMK AO2
     T02610156=
KOPN 231635Z AUTO 01004KT 10SM CLR 23/02 A3024 RMK AO2=
KOWP 231635Z AUTO 19011G24KT 10SM CLR 27/16 A2976 RMK AO2
     T02650158=
KPBX 231635Z AUTO 13003KT 10SM CLR 19/06 A3024 RMK AO2
     T01930061=
KPEA 231635Z AUTO 16016G24KT 10SM CLR 23/14 A2963 RMK AO2
     T02270135=
KPIM 231635Z AUTO 13006KT 10SM CLR 23/02 A3022 RMK AO2
     T02270016=
KPLU 231635Z AUTO 00000KT 10SM -DZ FEW003 06/06 A3012 RMK AO2=
KSAA 231635Z AUTO 28015G20KT 10SM BKN013 OVC019 00/00 A2953 RMK
     AO2=
KSUT 231635Z AUTO 36010KT 10SM CLR 20/08 A3013 RMK AO2
     T01980077=
K06C 231635Z AUTO 16013G16KT 10SM CLR 22/15 A2991 RMK AO2
     T02160153=
K0R4 231635Z AUTO 13013G17KT 10SM CLR 26/16 A3008 RMK AO2
     T02620155=
K1R8 231635Z AUTO VRB03KT 10SM CLR 24/08 A3017 RMK AO2=
K2R9 231635Z AUTO 16011G22KT 10SM BKN033 BKN044 28/19 A2992 RMK
     AO2 T02800190=
K33V 231635Z AUTO 21009G14KT 10SM SCT055 03/M02 A2951 RMK AO1=
K3K3 231635Z AUTO 23023G31KT 5SM HZ SCT017 OVC023 26/07 A2941 RMK
     AO2=
K49A 231635Z AUTO 00000KT 10SM CLR 20/02 A3026 RMK AO2
     T02030020=
K4O4 231635Z AUTO 17017KT 8SM BKN027 OVC032 24/18 A2993 RMK
     AO2=
K66R 231635Z AUTO 17013G21KT 10SM SCT039 BKN045 BKN060 29/18 A2995
     RMK AO2 T02880177=
KADU 231635Z AUTO 17016G27KT 10SM SCT035 SCT050 BKN070 23/13 A2949
     RMK AO2 PWINO=
KAEJ 231640Z AUTO 32003KT 5SM -RA 05/03 A2955 RMK AO2
     T00450029=
KAFK 231635Z AUTO 18022G29KT 10SM CLR 25/13 A2946 RMK AO2
     T02520128=
KAIO 231635Z AUTO 18018G27KT 7SM CLR 24/15 A2946 RMK AO2=
KAJG 231635Z AUTO 18018G27KT 10SM CLR 25/11 A3002 RMK AO2
     T02510114=
KAJR 231635Z AUTO 00000KT 10SM CLR 20/04 A3023 RMK AO2
     T02030037=
KAJZ 231635Z AUTO 16007KT 10SM -RA SCT025 BKN035 BKN090 07/04
     A2961 RMK AO2 T00650040=
KAQO 231635Z AUTO 19014KT 10SM SCT033 26/16 A2988 RMK AO2=
KASL 231635Z AUTO 00000KT 10SM SCT036 26/16 A2994 RMK AO2
     T02620164 TSNO $=
KASW 231635Z AUTO 17009G16KT 130V190 10SM CLR 22/11 A3006 RMK AO2
     T02240115=
KAUH 231635Z AUTO 18018G28KT 10SM CLR 24/11 A2934 RMK AO2
     T02370110=
KAUN 231635Z AUTO 32004KT 10SM CLR 12/M02 A2996 RMK A01=
KAWG 231635Z AUTO 17020G28KT 10SM CLR 23/15 A2970 RMK AO2=
KAXA 231635Z AUTO 15024G31KT 10SM CLR 22/14 A2950 RMK A01=
KAZE 231635Z AUTO 05005KT 10SM CLR 23/12 A3018 RMK AO2
     T02300120=
KBBD 231635Z AUTO 17015G24KT 10SM CLR 24/16 A2986 RMK AO2=
