SAUS70 KWBC 231900 RRS
METAR
PASA 231856Z AUTO 29015KT 9SM -RA OVC007 01/00 A2969 RMK AO2
     RAB03SNE03B30E54 CIG 004V010 SLP053 P0000 T00060000
     FZRANO=
PASD 231856Z 25003KT 10SM FEW026 FEW046 SCT070 06/02 A3024 RMK AO2
     SLP242 T00610022 PNO $=
PASH 231856Z AUTO 12010KT 10SM OVC065 M02/M02 A2977 RMK AO2 SLP083
     T10171022 FZRANO PNO $=
PASK 231856Z AUTO 13006KT 10SM OVC019 M02/M02 A2991 RMK AO2 SLP124
     T10171022 FZRANO=
PASL 231856Z AUTO 00000KT 10SM CLR M03/M04 A3011 RMK AO2 SLP189
     T10331039 FZRANO=
PASM 231856Z AUTO 14010G16KT 3SM -SN BR OVC002 M01/M01 A2991 RMK
     AO2 UPB50E52SNB52 SLP138 P0000 T10061006 FZRANO=
PASX 231856Z AUTO 00000KT 10SM CLR M06/M06 A2994 RMK AO2 SLP147
     T10561056 FZRANO=
PATE 231856Z AUTO 10012KT 9SM -SN BKN021 BKN028 OVC033 00/M01
     A2969 RMK AO2 SLP060 P0000 T00001006 FZRANO=
PATG 231856Z AUTO 01006KT 10SM BKN035 M04/M04 A3011 RMK AO2 SLP196
     T10391044 FZRANO=
PATQ 231856Z AUTO 11013KT 10SM CLR M09/M10 A2992 RMK AO2 SLP138
     T10941100 FZRANO TSNO=
PAUN 231856Z AUTO 09009KT 10SM BKN040 BKN050 OVC070 00/M02 A2995
     RMK AO2 SLP147 T00001022 FZRANO=
PAUT 231855Z AUTO 19009KT 10SM OVC065 06/03 A3020 RMK AO2=
PAVD 231856Z 07018G24KT 10SM FEW060 BKN200 BKN300 A2982 RMK AO2 PK
     WND 06028/1830 SLPNO 06/M09 PNO $=
PAWG 231856Z 09012G18KT 7SM -RA BKN035 OVC040 06/04 A2952 RMK AO2
     SLP998 T00600040 $=
PAWS 231856Z AUTO 00000KT 10SM CLR M03/M06 A2989 RMK AO2 SLP127
     T10331056 FZRANO=
PAZK 231856Z AUTO 33005KT 9SM -SN OVC026 M06/M09 A2977 RMK AO2
     SNB1757 SLP144 P0000 T10561089 FZRANO=
PFCL 231856Z AUTO 22003KT 10SM CLR A3011 RMK AO2 SLPNO FZRANO TSNO
     $=
PFKW 231856Z AUTO 14011KT 10SM CLR M02/M02 A3000 RMK AO2 SLP158
     T10171017 FZRANO=
PFYU 231856Z 00000KT 9SM -SN OVC019 M09/M10 A3004 RMK AO2 SNB50
     SLP190 P0000 T10891100=
PPIZ 231856Z AUTO 10009KT 10SM SCT046 BKN060 M05/M07 A2976 RMK AO2
     SNE01 SLP080 P0000 T10501067 FZRANO=
K05U 231855Z AUTO 32006KT 10SM 01/M02 A2998 RMK A01 P0005=
K0A0 231855Z AUTO 24020G26KT 10SM FEW060 21/05 A2978 RMK AO2=
K0A9 231855Z AUTO 27007KT 8SM CLR 22/04 A3016 RMK A01=
K0CO 231855Z AUTO 27015G33KT 1/2SM HZ OVC001 M05/M08 A2961 RMK AO2
     P0003=
K0F2 231855Z AUTO 15020G28KT 10SM CLR 29/15 A2973 RMK AO2
     T02870151=
K0R0 231855Z AUTO 21010KT 10SM CLR 29/12 A3010 RMK AO2=
K13K 231855Z AUTO 17025G32KT 10SM CLR 28/16 A2958 RMK AO2 LTG DSNT
     N T02780155=
K18A 231855Z AUTO 23003KT 10SM CLR 23/02 A3017 RMK AO2
     T02320016=
K1A9 231855Z AUTO 00000KT 10SM CLR 24/06 A3013 RMK AO2
     T02400057=
K1F0 231855Z AUTO 15018G31KT 10SM CLR 28/17 A2974 RMK AO2
     T02790165=
K1H2 231855Z AUTO 15014G23KT 10SM OVC042 24/14 A2995 RMK AO2
     T02430141=
K1K1 231855Z AUTO 19028G34KT 10SM CLR 28/11 A2953 RMK AO2
     T02770112=
K1M5 231855Z AUTO 20011G16KT 10SM CLR 24/08 A3009 RMK A01=
K1V6 231855Z AUTO 24007KT 10SM SCT032 SCT049 BKN110 17/03 A2943
     RMK AO2=
K2A0 231855Z AUTO 26008KT 10SM CLR 23/06 A3015 RMK A01=
K2G2 231855Z AUTO 12003KT 10SM CLR 23/03 A3018 RMK A01=
K2M2 231850Z AUTO 17009KT 10SM CLR 24/08 A3011 RMK A01=
K33N 231855Z AUTO 03009G14KT 4SM BR FEW013 BKN020 16/14 A3017 RMK
     A01=
K36K 231850Z AUTO 22036G46KT 10SM CLR 28/M01 A2940 RMK AO2=
K3J7 231855Z AUTO 06003KT 10SM CLR 23/06 A3016 RMK AO2=
K3LF 231855Z AUTO 17023G32KT 10SM BKN031 23/14 A2987 RMK AO2
     T02310138=
K3S8 231855Z AUTO 00000KT 10SM BKN008 08/06 A3024 RMK AO2=
K46U 231855Z AUTO 32016G25KT 10SM SCT042 BKN060 BKN075 02/M06
     A2974 RMK A01=
K4V0 231855Z AUTO 23003KT 1SM -SN OVC004 00/00 A2967 RMK AO2
     T00020002=
