SAUS70 KWBC 232000 RRA
METAR
KDYL 231954Z AUTO 04008KT 010V080 10SM SCT060 BKN120 17/08 A3022
     RMK AO2 RAB1858E37 SLP235 P0000 T01720083=
KECG 231954Z 33013KT 10SM OVC007 17/15 A3007 RMK AO2 SLP183
     T01670150=
KELO 231955Z AUTO 13015KT 10SM SCT090 21/09 A2967 RMK AO2=
KEVV 231954Z 19015G25KT 10SM CLR 27/08 A3000 RMK AO2 SLP154
     T02670083=
KRGK 231955Z AUTO 13014KT 10SM CLR 24/12 A2954 RMK AO2=
KRKS 231954Z AUTO 29013G24KT 10SM FEW044 SCT055 BKN110 02/M04
     A2964 RMK AO2 SLP035 T00171039=
KROX 231955Z AUTO 07019KT 10SM CLR 17/09 A2952 RMK AO2=
KRST 231954Z 15023G34KT 10SM CLR 24/12 A2957 RMK AO2 PK WND
     14035/1900 SLP006 T02390122=
KSAZ 231955Z AUTO 13012G21KT 10SM CLR 24/12 A2946 RMK AO2=
KSBY 231954Z 03007KT 5SM -RA BR SCT007 BKN012 OVC020 16/15 A3013
     RMK AO2 SLP204 P0013 T01610150=
KSET 231954Z AUTO 16020G26KT 10SM SCT039 27/15 A2979 RMK AO2 PK
     WND 16029/1934 RAB1856E07 SLP085 P0000 T02670150=
KSGS 231955Z AUTO 14015G21KT 10SM CLR 25/12 A2952 RMK AO2
     T02480116=
KSLC 231954Z 33016KT 10SM FEW030 BKN047 06/M02 A2982 RMK AO2
     SLP089 VIRGA SH DSNT S T00611017 $=
KTAD 231954Z AUTO 25025G38KT 10SM BKN095 21/M01 A2948 RMK AO2 PK
     WND 25038/1949 SLP901 T02111011=
KTEW 231955Z AUTO 16014KT 10SM SCT060 25/09 A3005 RMK AO2
     T02450093=
KTWM 231955Z AUTO 07016G20KT 10SM CLR 19/11 A2965 RMK AO2=
KUIN 231954Z AUTO 17014G27KT 10SM CLR 26/14 A2970 RMK AO2 PK WND
     17027/1912 SLP052 T02610144=
KUKT 231955Z AUTO VRB05G12KT 10SM BKN047 17/09 A3024 RMK A01=
KVAY 231954Z AUTO 02006KT 3SM -RA BR OVC025 15/13 A3021 RMK AO2
     RAB16 SLP230 P0004 T01500128 $=
KVSF 231954Z AUTO 00000KT 10SM CLR 16/07 A3033 RMK AO2 SLP276
     T01610072=
KVTA 231954Z AUTO 16009KT 10SM CLR 26/07 A3012 RMK AO2 SLP196
     T02560067=
KVVV 231955Z 14024G31KT 10SM 23/13 A2931 RMK AO2=
KY63 231955Z AUTO 13022G28KT 10SM CLR 22/12 A2936 RMK AO2
     T02230121=
PAKN 231954Z 00000KT 10SM CLR M01/M02 A3009 RMK AO2 SLP191
     T10061022=
KMEM 231954Z 18013G21KT 10SM FEW050 SCT120 26/12 A2998 RMK AO2
     SLP150 T02610122=
KMFI 231954Z AUTO 16016G27KT 10SM CLR 23/13 A2971 RMK AO2 PK WND
     17031/1903 SLP057 T02280128=
KMGG 231955Z AUTO 11011G25KT 10SM SCT048 SCT055 24/12 A2948 RMK
     AO2 T02410115 PWINO=
KMGJ 231954Z AUTO 01005KT 10SM CLR 14/07 A3028 RMK AO2 SLP254
     T01440067=
KMGN 231955Z AUTO 18010G17KT 160V220 10SM CLR 23/10 A2998 RMK AO2
     T02360108=
KMHE 231953Z AUTO 16022G33KT 10SM CLR 28/09 A2917 RMK AO2 PK WND
     15034/1918 SLP869 T02780089=
KMIC 231953Z 13016G42KT 10SM CLR 25/13 A2949 RMK AO2 PK WND
     15042/1950 SLP981 T02500128=
KMIV 231954Z AUTO 03008KT 1 3/4SM +RA BR SCT009 BKN012 OVC020
     15/14 A3017 RMK AO2 RAB1858 SLP216 P0014 T01500144 $=
KMKC 231954Z 18022G36KT 10SM FEW120 28/14 A2956 RMK AO2 PK WND
     17036/1951 LTG DSNT SE AND W SLP004 T02830144=
KMOT 231954Z 03019G27KT 10SM BKN020 11/05 A2941 RMK AO2 PK WND
     03028/1935 SLP965 T01110050 $=
KMVE 231955Z AUTO 15016G31KT 10SM CLR 24/13 A2935 RMK AO2=
KOFP 231954Z AUTO 34003KT 4SM BR BKN008 OVC012 15/14 A3019 RMK AO2
     RAE22 CIG 006V011 SLP222 P0001 T01500139=
KOLS 231954Z AUTO 23012G18KT 10SM CLR 21/07 A2986 RMK AO2 SLP056
     T02060072=
KOVL 231955Z AUTO 14026G33KT 5SM HZ CLR 24/12 A2939 RMK AO2=
KOZW 231955Z AUTO 16014G21KT 10SM CLR 24/10 A3006 RMK AO2
     T02380104=
KPHF 231954Z 35007KT 5SM -RA BR BKN009 OVC014 14/14 A3011 RMK AO2
     SLP196 P0004 T01440139=
KPHL 231954Z 05013G20KT 10SM -RA SCT030 BKN044 OVC095 16/12 A3021
     RMK AO2 RAB49 SLP229 P0000 T01610122 $=
