SAUS70 KWBC 231938 RRA
METAR
KHFY 231935Z AUTO 17014G21KT 10SM SCT060 26/12 A3003 RMK AO2
     T02580121=
KIUA 231935Z AUTO 15008KT 10SM CLR 21/04 A3023 RMK AO2
     T02100040=
KLNL 231935Z AUTO 18009G21KT 10SM BKN040 22/11 A2981 RMK AO2
     T02200106=
KLUM 231935Z AUTO 13020G27KT 10SM SCT045 25/17 A2960 RMK AO2
     T02530174 PWINO=
KMDZ 231935Z AUTO 14014G24KT 10SM SCT039 22/12 A2972 RMK AO2
     T02170124 PWINO=
KMRJ 231935Z AUTO 15018G26KT 10SM CLR 22/10 A2973 RMK AO2=
KORB 231933Z AUTO 14000KT 10SM CLR 21/11 A2960 RMK AO2=
KPCZ 231935Z AUTO 12013G20KT 10SM CLR 24/12 A2978 RMK AO2
     T02380120=
KRCX 231935Z AUTO 14019G26KT 10SM CLR 23/15 A2969 RMK AO2
     T02290154=
KVGC 231935Z AUTO 00000KT 10SM CLR 17/06 A3028 RMK AO2=
KY51 231935Z AUTO 14019G25KT 10SM CLR 23/15 A2967 RMK AO1
     T02250145=
KEKM 231935Z AUTO 16014KT 9SM FEW055 25/13 A2998 RMK AO2
     T02510125=
KELK 231935Z AUTO 19014G20KT 8SM SCT170 24/12 A2962 RMK AO2 SLP321
     T02430119 $=
KEVU 231935Z AUTO 19024G31KT 10SM CLR 30/15 A2948 RMK AO2 LTG DSNT
     SW T02980155=
KEXX 231935Z AUTO 07004KT 10SM CLR 22/05 A3016 RMK AO2
     T02150053=
KEZF 231935Z AUTO 35005KT 10SM BKN028 OVC034 18/12 A3017 RMK AO2
     T01770120=
KFFX 231935Z AUTO 17009G15KT 10SM SCT050 BKN070 26/12 A2995 RMK
     AO2 T02550115=
KFGN 231935Z AUTO 03010KT 10SM CLR 13/07 A2959 RMK AO2=
KFGX 231935Z AUTO 20004KT 10SM CLR 24/06 A3014 RMK AO2
     T02430061=
KFKA 231935Z AUTO 16022G28KT 10SM CLR 23/13 A2960 RMK AO2
     T02310127=
KFKS 231935Z AUTO 23006G19KT 10SM BKN050 22/12 A2993 RMK AO2
     T02240116=
KFPK 231935Z AUTO 16014G21KT 10SM SCT055 23/10 A3002 RMK AO2
     T02270096=
KFSO 231935Z AUTO 00000KT 10SM CLR 20/06 A3029 RMK AO2
     T01960056=
KFVX 231935Z AUTO 03008KT 10SM OVC029 19/11 A3017 RMK AO2
     T01900110=
KFWB 231935Z AUTO 17007G19KT 130V210 10SM CLR 28/13 A2979 RMK
     AO2=
KFYG 231935Z AUTO 16020G25KT 10SM CLR 26/16 A2978 RMK AO2 LTG DSNT
     N=
KGLY 231935Z AUTO 17019G27KT 10SM CLR 30/14 A2964 RMK AO2=
KGWR 231935Z AUTO 12022G35KT 7SM CLR 23/13 A2928 RMK A01=
KHAI 231935Z AUTO 16014G18KT 10SM SCT050 25/11 A3000 RMK AO2
     T02450112=
KHVS 231935Z AUTO VRB06KT 10SM CLR 23/06 A3015 RMK AO2=
KHYW 231935Z AUTO 33007KT 10SM CLR 22/05 A3012 RMK AO2=
KHZE 231935Z AUTO 06014G22KT 10SM CLR 12/06 A2933 RMK AO2=
KHZL 231935Z AUTO 00000KT 10SM BKN034 BKN050 OVC090 16/07 A3030
     RMK AO2=
KI23 231935Z AUTO 18009G14KT 10SM CLR 24/06 A3012 RMK AO1=
KI67 231935Z AUTO 21009G14KT 10SM CLR 25/08 A3007 RMK AO1=
KI68 231935Z AUTO 16009KT 10SM CLR 25/09 A3010 RMK AO1
     T02470092=
KIDI 231935Z AUTO 00000KT 10SM CLR 21/03 A3025 RMK A01=
KIOB 231935Z AUTO 19008KT 10SM CLR 25/05 A3014 RMK AO2 PWINO=
KIRS 231935Z AUTO 18016G20KT 10SM CLR 23/09 A3001 RMK AO2
     T02300091=
KISQ 231935Z AUTO 14007KT 10SM SCT050 19/12 A2994 RMK AO2
     T01870115=
KJFZ 231935Z AUTO 32003KT 10SM CLR 20/01 A3020 RMK AO2
     T02030006=
KJYM 231935Z AUTO 16011G17KT 10SM SCT050 24/08 A3006 RMK AO2
     T02360075=
KJZI 231935Z AUTO 36008KT 10SM CLR 24/11 A3012 RMK AO2=
KKY8 231935Z AUTO 16013KT 10SM CLR 27/13 A3002 RMK A01=
K04W 231935Z AUTO 12012G19KT 10SM SCT044 23/13 A2956 RMK AO2=
K06D 231935Z AUTO 04020G26KT 10SM OVC014 09/07 A2948 RMK AO2=
K0S9 231935Z AUTO 10008KT 10SM SCT025 SCT034 11/07 A3013 RMK
     AO2=
K0VG 231935Z AUTO 21004KT 10SM CLR 23/04 A3016 RMK AO2=
K15M 231935Z AUTO 18010G15KT 10SM CLR 25/06 A3008 RMK AO2
     T02470060 $=
K1R7 231935Z AUTO 00000KT 10SM BKN055 26/17 A3006 RMK AO2
     PWINO=
K22N 231935Z AUTO 00000KT 10SM SCT120 17/08 A3027 RMK AO2=
