SAUS70 KWBC 231700
METAR
KLBT 231656Z AUTO 36012G20KT 10SM CLR 22/05 A3017 RMK AO2 SLP214
     T02220050 TSNO $=
KAND 231656Z AUTO 09003KT 10SM CLR 22/04 A3021 RMK AO2 SLP227
     T02170044=
KART 231656Z AUTO 32004KT 10SM CLR 22/06 A3027 RMK AO2 SLP245
     T02170056=
KBAF 231653Z 02004KT 10SM CLR 13/06 A3033 RMK AO2 SLP275
     T01280061=
KBJJ 231656Z AUTO 15007KT 10SM CLR 21/08 A3021 RMK AO2 SLP229
     T02110083=
KCEC 231656Z AUTO 05004KT 8SM CLR 12/07 A3017 RMK AO2 SLP219
     T01170067=
KCXY 231656Z 31004KT 10SM BKN030 OVC037 16/06 A3027 RMK AO2 SLP253
     T01610061=
KDAY 231656Z 18011KT 10SM FEW250 23/10 A3015 RMK AO2 SLP205
     T02330100=
KDDH 231654Z AUTO 00000KT 10SM CLR 17/02 A3032 RMK AO2 SLP269
     T01670022=
KDIK 231656Z AUTO 05014G21KT 10SM OVC008 07/04 A2936 RMK AO2
     SLP950 T00670039=
KEAU 231656Z 13015KT 10SM CLR 22/13 A2969 RMK AO2 SLP051
     T02170128=
KEED 231656Z AUTO 35012G20KT 10SM CLR 22/M05 A2980 RMK AO2 SLP068
     T02171050 $=
KEKO 231656Z AUTO 30009KT 10SM SCT042 BKN100 02/M03 A2991 RMK AO2
     SLP136 T00221033=
KELZ 231656Z AUTO VRB04KT 10SM CLR 18/03 A3028 RMK AO2 SLP254
     T01830028=
KFDK 231647Z 03007KT 5SM BKN020 OVC030 17/11 A3027=
KFDR 231653Z AUTO 18024G32KT 10SM CLR 29/13 A2966 RMK AO2 PK WND
     18032/1651 SLP024 T02890133=
KGON 231656Z 01005KT 10SM -RA SCT055 BKN070 OVC090 16/09 A3030 RMK
     AO2 RAB45 SLP259 P0000 T01560089=
KGRD 231656Z AUTO VRB03KT 10SM CLR 22/07 A3023 RMK AO2 SLP234
     T02170072=
KHVN 231653Z 02009KT 10SM FEW080 BKN110 14/08 A3029 RMK AO2 SLP257
     T01440083=
KHYA 231656Z 07003KT 8SM -RA FEW090 OVC110 15/12 A3032 RMK AO2
     RAB38 SLP266 P0000 T01500122=
KJKA 231657Z 09008KT 10SM CLR 25/12 A3016=
KJMS 231656Z AUTO 09013G21KT 10SM CLR 14/06 A2939 RMK AO2 SLP958
     T01440061=
KJXN 231656Z 14010G16KT 10SM CLR 22/12 A3010 RMK AO2 SLP191
     T02170117=
KLAS 231656Z 33015G25KT 10SM FEW110 15/M08 A2984 RMK AO2 PK WND
     32029/1636 SLP093 T01501083=
KLNR 231656Z AUTO 14012KT 10SM CLR 24/12 A2978 RMK AO2 SLP076
     T02390122=
KMDT 231656Z 30006KT 9SM OVC039 15/07 A3026 RMK AO2 SLP250
     T01500072=
KOLM 231654Z 00000KT M1/4SM FG VV002 03/03 A3013 RMK AO2 SLP202
     T00330033 $=
KPNS 231653Z COR 120/07 10SM CLR 24/08 A3017 RMK AO2 SLP219
     T02440078=
KRDM 231656Z 00000KT 10SM CLR 07/01 A3006 RMK AO2 SLP187 T00670006
     $=
KSBP 231656Z 36010KT 10SM CLR 17/05 A2994 RMK AO2 SLP135
     T01670050=
KSDF 231656Z 19012KT 10SM CLR 24/09 A3012 RMK AO2 SLP197
     T02440089=
KSLE 231656Z 18005KT 10SM OVC055 10/08 A3014 RMK AO2 SLP208
     T01000078=
KTPH 231656Z AUTO 33019G28KT 10SM CLR 04/M06 A2993 RMK AO2 PK WND
     34030/1643 SLP129 T00391056=
KUKI 231656Z AUTO VRB06KT 10SM CLR 13/02 A3007 RMK AO2 SLP178
     T01330022=
KVPZ 231656Z AUTO 19015G27KT 10SM OVC065 24/12 A2998 RMK AO2 PK
     WND 17027/1650 SLP148 T02440122 $=
KWJF 231656Z 28017KT 10SM CLR 14/00 A2992 RMK AO2 SLP126
     T01390000=
PAJC 231657Z AUTO 25008G19KT 10SM BKN026 OVC033 06/01 A3016 RMK
     AO2 RAB31E55 SLP215 T00560006 PNO $=
KCDA 231655Z AUTO 00000KT 10SM 18/05 A3037 RMK AO2 T01750048=
KCIU 231656Z AUTO 13012G20KT 10SM CLR 20/12 A3005 RMK AO2 SLP175
     T02000122=
KDUH 231655Z AUTO 14005KT 10SM CLR 22/09 A3013 RMK AO2
     T02230091=
KHAI 231655Z AUTO 17012G19KT 10SM CLR 23/12 A3005 RMK AO2
     T02300115=
KIRS 231655Z AUTO 19015G19KT 10SM CLR 22/10 A3005 RMK AO2
     T02220100=
KITH 231656Z 17006KT 10SM CLR 18/05 A3029 RMK AO2 SLP259
     T01830050=
KJYG 231655Z AUTO 15021G27KT 10SM CLR 22/12 A2949 RMK AO2=
