SAUS80 KWBC 231920
METAR
KTKC 231915Z AUTO 16020G30KT 10SM 25/10 A2937 RMK AO2
     T02450099=
KPOV 231915Z AUTO 12005KT 10SM CLR 23/00 A3017 RMK AO2 T02341003
     PWINO=
KPZQ 231915Z AUTO 19012G18KT 10SM CLR 24/11 A3004 RMK AO2
     T02360108=
KSYN 231915Z AUTO 16016G24KT 10SM CLR 25/12 A2954 RMK AO2
     T02490120=
KY23 231915Z AUTO 12011G21KT 10SM SCT040 SCT046 24/15 A2963 RMK
     AO2 T02350153=
KSVE 231915Z AUTO 05008KT 10SM OVC060 M22/M55 A3007 RMK AO2=
KIKW 231915Z AUTO 15014G21KT 10SM BKN060 BKN070 25/10 A3004 RMK
     AO2 T02520102=
KJNX 231915Z AUTO 01008KT 10SM CLR 21/11 A3012 RMK AO2=
K40U 231915Z AUTO 30012G16KT 10SM SCT041 BKN048 BKN050 02/M04
     A2969 RMK AO2 T00201039=
KCTY 231915Z AUTO 02006KT 10SM CLR 27/11 A3010 RMK AO2
     T02710109=
KMKN 231915Z AUTO 17018G25KT 10SM CLR 30/16 A2978 RMK AO2
     T02960155=
KRFI 231915Z AUTO 15014G21KT 10SM OVC050 30/10 A2991 RMK AO2
     T02990098=
KRLD 231915Z AUTO 29005KT 10SM CLR 14/00 A3009 RMK AO2
     T01420003=
KSOW 231915Z AUTO 23025G38KT 10SM FEW034 FEW060 FEW120 11/03 A2984
     RMK AO2=
KS39 231915Z AUTO VRB04KT 10SM BKN033 BKN039 07/M01 A3010 RMK
     AO2=
KSEP 231915Z AUTO 18015G22KT 10SM CLR 29/14 A2980 RMK AO2
     T02930140=
KCIR 231915Z AUTO 23012G21KT 10SM SCT046 BKN050 26/15 A2997 RMK
     AO2 T02620145=
KSNC 231915Z AUTO 36005KT 5SM -RA FEW001 SCT029 BKN038 12/10 A3028
     RMK AO2=
KTKV 231915Z AUTO 14006KT 10SM SCT040 23/12 A2977 RMK AO2
     T02330120 PWINO=
K40B 231916Z AUTO VRB04G11KT 21/05 A3032 RMK AO1 SLP271 T02130049
     56011=
K9MN 231915Z AUTO 11013G26KT 10SM CLR 23/12 A2958 RMK AO1
     T02300117=
KTKC 231915Z AUTO 16020G30KT 10SM 25/10 A2937 RMK AO2
     T02450099=
KVTI 231915Z AUTO 15021G32KT 10SM CLR 25/13 A2962 RMK AO2
     T02510127=
KEDU 231920Z AUTO 36016G23KT 10SM CLR 18/M02 A3000 RMK AO1=
KGNG 231915Z AUTO 29024G30KT 10SM CLR 08/M02 A2989 RMK AO2=
K48A 231915Z AUTO 04006KT 10SM CLR 25/10 A3014 RMK AO2
     T02450103=
K4BM 231915Z AUTO 16015G23KT 1/2SM -SN OVC002 M02/M02 A2962 RMK
     AO2=
KCKP 231915Z AUTO 17020G26KT 10SM CLR 28/12 A2937 RMK AO2
     T02750117=
KDBN 231915Z AUTO 00000KT 10SM CLR 25/07 A3016 RMK AO2=
KEHA 231915Z AUTO 23029G38KT 10SM CLR 28/06 A2948 RMK AO2
     T02800056=
KIZA 231915Z AUTO VRB06KT 10SM CLR 21/M00 A2988 RMK AO2=
KPSN 231915Z AUTO 17015G23KT 10SM SCT055 BKN065 30/15 A2986 RMK
     AO2=
K40U 231915Z AUTO 30012G16KT 10SM SCT041 BKN048 BKN050 02/M04
     A2969 RMK AO2 T00201039=
