SACA35 KWBC 232100 RRA
METAR
MSSS 232050Z 09004KT 9999 SCT027 FEW040CB 28/21 Q1012 A2991=
MZBZ 232100Z 07006KT 9999 SCT026 SCT047 29/23 A2988 Q1012
     NOSIG=
