SAUS70 KWBC 231640
METAR
KY31 231635Z AUTO 15004KT 10SM CLR 22/10 A3009 RMK AO2
     T02170103=
KY49 231635Z AUTO 08005KT 10SM CLR 17/09 A2959 RMK AO2
     T01670091=
KADC 231636Z AUTO 12014KT 10SM CLR 19/10 A2953 RMK AO2 TSNO=
KATP 231635Z AUTO 11013KT 10SM SCT040 BKN050 BKN060 25/17 A3011
     RMK A01=
KBAX 231635Z AUTO 18010KT 10SM CLR 22/12 A3013 RMK AO2
     T02150121=
KBQX 231635Z AUTO 16020KT 9SM 27/18 A2997 RMK A01=
KCDD 231633Z AUTO 15004KT 10SM CLR 18/08 A2970 RMK AO2=
KD39 231635Z AUTO 12016G19KT 10SM CLR 19/11 A2953 RMK AO2
     T01930112=
KDSF 231630Z AUTO 07008KT 10SM FEW042 24/14 A3014 RMK A01=
KERY 231635Z AUTO 17011G18KT 10SM CLR 19/11 A3001 RMK AO2
     T01850112=
KGHB 231640Z AUTO VRB04G12KT 10SM SCT042 SCT055 OVC065 26/17 A3006
     RMK A01=
KGLX 231635Z AUTO 05011KT 10SM CLR 26/13 A3013 RMK A01=
KGRY 231635Z AUTO 12011KT 10SM FEW042 FEW050 FEW060 24/15 A3010
     RMK A01=
KHCD 231635Z AUTO 13018G23KT 10SM CLR 22/12 A2954 RMK AO2
     T02160120=
KHHV 231635Z AUTO 18017KT 10SM CLR 26/16 A2996 RMK A01=
KHYX 231635Z AUTO 15013KT 10SM CLR 23/11 A3010 RMK AO2
     T02290107=
KHZX 231635Z AUTO 15009G17KT 10SM SCT060 BKN075 19/11 A2964 RMK
     AO2=
KIMS 231635Z AUTO 19013G18KT 10SM CLR 22/10 A3016 RMK AO2=
KLVN 231635Z AUTO 15014G20KT 10SM CLR 21/11 A2960 RMK AO2=
KLXL 231635Z AUTO 13012G19KT 10SM CLR 20/11 A2957 RMK AO2=
KMJQ 231635Z AUTO 15020G25KT 10SM CLR 20/11 A2949 RMK AO2=
KMOP 231635Z AUTO 15011G14KT 10SM SCT055 21/11 A3006 RMK AO2
     T02120111=
KMZH 231635Z AUTO 03003KT 10SM OVC070 16/11 A2967 RMK AO2=
KONA 231635Z AUTO 15016G20KT 10SM CLR 22/12 A2969 RMK AO2=
KOXD 231635Z AUTO 19012G18KT 10SM CLR 24/08 A3014 RMK AO2
     T02400080=
KPEX 231635Z AUTO 13014G17KT 10SM CLR 19/11 A2954 RMK AO2=
KPMH 231635Z AUTO 16005KT 10SM CLR 24/06 A3021 RMK AO2
     T02350060=
KPZZ 231635Z AUTO 11018KT 9SM CLR 25/17 A3009 RMK A01=
KRRT 231635Z AUTO 06010KT 10SM CLR 09/07 A2963 RMK AO2=
KVAF 231635Z AUTO 18020KT 10SM CLR 28/17 A2999 RMK A01=
KVOA 231640Z AUTO 09012KT 10SM CLR 24/15 A3015 RMK A01=
KWBF 231630Z AUTO VRB05G12KT 10SM 27/17 A3009 RMK A01=
K1H2 231635Z AUTO 16019G30KT 10SM CLR 23/14 A2999 RMK AO2
     T02280136=
K2G2 231630Z AUTO 00000KT 10SM CLR 19/05 A3023 RMK A01=
K33N 231635Z AUTO 04009G15KT 10SM SCT070 17/13 A3021 RMK A01=
K3LF 231635Z AUTO 16021G26KT 10SM CLR 21/13 A2991 RMK AO2
     T02140131=
KAHQ 231635Z AUTO 18021G27KT 7SM 26/13 A2939 RMK AO2 T02600125
     PWINO=
KANW 231635Z AUTO 19011KT 10SM CLR 19/02 A2920 RMK AO2
     T01890016=
KBCK 231635Z AUTO 14010G15KT 10SM CLR 22/12 A2974 RMK AO2
     T02160123=
KBNW 231635Z AUTO 16022G28KT 10SM CLR 23/14 A2956 RMK AO2=
KDEH 231635Z AUTO 16008G21KT 10SM CLR 21/12 A2969 RMK AO2=
KEGV 231635Z AUTO 15007KT 10SM CLR 19/11 A2984 RMK AO2
     T01880110=
KGGI 231635Z AUTO 16016G28KT 10SM CLR 24/14 A2966 RMK AO2
     T02360141=
KHLB 231635Z AUTO 16011KT 10SM CLR 22/10 A3013 RMK A01=
KHSB 231635Z AUTO 19019G25KT 10SM SCT043 25/17 A3002 RMK AO2
     T02460169=
KI67 231635Z AUTO 20009KT 10SM CLR 22/10 A3014 RMK AO1=
KIGQ 231635Z AUTO 16014G20KT 10SM SCT060 22/13 A2995 RMK AO2
     T02220126=
KJPX 231635Z AUTO 05008KT 10SM -DZ SCT044 BKN050 OVC120 15/13
     A3029 RMK AO2 T01480130=
KLCG 231635Z AUTO 18021G26KT 10SM CLR 23/12 A2934 RMK AO2
     T02300123=
KUBE 231635Z AUTO 14015G18KT 10SM CLR 19/15 A2970 RMK AO2=
KUSE 231635Z AUTO 19012KT 10SM CLR 23/11 A3012 RMK AO2=
KXLL 231635Z AUTO 03006KT 10SM BKN050 BKN060 BKN075 15/07 A3029
     RMK AO2=
KAIG 231635Z AUTO 14011KT 10SM CLR 18/12 A2986 RMK AO2
     T01760119=
