SAUS70 KWBC 231700 RRE
METAR
KLBX 231653Z AUTO 19017G25KT 10SM CLR 29/14 A2997 RMK AO2 PK WND
     19027/1621 SLP149 T02940144=
KLGB 231653Z 13005KT 10SM CLR 19/12 A2987 RMK AO2 SLP114
     T01940117=
KMTJ 231653Z AUTO 16004KT 10SM -RA SCT006 BKN012 OVC026 02/01
     A2966 RMK AO2 RAE33B44SNB33E44 SLP999 P0005 T00170011 $=
KMYF 231653Z 15003KT 10SM OVC039 17/11 A2988 RMK AO2 SLP116
     T01670106=
KONT 231653Z 00000KT 10SM BKN024 BKN050 16/11 A2987 RMK AO2 SLP111
     T01610111 $=
KPUB 231653Z 21024G37KT 10SM CLR 22/M01 A2940 RMK AO2 PK WND
     20039/1631 SLP890 T02221011=
KSHR 231653Z AUTO 31022G31KT 10SM UP SCT011 BKN031 OVC050 02/01
     A2955 RMK AO2 PK WND 32031/1646 UPB18SNE18 SLP016 P0002
     T00220006=
KAUS 231653Z 18019G28KT 10SM FEW036 SCT044 BKN250 28/18 A2990 RMK
     AO2 PK WND 18032/1557 SLP115 T02780178=
KBMQ 231653Z AUTO 19018G30KT 10SM BKN036 26/17 A2991 RMK AO2 PK
     WND 20034/1636 SLP113 T02560172=
KBPI 231653Z AUTO 34022G31KT 10SM CLR 01/M09 A2960 RMK AO2 PK WND
     34031/1650 SLP010 T00061089=
KBTM 231653Z AUTO 30010KT 5SM -SN BR SCT032 BKN038 OVC085 M01/M03
     A2977 RMK AO2 SLP105 P0000 T10111033=
KBYG 231653Z AUTO 34027G36KT 10SM UP OVC070 02/00 A2947 RMK AO2 PK
     WND 34037/1631 UPB50SNE11 SLP973 P0000 T00170000=
KCDC 231653Z AUTO 28005KT 1/4SM +SN FZFG VV006 M01/M02 A2983 RMK
     AO2 SLP099 T10111017 PNO $=
KCDS 231653Z AUTO 20016KT 10SM CLR 24/12 A2968 RMK AO2 PK WND
     21027/1618 SLP026 T02440117=
KCNM 231653Z AUTO 17012G20KT 10SM SCT085 27/09 A2973 RMK AO2
     SLP013 T02720094=
KMWL 231653Z AUTO 18018G30KT 10SM CLR 27/16 A2980 RMK AO2 PK WND
     17032/1638 SLP077 T02720156=
KOLF 231653Z AUTO 05014KT -RA OVC009 05/04 A2952 RMK AO2 SLPNO
     P0004 T00500039=
KRIL 231653Z AUTO 00000KT 10SM -RA SCT003 BKN008 OVC030 02/01
     A2958 RMK AO2 SLP982 P0003 T00220011=
KSDL 231653Z 23009G18KT 10SM CLR 20/09 A2979 RMK AO2 SLP069
     T02000089=
KTCC 231653Z AUTO 22027G35KT 10SM CLR 22/10 A2962 RMK AO2 PK WND
     23035/1649 SLP977 T02220100=
KTOR 231653Z AUTO 31016G26KT 10SM CLR 13/02 A2932 RMK AO2 PK WND
     30030/1618 SLP900 T01280022=
KALI 231653Z AUTO 17013G27KT 10SM SCT035 BKN046 28/20 A2988 RMK
     AO2 PK WND 17029/1623 SLP116 T02830200=
KCPR 231653Z 26005KT 2SM -RA BR BKN015 BKN025 OVC035 03/02 A2950
     RMK AO2 SLP965 P0005 I1000 T00280022=
KDWH 231653Z 18011G20KT 10SM BKN060 29/14 A2996 RMK AO2 SLP141
     T02890144=
KHLN 231653Z 28006KT 10SM FEW025 OVC038 02/M01 A2979 RMK AO2 SNE39
     SLP126 P0000 T00221006=
KJER 231653Z AUTO 28018KT 10SM CLR 03/M02 A2985 RMK AO2 SLP117
     T00281022=
KLHX 231653Z AUTO 22031G45KT 10SM CLR 24/M04 A2939 RMK AO2 PK WND
     24051/1612 SLP896 T02391039 $=
KLWT 231654Z AUTO 28011G20KT 3/4SM -SN BR OVC005 M01/M02 A2965 RMK
     AO2 UPE27SNB27 SLP064 P0002 T10061017 $=
KOGD 231653Z 33015G21KT 10SM BKN022 BKN029 OVC095 06/00 A2974 RMK
     AO2 SLP058 T00560000=
KRKS 231654Z AUTO 26014KT 10SM BKN044 OVC080 M01/M02 A2960 RMK AO2
     SLP034 T10111022 $=
KRWL 231653Z AUTO 25014G23KT 10SM FEW020 BKN042 BKN060 01/M02
     A2953 RMK AO2 SLP984 T00061022=
KTKI 231653Z 19022G30KT 10SM BKN037 27/17 A2985 RMK AO2 PK WND
     17037/1616 SLP106 T02670172=
KAFW 231653Z 18023G36KT 10SM SCT027 BKN250 27/17 A2981 RMK AO2 PK
     WND 18036/1647 SLP081 T02670167=
KDHT 231653Z AUTO 22030G37KT 10SM CLR 24/09 A2961 RMK AO2 PK WND
     22037/1652 SLP971 T02440094=
KDTO 231653Z 17023G36KT 10SM CLR 28/17 A2982 RMK AO2 PK WND
     18036/1647 SLP089 T02780167=
KFST 231653Z AUTO 14004KT 10SM CLR 27/08 A2982 RMK AO2 SLP053
     T02670078 $=
