SAUS70 KWBC 231822 RRC
METAR
K2V5 231815Z AUTO 23024G33KT 10SM CLR 27/M05 A2923 RMK AO2=
K33V 231815Z AUTO 30006G16KT 10SM SCT034 BKN042 OVC050 02/M02
     A2953 RMK AO1=
K5SM 231815Z AUTO 1/2SM SN OVC002 M04/M06 A2964 RMK AO2=
K66R 231815Z AUTO 18014G17KT 10SM SCT046 SCT060 BKN065 29/18 A2991
     RMK AO2 T02920175=
K74V 231815Z AUTO 14004KT 10SM 02/01 A2967 RMK AO2=
K7BM 231815Z AUTO 28010KT 1 1/4SM -SN BKN004 OVC012 00/M01 A2958
     RMK AO2=
KAJZ 231815Z AUTO 07003KT 10SM BKN017 BKN049 BKN055 08/03 A2964
     RMK AO2 T00770034=
KAQO 231815Z AUTO 16017G25KT 10SM CLR 29/14 A2983 RMK AO2=
KAUN 231815Z AUTO 31007G14KT 270V340 10SM CLR 16/M04 A2996 RMK
     A01=
KBBD 231815Z AUTO 19017G25KT 10SM CLR 26/15 A2982 RMK AO2=
KBDG 231815Z AUTO 23022G32KT 10SM 07/M01 A2975 RMK AO1
     T00711013=
KDKB 231815Z AUTO 17019G26KT 10SM CLR 23/15 A2986 RMK AO2
     T02300150=
KGVT 231815Z AUTO 19025G31KT 10SM CLR 28/16 A2987 RMK AO2 TSNO
     T02830157=
KJAS 231815Z AUTO 17007G15KT 120V190 9SM SCT039 BKN046 BKN055
     27/19 A2996 RMK AO2=
KLAM 231815Z AUTO 19020G27KT 10SM OVC060 11/M01 A2970 RMK AO2
     T01131015=
KLLN 231815Z AUTO 21023G32KT 10SM CLR 28/10 A2973 RMK AO2=
K2G9 231815Z AUTO 15003KT 10SM CLR 16/02 A3025 RMK AO2=
K2W6 231819Z AUTO 33005KT 10SM OVC021 15/11 A3019 RMK AO1=
KBJI 231815Z AUTO 12013G19KT 10SM CLR 20/10 A2954 RMK AO2
     T01970104=
KCDD 231815Z AUTO 10003KT 10SM CLR 22/09 A2968 RMK AO2=
KCGE 231815Z AUTO 34008KT 10SM OVC019 16/16 A3016 RMK A01=
KDMW 231815Z AUTO 05005KT 10SM BKN044 OVC050 18/10 A3024 RMK
     AO2=
KDNS 231815Z AUTO A2942 RMK AO2 PWINO=
KFME 231819Z AUTO 02006KT 340V050 10SM SCT042 OVC050 17/08 A3023
     RMK AO1=
KFXY 231815Z AUTO 15024G30KT 10SM CLR 24/13 A2953 RMK AO2=
KI75 231815Z AUTO 14018G23KT 10SM CLR 27/15 A2954 RMK AO2
     T02690146=
KIIB 231815Z AUTO 16020G27KT 7SM CLR 24/14 A2966 RMK AO2
     T02430137=
KOWX 231815Z AUTO 17012G16KT 10SM CLR 25/07 A3012 RMK AO1=
KPPQ 231815Z AUTO 15013G19KT 10SM CLR 23/15 A2980 RMK AO2
     T02290148=
KRCR 231815Z AUTO 17014G20KT 10SM FEW048 FEW055 24/12 A3000 RMK
     AO2=
KRDK 231815Z AUTO 18027G34KT CLR 27/13 A2945 RMK AO2=
KSHL 231815Z AUTO 15021G30KT 9SM CLR 25/13 A2936 RMK AO2=
KSLB 231815Z AUTO 16026G31KT 9SM CLR 25/13 A2942 RMK AO2=
KTIP 231815Z AUTO 17021G28KT 10SM CLR 25/13 A2991 RMK AO2
     T02500128=
KUMP 231815Z AUTO 20012G22KT 10SM CLR 25/13 A3004 RMK AO2
     T02520126=
KUNI 231815Z AUTO 18004KT 10SM CLR 26/08 A3017 RMK AO2
     T02600079=
KW22 231815Z AUTO VRB04KT 1 3/4SM HZ CLR 24/02 A3020 RMK AO2 VIS
     1V3=
KZER 231815Z AUTO 09004KT 10SM OVC033 15/08 A3028 RMK AO2=
K5C1 231815Z AUTO 19013G20KT 10SM SCT037 26/15 A2989 RMK AO1=
KCPW 231815Z AUTO 24032KT M1/4SM +SN OVC001 M06/M06 A2968 RMK
     AO2=
KCZT 231815Z AUTO 13011G18KT 10SM CLR 27/18 A2981 RMK AO2=
KDKR 231815Z AUTO 17011G19KT 140V210 10SM FEW049 BKN060 28/15
     A2993 RMK AO2=
KE38 231815Z AUTO 19012G15KT 10SM SCT120 26/08 A2994 RMK AO2
     T02620075=
KGCD 231815Z AUTO 28006KT 10SM SCT016 SCT037 OVC044 03/01 A3005
     RMK AO2 T00320005=
KGOP 231815Z AUTO 10SM SCT042 SCT080 28/15 A2986 RMK AO2=
KHII 231815Z AUTO 32017G22KT 10SM CLR 22/M03 A2978 RMK AO2=
KMNH 231815Z AUTO 23028G37KT 10SM CLR 15/M02 A2946 RMK AO2=
KPLU 231815Z AUTO 00000KT 10SM -DZ FEW015 SCT023 10/07 A3015 RMK
     AO2=
KPNA 231815Z AUTO 30025G30KT 10SM CLR 01/M07 A2961 RMK AO2=
KPOY 231815Z AUTO 33024G32KT 2 1/2SM -SN 00/M02 A2959 RMK AO2 SKY
     OBSCURED=
KRCV 231815Z AUTO 23008KT 10SM DZ BKN046 OVC050 05/01 A2961 RMK
     AO2 T00480005=
