SAUS70 KWBC 231700 RRA
METAR
KSBA 231653Z 00000KT 10SM CLR 18/08 A2986=
KSEE 231647Z 00000KT 10SM BKN030 16/11 A1989=
KTPL 231651Z AUTO 17022G29KT 10SM FEW033 BKN046 26/17 A2990 RMK
     AO2 PK WND 17030/1558 SLP114 T02560172=
KTRK 231645Z 00000KT 10SM CLR M03/M04 A3002=
K2J9 231655Z AUTO 00000KT 10SM CLR 25/06 A3019 RMK AO2=
K4R5 231655Z AUTO 12004KT 10SM SCT095 BKN110 19/12 A2973 RMK AO2
     T01870115=
K8W2 231655Z AUTO 36006KT 10SM CLR 16/05 A3027 RMK AO1
     T01620053=
KACT 231651Z 19020G33KT 10SM BKN040 27/17 A2988 RMK AO2 PK WND
     18035/1630 SLP112 T02720167 $=
KAHN 231651Z VRB05KT 10SM CLR 22/06 A3022 RMK AO2 SLP233
     T02170061=
KALN 231650Z 18021G29KT 10SM FEW030 SCT120 23/14 A2988=
KARV 231655Z AUTO 16012G16KT 10SM BKN100 18/12 A2982 RMK AO2
     T01820116=
KAVX 231651Z AUTO 02007KT 9SM CLR 16/11 A2989 RMK AO2 SLP110
     T01560106=
KBAZ 231651Z 19017G28KT 10SM FEW039 SCT046 28/18 A2990 RMK AO2 PK
     WND 17028/1644 SLP114 T02830178=
KBED 231651Z 04004KT 10SM CLR 15/08 A3034 RMK AO2 SLP287
     T01500078=
KBGD 231651Z AUTO 19017G31KT 10SM CLR 27/09 A2962 RMK AO2 PK WND
     19036/1638 SLP987 T02720094=
KBHK 231651Z AUTO 05006KT 10SM OVC013 07/04 A2940 RMK AO2 SLP960
     T00670039=
KCCA 231655Z AUTO 19008G18KT 10SM OVC026 22/16 A2996 RMK AO2=
KCDH 231655Z AUTO 20011G18KT 7SM CLR 26/18 A3000 RMK AO2=
KCLE 231651Z 18006KT 10SM SCT250 23/08 A3017 RMK AO2 SLP229
     T02330078 $=
KCMH 231651Z 19004KT 10SM SCT220 22/11 A3018 RMK AO2 SLP215
     T02220106 $=
KCPK 231655Z AUTO 33004KT 15/14 A3013 RMK AO2 T01460139=
KCSG 231651Z 12005KT 10SM CLR 22/04 A3020 RMK AO2 SLP225
     T02220044=
KDAW 231651Z AUTO 00000KT 10SM CLR 17/07 A3035 RMK AO2 SLP277
     T01720072=
KEOE 231655Z AUTO 34003KT 10SM CLR 20/08 A3025 RMK AO2=
KERI 231651Z 16006KT 10SM CLR 23/05 A3022 RMK AO2 SLP230
     T02280050=
KPWM 231651Z 08003KT 10SM FEW150 BKN200 16/09 A3037 RMK AO2 SLP284
     T01610094=
KRAW 231655Z AUTO 20017G26KT 10SM CLR 26/13 A2973 RMK AO2=
KRDU 231651Z 01009G16KT 340V040 10SM BKN250 18/05 A3020 RMK AO2
     SLP226 T01780050=
KSJT 231651Z 18018G28KT 10SM CLR 26/15 A2980 RMK AO2 PK WND
     18030/1630 SLP069 T02560150=
KSMO 231651Z 02007KT 10SM CLR 20/03 A2986 RMK AO2 SLP110
     T02000028=
KSTL 231651Z 18016G25KT 10SM FEW120 BKN250 23/14 A2987 RMK AO2 PK
     WND 19031/1639 SLP105 T02330139 $=
KVNY 231651Z 36011KT 10SM CLR 19/02 A2986 RMK AO2 SLP106 T01940017
     $=
KXWA 231651Z AUTO 06017G25KT 10SM OVC007 04/03 A2949 RMK AO2
     SLP007 T00440028=
KEWR 231651Z 02008KT 10SM -RA FEW040 SCT070 OVC110 16/09 A3027 RMK
     AO2 RAE1559B42 SLP248 P0000 T01610089=
KFDW 231655Z AUTO 00000KT 10SM CLR 21/08 A3021 RMK AO1=
KHDO 231651Z AUTO 17017G23KT 10SM CLR 27/18 A2989 RMK AO2 PK WND
     15026/1640 RAB1559E13 SLP107 P0000 T02670178=
KHFY 231655Z AUTO 21009G17KT 10SM CLR 24/13 A3009 RMK AO2
     T02370129=
KILG 231651Z 04014KT 10SM BKN080 18/11 A3024 RMK AO2 SLP239
     T01780111=
KIUA 231655Z AUTO 17003KT 10SM CLR 21/07 A3025 RMK AO2
     T02110067=
KIXA 231655Z AUTO 01012KT 10SM OVC017 16/15 A3017 RMK AO2=
KJAQ 231655Z AUTO 35004KT 10SM CLR 11/M01 A2995 RMK AO1
     T01101010=
KJCT 231651Z AUTO 16017G26KT 10SM FEW027 25/17 A2988 RMK AO2 PK
     WND 17026/1612 SLP084 T02500172 $=
KJFK 231651Z 03010KT 10SM -RA FEW040 SCT075 OVC110 14/11 A3026 RMK
     AO2 SLP247 P0000 T01440106=
KLDJ 231655Z AUTO 05004KT 10SM -RA BKN034 BKN046 16/09 A3027 RMK
     AO2 T01550085=
KLGA 231651Z 04015KT 10SM -RA BKN040 BKN075 BKN120 BKN160 OVC250
     16/08 RMK AO2 SLPNO P0000 T01610078 $=
