SAUS80 KWBC 231704
METAR
KM25 231715Z AUTO 20014G22KT 10SM CLR 24/12 A3007 RMK AO2
     PWINO=
KSFY 231702Z AUTO 16016G20KT 10SM CLR 23/13 A2980 RMK AO2=
