SAUS70 KWBC 231700 RRX
METAR
PAUT 231655Z AUTO 21010KT 10SM SCT095 06/03 A3024 RMK AO2=
KPRS 231655Z AUTO 17006KT 10SM CLR 27/12 A2987 RMK AO2
     T02700116=
KPTD 231655Z AUTO 02004KT 10SM CLR 21/04 A3029 RMK AO2=
KPUJ 231655Z AUTO 17003KT 7SM CLR 18/03 A3024 RMK AO2=
KPVB 231655Z AUTO 15016G19KT 10SM CLR 21/12 A2979 RMK AO1
     T02140120=
KPVJ 231655Z AUTO 18012G20KT 10SM CLR 25/17 A2976 RMK AO2
     T02530165=
KPWT 231656Z AUTO 00000KT 10SM BKN002 BKN037 07/06 A3012 RMK AO2
     SLP206 T00670061=
KPYX 231655Z AUTO 23028G36KT 5SM CLR 28/08 A2958 RMK AO2
     T02760075=
KPZZ 231655Z AUTO 12018KT 9SM CLR 25/16 A3008 RMK A01=
KRKR 231655Z AUTO 20018G27KT 10SM SCT035 25/15 A2987 RMK AO2=
KRNC 231655Z AUTO 22008KT 10SM CLR 22/04 A3018 RMK A01=
KRRT 231655Z AUTO 06010G15KT 10SM CLR 10/08 A2963 RMK AO2=
KRSN 231655Z AUTO 17013G16KT 10SM SCT038 SCT043 26/15 A3007 RMK
     AO2 T02590151=
KRTS 231655Z AUTO 34009KT 10SM BKN035 03/M06 A3004 RMK AO2=
KRUQ 231655Z AUTO 32007KT 10SM CLR 19/06 A3022 RMK AO2
     T01870062=
KRZL 231655Z AUTO 17017G22KT 10SM SCT060 23/12 A2999 RMK AO2=
KRZR 231655Z AUTO VRB05G12KT 10SM CLR 22/02 A3020 RMK A01=
KSAR 231655Z AUTO 18018G25KT 10SM OVC027 21/14 A2996 RMK AO2
     T02130144=
KSCD 231655Z AUTO 00000KT 10SM SCT110 23/05 A3021 RMK AO2
     T02280049=
KSCX 231655Z AUTO 21008KT 10SM CLR 21/03 A3021 RMK A01=
KSEM 231655Z AUTO 14007KT 10SM CLR 24/03 A3019 RMK AO2=
KSEZ 231655Z AUTO 17008G14KT 10SM 13/07 A2982 RMK AO2=
KSFQ 231655Z AUTO 35004KT 2SM BR OVC005 15/15 A3016 RMK AO2
     T01490149=
KSIF 231655Z AUTO 01003KT 10SM CLR 20/06 A3022 RMK AO2
     T01970059=
KSLO 231655Z AUTO 17013G21KT 10SM BKN032 23/14 A2996 RMK AO2
     T02310140=
KSNH 231650Z AUTO 17011KT 10SM CLR 23/12 A3013 RMK A01=
KSRB 231655Z AUTO 20008KT 140V240 10SM CLR 23/05 A3019 RMK A01=
KSRC 231656Z AUTO 19014G24KT 10SM BKN032 OVC046 24/16 A3000 RMK
     AO2 SLP155 T02390156=
KSRE 231655Z AUTO 10SM FEW023 23/16 A2978 RMK AO2=
KGFA 231655Z AUTO 34012KT 2 3/4SM -SN OVC007 00/M00 A2975 RMK AO2
     SLP104 P0000 T00001001 $=
KM30 231655Z AUTO 17010G19KT 140V200 10SM SCT049 24/13 A3004 RMK
     AO2 T02380128=
KM54 231650Z AUTO 22015KT 10SM CLR 24/06 A3014 RMK A01=
KM75 231655Z AUTO 02013G20KT 4SM BR OVC018 02/02 A2959 RMK A01
     P0002=
KM91 231655Z AUTO 21013G24KT 10SM CLR 24/09 A3012 RMK A01=
KMBT 231655Z AUTO 19010KT 10SM CLR 23/06 A3015 RMK A01=
KMEV 231655Z AUTO 00000KT 10SM CLR 02/M01 A3003 RMK AO2=
KMHV 231700Z AUTO 25016G22KT 10SM CLR 13/M00 A2990 RMK A01=
KMIO 231655Z AUTO 16020G31KT 10SM CLR 27/15 A2973 RMK AO2=
KMJQ 231655Z AUTO 15021G25KT 10SM CLR 21/11 A2948 RMK AO2=
KMMI 231655Z AUTO 15005KT 10SM CLR 22/02 A3023 RMK A01=
KMNE 231655Z AUTO 16008G14KT 150V210 10SM CLR 26/17 A3001 RMK AO2
     T02640173=
KMNV 231655Z AUTO 00000KT 10SM 20/04 A3022 RMK A01=
KMNZ 231655Z AUTO 19022G27KT 10SM SCT032 27/16 A2988 RMK AO2
     T02650157=
KMOP 231655Z AUTO 15012G17KT 10SM CLR 22/11 A3006 RMK AO2
     T02150106=
KMOR 231655Z AUTO 00000KT 10SM CLR 20/04 A3022 RMK A01=
KMRC 231655Z AUTO 20013KT 10SM CLR 23/07 A3014 RMK A01=
KMUT 231655Z AUTO 16016G24KT 10SM CLR 24/14 A2975 RMK AO2=
KMVH 231655Z AUTO 30016G30KT 7SM FEW055 FEW065 M00/M03 A2959 RMK
     AO2 PWINO=
KO69 231655Z AUTO 32009KT 10SM CLR 14/02 A3003 RMK A01=
KOEL 231655Z AUTO 23034G43KT 4SM HZ CLR 28/01 A2933 RMK AO1
     T02750006=
KOJA 231655Z AUTO 20020G32KT 10SM CLR 25/13 A2967 RMK AO2
     T02490126=
KONA 231655Z AUTO 17008G18KT 131V221 10SM CLR 22/12 A2968 RMK
     AO2=
KOTH 231656Z 16008KT 10SM BKN060 08/08 A3020 RMK AO2 RAB25E49
     SLP225 P0001 T00830078=
