SAUS70 KWBC 232200
METAR
KC62 232155Z AUTO 17011G16KT 10SM CLR 22/11 A3002 RMK AO2
     T02270116=
