SAUS70 KWBC 231900 RRE
METAR
KAAO 231854Z AUTO 18025G42KT 10SM OVC032 28/13 A2951 RMK AO2 PK
     WND 19044/1756 SLP979 T02830133=
KACJ 231855Z AUTO 01005KT 9SM CLR 24/07 A3014 RMK AO2
     T02360071=
KAFP 231855Z AUTO 00000KT 10SM CLR 23/02 A3016 RMK AO2
     T02320023=
KAGO 231855Z AUTO 19013G21KT 10SM FEW050 29/15 A2992 RMK A01=
KAIG 231855Z AUTO 15018G24KT 10SM CLR 21/12 A2982 RMK AO2
     T02060121=
KAKH 231854Z AUTO VRB05KT 10SM CLR 22/06 A3016 RMK AO2 SLP212
     T02220056=
KAKR 231854Z AUTO 18006KT 10SM CLR 24/03 A3016 RMK AO2 SLP210
     T02440033=
KALM 231855Z AUTO 24018G28KT 10SM CLR 24/06 A2978 RMK AO2=
KALO 231854Z 15021G29KT 10SM CLR 26/13 A2958 RMK AO2 PK WND
     15034/1807 SLP013 T02560133=
KAPC 231854Z 36019G24KT 10SM CLR 22/M01 A2998 RMK AO2 PK WND
     36027/1829 SLP144 T02171011=
KAQX 231855Z AUTO 34006KT 10SM CLR 24/09 A3013 RMK AO2=
KARW 231855Z AUTO 35009KT 10SM CLR 23/11 A3013 RMK AO2=
KASJ 231855Z AUTO 33008KT 10SM OVC012 15/14 A3011 RMK AO2
     T01520140=
KATA 231855Z AUTO 16009G17KT 10SM OVC050 28/17 A2989 RMK AO2
     SLP021 T02820166 $=
KATS 231855Z AUTO 23024G31KT 10SM CLR 26/10 A2971 RMK AO2=
KFWB 231855Z AUTO 15011G22KT 120V190 10SM CLR 27/14 A2980 RMK
     AO2=
KFXE 231853Z 05009G14KT 10SM FEW037 SCT048 29/19 A3002 RMK AO2
     SLP168 T02890194=
KFYG 231855Z AUTO 17018G27KT 10SM CLR 26/16 A2979 RMK AO2=
KGCK 231854Z 22039G57KT 3SM BLDU CLR 29/03 A2937 RMK AO2 PK WND
     21058/1832 SLP904 T02940033=
KGCN 231854Z 26007G20KT 240V300 10SM BKN044 06/M04 A2983 RMK AO2
     SLP054 T00561039=
KGED 231854Z AUTO 03015G22KT 2SM -RA BR OVC007 16/15 A3015 RMK AO2
     SLP209 P0003 T01610150=
KGGW 231853Z AUTO 31005KT 1 1/4SM -SN BR SCT007 OVC012 01/00 A2957
     RMK AO2 RAE1756SNB1756 SLP032 P0010 T00110000=
KGLY 231855Z AUTO 18012G22KT 10SM FEW110 29/14 A2965 RMK AO2=
KGWR 231855Z AUTO 12023KT 9SM CLR 22/12 A2930 RMK A01=
KHSI 231853Z AUTO 20023G40KT 10SM CLR 30/09 A2928 RMK AO2 PK WND
     19040/1853 SLP898 T03000089 $=
KHVS 231855Z AUTO 01006KT 10SM CLR 23/06 A3015 RMK AO2=
KHWD 231854Z 06004KT 10SM CLR 18/02 A3000 RMK AO2 SLP168
     T01830017=
KHYW 231855Z AUTO 02007KT 10SM CLR 22/07 A3012 RMK AO2=
KHZE 231855Z AUTO 04015G20KT 10SM CLR 12/06 A2934 RMK AO2=
KI67 231855Z AUTO 18010G15KT 140V210 10SM CLR 25/08 A3008 RMK
     AO1=
KI68 231855Z AUTO 17009KT 10SM CLR 24/10 A3012 RMK AO1
     T02440095=
KIDI 231855Z AUTO 10005G10KT 10SM CLR 21/03 A3026 RMK A01=
KILN 231854Z AUTO 20008G16KT 10SM FEW055 24/09 A3012 RMK AO2
     SLP196 T02390089=
KIND 231854Z 17017G28KT 10SM FEW050 26/11 A3000 RMK AO2 PK WND
     15028/1845 SLP156 T02560106 $=
KINT 231854Z VRB04KT 10SM CLR 22/04 A3019 RMK AO2 SLP216
     T02170044=
KIOB 231855Z AUTO 21005KT 10SM CLR 25/06 A3015 RMK AO2 PWINO=
KIPT 231854Z 25003KT 10SM OVC033 18/08 A3026 RMK AO2 SLP246
     T01780078=
KISW 231854Z AUTO 14016G27KT 10SM CLR 23/12 A2976 RMK AO2 PK WND
     13027/1852 SLP073 T02330122=
KIZG 231854Z AUTO 00000KT 10SM CLR 17/05 A3036 RMK AO2 SLP282
     T01720050=
KJFZ 231855Z AUTO 01005KT 10SM CLR 20/01 A3021 RMK AO2
     T02020008=
KJST 231854Z AUTO VRB04KT CLR 16/02 A3024 RMK AO2 SLP243 T01560017
     $=
KJZI 231855Z AUTO 34008KT 10SM CLR 24/11 A3013 RMK AO2=
KKY8 231855Z AUTO 17010G20KT 140V200 9SM CLR 26/13 A3003 RMK
     A01=
KL08 231855Z AUTO 12005KT 10SM CLR 23/M00 A2980 RMK AO2=
KL52 231855Z AUTO 35009KT 9SM CLR 21/04 A2993 RMK A01=
PAHN 231854Z AUTO 30011KT 10SM CLR 05/02 A2959 RMK AO2 SLP023
     T00500022 TSNO $=
PAKN 231854Z 00000KT 10SM CLR M02/M03 A3008 RMK AO2 SLP188
     T10221028=
KMTN 231855Z 34005KT 10SM OVC050 18/11 A3022=
