SAUS70 KWBC 231700 RRN
METAR
KFYJ 231655Z AUTO 00000KT 10SM OVC005 14/13 A3019 RMK AO1
     T01370127=
KGEV 231655Z AUTO 36004KT 10SM CLR 17/00 A3026 RMK AO2
     T01711001=
KGLW 231655Z AUTO 20009G14KT 10SM CLR 23/08 A3016 RMK AO2
     T02320079=
KHCR 231655Z AUTO 36008KT 10SM SCT050 BKN110 03/M03 A2968 RMK
     AO2=
KUMP 231655Z AUTO 19012G17KT 10SM CLR 24/13 A3008 RMK AO2
     T02380132=
KT35 231655Z AUTO 17011G23KT 10SM SCT034 BKN042 BKN050 27/18 A2991
     RMK AO2 T02650182=
KT41 231655Z AUTO 10SM BKN044 BKN050 29/17 A2999 RMK AO2
     T02860171=
KTAZ 231655Z AUTO 18021G28KT 10SM CLR 22/14 A2990 RMK AO2
     T02200135=
KTBR 231655Z AUTO 02006KT 10SM CLR 23/10 A3019 RMK AO2
     T02280103=
KTIF 231655Z AUTO 19017G24KT 10SM CLR 23/02 A2919 RMK AO2
     T02300020=
KTIP 231655Z AUTO 18021G27KT 10SM CLR 24/13 A2995 RMK AO2
     T02360126=
KTQK 231655Z AUTO 22027G36KT 3 1/2SM HZ BKN029 BKN035 28/07 A2938
     RMK AO2 T02780075=
KTVI 231655Z AUTO 00000KT 10SM CLR 22/10 A3019 RMK AO2=
KUNI 231655Z AUTO 00000KT 10SM RA CLR 25/09 A3020 RMK AO2
     T02460088=
KVDI 231655Z AUTO 00000KT 10SM CLR 24/12 A3018 RMK AO2=
KVKS 231655Z AUTO 19014KT 10SM CLR 27/15 A3007 RMK A01=
KVPC 231655Z AUTO VRB04KT 9SM CLR 21/03 A3024 RMK AO2=
KVUJ 231655Z AUTO 01004KT 10SM CLR 21/07 A3024 RMK AO2
     T02130066=
KW22 231655Z AUTO VRB04KT 2 1/2SM HZ CLR 24/03 A3023 RMK AO2 VIS 1
     1/4V5=
KWDR 231655Z AUTO 00000KT 10SM CLR 20/03 A3025 RMK AO2=
KXBP 231655Z AUTO 18020G27KT 10SM CLR 27/15 A2982 RMK AO2
     T02690150=
KZER 231655Z AUTO 11009KT 10SM BKN027 16/07 A3029 RMK AO2=
KHDC 231659Z AUTO 14012G17KT 10SM CLR 26/14 A3013 RMK AO2 TSNO=
KI75 231655Z AUTO 17016G29KT 10SM CLR 24/14 A2959 RMK AO2
     T02430140=
KIIB 231655Z AUTO 15021G27KT 10SM CLR 22/14 A2969 RMK AO2
     T02230135=
KIJX 231655Z AUTO 16012G18KT 140V200 10SM SCT110 21/14 A2985 RMK
     AO2 T02050135=
KLMO 231655Z AUTO 07006KT 10SM SCT100 18/M03 A2934 RMK AO2
     T01771032=
KLUV 231655Z AUTO 21020G24KT 10SM CLR 27/09 A2978 RMK AO2=
KMLE 231655Z AUTO 17015G24KT 10SM CLR 26/13 A2942 RMK AO2
     T02600129=
KMQB 231655Z AUTO 17023G26KT 10SM SCT110 22/12 A2982 RMK AO2
     T02230118=
KMRH 231658Z AUTO 32016KT 10SM SCT008 BKN070 OVC090 16/15 A3006
     RMK AO2 RAB18E58 SLP181 P0002 T01560150=
KNOW 231655Z AUTO 00000KT 10SM CLR 09/06 A3011 RMK AO2
     T00930060=
KNRN 231655Z AUTO 23020G36KT 10SM CLR 28/07 A2933 RMK AO2=
KORG 231655Z AUTO 15013KT 10SM BKN036 OVC060 30/18 A3003 RMK AO2
     T02950184=
KPOY 231655Z AUTO 35020G25KT 4SM -SN SCT017 SCT026 00/M02 A2957
     RMK AO2=
KPPA 231655Z AUTO 22021G30KT 10SM CLR 26/12 A2966 RMK AO2
     T02640119=
KPPQ 231655Z AUTO 17015G19KT 10SM CLR 22/15 A2982 RMK AO2
     T02210146=
KPTT 231655Z AUTO 18021G30KT 10SM CLR 26/12 A2950 RMK AO2 LTG DSNT
     S T02630117=
KRBO 231655Z AUTO 10SM SCT037 SCT047 SCT055 30/19 A2990 RMK AO2
     T02950192=
KRCR 231655Z AUTO 18012G17KT 150V210 10SM CLR 23/13 A3003 RMK
     AO2=
KRCV 231655Z AUTO 24006KT 10SM -DZ BKN022 OVC029 05/03 A2960 RMK
     AO2 T00540025=
KRDK 231655Z AUTO 18024G32KT CLR 26/13 A2946 RMK AO2=
KREG 231655Z AUTO 15006G14KT 10SM SCT041 27/16 A3010 RMK AO2
     T02710159=
KRQO 231655Z AUTO 18023G30KT CLR 23/16 A2972 RMK AO2 PWINO
     T02320160=
KSBO 231655Z AUTO 00000KT 10SM CLR 24/11 A3020 RMK AO2=
KSBS 231655Z AUTO 00000KT 5SM SCT011 BKN017 OVC024 00/00 A2955 RMK
     AO1 T00020002=
KSDA 231655Z AUTO 18018G29KT 10SM CLR 27/13 A2945 RMK AO2=
KSEF 231655Z AUTO 36005KT 10SM SCT037 BKN060 27/18 A3011 RMK AO2
     T02680184=
