SAUS70 KWBC 231800 RRJ
METAR
K82V 231755Z AUTO 35019G23KT 10SM CLR 16/M01 A2932 RMK AO2=
KCOE 231756Z AUTO 21005KT 10SM SCT018 06/02 A3000 RMK AO2 SLP190
     6//// T00560022 10056 20028 51024 PNO $=
KCWC 231755Z AUTO 18023G31KT 10SM CLR 29/15 A2972 RMK AO2
     T02870148 10287 20187=
KCXP 231755Z AUTO 31009KT 10SM CLR 06/M05 A3005 RMK AO2=
KEAT 231755Z AUTO 24003KT 10SM CLR 09/M01 A3005 RMK AO2 SLP179
     T00891011 10094 20022 51017=
KEIK 231755Z AUTO 02006KT 10SM CLR 18/M05 A2932 RMK AO2 T01761048
     10196 20051 PWINO=
KF44 231755Z AUTO 18015G21KT 10SM BKN050 27/16 A2989 RMK AO2=
KLNC 231755Z AUTO 19019G28KT 10SM SCT045 28/16 A2987 RMK AO2
     T02810155 10281 20208=
KLXY 231755Z AUTO 18023G32KT 10SM SCT050 29/16 A2989 RMK AO2
     T02900157 10290 20185=
KMEV 231755Z AUTO 00000KT 10SM CLR 04/M03 A3004 RMK AO2=
KO69 231755Z AUTO 30007G15KT 270V330 10SM CLR 16/02 A3003 RMK
     A01=
KVCV 231755Z AUTO 27013KT 10SM CLR 14/M03 A2993 RMK AO2=
K33N 231755Z AUTO 04010G16KT 10SM OVC020 17/13 A3019 RMK A01=
K3LF 231755Z AUTO 17023G30KT 10SM SCT031 22/14 A2990 RMK AO2
     T02180135 10230 20157=
KC09 231755Z AUTO 17019G27KT 10SM SCT044 25/14 A2986 RMK AO2
     T02490141 10250 20158=
KCCY 231755Z AUTO 15021G26KT 10SM CLR 23/13 A2960 RMK AO2=
KCSQ 231755Z AUTO 18023G29KT 9SM CLR 27/14 A2950 RMK AO2=
KEGV 231755Z AUTO 15008G19KT 130V190 10SM SCT036 21/10 A2981 RMK
     AO2 T02080102 10209 20105=
KFKL 231756Z AUTO 16006KT 10SM CLR 21/04 A3023 RMK AO2 SLP237
     T02060039 10211 20050 58014=
KFRM 231756Z AUTO 16024G32KT 10SM CLR 23/13 A2947 RMK AO2 PK WND
     16032/1753 SLP979 T02330128 10233 20144 58025=
KLCG 231755Z AUTO 17021G29KT 10SM CLR 27/12 A2932 RMK AO2
     T02680117 10268 20126=
KMML 231756Z AUTO 15019G27KT 10SM CLR 22/13 A2939 RMK AO2 PK WND
     16032/1740 SLP950 T02220128 10228 20094 56028=
KSGH 231756Z AUTO 19009G16KT 10SM SCT055 24/10 A3014 RMK AO2
     SLP203 T02440100 10244 20122 58015=
KUCP 231756Z AUTO VRB05KT 10SM CLR 22/04 A3022 RMK AO2 SLP247
     T02220044 10222 20033 58012=
KUSE 231755Z AUTO 16017G22KT 10SM FEW050 24/10 A3009 RMK AO2=
KYKN 231756Z AUTO 16021G27KT 10SM CLR 25/12 A2927 RMK AO2 PK WND
     15027/1755 SLP915 T02500117 10250 20122 56024=
K2G2 231755Z AUTO VRB05KT 10SM CLR 22/03 A3020 RMK A01=
K57C 231755Z AUTO 16014G19KT 10SM CLR 22/13 A2985 RMK AO2
     T02230125 10223 20131=
KDEH 231755Z AUTO 13013G21KT 060V150 10SM CLR 23/13 A2964 RMK
     AO2=
KGGI 231755Z AUTO 15022G27KT 10SM CLR 26/14 A2962 RMK AO2
     T02590144 10259 20169=
KM30 231755Z AUTO 18015G24KT 10SM SCT049 25/12 A3001 RMK AO2
     T02510115 10255 20175=
KMKT 231756Z AUTO 14023G30KT 10SM CLR 23/13 A2950 RMK AO2 PK WND
     14030/1752 SLP986 T02280128 10228 20150 58025=
KMUT 231755Z AUTO 16019G25KT 10SM CLR 25/14 A2971 RMK AO2=
KOKK 231756Z AUTO 18018G25KT 10SM CLR 24/12 A3004 RMK AO2 SLP170
     6//// T02440122 10244 20144 58012 PNO $=
KOTG 231756Z AUTO 15021G31KT 10SM CLR 22/13 A2940 RMK AO2 PK WND
     13031/1753 SLP952 T02220128 10222 20122 56027=
KOXI 231755Z AUTO 17016G23KT 10SM CLR 25/12 A2997 RMK AO1=
KOXV 231755Z AUTO 16019G28KT 10SM CLR 25/13 A2958 RMK AO2=
KPCW 231755Z AUTO 7/66666708KT 10SM CLR 24/10 A3012 RMK AO2=
KPRO 231755Z AUTO 16022G29KT 10SM CLR 27/13 A2950 RMK AO2
     T02700127 10270 20158=
KPTD 231755Z AUTO 00000KT 10SM CLR 22/03 A3026 RMK AO2=
KSFM 231756Z AUTO 12003KT 10SM CLR 17/08 A3036 RMK AO2 SLP284
     T01720078 10178 20039 58012=
KBKX 231756Z AUTO 13023G28KT 10SM CLR A2933 RMK AO2 SLPNO 6////
     FZRANO $=
KGRN 231755Z AUTO 32013G18KT 10SM CLR 11/01 A2923 RMK AO2
     T01100010 10110 21012=
