SAUS80 KWBC 231700
METAR
KESN 231650Z 02009KT 7SM -RA SCT008 16/13 A3023=
KJQF 231650Z 31506KT 10SM CLR 21/06 A3025=
