SATO31 NFTF 232100
METAR NFTV 232100Z 18010KT 9999 FEW009 SCT016TCU BKN110 25/22 Q1013=

METAR NFTL 232100Z 08012KT 9999 FEW016TCU BKN280 25/18 Q1014=

METAR NFTF 232100Z 15014KT 9999 FEW017 24/18 Q1016=


