SAUS70 KWBC 232000 RRA
METAR
KACT 231951Z 18018G31KT 10SM FEW055 31/17 A2979 RMK AO2 PK WND
     18033/1941 SLP081 T03110167 $=
KADM 231950Z 16020G26KT 10SM CLR 29/15 A2970=
KAHN 231951Z 00000KT 10SM CLR 23/04 A3015 RMK AO2 SLP208
     T02330039=
KARV 231955Z AUTO 16014G19KT 10SM SCT041 21/12 A2976 RMK AO2
     T02100118=
KAVX 231951Z AUTO 04006KT 10SM CLR 17/09 A2989 RMK AO2 SLP112
     T01720094=
KBAZ 231951Z 15018G27KT 10SM OVC050 30/17 A2980 RMK AO2 PK WND
     17028/1932 SLP082 T03000172=
KBED 231951Z 04005KT 10SM SCT110 15/08 A3032 RMK AO2 SLP280
     T01500078=
KBGD 231951Z AUTO 17017G31KT 10SM CLR 26/11 A2956 RMK AO2 PK WND
     18034/1856 SLP966 T02610106=
KBHK 231951Z AUTO 32016KT 8SM OVC012 07/04 A2940 RMK AO2 SLP958
     T00670039=
KCCA 231955Z AUTO 19011G19KT 160V220 10SM OVC040 25/16 A2989 RMK
     AO2=
KCDH 231955Z AUTO 15017G23KT 10SM FEW055 29/16 A2991 RMK AO2=
KCLE 231951Z 15008KT 130V190 10SM SCT250 24/08 A3011 RMK AO2
     SLP210 T02390078 $=
KCLT 231952Z 24007KT 10SM FEW250 23/02 A3016 RMK SLP209 T02280017
     $=
KCMH 231951Z 16008KT 10SM FEW070 FEW230 25/07 A3011 RMK AO2 SLP192
     T02500072 $=
KCPK 231955Z AUTO 34005KT 15/14 A3010 RMK AO2 P0001 T01500138=
KCSG 231951Z 00000KT 10SM CLR 24/04 A3013 RMK AO2 SLP198
     T02440039=
KDAW 231951Z AUTO 09003KT 10SM CLR 17/08 A3034 RMK AO2 SLP271
     T01670083=
KEOE 231955Z AUTO 36006KT 10SM CLR 23/05 A3018 RMK AO2=
KSJT 231951Z 18018G29KT 10SM CLR 29/13 A2972 RMK AO2 PK WND
     19030/1856 SLP039 T02940133=
KSLK 231951Z AUTO 00000KT 10SM CLR 20/03 A3028 RMK AO2 SLP259
     T02000028=
KSMO 231951Z 23012G15KT 10SM CLR 20/11 A2986 RMK AO2 SLP109
     T02000111=
KSPA 231955Z AUTO 00000KT 10SM CLR 22/00 A3015 RMK AO2=
KSTL 231951Z 18015G27KT 10SM FEW035 SCT250 26/14 A2981 RMK AO2 PK
     WND 18032/1936 SLP086 T02560144 $=
KUES 231945Z 12010G22KT 10SM CLR 22/12 A2983=
KVER 231955Z AUTO 16017G25KT 10SM BKN110 30/16 A2966 RMK AO2
     T03000159=
KVNY 231951Z 33014G22KT 10SM CLR 23/M03 A2984 RMK AO2 SLP097
     T02331033 $=
KXWA 231951Z AUTO 03019G28KT 10SM OVC006 04/03 A2947 RMK AO2 PK
     WND 04028/1951 SLP001 T00440028=
