SAUS70 KWBC 231902
METAR
KW75 231915Z AUTO 31005KT 7SM OVC011 15/14 A3015 RMK AO1 P0002
     T01450136=
