SAUS70 KWBC 231818 RRG
METAR
KJWG 231815Z AUTO 18021G29KT 10SM CLR 28/14 A2966 RMK AO2
     T02790135=
KJWY 231815Z AUTO 18017G31KT 10SM BKN042 28/16 A2986 RMK AO2
     T02820162=
KJYL 231815Z AUTO 08005KT 10SM CLR 25/11 A3015 RMK AO2
     T02470111=
KK70 231815Z AUTO 06011G16KT 020V090 10SM FEW037 29/21 A3002 RMK
     AO2=
KLCG 231815Z AUTO 17023G29KT 10SM CLR 28/11 A2932 RMK AO2
     T02800113=
KLNA 231815Z AUTO 02009G17KT 10SM CLR 28/19 A3006 RMK AO2
     T02840190 PNO=
KLNC 231815Z AUTO 18016G27KT 10SM SCT047 28/15 A2986 RMK AO2
     T02840153=
KLNP 231815Z AUTO 05007KT 10SM CLR 20/03 A3023 RMK AO2=
KLNQ 231815Z AUTO 13006KT 10SM CLR 28/12 A3011 RMK AO2
     T02840116=
KLUX 231815Z AUTO 33004KT 10SM CLR 22/05 A3018 RMK AO2=
KLXY 231815Z AUTO 16021G29KT 10SM SCT048 BKN060 29/16 A2989 RMK
     AO2 T02850161=
KLYO 231815Z AUTO 17022G34KT 2SM HZ CLR 28/12 A2945 RMK AO2 VIS
     3/4V5 T02850118=
KM30 231815Z AUTO 18012G23KT 10SM SCT049 26/12 A3001 RMK AO2
     T02600119=
KM75 231815Z AUTO 01012KT 4SM BR CLR 01/01 A2962 RMK A01=
KMEV 231815Z AUTO 02004KT 10SM CLR 05/M04 A3004 RMK AO2=
KMHV 231820Z AUTO 25015KT 10SM CLR 15/M02 A2989 RMK A01=
KMIO 231815Z AUTO 17025G32KT 10SM CLR 29/14 A2970 RMK AO2 LTG DSNT
     NW=
KMNZ 231815Z AUTO 18022G27KT 10SM CLR 28/15 A2984 RMK AO2
     T02820151=
KMUT 231815Z AUTO 17020G26KT 10SM CLR 25/14 A2971 RMK AO2=
KMVH 231815Z AUTO 30018G27KT 4SM HZ CLR 00/M02 A2962 RMK AO2
     PWINO=
KO69 231815Z AUTO VRB05G11KT 10SM CLR 17/01 A3003 RMK A01=
KOEL 231815Z AUTO 23032G42KT 7SM CLR 29/M03 A2930 RMK AO1
     T02901032=
KOJA 231815Z AUTO 19016G27KT 10SM CLR 26/13 A2965 RMK AO2
     T02630131=
KOLG 231815Z AUTO 14010KT 10SM CLR 22/10 A2966 RMK AO1=
KOXI 231815Z AUTO 18017G26KT 10SM SCT070 25/12 A2996 RMK AO1=
KOXV 231815Z AUTO 17022G28KT 10SM CLR 25/13 A2958 RMK AO2=
KP08 231815Z AUTO 27013KT 10SM BKN050 BKN060 21/10 A2980 RMK
     AO2=
KPCW 231815Z AUTO 16009KT 10SM CLR 25/09 A3011 RMK AO2=
KPKV 231815Z AUTO 17018G24KT 10SM SCT037 SCT045 BKN055 31/20 A2992
     RMK AO2 T03050200=
KPRO 231815Z AUTO 16020G27KT 10SM CLR 26/13 A2949 RMK AO2
     T02630127=
KPRS 231815Z AUTO 16008KT 10SM CLR 29/11 A2984 RMK AO2
     T02910111=
KPTD 231815Z AUTO 00000KT 10SM CLR 22/03 A3026 RMK AO2=
KPUJ 231815Z AUTO 00000KT 7SM CLR 21/03 A3020 RMK AO2=
KPVB 231815Z AUTO 16016G22KT 10SM CLR 23/12 A2975 RMK AO1
     T02300120=
KPVJ 231815Z AUTO 17012G21KT 130V190 10SM CLR 27/16 A2973 RMK AO2
     T02700159=
KPYX 231815Z AUTO 22034G41KT 4SM CLR 30/07 A2954 RMK AO2
     T02950067=
KRKR 231815Z AUTO 19021G27KT 10SM BKN038 27/15 A2985 RMK AO2=
KRNH 231815Z AUTO 14014G21KT 10SM CLR 23/16 A2961 RMK AO2
     T02300162=
KRSN 231815Z AUTO 18017G20KT 10SM BKN044 27/14 A3004 RMK AO2
     T02700141=
KRTS 231815Z AUTO 36010KT 10SM BKN044 BKN050 BKN060 05/M07 A3005
     RMK AO2=
KRUQ 231815Z AUTO 02007KT 10SM CLR 20/06 A3018 RMK AO2
     T02020059=
KRZL 231815Z AUTO 17021G30KT 10SM CLR 25/11 A2996 RMK AO2=
KSAR 231815Z AUTO 19019G30KT 10SM SCT035 24/15 A2992 RMK AO2
     T02380149=
KSCD 231815Z AUTO 21003KT 10SM CLR 24/05 A3018 RMK AO2
     T02360048=
KSEM 231815Z AUTO 00000KT 10SM CLR 25/04 A3015 RMK AO2=
KSEZ 231815Z AUTO 28012KT 10SM 12/03 A2983 RMK AO2=
KSFQ 231815Z AUTO 33008KT 310V010 2 1/2SM BR OVC005 15/15 A3013
     RMK AO2 T01510150=
KSLO 231815Z AUTO 18018G24KT 10SM OVC036 25/14 A2993 RMK AO2
     T02490143=
KSRE 231815Z AUTO 10SM CLR 27/15 A2973 RMK AO2=
KSVC 231815Z AUTO 26013G24KT 10SM SCT050 19/05 A2987 RMK AO2
     T01910054=
KSVH 231815Z AUTO 07003KT 10SM CLR 21/05 A3018 RMK AO2
     T02100047=
