SAUS70 KWBC 232000 RRO
METAR
KPMP 231953Z 01011KT 10SM FEW040 SCT060 28/18 A3002 RMK AO2 SLP165
     T02830178=
KPRB 231953Z AUTO 29007KT 10SM CLR 19/02 A2996 RMK AO2 SLP143
     T01890017 $=
KPRC 231953Z 36010KT 10SM BKN055 OVC070 11/02 A2983 RMK AO2 SLP051
     T01060017=
KPSC 231953Z 32005KT 10SM CLR 14/M02 A3009 RMK AO2 SLP190
     T01441017 $=
KPSK 231955Z AUTO 11006KT 10SM CLR 20/04 A3019 RMK AO2
     T01980043=
KPSP 231953Z 07003KT 10SM CLR 24/03 A2980 RMK AO2 SLP088 T02440033
     $=
KPTK 231953Z 16013G20KT 10SM FEW050 SCT220 22/09 A3009 RMK AO2
     SLP188 T02220094 $=
KPUC 231953Z AUTO 33013G30KT 300V360 10SM FEW060 06/M07 A2968 RMK
     AO2 PK WND 31030/1948 SLP049 T00611067=
KPUW 231953Z AUTO 27009KT 10SM BKN018 BKN036 07/02 A3004 RMK AO2
     SLP188 T00670017 $=
KRAL 231953Z VRB03KT 10SM SCT046 21/07 A2985 RMK AO2 SLP093
     T02060072 $=
KRBG 231953Z AUTO 00000KT 10SM CLR 12/07 A3021 RMK AO2 SLP231
     T01170067=
KRCM 231955Z AUTO 21026G32KT 10SM SCT110 28/12 A2966 RMK AO2 LTG
     DSNT SW=
KRCX 231955Z AUTO 15010G24KT 10SM SCT043 23/16 A2969 RMK AO2
     T02320156=
KRHP 231955Z AUTO 24006KT 10SM CLR 24/M02 A3014 RMK AO2
     T02441021=
KRNT 231953Z 00000KT 10SM SCT020 11/06 A3016 RMK AO2 SLP218
     T01110061=
KRSW 231953Z 06006KT 10SM FEW070 28/17 A3002 RMK AO2 SLP164
     T02830167=
KRWI 231953Z AUTO 34008KT 10SM OVC023 21/13 A3012 RMK AO2 SLP199
     T02060133=
KRXE 231953Z AUTO 34008G18KT 290V030 10SM BKN044 OVC060 05/M05
     A2977 RMK AO2 SLP087 T00501050=
KSAC 231953Z 34016G24KT 10SM CLR 21/M02 A2996 RMK AO2 PK WND
     33026/1912 SLP145 T02111022=
KSFF 231953Z 35003KT 10SM FEW033 BKN040 OVC047 10/02 A3004 RMK AO2
     SLP177 T01000022=
KATY 231953Z AUTO 14019G38KT 10SM -RA CLR 22/12 A2927 RMK AO2 PK
     WND 14038/1946 SLP905 P0000 T02220117=
KDUJ 231953Z AUTO 14006KT 10SM CLR 18/02 A3023 RMK AO2 SLP233
     T01830022=
KELM 231953Z 13006KT 10SM CLR 19/06 A3024 RMK AO2 SLP242
     T01940056=
KETH 231953Z AUTO 12028G37KT 10SM 23/12 A2932 RMK AO2=
KFRG 231953Z 04009KT 10SM OVC039 15/09 A3025 RMK AO2 SLP241
     T01500094 $=
KGEZ 231953Z AUTO 16015G25KT 10SM CLR 27/11 A3002 RMK AO2 SLP161
     T02670106=
KHLG 231953Z 09006KT 10SM CLR 23/03 A3017 RMK AO2 SLP215
     T02280033=
KMPO 231953Z AUTO 07005KT 10SM CLR 15/08 A3027 RMK AO2 SLP259
     T01500083=
KMTO 231953Z AUTO 16019G35KT 10SM BKN049 25/13 A2989 RMK AO2 PK
     WND 16037/1938 PRESFR SLP115 T02500128=
KOWD 231953Z VRB04KT 10SM -RA FEW100 SCT120 14/11 A3032 RMK AO2
     RAB1855 SLP266 P0001 T01390111=
KPKD 231953Z AUTO 12015G24KT 10SM CLR 22/11 A2946 RMK AO2 PK WND
     13026/1855 SLP977 T02220111=
KRHI 231953Z AUTO 16015G24KT 10SM CLR 21/11 A2978 RMK AO2 PK WND
     13029/1917 SLP079 T02110111=
KSTP 231953Z 14019G29KT 10SM CLR 25/13 A2952 RMK AO2 PK WND
     15035/1926 SLP990 T02500128=
K0E0 231955Z AUTO 22025G33KT 10SM BKN090 19/M03 A2971 RMK AO2
     T01851035 TSNO=
KAQP 231953Z AUTO 17020G30KT 7SM SCT085 SCT090 25/11 A2933 RMK
     AO2=
KBEA 231955Z AUTO 15021G26KT 10SM SCT036 SCT043 SCT050 29/18 A2980
     RMK AO2 T02890183=
KBYI 231953Z AUTO 27012G24KT 10SM SCT034 07/M01 A2986 RMK AO2 PK
     WND 28028/1932 SLP108 T00721011=
KDLN 231953Z AUTO 12007KT 10SM BKN047 OVC055 M01/M02 A2980 RMK AO2
     SLP113 T10061022=
KHOU 231953Z 16019G29KT 10SM FEW055 BKN250 30/15 A2989 RMK AO2 PK
     WND 15029/1943 SLP126 T03000150=
KHRL 231952Z 16021G30KT 10SM BKN047 32/19 A2978 RMK AO2 PK WND
     18034/1903 SLP085 T03170189 $=
KITR 231953Z AUTO 22037G54KT 6SM HZ FEW037 27/M05 A2932 RMK AO2 PK
     WND 22056/1915 SLP870 T02671050 $=
