SAUS70 KWBC 232100 RRF
METAR
KARM 232055Z AUTO 15013G22KT 10SM BKN048 BKN055 28/16 A2988 RMK
     AO2 T02830156 TSNO=
KAVQ 232055Z AUTO 33009G14KT 10SM SCT070 22/08 A2977 RMK AO2
     T02210078=
KAZC 232055Z AUTO 31009KT 10SM SCT050 SCT070 OVC110 07/M01 A2989
     RMK AO2=
KBAM 232055Z AUTO 33013G21KT 310V010 10SM SCT038 SCT045 BKN055
     06/M02 A3003 RMK AO1=
KC83 232055Z AUTO 34016G23KT 10SM CLR 21/M04 A2996 RMK AO2=
KCMR 232055Z AUTO 29012G22KT 10SM FEW060 08/M09 A2985 RMK AO2=
KCPT 232055Z AUTO 17020G32KT 10SM CLR 29/14 A2976 RMK A01=
KCXP 232055Z AUTO 09007G13KT 10SM OVC060 07/M08 A3005 RMK AO2=
KDTA 232055Z AUTO 34014G17KT 10SM BKN070 BKN120 05/M04 A2987 RMK
     AO1=
KMLP 232053Z AUTO VRB03KT 3/4SM BR VV002 M01/M03 A2995 RMK AO2
     SLP170 T10111033 53014=
KO22 232055Z AUTO 26009G15KT 230V290 10SM CLR 17/M06 A2992 RMK
     A01=
K06D 232055Z AUTO 03020G26KT 10SM BKN018 10/07 A2947 RMK AO2=
K10G 232055Z AUTO 16007KT 10SM CLR 22/04 A3014 RMK AO2=
K2D5 232055Z AUTO 12022G28KT 8SM CLR 21/12 A2927 RMK AO2=
K3D2 232055Z AUTO 17013G22KT 10SM CLR 18/11 A2987 RMK AO2
     T01790113=
K7L2 232055Z AUTO 10015G22KT 10SM BKN046 20/11 A2925 RMK AO2=
K82C 232055Z AUTO 13013G22KT 10SM SCT047 24/13 A2969 RMK AO2
     T02400133=
KBWP 232055Z AUTO 14026G33KT 9SM CLR 24/12 A2929 RMK AO2=
KCCY 232055Z AUTO 16023G33KT 9SM FEW043 FEW180 24/13 A2957 RMK
     AO2=
KD25 232055Z AUTO 14008G20KT 10SM SCT044 21/12 A2973 RMK AO2 LTG
     DSNT SW T02110121=
KDXR 232053Z 07008KT 10SM BKN110 16/06 A3028 RMK AO2 SLP252 60000
     T01610061 58002=
KEGV 232055Z AUTO 16011G19KT 120V180 10SM SCT038 21/11 A2977 RMK
     AO2 T02110106=
KFIG 232054Z AUTO VRB03KT 10SM CLR 18/07 A3024 RMK AO2 SLP244
     T01830067 56008=
KFOK 232053Z 02010KT 10SM OVC031 13/12 A3026 RMK AO2 RAE40 SLP244
     P0003 60044 T01330122 55004 $=
KGED 232054Z AUTO 03012KT 2 1/2SM -RA BR OVC007 16/15 A3014 RMK
     AO2 CIG 005V010 SLP205 P0006 60018 T01610150 58007=
KGWR 232055Z AUTO 13020G28KT 8SM CLR 22/13 A2928 RMK A01=
KPLN 232054Z AUTO 16006KT 10SM BKN080 23/10 A2998 RMK AO2 SLP151
     T02280100 56012 $=
KOAR 232055Z AUTO 29011G16KT 10SM CLR M07/M21 A2998 RMK AO2=
KTTS 232055Z AUTO 01012KT 10SM CLR 25/17 A3006 RMK AO2 VIS 3/4
     RWY15/33 SLP184 T02510168 55006 $=
KAPC 232054Z 36022KT 10SM CLR 23/M04 A2995 RMK AO2 PK WND
     01029/2049 SLP134 T02331039 56015=
KBDU 232055Z AUTO 24013G21KT 10SM CLR 17/M05 A2934 RMK AO2=
KBKS 232055Z AUTO 14014G21KT 10SM FEW060 33/18 A2975 RMK AO2
     SLP034 T03280176 $=
KBPC 232055Z AUTO 22020G29KT 10SM CLR 26/08 A2953 RMK AO2 PNO=
KCLS 232055Z AUTO 00000KT 10SM FEW044 13/05 A3017 RMK AO2=
KHWD 232054Z 28013KT 10SM CLR 21/02 A2996 RMK AO2 SLP155 T02060022
     58016=
KL08 232055Z AUTO VRB05KT 10SM CLR 24/00 A2976 RMK AO2=
KL52 232055Z AUTO 28010G16KT 250V310 4SM HZ CLR 18/12 A2989 RMK
     A01=
KLNC 232055Z AUTO 18015G28KT 10SM SCT055 29/15 A2978 RMK AO2
     T02920148=
KMNZ 232055Z AUTO 17022G28KT 10SM CLR 30/13 A2978 RMK AO2
     T02990132=
KORS 232055Z AUTO 17006KT 10SM CLR 11/08 A3013 RMK AO2=
KPAN 232055Z AUTO 25013G22KT 10SM FEW042 SCT060 13/02 A2982 RMK
     AO2 PWINO TSNO=
KPVF 232055Z AUTO 30006KT 10SM CLR 15/M06 A2995 RMK AO1=
KRPH 232055Z AUTO 16012G22KT 120V200 10SM CLR 31/15 A2966 RMK AO2
     T03050148 $=
KT69 232055Z AUTO 15017G26KT 9SM FEW026 SCT042 BKN050 28/22 A2980
     RMK A01=
KTVY 232055Z AUTO 30012G17KT 10SM SCT038 BKN049 OVC075 05/00 A2987
     RMK AO2=
KHZE 232055Z AUTO 03013G18KT 10SM FEW029 BKN038 12/06 A2937 RMK
     AO2=
KI67 232055Z AUTO 18007KT 10SM CLR 25/07 A3005 RMK AO1=
