SAUS70 KWBC 231800
METAR
KATW 231745Z 13012KT 10SM CLR 20/12 A2984=
KCWA 231747Z 12010G15KT 10SM CLR 20/13 A2980=
TJBQ 231750Z 06010KT 10SM CLR 30/24 A2991=
PAKU 231745Z 10012KT 3SM R06/P6000FT BR OVC004 M06/M06 A3002=
KCGF 231745Z 17005KT 10SM CLR 23/08 A3017=
KLWB 231745Z 00000KT 10SM CLR 18/03 A3023=
KMER 231753Z 30018G21KT 7SM CLR 17/01 A2995=
KMWA 231745Z 19018G29KT 20SM SCT037 BKN047 24/15 A2997=
KOUN 231745Z 14021G32KT 10SM CLR 26/16 A2970=
PAKU 231745Z 10012KT 3SM R06/P6000FT BR OVC004 M06/M06 A3002=
KANE 231745Z 14014G24KT 10SM CLR 23/12 A2957=
KDLL 231755Z AUTO 14016KT 10SM CLR 21/11 A2978 RMK AO2 T02050113
     10206 20132=
KEZS 231755Z AUTO 13010G14KT 10SM CLR 23/14 A2985 RMK AO2
     T02250141 10225 20100=
KFMH 231745Z 05010KT 6SM -RA BR SCT010 14/14 A3031=
KGAF 231755Z AUTO 04012G18KT 8SM CLR 14/07 A2951 RMK AO2=
KGYY 231745Z 16014G28KT 10SM CLR 24/13 A2992=
KLBE 231747Z 05006KT 15SM CLR 21/03 A3022=
KMMU 231745Z 07006KT 10SM BKN060 19/10 A3027=
KMWC 231745Z 14010G18KT 10SM SCT085 20/10 A2988=
KUES 231745Z 16012G20KT 10SM CLR 21/12 A2987=
KRYN 231745Z 20006G12KT 10SM CLR 22/09 A2981=
K1S5 231755Z AUTO 00000KT 10SM CLR 08/01 A3007 RMK AO2 T00830014
     10083 20000=
KCPF 231755Z AUTO 21003KT 10SM CLR 23/05 A3020 RMK AO2=
KEMV 231755Z AUTO 34008KT 10SM OVC017 17/12 A3018 RMK AO2
     T01660120 10170 20100=
KFFA 231755Z AUTO 32009G15KT 290V350 10SM OVC005 16/16 A3004 RMK
     AO2 60023 T01640164 10342 20072=
KGYR 231747Z 26012G17KT 10SM SCT080 BKN140 22/09 A2979=
KMCJ 231755Z AUTO 16017G29KT 130V210 10SM CLR 28/13 A2993 RMK
     A01=
KSCH 231746Z 00000KT 15SM SCT180 BKN250 17/07 A3032=
KSUW 231755Z AUTO 07007KT 10SM OVC075 14/09 A2969 RMK AO2
     T01370093 10143 20085=
KADS 231747Z 17021G29KT 10SM SCT040 27/15 A2984=
KCIC 231747Z 30021KT 10SM 17/M03 A3003=
KPOC 231747Z 00000KT 7SM BKN025 A2988=
KTZR 231747Z 15007G15KT 10SM FEW050 23/11 A3016=
KVQQ 231750Z VRB03KT 10SM CLR 30/15 A3012=
