SAUS70 KWBC 231900 RRX
METAR
KSBA 231853Z 21007KT 10SM CLR 20/08 A2987=
KSBA 231853Z 21007KT 10SM CLR 20/08 A2987=
