SAUS70 KWBC 231936 RRA
METAR
KPCZ 231935Z AUTO 12013G20KT 10SM CLR 24/12 A2978 RMK AO2
     T02380120=
KPSK 231935Z AUTO 00000KT 10SM CLR 20/04 A3019 RMK AO2
     T01970041=
KRCX 231935Z AUTO 14019G26KT 10SM CLR 23/15 A2969 RMK AO2
     T02290154=
KRHP 231935Z AUTO 27005KT 10SM CLR 24/M01 A3015 RMK AO2
     T02421010=
KSHD 231935Z AUTO 00000KT 10SM OVC035 18/07 A3023 RMK AO2
     T01840066=
KSRR 231935Z AUTO 24043G53KT 10SM 17/02 A2973 RMK AO2=
KTVY 231935Z AUTO 28009G14KT 10SM SCT046 OVC055 03/00 A2984 RMK
     AO2=
KVDF 231935Z AUTO 09006KT 10SM CLR 30/17 A3007 RMK AO2=
KVGC 231935Z AUTO 00000KT 10SM CLR 17/06 A3028 RMK AO2=
KX60 231935Z AUTO 00000KT 10SM CLR 27/11 A3009 RMK AO2
     T02740112=
KXSA 231935Z AUTO 32003KT 10SM OVC018 15/15 A3017 RMK AO2
     T01500150=
K10G 231935Z AUTO 17006KT 10SM CLR 23/05 A3017 RMK AO2=
K1P1 231935Z AUTO 00000KT 10SM CLR 17/05 A3033 RMK AO2
     T01710047=
K20U 231935Z AUTO 01008KT 10SM OVC008 06/06 A2942 RMK AO2=
K24A 231935Z AUTO 32004KT 10SM CLR 23/M03 A3018 RMK AO2 LTG DSNT
     SE T02261025=
K27K 231935Z AUTO 17012G16KT 140V200 10SM CLR 24/05 A3011 RMK
     AO1=
K2P2 231935Z AUTO 17011G18KT 10SM SCT075 SCT110 16/12 A2991 RMK
     AO2 T01640115=
K35A 231935Z AUTO 26004KT 10SM CLR 22/06 A3019 RMK A02
     T02250058=
K3D2 231935Z AUTO 17014G24KT 10SM CLR 17/11 A2989 RMK AO2
     T01670106=
K4S2 231935Z AUTO 30006KT 10SM CLR 13/02 A3013 RMK AO2=
K54J 231935Z AUTO 00000KT 10SM CLR 26/03 A3012 RMK AO2
     T02570026=
K6L4 231935Z AUTO 00000KT 10SM CLR 23/04 A3017 RMK AO2=
K6S2 231935Z AUTO 25005KT 5SM BR FEW013 FEW021 FEW035 13/11 A3021
     RMK AO2=
K82C 231935Z AUTO 14012G22KT 10SM CLR 24/13 A2971 RMK AO2
     T02380132=
KAIK 231935Z AUTO 36005KT 10SM CLR 23/09 A3015 RMK AO2
     T02340091=
KANQ 231935Z AUTO 19016KT 10SM CLR 23/10 A3003 RMK AO2=
KC29 231935Z AUTO 15017G22KT 10SM CLR 24/13 A2976 RMK AO1
     T02430127=
KCGC 231935Z AUTO 29007KT 10SM CLR 27/15 A3008 RMK AO2=
KCKI 231935Z AUTO 02007KT 10SM CLR 23/03 A3013 RMK AO2=
KCLW 231935Z AUTO 33007KT 10SM SCT055 27/15 A3006 RMK AO2
     PWINO=
KD25 231935Z AUTO 14011G23KT 10SM SCT040 22/12 A2975 RMK AO2
     T02160120=
KEDE 231935Z AUTO 34013KT 10SM OVC006 17/17 A3010 RMK AO2
     T01690165=
KEYF 231935Z AUTO 35010G14KT 10SM CLR 23/05 A3012 RMK AO2
     T02260054=
KEZM 231935Z AUTO 09005KT 10SM CLR 24/09 A3014 RMK AO2=
KF70 231935Z AUTO 18004KT 10SM CLR 18/06 A2987 RMK AO2=
KGGE 231935Z AUTO 35006KT 10SM CLR 23/07 A3012 RMK AO2=
KHAE 231935Z AUTO 16016G22KT 10SM CLR 27/13 A2971 RMK AO2 LTG DSNT
     SE=
KHBI 231935Z AUTO 01003KT 10SM CLR 21/04 A3018 RMK AO2
     T02050036=
KHRJ 231935Z AUTO 36010KT 10SM CLR 21/06 A3015 RMK AO2
     T02110060=
KHSP 231935Z AUTO 09005KT 7SM CLR 17/M01 A3026 RMK AO2
     T01671007=
KHWY 231935Z AUTO 02005KT 10SM OVC044 19/11 A3024 RMK AO2
     T01850107=
KINF 231935Z AUTO 10004KT 7SM CLR 27/15 A3008 RMK AO2=
KJFX 231935Z AUTO 11006KT 10SM CLR 25/07 A3010 RMK AO2=
KJSO 231935Z AUTO 20014G20KT 10SM BKN060 28/14 A2991 RMK AO2
     T02770143 TSNO=
KJVW 231935Z AUTO 19010KT 10SM SCT055 28/14 A3003 RMK AO2=
K10G 231935Z AUTO 17006KT 10SM CLR 23/05 A3017 RMK AO2=
