SAUS70 KWBC 232000 RRL
METAR
KLGB 231953Z 19008KT 10SM FEW036 22/11 A2986 RMK AO2 SLP110
     T02170106=
KLMT 231953Z 33009KT 10SM SCT043 BKN050 07/M04 A3010 RMK AO2
     SLP194 T00721039=
KLNL 231955Z AUTO 17011G19KT 10SM BKN040 22/11 A2981 RMK AO2
     T02200106=
KLOL 231953Z AUTO 02012G20KT 10SM BKN070 10/M09 A3004 RMK AO2
     SLPNO T01001089 $=
KLPR 231953Z AUTO 15010KT 10SM CLR 24/08 A3013 RMK AO2 SLP199
     T02440083=
KLVK 231953Z 01009G16KT 10SM CLR 20/M04 A2998 RMK AO2 SLP148
     T02001039=
KDEW 231953Z AUTO 16004KT 10SM FEW031 10/01 A3002 RMK AO2 SLP179
     T01000006=
KDFI 231953Z AUTO 20014G22KT 10SM CLR 25/09 A3005 RMK AO2 SLP174
     T02500094=
KDKK 231953Z AUTO 02007KT 10SM CLR 21/06 A3019 RMK AO2 SLP220
     T02110056=
KDLS 231953Z AUTO 30009KT 10SM CLR 16/02 A3011 RMK AO2 SLP197
     T01560017=
KDNL 231953Z AUTO 00000KT 10SM CLR 24/08 A3014 RMK AO2 SLP203
     T02390078=
KDTW 231953Z 14013G18KT 10SM FEW055 SCT120 SCT220 23/10 A3010 RMK
     AO2 SLP190 T02330100 $=
KDVT 231953Z 25007KT 230V290 10SM BKN080 23/07 A2974 RMK AO2
     SLP052 T02280072=
KEDE 231955Z AUTO 35011KT 10SM OVC006 17/17 A3009 RMK AO2
     T01690165=
KEET 231953Z AUTO 12003KT 10SM CLR 24/06 A3012 RMK AO2 SLP194
     T02440056=
KELN 231953Z AUTO 23003KT 10SM CLR 12/M02 A3005 RMK AO2 SLP182
     T01221022 $=
KEPH 231953Z AUTO 33007KT 10SM CLR 13/M04 A3005 RMK AO2 SLP179
     T01281039 $=
KEQY 231953Z AUTO VRB03KT 10SM CLR 22/05 A3014 RMK AO2 SLP213
     T02220050=
KESF 231953Z AUTO 18011G18KT 10SM SCT055 BKN070 28/16 A2998 RMK
     AO2 SLP148 T02830161=
KEVW 231953Z AUTO 01010KT 10SM SCT030 BKN049 OVC060 00/M03 A2973
     RMK AO2 SLP064 T00001033 $=
KEYF 231955Z AUTO 35008KT 10SM CLR 22/05 A3012 RMK AO2
     T02200053=
KEYW 231953Z 05006G14KT 10SM CLR 28/21 A3000 RMK AO2 SLP158
     T02830206=
KFDY 231953Z AUTO 16015KT 10SM CLR 25/10 A3008 RMK AO2 SLP179
     T02500100=
KFFC 231953Z AUTO 00000KT 10SM CLR 24/01 A3015 RMK AO2 SLP210
     T02390006=
KFHR 231953Z AUTO 12004KT 10SM CLR 11/07 A3015 RMK AO2 SLP210
     T01060072=
KFLL 231953Z 04008G18KT 10SM SCT036 SCT049 28/19 A3000 RMK AO2
     SLP159 T02830189 $=
KFMY 231953Z 08005KT 10SM FEW055 29/17 A3002 RMK AO2 SLP166
     T02940167=
KFPR 231953Z 03010G16KT 10SM CLR 27/18 A3004 RMK AO2 SLP172
     T02720178=
KFTY 231953Z 00000KT 10SM CLR 24/02 A3015 RMK AO2 SLP206
     T02390017=
KFUL 231953Z VRB04KT 10SM BKN035 22/09 A2984 RMK AO2 SLP103
     T02170089=
KGEY 231953Z AUTO 34018G29KT 10SM BKN022 OVC029 04/02 A2960 RMK
     AO2 PK WND 33030/1936 RAB03E29 SLP027 P0000 T00390017=
KGGE 231955Z AUTO 35007KT 10SM CLR 23/07 A3012 RMK AO2=
KGGW 231953Z AUTO 32006KT 1 1/4SM -SN BR OVC006 01/00 A2959 RMK
     AO2 SLP037 P0007 T00110000=
KGIF 231953Z AUTO 04004KT 10SM A3007 RMK AO2 SLPNO $=
KGKJ 231953Z AUTO VRB04KT 10SM CLR 22/03 A3018 RMK AO2 SLP218
     T02220028=
K20U 231955Z AUTO 36011KT 10SM OVC008 06/06 A2942 RMK AO2=
K27K 231955Z AUTO 15008KT 130V200 10SM CLR 24/05 A3011 RMK AO1=
KACV 231953Z AUTO 31016G21KT 10SM CLR 14/07 A3015 RMK AO2 SLP216
     T01390072=
KADG 231953Z AUTO 19015G24KT 10SM FEW060 24/09 A3007 RMK AO2
     SLP184 T02440094=
KAGC 231953Z 10004KT 10SM CLR 22/03 A3018 RMK AO2 SLP222
     T02220033=
KAGS 231953Z 32003KT 10SM CLR 25/09 A3013 RMK AO2 SLP200
     T02500089=
KALW 231953Z 22006KT 10SM FEW038 BKN046 OVC085 10/01 A3008 RMK AO2
     SLP190 T01000011 $=
KANB 231953Z AUTO 00000KT 10SM CLR 26/05 A3012 RMK AO2 SLP198
     T02560050=
KAPF 231953Z 05011KT 10SM CLR 29/19 A3001 RMK AO2 SLP160 T02890194
     $=
