SAUS70 KWBC 231638 RRB
METAR
KHZE 231635Z AUTO 07018G25KT 10SM CLR 09/05 A2940 RMK AO2=
KI23 231635Z AUTO 20008KT 10SM CLR 22/09 A3019 RMK AO1=
KI68 231635Z AUTO 16012KT 10SM CLR 23/11 A3016 RMK AO1
     T02270107=
KIDI 231635Z AUTO 12005KT 10SM CLR 18/04 A3029 RMK A01=
KINF 231635Z AUTO 36006KT 5SM HZ CLR 26/16 A3015 RMK AO2=
KIRS 231635Z AUTO 18014G21KT 10SM CLR 22/10 A3006 RMK AO2
     T02180101=
KISQ 231635Z AUTO 12009KT 10SM CLR 15/11 A2999 RMK AO2
     T01460107=
KJFZ 231635Z AUTO 00000KT 10SM CLR 18/03 A3027 RMK AO2
     T01750025=
KJYM 231635Z AUTO 15007G14KT 10SM CLR 21/10 A3011 RMK AO2
     T02100100=
KJZI 231635Z AUTO 02009KT 10SM CLR 23/11 A3017 RMK AO2=
KKY8 231635Z AUTO 18013G18KT 9SM CLR 24/13 A3010 RMK A01=
KL08 231635Z AUTO 15006KT 3SM HZ CLR 20/01 A2980 RMK AO2=
KL35 231635Z AUTO 25007KT 10SM CLR 04/M05 A2992 RMK AO2=
KL52 231635Z AUTO 00000KT 8SM CLR 15/07 A2993 RMK A01=
K04W 231635Z AUTO 13009KT 10SM CLR 21/12 A2965 RMK AO2=
K06D 231635Z AUTO 07019G26KT 10SM OVC005 06/06 A2956 RMK AO2=
K0S9 231635Z AUTO 11004KT 10SM CLR 06/06 A3009 RMK AO2=
K0VG 231635Z AUTO 22004KT 10SM CLR 20/03 A3025 RMK AO2=
K15M 231635Z AUTO 17013G18KT 10SM CLR 22/08 A3016 RMK AO2
     T02230085 $=
K1R7 231635Z AUTO 15006KT 10SM CLR 25/18 A3013 RMK AO2 PWINO=
K22N 231635Z AUTO 00000KT 10SM OVC041 13/05 A3031 RMK AO2=
K24A 231635Z AUTO 00000KT 10SM CLR 17/03 A3027 RMK AO2 LTG DSNT SE
     T01680032=
K24J 231635Z AUTO VRB03G10KT 10SM 24/11 A3016 RMK A01=
K28J 231635Z AUTO 01004KT 9SM 24/13 A3015 RMK AO2 TSNO=
K2D5 231635Z AUTO 08015KT 8SM CLR 14/07 A2938 RMK AO2=
K2P2 231635Z AUTO 18009G17KT 150V210 10SM SCT110 15/12 A2995 RMK
     AO2 T01490120=
K3AU 231635Z AUTO 19024G32KT 10SM CLR 26/10 A2959 RMK AO2=
K3N8 231635Z AUTO 13011G16KT 10SM CLR 18/09 A2951 RMK AO2
     T01770093=
K42J 231635Z AUTO VRB05KT 10SM CLR 24/12 A3015 RMK A01=
K46D 231635Z AUTO 08016KT 10SM CLR 13/05 A2945 RMK AO2=
K4A6 231635Z AUTO VRB03KT 10SM CLR 21/08 A3021 RMK AO2=
K4M9 231635Z AUTO 20019G28KT 9SM FEW034 24/17 A2999 RMK AO2
     PWINO=
K5H4 231635Z AUTO 06015G24KT 10SM CLR 09/M03 A2947 RMK AO2=
K6B0 231635Z AUTO 00000KT 10SM CLR 17/07 A3034 RMK AO2
     T01740065=
K6B9 231635Z AUTO 10007KT 10SM CLR 18/05 A3028 RMK AO2=
K7L2 231635Z AUTO 09012KT 10SM CLR 14/07 A2934 RMK AO2=
K7W6 231635Z AUTO 33012G20KT 10SM OVC004 17/17 A3006 RMK AO2 P0001
     T01650165=
K82C 231635Z AUTO 14010G17KT 10SM CLR 20/13 A2978 RMK AO2
     T02030126=
K96D 231635Z AUTO 03011G17KT 10SM OVC012 09/09 A2958 RMK AO2=
KACB 231635Z AUTO 15008KT 10SM CLR 23/12 A3002 RMK AO2
     T02270117=
KACJ 231635Z AUTO VRB03KT 10SM CLR 22/08 A3020 RMK AO2
     T02200078=
KAEL 231635Z AUTO 14022G27KT 10SM CLR 21/13 A2959 RMK AO2=
KAGO 231635Z AUTO 20015G22KT 10SM CLR 26/16 A2998 RMK A01=
KAIG 231635Z AUTO 14011KT 10SM CLR 18/12 A2986 RMK AO2
     T01760119=
KAIK 231635Z AUTO 04004KT 10SM CLR 22/10 A3021 RMK AO2
     T02250103=
KALM 231635Z AUTO 22009G16KT 10SM SCT090 22/11 A2982 RMK AO2=
KANQ 231635Z AUTO 18012KT 10SM CLR 21/12 A3009 RMK AO2=
KAQX 231635Z AUTO VRB04KT 10SM CLR 23/10 A3018 RMK AO2=
KARW 231635Z AUTO 04007KT 10SM CLR 22/12 A3017 RMK AO2=
KASJ 231635Z AUTO 36008KT 10SM OVC010 14/13 A3017 RMK AO2
     T01430133=
KATS 231635Z AUTO 22026KT 10SM CLR 24/11 A2974 RMK AO2=
KAVC 231635Z AUTO 36007KT 10SM OVC020 18/11 A3025 RMK AO2
     T01770111=
KBAC 231635Z AUTO 09010KT 9SM CLR 13/08 A2944 RMK AO2=
KBBB 231635Z AUTO 16018G23KT 10SM CLR 20/12 A2946 RMK AO2=
KLBO 231635Z AUTO 18016G25KT 10SM CLR 24/12 A2982 RMK AO2=
KLKR 231635Z AUTO 03005KT 10SM CLR 22/09 A3021 RMK AO2=
