SAUS70 KWBC 232100 RRX
METAR
KTFP 232055Z AUTO 17018G25KT 10SM CLR 29/22 A2981 RMK AO2
     T02910221=
