SAUS70 KWBC 232000 RRC
METAR
KANQ 231955Z AUTO 17015G20KT 10SM CLR 24/10 A3002 RMK AO2=
KAPC 231954Z 01022G32KT 10SM CLR 23/M03 A2996 RMK AO2 PK WND
     01033/1937 SLP136 T02281033=
KAQX 231955Z AUTO 02005G11KT 10SM CLR 25/09 A3012 RMK AO2=
KARW 231955Z AUTO 01007KT 10SM CLR 23/10 A3012 RMK AO2=
KASJ 231955Z AUTO 34006KT 10SM OVC012 16/14 A3013 RMK AO2
     T01550139=
KATA 231955Z AUTO 16015G21KT 10SM SCT055 29/15 A2986 RMK AO2
     SLP012 T02850151 $=
KATS 231955Z AUTO 22022G28KT 10SM BKN075 BKN085 25/11 A2969 RMK
     AO2=
KAVC 231955Z AUTO 03005KT 10SM OVC024 19/13 A3020 RMK AO2
     T01920126=
KAVL 231954Z 16003KT 10SM CLR 22/01 A3017 RMK AO2 SLP206
     T02170006=
KBAC 231955Z AUTO 11019G27KT 10SM CLR 22/12 A2932 RMK AO2=
KBCB 231955Z AUTO 10006KT 10SM CLR 21/05 A3022 RMK AO2
     T02050047=
KBKS 231955Z AUTO 14015G21KT 10SM FEW055 32/18 A2976 RMK AO2
     SLP037 T03250183 $=
KBKT 231955Z AUTO 01006KT 10SM OVC023 18/11 A3016 RMK AO1
     T01750113=
KBRY 231955Z AUTO 18010KT 140V210 10SM CLR 25/07 A3006 RMK AO2
     T02510073=
KBVU 231955Z AUTO 05007KT 10SM CLR 17/M09 A2985 RMK AO2=
KBWP 231955Z AUTO 13020G30KT 9SM CLR 24/12 A2931 RMK AO2=
KBWW 231955Z AUTO 35015KT 10SM OVC010 06/06 A2935 RMK AO2=
KBXK 231955Z AUTO 27011KT 10SM FEW065 23/07 A2975 RMK A01=
KC29 231955Z AUTO 14016G21KT 10SM SCT044 25/13 A2975 RMK AO1
     T02460127=
KCDN 231955Z AUTO 35005G14KT 10SM CLR 24/06 A3014 RMK AO2=
KCEU 231954Z AUTO 14003KT 10SM CLR 23/02 A3016 RMK AO2 SLP206
     T02280022=
KCEY 231955Z AUTO 15012G22KT 10SM CLR 26/06 A3001 RMK A01=
KCFJ 231955Z AUTO 18021G28KT 10SM CLR 24/07 A2997 RMK AO2
     T02390065=
KCGC 231955Z AUTO 29005KT 10SM CLR 27/15 A3007 RMK AO2=
KCJR 231955Z AUTO 02006KT 10SM OVC041 20/11 A3020 RMK AO2
     T01960105=
KCKM 231955Z AUTO 16013G20KT 10SM FEW055 27/13 A2998 RMK A01=
KCKZ 231955Z AUTO 06012G20KT 10SM SCT046 16/09 A3025 RMK AO2=
KCLS 231955Z AUTO VRB04KT 10SM SCT027 SCT031 SCT038 12/06 A3016
     RMK AO2=
KCLW 231955Z AUTO 31008KT 10SM SCT055 26/15 A3006 RMK AO2
     PWINO=
KCMR 231955Z AUTO 30017G24KT 10SM SCT050 SCT060 08/M05 A2985 RMK
     AO2=
KCPT 231955Z AUTO 17021G31KT 10SM CLR 29/15 A2977 RMK A01=
KCTZ 231955Z AUTO 33007KT 10SM CLR 23/10 A3011 RMK AO2
     T02280100=
KHYW 231955Z AUTO 33005KT 10SM CLR 22/06 A3012 RMK AO2=
KHZE 231955Z AUTO 04017G22KT 10SM CLR 13/06 A2933 RMK AO2=
KI67 231955Z AUTO 20005KT 10SM CLR 25/08 A3006 RMK AO1=
KI68 231955Z AUTO 18010G16KT 10SM CLR 25/09 A3010 RMK AO1
     T02470091=
KIDI 231955Z AUTO VRB05KT 10SM CLR 21/03 A3024 RMK A01=
KINF 231955Z AUTO 00000KT 7SM CLR 27/15 A3008 RMK AO2=
KINT 231954Z VRB06KT 10SM CLR 22/05 A3017 RMK AO2 SLP213
     T02170050=
KIOB 231955Z AUTO 20008KT 10SM CLR 25/03 A3013 RMK AO2 PWINO=
KIWA 231954Z 26013KT 10SM SCT070 22/08 A2977=
KJFZ 231955Z AUTO 07004KT 10SM CLR 21/02 A3020 RMK AO2
     T02090015=
KJSO 231955Z AUTO 22012G20KT 190V260 10SM SCT060 SCT110 28/14
     A2990 RMK AO2 T02790144 TSNO=
KJST 231954Z AUTO VRB05KT CLR 17/02 A3024 RMK AO2 SLP239 T01720017
     $=
KJZI 231955Z AUTO 34006KT 10SM CLR 25/11 A3012 RMK AO2=
KKY8 231955Z AUTO 19013KT 10SM CLR 26/13 A3002 RMK A01=
KL08 231955Z AUTO 07006KT 10SM CLR 24/M00 A2977 RMK AO2=
KL35 231955Z AUTO 27008G15KT 10SM CLR 08/M10 A2994 RMK AO2=
KL52 231955Z AUTO 28008KT 6SM HZ CLR 18/10 A2992 RMK A01=
KLBO 231955Z AUTO 18015G21KT 10SM CLR 28/11 A2976 RMK AO2=
KLKR 231955Z AUTO 00000KT 10SM CLR 23/06 A3015 RMK AO2=
KLKU 231955Z AUTO 01006KT 10SM OVC027 17/12 A3020 RMK AO2
     T01660117=
KLNP 231955Z AUTO 00000KT 7SM CLR 20/03 A3021 RMK AO2=
