SAUS70 KWBC 232100 RRI
METAR
KJER 232053Z AUTO 29024G33KT 10SM CLR 07/M02 A2988 RMK AO2 PK WND
     28034/2003 SLP124 T00721022 52004=
KJFX 232055Z AUTO 00000KT 10SM CLR 25/06 A3009 RMK AO2=
KJSO 232055Z AUTO 20014G21KT 10SM BKN060 28/13 A2989 RMK AO2
     T02810130 TSNO=
KCXO 232053Z 16018G27KT 10SM SCT065 29/16 A2988 RMK AO2 PK WND
     18028/2010 SLP114 T02940156 56025=
KD55 232055Z AUTO 06024KT 10SM CLR 13/12 A2944 RMK AO2=
KDET 232053Z 14012G20KT 8SM CLR 24/08 A3009 RMK AO2 SLP186
     T02390083 56014=
KDEW 232053Z AUTO VRB05KT 10SM FEW045 BKN065 11/00 A3003 RMK AO2
     SLP181 T01060000 51010=
KDFI 232053Z AUTO 17014G20KT 10SM CLR 24/09 A3004 RMK AO2 SLP171
     T02440094 56015=
KDKK 232053Z AUTO 04005KT 10SM CLR 22/07 A3018 RMK AO2 SLP216
     T02220067 56013=
KDLS 232053Z AUTO 30012KT 10SM CLR 16/01 A3012 RMK AO2 SLP198
     T01610011 51006=
KDNL 232053Z AUTO 34006KT 10SM CLR 25/07 A3014 RMK AO2 SLP202
     T02500072 56012=
KDTW 232053Z 16009KT 10SM FEW055 SCT120 BKN220 22/09 A3009 RMK AO2
     SLP187 T02220094 56015 $=
KDVT 232053Z 30010G16KT 10SM SCT060 SCT075 22/08 A2973 RMK AO2
     SLP049 T02170078 57018=
KDWH 232053Z 17010G21KT 140V210 10SM SCT065 29/14 A2987 RMK AO2
     SLP112 T02940144 56023=
KEDE 232055Z AUTO 35009G14KT 10SM OVC008 17/16 A3010 RMK AO2
     T01700163=
KEET 232053Z AUTO VRB05KT 10SM CLR 25/05 A3010 RMK AO2 SLP188
     T02500050 56026=
KELM 232053Z 13007KT 10SM CLR 18/07 A3023 RMK AO2 SLP240 T01830072
     56007=
KELN 232053Z AUTO 24005KT 6SM HZ CLR 13/M03 A3006 RMK AO2 SLP184
     T01331028 52006 $=
KEPH 232053Z AUTO 36004KT 10SM CLR 14/M04 A3005 RMK AO2 SLP179
     T01391044 51008 $=
KEQY 232053Z AUTO 36005KT 10SM CLR 23/04 A3014 RMK AO2 SLP212
     T02280044 56012=
KESF 232053Z AUTO 16008KT 10SM FEW055 SCT070 29/17 A2995 RMK AO2
     SLP141 T02940167 56021=
KEVW 232053Z AUTO 29018G24KT 10SM FEW019 SCT038 OVC065 M01/M05
     A2976 RMK AO2 WSHFT 2029 SNB1958E22 SLP078 P0000 60000
     T10061050 51012 $=
KEYW 232053Z 05008KT 10SM CLR 28/19 A3000 RMK AO2 SLP158 T02780194
     56014=
KFCM 232053Z 15017G32KT 10SM CLR 26/13 A2947 RMK AO2 PK WND
     13034/2008 SLP974 T02560128 56024 $=
KFDY 232053Z AUTO 16012KT 10SM FEW060 24/10 A3007 RMK AO2 SLP175
     T02440100 56015=
KFFC 232053Z AUTO 17003KT 10SM CLR 23/00 A3015 RMK AO2 SLP209
     T02330000 56018=
KFHR 232053Z AUTO 12003KT 10SM FEW015 11/07 A3015 RMK AO2 SLP210
     T01110072 51007=
KFLL 232053Z 06010KT 10SM SCT040 28/18 A3001 RMK AO2 SLP161
     T02830183 55010 $=
KFMY 232053Z 07007KT 10SM CLR 30/16 A3001 RMK AO2 SLP165 T03000156
     56012=
KBKE 232053Z AUTO 34014G19KT 10SM SCT080 08/M02 A3006 RMK AO2
     SLP194 T00781022 51012=
KBKL 232053Z 11008KT 10SM CLR 24/07 A3010 RMK AO2 SLP192 T02440067
     58016=
KBLI 232053Z 18007KT 10SM FEW020 SCT050 11/08 A3014 RMK AO2 SLP214
     T01060078 50004=
KBMQ 232053Z AUTO 17010G22KT 10SM SCT050 28/16 A2982 RMK AO2 PK
     WND 18030/2040 SLP081 T02830156 55019=
KBNA 232053Z 15011KT 10SM SCT250 26/06 A3007 RMK AO2 SLP177
     T02560061 56023 $=
KBOI 232053Z 31014KT 10SM SCT046 BKN090 09/M02 A2998 RMK AO2
     SLP159 T00941017 53006=
KBPI 232053Z AUTO 34022G33KT 10SM CLR 03/M10 A2967 RMK AO2 PK WND
     35036/2036 SLP032 T00331100 53015=
KBPK 232053Z AUTO 18013G20KT 10SM SCT036 24/15 A2985 RMK AO2 PK
     WND 19028/2005 SLP100 T02440150 55009=
KBPT 232053Z AUTO 14012G21KT 10SM BKN055 OVC075 28/20 A2993 RMK
     AO2 SLP134 T02780200 56017=
KBRD 232053Z AUTO 10010G20KT 070V140 10SM CLR 23/12 A2948 RMK AO2
     PK WND 14030/1958 SLP983 T02280122 56026=
