SAUS70 KWBC 232040 RRE
METAR
KC07 232035Z AUTO 28008G17KT M1/4SM +SN OVC001 M07/M07 A2958 RMK
     AO2 LTG DSNT SW P0002=
KCXP 232035Z AUTO 06010KT 10SM BKN060 BKN070 08/M08 A3006 RMK
     AO2=
KDSF 232035Z AUTO 06006KT 10SM CLR 25/14 A3006 RMK A01=
KEKS 232030Z AUTO 01015KT M01/M02 A2984 RMK AO2 PWINO TSNO=
KF05 232035Z AUTO 19021G32KT 10SM CLR 34/12 A2959 RMK AO2
     T03360116=
KGLX 232035Z AUTO 05013KT 10SM CLR 25/14 A3005 RMK A01=
KGYB 232035Z AUTO 14014G18KT 10SM SCT048 SCT060 SCT070 29/17 A2983
     RMK AO2 T02940174=
KGZN 232020Z AUTO 18021G30KT 10SM CLR 29/14 A2971 RMK AO2=
KHHV 232035Z AUTO 14015G24KT 10SM FEW033 27/19 A2988 RMK A01=
KINJ 232035Z AUTO 18020G28KT 10SM BKN050 30/16 A2978 RMK AO2
     T03000158=
KLXY 232035Z AUTO 16015G24KT 10SM BKN060 29/15 A2981 RMK AO2
     T02910154=
KRTS 232035Z AUTO 06009G15KT 10SM BKN055 06/M09 A3006 RMK AO2=
KSWW 232035Z AUTO 18018G24KT 10SM CLR 30/12 A2972 RMK AO2
     T03030118=
KSZT 232035Z AUTO 36005KT 10SM CLR 10/00 A3002 RMK AO2=
KVCV 232035Z AUTO 35010KT 10SM CLR 16/M06 A2991 RMK AO2=
KCFS 232035Z AUTO 16010G19KT 10SM CLR 24/09 A3006 RMK AO2
     T02400085=
KCKN 232035Z AUTO 12020G24KT 10SM CLR 26/11 A2938 RMK AO2=
KCQM 232037Z AUTO 14007KT 100V160 10SM SCT070 23/11 A2960 RMK
     AO2=
KGDB 232035Z AUTO 13020G31KT 10SM CLR 26/13 A2936 RMK AO2
     T02590131=
KJYG 232037Z AUTO 14026G34KT 10SM CLR 25/12 A2940 RMK AO2=
KPHN 232035Z AUTO 16012G18KT 10SM CLR 24/06 A3011 RMK AO2=
KANW 232035Z AUTO 28016G25KT 10SM CLR 27/M01 A2916 RMK AO2
     T02711012=
KBNW 232035Z AUTO 15018G27KT 10SM CLR 26/14 A2949 RMK AO2=
KDSF 232035Z AUTO 06006KT 10SM CLR 25/14 A3006 RMK A01=
KGGI 232035Z AUTO 15020G26KT 10SM CLR 26/15 A2959 RMK AO2
     T02550152=
KHHV 232035Z AUTO 14015G24KT 10SM FEW033 27/19 A2988 RMK A01=
KM30 232035Z AUTO 19010G19KT 10SM CLR 26/10 A2997 RMK AO2
     T02640102=
KMJQ 232035Z AUTO 15024G29KT 10SM CLR 25/11 A2941 RMK AO2=
KMOP 232035Z AUTO 14014G20KT 10SM SCT060 23/10 A3001 RMK AO2
     T02340099=
KMUT 232035Z AUTO 15020G26KT 10SM CLR 25/15 A2967 RMK AO2=
KONA 232035Z AUTO 17009G21KT 151V211 10SM CLR 25/12 A2959 RMK
     AO2=
KOSC 232035Z AUTO 14007KT 10SM CLR 22/12 A3006 RMK AO2
     T02170116=
KOXI 232035Z AUTO 17017G30KT 10SM CLR 25/10 A2993 RMK AO1=
KOXV 232035Z AUTO 16024G29KT 10SM CLR 29/13 A2952 RMK AO2=
KPCW 232035Z AUTO 16008KT 10SM FEW070 24/09 A3008 RMK AO2=
KPEX 232035Z AUTO 13022G28KT 10SM CLR 23/12 A2942 RMK AO2=
KPMH 232035Z AUTO 17004KT 10SM CLR 26/01 A3012 RMK AO2
     T02600013=
KPRO 232035Z AUTO 16025G29KT 10SM CLR 29/13 A2945 RMK AO2
     T02900130=
KPTD 232035Z AUTO 06005KT 10SM CLR 22/04 A3025 RMK AO2=
KRPJ 232035Z AUTO 17026G32KT 10SM SCT044 24/16 A2977 RMK AO2
     T02440156 TSNO=
KRRT 232035Z AUTO 04011G18KT 10SM CLR 14/11 A2954 RMK AO2=
KTNU 232035Z AUTO 15016G24KT 9SM CLR 26/14 A2954 RMK A01=
KVYS 232035Z AUTO 17024G30KT 10SM CLR 25/14 A2978 RMK AO2
     T02470139=
KWBF 232030Z AUTO 00000G10KT 10SM 27/18 A3002 RMK A01=
KY31 232035Z AUTO 15013G20KT 10SM BKN065 24/09 A3003 RMK AO2
     T02370089=
K0CO 232035Z AUTO 32019G23KT M1/4SM FZFG OVC001 M06/M07 A2959 RMK
     AO2=
KERV 232035Z AUTO 17017G24KT 10SM CLR 26/16 A2981 RMK AO2
     T02620161=
KF17 232035Z AUTO 16010G19KT 120V180 10SM SCT055 BKN065 28/13
     A2990 RMK AO2=
KFOT 232030Z AUTO 31014KT 9SM CLR 14/06 A3014 RMK AO1=
KM75 232035Z AUTO 01019KT 1/2SM FG BKN003 00/00 A2966 RMK A01=
KMDD 232035Z AUTO 17016G25KT 10SM CLR 29/12 A2969 RMK AO2
     T02880123=
KMEV 232035Z AUTO 02006G14KT 10SM CLR 08/M06 A3003 RMK AO2=
