SAUS80 KWBC 231700 RRB
METAR
KCAO 231655Z AUTO 21029G45KT 10SM CLR 22/04 A2958 RMK AO2 PK WND
     21048/1614 SLP952 T02170039=
KBIH 231656Z AUTO 32016G26KT 10SM CLR 10/M08 A2991 RMK AO2 PK WND
     33026/1651 SLP111 T01001083=
KELY 231653Z AUTO 35007KT 10SM FEW032 OVC050 M01/M04 A2986 RMK AO2
     SLP116 T10111044=
KINW 231656Z AUTO 33016G23KT 10SM SCT042 BKN050 OVC075 10/01 A2980
     RMK AO2 PK WND 33029/1557 RAB04E32 SLP050 P0000 T01000006=
KSFO 231656Z 34003KT 10SM CLR 15/06 A3002 RMK AO2 SLP164 T01500061
     $=
KIZA 231655Z AUTO 20003KT 10SM CLR 12/08 A2991 RMK AO2=
KCKP 231655Z AUTO 16019G27KT 10SM CLR 23/13 A2942 RMK AO2
     T02310130=
K40U 231655Z AUTO 29012G19KT 7SM OVC046 01/M04 A2966 RMK AO2
     T00061036=
K4BM 231655Z AUTO 17015G23KT M1/4SM +SN OVC002 M01/M02 A2962 RMK
     AO2=
KFLG 231657Z AUTO 27009G16KT 10SM BKN015 BKN024 OVC031 04/02 A2982
     RMK AO2 PK WND 23039/1618 RAB23E41 SLP037 P0000 T00440017=
K2WX 231656Z AUTO 35011KT 08/03 A2930 RMK AO1 SLP927 T00780028=
K9V9 231655Z AUTO 14017G21KT 10SM CLR 19/11 A2920 RMK AO2
     T01940107=
KAYS 231655Z AUTO 11006KT 10SM CLR 24/13 A3017 RMK AO2
     T02400134=
KCBE 231655Z AUTO 00000KT 10SM CLR 15/06 A3034 RMK AO2
     T01460059=
KD07 231656Z AUTO 03009KT 10/04 A2926 RMK AO1 SLP914 T01000039=
KGIC 231655Z AUTO 26005KT 10SM OVC029 02/00 A2997 RMK AO1=
KPSN 231655Z AUTO 19013G22KT 10SM SCT039 SCT046 BKN050 27/18 A2992
     RMK AO2=
KSOA 231655Z AUTO 16015KT 10SM CLR 24/16 A2990 RMK AO2=
KP53 231656Z AUTO 17011G20KT 19/12 A2993 RMK AO1 SLP134
     T01940122=
KALK 231656Z AUTO 22018G27KT 10SM CLR 18/07 A2992 RMK AO2 PK WND
     23029/1632 SLP051 T01780067=
KMHS 231656Z AUTO 30008G18KT 270V340 10SM BKN030 06/M01 A3007 RMK
     AO2 SLP207 T00561006=
KP60 231656Z AUTO VRB04KT M04/M07 A2966 RMK AO1 SLP050
     T10391072=
KSMP 231656Z AUTO VRB05KT 1/4SM FG VV002 01/M01 A3002 RMK AO2
     SLP190 T00061006 $=
KSPD 231656Z AUTO 22027G42KT 24/02 A2948 RMK AO1 PK WND 22045/1629
     SLP919 T02440022=
KSXT 231656Z AUTO 00000KT 1/4SM FG VV005 03/02 A3012 RMK AO2
     SLP214 T00280022=
K2WX 231656Z AUTO 35011KT 08/03 A2930 RMK AO1 SLP927 T00780028=
K8D3 231656Z AUTO 13018KT 19/10 A2938 RMK AO1 PK WND 14027/1651
     SLP944 T01940100=
K9V9 231655Z AUTO 14017G21KT 10SM CLR 19/11 A2920 RMK AO2
     T01940107=
KCBE 231655Z AUTO 00000KT 10SM CLR 15/06 A3034 RMK AO2
     T01460059=
KD07 231656Z AUTO 03009KT 10/04 A2926 RMK AO1 SLP914 T01000039=
KGNA 231656Z AUTO 08011KT 13/09 A2978 RMK AO1 SLP086 T01280089=
KGNR 231656Z AUTO 17004KT 20/04 A3035 RMK AO1 SLP280 T02000039=
KCAO 231655Z AUTO 21029G45KT 10SM CLR 22/04 A2958 RMK AO2 PK WND
     21048/1614 SLP952 T02170039=
KGIC 231655Z AUTO 26005KT 10SM OVC029 02/00 A2997 RMK AO1=
KCHS 231656Z 36008KT 10SM FEW250 23/09 A3016 RMK AO2 SLP212
     T02280094=
