SAUS70 KWBC 232000 RRS
METAR
KAXX 231955Z AUTO 23009G24KT 4SM RA BKN021 BKN028 OVC034 04/02
     A2971 RMK AO2 T00400018=
KBMT 231955Z AUTO 18008KT 10SM RA BKN035 OVC041 24/20 A2994 RMK
     AO2 T02400200=
KCNI 231955Z AUTO 19003KT 10SM CLR 24/02 A3017 RMK AO2
     T02360023=
KDCY 231955Z AUTO 17016G22KT 10SM CLR 26/10 A2999 RMK AO2
     T02570099=
KDED 231955Z AUTO 03012KT 360V060 10SM SCT050 27/17 A3008 RMK AO2
     T02730166=
KDUX 231955Z AUTO 19025G38KT 10SM CLR 27/07 A2954 RMK AO2
     T02730067=
KEBS 231955Z AUTO 16022G33KT 10SM CLR 25/14 A2947 RMK AO2=
KETN 231955Z AUTO 17022G29KT 10SM CLR 29/14 A2972 RMK AO2
     T02860143=
KGNB 231955Z AUTO 26009G18KT 10SM SCT028 BKN041 OVC070 05/M03
     A2956 RMK AO2 T00481026=
KGNC 231955Z AUTO 21018G25KT 10SM CLR 29/10 A2972 RMK AO2
     T02920096=
KHEQ 231955Z AUTO 33021G29KT 10SM CLR 23/M01 A2926 RMK AO2=
KHVE 231955Z AUTO 30015G24KT 10SM SCT070 OVC085 09/M02 A2970 RMK
     AO2=
KHZR 231955Z AUTO 15007G14KT 10SM SCT050 BKN065 28/16 A3002 RMK
     AO2 T02750156=
KJES 231955Z AUTO 00000KT 10SM CLR 21/05 A3014 RMK AO2=
KK62 231955Z AUTO 17005G17KT 10SM CLR 25/05 A3010 RMK AO2=
KLSE 231953Z 14018KT 10SM CLR 26/13 A2961=
KMHP 231955Z AUTO 00000KT 10SM CLR 25/10 A3013 RMK AO2
     T02480103=
KMQW 231955Z AUTO 35003KT 10SM CLR 25/11 A3013 RMK AO2
     T02540108=
KOZA 231955Z AUTO 19021G27KT 10SM CLR 26/13 A2980 RMK AO2=
KPEQ 231955Z AUTO 21014G19KT 10SM CLR 32/08 A2966 RMK AO2
     T03210075=
KPXE 231955Z AUTO 34003KT 10SM CLR 25/08 A3014 RMK AO2
     T02480078=
KSBD 231958Z 25008KT 10SM CLR 21/03 A2984=
KT20 231955Z AUTO 16013G20KT 10SM SCT046 SCT060 30/18 A2982 RMK
     AO2 T03000178=
KBAF 231953Z 35005KT 10SM FEW075 SCT090 OVC110 13/07 A3031 RMK AO2
     SLP267 T01280067=
KCMY 231958Z AUTO 14015G22KT 8SM FEW048 25/13 A2967 RMK AO2 SLP046
     T02490129 $=
KFXY 231955Z AUTO 14021G30KT 10SM CLR 23/13 A2951 RMK AO2=
KI75 231955Z AUTO 16015G25KT 10SM SCT090 SCT110 27/14 A2953 RMK
     AO2 T02710144=
KIIB 231955Z AUTO 15021G27KT 10SM 23/14 A2963 RMK AO2
     T02300137=
KIJX 231955Z AUTO 16017G23KT 10SM CLR 24/14 A2978 RMK AO2
     T02370144=
KMLE 231955Z AUTO 16020G27KT 10SM CLR 30/13 A2934 RMK AO2
     T02960128=
KMQB 231955Z AUTO 17019G29KT 10SM CLR 24/13 A2975 RMK AO2
     T02420125=
KPPQ 231955Z AUTO 17019G25KT 10SM CLR 26/15 A2975 RMK AO2
     T02560152=
KRDK 231955Z AUTO 18025G34KT CLR 29/14 A2941 RMK AO2=
KSDA 231955Z AUTO 17028G41KT 10SM CLR 30/14 A2939 RMK AO2=
KSHL 231955Z AUTO 15024G36KT 10SM CLR 27/12 A2931 RMK AO2=
KSLB 231955Z AUTO 17026G37KT 10SM CLR 26/13 A2939 RMK AO2=
KTAZ 231955Z AUTO 18020G28KT 10SM CLR 24/14 A2984 RMK AO2
     T02370141=
KTIF 231955Z AUTO 27022G29KT 10SM CLR 27/01 A2919 RMK AO2
     T02660005=
KUMP 231955Z AUTO 17014G20KT 10SM CLR 26/12 A3001 RMK AO2
     T02560117=
KUNI 231955Z AUTO 12006KT 2SM HZ CLR 25/06 A3013 RMK AO2
     T02530056=
KW22 231955Z AUTO 00000KT 10SM CLR 23/02 A3018 RMK AO2=
KZER 231955Z AUTO 10006KT 10SM BKN042 OVC055 15/09 A3027 RMK
     AO2=
KAQO 231955Z AUTO 19014G24KT 150V210 9SM CLR 30/13 A2978 RMK
     AO2=
KBBD 231955Z AUTO 16019G28KT 10SM CLR 28/14 A2976 RMK AO2=
KCZT 231955Z AUTO 13012KT 100V170 10SM CLR 31/17 A2976 RMK AO2=
KDVO 231955Z AUTO 01012G18KT 340V040 10SM CLR 22/M03 A2999 RMK
     AO2=
KFFZ 231954Z 25008KT 10SM FEW045 23/07 A2974 RMK AO2 SLP052
     T02280072=
KMER 231953Z 31018G23KT 7SM CLR 21/M01 A2994=
K04V 231955Z AUTO 25025G45KT 10SM CLR 11/M10 A2957 RMK AO2=
K5C1 231955Z AUTO 16013G19KT 10SM BKN044 26/15 A2983 RMK AO1=
