SAUS70 KWBC 232114
METAR
K2C8 232115Z AUTO 02010KT 9SM CLR 18/10 A2944 RMK AO2=
KCLK 232115Z AUTO 17021G27KT 10SM CLR 27/12 A2960 RMK AO2=
KD50 232115Z AUTO 02015G21KT 10SM OVC012 05/03 A2953 RMK AO2=
KFRR 232115Z AUTO 14003KT 10SM OVC042 17/08 A3021 RMK AO1=
KLQK 232115Z AUTO 10SM CLR 24/03 A3014 RMK AO2 T02370029 PNO=
KY51 232115Z AUTO 15019G23KT 10SM CLR 22/15 A2965 RMK AO1
     T02190145=
KTFP 232035Z AUTO 16019G27KT 10SM CLR 29/22 A2981 RMK AO2
     T02930221=
K4R5 232115Z AUTO 00000KT 10SM SCT060 SCT075 OVC110 19/12 A2965
     RMK AO2 T01910121=
K8W2 232115Z AUTO 02006KT 10SM SCT035 OVC041 19/08 A3020 RMK AO1
     T01900080=
KARV 232115Z AUTO 16011G15KT 10SM BKN043 22/12 A2974 RMK AO2
     T02160120=
KCCA 232115Z AUTO 18011G16KT 120V210 10SM SCT045 27/15 A2988 RMK
     AO2=
KCDH 232115Z AUTO 16013G18KT 8SM FEW055 29/16 A2989 RMK AO2=
KCPK 232115Z AUTO 32008KT 15/14 A3009 RMK AO2 T01470137=
KEOE 232115Z AUTO 05003KT 10SM CLR 23/05 A3017 RMK AO2=
KFDW 232115Z AUTO 01003KT 10SM CLR 23/06 A3014 RMK AO1=
KHFY 232115Z AUTO 16014G18KT 10SM CLR 25/11 A3001 RMK AO2
     T02520112=
KIUA 232115Z AUTO 14006KT 10SM CLR 19/05 A3022 RMK AO2
     T01850052=
KIXA 232115Z AUTO 35009KT 10SM OVC019 16/15 A3013 RMK AO2=
KJAQ 232115Z AUTO 34010G16KT 10SM CLR 18/M04 A2993 RMK AO1
     T01771040=
KMDZ 232115Z AUTO 14013G20KT 10SM SCT043 22/13 A2971 RMK AO2
     T02210125 PWINO=
KSPA 232115Z AUTO 00000KT 10SM CLR 22/01 A3015 RMK AO2=
KVER 232115Z AUTO 18012G18KT 150V210 10SM BKN110 29/16 A2970 RMK
     AO2 T02940156=
