SAUS70 KWBC 231638 RRJ
METAR
KIRS 231635Z AUTO 18014G21KT 10SM CLR 22/10 A3006 RMK AO2
     T02180101=
KJYM 231635Z AUTO 15007G14KT 10SM CLR 21/10 A3011 RMK AO2
     T02100100=
KLDM 231635Z AUTO 19013G17KT 10SM CLR 22/11 A2998 RMK AO2
     T02210110=
KOVL 231635Z AUTO 14017G24KT 7SM CLR 20/11 A2949 RMK AO2=
KRZT 231635Z AUTO 13005KT 10SM CLR 22/08 A3019 RMK AO2 PWINO=
KSAZ 231635Z AUTO 14009G16KT 10SM CLR 19/10 A2955 RMK AO2=
KTWM 231635Z AUTO 08009KT 10SM SCT070 SCT090 16/09 A2972 RMK
     AO2=
KVVV 231635Z 14017G25KT 10SM 19/12 A2941 RMK AO2=
K0E0 231635Z AUTO 23022G28KT 10SM SCT065 SCT075 17/00 A2977 RMK
     AO2 T01671002 TSNO=
K0S9 231635Z AUTO 11004KT 10SM CLR 06/06 A3009 RMK AO2=
K3N8 231635Z AUTO 13011G16KT 10SM CLR 18/09 A2951 RMK AO2
     T01770093=
K6S2 231635Z AUTO 00000KT 10SM BKN002 07/07 A3016 RMK AO2=
K6S8 231625Z AUTO 30016G29KT 10SM 05/M01 A2960 RMK A01 LAUREL=
KALM 231635Z AUTO 22009G16KT 10SM SCT090 22/11 A2982 RMK AO2=
KAQP 231633Z AUTO 17018G22KT 10SM SCT095 21/11 A2943 RMK AO2=
KATS 231635Z AUTO 22026KT 10SM CLR 24/11 A2974 RMK AO2=
KBEA 231635Z AUTO 18019G27KT 10SM SCT035 SCT050 29/16 A2990 RMK
     AO2 T02850156=
KBKS 231635Z AUTO 16018KT 10SM FEW036 29/21 A2987 RMK AO2 SLP076
     T02890212 $=
KCMR 231635Z AUTO 25008G13KT 10SM OVC028 02/M00 A2985 RMK AO2=
KCPT 231635Z AUTO 19013G22KT 10SM BKN033 26/17 A2986 RMK A01=
KCVH 231635Z AUTO 00000KT 10SM CLR 12/06 A3001 RMK A01=
KDNA 231635Z AUTO 24021G27KT 10SM FEW049 FEW055 FEW075 24/11 A2983
     RMK AO2=
KHAF 231635Z AUTO 33011KT 7SM CLR 14/08 A3001 RMK AO2=
KJAQ 231635Z AUTO 33005KT 10SM CLR 11/M01 A2995 RMK AO1
     T01111008=
KJSO 231635Z AUTO 20011G20KT 10SM BKN032 BKN042 25/18 A2997 RMK
     AO2 T02500175 TSNO=
KL18 231635Z AUTO 13003KT 10SM CLR 15/12 A2989 RMK AO2=
KSNK 231635Z AUTO 20017G23KT 10SM CLR 24/12 A2978 RMK AO2
     T02400124=
KSRR 231635Z AUTO 25036G49KT 10SM 16/04 A2981 RMK AO2=
KT69 231635Z AUTO 18011G17KT 9SM SCT035 SCT041 30/21 A2991 RMK
     A01=
KTVY 231635Z AUTO 12005KT 7SM -SN SCT023 OVC029 01/01 A2978 RMK
     AO2 P0002=
K82C 231635Z AUTO 14010G17KT 10SM CLR 20/13 A2978 RMK AO2
     T02030126=
K96D 231635Z AUTO 03011G17KT 10SM OVC012 09/09 A2958 RMK AO2=
KAEL 231635Z AUTO 14022G27KT 10SM CLR 21/13 A2959 RMK AO2=
KANQ 231635Z AUTO 18012KT 10SM CLR 21/12 A3009 RMK AO2=
KBBB 231635Z AUTO 16018G23KT 10SM CLR 20/12 A2946 RMK AO2=
KC29 231635Z AUTO 17010G16KT 10SM CLR 21/12 A2983 RMK AO1
     T02130120=
KCFJ 231635Z AUTO 18019G25KT 10SM CLR 22/08 A3004 RMK AO2
     T02220080=
KCKC 231635Z AUTO 13008KT 110V180 10SM CLR 16/10 A2979 RMK AO2=
KD95 231635Z AUTO 17009G15KT 10SM CLR 22/07 A3014 RMK AO2
     T02230066=
KEFK 231635Z AUTO 00000KT 10SM CLR 19/03 A3035 RMK AO2
     T01870032=
KEKM 231635Z AUTO 16014KT 9SM CLR 22/13 A3004 RMK AO2
     T02210133=
KFFX 231635Z AUTO 17007G14KT 10SM SCT050 SCT070 22/11 A3001 RMK
     AO2 T02230108=
KFKA 231635Z AUTO 16017G21KT 10SM CLR 20/12 A2968 RMK AO2
     T02000124=
KFKS 231635Z AUTO 18010G14KT 10SM CLR 21/11 A2998 RMK AO2
     T02130113=
KHAI 231635Z AUTO 16011G16KT 10SM CLR 22/12 A3006 RMK AO2
     T02220116=
KI68 231635Z AUTO 16012KT 10SM CLR 23/11 A3016 RMK AO1
     T02270107=
KOCQ 231635Z AUTO 14009G14KT 10SM CLR 18/12 A2990 RMK AO1
     T01800122=
KOEO 231635Z AUTO 12015G19KT 10SM CLR 21/15 A2967 RMK AO2
     T02130145=
KOLG 231635Z AUTO 15009KT 10SM CLR 19/10 A2970 RMK AO1=
KOSC 231635Z AUTO 17008KT 10SM CLR 20/11 A3012 RMK AO2
     T02030110=
KPJC 231635Z AUTO RMK AO2 TSNO PWINO=
KRNH 231635Z AUTO 13010G15KT 10SM CLR 21/15 A2965 RMK AO2
     T02100153=
