SAUS70 KWBC 231920 RRB
METAR
KHZL 231915Z AUTO 00000KT 10SM SCT034 BKN044 OVC090 17/09 A3029
     RMK AO2=
KI23 231915Z AUTO 14012G15KT 10SM CLR 24/07 A3012 RMK AO1=
KI67 231915Z AUTO 20009G14KT 10SM CLR 25/08 A3008 RMK AO1=
KI69 231915Z AUTO 14008KT 110V180 10SM SCT060 25/09 A3012 RMK AO2
     T02450086=
KIDI 231915Z AUTO 00000KT 10SM CLR 21/03 A3025 RMK A01=
KIRS 231915Z AUTO 19016G23KT 10SM CLR 24/09 A3001 RMK AO2
     T02400093=
KMDS 231915Z AUTO 14025G30KT 10SM CLR 24/12 A2926 RMK AO2=
KPVB 231915Z AUTO 16015G22KT 10SM CLR 24/12 A2972 RMK AO1
     T02420122=
K2D5 231915Z AUTO 10026G32KT 8SM CLR 21/12 A2928 RMK AO2=
K46D 231915Z AUTO 08017KT 10SM CLR 17/07 A2935 RMK AO2=
K6B9 231915Z AUTO 12006KT 10SM CLR 20/01 A3026 RMK AO2=
K96D 231915Z AUTO 03013G19KT 10SM FEW022 14/11 A2951 RMK AO2=
K9D7 231915Z AUTO 05018G25KT 10SM CLR 13/08 A2945 RMK AO2 TSNO=
KACB 231915Z AUTO 16010G20KT 10SM BKN060 24/11 A2997 RMK AO2
     T02440109=
KAXV 231915Z AUTO 18013G18KT 10SM SCT055 23/08 A3009 RMK AO2=
KBWP 231915Z AUTO 13019G29KT 10SM CLR 24/12 A2932 RMK AO2=
KBWW 231915Z AUTO 36014KT 10SM OVC014 07/05 A2934 RMK AO2=
KCFJ 231915Z AUTO 17018G24KT 10SM CLR 24/07 A2998 RMK AO2
     T02420065=
KCKZ 231915Z AUTO 08008G14KT 9SM BKN046 17/09 A3025 RMK AO2=
KCNB 231915Z AUTO 10021G31KT 10SM CLR 24/11 A2934 RMK AO2
     T02400114=
KD57 231915Z AUTO 05014G19KT 10SM CLR 13/04 A2929 RMK AO2=
KD60 231915Z AUTO 05018G26KT 10SM OVC009 05/05 A2946 RMK AO2=
KD95 231915Z AUTO 16009G17KT 10SM CLR 24/05 A3010 RMK AO2
     T02360053=
KEGV 231915Z AUTO 16012G19KT 130V210 10SM SCT038 22/10 A2979 RMK
     AO2 T02150104=
KEKM 231915Z AUTO 17016G23KT 9SM CLR 25/13 A2998 RMK AO2
     T02480126=
KFKS 231915Z AUTO 16013G18KT 130V190 10SM CLR 24/12 A2993 RMK AO2
     T02350119=
KFSO 231915Z AUTO 00000KT 10SM CLR 20/05 A3030 RMK AO2
     T02000051=
KN38 231915Z AUTO 17009KT 10SM CLR 18/04 A3026 RMK AO2=
KOLG 231915Z AUTO 13013G19KT 10SM CLR 23/10 A2963 RMK AO1=
KRYV 231915Z AUTO 17013G21KT 10SM CLR 23/12 A2980 RMK AO2
     T02310117=
KRZL 231915Z AUTO 18020G28KT 10SM CLR 25/11 A2994 RMK AO2=
KRZN 231915Z AUTO 14014G19KT 10SM CLR 23/12 A2960 RMK AO2
     T02300116=
KS32 231915Z AUTO 08019G25KT 9SM CLR 19/08 A2937 RMK AO2 TSNO=
KTME 231915Z AUTO 18015G20KT 10SM BKN060 31/16 A2990 RMK AO2=
KY19 231915Z AUTO 06014KT 10SM CLR 14/07 A2928 RMK AO2=
K0S9 231915Z AUTO 11009KT 10SM SCT026 12/07 A3013 RMK AO2=
KALM 231915Z AUTO 24015G22KT 10SM CLR 24/07 A2977 RMK AO2=
KATA 231915Z AUTO 19006G19KT 140V220 10SM OVC050 28/16 A2989 RMK
     AO2 SLP020 T02780165 $=
KATS 231915Z AUTO 23026G33KT 10SM CLR 26/10 A2970 RMK AO2=
KBKS 231915Z AUTO 16015KT 10SM SCT050 31/19 A2979 RMK AO2 SLP048
     T03130188 $=
KBVU 231915Z AUTO 32015KT 10SM CLR 17/M08 A2985 RMK AO2=
KBXK 231915Z AUTO 29012KT 10SM FEW060 23/07 A2977 RMK A01=
KCLS 231915Z AUTO 14005KT 10SM FEW020 12/06 A3016 RMK AO2=
KCMR 231915Z AUTO 29018G23KT 10SM SCT050 08/M04 A2985 RMK AO2=
KCPT 231915Z AUTO 18022G32KT 10SM CLR 29/15 A2979 RMK A01=
KL08 231915Z AUTO VRB04KT 10SM CLR 23/M00 A2979 RMK AO2=
KORS 231915Z AUTO 17004KT 10SM CLR 11/07 A3014 RMK AO2=
KPAN 231915Z AUTO 22013KT 10SM SCT032 BKN037 OVC055 12/04 A2985
     RMK AO2 PWINO TSNO=
KPVF 231915Z AUTO 31006KT 10SM CLR 13/M07 A2998 RMK AO1=
KRPH 231915Z AUTO 17010G23KT 130V210 10SM CLR 30/15 A2968 RMK AO2
     T02980151 $=
KSVC 231915Z AUTO 26018G25KT 10SM CLR 19/04 A2985 RMK AO2
     T01850036=
KSXU 231915Z AUTO 22027G32KT 10SM SCT095 24/00 A2962 RMK AO2
     T02440001=
KT69 231915Z AUTO 15018G28KT 9SM FEW028 FEW041 29/22 A2983 RMK
     A01=
