SAUS70 KWBC 231800
METAR
KGAF 231755Z AUTO 04012G18KT 8SM CLR 14/07 A2951 RMK AO2=
KGPH 231755Z AUTO 19011G22KT 10SM CLR 27/12 A2961 RMK AO2=
KW63 231755Z AUTO 01005KT 10SM CLR 17/08 A3018 RMK AO1=
KLBE 231747Z 05006KT 15SM CLR 21/03 A3022=
KMWC 231745Z 14010G18KT 10SM SCT085 20/10 A2988=
KEZS 231755Z AUTO 13010G14KT 10SM CLR 23/14 A2985 RMK AO2
     T02250141 10225 20100=
KFMH 231745Z 05010KT 6SM -RA BR SCT010 14/14 A3031=
KRYN 231745Z 20006G12KT 10SM CLR 22/09 A2981=
