SAUS70 KWBC 231800 RRX
METAR
KGOV 231758Z AUTO 17016G22KT 10SM CLR 22/11 A3003 RMK AO2 SLP172
     T02230105 10226 20038 57015 $=
