SAUS70 KWBC 231700 RRS
METAR
KFLL 231653Z 08009G17KT 10SM FEW040 FEW060 28/19 A3006 RMK AO2
     SLP177 T02830189 $=
KJFK 231651Z 03010KT 10SM -RA FEW040 SCT075 OVC110 14/11 A3026 RMK
     AO2 SLP247 P0000 T01440106=
KMCO 231653Z 33009KT 10SM FEW030 FEW050 28/14 A3012 RMK AO2 SLP197
     T02780144 $=
KPBI 231653Z 36014KT 10SM SCT040 BKN070 28/18 A3009 RMK AO2 WSHFT
     1618 SLP187 T02830183 $=
KPHL 231654Z 05012KT 10SM FEW036 BKN055 BKN090 OVC130 17/12 A3024
     RMK AO2 RAB21E34 SLP239 P0000 T01720122 $=
TIST 231653Z 16007KT 10SM FEW030 31/24 A2991 RMK AO2 SLP127
     T03110244=
KBYS 231655Z AUTO 03005KT 10SM CLR 15/M10 A2985 RMK AO2 SLP096
     T01521097=
KTOI 231653Z AUTO 00000KT 10SM CLR 25/05 A3020 RMK AO2 SLP222
     T02500050=
TIST 231653Z 16007KT 10SM FEW030 31/24 A2991 RMK AO2 SLP127
     T03110244=
KGHW 231655Z AUTO 12018G22KT 10SM CLR 21/12 A2949 RMK AO2=
KIND 231654Z 19016G24KT 10SM FEW050 24/11 A3006 RMK AO2 PK WND
     18026/1635 SLP174 T02390111 $=
KPSF 231654Z AUTO 00000KT 10SM CLR 17/04 A3031 RMK AO2 SLP258
     T01670044=
KPTW 231654Z AUTO 05006KT 10SM FEW060 SCT100 BKN110 16/09 A3027
     RMK AO2 SLP248 T01560089=
KPWC 231655Z AUTO 13011KT 10SM CLR 19/11 A2962 RMK AO2=
KRGK 231655Z AUTO 13010KT 10SM CLR 21/12 A2962 RMK AO2=
KROX 231655Z AUTO 07016KT 10SM CLR 13/08 A2960 RMK AO2=
KSAZ 231655Z AUTO 14008G15KT 093V173 10SM CLR 20/11 A2954 RMK
     AO2=
KSBY 231654Z 03014G21KT 10SM OVC014 18/15 A3015 RMK AO2 SLP211
     T01780150=
KSLH 231655Z AUTO 15008G15KT 10SM CLR 22/12 A3003 RMK AO2=
KTWM 231655Z AUTO 07008KT 10SM SCT070 17/10 A2971 RMK AO2=
KUIN 231654Z AUTO 16017G29KT 10SM CLR 22/14 A2977 RMK AO2 PK WND
     19029/1649 SLP076 T02170139=
KVAY 231654Z AUTO 36006KT 10SM FEW044 BKN110 16/13 A3023 RMK AO2
     RAE40 SLP238 P0001 T01610133 $=
KVTA 231654Z AUTO 00000KT 10SM CLR 23/10 A3018 RMK AO2 SLPNO
     T02330100=
KBYS 231655Z AUTO 03005KT 10SM CLR 15/M10 A2985 RMK AO2 SLP096
     T01521097=
KIWA 231650Z 24016KT 10SM SCT055 21/09 A2980 HZ=
KRYM 231655Z AUTO 14014G19KT 10SM CLR 21/12 A2954 RMK AO2 SLP004
     T02080117 $=
KVSF 231654Z AUTO 00000KT 10SM CLR 14/06 A3036 RMK AO2 SLP285
     T01390056=
KXIF 231655Z AUTO 01003KT 8SM BKN016 14/09 A3026 RMK AO2 CIG
     014V020 SLP254 T01420094 $=
PANW 231656Z AUTO 35006KT 10SM CLR M04/M04 A3009 RMK AO2 SLP198
     T10391044 FZRANO=
PAOH 231656Z AUTO 08010G17KT 10SM -RA BKN018 OVC024 05/03 A2951
     RMK AO2 SLP993 P0000 T00500028=
PAOO 231656Z AUTO 20006KT FEW017 BKN022 OVC029 03/03 A2993 RMK AO2
     SLP141 T00280028 PWINO TSNO $=
PAOU 231656Z AUTO 23011KT 10SM SCT024 BKN033 OVC040 05/02 A3021
     RMK AO2 SLP231 T00500022 PNO $=
PAPG 231656Z 12015G21KT 7SM RA OVC024 05/02 A2953 RMK AO2 SLP003
     P0005 T00500022=
PAPH 231656Z AUTO 31008KT 10SM -RA FEW015 BKN029 OVC044 04/03
     A3015 RMK AO2 RAB21 SLP211 P0001 T00440028=
PAPM 231656Z AUTO 06007KT 10SM OVC031 01/01 A3008 RMK AO2 SLP187
     T00110011 FZRANO=
PAQH 231656Z AUTO 11008KT 10SM CLR M04/M04 A3005 RMK AO2 SLP177
     T10391039 FZRANO=
PARC 231656Z AUTO 00000KT 9SM -SN SCT055 OVC075 M14/M16 A2990 RMK
     AO2 SLP196 P0000 T11391156 FZRANO=
PARS 231656Z AUTO 13005KT 1/2SM FG OVC003 A3003 RMK AO2 SLPNO
     FZRANO RVRNO $=
PARY 231656Z AUTO 07003KT 9SM BKN018 OVC025 M03/M04 A3001 RMK AO2
     SNE01B44E56 SLP177 P0000 T10331039 FZRANO=
PASA 231656Z AUTO 31017KT 5SM -SN BR BKN004 OVC010 01/00 A2966 RMK
     AO2 RAB44E47 CIG 004V008 SLP044 P0000 T00060000 FZRANO=
PASD 231656Z 26005KT 10SM FEW023 BKN036 BKN050 06/02 A3024 RMK AO2
     SLP241 T00610022 PNO $=
