SAUS70 KWBC 232140 RRE
METAR
KBKD 232135Z AUTO 18019G26KT 5SM HZ CLR 31/14 A2969 RMK AO2
     T03110135=
KBQX 232135Z AUTO 15012G18KT 9SM CLR 27/19 A2989 RMK A01=
KEKS 232130Z AUTO 02019KT M01/M03 A2986 RMK AO2 PWINO TSNO=
KF17 232135Z AUTO 15009G20KT 10SM BKN050 OVC070 29/15 A2990 RMK
     AO2=
KFLY 232135Z AUTO 27017G38KT 230V320 SCT060 BKN090 OVC110 14/M06
     A2948 RMK AO2 T01431058 PWINO=
KFOT 232130Z AUTO 34013KT 8SM CLR 14/05 A3014 RMK AO1=
KGDJ 232135Z AUTO 17016G26KT 10SM CLR 30/14 A2974 RMK AO2
     T02950144=
KGOO 232130Z AUTO 35008KT 320V020 10SM CLR 14/M09 A2997 RMK
     A01=
KVAF 232135Z AUTO 13017KT 10SM CLR 28/17 A2991 RMK A01=
KWBF 232135Z AUTO VRB03KT 10SM 26/18 A3001 RMK A01=
K3LF 232135Z AUTO 18022G33KT 10SM CLR 24/14 A2985 RMK AO2
     T02440137=
KADC 232136Z AUTO 13020G30KT 10SM SCT049 23/11 A2941 RMK AO2
     TSNO=
KBNW 232135Z AUTO 16018G31KT 10SM FEW120 27/14 A2949 RMK AO2=
KBTA 232135Z AUTO 17022G32KT 10SM CLR 29/13 A2934 RMK AO2
     T02930131=
KBWP 232135Z AUTO 14021G27KT 10SM CLR 23/12 A2929 RMK AO2=
KC09 232135Z AUTO 18019G28KT 10SM CLR 24/14 A2982 RMK AO2
     T02410144=
KCCY 232135Z AUTO 15019G27KT 8SM FEW030 SCT170 22/14 A2954 RMK
     AO2=
KCDD 232134Z AUTO 14005KT 10SM CLR 22/09 A2963 RMK AO2=
KCKZ 232135Z AUTO 04006KT 10SM OVC043 15/09 A3023 RMK AO2=
KD39 232135Z AUTO 13020G28KT 10SM CLR 23/12 A2941 RMK AO2
     T02250123=
KGRN 232135Z AUTO 35014KT 10SM CLR 14/02 A2935 RMK AO2
     T01350015=
KHYX 232135Z AUTO 16009KT 10SM SCT060 23/10 A3004 RMK AO2
     T02270096=
KHZX 232135Z AUTO 11012G22KT 10SM SCT046 22/12 A2953 RMK AO2=
KLVN 232135Z AUTO 14016G24KT 10SM CLR 24/11 A2950 RMK AO2=
KMOP 232135Z AUTO 15006G16KT 10SM CLR 23/10 A3000 RMK AO2
     T02270100=
KMZH 232135Z AUTO 14007KT 10SM SCT049 SCT055 23/12 A2955 RMK
     AO2=
KRRT 232135Z AUTO 03015G19KT 10SM CLR 15/11 A2951 RMK AO2=
KUSE 232135Z AUTO 16011G17KT 10SM CLR 24/09 A3005 RMK AO2=
KVAF 232135Z AUTO 13017KT 10SM CLR 28/17 A2991 RMK A01=
KWBF 232135Z AUTO VRB03KT 10SM 26/18 A3001 RMK A01=
KY31 232135Z AUTO 15007G14KT 10SM CLR 23/09 A3002 RMK AO2
     T02300085=
K3N8 232135Z AUTO 12014G28KT 10SM CLR 22/12 A2939 RMK AO2
     T02210116=
K4S2 232135Z AUTO 00000KT 10SM CLR 12/02 A3016 RMK AO2=
KALM 232135Z AUTO 23019G29KT 10SM CLR 23/04 A2973 RMK AO2=
KATS 232135Z AUTO 22015KT 10SM CLR 25/10 A2968 RMK AO2=
KBVU 232135Z AUTO 03010G17KT 10SM CLR 18/M11 A2984 RMK AO2=
KCLS 232135Z AUTO 00000KT 9SM FEW046 SCT055 14/05 A3016 RMK
     AO2=
KCPT 232135Z AUTO 16018G31KT 10SM CLR 29/15 A2976 RMK A01=
KCXP 232135Z AUTO VRB04G11KT 10SM OVC060 08/M08 A3006 RMK AO2=
KF70 232135Z AUTO 21003KT 10SM CLR 20/05 A2983 RMK AO2=
KGYB 232135Z AUTO 17012G21KT 10SM SCT048 SCT065 29/17 A2982 RMK
     AO2 T02860173=
KL08 232135Z AUTO 16006KT 10SM CLR 25/00 A2976 RMK AO2=
KLRU 232135Z AUTO 24022G29KT 10SM CLR 23/M01 A2978 RMK AO2
     T02261009=
KMAN 232135Z AUTO 33010G15KT 10SM CLR 11/M04 A3001 RMK A01=
KO22 232135Z AUTO 29008G16KT 250V320 10SM CLR 18/M06 A2992 RMK
     A01=
KO32 232135Z AUTO 31007KT 10SM CLR 20/01 A2990 RMK AO2 T02000012
     $=
KONM 232135Z AUTO 16013G20KT 10SM CLR 23/M03 A2967 RMK AO2
     T02311031=
KORS 232135Z AUTO 17006KT 10SM CLR 11/08 A3012 RMK AO2=
KPAN 232135Z AUTO 22017G22KT 10SM BKN040 BKN049 BKN055 14/03 A2982
     RMK AO2 PWINO TSNO=
KPVF 232135Z AUTO 31006KT 10SM CLR 15/M06 A2996 RMK AO1=
KRPH 232135Z AUTO 16015G24KT 130V200 10SM CLR 30/14 A2966 RMK AO2
     T03050142 $=
KT69 232135Z AUTO 16023KT 9SM FEW037 FEW047 28/22 A2981 RMK
     A01=
KTSP 232135Z AUTO 32015KT 7SM CLR 11/M02 A2993 RMK AO2=
