SAUS70 KWBC 231720 RRI
METAR
KVPC 231715Z AUTO VRB06KT 10SM CLR 21/03 A3023 RMK AO2=
KW22 231715Z AUTO VRB04KT 1 3/4SM HZ CLR 24/03 A3022 RMK AO2=
KWDR 231715Z AUTO 00000KT 10SM CLR 20/03 A3024 RMK AO2=
KZER 231715Z AUTO 09005KT 10SM OVC029 15/07 A3029 RMK AO2=
KUMP 231715Z AUTO 20007G18KT 10SM CLR 25/14 A3007 RMK AO2
     T02450135=
