SAUS80 KWBC 231810
METAR
KROS 231803Z AUTO 11010G17KT 10SM CLR 25/13 A2960 RMK AO2=
KGNT 231815Z AUTO 25016G24KT 10SM SCT039 BKN044 OVC050 13/03 A2980
     RMK AO2 T01270030=
