SAUS80 KWBC 231700
METAR
KSPD 231656Z AUTO 22027G42KT 24/02 A2948 RMK AO1 PK WND 22045/1629
     SLP919 T02440022=
KALK 231656Z AUTO 22018G27KT 10SM CLR 18/07 A2992 RMK AO2 PK WND
     23029/1632 SLP051 T01780067=
KSXT 231656Z AUTO 00000KT 1/4SM FG VV005 03/02 A3012 RMK AO2
     SLP214 T00280022=
K8D3 231656Z AUTO 13018KT 19/10 A2938 RMK AO1 PK WND 14027/1651
     SLP944 T01940100=
KGNR 231656Z AUTO 17004KT 20/04 A3035 RMK AO1 SLP280 T02000039=
KGNA 231656Z AUTO 08011KT 13/09 A2978 RMK AO1 SLP086 T01280089=
KP60 231656Z AUTO VRB04KT M04/M07 A2966 RMK AO1 SLP050
     T10391072=
KBIH 231656Z AUTO 32016G26KT 10SM CLR 10/M08 A2991 RMK AO2 PK WND
     33026/1651 SLP111 T01001083=
KCAE 231656Z 10SM FEW048 FEW250 22/10 A3019 RMK AO2 SLP222
     T02220100=
KCHS 231656Z 36008KT 10SM FEW250 23/09 A3016 RMK AO2 SLP212
     T02280094=
KELY 231653Z AUTO 35007KT 10SM FEW032 OVC050 M01/M04 A2986 RMK AO2
     SLP116 T10111044=
KFSD 231656Z 15017G28KT 10SM CLR 22/12 A2934 RMK AO2 PK WND
     14031/1607 SLP929 T02220122=
KINW 231656Z AUTO 33016G23KT 10SM SCT042 BKN050 OVC075 10/01 A2980
     RMK AO2 PK WND 33029/1557 RAB04E32 SLP050 P0000 T01000006=
KJAX 231656Z 01006KT 10SM SCT032 26/17 A3014 RMK AO2 SLP207
     T02610167=
KLAX 231653Z COR 00000KT 10SM FEW024 SCT055 19/12 A2987 RMK AO2
     SLP112 T01890122=
KLWS 231656Z 00000KT 9SM OVC080 04/02 A3002 RMK AO2 SLP174
     T00440022=
KMOB 231656Z VRB05G16KT 10SM FEW250 24/10 A3017 RMK AO2 SLP215
     T02440100 $=
KOFK 231656Z AUTO 17019G29KT 10SM CLR 25/11 A2932 RMK AO2 PK WND
     17030/1622 SLP917 T02500111=
KSFO 231656Z 34003KT 10SM CLR 15/06 A3002 RMK AO2 SLP164 T01500061
     $=
KWMC 231656Z AUTO A3001 RMK AO2 SLPNO PWINO FZRANO $=
TJSJ 231656Z 04010KT 10SM FEW035 SCT060 31/24 A2991 RMK AO2 SLP129
     T03110239 $=
KSMP 231656Z AUTO VRB05KT 1/4SM FG VV002 01/M01 A3002 RMK AO2
     SLP190 T00061006 $=
KMHS 231656Z AUTO 30008G18KT 270V340 10SM BKN030 06/M01 A3007 RMK
     AO2 SLP207 T00561006=
KEAR 231656Z AUTO 19023G33KT 10SM CLR 26/11 A2929 RMK AO2 PK WND
     19033/1656 SLP901 T02560106=
KHON 231655Z AUTO 12021G31KT 10SM CLR 21/12 A2924 RMK AO2 PK WND
     14031/1649 SLP901 T02110122=
K2WX 231656Z AUTO 35011KT 08/03 A2930 RMK AO1 SLP927 T00780028=
KCTY 231655Z AUTO 32004KT 10SM CLR 25/12 A3015 RMK AO2
     T02530122=
KTLH 231653Z COR VRB05KT 10SM FEW250 24/06 A3017 RMK AO2 SLP214
     T02390061=
K40U 231655Z AUTO 29012G19KT 7SM OVC046 01/M04 A2966 RMK AO2
     T00061036=
KRLD 231655Z AUTO 00000KT 10SM BKN100 11/03 A3006 RMK AO2
     T01050026=
KSCK 231655Z 34013KT 10SM CLR 16/01 A2998 RMK AO2 SLP152
     T01560011=
KAST 231655Z AUTO 00000KT 10SM CLR 09/08 A3011 RMK AO2 SLP197
     T00940083=
KRNO 231655Z 00000KT 10SM SCT050 06/M04 A3004 RMK AO2 SLP162 MTN
     TOPS OBSCD DSNT SW T00561044=
K9MN 231655Z AUTO 12019G25KT 10SM CLR 20/12 A2965 RMK AO1
     T02000115=
KRFI 231655Z AUTO 19013G19KT 160V220 10SM OVC038 28/13 A2996 RMK
     AO2 T02770134=
KTKC 231655Z AUTO 15017G27KT 10SM 21/11 A2943 RMK AO2
     T02080105=
KEDU 231700Z AUTO 35016G22KT 10SM CLR 16/00 A3000 RMK AO1=
KGNG 231655Z AUTO 27020KT 10SM CLR 04/M01 A2987 RMK AO2=
KLAX 231653Z COR 00000KT 10SM FEW024 SCT055 19/12 A2987 RMK AO2
     SLP112 T01890122=
KLWS 231656Z 00000KT 9SM OVC080 04/02 A3002 RMK AO2 SLP174
     T00440022=
KWMC 231656Z AUTO A3001 RMK AO2 SLPNO PWINO FZRANO $=
KCIR 231655Z AUTO 22013G18KT 10SM BKN043 OVC050 23/15 A3003 RMK
     AO2 T02340148=
KTKV 231655Z AUTO 13006KT 10SM CLR 20/12 A2982 RMK AO2 T02000120
     PWINO=
KVTI 231655Z AUTO 16016G24KT 10SM CLR 25/13 A2968 RMK AO2
     T02450128=
