SAUS70 KWBC 231700
METAR
KDLL 231655Z AUTO 17012KT 10SM CLR 19/11 A2980 RMK AO2
     T01940112=
KW13 231655Z AUTO 10SM CLR 13/05 A3027 RMK AO1 T01280051=
