SAUS70 KWBC 232100 RRB
METAR
KARV 232055Z AUTO 15013G19KT 10SM BKN043 21/12 A2974 RMK AO2
     T02130119=
KCCA 232055Z AUTO VRB06G15KT 10SM SCT042 26/15 A2988 RMK AO2=
KCDH 232055Z AUTO 17011G18KT 10SM FEW055 28/16 A2990 RMK AO2=
KCIC 232053Z 29025KT 10SM CLR 20/M04 A3001=
KCPK 232055Z AUTO 32007KT 15/14 A3009 RMK AO2 60006 T01480138=
KDVP 232053Z AUTO 14025G35KT 10SM CLR 26/13 A2934 RMK AO2
     T02550125=
KEOE 232055Z AUTO 05005KT 10SM CLR 23/05 A3017 RMK AO2=
KEVB 232047Z 02014G18KT 10SM CLR 25/19 A3008=
KFDW 232055Z AUTO 00000KT 10SM CLR 23/06 A3015 RMK AO1=
KHFY 232055Z AUTO 16015G20KT 10SM CLR 26/11 A3002 RMK AO2
     T02550113=
KIUA 232055Z AUTO 14005KT 10SM CLR 20/06 A3022 RMK AO2
     T02000058=
KIXA 232055Z AUTO 01006KT 10SM OVC017 16/15 A3014 RMK AO2=
KJAQ 232055Z AUTO 33010G16KT 290V350 10SM CLR 17/M04 A2994 RMK AO1
     T01681037=
KLAL 232050Z 07008KT 10SM SCT050 28/14 A3006=
KMDZ 232055Z AUTO 13013G19KT 10SM BKN043 22/13 A2971 RMK AO2
     T02240126 PWINO=
KORB 232053Z AUTO 14008G17KT 10SM CLR 23/12 A2958 RMK AO2=
KRAW 232055Z AUTO 20008G14KT 10SM SCT050 SCT085 BKN110 27/13 A2970
     RMK AO2=
KSPA 232055Z AUTO 00000KT 10SM CLR 22/00 A3015 RMK AO2=
KVER 232055Z AUTO 17019G28KT 10SM BKN110 30/16 A2967 RMK AO2
     T02950156=
