SAUS70 KWBC 232000 RRG
METAR
KRTN 231953Z AUTO 24034G46KT 10SM FEW090 19/M02 A2952 RMK AO2 PK
     WND 25053/1859 SLP923 T01941022=
KRUE 231953Z AUTO 18007G14KT 10SM 26/16 A2986 RMK AO2 SLP103
     T02560161 $=
KRWF 231953Z AUTO 13027G38KT 10SM CLR 26/13 A2937 RMK AO2 PK WND
     13039/1929 SLP943 T02560128=
KRWL 231953Z AUTO 26011KT 10SM OVC060 01/M02 A2956 RMK AO2 SLP001
     T00111017=
KGFK 231953Z 12014KT 10SM CLR 24/11 A2938 RMK AO2 SLP949 T02390111
     $=
KGFL 231953Z AUTO 00000KT 10SM CLR 17/07 A3029 RMK AO2 SLP261
     T01720067=
KGGG 231953Z 19018G28KT 10SM SCT055 31/13 A2986 RMK AO2 PK WND
     18028/1951 SLP106 T03060133=
KGJT 231953Z 00000KT 5SM -RA BR BKN004 OVC017 01/01 A2966 RMK AO2
     RAE10B46SNB10E46 SLP028 P0009 T00110011=
KGKY 231953Z 16022G34KT 10SM FEW050 30/16 A2976 RMK AO2 PK WND
     16036/1929 SLP068 T03000156=
KGLD 231953Z AUTO 23025G45KT 7SM OVC030 27/M06 A2928 RMK AO2 PK
     WND 23051/1859 SLP870 T02721061=
KGLH 231953Z 21016G24KT 10SM FEW055 30/13 A2997 RMK AO2 PK WND
     20026/1923 SLP154 T03000133=
KGLR 231953Z AUTO 18014G24KT 10SM FEW050 23/10 A3001 RMK AO2 PK
     WND 16030/1932 SLP157 T02330100=
KGNV 231953Z 01003KT 10SM CLR 27/09 A3011 RMK AO2 SLP194
     T02720094=
KGOK 231953Z AUTO 18022G33KT 10SM CLR 27/14 A2962 RMK AO2 PK WND
     18033/1949 SLP019 T02670144=
KGPT 231953Z 12010KT 10SM CLR 25/16 A3008 RMK AO2 SLP185
     T02500156=
KGRB 231953Z AUTO 14016G24KT 10SM CLR 22/12 A2984 RMK AO2 SLP103
     T02170122 $=
KGRI 231953Z 19026G38KT 10SM CLR 32/08 A2924 RMK AO2 PK WND
     18042/1939 SLP889 T03170083 $=
KGSH 231953Z AUTO 17019G28KT 10SM CLR 24/11 A2998 RMK AO2 PK WND
     19034/1901 SLP150 T02440111=
KGUP 231953Z AUTO 21010KT 7SM -RA SCT021 OVC033 05/03 A2979 RMK
     AO2 SLP022 P0001 T00500033=
KGUY 231953Z AUTO 22033G49KT 9SM 30/06 A2942 RMK AO2 PK WND
     23055/1919 SLP911 T03000061 $=
KGWO 231953Z AUTO 17016G21KT 10SM SCT060 29/13 A3000 RMK AO2
     SLP158 T02890128=
KGZH 231953Z AUTO 19005KT 10SM CLR 26/03 A3010 RMK AO2 SLP191
     T02610033=
KHAO 231953Z AUTO 20005KT 10SM CLR 26/08 A3008 RMK AO2 SLP184
     T02610078=
KHBG 231953Z AUTO 17012KT 10SM CLR 28/09 A3007 RMK AO2 SLP180
     T02830089=
KHBR 231953Z AUTO 18020G27KT 10SM CLR 27/14 A2961 RMK AO2 PK WND
     18031/1854 SLP009 T02720139=
KHEI 231953Z AUTO 35014G20KT 10SM OVC023 11/04 A2930 RMK AO2
     SLP924 T01060039=
KHFD 231953Z 36003KT 8SM -RA OVC110 12/09 A3030 RMK AO2 SLP259
     P0002 T01220089=
KHGR 231953Z 01008KT 10SM OVC044 17/08 A3023 RMK AO2 SLP248
     T01720083 $=
KHIB 231953Z AUTO 12016G23KT 10SM CLR 21/12 A2961 RMK AO2 SLP031
     T02060117=
KHKA 231953Z AUTO 19015G23KT 10SM FEW050 27/13 A2996 RMK AO2 PK
     WND 18026/1855 SLP142 T02720133 $=
KHKS 231953Z 20006KT 10SM SCT055 28/13 A3004 RMK AO2 SLP163
     T02780128=
KDTO 231953Z 18024G33KT 10SM CLR 30/16 A2975 RMK AO2 PK WND
     17035/1917 SLP064 T03000156=
KDUJ 231953Z AUTO 14006KT 10SM CLR 18/02 A3023 RMK AO2 SLP233
     T01830022=
KDWH 231953Z 15012G25KT 10SM FEW070 31/14 A2988 RMK AO2 SLP116
     T03060144=
KECP 231953Z 33007KT 10SM CLR 28/04 A3009 RMK AO1 SLP200
     T02830039=
KEEO 231953Z AUTO 23004KT 1/2SM SN FZFG FEW008 BKN014 OVC025
     M01/M01 A2965 RMK AO2 SLP033 P0002 T10061011=
KELD 231953Z AUTO 17012G25KT 10SM BKN050 28/15 A2993 RMK AO2
     SLP132 T02830150=
KELM 231953Z 13006KT 10SM CLR 19/06 A3024 RMK AO2 SLP242
     T01940056=
KENW 231953Z 14012G21KT 10SM CLR 24/13 A2983 RMK AO2 SLP099
     T02440133=
KETH 231953Z AUTO 12028G37KT 10SM 23/12 A2932 RMK AO2=
