SAUS80 KWBC 231700 RRD
METAR
PHNY 231656Z AUTO 08003KT 10SM FEW049 21/19 A3006 RMK AO2 SLP160
     T02060189 $=
