SAPA32 KWBC 232100 RRB
METAR
NWWW 232130Z AUTO 05012G23KT 010V090 CAVOK 28/18 Q1012 TEMPO 3000
     SHRA FEW020CB=
