SAUS70 KWBC 231800 RRU
METAR
KROX 231755Z AUTO 05017KT 10SM CLR 14/08 A2957 RMK AO2=
KSBY 231754Z 02012KT 6SM BR OVC009 17/15 A3013 RMK AO2 CIG 007V013
     SLP203 60000 T01670150 10183 20144 58012=
KTEW 231755Z AUTO 16016G21KT 10SM CLR 24/10 A3008 RMK AO2
     T02440098 10247 20123=
KUKT 231755Z AUTO 04004KT 10SM CLR 16/10 A3026 RMK A01=
KVAY 231754Z AUTO 02004KT 10SM OVC022 17/13 A3022 RMK AO2 RAB09E27
     SLP234 P0000 60002 T01670128 10167 20133 58007 $=
KVVV 231755Z 13018G27KT 10SM 21/13 A2936 RMK AO2=
KY63 231755Z AUTO 11019G24KT 10SM CLR 21/12 A2942 RMK AO2
     T02070118 10211 20123=
KBFL 231754Z 34009KT 10SM CLR 16/02 A2996 RMK AO2 SLP143 T01560017
     10156 20083 51017=
KCVH 231755Z AUTO 00000KT 10SM CLR 14/05 A3001 RMK A01=
KGCN 231754Z 30013G19KT 260V350 10SM FEW033 05/M03 A2982 RMK AO2
     SLP048 60001 T00501028 10050 21006 51012=
KHAF 231755Z AUTO 7SM 15/09 A3002 RMK AO2=
KLWT 231754Z AUTO 29013G21KT 1/2SM -SN FZFG OVC005 M01/M02 A2967
     RMK AO2 SLP072 P0001 60005 T10061017 11006 21011 51016 $=
KRKS 231754Z AUTO 27013KT 10SM OVC047 00/M03 A2961 RMK AO2 SLP033
     T00001028 10000 21022 51015=
KSLC 231754Z 33013KT 10SM SCT024 BKN030 BKN045 06/M01 A2978 RMK
     AO2 SLP074 VIRGA T00611006 10061 20028 51022 $=
KTAD 231754Z AUTO 20030G42KT 10SM FEW100 21/M03 A2947 RMK AO2 PK
     WND 20042/1753 SLP899 T02111028 10211 20117 58021=
KTOA 231747Z 00000KT 10SM SCT012 21/11 A2987=
KALO 231754Z 15020G34KT 10SM CLR 25/13 A2961 RMK AO2 PK WND
     16034/1743 SLP021 T02500128 10250 20161 58021=
KBWI 231754Z 02007KT 10SM BKN055 OVC130 19/11 A3021 RMK AO2 SLP228
     T01890106 10189 20100 58012 $=
KDEC 231754Z 17018G31KT 10SM CLR 24/15 A2989 RMK AO2 PK WND
     18031/1751 SLP118 T02390150 10244 20172 58015=
KDYL 231754Z AUTO 03006KT 10SM SCT055 18/09 A3025 RMK AO2 SLP243
     T01780089 10178 20122 58004=
KFOK 231753Z 04006KT 4SM RA BR BKN110 14/13 A3027 RMK AO2 SLP248
     P0006 60008 T01390128 10161 20139 55012 $=
KFSE 231755Z AUTO 12008G15KT 10SM CLR 22/09 A2950 RMK AO2=
KGED 231754Z AUTO 03012KT 2SM -RA BR BKN006 OVC012 17/15 A3016 RMK
     AO2 SLP212 P0002 60002 T01670150 10178 20139 58012=
KGYL 231755Z AUTO 13018G22KT 7SM CLR 23/12 A2951 RMK AO2 T02270123
     10227 20125=
KHCO 231755Z AUTO 07015KT 10SM CLR 16/09 A2951 RMK AO2=
KIZG 231754Z AUTO 00000KT 10SM CLR 17/06 A3036 RMK AO2 SLP283
     T01670056 10172 20011 58013=
KLGA 231751Z COR 06010KT 10SM -RA BKN045 BKN065 BKN120 BKN150
     OVC250 17/07 A3027 RMK AO2 SLPNO P0000 6//// T01670067 $=
KSGS 231755Z AUTO 12012G17KT 10SM CLR 23/12 A2958 RMK AO2
     T02270116 10227 20150=
KVSF 231754Z AUTO 00000KT 10SM CLR 16/06 A3034 RMK AO2 SLP278
     T01560061 10156 20011 58019=
KBYS 231755Z AUTO 35010KT 10SM CLR 16/M10 A2985 RMK AO2 SLP094
     T01601098 10161 20083 50016=
PABA 231752Z AUTO 09021KT 10SM OVC008 M04/M05 A3006 RMK AO2 PK WND
     09026/1734 CIG 006V011 SLP186 6//// T10391050 11039 21044
     51002 FZRANO PNO $=
K1MW 231755Z AUTO 36017KT 10SM M 19/M01 A2514 RMK AO2 SLP449
     T01891010 10193 20033 51033 FZRANO $=
KBYS 231755Z AUTO 35010KT 10SM CLR 16/M10 A2985 RMK AO2 SLP094
     T01601098 10161 20083 50016=
KGFA 231755Z AUTO 34013KT 5SM -SN OVC008 00/M00 A2980 RMK AO2
     SLP121 P0001 60004 T00001001 10001 21002 52027 $=
KOLS 231754Z AUTO 22013G19KT 10SM FEW044 21/08 A2990 RMK AO2
     SLP067 T02060083 10206 20150 58001=
KMGJ 231754Z AUTO 02007KT 10SM OVC110 13/07 A3028 RMK AO2 SLP255
     T01330067 10133 20050 58017=
KMGN 231755Z AUTO 17007G17KT 140V200 10SM SCT050 23/11 A3001 RMK
     AO2 T02360114=
KMVE 231755Z AUTO 14022G29KT 10SM CLR 22/13 A2940 RMK AO2=
