SAUS70 KWBC 231800 RRX
METAR
KT89 231755Z AUTO 13009KT 10SM CLR 30/06 A2981 RMK A01=
KTDF 231755Z AUTO 02007G16KT 10SM CLR 17/05 A3021 RMK AO2=
KTNU 231755Z AUTO 17021G28KT 10SM CLR 24/14 A2957 RMK A01=
KTQH 231755Z AUTO 18015G23KT 10SM SCT032 25/13 A2982 RMK AO2=
KTQV 231755Z AUTO 02012G20KT 10SM CLR 18/03 A3018 RMK A01=
KTVF 231756Z AUTO 12013G17KT 10SM CLR 21/11 A2951 RMK AO2 SLP995
     6//// T02060106 10206 20044 58019=
KTYL 231755Z AUTO 25024G33KT 10SM SCT034 BKN042 BKN060 12/05 A2983
     RMK AO2=
