SAUS70 KWBC 231900 RRX
METAR
KMNZ 231855Z AUTO 19019G28KT 10SM CLR 29/15 A2982 RMK AO2
     T02880149=
KBLH 231852Z AUTO 35012G21KT 10SM CLR 24/03 A2978 RMK AO2 SLP079
     T02440028 TSNO=
KCOD 231856Z AUTO 01009KT 10SM SCT016 BKN032 OVC043 03/M01 A2962
     RMK AO2 RAB23E40 SLP032 P0000 T00281011=
KCTB 231856Z AUTO 34024KT 1 1/4SM -SN BR OVC007 00/M01 A2989 RMK
     AO2 PK WND 34032/1806 SLP149 P0002 T00001006 $=
KCVN 231856Z AUTO 21021G31KT 10SM CLR 23/10 A2968 RMK AO2 PK WND
     21033/1843 SLP011 T02280100=
KDIJ 231856Z AUTO 31010KT 9SM -SN OVC026 M01/M04 A2976 RMK AO2
     SLP094 P0000 T10061044=
KEGE 231856Z 27005KT 10SM FEW021 SCT025 OVC032 04/01 A2958 RMK AO2
     RAE16B33E53 SLP954 P0000 T00440011=
KENV 231856Z AUTO 32021G29KT 10SM CLR 08/M10 A2986 RMK AO2 PK WND
     33033/1817 SLP114 T00781100=
KSMN 231856Z AUTO 19007KT 10SM BKN055 OVC075 05/M04 A2988 RMK AO2
     SLP818 T00501039=
KVIS 231856Z AUTO 01007KT 10SM CLR 17/03 A2995 RMK AO2 SLP151
     T01720033=
KMOP 231855Z AUTO 16015G23KT 10SM SCT060 24/10 A3002 RMK AO2
     T02360099=
KMOR 231855Z AUTO VRB05KT 10SM CLR 22/04 A3016 RMK A01=
KMOX 231855Z AUTO 13028G32KT 10SM CLR 23/09 A2938 RMK AO2=
KMRC 231855Z AUTO 21007G14KT 10SM CLR 25/05 A3008 RMK A01=
KMUT 231855Z AUTO 16020G28KT 10SM CLR 25/14 A2969 RMK AO2=
KMVH 231855Z AUTO 31021G27KT 2 1/2SM HZ CLR 00/M02 A2962 RMK AO2
     PWINO=
KMZH 231855Z AUTO 13005G14KT 10SM CLR 23/11 A2959 RMK AO2=
KO69 231855Z AUTO 01009G18KT 10SM CLR 19/M02 A3002 RMK A01=
KOJA 231855Z AUTO 18023G28KT 10SM CLR 26/14 A2964 RMK AO2
     T02560139=
KOTG 231856Z AUTO 15020G32KT 10SM CLR 24/13 A2938 RMK AO2 PK WND
     15032/1850 SLP945 T02390128=
KOTH 231856Z 13004KT 10SM FEW055 13/09 A3023 RMK AO2 SLP236
     T01280094=
KOXI 231855Z AUTO 18020G32KT 10SM CLR 25/11 A2995 RMK AO1=
KOXV 231855Z AUTO 17022G33KT 10SM CLR 26/13 A2955 RMK AO2=
KP08 231855Z AUTO 28014KT 10SM OVC055 21/08 A2979 RMK AO2=
KPCW 231855Z AUTO 17012G17KT 10SM CLR 25/09 A3010 RMK AO2=
KPHT 231855Z AUTO 20014G22KT 10SM CLR 26/07 A3003 RMK A01=
KPIB 231856Z AUTO VRB05KT 10SM CLR 27/12 A3010 RMK AO2 SLP191
     T02670122 PNO $=
KPKV 231855Z AUTO 15019G26KT 10SM SCT037 SCT050 SCT060 30/19 A2989
     RMK AO2 T03040192=
KPRO 231855Z AUTO 17025G28KT 10SM CLR 27/13 A2948 RMK AO2
     T02690127=
KPRS 231855Z AUTO 18004KT 10SM CLR 30/11 A2982 RMK AO2
     T03000111=
KPTD 231855Z AUTO 03005KT 10SM CLR 21/04 A3026 RMK AO2=
KPUJ 231855Z AUTO 00000KT 7SM CLR 21/02 A3018 RMK AO2=
KPVJ 231855Z AUTO 19016G23KT 10SM CLR 28/16 A2971 RMK AO2
     T02760157=
KPWT 231856Z AUTO 22004KT 10SM OVC002 07/07 A3016 RMK AO2 SLP221
     T00720072=
KPYX 231855Z AUTO 21030G34KT 10SM CLR 28/07 A2952 RMK AO2
     T02820071=
KRKR 231855Z AUTO 17019G28KT 10SM SCT042 26/15 A2983 RMK AO2=
KRNC 231855Z AUTO VRB06G11KT 10SM CLR 24/05 A3013 RMK A01=
KRRT 231855Z AUTO 04011G18KT 10SM CLR 12/09 A2957 RMK AO2=
KRSN 231855Z AUTO 19010KT 10SM BKN048 BKN055 28/14 A3002 RMK AO2
     T02840143=
KRTS 231855Z AUTO 35009KT 10SM BKN048 BKN055 05/M09 A3005 RMK
     AO2=
KRZR 231855Z AUTO VRB04KT 10SM CLR 24/01 A3014 RMK A01=
KCQM 231855Z AUTO 13007G15KT 10SM SCT070 22/09 A2963 RMK AO2=
KCWI 231856Z AUTO 16016G23KT 10SM CLR 24/14 A2974 RMK AO2 PK WND
     14027/1841 SLP068 T02440139=
KD95 231855Z AUTO 17009G15KT 10SM CLR 23/05 A3011 RMK AO2
     T02340053=
KDTL 231855Z AUTO 12017G24KT 10SM CLR 22/11 A2942 RMK AO2=
KDUH 231855Z AUTO 20010G16KT 10SM CLR 25/07 A3009 RMK AO2
     T02480066=
KDYT 231855Z AUTO 07008KT 10SM CLR 12/10 A2966 RMK AO2=
KEEN 231856Z AUTO 00000KT 10SM CLR 13/07 A3033 RMK AO2 SLP277
     T01330072 $=
