SAUS80 KWBC 231800 RRA
METAR
KFSD 231756Z 16025G37KT 10SM FEW250 24/12 A2932 RMK AO2 PK WND
     15037/1755 SLP921 T02440122 10244 20133 56026=
KJAX 231756Z 01006KT 10SM SCT038 SCT200 26/16 A3012 RMK AO2 SLP200
     T02610161 10267 20106 58016=
KLWS 231756Z 34003KT 10SM OVC080 06/03 A3004 RMK AO2 SLP179
     T00610033 10061 20022 51027=
KCAE 231756Z 01006KT 10SM FEW250 23/09 A3016 RMK AO2 SLP211
     T02330089 10233 20061 58023=
KCHS 231756Z 34012KT 10SM CLR 23/09 A3014 RMK AO2 SLP206 T02330089
     10233 20117 58014=
KCTY 231755Z AUTO 33007KT 310V020 10SM CLR 26/12 A3012 RMK AO2
     T02610119 10271 20061=
KFAR 231754Z COR 10013G19KT 10SM CLR 22/11 A2942=
KP53 231756Z AUTO 18012G28KT 20/12 A2990 RMK AO1 PK WND 16028/1747
     SLP126 T02000122 10206 20111 58009=
KVTI 231755Z AUTO 17016G27KT 10SM CLR 25/13 A2965 RMK AO2
     T02540127 10258 20160=
KSFO 231756Z 00000KT 10SM CLR 16/05 A3002 RMK AO2 SLP164 T01610050
     10161 20106 51016 $=
KMWN 231748Z 13012KT 80SM FEW030 SCT060 BKN100 OVC180 11/M10 RMK
     10111 20078=
KCRW 231754Z COR 28003KT 10SM FEW100 24/07 A3018 RMK AO2 SLP218
     VIRGA W-NW PRESFR T02390072 10239 20044 58016=
KFLG 231757Z 26008KT 10SM SCT017 BKN021 OVC030 04/01 A2984 RMK AO2
     RAB05E26SNB11E20 SLP048 P0000 60002 T00440011 10067 20028
     51018=
KRFI 231755Z AUTO 17012G18KT 10SM BKN042 BKN050 29/12 A2995 RMK
     AO2 T02920124 10293 20203=
KRLD 231755Z AUTO 27005KT 10SM CLR 12/01 A3008 RMK AO2 T01240007
     10126 20043=
KRNO 231755Z 18004KT 10SM BKN060 06/M05 A3005 RMK AO2 SLP168 MTN
     TOPS OBSCD DSNT SW T00611050 10061 21006 51018=
KEDU 231800Z AUTO 36018G24KT 9SM CLR 17/00 A3000 RMK AO1=
KCIR 231755Z AUTO 23014G20KT 10SM OVC050 25/15 A3001 RMK AO2
     T02460145 10249 20182=
KDLH 231755Z 10012KT 10SM BKN070 BKN085 18/10 A2968 RMK AO2 SLP055
     T01780100 10178 20072 58009=
KDVL 231756Z AUTO 06017G25KT 10SM CLR 12/06 A2945 RMK AO2 SLP990
     T01220056 10122 20056 58034=
KANJ 231755Z AUTO 13011G20KT 10SM CLR 19/12 A3002 RMK AO2 SLP166
     T01940117 10200 20100 58008=
KGPZ 231756Z AUTO 15010KT 10SM FEW060 SCT085 20/11 A2963 RMK AO2
     SLP037 T02000111 10200 20083 58013=
KOFK 231756Z AUTO 17025G35KT 10SM CLR 27/11 A2930 RMK AO2 PK WND
     18035/1755 SLP908 T02720106 10278 20139 58017=
KALK 231756Z AUTO 26018G28KT 10SM CLR 19/06 A2991 RMK AO2 PK WND
     24028/1721 SLP045 T01890056 10194 20139 58003=
KBZN 231756Z 25006KT 1SM SN BR FEW012 BKN017 OVC028 00/M01 A2979
     RMK AO2 SNB03 SLP113 P0002 60005 T00001006 10000 20000
     53021=
KELY 231753Z AUTO 34003KT 10SM BKN044 OVC050 00/M05 A2988 RMK AO2
     SLP115 60002 T00001050 10000 21039 51019=
KAST 231755Z AUTO 19003KT 6SM BR OVC035 12/09 A3014 RMK AO2 SLP205
     T01170094 10117 20039 53022=
KGNG 231755Z AUTO 28025KT 10SM CLR 05/00 A2988 RMK AO2=
KS39 231755Z AUTO VRB03KT 10SM FEW026 06/M01 A3009 RMK AO2=
KTKV 231755Z AUTO 15004KT 10SM SCT038 22/12 A2979 RMK AO2
     T02220119 10222 20106 PWINO=
KAAT 231755Z AUTO 23006KT 10SM SCT028 BKN037 OVC060 03/M01 A3008
     RMK AO2 SLP198 T00331011 10033 21028 51021=
KMKN 231755Z AUTO 18018G25KT 10SM CLR 28/16 A2983 RMK AO2
     T02760164 10276 20189=
PHJR 231753Z 00000KT 5SM -RA BR FEW025 BKN036 OVC050 23/21 A3004
     RMK AO2 RAB35 SLP178 P0001 60001 T02330211 10244 20228
     53016=
PHKO 231753Z 12003KT 10SM SCT050 SCT070 27/20 A2999 RMK AO2 SLP155
     T02720200 10272 20250 53019=
PHMK 231754Z 36003KT 10SM CLR 26/20 A3004 RMK AO2 SLP172 60001
     T02610200 10267 20233 53017=
