SAUS70 KWBC 231800 RRG
METAR
KAAA 231755Z AUTO 18020G25KT 10SM CLR 23/15 A2986 RMK AO2
     T02330146 10239 20165=
KADC 231757Z AUTO 11015G20KT 10SM CLR 22/11 A2949 RMK AO2 TSNO=
KAHQ 231755Z AUTO 19023G31KT 7SM CLR 29/12 A2937 RMK AO2 6////
     T02850121=
KAUH 231755Z AUTO 18022G29KT 10SM CLR 28/12 A2930 RMK AO2
     T02840117 10284 20124=
KBBP 231755Z AUTO 34010KT 10SM CLR 22/06 A3016 RMK AO2=
KBGE 231755Z AUTO 01005KT 10SM CLR 25/06 A3016 RMK AO2 T02480059
     10256 20055=
KBIE 231755Z AUTO 18021G30KT 10SM CLR 29/13 A2940 RMK AO2
     T02900130 10290 20181=
KBJJ 231756Z AUTO 17008KT 10SM CLR 22/08 A3019 RMK AO2 SLP221
     T02220078 10228 20067 58013=
KBNW 231755Z AUTO 16021G29KT 10SM CLR 24/14 A2954 RMK AO2=
KBPG 231755Z AUTO 18018KT 10SM CLR 27/12 A2977 RMK AO2 T02730120
     10274 20178=
KBVN 231755Z AUTO 17020G26KT 10SM CLR 26/09 A2929 RMK AO2
     T02610093 10261 20114 PWINO=
KFOA 231755Z AUTO 17019G27KT 10SM BKN043 25/14 A2996 RMK AO2=
KFSW 231755Z AUTO 17015G22KT 10SM OVC001 23/14 A2973 RMK AO2=
KFWC 231755Z AUTO 17015G22KT BKN046 OVC055 24/13 A2996 RMK AO1
     T02440125 10250 20167 PWINO=
KGDB 231755Z AUTO 12020G29KT 10SM CLR 23/13 A2942 RMK AO2
     T02300130 10230 20128=
KGPC 231755Z AUTO 18017G22KT 10SM SCT050 25/12 A3002 RMK AO2
     T02520117 10254 20155=
KGWB 231755Z AUTO 20010G18KT 115V215 10SM CLR 23/11 A3008 RMK
     AO2=
KGZL 231755Z AUTO 19020G27KT 10SM CLR 27/17 A2979 RMK AO2=
KHJH 231755Z AUTO 19023G33KT 10SM CLR 29/11 A2938 RMK AO2
     T02890111 10291 20170=
KHMP 231755Z AUTO 08003KT 10SM CLR 21/03 A3024 RMK AO2 T02140035
     10215 20032=
KHQU 231755Z AUTO 26003KT 10SM CLR 23/09 A3018 RMK AO2 T02320093
     10234 20041=
KIIY 231755Z AUTO 02003KT 10SM CLR 22/07 A3019 RMK AO2 T02250073
     10233 20057=
KIYA 231755Z AUTO 14016G25KT CLR 27/14 A3006 RMK AO2 T02740135
     10275 20174 PWINO=
KJCA 231755Z AUTO 07004KT 10SM CLR 22/04 A3020 RMK AO2 T02220039
     10224 20047=
KJDD 231755Z AUTO 17012G18KT 10SM BKN044 27/17 A2989 RMK AO2=
KJMS 231756Z AUTO 08017G24KT 10SM CLR 18/08 A2935 RMK AO2 SLP942
     T01780078 10178 20022 58031=
KJXN 231756Z 14014G23KT 10SM CLR 23/11 A3008 RMK AO2 SLP182
     T02330111 10233 20117 58015=
KK88 231755Z AUTO 17023G29KT 10SM CLR 26/14 A2966 RMK AO1
     T02630137 10264 20201=
KLCK 231755Z AUTO 18006KT 10SM CLR 24/10 A3015 RMK AO2 T02420103
     10242 20074=
KLHB 231755Z AUTO 16015G23KT 10SM SCT043 BKN050 29/18 A2992 RMK
     AO2 T02900179 10292 20185=
KLHM 231755Z AUTO 33017G21KT 10SM CLR 18/M02 A2997 RMK AO1=
KLNN 231755Z AUTO 12007KT 10SM CLR 24/04 A3017 RMK AO1 T02350044
     10239 20130=
KLUD 231755Z AUTO 19019G25KT 10SM CLR 28/15 A2980 RMK AO2
     T02750148 10275 20193=
KLUL 231755Z AUTO 13003KT 10SM CLR 25/11 A3013 RMK A02 T02480114
     10253 20091=
KMDD 231755Z AUTO 19013KT 10SM CLR 28/12 A2979 RMK AO2 T02760115
     10278 20175=
KC35 231755Z AUTO 16009G14KT 10SM CLR 22/12 A2976 RMK AO2
     T02210124 10223 20138 PWINO=
KCDD 231754Z AUTO 00000KT 10SM CLR 21/09 A2969 RMK AO2=
KCEC 231756Z AUTO 34006KT 4SM HZ CLR 12/07 A3018 RMK AO2 SLP221
     T01220067 10128 20050 51015=
KCFD 231755Z AUTO 19014G24KT 10SM SCT045 BKN055 29/16 A2993 RMK
     AO2 T02890164 10291 20178=
KCFS 231755Z AUTO 16017G20KT 10SM CLR 24/10 A3010 RMK AO2
     T02400103 10240 20103=
KCKN 231755Z AUTO 12011G15KT 10SM CLR 22/09 A2947 RMK AO2=
KCQF 231755Z AUTO 12004KT 10SM CLR 25/10 A3014 RMK AO2=
KDIK 231756Z AUTO 03012KT 10SM BKN013 08/04 A2935 RMK AO2 SLP946
     T00780039 10078 20056 58012=
KDNV 231755Z AUTO 19018G26KT 10SM CLR 26/12 A2996 RMK AO2
     T02570122 10257 20180=
