SASA41 KWBC 231800
METAR
SEMT 231800Z 25007KT 9999 BKN016 OVC100 24/19 Q1013 RMK A2991=
SEPA NIL=
SKBG 231800Z 32004KT 9999 BKN017TCU SCT270 26/21 Q1014 RMK TCU
     E/SE A2996=
SKMD NIL=
SKPE 231800Z 19005KT 9999 SCT025TCU 26/18 Q1016 RMK TCU/SE
     A3000=
SKSM NIL=
SKVG NIL=
SMJP 231800Z 11005KT 9999 BKN035 34/23 Q1008 NOSIG=
