SAUS80 KWBC 232100 RRF
METAR
KLZZ 232055Z AUTO 18015G20KT 10SM CLR 29/15 A2975 RMK AO2
     T02850145=
