SAUS70 KWBC 231900 RRF
METAR
KN38 231855Z AUTO 18008KT 10SM CLR 17/03 A3026 RMK AO2=
KO22 231855Z AUTO 22006G11KT 10SM CLR 16/M03 A2993 RMK A01=
KO32 231855Z AUTO 32005KT 10SM CLR 17/04 A2993 RMK AO2 T01690038
     $=
KOCQ 231855Z AUTO 14011G15KT 10SM CLR 19/12 A2986 RMK AO1
     T01910120=
KOEO 231855Z AUTO 11018G25KT 10SM CLR 24/15 A2959 RMK AO2
     T02410154=
KOFP 231854Z AUTO 00000KT 1 1/4SM -RA BR OVC006 14/13 A3020 RMK
     AO2 RAB48 CIG 004V011 SLP226 P0000 T01440133=
KOLG 231855Z AUTO 16014G21KT 10SM CLR 23/10 A2964 RMK AO1=
KOLS 231854Z AUTO 24008G18KT 10SM FEW042 20/08 A2987 RMK AO2
     SLP061 T02000078=
KORS 231855Z AUTO 17003KT 10SM FEW024 FEW041 11/08 A3013 RMK
     AO2=
KOZS 231855Z AUTO 18014G26KT 10SM SCT100 28/12 A2974 RMK AO2=
KPAN 231855Z AUTO 23011G16KT 10SM FEW028 SCT033 BKN047 12/05 A2985
     RMK AO2 PWINO TSNO=
KPGV 231855Z AUTO 36007KT 10SM OVC016 18/16 A3010 RMK AO2=
KPHF 231854Z 35009KT 2SM -RA BR OVC006 14/14 A3013 RMK AO2 RAB27
     SLP202 P0001 T01440139=
KPHL 231854Z 04012KT 10SM FEW027 BKN044 BKN095 OVC140 17/13 A3022
     RMK AO2 RAB24E44 SLP231 P0000 T01670128 $=
KPLN 231854Z AUTO 18012G21KT 10SM SCT060 24/10 A3000 RMK AO2
     SLP154 T02390100 $=
KPLR 231855Z AUTO 00000KT 10SM CLR 24/05 A3016 RMK A01=
KPNE 231854Z 06012KT 10SM BKN120 18/10 A3024 RMK AO2 RAB11E28
     SLP239 P0000 T01780100=
KPSF 231854Z AUTO 05005KT 10SM CLR 17/02 A3029 RMK AO2 SLP249
     T01670022=
KPTW 231854Z AUTO VRB05KT 10SM FEW055 17/09 A3025 RMK AO2 RAE14
     SLP243 P0000 T01670094=
KPVB 231855Z AUTO 17017G21KT 10SM CLR 24/12 A2973 RMK AO1
     T02400122=
KPVF 231855Z AUTO 28009KT 10SM CLR 13/M05 A2997 RMK AO1=
KPVG 231855Z VRB04KT 2 1/2SM OVC002 14/14 A3011 RMK AO2 SLP301
     PWINO PNO FZRANO RVRNO=
KRBL 231854Z AUTO 34015G25KT 10SM CLR 18/M02 A3006 RMK AO2 SLP178
     T01831022=
KRCE 231855Z AUTO 18024G34KT 10SM CLR 26/15 A2965 RMK AO2=
KRDG 231854Z 06006KT 10SM R36/3000FT FEW060 FEW070 17/09 A3025 RMK
     AO2 SLP247 T01720089 $=
KSUZ 231855Z AUTO 19012G21KT 10SM FEW042 26/16 A2992 RMK A01=
KSVC 231855Z AUTO 25017G23KT 10SM SCT055 19/04 A2986 RMK AO2
     T01870043=
KSVH 231855Z AUTO 35003KT 10SM CLR 22/05 A3017 RMK AO2
     T02160045=
KSXU 231855Z AUTO 22024G33KT 10SM BKN095 24/00 A2963 RMK AO2
     T02410001=
KT69 231855Z AUTO 16017G25KT 10SM FEW030 29/22 A2985 RMK A01=
KTAD 231854Z AUTO 23024G37KT 10SM FEW100 21/M03 A2947 RMK AO2 PK
     WND 20049/1755 SLP901 T02061028=
KTDF 231855Z AUTO 01007KT 10SM CLR 18/04 A3019 RMK AO2=
KTKX 231855Z AUTO 19017G23KT 9SM FEW048 FEW055 27/15 A2995 RMK AO2
     TSNO=
KTME 231855Z AUTO 16016KT 10SM BKN060 30/16 A2991 RMK AO2=
KTQE 231854Z AUTO 17027G38KT 10SM CLR 30/13 A2934 RMK AO2 PK WND
     17042/1841 SLP922 T03000128=
KTSP 231855Z AUTO 31011KT 9SM CLR 11/M01 A2996 RMK AO2=
KTWT 231855Z AUTO 19014G21KT 10SM CLR 26/10 A3000 RMK AO2=
KU42 231855Z AUTO 33017G22KT 10SM SCT034 SCT043 BKN060 05/01 A2981
     RMK AO1 T00480012=
KUIN 231854Z AUTO 16019G27KT 10SM CLR 25/14 A2972 RMK AO2 PK WND
     15031/1838 SLP058 T02500144=
KUOX 231855Z AUTO 18008G21KT 10SM FEW050 25/12 A3006 RMK AO2
     PWINO=
KUTA 231855Z AUTO 18014G23KT 150V220 10SM SCT049 SCT300 28/14
     A2999 RMK AO2 T02770144 $=
KUXL 231855Z AUTO 14015G23KT 10SM BKN060 OVC070 27/19 A3000 RMK
     AO2 T02740193=
KUZA 231854Z AUTO 04006KT 10SM CLR 22/07 A3017 RMK AO2 SLP212
     T02220072=
KVAY 231854Z AUTO 05009G18KT 10SM BKN025 OVC046 17/12 A3021 RMK
     AO2 SLP230 T01720122 $=
KVJI 231855Z AUTO 11003KT 10SM CLR 24/00 A3019 RMK AO2
     T02380000=
