SAUS70 KWBC 232100 RRK
METAR
KYKN 232056Z AUTO 16025G34KT 10SM CLR 30/12 A2919 RMK AO2 PK WND
     16034/2051 SLP889 T03000117 56024=
K04W 232055Z AUTO 11014G19KT 10SM SCT046 SCT050 23/13 A2954 RMK
     AO2 LTG DSNT S=
KBAX 232055Z AUTO 17013G19KT 10SM CLR 23/10 A3008 RMK AO2
     T02300095=
KBMI 232056Z 17026G35KT 10SM CLR 24/15 A2983 RMK AO2 PK WND
     16035/2053 SLP093 T02390150 58017=
KCKC 232056Z AUTO 09008G15KT 10SM CLR 18/11 A2975 RMK AO2 LTG=
KCNB 232055Z AUTO 09024G32KT 10SM CLR 26/11 A2930 RMK AO2 LTG DSNT
     SE T02570111=
KCVX 232055Z AUTO 17011G17KT 10SM SCT060 23/12 A2996 RMK AO2
     T02300116=
KDIK 232056Z AUTO 02014G20KT 10SM OVC018 09/04 A2934 RMK AO2
     SLP939 T00940044 55004=
KDLZ 232055Z AUTO 17007KT 10SM CLR 22/07 A3011 RMK AO2=
KESC 232056Z AUTO 16008KT 10SM OVC070 15/11 A2991 RMK AO2 SLP132
     6//// T01500111 58010 PNO $=
KI23 232055Z AUTO 18008KT 10SM CLR 24/05 A3010 RMK AO1=
KJYM 232055Z AUTO 16012G18KT 10SM CLR 23/07 A3004 RMK AO2
     T02250069=
KLWA 232055Z AUTO 14013G21KT 120V180 10SM SCT055 26/11 A2993 RMK
     AO2 T02560111=
KMCD 232055Z AUTO 11007KT 10SM CLR 15/10 A2999 RMK AO2
     T01500096=
KSQI 232056Z AUTO 14012G19KT 10SM CLR 24/14 A2975 RMK AO2 SLP939
     T02440144 56020=
K21D 232055Z AUTO 13015G23KT 10SM CLR 23/12 A2953 RMK AO2=
KAEL 232055Z AUTO 17023G33KT 10SM CLR 24/13 A2950 RMK AO2 LTG DSNT
     SE=
KART 232056Z AUTO 00000KT 10SM CLR 18/08 A3024 RMK AO2 SLP238
     T01830078 58005=
KCWI 232056Z AUTO 16020G23KT 10SM CLR 24/14 A2971 RMK AO2 PK WND
     15026/2022 SLP061 T02390144 56017=
KCXY 232056Z 01005KT 10SM OVC060 18/09 A3023 RMK AO2 SLP239
     T01830094 56009=
KDTL 232055Z AUTO 14023G30KT 10SM CLR 22/12 A2937 RMK AO2=
KDUH 232055Z AUTO 16010G17KT 120V180 10SM SCT060 24/07 A3007 RMK
     AO2 T02370073=
KFRM 232056Z AUTO 15024G32KT 10SM CLR 25/13 A2941 RMK AO2 PK WND
     17035/2038 SLP958 T02500133 56019=
KJHW 232056Z AUTO 18004KT 10SM CLR 21/01 A3021 RMK AO2 SLP232
     T02060011 56011=
KMQJ 232055Z AUTO RMK AO1=
KONZ 232055Z AUTO 13008KT 10SM SCT100 22/03 A3008 RMK AO2
     T02180028=
KOTG 232056Z AUTO 15025G32KT 10SM CLR 26/13 A2934 RMK AO2 PK WND
     16035/2008 SLP930 T02560128 56019=
KTOB 232055Z AUTO 14026G32KT 10SM CLR 24/12 A2954 RMK AO2=
KUGN 232055Z 16011KT 10SM CLR 22/13 A2981 RMK AO2 SLP088 T02220128
     56021=
KULM 232055Z AUTO 15023G30KT 10SM CLR 26/11 A2941 RMK AO2 LTG DSNT
     SE=
KVWU 232055Z AUTO 13012G21KT 10SM CLR 25/13 A2950 RMK AO2=
K3N8 232055Z AUTO 12018G24KT 10SM CLR 23/12 A2939 RMK AO2
     T02330118=
KAJO 232056Z AUTO VRB05KT 10SM CLR 22/09 A2984 RMK AO2 SLP098
     T02220094 58014=
KAWO 232056Z AUTO 19005KT 10SM FEW025 12/06 A3017 RMK AO2 SLP221
     T01170061 51009=
KEAT 232055Z AUTO 13003KT 10SM CLR 12/M03 A3005 RMK AO2 SLP179
     T01221033 58001=
KENV 232056Z AUTO 34015G24KT 10SM FEW065 08/M08 A2989 RMK AO2 PK
     WND 35031/2014 SLP126 T00831083 53016=
KGDV 232056Z AUTO 01012KT 2 1/2SM -RA BR OVC004 05/05 A2947 RMK
     AO2 SLP991 P0000 60000 T00500050 53008=
KGXY 232056Z 20008G22KT 10SM -TSRA FEW045 SCT055 OVC070 13/04
     A2935 RMK AO2 LTG DSNT SE AND NW TSB50RAB15 SLP930 P0000
     60000 T01280044 53013 $=
KHND 232056Z 36019G23KT 10SM CLR 17/M11 A2986 RMK AO2 SLP116
     T01721111 58006=
KKLS 232056Z AUTO VRB03KT 10SM CLR 14/07 A3019 RMK AO2 SLP226
     T01440067 53007=
KLGD 232056Z AUTO 31012KT 10SM BKN041 BKN049 BKN060 08/M01 A3008
     RMK AO2 SLP198 T00781006 51010=
KLLJ 232055Z AUTO 31012KT 10SM OVC065 04/M08 A2988 RMK AO2 SLP125
     T00441083 51010 $=
