SAPA32 KWBC 232000 RRB
METAR
NWWW 232030Z AUTO 07010KT 010V120 CAVOK 27/18 Q1012 TEMPO
     08020G30KT 3000 SHRA FEW020CB=
