SAUS70 KWBC 231900
METAR
KAFN 231852Z AUTO 00000KT 10SM CLR 15/07 A3033 RMK AO2 SLP280
     T01500072=
KAQW 231852Z AUTO 11007KT 10SM CLR 18/03 A3030 RMK AO2 SLP263
     T01780033=
KARR 231852Z 17016G30KT 10SM FEW045 24/13 A2983 RMK AO2 PK WND
     15033/1833 SLP098 T02440133=
KBLF 231852Z AUTO 04008KT 10SM CLR 19/M01 A3022 RMK AO2 SLP213
     T01891006=
KBML 231852Z AUTO 00000KT 10SM CLR 20/06 A3033 RMK AO2 SLP278
     T02000061=
KBRL 231853Z AUTO 17016G26KT 10SM CLR 22/14 A2972 RMK AO2 PK WND
     17029/1832 SLP061 T02220139=
KBYI 231853Z AUTO 28016G28KT 10SM CLR 06/M01 A2985 RMK AO2 PK WND
     29028/1813 SLP109 T00611011=
KCFV 231852Z AUTO 18021G36KT 10SM FEW120 28/16 A2963 RMK AO2 PK
     WND 18039/1822 SLP027 T02830156 PWINO $=
KCLT 231852Z 36007KT 10SM FEW250 23/04 A3017 RMK SLP212 T02280039
     $=
KCPS 231853Z 18013G31KT 10SM FEW034 24/15 A2984 RMK AO2 PK WND
     17031/1845 SLP102 T02390150 $=
KCQX 231852Z AUTO 04008KT 4SM RA BR FEW008 BKN055 OVC070 15/13
     A3029 RMK AO2 RAB15 SLP257 P0002 T01500133=
KCVG 231852Z 18010KT 10SM FEW055 24/09 A3010 RMK AO2 SLP185
     T02440089=
KDCA 231852Z 36007KT 10SM BKN040 BKN055 BKN120 19/12 A3020 RMK AO2
     SLP227 T01940117 $=
KDDC 231852Z AUTO 21036G55KT 3SM HZ 31/06 A2940 RMK AO2 PK WND
     21058/1754 SLP921 T03110056 $=
KDPA 231852Z 18020G32KT 10SM SCT045 25/14 A2985 RMK AO2 PK WND
     17036/1842 SLP103 T02500139=
KDVN 231852Z AUTO 15015G25KT 10SM CLR 26/13 A2973 RMK AO2 PK WND
     16028/1834 SLP061 T02560133=
KDVP 231853Z AUTO 14028G33KT 10SM CLR 23/12 A2938 RMK AO2
     T02290122=
KFIT 231852Z AUTO 08003KT 10SM CLR 15/06 A3033 RMK AO2 SLP274
     T01500056=
KFOZ 231853Z AUTO 13009G14KT 10SM CLR 23/11 A2964 RMK AO2=
KGLS 231852Z 16010KT 10SM FEW044 SCT060 28/21 A2995 RMK AO2 SLP142
     T02830206=
KHIE 231852Z AUTO 00000KT 10SM CLR 18/07 A3033 RMK AO2 SLP276
     T01830072=
KHLN 231852Z 32011KT 2SM -SN FEW013 OVC021 02/M01 A2984 RMK AO2
     SLP143 P0000 T00171011=
KTAN 231852Z AUTO A3029 RMK AO2 SLPNO PWINO FZRANO TSNO $=
KTWF 231853Z 28022G34KT 10SM FEW027 05/M02 A2988 RMK AO2 PK WND
     30034/1848 SLP112 T00501017=
KXVG 231853Z AUTO 09011G16KT 074V134 10SM CLR 22/11 A2954 RMK
     AO2=
KHRL 231852Z 16024G32KT 10SM CLR 33/18 A2981 RMK AO2 PK WND
     16032/1803 SLP095 T03280178 $=
KHUT 231852Z 17028G42KT 4SM BLDU SCT024 28/12 A2944 RMK AO2 PK WND
     18044/1819 SLP946 T02830122=
KIAD 231852Z 35010KT 10SM SCT040 BKN060 BKN100 18/11 A3021 RMK AO2
     SLP228 T01830111=
KIEN 231852Z AUTO 31012G21KT 10SM CLR 12/02 A2928 RMK AO2 SLP908
     T01170017=
KIJD 231852Z AUTO 04006KT 10SM -RA FEW080 OVC110 15/07 A3031 RMK
     AO2 RAB32 SLP262 P0000 T01500067=
KIOW 231852Z AUTO 16022G31KT 10SM CLR 25/13 A2967 RMK AO2 PK WND
     17033/1832 SLP044 T02500133=
KITR 231853Z AUTO 23038G52KT 2 1/2SM HZ BKN030 OVC038 26/M04 A2932
     RMK AO2 PK WND 23055/1812 SLP871 T02611044 $=
KLHX 231853Z AUTO 23022G43KT 10SM SCT120 26/M03 A2937 RMK AO2 PK
     WND 22043/1808 SLP885 T02561028 $=
KLWC 231852Z AUTO 18026G37KT 10SM CLR 29/14 A2954 RMK AO1 PK WND
     17037/1851 SLP995 T02940144=
KMDH 231852Z 19022G32KT 10SM FEW043 27/14 A2993 RMK AO2 PK WND
     18034/1804 SLP132 T02670144=
KMEB 231852Z AUTO 03005KT 10SM CLR 23/06 A3015 RMK AO2 SLP208
     T02330061=
KMKE 231852Z 14015KT 10SM FEW031 21/13 A2986 RMK AO2 SLP107
     T02110128 $=
KMLI 231852Z 15017G29KT 10SM CLR 26/14 A2972 RMK AO2 PK WND
     15029/1852 SLP059 T02560139=
KMSS 231853Z AUTO 02006KT 10SM CLR 21/05 A3028 RMK AO2 SLP254
     T02110050=
