SAUS70 KWBC 231800 RRP
METAR
KTTD 231753Z 22003KT 10SM SCT017 OVC055 12/07 A3016 RMK AO2 SLP213
     T01170072 10117 20083 51023=
KTVC 231753Z 17011G19KT 10SM FEW048 SCT250 24/11 A2995 RMK AO2
     SLP141 T02390111 10239 20144 58016=
KTVL 231753Z AUTO 08010G15KT 10SM BKN049 03/M08 A2998 RMK AO2
     SLP146 T00331078 10033 21061 51015=
KTVR 231753Z AUTO 17014G21KT 10SM CLR 28/15 A3006 RMK AO2 SLP185
     T02830150 10283 20167 58015=
KTVY 231755Z AUTO 31003KT 10SM BKN032 OVC042 01/01 A2981 RMK
     AO2=
KTWF 231753Z 29024G32KT 10SM FEW023 05/M01 A2988 RMK AO2 PK WND
     28032/1745 SLP109 T00501011 10050 20000 51024=
KUAO 231753Z 23005KT 10SM BKN013 OVC055 11/08 A3018 RMK AO2 SLP219
     T01060078 10106 20061 53023=
KUNO 231753Z AUTO 18016G25KT 10SM BKN028 23/14 A2991 RMK AO2 PK
     WND 17027/1659 SLP117 T02280144 10233 20167 58007=
KVCB 231753Z AUTO 36018G31KT 10SM CLR 19/M02 A3001 RMK AO2 PK WND
     35032/1738 SLP160 T01891017 10189 20122 51017=
KVDF 231755Z AUTO 05005KT 10SM SCT047 29/17 A3009 RMK AO2=
PAAQ 231753Z 07004KT 10SM CLR M04/M06 A2984 RMK AO2 SLP110 I6001
     T10391056 11028 21050 51010=
PABR 231753Z 12021G32KT 10SM FEW042 OVC055 M06/M08 A2996 RMK AO2
     PK WND 12032/1750 SLP148 T10611078 11050 21067 53004=
PACV 231753Z 07003KT 10SM SCT150 BKN200 M01/M02 A2964 RMK AO2
     SLP038 I6000 T10061017 10006 21028 58001=
PAEN 231753Z 00000KT 10SM CLR M06/M06 A2991 RMK AO2 SLP131 I1000
     I6001 T10561056 11017 21061 51013=
PAGK 231753Z AUTO 33009KT 10SM CLR M05/M09 A2983 RMK AO2 SLP134
     T10501089 11033 21050 50005 TSNO=
PAGY 231753Z AUTO 02012KT 10SM CLR 07/M02 A2959 RMK AO2 PRESFR
     SLP020 T00671022 10067 20017 56035 TSNO $=
PAIL 231753Z 23004KT 10SM FEW020 FEW060 M01/M04 A3003 RMK AO2
     SLP171 T10111044 10006 21011 51020=
PAKT 231753Z 13017G29KT 4SM RA BR SCT022 OVC030 06/04 A2952 RMK
     AO2 PK WND 13039/1656 SLP998 HARBOR WIND 11021G32KT ROOF WIND
     12025G36KT P0014 60027 T00560039 10072 20050 56051=
PAKV 231753Z AUTO 00000KT 10SM FEW013 BKN075 OVC090 M06/M06 A3002
     RMK AO2 SLP170 T10561061 11039 21056 50000 TSNO=
PAKW 231753Z AUTO 15008KT 120V210 3SM RA BKN035 OVC045 08/05 A2937
     RMK AO2 PK WND 14031/1658 SLP946 P0006 60031 T00780050 10083
     20067 56050 TSNO $=
PAMR 231753Z 00000KT 9SM CLR M04/M07 A2988 RMK AO2 SLP121
     T10441072 11017 21056 51013=
K08D 231755Z AUTO 06016G22KT 10SM OVC007 06/06 A2948 RMK AO2=
KACK 231753Z 04011KT 8SM -RA FEW025 BKN041 OVC055 16/14 A3026 RMK
     AO2 RAE30B46 SLP248 P0001 60012 T01560139 10167 20156
     58012=
KAGC 231753Z 8SM CLR 21/03 A3021 RMK AO2 SLP233 T02060033 10211
     20072 58012=
KBAK 231745Z 19016G24KT 10SM SCT060 24/09 A3009=
KBBW 231753Z AUTO 18029G40KT 10SM FEW031 28/03 A2922 RMK AO2 PK
     WND 20045/1733 SLP872 T02830028 10283 20011 58019=
KBEH 231753Z AUTO 16016G24KT 10SM CLR 24/13 A2995 RMK AO2 PK WND
     14026/1721 SLP140 T02440133 10244 20150 58018=
KBIS 231752Z 06017G23KT 10SM CLR 13/04 A2932 RMK AO2 SLP931
     T01280044 10128 20050 58030=
KD55 231755Z AUTO 05022KT 10SM SCT010 10/10 A2953 RMK AO2=
KDAW 231751Z AUTO 00000KT 10SM CLR 17/08 A3034 RMK AO2 SLP272
     T01720083 10178 20061 58012=
KEST 231752Z AUTO 17025G35KT 10SM CLR 23/13 A2946 RMK AO2 PK WND
     14035/1731 SLP971 T02330128 10233 20139 58022=
KMRJ 231755Z AUTO 17017G21KT 10SM CLR 22/10 A2977 RMK AO2=
KORD 231751Z 17018G26KT 10SM FEW055 24/13 A2987 RMK AO2 PK WND
     18027/1719 SLP112 T02440128 10244 20167 58019=
KSAW 231747Z COR 17016G21KT 10SM FEW020 19/12 A2989=
KSDC 231755Z AUTO 13003KT 10SM CLR 21/02 A3025 RMK AO2=
