SAUS70 KWBC 232100 RRO
METAR
KTAD 232054Z AUTO 26026G38KT 10SM FEW095 18/01 A2953 RMK AO2 PK
     WND 25042/2044 SLP924 T01780006 53015=
KTWF 232053Z 29022G33KT 10SM FEW038 FEW055 06/M02 A2990 RMK AO2 PK
     WND 30035/2005 SLP117 T00611022 53007=
K20U 232055Z AUTO 35011KT 9SM OVC007 06/06 A2943 RMK AO2=
KACQ 232055Z AUTO 14024G33KT 10SM CLR 24/13 A2950 RMK AO2=
KASX 232053Z AUTO 15009G21KT 10SM CLR 24/13 A2965 RMK AO2 SLP041
     T02440128 56020=
KAUW 232054Z AUTO A2972 RMK AO2 SLPNO 56017 PWINO FZRANO $=
KCKB 232053Z 01003KT 10SM CLR 25/04 A3016 RMK AO2 SLP205 T02500039
     56017=
KDKK 232053Z AUTO 04005KT 10SM CLR 22/07 A3018 RMK AO2 SLP216
     T02220067 56013=
KDXX 232055Z AUTO 15021G30KT 10SM CLR 27/11 A2931 RMK AO2=
KPHD 232053Z AUTO 15005KT 10SM CLR 24/05 A3014 RMK AO2 SLP205
     T02390050 56018=
KPTK 232053Z 15012G21KT 10SM FEW050 BKN200 22/09 A3008 RMK AO2
     SLP185 T02220094 56013 $=
KSBY 232054Z 01009KT 9SM OVC008 16/15 A3011 RMK AO2 RAE15 SLP199
     P0001 60014 T01610150 58004=
KSGS 232055Z AUTO 14015G23KT 10SM CLR 25/12 A2950 RMK AO2
     T02490117=
KTEW 232055Z AUTO 16013G19KT 10SM CLR 25/09 A3004 RMK AO2
     T02450085=
KVSF 232054Z AUTO 00000KT 10SM CLR 14/09 A3033 RMK AO2 SLP274
     T01390089 56003=
KVTA 232054Z AUTO 16007KT 10SM CLR 26/07 A3011 RMK AO2 SLP192
     T02560067 56016=
KVVV 232055Z 13022G29KT 10SM 23/13 A2929 RMK AO2 LTG DSNT SE=
KY63 232055Z AUTO 13020G27KT 10SM CLR 22/12 A2935 RMK AO2
     T02210120=
KYIP 232053Z 13011KT 10SM CLR 24/09 A3008 RMK AO2 SLP182 T02390094
     56013=
KACV 232053Z AUTO 31016G23KT 10SM CLR 14/07 A3014 RMK AO2 SLP213
     T01440072 58003=
KALI 232053Z AUTO 14020G29KT 10SM BKN050 29/21 A2977 RMK AO2 PK
     WND 15029/2036 SLP077 T02940206 56027=
KALW 232053Z 24009KT 10SM BKN042 OVC049 10/01 A3010 RMK AO2 SLP197
     T01000011 53013 $=
KAUS 232053Z 17018G30KT 10SM SCT050 SCT060 BKN200 BKN250 30/18
     A2977 RMK AO2 PK WND 16030/2044 SLP071 T03000178 56033=
KCCR 232053Z 33012G18KT 10SM CLR 22/M03 A2997 RMK AO2 SLP133
     T02171028 58016=
KCLM 232053Z AUTO VRB03KT 10SM CLR 11/06 A3015 RMK AO2 SLP209
     T01110061 50008=
KCOT 232053Z AUTO 15012G21KT 8SM CLR 32/18 A2975 RMK AO2 SLP066
     T03220178 56026=
KCVH 232055Z AUTO 32007G13KT 10SM CLR 21/01 A2996 RMK A01=
KDVT 232053Z 30010G16KT 10SM SCT060 SCT075 22/08 A2973 RMK AO2
     SLP049 T02170078 57018=
KRKS 232054Z AUTO 27013G21KT 10SM FEW048 OVC060 02/M04 A2964 RMK
     AO2 SLP038 T00221044 51009=
KTTD 232053Z 00000KT 10SM BKN060 14/06 A3019 RMK AO2 SLP222
     T01390061 53003=
KTVL 232053Z AUTO 10008G16KT 10SM BKN060 05/M10 A3000 RMK AO2
     SLP152 T00501100 53005=
KVEL 232053Z AUTO 24006KT 10SM CLR 04/01 A2968 RMK AO2 SLP051
     60000 T00440006 51014=
KBMQ 232053Z AUTO 17010G22KT 10SM SCT050 28/16 A2982 RMK AO2 PK
     WND 18030/2040 SLP081 T02830156 55019=
KBOI 232053Z 31014KT 10SM SCT046 BKN090 09/M02 A2998 RMK AO2
     SLP159 T00941017 53006=
KBPT 232053Z AUTO 14012G21KT 10SM BKN055 OVC075 28/20 A2993 RMK
     AO2 SLP134 T02780200 56017=
KBTM 232053Z AUTO 31014G20KT 10SM OVC070 01/M03 A2984 RMK AO2
     SLP125 60000 T00111033 53013=
KOGD 232053Z 33015KT 10SM FEW035 SCT048 SCT085 08/M02 A2983 RMK
     AO2 PK WND 33026/2036 SLP089 T00781017 53020=
KOLF 232053Z AUTO 04015KT -RA OVC010 05/03 A2955 RMK AO2 RAB39 CIG
     007V014 SLP019 P0001 60002 T00500033 53006=
KPAE 232053Z 21007KT 180V240 10SM BKN005 BKN016 BKN038 11/06 A3017
     RMK AO2 SLP217 T01060056 51012=
KPDT 232053Z 29010KT 10SM CLR 12/03 A3010 RMK AO2 SLP192 T01170028
     53009=
