SATO31 NFTF 231900
METAR NFTV 231900Z 16005KT 9999 FEW008 FEW016TCU BKN120 25/22 Q1013=

METAR NFTL 231900Z 09012KT 9999 SCT016TCU BKN280 24/18 Q1013=

METAR NFTF 231900Z 14012KT 9999 FEW017 23/18 Q1016=


