SAUS70 KWBC 231800 RRX
METAR
K20V 231755Z AUTO 24013KT 10SM SCT024 BKN046 OVC085 04/01 A2957
     RMK AO2=
KBMC 231750Z AUTO 10SM BKN070 OVC090 05/M02 A2979 RMK AO1
     T00471018=
KEAN 231750Z AUTO 32006KT 10SM -RA SCT034 OVC045 09/02 A2942 RMK
     AO2 T00870020 10119 20084=
KGNB 231755Z AUTO 29004KT 10SM BKN020 BKN033 OVC070 03/00 A2957
     RMK AO2 T00311001 10036 20014=
KGNC 231755Z AUTO 22018G24KT 10SM CLR 28/10 A2980 RMK AO2
     T02790099 10279 20160=
KHEQ 231755Z AUTO 24011G23KT 10SM CLR 27/M03 A2923 RMK AO2=
KHSG 231750Z AUTO 01004KT 3/4SM -SN OVC013 00/00 A2961 RMK AO2
     P0002 60007 T00000000 10038 20000=
KOZA 231755Z AUTO 20020G25KT 10SM CLR 24/15 A2987 RMK AO2=
KPEQ 231755Z AUTO 22015G20KT 10SM CLR 31/08 A2974 RMK AO2
     T03130080 10313 20132=
KSLR 231750Z AUTO 19021G27KT 10SM BKN044 28/15 A2989 RMK AO2
     T02790146 10279 20207=
KTXW 231750Z AUTO 16016G26KT 1/2SM HZ VV005 31/18 A2984 RMK AO2
     VIS 1/4V2 T03100176 10312 20220=
KDCY 231755Z AUTO 18018G21KT 10SM CLR 25/11 A3002 RMK AO2
     T02520111 10253 20165=
KEBS 231755Z AUTO 16024G31KT 10SM CLR 24/14 A2950 RMK AO2=
KGOV 231758Z AUTO 17016G22KT 10SM CLR 22/11 A3003 RMK AO2 SLP172
     T02230105 10226 20038 57015 $=
KJVY 231755Z AUTO 23009G17KT 10SM CLR 25/10 A3009 RMK AO2
     PWINO=
KMPZ 231750Z AUTO 17018G28KT 10SM CLR 24/17 A2971 RMK AO2=
KUYF 231755Z AUTO 14008KT 10SM SCT049 23/07 A3015 RMK AO2=
KJKA 231755Z 13010G15KT 10SM CLR 25/14 A3013=
KOCW 231755Z AUTO 33006KT 10SM OVC013 16/13 A3011 RMK AO2
     T01640129 10164 20133=
