SAUS70 KWBC 231800 RRX
METAR
KTFP 231755Z AUTO 18018G24KT 10SM CLR 29/22 A2987 RMK AO2
     T02940215=
