SAUS70 KWBC 231900 RRX
METAR
KSEE 231847Z VRB06KT 10SM BKN042 19/08 A2988=
KSEE 231847Z VRB06KT 10SM BKN042 19/08 A2988=
