SAUS70 KWBC 232050
METAR
KGLE 232035Z AUTO 17022G32KT 10SM CLR 29/14 A2973 RMK AO2
     T02860138=
KPEZ 232030Z AUTO 16016G22KT 10SM SCT049 31/17 A2979 RMK AO2
     T03140173=
KC62 232115Z AUTO 16010G18KT 10SM SCT050 23/11 A3003 RMK AO2
     T02320118=
KOCW 232035Z AUTO 33003KT 10SM OVC015 18/14 A3010 RMK AO2
     T01750135=
