SAUS70 KWBC 231900 RRB
METAR
KEST 231852Z AUTO 16023G42KT 10SM CLR 25/13 A2943 RMK AO2 PK WND
     17042/1848 SLP960 T02500128=
KHFY 231855Z AUTO 17017G22KT 10SM SCT050 26/13 A3003 RMK AO2
     T02570125=
KILG 231851Z 05009KT 10SM OVC045 18/12 A3021 RMK AO2 RAE40 SLP230
     P0000 T01780117=
KIUA 231855Z AUTO 13006KT 10SM CLR 23/07 A3023 RMK AO2
     T02270067=
KJFK 231851Z 03009KT 10SM BKN060 BKN120 OVC150 16/11 A3025 RMK AO2
     SLP245 T01610106=
KLBE 231847Z 04008KT 20SM CLR 22/01 A3021=
KLGA 231851Z 06010KT 10SM BKN045 BKN065 BKN120 OVC250 17/07 RMK
     AO2 RAE1757 SLPNO P0000 T01670072 $=
KPIT 231851Z 10005KT 10SM FEW130 FEW250 21/04 A3019 RMK AO2 SLP230
     T02110039=
KXWA 231851Z AUTO 04017G23KT 10SM OVC006 04/03 A2948 RMK AO2 PK
     WND 05026/1759 SLP003 T00440028=
K10G 231855Z AUTO 20007KT 10SM CLR 23/06 A3018 RMK AO2=
K1P1 231855Z AUTO 00000KT 10SM CLR 18/05 A3034 RMK AO2
     T01750048=
K24A 231855Z AUTO 00000KT 10SM CLR 21/M02 A3019 RMK AO2
     T02111022=
K2P2 231855Z AUTO 18008G17KT 10SM BKN110 17/12 A2992 RMK AO2
     T01710116=
K35A 231855Z AUTO 00000KT 10SM CLR 22/07 A3020 RMK A02
     T02230066=
K3D2 231855Z AUTO 17017G25KT 10SM CLR 17/11 A2990 RMK AO2
     T01650105=
K6L4 231855Z AUTO VRB06KT 10SM CLR 23/05 A3017 RMK AO2=
K6S2 231855Z AUTO 00000KT 10SM SCT012 SCT041 13/11 A3021 RMK
     AO2=
K82C 231855Z AUTO 13011G23KT 090V150 10SM CLR 23/13 A2972 RMK AO2
     T02320131=
KABR 231853Z AUTO 11015G26KT 10SM -RA CLR 23/13 A2924 RMK AO2 PK
     WND 11027/1831 SLP899 P0000 T02330128=
KABY 231853Z AUTO VRB03KT 10SM CLR 24/09 A3015 RMK AO2 SLP207
     T02440089=
KACK 231853Z 02015KT 3SM -RA BR SCT028 OVC036 15/14 A3025 RMK AO2
     SLP242 P0012 T01500139=
KACV 231853Z AUTO 31014KT 10SM CLR 13/07 A3015 RMK AO2 SLP215
     T01330072=
KADG 231853Z AUTO 19014KT 10SM BKN060 24/10 A3009 RMK AO2 PK WND
     16026/1832 SLP190 T02390100=
KAEX 231853Z 18011KT 10SM BKN050 BKN065 29/16 A2997 RMK AO2 SLP152
     T02890156=
KAFW 231853Z 18025G34KT 10SM FEW035 FEW250 29/16 A2976 RMK AO2 PK
     WND 18037/1815 SLP064 T02890161=
KAGC 231853Z 10005KT 10SM CLR 22/04 A3019 RMK AO2 SLP226
     T02170044=
KAIA 231853Z AUTO 31024G34KT 10SM CLR 16/03 A2929 RMK AO2 PK WND
     30034/1850 SLP900 T01610033=
KAIK 231855Z AUTO 33004KT 10SM CLR 23/09 A3016 RMK AO2
     T02340093=
KAKO 231853Z AUTO 32015G29KT 10SM CLR 23/M02 A2928 RMK AO2 PK WND
     31030/1810 SLP859 T02281022 $=
KALI 231853Z AUTO 14018G23KT 10SM SCT049 31/19 A2981 RMK AO2 PK
     WND 15028/1755 SLP091 T03060194=
KALW 231853Z 20007KT 10SM FEW032 09/02 A3008 RMK AO2 SLP189
     T00940022 $=
KAMA 231853Z 21021G29KT 10SM CLR 24/11 A2961 RMK AO2 PK WND
     21030/1832 SLP976 T02390106=
KAMG 231853Z AUTO VRB03KT 10SM CLR 27/11 A3012 RMK AO2 SLP198
     T02670106=
KAMW 231853Z AUTO 16020G33KT 10SM CLR 26/14 A2952 RMK AO2 PK WND
     18033/1851 SLP986 T02610139=
KANB 231853Z AUTO 06004KT 10SM CLR 25/05 A3015 RMK AO2 SLP207
     T02500050=
KANQ 231855Z AUTO 18017G25KT 10SM CLR 23/10 A3004 RMK AO2=
KAOO 231853Z AUTO 09005KT 10SM FEW031 19/04 A3025 RMK AO2 SLP246
     T01890044=
KAPA 231853Z 24025G37KT 10SM SCT050 SCT090 BKN200 17/M02 A2935 RMK
     AO2 PK WND 25037/1852 SLP880 SHSN OMTNS DSNT SW-NW
     T01721022=
KAPF 231853Z 04008KT 10SM SCT048 BKN060 30/20 A3001 RMK AO2 SLP163
     T03000200 $=
PASO 231853Z AUTO 00000KT 10SM CLR 00/M01 A2991 RMK AO2 SLP128
     T00001006 TSNO=
PATO 231853Z AUTO 26010G20KT 10SM CLR M01/M04 A2983 RMK AO2 SLP103
     T10061039 TSNO=
PAWD 231853Z AUTO 01014G22KT 10SM CLR 04/M08 A2980 RMK AO2 PK WND
     35030/1754 SLP090 T00391083 TSNO $=
