SAUS70 KWBC 231800 RRL
METAR
KGRI 231753Z 19025G37KT 10SM CLR 29/11 A2929 RMK AO2 PK WND
     20037/1749 SLP905 T02890106 10289 20128 58016 $=
KGSP 231753Z VRB03KT 10SM CLR 22/03 A3020 RMK AO2 SLP221 T02170033
     10217 20039 58018=
KGVL 231753Z AUTO 29005KT 10SM CLR 22/05 A3021 RMK AO2 SLP221
     T02170050 10222 20072 58017=
KGWO 231753Z AUTO 21010G19KT 10SM FEW047 28/13 A3006 RMK AO2
     SLP178 T02780133 10283 20156 58015=
KHAE 231755Z AUTO 16009G19KT 133V193 10SM CLR 25/13 A2976 RMK AO2
     LTG DSNT S AND SW=
KHBI 231755Z AUTO 36004KT 10SM CLR 20/04 A3021 RMK AO2 T01990039
     10200 20047=
KHEI 231753Z AUTO 01009KT 10SM FEW022 11/04 A2930 RMK AO2 SLP924
     T01110039 10111 20050 58013=
KHHR 231753Z 14004KT 10SM CLR 20/11 A2987 RMK AO2 SLP112 T02000106
     10200 20150 50014=
KHIB 231753Z AUTO 12014KT 10SM FEW065 FEW085 19/11 A2965 RMK AO2
     SLP046 T01890111 10200 20006 58011=
KHIO 231753Z 00000KT 10SM BKN010 OVC050 09/07 A3016 RMK AO2 SLP213
     T00890067 10089 20056 53022=
KHJO 231753Z AUTO 33018G23KT 2 1/2SM HZ CLR 17/02 A2995 RMK AO2
     VIS 1 1/4V3 SLP143 T01670017 10172 20089 51018=
KHKA 231753Z AUTO 19018G24KT 10SM CLR 26/14 A3001 RMK AO2 PK WND
     19027/1720 SLP160 T02610144 10261 20172 58010 $=
KHKS 231753Z 16007G17KT 10SM CLR 27/14 A3009 RMK AO2 SLP182
     T02670139 10272 20133 58015=
KHKY 231753Z 00000KT 10SM CLR 21/06 A3020 RMK AO2 SLP211 T02110056
     10211 20056 58022=
KHOT 231753Z AUTO 18011G17KT 10SM OVC037 24/16 A2996 RMK AO2
     SLP139 T02440161 10244 20189 58008=
KHQM 231753Z AUTO 10007KT 10SM SCT030 09/07 A3013 RMK AO2 SLP208
     T00890072 10089 20039 53019=
KHRI 231753Z AUTO 25008KT 10SM CLR 11/03 A3009 RMK AO2 SLP188
     T01110033 10111 20067 51025=
KHRJ 231755Z AUTO 36010G15KT 10SM CLR 21/04 A3017 RMK AO2
     T02090041 10215 20102=
KHRO 231753Z AUTO 17012G21KT 10SM FEW110 25/15 A2987 RMK AO2
     SLP102 T02500150 10250 20189 58003=
KHSI 231753Z AUTO 19020G36KT 10SM CLR 29/11 A2931 RMK AO2 PK WND
     19040/1701 RAE10 SLP908 P0000 60000 T02890111 10289 20117
     58014 $=
KHSP 231755Z AUTO 10003KT 5SM HZ CLR 15/01 A3028 RMK AO2 T01540007
     10163 20076=
KHWY 231755Z AUTO 36006KT 10SM OVC029 18/10 A3025 RMK AO2
     T01760095 10178 20028=
KHYR 231753Z AUTO 13011G22KT 10SM CLR 22/12 A2969 RMK AO2 SLP051
     T02170122 10222 20144 58015=
KICR 231753Z AUTO 16014G21KT CLR 23/06 A2916 RMK AO2 SLP860
     T02330056 10233 20078 56024=
KINF 231755Z AUTO 06004KT 4SM HZ CLR 27/15 A3011 RMK AO2=
KISO 231756Z 36008KT 10SM OVC016 18/14 A3013=
KJFX 231755Z AUTO 15007KT 090V200 10SM CLR 23/08 A3016 RMK AO2=
KJSO 231755Z AUTO 21012G19KT 10SM SCT037 BKN048 27/17 A2996 RMK
     AO2 T02660168 10267 20185 TSNO=
KJVW 231755Z AUTO 19006G14KT 10SM SCT046 26/14 A3008 RMK AO2=
KL18 231755Z AUTO 00000KT 10SM SCT033 17/09 A2988 RMK AO2=
KL35 231755Z AUTO 21003KT 10SM CLR 06/M08 A2993 RMK AO2=
KLFT 231753Z VRB06G16KT 10SM BKN043 27/17 A3005 RMK AO2 SLP174
     T02720167 10283 20167 58012=
KLKU 231755Z AUTO 01012G17KT 7SM OVC022 16/10 A3021 RMK AO2
     T01630100 10167 20059=
KLLQ 231753Z AUTO 17015G21KT 10SM SCT044 27/14 A3001 RMK AO2
     SLP159 T02720144 10278 20172 58016=
KLMT 231753Z 32007KT 10SM FEW026 SCT035 BKN045 06/M02 A3009 RMK
     AO2 SLP195 T00611017 10061 21028 51022=
KLNK 231754Z 18028G35KT 10SM CLR 29/13 A2936 RMK AO2 PK WND
     18041/1739 SLP929 T02940128 10294 20167 58015=
KLNL 231755Z AUTO 17011G23KT 130V190 10SM CLR 21/11 A2983 RMK AO2
     T02090105 10209 20120=
KLOL 231753Z AUTO 01010KT 10SM FEW060 08/M07 A3004 RMK AO2 SLPNO
     T00781072 51021 $=
