SAUS70 KWBC 231830
METAR
KEFT 231835Z AUTO 16018G24KT 10SM CLR 23/12 A2978 RMK AO2
     T02250121=
KUNU 231835Z AUTO 14012G17KT 10SM CLR 22/13 A2983 RMK AO2
     T02190126=
KW31 231835Z AUTO 34005KT 10SM OVC024 17/10 A3017 RMK AO1
     T01740098=
KW96 231835Z AUTO 30003KT 10SM OVC005 14/13 A3018 RMK AO1
     T01350130=
