SAUS70 KWBC 231700 RRM
METAR
KHKA 231653Z AUTO 19016G26KT 10SM CLR 25/14 A3003 RMK AO2 PK WND
     18030/1556 SLP166 T02500144 $=
KHKS 231653Z 15008KT 10SM CLR 26/14 A3012 RMK AO2 SLP190
     T02610144=
KHKY 231653Z 00000KT 10SM CLR 19/07 A3022 RMK AO2 SLP222
     T01940067=
KHOT 231653Z AUTO 20008KT 10SM OVC030 24/17 A2998 RMK AO2 SLP145
     T02440167=
KHQM 231653Z AUTO 07009KT 10SM OVC002 07/06 A3012 RMK AO2 SLP201
     T00670056=
KHRI 231653Z AUTO 26007KT 10SM CLR 10/04 A3007 RMK AO2 SLP183
     T01000039=
KHRO 231653Z AUTO 17014G23KT 10SM CLR 24/15 A2988 RMK AO2 SLP106
     T02440150=
KHSI 231653Z AUTO 18018G35KT 10SM -RA CLR 26/11 A2933 RMK AO2 PK
     WND 19035/1653 SLP917 P0000 T02560106 $=
KHSP 231655Z AUTO 00000KT 7SM CLR 15/00 A3029 RMK AO2
     T01521002=
KHWY 231655Z AUTO 03009KT 10SM OVC023 18/08 A3028 RMK AO2
     T01750080=
KHYR 231653Z AUTO 12011KT 10SM CLR 21/12 A2972 RMK AO2 SLP060
     T02060117=
KHZY 231653Z AUTO 13004KT 10SM CLR 22/06 A3023 RMK AO2 SLP235
     T02220061=
KI69 231655Z AUTO 21009G14KT 10SM CLR 23/10 A3018 RMK AO2
     T02300096=
KICR 231653Z AUTO 14012G20KT CLR 19/06 A2918 RMK AO2 SLP875
     T01890061=
KIMT 231654Z AUTO 15007KT 10SM CLR 18/12 A2989 RMK AO2 SLP122
     T01830122=
KIWA 231650Z 24016KT 10SM SCT055 21/09 A2980 HZ=
KJFX 231655Z AUTO VRB04KT 10SM CLR 22/10 A3019 RMK AO2=
KJKJ 231655Z AUTO 12010KT 10SM CLR 20/11 A2945 RMK AO2 TSNO=
KJMR 231655Z AUTO 12008G15KT 10SM CLR 20/10 A2966 RMK AO2=
KJSO 231655Z AUTO 19012G20KT 10SM SCT034 SCT041 SCT047 26/18 A2997
     RMK AO2 T02610176 TSNO=
KL18 231655Z AUTO 14003KT 10SM SCT020 16/11 A2989 RMK AO2=
KLDM 231655Z AUTO 18013G18KT 10SM CLR 23/11 A2997 RMK AO2
     T02250109=
KLJF 231655Z AUTO 13017G22KT 10SM CLR 21/11 A2952 RMK AO2=
KLLQ 231653Z AUTO 19010KT 10SM CLR 26/15 A3004 RMK AO2 SLP169
     T02560150=
KLMT 231653Z VRB03KT 10SM FEW029 BKN035 02/M01 A3008 RMK AO2
     SLP197 T00221011=
KLNL 231655Z AUTO 16008G18KT 10SM CLR 19/11 A2986 RMK AO2
     T01920110=
KLOL 231653Z AUTO VRB04KT 10SM CLR A3002 RMK AO2 SLPNO $=
KLPR 231653Z AUTO 17008KT 10SM CLR 23/09 A3018 RMK AO2 SLP217
     T02280094=
KLVK 231653Z 00000KT 10SM CLR 12/05 A3000 RMK AO2 SLP158
     T01220050=
KMAE 231653Z AUTO 32014KT 10SM CLR 14/02 A2995 RMK AO2 SLP140
     T01440022=
KMBS 231653Z 17013KT 10SM CLR 23/11 A3009 RMK AO2 SLP189
     T02280111=
KMCE 231653Z AUTO 34016KT 10SM CLR 16/01 A2994 RMK AO2 SLP139
     T01560011=
KMFR 231653Z 00000KT 10SM CLR 08/05 A3017 RMK AO2 SLP219
     T00830050=
KMGG 231655Z AUTO 12008KT 10SM CLR 21/11 A2957 RMK AO2 T02110110
     PWINO=
KMGN 231655Z AUTO 17008G16KT 10SM CLR 22/11 A3002 RMK AO2
     T02260117=
KMHE 231653Z AUTO 14024G34KT 10SM CLR 22/11 A2925 RMK AO2 PK WND
     15034/1647 SLP900 T02220111=
KMIC 231653Z 13013G20KT 10SM CLR 22/12 A2958 RMK AO2 PK WND
     15033/1612 SLP013 T02170117=
KMKL 231653Z 19013G21KT 10SM CLR 23/13 A3010 RMK AO2 SLP190
     T02280128 $=
KMOD 231653Z 32014KT 10SM CLR 14/01 A2997 RMK AO2 SLP147 T01440006
     $=
KMSL 231653Z AUTO 19009G18KT 10SM CLR 24/08 A3016 RMK AO2 SLP209
     T02390083=
KTVY 231655Z AUTO 15004KT 10SM SCT023 OVC031 01/01 A2979 RMK AO2
     P0002=
KUAO 231653Z 20005KT 10SM SCT055 09/08 A3015 RMK AO2 SLP208
     T00940078=
KUKT 231655Z AUTO VRB04KT 10SM FEW100 16/09 A3027 RMK A01=
KVCB 231653Z AUTO 36018G27KT 10SM CLR 18/M01 A3000 RMK AO2 PK WND
     36028/1625 SLP159 T01781011=
KVDF 231655Z AUTO 01004KT 10SM CLR 28/18 A3012 RMK AO2=
KVUO 231653Z AUTO 14003KT 10SM OVC055 11/07 A3014 RMK AO2 SLP207
     T01060067 $=
KVVV 231655Z 13016G25KT 10SM 19/12 A2940 RMK AO2=
