SAUS70 KWBC 231900 RRX
METAR
KGZN 231900Z AUTO 16022G29KT 10SM CLR 28/15 A2973 RMK AO2=
