SAUS70 KWBC 231900
METAR
KUES 231845Z 16012G22KT 10SM CLR 22/12 A2985=
KCNW 231855Z 19017G21KT 10SM BKN045 29/16 A2984=
KW63 231855Z AUTO 33004KT 10SM BKN025 19/08 A3017 RMK AO1=
KASG 231848Z 18017G27KT 10SM CLR 26/18 A2982=
KEZS 231855Z AUTO 13011G15KT 10SM CLR 23/14 A2983 RMK AO2
     T02290140=
KFMH 231845Z 06012KT 610SM FEW008 SCT012 BKN035 14/14 A3028=
KMER 231853Z 31014G22KT 7SM CLR 20/00 A2995=
KNQA 231850Z 17010G22KT 10SM BKN048 26/14 A2999=
KBAK 231845Z 18017G25KT 10SM CLR 25/09 A3005=
KRYN 231845Z 26005G10KT 10SM CLR 22/08 A2980=
KWDG 231845Z 18024G32KT 10 SM BKN150 28/15 A2959=
