SAUS70 KWBC 232100 RRM
METAR
KSGT 232056Z AUTO 17018G23KT 10SM CLR 28/13 A2992 RMK AO2 PK WND
     17029/2035 SLP131 T02830128 56025=
KSGU 232056Z AUTO 32011KT 10SM BKN065 OVC085 12/M02 A2987 RMK AO2
     PK WND 31028/2002 WSHFT 1958 SLP105 60001 T01221022 53006=
KSJX 232055Z AUTO 16012G18KT 10SM CLR 24/11 A2995 RMK AO2
     T02350107=
KSKX 232056Z AUTO 27013KT 10SM SCT028 BKN037 OVC050 07/03 A2975
     RMK AO2 RAE39 SLP039 P0000 60001 T00670033 51025=
KSLG 232056Z AUTO 18020G25KT 10SM CLR 27/15 A2975 RMK AO2 PK WND
     17029/2009 SLP061 T02720150 56021=
KSLH 232055Z AUTO 15008KT 10SM CLR 23/11 A2998 RMK AO2=
KSMN 232056Z AUTO 34007G17KT 10SM OVC050 06/M05 A2991 RMK AO2
     SLP826 T00561050 53009=
KSOP 232056Z AUTO 02007KT 10SM CLR 21/05 A3014 RMK AO2 SLP211
     T02110050 56013 TSNO=
KSQI 232056Z AUTO 14012G19KT 10SM CLR 24/14 A2975 RMK AO2 SLP939
     T02440144 56020=
KSRC 232056Z AUTO 18013G21KT 10SM FEW048 28/15 A2990 RMK AO2
     SLP122 T02780150 56022=
KSUE 232056Z AUTO 18015G25KT 10SM CLR 18/12 A2987 RMK AO2 PK WND
     17028/2003 SLP114 T01780117 56012=
KSYM 232055Z AUTO VRB05G11KT 10SM CLR 24/02 A3013 RMK AO2=
KTOB 232055Z AUTO 14026G32KT 10SM CLR 24/12 A2954 RMK AO2=
KTTF 232055Z AUTO 10008KT 10SM CLR 20/09 A3008 RMK AO2
     T02040090=
KTVF 232056Z AUTO 10SM 23/12 RMK AO2 SLPNO 6//// T02330122 $=
KUDG 232056Z AUTO 01008KT 10SM CLR 23/06 A3014 RMK AO2 SLP205
     T02330061 56011=
KUGN 232055Z 16011KT 10SM CLR 22/13 A2981 RMK AO2 SLP088 T02220128
     56021=
KULM 232055Z AUTO 15023G30KT 10SM CLR 26/11 A2941 RMK AO2 LTG DSNT
     SE=
KVBT 232056Z AUTO 17017G24KT 10SM CLR 27/15 A2976 RMK AO2 PK WND
     16029/2046 SLP068 T02720150 56022=
KVIS 232056Z AUTO 35008KT 10SM CLR 20/02 A2992 RMK AO2 SLP139
     T02000017 58012=
KVLL 232055Z AUTO 16009KT 10SM CLR 23/08 A3010 RMK AO2
     T02310084=
KVWU 232055Z AUTO 13012G21KT 10SM CLR 25/13 A2950 RMK AO2=
KWVL 232056Z AUTO 00000KT 10SM CLR 16/09 A3033 RMK AO2 SLP300
     T01560094 58003=
KWWD 232056Z AUTO 03013G20KT 6SM -RA BR 15/14 A3014 RMK AO2 PK WND
     03026/2016 SLP210 P0000 60000 T01500144 58005 $=
KMYR 232056Z 34011KT 10SM CLR 23/06 A3010 RMK AO2 SLP192 T02330061
     56010=
KOAJ 232056Z 33005KT 10SM FEW027 OVC044 20/16 A3009 RMK AO2 SLP193
     T02000156 58001=
KOCH 232056Z AUTO 18013G22KT 10SM SCT065 29/14 A2988 RMK AO2
     SLP119 T02940144 56025=
KOEB 232055Z AUTO 17014G20KT 10SM CLR 24/10 A3002 RMK AO2
     T02350097=
KOKK 232056Z AUTO 18016G23KT 10SM CLR 25/11 A3000 RMK AO2 PK WND
     17026/2025 SLP154 6//// T02500106 56015 PNO $=
KOLU 232056Z AUTO 16024G35KT 8SM FEW041 30/12 A2925 RMK AO2 PK WND
     17040/2017 SLP898 T03000117 56022=
KONZ 232055Z AUTO 13008KT 10SM SCT100 22/03 A3008 RMK AO2
     T02180028=
KOTG 232056Z AUTO 15025G32KT 10SM CLR 26/13 A2934 RMK AO2 PK WND
     16035/2008 SLP930 T02560128 56019=
KOTH 232056Z 28006KT 10SM FEW036 14/08 A3022 RMK AO2 SLP234
     T01390083 50002=
KOWB 232056Z 18013G18KT 10SM CLR 26/09 A3001 RMK AO2 SLP162
     T02610089 56011=
KOXD 232055Z AUTO 15009KT 10SM CLR 26/04 A3007 RMK AO2
     T02600037=
KPIB 232056Z AUTO 17008G15KT 10SM CLR 27/11 A3006 RMK AO2 SLP177
     6//// T02720111 56023 PNO $=
KPJC 232055Z AUTO RMK AO2 TSNO PWINO=
KPNM 232055Z AUTO 12017G29KT 10SM CLR 24/13 A2949 RMK AO2 TSNO=
KPQI 232056Z AUTO 16005KT 10SM CLR 18/10 A3033 RMK AO2 SLP297
     T01780100 55000=
KPRX 232056Z AUTO 16020G30KT 10SM BKN055 29/16 A2979 RMK AO2 PK
     WND 19030/2050 SLP083 T02940156 56027=
KPTN 232056Z AUTO 17010KT 10SM 26/16 A3003 RMK AO2 SLP169 6////
     T02610161 56016 $=
