SAUS80 KWBC 231644
METAR
KDVK 231630Z AUTO 21008G14KT 10SM CLR 22/06 A3019 RMK AO2=
KSFY 231629Z AUTO 15015G22KT 10SM CLR 22/12 A2981 RMK AO2=
KCUL 231637Z AUTO 18018G24KT 10SM CLR 26/12 A3002 RMK AO2=
KROS 231643Z AUTO 14007G15KT 10SM CLR 23/13 A2964 RMK AO2=
