SAUS70 KWBC 231900 RRE
METAR
KY49 231855Z AUTO 08006KT 10SM CLR 20/11 A2952 RMK AO2
     T01960106=
KARM 231855Z AUTO 16019G23KT 10SM BKN048 OVC065 29/16 A2990 RMK
     AO2 T02860158 TSNO=
KAVQ 231855Z AUTO 28011G22KT 10SM SCT050 SCT065 24/08 A2979 RMK
     AO2 T02420076=
KAZC 231855Z AUTO 31011G24KT 260V330 10SM BKN041 BKN050 08/M01
     A2987 RMK AO2=
KBAM 231855Z AUTO 32006KT 10SM SCT035 BKN043 OVC065 04/00 A3003
     RMK AO1=
KCOE 231856Z AUTO 31003KT 10SM SCT037 07/02 A3002 RMK AO2 SLP193
     T00720017 PNO $=
KCWC 231855Z AUTO 18022G29KT 10SM CLR 30/14 A2969 RMK AO2
     T03040137=
KF17 231855Z AUTO 18011G19KT 10SM BKN060 28/13 A2996 RMK AO2=
KF46 231855Z AUTO 20018G26KT 10SM BKN047 29/16 A2983 RMK AO2
     T02870159=
KGDJ 231855Z AUTO 16014G25KT 10SM CLR 28/16 A2979 RMK AO2
     T02830155=
KINJ 231855Z AUTO 17022G29KT 10SM OVC046 29/16 A2982 RMK AO2
     T02880162=
KIWA 231854Z 29014KT 10SM SCT075 22/09 A2979=
KJWY 231855Z AUTO 18019G33KT 10SM BKN046 29/16 A2984 RMK AO2
     T02880160=
KKLS 231856Z AUTO 16006KT 10SM FEW050 12/08 A3017 RMK AO2 SLP221
     T01220078=
KLGD 231856Z AUTO 30010KT 10SM BKN026 BKN034 OVC045 06/01 A3006
     RMK AO2 SLP196 T00610006=
K33N 231855Z AUTO 03009G14KT 4SM BR FEW013 BKN020 16/14 A3017 RMK
     A01=
K3LF 231855Z AUTO 17023G32KT 10SM BKN031 23/14 A2987 RMK AO2
     T02310138=
KBAX 231855Z AUTO 17011G20KT 10SM SCT049 23/11 A3010 RMK AO2
     T02300109=
KBBB 231856Z AUTO 16023G30KT 10SM CLR 23/12 A2938 RMK AO2=
KBKX 231856Z AUTO 15028G32KT 10SM CLR A2931 RMK AO2 PK WND
     16034/1846 SLPNO FZRANO $=
KBTA 231855Z AUTO 17018G27KT 10SM CLR 29/13 A2937 RMK AO2
     T02920128=
KC09 231855Z AUTO 16019G26KT 10SM CLR 26/14 A2984 RMK AO2
     T02600143=
KCCY 231855Z AUTO 14021G32KT 8SM CLR 24/13 A2957 RMK AO2=
KCKC 231856Z AUTO 10009KT 10SM SCT110 18/10 A2977 RMK AO2=
KCSQ 231855Z AUTO 18022G28KT 10SM CLR 26/14 A2950 RMK AO2=
KD39 231855Z AUTO 11019G26KT 10SM CLR 22/12 A2945 RMK AO2
     T02190120=
KDEH 231855Z AUTO 16021G28KT 10SM CLR 23/13 A2962 RMK AO2=
KIFA 231855Z AUTO 15021G27KT 10SM CLR 24/14 A2956 RMK AO2
     T02390143=
KIMS 231855Z AUTO 17009G15KT 10SM CLR 25/09 A3010 RMK AO2=
KLCG 231855Z AUTO 18024G32KT 10SM CLR 29/11 A2930 RMK AO2
     T02910112=
KLXL 231855Z AUTO 13018G24KT 10SM CLR 23/13 A2949 RMK AO2=
KM30 231855Z AUTO 19013G19KT 10SM BKN049 26/12 A2999 RMK AO2
     T02620118=
KMJQ 231855Z AUTO 16021G28KT 10SM CLR 23/11 A2944 RMK AO2=
KMML 231856Z AUTO 15020G29KT 10SM CLR 24/13 A2935 RMK AO2 PK WND
     16033/1837 SLP936 T02390128=
KSGH 231856Z AUTO 18009G15KT 10SM BKN055 24/10 A3012 RMK AO2
     SLP197 T02440100=
PAGA 231856Z AUTO 10SM FEW031 OVC060 M01/M02 A3002 RMK AO2 SLP169
     T10111022 FZRANO $=
K05U 231855Z AUTO 32006KT 10SM 01/M02 A2998 RMK A01 P0005=
K0CO 231855Z AUTO 27015G33KT 1/2SM HZ OVC001 M05/M08 A2961 RMK AO2
     P0003=
K1V6 231855Z AUTO 24007KT 10SM SCT032 SCT049 BKN110 17/03 A2943
     RMK AO2=
K46U 231855Z AUTO 32016G25KT 10SM SCT042 BKN060 BKN075 02/M06
     A2974 RMK A01=
K4V0 231855Z AUTO 23003KT 1SM -SN OVC004 00/00 A2967 RMK AO2
     T00020002=
K5T9 231855Z AUTO 13010G15KT 10SM SCT031 27/20 A2979 RMK A01=
K82V 231855Z AUTO 33022G26KT 10SM CLR 15/M01 A2935 RMK AO2=
KAEJ 231855Z AUTO 17003KT 10SM 06/00 A2953 RMK AO2 T00600004=
KAXH 231855Z AUTO 17007G21KT 10SM SCT060 30/15 A2992 RMK AO2
     T03010147=
KGOO 231850Z AUTO VRB06G13KT 10SM CLR 13/M08 A2996 RMK A01=
KGYB 231855Z AUTO 16010G16KT 10SM SCT044 SCT050 BKN060 28/18 A2988
     RMK AO2 T02830177=
KHRX 231855Z AUTO 21018G27KT 10SM CLR 24/11 A2965 RMK AO2
     T02400105=
