SAPA31 KWBC 232000 RRE
METAR
PGUM 232026Z 11008KT 10SM SCT021 SCT043 27/24 A2982 RMK AO2
     T02720244=
