SAUS70 KWBC 231742 RRC
METAR
KSXK 231735Z AUTO 16022G34KT 10SM CLR 24/13 A2934 RMK AO2=
KVVS 231735Z AUTO 04005KT 10SM CLR 21/02 A3023 RMK AO2
     T02110018=
K2W6 231739Z AUTO 00000KT 10SM BKN021 OVC055 15/12 A3020 RMK
     AO1=
KCGE 231735Z AUTO 36007KT 6SM BR OVC020 16/16 A3017 RMK A01=
KDMW 231735Z AUTO 36006KT 10SM BKN041 OVC050 18/10 A3024 RMK
     AO2=
KFME 231739Z AUTO 03006KT 10SM SCT050 BKN065 17/08 A3024 RMK
     AO1=
KWWR 231735Z AUTO 19024G32KT 10SM CLR 27/11 A2959 RMK AO2=
KX26 231735Z AUTO 02014KT 10SM CLR 26/18 A3009 RMK AO2
     T02640176=
K11R 231735Z AUTO 17014G20KT 10SM SCT047 BKN060 29/17 A2992 RMK
     AO2 T02860173=
K19S 231735Z AUTO 21032G44KT 2 1/2SM HZ CLR 29/03 A2943 RMK AO2
     T02900027=
K20V 231735Z AUTO 00000KT 10SM SCT016 BKN022 OVC075 03/01 A2956
     RMK AO2=
K2J5 231735Z AUTO 33009KT 10SM CLR 24/11 A3018 RMK AO2
     T02410109=
K6I2 231735Z AUTO 19011G14KT 10SM CLR 24/07 A3015 RMK AO2=
K8A0 231735Z AUTO 15005KT 10SM CLR 22/03 A3019 RMK AO2=
KADH 231735Z AUTO 17019G23KT 10SM CLR 26/16 A2980 RMK AO2=
KADT 231735Z AUTO 21032G39KT 10SM CLR 28/00 A2933 RMK AO2
     T02790001=
KAXX 231735Z AUTO 23020G34KT 10SM OVC050 11/M01 A2970 RMK AO2
     T01091011=
KBMT 231735Z AUTO 15011G22KT 10SM BKN039 BKN065 28/17 A2999 RMK
     AO2 T02820172=
KCNI 231735Z AUTO 14006KT 10SM CLR 22/02 A3022 RMK AO2
     T02170025=
KDCY 231735Z AUTO 16015G23KT 10SM CLR 25/12 A3003 RMK AO2
     T02510116=
KDED 231735Z AUTO 33004KT 10SM CLR 26/14 A3011 RMK AO2
     T02650142=
KDUX 231735Z AUTO 20023G42KT 10SM CLR 26/08 A2961 RMK AO2
     T02610077=
KEBS 231735Z AUTO 16025G33KT 10SM CLR 24/14 A2950 RMK AO2=
KETN 231735Z AUTO 19021G26KT 10SM CLR 26/15 A2981 RMK AO2
     T02640152=
KGLE 231735Z AUTO 17021G26KT 10SM CLR 27/15 A2981 RMK AO2
     T02700152=
KGNB 231735Z AUTO 27003KT 10SM SCT014 BKN023 OVC070 03/00 A2957
     RMK AO2 T00280002=
KGNC 231735Z AUTO 22016G24KT 10SM CLR 27/10 A2981 RMK AO2
     T02730097=
KHEQ 231735Z AUTO 24020G25KT 10SM CLR 27/M03 A2923 RMK AO2=
KHVE 231735Z AUTO 31012G15KT 10SM SCT047 OVC095 08/01 A2966 RMK
     AO2=
KHZR 231735Z AUTO 17011G14KT 10SM BKN044 OVC060 27/15 A3008 RMK
     AO2 T02650153=
KJES 231735Z AUTO 00000KT 10SM CLR 21/08 A3017 RMK AO2=
KK62 231735Z AUTO 19008KT 10SM CLR 23/07 A3014 RMK AO2=
KMHP 231735Z AUTO 00000KT 10SM CLR 24/12 A3016 RMK AO2
     T02380116=
KMQW 231735Z AUTO 13003KT 10SM CLR 25/11 A3017 RMK AO2
     T02470112=
KOZA 231735Z AUTO 19021G24KT 10SM CLR 23/15 A2987 RMK AO2=
KPEQ 231735Z AUTO 23020G23KT 10SM CLR 31/08 A2975 RMK AO2
     T03110076=
KPXE 231735Z AUTO 12006KT 10SM CLR 24/09 A3018 RMK AO2
     T02370085=
KRGA 231737Z AUTO 20006KT 10SM CLR 24/07 A3018 RMK AO2=
KT20 231735Z AUTO 17012G19KT 10SM SCT036 SCT043 BKN055 28/19 A2989
     RMK AO2 T02830193=
KTMK 231735Z AUTO 00000KT 10SM CLR 10/08 A3018 RMK AO2=
KTOC 231735Z AUTO 31004KT 10SM CLR 22/01 A3020 RMK AO2
     T02230014=
KUKL 231735Z AUTO 19027G33KT 10SM CLR A2961 RMK AO2=
KULS 231735Z AUTO 22034G49KT 2 1/2SM HZ CLR 27/00 A2940 RMK
     AO2=
KVES 231735Z AUTO 19011G17KT 10SM CLR 23/07 A3012 RMK AO2=
