SAUS70 KWBC 232118 RRH
METAR
KGYB 232115Z AUTO 16015G23KT 10SM SCT048 30/17 A2982 RMK AO2
     T02950174=
KANW 232115Z AUTO 28020G28KT 10SM CLR 21/M01 A2920 RMK AO2
     T02141014=
KARM 232115Z AUTO 16017G20KT 10SM BKN050 BKN065 28/15 A2988 RMK
     AO2 T02820154 TSNO=
KASN 232115Z AUTO 00000KT 10SM CLR 25/04 A3011 RMK AO2
     T02500036=
KATA 232115Z AUTO 16009G18KT 130V190 10SM FEW060 29/14 A2984 RMK
     AO2 SLP004 T02890140 $=
KAVK 232115Z AUTO 19025G36KT 9SM CLR 27/14 A2950 RMK AO2 PWINO=
KAVQ 232115Z AUTO 29010KT 10SM CLR 22/08 A2976 RMK AO2
     T02200079=
KAXH 232115Z AUTO 15009G19KT 10SM CLR 29/14 A2989 RMK AO2
     T02900141=
KAXS 232115Z AUTO 18021G25KT 10SM CLR 31/11 A2960 RMK AO2
     T03100110=
KAZC 232115Z AUTO 33008G18KT 310V030 10SM SCT110 07/M02 A2989 RMK
     AO2=
KBAM 232115Z AUTO 31013G18KT 10SM SCT039 SCT048 BKN055 06/M01
     A3004 RMK AO1=
KBDU 232115Z AUTO 27015G27KT 10SM SCT095 BKN120 16/M05 A2936 RMK
     AO2=
KBGF 232115Z AUTO 18006KT 10SM CLR 23/05 A3009 RMK A01=
KBKD 232115Z AUTO 19016G24KT 7SM CLR 31/14 A2970 RMK AO2
     T03080138=
KBNW 232115Z AUTO 16021G28KT 10SM SCT110 27/14 A2949 RMK AO2=
KBPC 232115Z AUTO 21018G24KT 10SM CLR 26/08 A2953 RMK AO2=
KBTA 232115Z AUTO 17024G35KT 10SM CLR 30/13 A2934 RMK AO2
     T02950127=
KBTN 232115Z AUTO 13024G33KT 10SM CLR 22/11 A2922 RMK AO2=
KBWP 232115Z AUTO 13024G34KT 8SM CLR 23/12 A2929 RMK AO2=
KBXA 232115Z AUTO 17005KT 10SM CLR 28/12 A3005 RMK AO2
     T02770123=
KC07 232115Z AUTO M1/4SM +SN OVC001 M07/M07 A2961 RMK AO2
     P0001=
KC09 232115Z AUTO 18018G27KT 10SM SCT049 25/14 A2981 RMK AO2
     T02520144=
KC83 232115Z AUTO 33019G25KT 10SM CLR 21/M04 A2996 RMK AO2=
KCCY 232115Z AUTO 15020G28KT 10SM FEW043 SCT170 23/13 A2956 RMK
     AO2=
KCKZ 232115Z AUTO 04006KT 10SM OVC043 15/09 A3024 RMK AO2=
KCRX 232115Z AUTO 15010G16KT 10SM CLR 24/06 A3003 RMK AO2=
KCSQ 232115Z AUTO 18028G39KT 9SM FEW060 FEW110 27/14 A2950 RMK
     AO2=
KCVC 232115Z AUTO 00000KT 10SM CLR 23/02 A3014 RMK AO2=
KCWC 232115Z AUTO 18022G31KT 10SM CLR 32/14 A2965 RMK AO2
     T03180135=
KCXE 232115Z AUTO 01005KT 10SM OVC026 19/12 A3015 RMK AO1
     T01920115=
KCXP 232115Z AUTO VRB06G13KT 10SM BKN060 07/M08 A3005 RMK AO2=
KCXU 232115Z AUTO 15003KT 10SM CLR 26/04 A3011 RMK AO1
     T02570036=
KCXW 232115Z AUTO 19016KT 2 1/2SM HZ SCT050 29/14 A2986 RMK A01
     VIS 3/4V5=
KCZL 232115Z AUTO 00000KT 10SM CLR 24/03 A3014 RMK AO2=
KDCM 232115Z AUTO 01003KT 10SM CLR 22/05 A3016 RMK AO2=
KLXY 232115Z AUTO 17016G25KT 10SM BKN060 30/16 A2980 RMK AO2
     T02980156=
KLYO 232115Z AUTO 18035G42KT 1/4SM FG BKN025 OVC033 A2942 RMK
     AO2=
KM02 232115Z AUTO 18009G15KT 10SM 25/04 A3004 RMK A01=
KM04 232110Z AUTO 18008G16KT 150V210 10SM CLR 25/12 A2998 RMK
     A01=
KM08 232115Z AUTO 16009KT 10SM CLR 25/12 A3000 RMK A01=
KM30 232115Z AUTO 19011G16KT 10SM CLR 26/10 A2997 RMK AO2
     T02620100=
KM54 232110Z AUTO 21011KT 10SM CLR 25/07 A3004 RMK A01=
KM75 232115Z AUTO 02018KT 1/2SM BR VV005 00/00 A2968 RMK A01=
KM91 232115Z AUTO 18009G15KT 10SM CLR 25/07 A3004 RMK A01=
KMBT 232115Z AUTO 22007KT 10SM CLR 25/06 A3005 RMK A01=
KMEV 232115Z AUTO 36009KT 10SM SCT060 08/M08 A3004 RMK AO2=
KMHV 232120Z AUTO VRB05KT 10SM CLR 17/M07 A2987 RMK A01=
KMIO 232115Z AUTO 18022G31KT 10SM CLR 29/13 A2965 RMK AO2=
KMMI 232115Z AUTO 25005KT 10SM CLR 24/00 A3013 RMK A01=
KMNE 232115Z AUTO 17007G17KT 140V200 10SM BKN055 28/17 A2991 RMK
     AO2 T02840171=
KMNV 232115Z AUTO 22005KT 10SM 24/01 A3012 RMK A01=
KMNZ 232115Z AUTO 16020G28KT 10SM CLR 30/13 A2977 RMK AO2
     T03000131=
