SAUS70 KWBC 232000 RRM
METAR
KARA 231953Z 15015G23KT 10SM OVC070 27/15 A3001 RMK AO2 SLP161
     T02720150=
KARB 231953Z 16011G20KT 10SM FEW060 24/09 A3007 RMK AO2 SLP181
     T02390094=
KBFI 231953Z 17007KT 10SM BKN015 BKN024 11/07 A3016 RMK AO2 SLP213
     T01060067=
KBHM 231953Z 13007KT 10SM FEW250 24/05 A3013 RMK AO2 SLP199
     T02440050=
KBKE 231953Z AUTO 35014KT 10SM FEW038 07/M02 A3004 RMK AO2 SLP190
     T00721017=
KBKL 231953Z 14008KT 10SM CLR 24/07 A3012 RMK AO2 SLP198
     T02440072=
KBKV 231953Z 04006KT 10SM CLR 29/16 A3007 RMK AO2 SLP181
     T02890156=
KBLI 231953Z 18006KT 10SM CLR 10/08 A3015 RMK AO2 SLP216
     T01000078=
KBOI 231953Z 30016KT 10SM SCT044 SCT075 09/M01 A2997 RMK AO2
     SLP153 T00941011=
KBOW 231950Z 36009KT 10SM FEW035 28/13 A3006=
KBPI 231953Z AUTO 32023G33KT 10SM FEW050 03/M10 A2965 RMK AO2 PK
     WND 34036/1925 SLP022 T00281100=
KBTM 231953Z AUTO 32010KT 10SM FEW018 BKN046 OVC055 01/M03 A2982
     RMK AO2 SNE19 SLP120 P0000 T00061028=
KBUR 231953Z 26008KT 10SM CLR 23/M01 A2984 RMK AO2 SLP094
     T02331011=
KCCR 231953Z VRB05KT 10SM CLR 21/M02 A2999 RMK AO2 SLP141
     T02111022=
KCDC 231953Z AUTO 34007KT 1 1/4SM -SN BR OVC005 M01/M01 A2988 RMK
     AO2 SLP120 T10061011 PNO $=
KCKB 231953Z 00000KT 10SM CLR 24/04 A3017 RMK AO2 SLP209
     T02440039=
KCKI 231955Z AUTO 05005KT 10SM CLR 23/03 A3013 RMK AO2=
KCLM 231953Z AUTO VRB05KT 10SM CLR 11/06 A3015 RMK AO2 SLP212
     T01060056=
KCNO 231953Z 23006KT 10SM SCT040 22/08 A2986 RMK AO2 SLP107
     T02170083=
KDET 231953Z 16011G18KT 8SM CLR 25/09 A3010 RMK AO2 SLP189
     T02500094=
KMAE 231953Z AUTO 32016KT 10SM CLR 19/M01 A2993 RMK AO2 SLP133
     T01941006=
KMBS 231953Z 18014G24KT 10SM CLR 23/10 A3005 RMK AO2 PK WND
     17030/1924 SLP175 T02330100=
KMCE 231953Z AUTO 33018G27KT 10SM CLR 20/M01 A2993 RMK AO2 PK WND
     32028/1940 SLP133 T02001011=
KMCO 231953Z VRB05KT 10SM FEW050 29/13 A3006 RMK AO2 SLP176
     T02890133 $=
KMFE 231953Z 15020G29KT 10SM CLR 32/18 A2977 RMK AO2 PK WND
     15034/1912 SLP080 T03220178 $=
KMFR 231953Z VRB03KT 10SM FEW039 12/02 A3019 RMK AO2 SLP224
     T01220022=
KMIA 231953Z 05010G16KT 10SM SCT046 SCT055 28/18 A3001 RMK AO2
     SLP163 T02830178 $=
KMLS 231953Z AUTO 31017KT 10SM -RA OVC014 04/03 A2950 RMK AO2
     SLP997 P0005 T00440028=
KMOD 231953Z 32016KT 10SM CLR 19/M01 A2995 RMK AO2 SLP140
     T01891011 $=
KMTH 231953Z AUTO 05012KT 10SM CLR 29/19 A2999 RMK AO2 SLP156
     T02890194 $=
KMYF 231953Z 22007KT 10SM CLR 19/09 A2986 RMK AO2 SLP108
     T01890089=
KMYV 231953Z AUTO 34017G23KT 10SM CLR 21/M03 A2998 RMK AO2 SLP156
     T02111028 $=
KOAK 231953Z 31014G20KT 10SM CLR 20/02 A2999 RMK AO2 SLP156
     T02000022=
KOGD 231953Z 33016G25KT 10SM FEW028 SCT036 OVC090 08/M02 A2980 RMK
     AO2 SLP079 T00781017=
KOIN 231955Z AUTO 23023G34KT 10SM SCT045 30/03 A2929 RMK AO1
     T03020030=
KOLF 231953Z AUTO 05011KT BKN006 OVC010 04/04 A2954 RMK AO2
     RAE00B09E42 SLP016 P0000 T00440039=
KOMK 231953Z AUTO 02010KT 10SM CLR 13/M02 A3004 RMK AO2 SLP179
     T01331022=
KONO 231953Z AUTO 32016G23KT 10SM CLR 13/M02 A3002 RMK AO2 SLP170
     T01281022=
KONT 231953Z 00000KT 10SM FEW026 BKN034 19/09 A2985 RMK AO2 SLP100
     T01940094 $=
KOPF 231953Z 04013KT 10SM CLR 29/17 A3001 RMK AO2 SLP164
     T02890172=
KORL 231953Z 03006KT 10SM CLR 29/14 A3006 RMK AO2 SLP182
     T02890139=
KOVE 231953Z AUTO 31008KT 10SM CLR 21/M03 A3001 RMK AO2 SLP161
     T02111028=
KPAE 231953Z 20004KT 10SM BKN005 BKN016 OVC038 11/06 A3015 RMK AO2
     SLP211 T01060056=
