SAUS70 KWBC 232100 RRG
METAR
KODO 232053Z AUTO 17016G26KT 10SM CLR 29/12 A2969 RMK AO2 PK WND
     20028/2022 SLP007 T02890117 56031 $=
KOGB 232053Z AUTO 31007KT 10SM CLR 24/08 A3013 RMK AO2 SLP202
     T02390083 55010=
KOJC 232053Z 17023G32KT 10SM CLR 27/14 A2956 RMK AO2 PK WND
     19034/2037 SLP999 T02720144 55013=
KONT 232053Z VRB06KT 10SM FEW033 SCT042 BKN050 20/09 A2983 RMK AO2
     SLP095 T02000089 58012 $=
KOSH 232053Z 13012KT 10SM CLR 21/13 A2978 RMK AO2 PK WND
     12026/2021 SLP078 T02110128 56015=
KOSU 232053Z 15011KT 10SM CLR 24/06 A3010 RMK AO2 SLP189 T02440061
     56017=
KOVS 232053Z AUTO 15008G18KT 120V190 10SM CLR 25/13 A2967 RMK AO2
     SLP045 T02500133 56019 $=
KOWA 232053Z AUTO 14015G32KT 10SM CLR 24/13 A2950 RMK AO2=
KOWD 232053Z 03003KT 10SM -RA OVC110 13/11 A3033 RMK AO2 SLP270
     P0002 60003 T01330106 55003=
KPAH 232053Z 20009G22KT 170V240 10SM CLR 27/11 A2995 RMK AO2 PK
     WND 18026/1958 SLP139 T02670106 56018=
KPBI 232053Z 03011KT 10SM SCT043 28/19 A3004 RMK AO2 SLP172
     T02780189 55007 $=
KPKB 232053Z 00000KT 10SM CLR 25/07 A3014 RMK AO2 SLP204 T02500072
     56018=
KPMD 232053Z AUTO 29007G18KT 10SM CLR 17/M04 A2989 RMK AO2 SLP106
     T01721044 58008=
KPNS 232053Z 15006KT 10SM CLR 25/09 A3009 RMK AO2 SLP190 T02500094
     56021=
KPSP 232053Z 30008KT 10SM CLR 25/01 A2978 RMK AO2 SLP082 T02500006
     58012 $=
KPUB 232053Z 24012G23KT 10SM CLR 22/M01 A2940 RMK AO2 PK WND
     20029/1957 SLP891 T02171006 50002=
KPWA 232053Z 17022G31KT 10SM CLR 27/15 A2963 RMK AO2 PK WND
     18031/2045 SLP017 T02720150 56015=
KRAC 232053Z AUTO 17012G23KT 10SM FEW120 19/13 A2984 RMK AO2
     SLP103 T01940128 56022=
KRAL 232053Z 10SM CLR 21/07 A2983 RMK AO2 SLP087 T02110072 58012
     $=
KRBD 232053Z AUTO 18021G35KT 10SM CLR 29/16 A2975 RMK AO2 PK WND
     16039/2032 SLP067 T02890156 56028=
KRIL 232053Z AUTO 26009G14KT 1/2SM SN FG VV008 01/M01 A2968 RMK
     AO2 PK WND 28030/1954 SLP038 P0004 60005 T00061006 53025=
KRME 232053Z 11004KT 10SM CLR 17/04 A3029 RMK AO2 SLP256 T01670039
     57005=
KRSW 232053Z 10011G17KT 10SM SCT060 29/16 A3002 RMK AO2 SLP162
     T02940161 56012=
KRTN 232053Z AUTO 26025G45KT 10SM CLR 17/00 A2955 RMK AO2 PK WND
     23047/1957 SLP937 T01720000 53004=
KRWL 232053Z AUTO 26007KT 9SM FEW010 BKN030 OVC039 01/M02 A2958
     RMK AO2 SNB07E52 SLP010 P0000 60000 T00111017 53012=
KSAF 232053Z 29019G29KT 10SM FEW038 OVC080 12/03 A2972 RMK AO2 PK
     WND 29034/1954 RAE08B27E45 SLP991 P0000 60000 T01170028
     53004=
KSBM 232053Z AUTO 15011G20KT 10SM CLR 19/13 A2984 RMK AO2 PK WND
     16029/2015 SLP103 T01940128 56020=
KSDL 232053Z 23011G19KT 10SM BKN070 24/06 A2974 RMK AO2 SLP050
     T02390061 58018=
KSFB 232053Z 07010KT 10SM CLR 27/16 A3007 RMK AO2 SLP180 T02670156
     55009=
KSLN 232053Z 17030G50KT 2 1/2SM BLDU CLR 30/13 A2939 RMK AO2 PK
     WND 17050/2053 VIS 2V3 SLP936 T03000128 56022=
KSNY 232053Z AUTO 33023G28KT 10SM CLR 17/02 A2934 RMK AO2 PK WND
     34029/2043 SLP912 T01670017 53016=
KSSI 232053Z AUTO 08010KT 10SM CLR 23/14 A3013 RMK AO2 SLP204
     T02280144 55004=
KSTJ 232053Z 17014KT 10SM VCTS SCT120 23/17 A2950 RMK AO2 PK WND
     22043/2013 WSHFT 2015 LTG DSNT N AND E RAB15E37 TSB10E32
     SLP982 P0002 60002 T02330172 56010=
PAPB 232053Z AUTO 24023G36KT 8SM FEW027 SCT037 07/ A2985 RMK AO2
     PK WND 25038/2034 SLP096 60000 T0067 53008 TSNO $=
PASC 232053Z 10010KT 10SM OVC035 M08/M10 A3001 RMK AO2 SLP164
     6//// I3000 T10831100 53000 PNO $=
PASO 232053Z AUTO 36006KT 10SM CLR 04/M02 A2992 RMK AO2 SLP132
     T00441017 53007 TSNO=
