SAUS70 KWBC 231808
METAR
K1S5 231815Z AUTO 26006KT 10SM CLR 09/02 A3009 RMK AO2
     T00940024=
KCPF 231815Z AUTO 00000KT 10SM CLR 23/05 A3019 RMK AO2=
KEMV 231815Z AUTO 32008KT 10SM OVC017 17/12 A3017 RMK AO2
     T01690122=
KFFA 231815Z AUTO 31007KT 1SM RA OVC005 16/16 A3005 RMK AO2 P0001
     T01610161=
KMCJ 231815Z AUTO 19014G27KT 160V230 10SM SCT060 28/13 A2993 RMK
     A01=
KSUW 231815Z AUTO 06009KT 10SM BKN075 14/09 A2969 RMK AO2
     T01360092=
KTFP 231735Z AUTO 17017G22KT 10SM SCT025 29/22 A2989 RMK AO2
     T02940218=
