SAUS70 KWBC 231910
METAR
KDLL 231915Z AUTO 15014G24KT 10SM CLR 22/12 A2975 RMK AO2
     T02180116=
KEVM 231901Z AUTO 14011G16KT 10SM SCT100 21/11 A2966 RMK AO2=
KEZS 231915Z AUTO 13013G18KT 10SM CLR 23/14 A2982 RMK AO2
     T02300140=
KGAF 231915Z AUTO 06011G19KT 9SM CLR 17/08 A2947 RMK AO2=
K1A5 231915Z AUTO 00000KT 10SM CLR 24/M06 A3019 RMK AO2
     T02361059=
KEFT 231915Z AUTO 16016G26KT 10SM CLR 23/13 A2976 RMK AO2
     T02320125=
KHNZ 231915Z AUTO 03007KT 10SM BKN029 19/09 A3016 RMK AO2
     T01890086=
KJXI 231915Z AUTO 18013G23KT 10SM SCT048 28/14 A2988 RMK AO2
     T02810139=
KPDC 231915Z AUTO 13013G21KT 10SM CLR 24/12 A2966 RMK AO2
     T02420117=
KW31 231915Z AUTO 34007KT 320V020 10SM OVC024 18/10 A3016 RMK AO1
     T01780101=
KW96 231915Z AUTO 33003KT 10SM OVC007 14/13 A3017 RMK AO1
     T01370130=
KBNL 231915Z AUTO 02004KT 10SM CLR 25/09 A3014 RMK AO2=
KC62 231935Z AUTO 19014G21KT 10SM SCT050 22/12 A3004 RMK AO2
     T02270122=
KETB 231915Z AUTO 14011G17KT 10SM CLR 20/12 A2984 RMK AO2=
KLHZ 231915Z AUTO 35009KT 10SM OVC025 19/11 A3016 RMK AO2=
KRRL 231915Z AUTO 15014G21KT 10SM SCT040 22/13 A2976 RMK AO2
     T02230127 TSNO=
KUNU 231915Z AUTO 13016G20KT 10SM CLR 23/13 A2981 RMK AO2
     T02260129=
