SAHA31 KWBC 231930 RRA
METAR
MTPP 231953Z 29007KT 270V330 9999 SCT027 31/22 Q1010 A2982=
