SAUS70 KWBC 231900 RRX
METAR
KEFK 231855Z AUTO 02004KT 10SM CLR 19/06 A3032 RMK AO2
     T01860061=
KFKL 231856Z AUTO 09007KT 10SM CLR 21/03 A3022 RMK AO2 SLP233
     T02110028=
KHSI 231853Z AUTO 20023G40KT 10SM CLR 30/09 A2928 RMK AO2 PK WND
     19040/1853 SLP898 T03000089 $=
KI67 231855Z AUTO 18010G15KT 140V210 10SM CLR 25/08 A3008 RMK
     AO1=
KIDI 231855Z AUTO 10005G10KT 10SM CLR 21/03 A3026 RMK A01=
KLGA 231851Z COR 06010KT 10SM BKN045 BKN065 BKN120 OVC250 17/07
     A3025 RMK AO2 RAE1757 SLPNO P0000 T01670072 $=
KSQI 231856Z AUTO 15009G17KT 110V190 10SM CLR 23/14 A2977 RMK AO2
     SLP947 T02330144=
KTOB 231855Z AUTO 14023G31KT 10SM CLR 23/12 A2956 RMK AO2=
KVLL 231855Z AUTO 17010G15KT 10SM CLR 24/10 A3013 RMK AO2
     T02390101=
KVWU 231855Z AUTO 13013G22KT 10SM CLR 25/12 A2954 RMK AO2=
KY50 231856Z AUTO 13013G19KT 10SM CLR 23/13 A2978 RMK AO2 SLP076
     T02280128 $=
KCVX 231855Z AUTO 18012G21KT 10SM CLR 23/12 A2997 RMK AO2
     T02340116=
KESC 231856Z AUTO 15011KT 10SM CLR 16/11 A2993 RMK AO2 SLP138
     T01610111 PNO $=
KLNL 231855Z AUTO 15012G20KT 10SM SCT040 21/11 A2981 RMK AO2
     T02140105=
KMGN 231855Z AUTO 19007G15KT 10SM SCT060 23/11 A2999 RMK AO2
     T02400112=
KORB 231855Z AUTO 13006G14KT 10SM CLR 23/11 A2961 RMK AO2=
KROX 231855Z AUTO 07020KT 10SM CLR 16/08 A2954 RMK AO2=
KSUE 231856Z AUTO 17018G27KT 10SM CLR 17/12 A2989 RMK AO2 PK WND
     17027/1851 SLP119 T01670117=
KTTF 231855Z AUTO 14010KT 120V180 10SM SCT060 23/10 A3010 RMK AO2
     T02310101=
KUGN 231855Z 16012KT 10SM CLR 21/13 A2985 RMK AO2 SLP101
     T02060128=
KULM 231855Z AUTO 15021G28KT 10SM CLR 24/11 A2944 RMK AO2=
KWVL 231856Z AUTO 00000KT 10SM CLR 17/08 A3034 RMK AO2 SLP301
     T01670083=
KWWD 231856Z AUTO 04015G20KT 6SM -RA BR 16/15 A3015 RMK AO2 SLP213
     P0000 T01560150 $=
KY70 231855Z AUTO 16015G23KT 10SM CLR 24/09 A3002 RMK AO2
     T02410089=
KBFL 231854Z 28005KT 10SM CLR 16/02 A2996 RMK AO2 SLP143
     T01610017=
KCMR 231855Z AUTO 27013G20KT 10SM SCT048 07/M04 A2986 RMK AO2=
KCPT 231855Z AUTO 17023G34KT 10SM CLR 28/15 A2980 RMK A01=
KDLN 231853Z AUTO 24005KT 10SM FEW020 FEW046 OVC055 01/M02 A2979
     RMK AO2 SNB1754E14 SLP105 P0000 T00061022=
KEUG 231854Z 00000KT 10SM FEW027 13/06 A3020 RMK AO2 SLP226
     T01330056 $=
KGCN 231854Z 26007G20KT 240V300 10SM BKN044 06/M04 A2983 RMK AO2
     SLP054 T00561039=
KGGW 231853Z AUTO 31005KT 1 1/4SM -SN BR SCT007 OVC012 01/00 A2957
     RMK AO2 RAE1756SNB1756 SLP032 P0010 T00110000=
KHWD 231854Z 06004KT 10SM CLR 18/02 A3000 RMK AO2 SLP168
     T01830017=
KL08 231855Z AUTO 12005KT 10SM CLR 23/M00 A2980 RMK AO2=
KL52 231855Z AUTO 35009KT 9SM CLR 21/04 A2993 RMK A01=
KLRU 231855Z AUTO 24022G32KT 10SM SCT055 SCT075 SCT090 23/07 A2981
     RMK AO2 T02330069=
KLWT 231854Z AUTO 29016G24KT 1SM -SN BR OVC003 M01/M02 A2969 RMK
     AO2 UPB21E27SNE21B27 SLP077 P0000 T10061017 $=
KMAN 231855Z AUTO 33014KT 10SM CLR 08/M01 A3001 RMK A01=
KMFR 231853Z COR VRB03KT 10SM SCT029 SCT034 BKN044 11/04 A3019 RMK
     AO2 SLP225 T01110039=
KRKS 231854Z AUTO 28014G22KT 10SM FEW055 OVC095 01/M04 A2962 RMK
     AO2 SLP038 T00061039=
KSVC 231855Z AUTO 25017G23KT 10SM SCT055 19/04 A2986 RMK AO2
     T01870043=
KTAD 231854Z AUTO 23024G37KT 10SM FEW100 21/M03 A2947 RMK AO2 PK
     WND 20049/1755 SLP901 T02061028=
KTSP 231855Z AUTO 31011KT 9SM CLR 11/M01 A2996 RMK AO2=
K5H4 231855Z AUTO 06018G24KT 10SM CLR 13/00 A2939 RMK AO2=
KAUW 231854Z AUTO 13020G28KT 10SM CLR 23/12 A2975 RMK AO2 PK WND
     14030/1839 SLPNO T02330117 $=
KBAC 231855Z AUTO 09016G21KT 10SM CLR 20/11 A2935 RMK AO2=
