SAUS70 KWBC 231838 RRI
METAR
KVCV 231835Z AUTO 28011G17KT 10SM CLR 15/M04 A2992 RMK AO2=
KXLL 231835Z AUTO 04008KT 10SM CLR 16/09 A3026 RMK AO2=
PAAD 231835Z AUTO 10009KT 10SM OVC003 M08/M09 A3003 RMK AO2
     T10811090=
PAUT 231835Z AUTO 21005KT 10SM BKN070 OVC085 06/02 A3021 RMK
     AO2=
KHSB 231835Z AUTO 18015G22KT 10SM BKN049 25/17 A2998 RMK AO2
     T02500165=
KHSD 231835Z AUTO 18019G30KT 10SM 26/16 A2964 RMK A01=
KHVS 231835Z AUTO 01006KT 10SM CLR 22/06 A3016 RMK AO2=
KHZD 231820Z AUTO 17015G21KT 10SM CLR 25/09 A3004 RMK A01=
KHZX 231835Z AUTO 09011G16KT 10SM CLR 22/12 A2959 RMK AO2=
KI35 231835Z AUTO 00000KT 10SM CLR 23/04 A3018 RMK AO2
     T02270044=
KI67 231835Z AUTO 21009KT 10SM CLR 25/08 A3010 RMK AO1=
KIER 231835Z AUTO 18012G17KT 10SM SCT050 BKN055 29/15 A2998 RMK
     AO2 T02860152=
KIFA 231835Z AUTO 15021G27KT 10SM CLR 24/14 A2956 RMK AO2
     T02420143=
KIGQ 231835Z AUTO 18023G28KT 10SM CLR 25/14 A2990 RMK AO2
     T02520135=
KINJ 231835Z AUTO 19023G29KT 10SM OVC044 29/17 A2983 RMK AO2
     T02860165=
KJAU 231820Z AUTO VRB04KT 10SM CLR 22/05 A3022 RMK A01=
KJPX 231835Z AUTO 04007KT 7SM -RA BKN011 BKN017 OVC060 14/14 A3025
     RMK AO2 P0032 T01350135=
KJTC 231830Z AUTO 24024G33KT 10SM FEW035 SCT041 BKN048 15/03 A2982
     RMK AO2=
KJWG 231835Z AUTO 18020G28KT 10SM CLR 26/14 A2965 RMK AO2
     T02620138=
KJWY 231835Z AUTO 18016G27KT 10SM BKN046 28/16 A2985 RMK AO2
     T02830161=
KJYL 231835Z AUTO 01006KT 10SM CLR 25/10 A3016 RMK AO2
     T02500102=
KK70 231835Z AUTO 05007G14KT 10SM CLR 29/21 A3001 RMK AO2=
KLCG 231835Z AUTO 18023G31KT 10SM CLR 29/11 A2931 RMK AO2
     T02870110=
KLNA 231835Z AUTO 02008G14KT 10SM CLR 28/19 A3005 RMK AO2
     T02790187 PNO=
KLNC 231835Z AUTO 15023G29KT 10SM BKN049 28/15 A2984 RMK AO2
     T02780151=
KLNQ 231835Z AUTO 10006KT 10SM CLR 29/12 A3010 RMK AO2
     T02850115=
KLUA 231835Z AUTO 06004KT 10SM OVC031 18/08 A3023 RMK AO2=
KLXY 231835Z AUTO 17017G26KT 10SM SCT047 SCT060 30/17 A2987 RMK
     AO2 T02990169=
KLYO 231835Z AUTO 17027G35KT 2SM HZ SCT019 SCT030 29/12 A2943 RMK
     AO2 VIS 1 1/2V4=
KM02 231820Z AUTO 20017KT 10SM 25/06 A3008 RMK A01=
KM08 231820Z AUTO 15009G15KT 10SM FEW041 25/13 A3005 RMK A01=
KM30 231835Z AUTO 19012G19KT 10SM SCT049 27/12 A3000 RMK AO2
     T02660121=
KM54 231815Z AUTO 19009KT 160V220 10SM CLR 25/07 A3010 RMK A01=
KM75 231835Z AUTO 01014KT 2SM BR CLR 01/01 A2963 RMK A01=
KM91 231820Z AUTO 19009G15KT 10SM CLR 24/09 A3009 RMK A01=
KMEV 231835Z AUTO 32006KT 10SM CLR 06/M03 A3004 RMK AO2=
KMHV 231840Z AUTO 27014G21KT 10SM CLR 16/M04 A2988 RMK A01=
KMIO 231835Z AUTO 17027G34KT 7SM CLR 28/14 A2969 RMK AO2=
KMMI 231820Z AUTO 00000KT 10SM CLR 23/01 A3019 RMK A01=
KMNE 231835Z AUTO 15009G16KT 10SM BKN050 28/17 A2997 RMK AO2
     T02800171=
KMNV 231820Z AUTO VRB03KT 10SM 23/03 A3018 RMK A01=
KMNZ 231835Z AUTO 19019G26KT 10SM CLR 28/15 A2984 RMK AO2
     T02840148=
KMOR 231820Z AUTO 29006KT 10SM CLR 21/04 A3018 RMK A01=
KMOX 231835Z AUTO 13026G32KT 10SM CLR 23/09 A2939 RMK AO2=
KMRC 231815Z AUTO 21011G18KT 10SM CLR 24/07 A3010 RMK A01=
KMUT 231835Z AUTO 16018G29KT 10SM CLR 25/14 A2970 RMK AO2=
KMVH 231835Z AUTO 30019G26KT 2 1/2SM HZ CLR 00/M02 A2962 RMK AO2
     PWINO=
KO69 231835Z AUTO 33009G14KT 10SM CLR 18/01 A3001 RMK A01=
KOEL 231835Z AUTO 23027G37KT 5SM HZ CLR 29/M03 A2930 RMK AO1
     T02941035=
KOEO 231835Z AUTO 11022G25KT 10SM CLR 24/15 A2960 RMK AO2
     T02380153=
KOJA 231835Z AUTO 19017G30KT 10SM CLR 26/13 A2964 RMK AO2
     T02600134=
KONX 231835Z AUTO 36010G16KT 10SM OVC006 17/17 A3007 RMK AO2
     T01650165=
