SAUS70 KWBC 231938 RRC
METAR
KCLS 231935Z AUTO VRB04KT 10SM SCT025 12/06 A3016 RMK AO2=
KCMR 231935Z AUTO 28013G19KT 10SM BKN050 BKN060 08/M04 A2985 RMK
     AO2=
KCNB 231935Z AUTO 10024G31KT 10SM CLR 25/11 A2933 RMK AO2
     T02470113=
KCPT 231935Z AUTO 17026G31KT 10SM CLR 29/15 A2978 RMK A01=
KCTZ 231935Z AUTO 35005KT 10SM CLR 23/10 A3011 RMK AO2
     T02280101=
KCVX 231935Z AUTO 16015G18KT 10SM CLR 23/12 A2996 RMK AO2
     T02330115=
KCXE 231935Z AUTO 03005KT 10SM OVC028 20/11 A3017 RMK AO1
     T01950112=
KD57 231935Z AUTO 05011G19KT 10SM CLR 14/04 A2929 RMK AO2=
KD60 231935Z AUTO 04018KT 10SM OVC009 05/05 A2946 RMK AO2=
KD95 231935Z AUTO 16012G18KT 10SM CLR 24/05 A3010 RMK AO2
     T02440045=
KDNA 231935Z AUTO 26022G29KT 10SM CLR 24/08 A2978 RMK AO2=
KDNN 231935Z AUTO 28003KT 9SM CLR 23/03 A3015 RMK AO2
     T02300026=
KDRI 231935Z AUTO 17013KT 9SM FEW048 BKN070 29/17 A2997 RMK AO2
     T02920174 $=
KDTL 231935Z AUTO 13016G28KT 10SM CLR 23/12 A2940 RMK AO2=
KDUH 231935Z AUTO 16007G17KT 10SM CLR 24/06 A3008 RMK AO2
     T02380063=
KDYB 231935Z AUTO 01007KT 10SM CLR 24/10 A3012 RMK AO2=
KDYT 231935Z AUTO 07008G20KT 050V120 10SM CLR 13/10 A2963 RMK
     AO2=
KEFK 231935Z AUTO 36003KT 10SM CLR 18/07 A3032 RMK AO2
     T01830068=
KPLR 231935Z AUTO 00000KT 10SM CLR 25/05 A3013 RMK A01=
KPNM 231935Z AUTO 14014G22KT 10SM CLR 24/13 A2952 RMK AO2 TSNO=
KPVB 231935Z AUTO 15017G21KT 10SM CLR 24/12 A2971 RMK AO1
     T02410123=
KPVF 231935Z AUTO 30005KT 10SM CLR 13/M05 A2997 RMK AO1=
KRCE 231935Z AUTO 18030KT 10SM CLR 26/15 A2963 RMK AO2=
KRCM 231935Z AUTO 19019G31KT 10SM CLR 30/12 A2961 RMK AO2 LTG DSNT
     SW=
KRMN 231935Z AUTO 01004KT 10SM SCT029 OVC044 20/12 A3022 RMK AO2
     T01950117=
KRMY 231935Z AUTO 18012G20KT 10SM BKN055 24/10 A3003 RMK AO2
     T02390102=
KRNH 231935Z AUTO 14017G25KT 10SM CLR 24/16 A2957 RMK AO2
     T02370163=
KRNP 231935Z AUTO 15015G21KT 10SM CLR 24/08 A3005 RMK AO2
     T02410079=
KRPH 231935Z AUTO 15014G23KT 10SM CLR 30/15 A2968 RMK AO2
     T03010148 $=
KRQB 231935Z AUTO 18016G27KT 10SM BKN055 BKN070 24/11 A2998 RMK
     AO2 T02350110=
KRUG 231935Z AUTO 05019G25KT 10SM CLR 11/07 A2940 RMK AO2=
KRUQ 231935Z AUTO 35008KT 10SM CLR 21/05 A3016 RMK AO2
     T02120053=
KRVL 231935Z AUTO 00000KT 4SM HZ BKN027 OVC031 17/08 A3025 RMK
     AO2=
KRYV 231935Z AUTO 15013G23KT 10SM SCT043 23/12 A2979 RMK AO2
     T02280117=
KRZL 231935Z AUTO 17016G26KT 10SM CLR 26/11 A2994 RMK AO2=
KRZN 231935Z AUTO 14011G24KT 10SM CLR 23/12 A2959 RMK AO2
     T02310116=
KRZT 231935Z AUTO 12009KT 10SM CLR 24/03 A3012 RMK AO2 PWINO=
KS25 231935Z AUTO 05014KT 10SM OVC014 07/07 A2943 RMK AO2=
KS32 231935Z AUTO 09020G25KT 10SM CLR 20/09 A2936 RMK AO2 TSNO=
KSCR 231935Z AUTO 01005KT 10SM CLR 21/05 A3016 RMK AO2
     T02100047=
KSFQ 231935Z AUTO 33005KT 5SM -RA OVC005 15/15 A3010 RMK AO2 P0004
     T01510150=
KSIF 231935Z AUTO 03004KT 10SM CLR 21/04 A3018 RMK AO2
     T02120036=
KSIK 231935Z AUTO 17013G19KT 10SM SCT048 SCT060 26/15 A2995 RMK
     AO2=
KSJX 231935Z AUTO 16010G14KT 10SM CLR 24/11 A2996 RMK AO2
     T02430109=
KSLH 231935Z AUTO 16009G15KT 10SM SCT060 23/11 A2999 RMK AO2=
KSPF 231935Z AUTO 30018G29KT 10SM OVC015 05/01 A2938 RMK AO2=
KSTF 231935Z AUTO 20008G16KT 10SM CLR 26/09 A3005 RMK AO2=
KSUZ 231935Z AUTO 20013G23KT 9SM SCT048 28/15 A2990 RMK A01=
KSVC 231935Z AUTO 25015G23KT 10SM CLR 19/03 A2985 RMK AO2
     T01870032=
KSVH 231935Z AUTO 05005KT 10SM CLR 22/05 A3016 RMK AO2
     T02200046=
KSXU 231935Z AUTO 21022G31KT 10SM SCT095 24/00 A2961 RMK AO2
     T02381001=
