SAUS70 KWBC 231800 RRJ
METAR
KTPA 231753Z VRB06KT 10SM FEW048 29/15 A3009 RMK AO2 SLP187
     T02890150 10289 20172 58019=
KTRL 231753Z AUTO 18025G34KT 10SM BKN044 28/16 A2987 RMK AO2 PK
     WND 19034/1753 SLP109 T02830156 10283 20200 58007=
KTTN 231753Z 05010KT 10SM OVC045 17/11 A3024 RMK AO2 RAB02E13
     SLP234 P0000 60000 T01670106 10172 20128 58005=
KTUL 231753Z 17019G34KT 10SM SCT110 BKN250 27/16 A2971 RMK AO2 PK
     WND 16036/1707 SLP053 T02670156 10272 20206 58010=
KTXK 231753Z 20015G26KT 10SM BKN042 27/16 A2994 RMK AO2 PK WND
     20026/1750 SLP135 T02720161 10272 20189 58011=
KTYR 231753Z 17019G28KT 10SM SCT044 29/17 A2991 RMK AO2 PK WND
     19031/1722 SLP119 T02890167 10289 20194 58005=
KUTS 231753Z AUTO 18012G26KT 10SM BKN060 29/15 A2994 RMK AO2 PK
     WND 18027/1731 SLP133 T02890150 10289 20206 57009=
KUUU 231753Z AUTO 04006KT 7SM -RA BKN110 14/12 A3028 RMK AO2
     RAB1659 SLP254 P0001 60001 T01440122 10150 20122 58013=
KVEL 231753Z AUTO 16012KT 4SM -SN BR BKN033 OVC043 02/M01 A2964
     RMK AO2 SNB09E18B46 SLP029 P0000 60003 T00171006 10028 20006
     53016=
KVLD 231753Z VRB05KT 10SM CLR 26/11 A3014 RMK AO2 SLP213 T02560106
     10261 20050 58017 $=
KVRB 231753Z 36013G20KT 10SM FEW030 28/18 A3009 RMK AO2 SLP188
     T02780178 10283 20194 58010=
KWRL 231753Z AUTO 32017KT 10SM SCT014 OVC035 02/01 A2960 RMK AO2
     PK WND 33026/1737 UPB15E37 SLP028 P0000 60010 T00220006 10039
     20017 53013=
KWST 231753Z AUTO 04005KT 10SM -RA BKN110 14/11 A3028 RMK AO2
     RAB22 SLP252 P0000 60000 T01390106 10156 20106 58013=
KYIP 231753Z 16013KT 10SM CLR 24/10 A3012 RMK AO2 SLP194 T02440100
     10250 20072 58014=
KZZV 231753Z AUTO 00000KT 10SM CLR 23/10 A3018 RMK AO2 SLP218
     T02280100 10233 20072 58014=
PAAQ 231753Z 07004KT 10SM CLR M04/M06 A2984 RMK AO2 SLP110 I6001
     T10391056 11028 21050 51010=
PAKW 231753Z AUTO 15008KT 120V210 3SM RA BKN035 OVC045 08/05 A2937
     RMK AO2 PK WND 14031/1658 SLP946 P0006 60031 T00780050 10083
     20067 56050 TSNO $=
PAPB 231753Z AUTO 20028G37KT 2 1/2SM -RA OVC005 07/ A2983 RMK AO2
     PK WND 19037/1700 CIG 003V008 SLP088 P0001 60008 T0067 10067
     20056 56049 TSNO $=
KBDE 231753Z AUTO 09009KT 10SM CLR 19/09 A2960 RMK AO2 SLP026
     T01890089 10189 20056 58012=
KBFI 231753Z 14005KT 10SM SCT006 BKN008 BKN015 09/08 A3015 RMK AO2
     SLP208 T00940078 10094 20056 53019=
KBHM 231753Z 17006KT 10SM FEW250 23/04 A3020 RMK AO2 SLP221
     T02330044 10233 20094 58013=
KBKE 231753Z AUTO 34015G24KT 10SM FEW032 05/M02 A3002 RMK AO2
     SLP182 T00501017 10056 21033 51021=
KBLI 231753Z 00000KT 10SM OVC042 09/09 A3013 RMK AO2 SLP209
     T00890089 10089 20011 53018=
KBNA 231753Z 21011G17KT 10SM FEW250 25/07 A3014 RMK AO2 SLP201
     T02500067 10250 20128 58016 $=
KBPK 231753Z AUTO 23016G24KT 10SM FEW034 25/15 A2988 RMK AO2
     SLP108 T02500150 10256 20189 58006=
KBRD 231753Z AUTO 10008G18KT 060V130 10SM CLR 21/11 A2956 RMK AO2
     SLP008 T02060111 10217 20117 58017=
KBRL 231753Z AUTO 18019G27KT 10SM CLR 22/13 A2974 RMK AO2 PK WND
     19029/1711 SLP065 T02220133 10233 20161 58015=
KBRO 231753Z 15019G32KT 10SM CLR 33/19 A2985 RMK AO2 PK WND
     16033/1717 SLP107 T03280189 10328 20211 58012=
KBUR 231753Z 28009G17KT 10SM CLR 22/M01 A2985 RMK AO2 SLP097
     T02171006 10217 20144 50009=
KBWG 231753Z AUTO 18011KT 10SM CLR 26/07 A3012 RMK AO2 SLP193
     T02560072 10256 20089 58017=
KC29 231755Z AUTO 15016G20KT 10SM CLR 23/12 A2980 RMK AO1
     T02300122 10230 20153=
KCCR 231753Z 31007KT 10SM CLR 17/01 A3001 RMK AO2 SLP149 T01720011
     10172 20067 51014=
