SAUS70 KWBC 232124
METAR
KOAR 232115Z AUTO 28013KT 10SM CLR M05/M20 A2997 RMK AO2=
KOSC 232115Z AUTO 11006KT 10SM CLR 19/12 A3006 RMK AO2
     T01930115=
KANK 232110Z AUTO 27015G22KT 10SM SCT110 07/M06 A2966 RMK AO1
     T00731060=
KBMC 232110Z AUTO 10SM SCT044 SCT050 OVC065 06/M04 A2987 RMK AO1
     T00631045=
KCHK 232110Z AUTO 18017G27KT 10SM CLR 28/15 A2961 RMK AO2
     T02850150=
KCPC 232115Z AUTO 36004KT 10SM CLR 22/03 A3011 RMK AO2
     T02240027=
KDUB 232114Z AUTO 32013G20KT 10SM SCT029 BKN043 OVC050 00/M07
     A2963 RMK AO2=
KEAN 232110Z AUTO 34015G23KT 10SM OVC048 08/00 A2946 RMK AO2
     T00750000=
KGLE 232115Z AUTO 18017G25KT 10SM CLR 29/14 A2975 RMK AO2
     T02900139=
KHBV 232110Z AUTO 17014G22KT 10SM CLR 32/17 A2977 RMK AO2
     T03150168=
KHSG 232110Z AUTO 36005KT 10SM SCT017 OVC023 02/00 A2965 RMK AO2
     T00231001=
KMMH 232114Z AUTO 35014KT 10SM CLR 07/M10 A2997 RMK AO2=
KMPZ 232110Z AUTO 16020G24KT 10SM CLR 26/18 A2965 RMK AO2=
KMYZ 232110Z AUTO 17023G29KT 10SM CLR 28/15 A2940 RMK AO2=
KOSA 232110Z AUTO 18016G23KT 10SM BKN060 28/15 A2983 RMK AO2
     T02850149=
KPEZ 232110Z AUTO 17015G19KT 10SM SCT050 30/17 A2977 RMK AO2
     T03030174=
KPVW 232110Z AUTO 21016G22KT 10SM CLR 26/09 A2963 RMK AO2
     T02620090=
KRBW 232115Z AUTO 36004KT 10SM CLR 23/10 A3014 RMK AO2=
KRGA 232118Z AUTO 12006KT 10SM CLR 25/04 A3011 RMK AO2=
KSLR 232110Z AUTO 16011G21KT 10SM SCT050 A2981 RMK AO2=
KTXW 232110Z AUTO 16022G28KT 1/2SM HZ VV005 30/18 A2978 RMK AO2
     VIS 1/4V1 1/4 T03010180=
KW13 232135Z AUTO 10SM SCT032 17/07 A3020 RMK AO1 T01690072=
KW99 232120Z AUTO 00000KT 10SM CLR 19/07 A3022 RMK AO2=
K04V 232115Z AUTO 27012G21KT 10SM SCT047 SCT060 BKN070 08/M03
     A2961 RMK AO2=
K20V 232115Z AUTO 33010G17KT 1 1/2SM -SN BKN008 OVC014 00/M03
     A2962 RMK AO2=
K6P9 232115Z AUTO 18018G27KT 10SM CLR 29/13 A2973 RMK AO2
     T02920134=
KAFO 232115Z AUTO 32012G17KT 10SM SCT033 SCT040 OVC055 00/M07
     A2977 RMK AO2=
KAXX 232115Z AUTO 26015G26KT 2SM RA OVC014 02/00 A2974 RMK AO2
     P0001 T00190000=
KCPW 232115Z AUTO 3SM -SN OVC003 M09/M09 A2969 RMK AO2=
KCZT 232115Z AUTO 16009G15KT 10SM CLR 31/16 A2974 RMK AO2=
KE38 232115Z AUTO 21010G18KT 10SM CLR 28/05 A2987 RMK AO2
     T02770047=
KHCR 232115Z AUTO 30007KT 260V320 10SM SCT035 SCT060 OVC090 05/M06
     A2977 RMK AO2=
KLMO 232115Z AUTO 25016G24KT 10SM CLR 18/M07 A2937 RMK AO2
     T01751075=
KLUV 232115Z AUTO 21016G25KT 10SM CLR 29/10 A2968 RMK AO2=
KNOW 232115Z AUTO 06003KT 10SM CLR 11/09 A3014 RMK AO2
     T01090085=
KORG 232115Z AUTO 15012G15KT 10SM OVC055 28/20 A2996 RMK AO2
     T02810199=
KPEQ 232115Z AUTO 23015G20KT 10SM CLR 33/06 A2964 RMK AO2
     T03270063=
KPPA 232115Z AUTO 21022G28KT 10SM CLR 26/11 A2957 RMK AO2
     T02580110=
KRBO 232115Z AUTO 10SM SCT001 SCT034 SCT042 30/21 A2980 RMK AO2
     T02970213=
KRDD 232110Z COR 360/12G15KT 10SM CLR 20/M02 A3005=
KT20 232115Z AUTO 10SM SCT048 SCT060 30/18 A2980 RMK AO2
     T02950178=
KTMK 232115Z AUTO 27004KT 10SM SCT026 SCT034 BKN043 13/07 A3021
     RMK AO2=
KXBP 232115Z AUTO 16017G26KT 10SM CLR 30/14 A2973 RMK AO2
     T02980137=
K2G9 232115Z AUTO 00000KT 10SM CLR 15/02 A3023 RMK AO2=
K2W6 232119Z AUTO 35004KT 10SM OVC019 13/12 A3017 RMK AO1
     P0001=
KAXA 232115Z AUTO 14024G34KT 9SM CLR 25/15 A2942 RMK A01=
KBJI 232115Z AUTO 10016G21KT 10SM CLR 21/12 A2947 RMK AO2
     T02140116=
KC65 232115Z AUTO 15012G23KT 10SM CLR 24/11 A2995 RMK A01=
KCBF 232115Z AUTO 18023G36KT 10SM CLR 29/10 A2934 RMK AO2=
KCGE 232115Z AUTO 36009KT 4SM BR OVC006 15/15 A3015 RMK A01=
