SACA45 KWBC 232000 RRB
METAR
MNPC 232000Z 07004KT 6000 VCRA BKN016TCU 28/24 Q1009 TCURA/SW=
