SAUS70 KWBC 231800 RRS
METAR
KBFI 231753Z 14005KT 10SM SCT006 BKN008 BKN015 09/08 A3015 RMK AO2
     SLP208 T00940078 10094 20056 53019=
KCCR 231753Z 31007KT 10SM CLR 17/01 A3001 RMK AO2 SLP149 T01720011
     10172 20067 51014=
KDEW 231753Z AUTO 19003KT 10SM CLR 07/03 A3000 RMK AO2 SLP172
     T00670028 10072 20011 51022=
KL18 231755Z AUTO 00000KT 10SM SCT033 17/09 A2988 RMK AO2=
KLVK 231753Z 25006KT 10SM CLR 15/03 A3001 RMK AO2 SLP158 T01500028
     10150 20050 51015=
KMAE 231753Z AUTO 31012KT 10SM CLR 16/02 A2995 RMK AO2 SLP141
     T01610022 10161 20056 51014=
KONM 231755Z AUTO 21016G24KT 10SM CLR 21/M01 A2974 RMK AO2
     T02101010 10215 20122=
KPUC 231753Z AUTO 31015G27KT 10SM FEW050 07/M08 A2963 RMK AO2 PK
     WND 30028/1715 SLP024 T00671078 10067 20011 51016=
KSAC 231753Z 32017G24KT 10SM CLR 18/01 A2998 RMK AO2 PK WND
     33027/1725 SLP152 T01830006 10183 20094 51014=
KSMF 231753Z 33019G25KT 10SM CLR 19/00 A2998 RMK AO2 PK WND
     33026/1701 SLP152 T01890000 10194 20117 51017=
KSPB 231753Z AUTO 00000KT 10SM FEW035 OVC050 11/07 A3015 RMK AO2
     SLP209 T01060072 10111 20067 51022=
KTTD 231753Z 22003KT 10SM SCT017 OVC055 12/07 A3016 RMK AO2 SLP213
     T01170072 10117 20083 51023=
KBUR 231753Z 28009G17KT 10SM CLR 22/M01 A2985 RMK AO2 SLP097
     T02171006 10217 20144 50009=
KCNO 231753Z 00000KT 10SM BKN040 20/11 A2988 RMK AO2 SLP114
     T02000106 10200 20122 50012=
KF70 231755Z AUTO 20004KT 10SM SCT030 16/07 A2989 RMK AO2=
KHHR 231753Z 14004KT 10SM CLR 20/11 A2987 RMK AO2 SLP112 T02000106
     10200 20150 50014=
KHIO 231753Z 00000KT 10SM BKN010 OVC050 09/07 A3016 RMK AO2 SLP213
     T00890067 10089 20056 53022=
KL35 231755Z AUTO 21003KT 10SM CLR 06/M08 A2993 RMK AO2=
KMOD 231753Z 32014KT 10SM CLR 16/00 A2997 RMK AO2 SLP149 T01560000
     10156 20100 51016 $=
KMYF 231753Z 13006KT 10SM FEW028 BKN042 17/11 A2988 RMK AO2 SLP115
     T01670106 10172 20133 50009=
KPAE 231753Z 18006KT 10SM BKN006 OVC047 09/06 A3013 RMK AO2 SLP205
     60000 T00940061 10094 20072 53018=
KPDT 231753Z 25009KT 10SM CLR 09/02 A3008 RMK AO2 SLP182 60000
     T00940022 10094 20056 51024=
KPRB 231753Z AUTO 32012KT 10SM CLR 15/05 A2998 RMK AO2 SLP151
     T01500050 10150 20022 50008 $=
KSSF 231753Z 17014G23KT 10SM SCT045 29/18 A2985 RMK AO2 PK WND
     15030/1737 SLP097 T02890178 10294 20183 58013=
KTVL 231753Z AUTO 08010G15KT 10SM BKN049 03/M08 A2998 RMK AO2
     SLP146 T00331078 10033 21061 51015=
KBUR 231753Z 28009G17KT 10SM CLR 22/M01 A2985 RMK AO2 SLP097
     T02171006 10217 20144 50009=
KTOI 231753Z AUTO VRB04KT 10SM CLR 26/04 A3017 RMK AO2 SLP213
     T02560044 10267 20050 58015=
PASC 231753Z 11010KT 8SM OVC005 M07/M08 A3001 RMK AO2 SLP163 I1001
     I6007 T10671078 11056 21067 58004 $=
TIST 231753Z VRB06KT 10SM SCT030 30/24 A2989 RMK AO2 SLP123
     T03000239 10317 20283 56018=
KCBG 231755Z AUTO 13008G15KT 10SM CLR 24/12 A2957 RMK AO2=
KCFE 231755Z AUTO 12019G25KT 10SM CLR 23/12 A2953 RMK AO2=
KDRM 231755Z AUTO 14009G14KT 10SM CLR 19/11 A3006 RMK AO2
     T01850108 10188 20104=
KMGG 231755Z AUTO 12008G20KT 090V150 10SM CLR 22/11 A2954 RMK AO2
     T02230113 10223 20139 PWINO=
KMIV 231754Z AUTO 03010KT 8SM OVC019 17/14 A3019 RMK AO2 SLP220
     60001 T01720144 10178 20139 58014 $=
KOZW 231755Z AUTO 15008KT 10SM CLR 23/12 A3010 RMK AO2 T02340119
     10234 20116=
KPSF 231754Z AUTO 03004KT 10SM CLR 17/04 A3030 RMK AO2 SLP252
     T01720039 10172 20011 58016=
KPTW 231754Z AUTO 05004KT 10SM -RA FEW070 OVC110 16/09 A3026 RMK
     AO2 RAB03 SLP245 P0000 60000 T01560094 10156 20083 58008=
KPWC 231755Z AUTO 11011KT 10SM CLR 20/12 A2959 RMK AO2=
