SAUS70 KWBC 232038 RRG
METAR
KEIK 232035Z AUTO 31006KT 10SM SCT070 SCT085 SCT120 19/M07 A2933
     RMK AO2 T01911067 PWINO=
KEKS 232030Z AUTO 01015KT M01/M02 A2984 RMK AO2 PWINO TSNO=
KERV 232035Z AUTO 17017G24KT 10SM CLR 26/16 A2981 RMK AO2
     T02620161=
KERY 232035Z AUTO 16011G21KT 10SM CLR 22/11 A2995 RMK AO2
     T02180106=
KF05 232035Z AUTO 19021G32KT 10SM CLR 34/12 A2959 RMK AO2
     T03360116=
KF17 232035Z AUTO 16010G19KT 120V180 10SM SCT055 BKN065 28/13
     A2990 RMK AO2=
KF44 232035Z AUTO 18014G20KT 10SM BKN055 28/15 A2982 RMK AO2=
KF46 232035Z AUTO 20023G29KT 10SM SCT050 29/15 A2978 RMK AO2
     T02930153=
KFLY 232035Z AUTO 27010G19KT 230V300 SCT049 SCT070 BKN090 13/00
     A2947 RMK AO2 T01271002 PWINO=
KFOT 232030Z AUTO 31014KT 9SM CLR 14/06 A3014 RMK AO1=
KFTN 232035Z AUTO 13014G20KT 10SM CLR 31/17 A2977 RMK A01=
KFYE 232035Z AUTO 17009G16KT 10SM CLR 25/12 A2999 RMK A01=
KFYM 232040Z AUTO 20007G13KT 10SM CLR 24/05 A3011 RMK A01=
KGAO 232035Z AUTO 11010G14KT 10SM CLR 27/16 A3006 RMK AO2
     T02650155=
KGCY 232035Z AUTO 01003KT 3SM HZ CLR 22/03 A3015 RMK A01=
KGDJ 232035Z AUTO 15018G26KT 10SM CLR 29/15 A2975 RMK AO2
     T02910149=
KGGI 232035Z AUTO 15020G26KT 10SM CLR 26/15 A2959 RMK AO2
     T02550152=
KGHB 232035Z AUTO VRB04G12KT 7SM FEW046 26/17 A2999 RMK A01=
KGKT 232035Z AUTO 00000KT 10SM CLR 24/06 A3013 RMK A01=
KGLX 232035Z AUTO 05013KT 10SM CLR 25/14 A3005 RMK A01=
KGOO 232030Z AUTO VRB05G12KT 10SM CLR 14/M07 A2996 RMK A01=
KGRN 232035Z AUTO 33013G21KT 10SM CLR 14/01 A2931 RMK AO2
     T01410011=
KGRY 232035Z AUTO 12012KT 10SM CLR 24/16 A3003 RMK A01=
KGYB 232035Z AUTO 14014G18KT 10SM SCT048 SCT060 SCT070 29/17 A2983
     RMK AO2 T02940174=
KGZN 232020Z AUTO 18021G30KT 10SM CLR 29/14 A2971 RMK AO2=
KANW 232035Z AUTO 28016G25KT 10SM CLR 27/M01 A2916 RMK AO2
     T02711012=
KARM 232035Z AUTO 14017G20KT 10SM SCT046 OVC055 28/16 A2988 RMK
     AO2 T02810159 TSNO=
KASN 232035Z AUTO 13004KT 10SM CLR 25/04 A3011 RMK AO2
     T02510037=
KATP 232035Z AUTO 11014KT 10SM SCT035 BKN040 BKN050 25/17 A3003
     RMK A01=
KAVK 232035Z AUTO 19034G40KT 9SM CLR 27/12 A2949 RMK AO2 PWINO=
KAVQ 232035Z AUTO 30010G15KT 10SM SCT070 22/08 A2977 RMK AO2
     T02240081=
KAXH 232035Z AUTO 16007G16KT 130V190 10SM CLR 30/13 A2989 RMK AO2
     T03000134=
KAXS 232035Z AUTO 18020G23KT 10SM CLR 31/11 A2961 RMK AO2
     T03050111=
KAZC 232035Z AUTO 33010G17KT 10SM SCT045 BKN050 OVC075 07/M01
     A2988 RMK AO2=
KBAM 232035Z AUTO 33008KT 10SM SCT038 SCT049 BKN060 06/M01 A3003
     RMK AO1=
KBAX 232035Z AUTO 17014G21KT 10SM CLR 23/09 A3008 RMK AO2
     T02300092=
KBDU 232035Z AUTO 26014G22KT 10SM CLR 18/M05 A2933 RMK AO2=
KBGF 232035Z AUTO 22009G14KT 10SM CLR 24/05 A3010 RMK A01=
KBKD 232035Z AUTO 19017G27KT 10SM CLR 31/14 A2970 RMK AO2
     T03110138=
KBNW 232035Z AUTO 15018G27KT 10SM CLR 26/14 A2949 RMK AO2=
KBPC 232035Z AUTO 21025G30KT 10SM CLR 26/08 A2953 RMK AO2=
KBQX 232035Z AUTO 16016G21KT 9SM 28/18 A2989 RMK A01=
KBTA 232035Z AUTO 17026G35KT 10SM CLR 30/13 A2932 RMK AO2
     T02990126=
KBTN 232035Z AUTO 12024G34KT 9SM CLR 22/12 A2922 RMK AO2=
KBXA 232035Z AUTO 14005G08KT 10SM CLR 28/12 A3006 RMK AO2
     T02810118=
KC07 232035Z AUTO 28008G17KT M1/4SM +SN OVC001 M07/M07 A2958 RMK
     AO2 LTG DSNT SW P0002=
KC09 232035Z AUTO 18017G29KT 10SM CLR 26/15 A2981 RMK AO2
     T02600146=
KC83 232035Z AUTO 32016G22KT 10SM CLR 21/M04 A2997 RMK AO2=
KCCY 232035Z AUTO 15022G32KT 10SM CLR 23/13 A2957 RMK AO2=
KCDD 232033Z AUTO 15005KT 10SM CLR 23/09 A2963 RMK AO2=
KCRX 232035Z AUTO 17011KT 10SM CLR 25/07 A3003 RMK AO2=
