SAUS80 KWBC 231928
METAR
KCUL 231913Z AUTO 20020G24KT 10SM CLR 27/10 A2997 RMK AO2=
KNY0 231918Z AUTO 00000KT 10SM CLR 15/06 A3030 RMK AO2=
KROS 231923Z AUTO 12014G23KT 10SM SCT045 25/14 A2955 RMK AO2=
KLZZ 231915Z AUTO 20012G20KT 10SM CLR 29/15 A2977 RMK AO2
     T02860146=
