SAUS70 KWBC 232000 RRX
METAR
KBOS 231954Z 02007KT 10SM FEW070 BKN110 OVC140 14/10 A3032 RMK A02
     RAB06 SLP267 P0001 T01390100=
KBJC 231947Z COR 36004KT 10SM VCSH BKN080 BKN120 14/00 A2934=
KBOS 231954Z 02007KT 10SM FEW070 BKN110 OVC140 14/10 A3032 RMK A02
     RAB06 SLP267 P0001 T01390100=
KGZN 232000Z AUTO 18017G30KT 10SM CLR 29/14 A2971 RMK AO2=
