SAUS70 KWBC 231920 RRG
METAR
KBAX 231915Z AUTO 17011G18KT 10SM SCT050 23/11 A3009 RMK AO2
     T02280111=
KBTA 231915Z AUTO 16022G29KT 10SM CLR 30/13 A2936 RMK AO2
     T02970127=
KC09 231915Z AUTO 17019G27KT 10SM CLR 26/14 A2983 RMK AO2
     T02630144=
KDEH 231915Z AUTO 15014G25KT 120V180 10SM CLR 24/13 A2961 RMK
     AO2=
KGRN 231915Z AUTO 32012G20KT 10SM SCT110 13/01 A2927 RMK AO2
     T01340010=
KHLB 231915Z AUTO 19009G16KT 10SM CLR 24/09 A3007 RMK A01=
KHSB 231915Z AUTO 18018G23KT 10SM SCT049 26/16 A2997 RMK AO2
     T02590164=
KIFA 231915Z AUTO 14017G24KT 10SM CLR 24/15 A2954 RMK AO2
     T02410145=
KIGQ 231915Z AUTO 19020G27KT 10SM SCT050 26/14 A2989 RMK AO2
     T02580135=
KLCG 231915Z AUTO 18024G31KT 10SM CLR 29/12 A2929 RMK AO2
     T02940115=
KM30 231915Z AUTO 20016G22KT 10SM SCT055 26/12 A2999 RMK AO2
     T02630117=
KOXI 231915Z AUTO 17017G26KT 10SM CLR 26/11 A2995 RMK AO1=
KPRO 231915Z AUTO 16019G30KT 10SM CLR 26/13 A2949 RMK AO2
     T02620128=
KTNU 231915Z AUTO 16024G30KT 10SM CLR 26/14 A2955 RMK A01=
KUSE 231915Z AUTO 19012G21KT 10SM CLR 25/10 A3007 RMK AO2=
KXLL 231915Z AUTO 03007KT 10SM CLR 17/09 A3026 RMK AO2=
K05U 231915Z AUTO 00000G21KT 1/2SM HZ 00/M03 A2999 RMK A01=
K0F2 231915Z AUTO 15015G29KT 10SM CLR 29/15 A2971 RMK AO2
     T02850152=
K1V6 231915Z AUTO 25004KT 10SM CLR 19/02 A2942 RMK AO2=
K65S 231915Z AUTO VRB04KT 10SM BKN015 BKN020 07/05 A3000 RMK
     AO2=
K82V 231915Z AUTO 34021G28KT 10SM CLR 15/M01 A2935 RMK AO2=
KAEJ 231915Z AUTO 00000KT 10SM 07/00 A2953 RMK AO2 T00650001=
KCXP 231915Z AUTO 00000KT 10SM BKN060 BKN070 07/M06 A3006 RMK
     AO2=
KDZB 231915Z AUTO 17012G27KT 10SM CLR 30/13 A2982 RMK AO2
     T02990127=
KF05 231915Z AUTO 19022G28KT 10SM CLR 33/13 A2964 RMK AO2
     T03290131=
KF17 231915Z AUTO 17014G19KT 10SM OVC060 28/13 A2995 RMK AO2=
KF44 231915Z AUTO 18013G23KT 10SM BKN048 OVC060 28/16 A2984 RMK
     AO2=
KFOT 231910Z AUTO 32013KT 9SM SCT028 14/07 A3015 RMK AO1=
KHHF 231915Z AUTO 18017G26KT 10SM CLR 27/12 A2955 RMK AO2
     T02740119=
KINJ 231915Z AUTO 18024G34KT 10SM BKN046 29/16 A2981 RMK AO2
     T02870162=
KJWY 231915Z AUTO 18020G27KT 10SM BKN048 28/16 A2982 RMK AO2
     T02800157=
KMEV 231915Z AUTO VRB03KT 10SM CLR 06/M04 A3004 RMK AO2=
K06C 231915Z AUTO 18013G23KT 150V210 10SM SCT047 25/17 A2985 RMK
     AO2 T02450165=
K0R4 231915Z AUTO 15012KT 10SM SCT049 28/15 A3001 RMK AO2
     T02830152=
K1R8 231915Z AUTO 08007KT 050V110 10SM CLR 27/05 A3009 RMK AO2=
K33V 231915Z AUTO 35015KT 10SM BKN031 BKN037 OVC045 01/M02 A2953
     RMK AO1=
K3K3 231915Z AUTO 22032G43KT 3SM HZ BKN034 OVC044 28/M01 A2936 RMK
     AO2=
K49A 231915Z AUTO 21004KT 10SM CLR 23/01 A3020 RMK AO2
     T02290006=
K4O4 231915Z AUTO 15017G25KT 8SM BKN043 28/16 A2986 RMK AO2=
K66R 231915Z AUTO 18012G18KT 10SM BKN045 OVC060 29/17 A2988 RMK
     AO2 T02860173=
K74V 231915Z AUTO 13004KT 10SM 03/00 A2969 RMK AO2=
KADU 231915Z AUTO 17016G29KT 10SM BKN004 BKN020 OVC048 27/13 A2945
     RMK AO2 PWINO=
KAFK 231915Z AUTO 20021G33KT 10SM CLR 30/13 A2941 RMK AO2
     T03000130=
KAIO 231915Z AUTO 17016G28KT 9SM CLR 27/15 A2942 RMK AO2=
KAJG 231915Z AUTO 17022G27KT 10SM CLR 27/11 A2996 RMK AO2
     T02730106=
KAJR 231915Z AUTO 14003KT 10SM CLR 24/03 A3017 RMK AO2
     T02390032=
KAJZ 231915Z AUTO 01005KT 10SM SCT021 SCT032 SCT040 10/03 A2963
     RMK AO2 T00950030=
KAQO 231915Z AUTO 15012G28KT 10SM CLR 30/14 A2979 RMK AO2=
KASL 231915Z AUTO 00000KT 10SM SCT060 29/14 A2988 RMK AO2
     T02870137 TSNO $=
KASW 231915Z AUTO 18009G17KT 150V210 10SM SCT050 24/11 A3000 RMK
     AO2 T02420112=
