SAUS70 KWBC 231618 RRA
METAR
KMDZ 231615Z AUTO 13010G15KT 10SM SCT070 18/13 A2979 RMK AO2
     T01750125 PWINO=
KMRJ 231615Z AUTO 15016G20KT 10SM CLR 19/10 A2980 RMK AO2=
KORB 231613Z AUTO 16007KT 10SM CLR 19/10 A2965 RMK AO2=
KOZW 231615Z AUTO 16008G14KT 10SM CLR 21/12 A3013 RMK AO2
     T02120117=
KPCZ 231615Z AUTO 14011KT 10SM CLR 21/12 A2985 RMK AO2
     T02070121=
KRCX 231615Z AUTO 13011G16KT 10SM CLR 19/15 A2977 RMK AO2
     T01870145=
KRGK 231615Z AUTO 13009G14KT 10SM CLR 21/12 A2964 RMK AO2=
KRID 231635Z AUTO 19012G15KT 10SM CLR 21/12 A3016 RMK AO2=
KRPD 231615Z AUTO 13015G20KT 10SM CLR 19/15 A2972 RMK AO2
     T01890145=
KTEW 231615Z AUTO 13010G16KT 10SM CLR 21/11 A3011 RMK AO2
     T02100108=
KXVG 231613Z AUTO 12008KT 074V144 10SM CLR 18/09 A2960 RMK AO2=
KY51 231615Z AUTO 15015G19KT 10SM CLR 19/14 A2976 RMK AO1
     T01900141=
KBVU 231615Z AUTO 34011KT 10SM CLR 15/M00 A2984 RMK AO2=
KBWP 231615Z AUTO 15020G25KT 10SM CLR 19/11 A2942 RMK AO2=
KBWW 231615Z AUTO 05015KT 10SM OVC010 06/05 A2934 RMK AO2=
KBXK 231615Z AUTO 24011KT 10SM OVC065 20/10 A2979 RMK A01=
KC29 231615Z AUTO 16013G17KT 10SM CLR 21/12 A2983 RMK AO1
     T02060119=
KCDN 231615Z AUTO 02007KT 10SM CLR 21/08 A3021 RMK AO2=
KCEY 231615Z AUTO 16016G22KT 10SM CLR 24/11 A3009 RMK A01=
KCFJ 231615Z AUTO 16014G21KT 10SM CLR 22/08 A3004 RMK AO2
     T02200080=
KCGC 231615Z AUTO 34004KT 10SM CLR 26/15 A3014 RMK AO2=
KCJR 231615Z AUTO 01009KT 10SM OVC024 18/07 A3027 RMK AO2 LTG DSNT
     S T01770071=
KCKM 231615Z AUTO 17015G22KT 10SM CLR 25/15 A3007 RMK A01=
KCLS 231615Z AUTO 00000KT 10SM OVC006 03/03 A3012 RMK AO2=
KCLW 231615Z AUTO 06006KT 10SM CLR 26/16 A3013 RMK AO2 PWINO=
KCMR 231615Z AUTO 24007KT 220V280 9SM SCT008 OVC027 02/M00 A2985
     RMK AO2=
KCPT 231615Z AUTO 19015G25KT 10SM SCT030 25/17 A2986 RMK A01=
KCTZ 231615Z AUTO 36007G15KT 10SM CLR 18/11 A3017 RMK AO2
     T01800109=
KD57 231615Z AUTO 11.70833312G21KT 10SM FEW014 08/03 A2936 RMK
     AO2=
KD60 231615Z AUTO 07017KT 10SM OVC008 04/04 A2953 RMK AO2=
KDNA 231615Z AUTO 22012G21KT 10SM CLR 23/11 A2985 RMK AO2=
KDNN 231615Z AUTO 16003KT 10SM FEW250 19/05 A3024 RMK AO2
     T01900051=
KDRI 231615Z AUTO 16012KT 10SM BKN043 BKN055 25/18 A3005 RMK AO2
     T02550182 $=
KDYB 231615Z AUTO 02008KT 340V050 10SM CLR 22/11 A3017 RMK AO2=
KEKM 231615Z AUTO 17010G20KT 110V200 9SM CLR 21/13 A3005 RMK AO2
     T02110130=
KELK 231615Z AUTO 18021G25KT 10SM CLR 23/12 A2968 RMK AO2 SLP340
     T02310125 $=
KEVU 231615Z AUTO 19021G28KT 10SM CLR 26/15 A2953 RMK AO2
     T02630150=
KEXX 231615Z AUTO 06005KT 10SM CLR 19/08 A3022 RMK AO2
     T01900076=
KEZF 231615Z AUTO 36005KT 5SM RA OVC016 13/11 A3024 RMK AO2
     T01300113=
KEZM 231615Z AUTO 06004KT 10SM CLR 22/11 A3021 RMK AO2=
KF70 231615Z AUTO 17009KT 10SM SCT033 14/08 A2989 RMK AO2=
KFVX 231615Z AUTO 03006KT 10SM CLR 17/07 A3023 RMK AO2
     T01650072=
KFWB 231615Z AUTO VRB06G16KT 10SM CLR 24/15 A2985 RMK AO2=
KGLY 231615Z AUTO 20014G22KT 10SM FEW110 26/15 A2971 RMK AO2=
KGWR 231615Z AUTO 10014KT 9SM CLR 13/10 A2941 RMK A01=
KHBI 231615Z AUTO 01005G09KT 10SM CLR 18/05 A3024 RMK AO2
     T01840048=
KHRJ 231615Z AUTO 02017G21KT 5SM HZ CLR 19/07 A3020 RMK AO2
     T01930067=
KHVS 231615Z AUTO 02008KT 340V050 10SM CLR 20/08 A3020 RMK AO2=
KHZE 231615Z AUTO 08014G22KT 10SM FEW016 09/05 A2942 RMK AO2=
KIDI 231615Z AUTO VRB05KT 10SM CLR 18/05 A3030 RMK A01=
KINF 231615Z AUTO 03005KT 7SM CLR 25/16 A3015 RMK AO2=
KJFZ 231615Z AUTO 00000KT 10SM CLR 17/02 A3028 RMK AO2
     T01660023=
KJVW 231615Z AUTO 14008G13KT 10SM CLR 25/15 A3012 RMK AO2=
