SAUS70 KWBC 231804
METAR
KW75 231815Z AUTO 33006KT 10SM OVC011 15/14 A3015 RMK AO1
     T01510135=
PAFS 231801Z AUTO 00000KT 10SM OVC013 M03/M03 A3006 RMK AO2 SLP190
     T10281033 11022 21028 50004 FZRANO=
KDLL 231815Z AUTO 15017KT 10SM CLR 21/12 A2978 RMK AO2
     T02120115=
KGAF 231815Z AUTO 07012KT 8SM CLR 15/07 A2950 RMK AO2=
KGPH 231815Z AUTO 18015G24KT 10SM CLR 27/12 A2960 RMK AO2=
KW13 231815Z AUTO 10SM CLR 14/05 A3025 RMK AO1 T01420048=
PAHX 231802Z AUTO 16004KT 10SM OVC004 M03/M03 A3004 RMK AO2 SLP172
     T10331033 11028 21039 58001 FZRANO=
