SAUS80 KWBC 231938
METAR
KPOV 231935Z AUTO 13005KT 10SM CLR 24/M01 A3016 RMK AO2 T02371006
     PWINO=
KPZQ 231935Z AUTO 16008G17KT 140V200 10SM SCT055 25/11 A3003 RMK
     AO2 T02500112=
KLYV 231935Z AUTO 15020G27KT 10SM CLR 25/11 A2932 RMK AO2=
KY23 231935Z AUTO 14018G24KT 10SM SCT044 24/15 A2963 RMK AO2
     T02420154=
KEKX 231935Z AUTO 17012G17KT 10SM CLR 25/07 A3008 RMK AO2
     T02520072=
KIKW 231935Z AUTO 16010KT 130V190 10SM SCT060 25/10 A3003 RMK AO2
     T02480099=
KPTS 231935Z AUTO 20023G29KT 10SM SCT120 29/14 A2965 RMK AO2 LTG
     DSNT N T02880138 PWINO=
KRFI 231935Z AUTO 15013G20KT 10SM BKN060 30/10 A2990 RMK AO2
     T02980095=
KSMS 231935Z AUTO 00000KT 10SM CLR 24/07 A3014 RMK AO2=
KSNC 231935Z AUTO VRB03KT 5SM -RA FEW001 BKN038 OVC060 12/10 A3029
     RMK AO2=
KSOW 231935Z AUTO 22022G34KT 10SM SCT034 BKN040 BKN048 11/03 A2984
     RMK AO2=
KSYN 231935Z AUTO 16014G24KT 10SM CLR 25/12 A2953 RMK AO2
     T02510120=
KTKV 231935Z AUTO 15005KT 10SM SCT042 22/12 A2976 RMK AO2
     T02190119 PWINO=
KM21 231935Z AUTO 17011G19KT 10SM CLR 25/09 A3003 RMK AO2
     T02540085=
KCIR 231935Z AUTO 22012G23KT 10SM BKN048 OVC050 26/14 A2997 RMK
     AO2 T02560143=
KEDU 231940Z AUTO 35014G22KT 10SM CLR 19/M02 A2999 RMK AO1=
KGNG 231935Z AUTO 28023G31KT 10SM CLR 08/M03 A2989 RMK AO2=
KRLD 231935Z AUTO 23003KT 10SM CLR 15/00 A3009 RMK AO2
     T01460000=
KS39 231935Z AUTO 30008KT 260V320 10SM OVC036 08/M01 A3009 RMK
     AO2=
KSEP 231935Z AUTO 16021G27KT 10SM CLR 29/14 A2978 RMK AO2
     T02940136=
KVTI 231935Z AUTO 15016G25KT 10SM CLR 25/13 A2962 RMK AO2
     T02450125=
KMKN 231935Z AUTO 17021G25KT 10SM CLR 30/15 A2977 RMK AO2
     T03010153=
KCLI 231935Z AUTO 14013G17KT 10SM CLR 23/13 A2980 RMK AO2
     T02280133=
KTKV 231935Z AUTO 15005KT 10SM SCT042 22/12 A2976 RMK AO2
     T02190119 PWINO=
KSVE 231935Z AUTO 02006KT 10SM BKN050 BKN070 M16/M25 A3007 RMK
     AO2=
KSOW 231935Z AUTO 22022G34KT 10SM SCT034 BKN040 BKN048 11/03 A2984
     RMK AO2=
KSNC 231935Z AUTO VRB03KT 5SM -RA FEW001 BKN038 OVC060 12/10 A3029
     RMK AO2=
KIKW 231935Z AUTO 16010KT 130V190 10SM SCT060 25/10 A3003 RMK AO2
     T02480099=
KSYN 231935Z AUTO 16014G24KT 10SM CLR 25/12 A2953 RMK AO2
     T02510120=
