SAUS70 KWBC 231900
METAR
K1A5 231855Z AUTO 00000KT 10SM CLR 23/M08 A3020 RMK AO2
     T02321076=
KCGF 231845Z 14006KT 10SM SCT150 23/09 A3016=
KCIC 231847Z 31020G27KT 10SM CLR 19/M03 A3003=
KEFT 231855Z AUTO 17019G25KT 10SM CLR 23/12 A2977 RMK AO2
     T02300122=
KGYI 231850Z 17023G28KT 10SM SKC 28/15 A2981=
KHNZ 231855Z AUTO 34006KT 10SM SCT029 19/08 A3017 RMK AO2
     T01880083=
KHUM 231847Z 15015KT 7SM CLR 27/17 A3007=
KJXI 231855Z AUTO 19014G23KT 10SM SCT047 28/14 A2989 RMK AO2
     T02760141=
KPDC 231855Z AUTO 13012G22KT 10SM CLR 24/12 A2967 RMK AO2
     T02390117=
KW31 231855Z AUTO 01006KT 10SM OVC024 18/11 A3017 RMK AO1
     T01760105=
KW96 231855Z AUTO 29004KT 10SM OVC005 14/13 A3017 RMK AO1
     T01360130=
KBCT 231853Z 02011G22KT 10SM FEW038 28/19 A3004=
KEFD 231854Z 13022G27KT 10SM BKN055 29/17 A2992=
KIFP 231848Z 34016KT 20SM FEW100 21/M01 A2980=
KOLV 231850Z 21014G23KT 10SM SCT050 26/13 A3001=
KTIX 231847Z 02015G20KT 7SM FEW040 29/14 A3008=
KTOA 231847Z VRB05KT 10SM SCT020 23/11 A2986=
KFMH 231845Z 06012KT 610SM FEW008 SCT012 BKN035 14/14 A3028=
KBNL 231855Z AUTO 33007KT 320V040 10SM CLR 24/10 A3015 RMK AO2=
KCWF 231847Z 16019G26KT 10SM BKN040 29/18 A3000=
KETB 231855Z AUTO 12011G17KT 10SM CLR 20/12 A2985 RMK AO2=
KLHZ 231855Z AUTO 34006KT 10SM BKN025 18/11 A3017 RMK AO2=
KRHV 231847Z 30011KT 10SM SKC 17/04 A3001=
KRRL 231855Z AUTO 15009G19KT 10SM SCT038 22/13 A2976 RMK AO2
     T02210127 TSNO=
KUNU 231855Z AUTO 13015G21KT 10SM CLR 22/13 A2982 RMK AO2
     T02230128=
KVQQ 231850Z 03006KT 10SM CLR 30/15 A3011=
