SAUS70 KWBC 231700 RRX
METAR
KMTW 231656Z AUTO 15013KT 10SM CLR 16/12 A2993 RMK AO2 SLP134
     T01560117=
KMVN 231656Z AUTO 18016G26KT 10SM OVC034 23/14 A2998 RMK AO2 PK
     WND 17026/1656 SLP152 T02330144=
KOSC 231655Z AUTO 18009KT 10SM CLR 20/11 A3012 RMK AO2
     T02040110=
KPJC 231655Z AUTO RMK AO2 TSNO PWINO=
KPQI 231656Z AUTO VRB04KT 10SM CLR 20/07 A3035 RMK AO2 SLP304
     T02000072=
KRKD 231656Z AUTO 11006KT 10SM CLR 14/13 A3038 RMK AO2 SLP287
     T01390133=
KRUT 231656Z AUTO 10010KT 10SM CLR 18/03 A3033 RMK AO2 SLP267
     T01830028 $=
KSGH 231656Z AUTO 18009G16KT 10SM FEW050 23/11 A3016 RMK AO2
     SLP211 T02330106=
KTTF 231655Z AUTO 18007KT 10SM CLR 22/10 A3014 RMK AO2
     T02170101=
KY50 231656Z AUTO 16011G14KT 10SM CLR 21/13 A2983 RMK AO2 SLP094
     T02110128 $=
K6B0 231655Z AUTO 00000KT 10SM CLR 18/06 A3033 RMK AO2
     T01750055=
KACB 231655Z AUTO 16011G17KT 10SM CLR 23/12 A3001 RMK AO2
     T02310116=
KASH 231656Z 33003KT 10SM CLR 14/08 A3036 RMK AO2 SLP286 T01390083
     $=
KBVI 231655Z AUTO 10003KT 10SM CLR 22/02 A3024 RMK AO2
     T02170020=
KCVX 231655Z AUTO 14008G16KT 130V190 10SM CLR 22/12 A3001 RMK AO2
     T02240121=
KEFK 231655Z AUTO 00000KT 10SM CLR 19/05 A3034 RMK AO2
     T01930045=
KFGN 231655Z AUTO 10005KT 10SM CLR 12/06 A2966 RMK AO2=
KFOD 231656Z AUTO 17015G25KT 10SM CLR 23/13 A2952 RMK AO2 PK WND
     17027/1635 SLP001 T02330128=
KFRM 231656Z AUTO 15022G31KT 10SM CLR 22/13 A2950 RMK AO2 PK WND
     15032/1625 SLP989 T02170128=
KHZL 231655Z AUTO 00000KT 10SM OVC032 16/08 A3032 RMK AO2=
KJRB 231656Z AUTO 02008G15KT 10SM -RA FEW055 SCT070 OVC095 A3027
     RMK AO2 RAB50 SLPNO P0000 FZRANO $=
KLCI 231656Z AUTO 07004KT 10SM CLR 15/08 A3037 RMK AO2 SLP286
     T01500078=
KMCD 231655Z AUTO 14008KT 110V180 10SM CLR 20/12 A3004 RMK AO2
     T01970117=
KONZ 231655Z AUTO 17003KT 10SM SCT100 15/07 A3015 RMK AO2
     T01510072=
KOXD 231655Z AUTO 19011KT 10SM CLR 25/08 A3014 RMK AO2
     T02470077=
KRQB 231655Z AUTO 18010KT 10SM SCT055 SCT065 21/12 A3003 RMK AO2
     T02140116=
KS24 231655Z AUTO 16010KT 8SM CLR 24/11 A3015 RMK AO2=
KSUE 231656Z AUTO 18017G24KT 10SM CLR 16/11 A2993 RMK AO2 PK WND
     18026/1632 SLP131 T01610111=
KVLL 231655Z AUTO 17008KT 10SM CLR 22/10 A3016 RMK AO2
     T02210101=
KVWU 231655Z AUTO 13009KT 10SM CLR 21/11 A2959 RMK AO2=
K04W 231655Z AUTO 13010G14KT 10SM CLR 21/12 A2964 RMK AO2=
KAUM 231656Z AUTO 16011G21KT 10SM CLR 21/13 A2961 RMK AO2=
KBLM 231656Z AUTO 05009KT 10SM BKN031 BKN055 16/14 A3025 RMK AO2
     RAE52 SLP245 P0001 T01560144=
KBTP 231656Z AUTO 10004KT 10SM CLR 19/05 A3025 RMK AO2 SLP247
     T01890050 TSNO=
KFPK 231655Z AUTO 17010G17KT 10SM CLR 22/11 A3006 RMK AO2
     T02220109=
KIWD 231656Z AUTO 17010G18KT 10SM CLR 19/12 A2977 RMK AO2 SLP078
     T01940122=
KLEW 231656Z AUTO 00000KT 10SM CLR 16/08 A3038 RMK AO2 SLP294
     T01560078=
KLGA 231651Z COR 04015KT 10SM -RA BKN040 BKN075 BKN120 BKN160
     OVC250 16/08 A3025=
KMBL 231656Z AUTO 16008G15KT 120V200 8SM CLR 22/12 A2997 RMK AO2
     SLP148 T02170117=
KMML 231656Z AUTO 15018G27KT 10SM CLR 21/12 A2941 RMK AO2 PK WND
     15030/1643 SLP958 T02060122=
KTVF 231656Z AUTO 09008KT 10SM CLR 17/09 A2953 RMK AO2 SLP004
     T01670094=
KWWD 231656Z AUTO 04020G24KT 5SM HZ 17/14 A3017 RMK AO2 SLP219
     T01720144 $=
KY70 231655Z AUTO 16013G18KT 10SM CLR 21/10 A3006 RMK AO2
     T02140102=
K3N8 231655Z AUTO 13010KT 10SM CLR 19/10 A2951 RMK AO2
     T01850098=
KBID 231656Z AUTO 05010KT 9SM -RA SCT070 OVC100 14/12 A3030 RMK
     AO2 RAB04 SLP259 P0001 T01440122=
