SASA31 KWBC 231900
METAR
SEGU 231900Z 19008KT 9999 BKN026 OVC100 27/19 Q1010 NOSIG RMK
     A2982=
SEQM NIL=
SEQU NIL=
SKBO 231900Z 24008KT 9000 VCSH FEW017TCU SCT020 18/13 Q1024 NOSIG
     RMK TCU VCSH/NW A3025=
SKBQ 231900Z VRB02KT 9999 FEW015 SCT100 29/23 Q1009 NOSIG RMK
     A2981=
SKCG 231900Z 25005KT 210V280 9999 FEW017 SCT200 29/25 Q1008 RMK
     A2979=
SKCL 231900Z VRB06KT 9999 SCT020TCU SCT300 30/19 Q1012 NOSIG RMK
     TCU SW A2990=
SKLT 231900Z VRB02KT 9999 FEW013 BKN200 28/24 Q1010 RMK A2984=
SKRG 231900Z 12009KT 9999 -DZ BKN017CB 20/15 Q1023 TEMPO FM1920
     TSRA BKN012CB RMK CB/SW A3021=
SKSP 231900Z 07009KT 040V110 9999 SCT018 32/25 Q1010 RMK A2985=
SMNI NIL=
SMZO NIL=
SMZY NIL=
SOCA 231900Z AUTO 08012KT 050V120 CAVOK 32/24 Q1009 TEMPO 3000
     SHRA BKN015CB=
SPJC 231900Z 18011KT 160V220 CAVOK 19/13 Q1013 NOSIG RMK PP000=
SPQT 231900Z 11006KT 050V150 9999 SCT015 BKN100 29/26 Q1010 NOSIG
     PP000=
SPQU 231900Z 25010KT 210V280 CAVOK 21/M09 Q1026 NOSIG RMK
     PP000=
SPSO 231900Z 24010KT CAVOK 21/13 Q1013 RMK BIRD HAZARD RWY 22/04
     PP000=
SPTN 231900Z 22010KT CAVOK 22/10 Q1015 RMK PP000=
SPYL 231900Z 19015KT CAVOK 23/15 Q1011 RMK BIRD HAZARD RWY 17/35
     PP000=
SPZO 231900Z 01011KT 320V040 9999 FEW050 BKN100 21/02 Q1026 NOSIG
     RMK BIRD HAZARD RWY 10/28 PP000=
SVBC NIL=
SVMC NIL=
SVMG NIL=
SVMI 231900Z 09004KT 9999 BKN016 30/24 Q1011=
SYCJ NIL=
SYTM NIL=
