SAUS70 KWBC 231722 RRB
METAR
KAFO 231715Z AUTO 31009KT 10SM BKN025 BKN034 OVC041 00/M06 A2970
     RMK AO2=
KBHC 231715Z AUTO 06004KT 10SM CLR A3016 RMK AO2=
KBIJ 231715Z AUTO 02005KT 10SM CLR 23/02 A3019 RMK AO2=
KCCO 231715Z AUTO 00000KT 10SM CLR 21/01 A3022 RMK AO2
     T02050011=
KCNI 231715Z AUTO 18004KT 10SM CLR 21/03 A3023 RMK AO2
     T02100030=
KCPW 231715Z AUTO 23022KT 210V270 M1/4SM +SN OVC001 M05/M05 A2971
     RMK AO2 P0002=
KCQB 231715Z AUTO 17022G31KT 7SM CLR 26/16 A2972 RMK AO2
     T02590163=
KCTJ 231715Z AUTO 16004KT 10SM CLR 20/03 A3025 RMK AO2
     T02000026=
KCZT 231715Z AUTO 14011G15KT 10SM CLR 26/18 A2983 RMK AO2=
KDPL 231715Z AUTO 01010G16KT 7SM CLR 21/13 A3013 RMK AO2=
KDQH 231715Z AUTO 00000KT 10SM CLR 24/12 A3018 RMK AO2
     T02410116=
KE38 231715Z AUTO 22013G18KT 10SM CLR 25/07 A2997 RMK AO2
     T02520074=
KEGT 231715Z AUTO 19023G32KT 7SM CLR A2961 RMK AO2=
KFQD 231715Z AUTO 00000KT 10SM CLR 21/03 A3022 RMK AO2=
KFWZ 231715Z AUTO 35016G22KT 10SM BKN009 OVC070 M02/M03 A2953 RMK
     AO2=
KFXY 231715Z AUTO 14018G27KT 10SM CLR 22/12 A2955 RMK AO2=
KFYJ 231715Z AUTO 32004KT 10SM OVC005 14/13 A3018 RMK AO1
     T01410129=
KGEV 231715Z AUTO 05005KT 10SM CLR 18/00 A3025 RMK AO2
     T01820000=
KGLW 231715Z AUTO 19007G15KT 170V230 10SM CLR 23/08 A3015 RMK AO2
     T02320081=
KHCR 231715Z AUTO 36013KT 10SM BKN050 03/M03 A2968 RMK AO2=
KHHW 231715Z AUTO 18015G23KT 10SM OVC035 26/16 A2988 RMK AO2=
KHVE 231715Z AUTO 21003KT 10SM BKN095 08/01 A2966 RMK AO2=
KI75 231715Z AUTO 15018G23KT 10SM CLR 24/14 A2958 RMK AO2
     T02400142=
KIIB 231715Z AUTO 15019G26KT 10SM CLR 23/14 A2969 RMK AO2
     T02270135=
KIJX 231715Z AUTO 16017G22KT 10SM SCT110 22/14 A2983 RMK AO2
     T02180138=
KJES 231715Z AUTO 00000KT 10SM CLR 21/08 A3018 RMK AO2=
KLMO 231715Z AUTO 06004KT 10SM OVC090 19/M02 A2934 RMK AO2
     T01901025=
KLUV 231715Z AUTO 20020G25KT 10SM CLR 28/10 A2977 RMK AO2=
KMLE 231715Z AUTO 16020G24KT 10SM CLR 27/13 A2941 RMK AO2
     T02700129=
KMNE 231720Z AUTO 19012G18KT 10SM SCT041 27/17 A3001 RMK AO2
     T02700171=
KMQB 231715Z AUTO 17017G25KT 10SM SCT120 22/12 A2981 RMK AO2
     T02180119=
KNOW 231715Z AUTO 00000KT 10SM CLR 10/06 A3011 RMK AO2
     T01000059=
KNRN 231715Z AUTO 23021G32KT 10SM CLR 28/06 A2933 RMK AO2=
KORG 231715Z AUTO 17011G18KT 10SM SCT036 SCT060 30/18 A3003 RMK
     AO2 T03020184=
KPPA 231715Z AUTO 22022G28KT 10SM CLR 27/12 A2966 RMK AO2
     T02690120=
KPTT 231715Z AUTO 19025G35KT 10SM CLR 27/11 A2950 RMK AO2
     T02710112=
KPXE 231715Z AUTO 10006KT 10SM CLR 23/09 A3020 RMK AO2
     T02330088=
KRBO 231715Z AUTO 10SM SCT001 SCT039 30/20 A2989 RMK AO2
     T02950195=
KRGA 231717Z AUTO 18009G15KT 10SM CLR 23/07 A3019 RMK AO2=
KSNL 231715Z AUTO 19021G31KT 10SM CLR 23/14 A2974 RMK AO2
     T02300141=
KTAZ 231715Z AUTO 18015G22KT 10SM CLR 24/14 A2989 RMK AO2
     T02360138=
KTBR 231715Z AUTO 00000KT 10SM CLR 23/10 A3018 RMK AO2
     T02300102=
KTIF 231715Z AUTO 20017G27KT 10SM CLR 24/02 A2920 RMK AO2
     T02370019=
KTQK 231715Z AUTO 22031G40KT 4SM HZ BKN033 BKN040 28/07 A2937 RMK
     AO2 T02790069=
KTVI 231715Z AUTO 00000KT 10SM CLR 23/09 A3018 RMK AO2=
KVDI 231715Z AUTO 00000KT 10SM CLR 25/12 A3017 RMK AO2=
KVKS 231715Z AUTO 17013G18KT 130V190 10SM CLR 27/15 A3006 RMK
     A01=
KVUJ 231715Z AUTO 35007KT 330V030 10SM CLR 22/06 A3024 RMK AO2
     T02150063=
KXBP 231715Z AUTO 18018G26KT 10SM CLR 28/15 A2982 RMK AO2
     T02770150=
K2W6 231719Z AUTO 01006KT 10SM BKN049 15/12 A3019 RMK AO1=
KCGE 231715Z AUTO 01007G14KT 7SM BKN021 16/15 A3017 RMK A01=
