SASA41 KWBC 231900 RRA
METAR
SKBG 231900Z 31007KT 9999 BKN015TCU SCT270 23/20 Q1013 RMK TCUE/SE
     A2993=
SKMD 231900Z 36007KT 9999 SCT040CB SCT100 24/16 Q1016 RMK CB/NE/E
     A3003=
SKPE 231900Z 19005KT 9999 SCT025TCU 27/19 Q1015 RMK TCUSE
     A2997=
SKSM 231900Z 29005KT 9999 FEW020 SCT070 30/25 Q1010 RMK A2984=
