SAUS70 KWBC 232000 RRN
METAR
KPBI 231953Z 36014KT 10SM FEW040 SCT060 29/18 A3003 RMK AO2 SLP169
     T02890183 $=
KPCZ 231955Z AUTO 12014G17KT 10SM CLR 24/12 A2977 RMK AO2
     T02410121=
KPDK 231953Z 00000KT 10SM CLR 22/02 A3015 RMK AO2 SLP210
     T02170017=
KPDT 231953Z 29012KT 10SM CLR 11/03 A3009 RMK AO2 SLP186
     T01110028=
KWRL 231953Z AUTO 34014G29KT 10SM FEW022 OVC060 04/M01 A2960 RMK
     AO2 PK WND 34031/1925 SLP029 T00391006=
KWVI 231953Z AUTO 22007KT 10SM CLR 18/06 A2998 RMK AO2 SLP151
     T01780056=
KYIP 231953Z 15013G24KT 10SM CLR 26/09 A3009 RMK AO2 SLP184
     T02560094=
KZZV 231953Z AUTO 18005KT 10SM CLR 24/08 A3014 RMK AO2 SLP204
     T02390083=
KSHD 231955Z AUTO 04006KT 10SM BKN037 BKN043 20/06 A3023 RMK AO2
     T01950062=
KSHN 231953Z AUTO 00000KT 8SM BKN004 08/07 A3015 RMK AO2 SLP213
     T00830067=
KSHR 231953Z AUTO 31025G34KT 10SM BKN017 BKN022 OVC050 04/01 A2957
     RMK AO2 PK WND 31034/1947 SLP017 T00390006=
KSIY 231953Z AUTO 01008KT 10SM CLR 11/M01 A3015 RMK AO2 SLP225
     T01061006=
KSJC 231953Z 33010KT 10SM CLR 19/02 A3000 RMK AO2 SLP156
     T01890017=
KSMF 231953Z 34018G23KT 10SM CLR 21/M03 A2996 RMK AO2 PK WND
     35026/1935 SLP146 T02111028=
KSNA 231953Z 21010KT 10SM SCT041 22/10 A2985 RMK AO2 SLP107
     T02170100=
KSNS 231953Z 31011KT 10SM CLR 19/04 A2997 RMK AO2 SLP158
     T01890044=
KSPB 231953Z AUTO 13005KT 10SM BKN050 BKN065 13/07 A3017 RMK AO2
     SLP215 T01330067=
KSPG 231953Z 04004KT 10SM CLR 27/20 A3003 RMK AO2 SLP170
     T02720200=
KSRQ 231953Z 00000KT 10SM FEW055 28/16 A3002 RMK AO2 SLP165
     T02830156=
KSRR 231955Z AUTO 24041G58KT 10SM 17/00 A2973 RMK AO2=
KSTS 231953Z AUTO VRB06G15KT 10SM CLR 20/M01 A3001 RMK AO2 SLP155
     T02001011=
KTCL 231953Z 18006KT 10SM CLR 26/07 A3009 RMK AO2 SLP188
     T02560067=
KTDZ 231953Z AUTO 16012KT 10SM CLR 24/10 A3009 RMK AO2 SLP188
     T02390100=
KTIW 231953Z 22003KT 10SM SCT008 BKN014 11/06 A3017 RMK AO2 SLP218
     T01060061=
KTMB 231953Z 08010KT 10SM BKN049 BKN055 28/18 A3000 RMK AO2 SLP159
     T02830183=
KTOI 231953Z AUTO 36005KT 10SM CLR 28/05 A3012 RMK AO2 SLP197
     T02830050=
KTPA 231953Z 02005KT 10SM SCT050 BKN250 30/14 A3005 RMK AO2 SLP177
     T03000144=
KTTD 231953Z 00000KT 10SM FEW025 SCT041 OVC060 13/07 A3017 RMK AO2
     SLP218 T01330072=
KTVL 231953Z AUTO 10008G15KT 060V130 10SM CLR 04/M10 A2999 RMK AO2
     SLP150 T00441100=
KTWF 231953Z 29026G38KT 10SM FEW033 07/M02 A2989 RMK AO2 PK WND
     30038/1953 SLP113 T00671017=
KUAO 231953Z 19005KT 10SM SCT022 SCT032 BKN041 13/07 A3019 RMK AO2
     SLP221 T01330072=
KVCB 231953Z AUTO 34015G26KT 10SM CLR 21/M02 A3000 RMK AO2 PK WND
     01029/1910 SLP158 T02061022=
KVDF 231955Z AUTO 04005KT 10SM CLR 30/17 A3006 RMK AO2=
KVEL 231953Z AUTO 00000KT 10SM FEW011 03/01 A2966 RMK AO2 SLP044
     T00330006=
KVGT 231953Z 33020G32KT 10SM CLR 17/M09 A2984 RMK AO2 PK WND
     34032/1948 SLP111 T01721089 $=
KVRB 231953Z 01012KT 10SM CLR 27/18 A3005 RMK AO2 SLP176
     T02720183=
KVUO 231953Z AUTO 21003KT 10SM OVC060 13/06 A3019 RMK AO2 SLP222
     T01280061 $=
KPEO 231953Z AUTO 12006KT 10SM CLR 19/04 A3025 RMK AO2 SLP242
     T01940039=
KPGD 231953Z 08009KT 10SM FEW060 30/14 A3004 RMK AO2 SLP172
     T03000144=
KPHD 231953Z AUTO VRB03KT 10SM CLR 24/05 A3015 RMK AO2 SLP209
     T02390050=
KPIE 231953Z 01003KT 10SM CLR 28/16 A3005 RMK AO2 SLP177
     T02830156=
KPIH 231953Z 24015G22KT 10SM FEW020 BKN085 05/M02 A2983 RMK AO2
     SLP105 T00501022 $=
KPMD 231953Z AUTO 27012G18KT 10SM CLR 16/M03 A2990 RMK AO2 SLP113
     T01611033=
