SANZ31 NZKL 231730
METAR NZAA 231730Z AUTO 13001KT 9999 NCD 11/11 Q1029 NOSIG=
METAR NZWN 231730Z AUTO 02017KT 9999 NCD 14/09 Q1022 NOSIG=
METAR NZCH 231730Z AUTO 22006KT 9999 NCD 13/03 Q1019 NOSIG=
