SAUS70 KWBC 231800 RRB
METAR
KVAY 231754Z AUTO 02004KT 10SM OVC022 17/13 A3022 RMK AO2 RAB09E27
     SLP234 P0000 60002 T01670128 10167 20133 58007 $=
KVSF 231754Z AUTO 00000KT 10SM CLR 16/06 A3034 RMK AO2 SLP278
     T01560061 10156 20011 58019=
KVTA 231754Z AUTO 19008KT 10SM CLR 25/09 A3016 RMK AO2 SLPNO
     T02500089 10256 20089 58016=
KVVV 231755Z 13018G27KT 10SM 21/13 A2936 RMK AO2=
KWLD 231754Z AUTO 18022G35KT 10SM CLR 28/15 A2962 RMK AO2 PK WND
     18035/1750 SLP016 T02830150 10283 20217 58008=
KY63 231755Z AUTO 11019G24KT 10SM CLR 21/12 A2942 RMK AO2
     T02070118 10211 20123=
PAKN 231754Z 00000KT 10SM CLR M04/M06 A3008 RMK AO2 SLP186 I1001
     I6001 T10441056 11011 21056 51013=
KEEO 231753Z AUTO 32012G18KT 1/4SM SN FZFG BKN005 OVC011 M01/M01
     A2958 RMK AO2 RAE1655UPB08E11SNB11 SLP001 P0007 60011
     T10061011 10017 21006 53009=
KGGW 231753Z AUTO 05013KT 3SM RA BR OVC021 02/01 A2956 RMK AO2
     SLP025 P0010 60018 T00220006 10061 20022 53014=
KGJT 231753Z VRB04KT 10SM -RA FEW021 BKN035 OVC042 06/03 A2958 RMK
     AO2 RAE14B39 SLP992 P0001 60013 T00610028 10061 20044
     50004=
KGUP 231753Z AUTO 25017G29KT 10SM -RA BKN023 BKN030 OVC035 06/03
     A2979 RMK AO2 PK WND 25036/1740 SLP010 P0002 60013 T00610028
     10100 20056 51006=
KHOU 231753Z 19019G28KT 10SM FEW040 SCT060 BKN250 30/13 A2995 RMK
     AO2 PK WND 15029/1714 SLP146 T03000128 10306 20217 58005=
KITR 231753Z AUTO 23037G52KT 2 1/2SM HZ OVC025 25/M04 A2934 RMK
     AO2 PK WND 23052/1747 SLP878 T02501039 10250 20133 58008
     $=
KJER 231753Z AUTO 28021G29KT 10SM CLR 04/M02 A2986 RMK AO2 PK WND
     27029/1750 SLP121 T00441017 10044 21011 51024=
KLAR 231753Z AUTO 32012G15KT 10SM FEW032 SCT070 08/M02 A2945 RMK
     AO2 SLP910 60000 T00781017 10078 20006 58002 $=
KMTJ 231753Z AUTO 12014KT 10SM BKN008 BKN035 OVC100 04/03 A2961
     RMK AO2 RAE28 SLP979 P0002 60016 T00440033 10078 20011 58002
     $=
KMWL 231753Z AUTO 17019G31KT 10SM CLR 29/15 A2978 RMK AO2 PK WND
     17035/1717 SLP069 T02940150 10294 20194 58011=
KPIL 231753Z AUTO 15020G28KT 10SM FEW037 31/21 A2985 RMK AO2 PK
     WND 16033/1738 RAE49 SLP108 P0000 60000 T03110211 10311 20217
     58012=
KMLS 231753Z AUTO 30009KT 3SM RA BR FEW009 BKN018 OVC024 06/05
     A2947 RMK AO2 SLP989 P0013 60045 T00560050 10061 20056
     50010=
KSAF 231753Z 22028G40KT 10SM SCT065 BKN080 BKN095 17/01 A2970 RMK
     AO2 PK WND 21041/1733 SLP974 T01670006 10172 20100 58009=
KSBA 231753Z 19007KT 10SM CLR 19/08 A2987=
KSDL 231753Z 23009KT 10SM FEW046 FEW065 21/09 A2979 RMK AO2 SLP069
     T02110089 10217 20194 51009=
KSGR 231753Z 18011G23KT 10SM BKN060 31/16 A2994 RMK AO2 SLP140
     T03060156 10306 20211 58005=
KSHR 231753Z AUTO 31020G32KT 10SM UP SCT011 BKN022 OVC040 03/01
     A2957 RMK AO2 PK WND 32034/1738 UPE24B46SNB05E09B24E46 SLP020
     P0002 60016 T00280006 10050 20017 50008=
KSNA 231753Z 00000KT 10SM SCT043 BKN050 21/09 A2986 RMK AO2 SLP110
     T02060089 10217 20167 51013=
KTCC 231753Z AUTO 22027G44KT 10SM CLR 24/09 A2961 RMK AO2 PK WND
     22045/1740 SLP971 60000 T02390089 10239 20144 58011=
KTKI 231753Z 18023G35KT 10SM BKN040 28/16 A2983 RMK AO2 PK WND
     17035/1749 SLP097 T02780161 10278 20206 58008=
KDET 231753Z 20008KT 8SM CLR 24/11 A3013 RMK AO2 SLP201 T02390106
     10250 20111 58014=
KGSH 231753Z AUTO 18019G29KT 10SM CLR 24/12 A3001 RMK AO2 PK WND
     19029/1748 SLP160 T02440122 10244 20144 58013=
KHLG 231753Z 07005KT 5SM HZ CLR 22/04 A3021 RMK AO2 SLP228
     T02170039 10217 20056 58009=
KHUF 231753Z 18014G27KT 10SM CLR 26/12 A2998 RMK AO2 PK WND
     19032/1715 SLP148 T02610122 10261 20172 58018=
