SAUS70 KWBC 232020 RRD
METAR
KHYX 232015Z AUTO 16015G22KT 10SM CLR 24/10 A3005 RMK AO2
     T02370096=
KIGQ 232015Z AUTO 18020G29KT 10SM CLR 26/13 A2988 RMK AO2
     T02550130=
KJPX 232015Z AUTO 04006KT 7SM -RA SCT032 BKN049 OVC075 13/13 A3024
     RMK AO2 P0008 T01300130=
KMOP 232015Z AUTO 16011G18KT 10SM CLR 23/10 A3001 RMK AO2
     T02330097=
KMUT 232015Z AUTO 15013G21KT 10SM CLR 24/14 A2968 RMK AO2=
KOXI 232015Z AUTO 18013G24KT 10SM CLR 25/10 A2993 RMK AO1=
KPCW 232015Z AUTO 19010KT 10SM CLR 25/08 A3008 RMK AO2=
KPEX 232015Z AUTO 14018G21KT 10SM CLR 23/12 A2943 RMK AO2=
KPTD 232015Z AUTO 04006KT 10SM CLR 22/05 A3025 RMK AO2=
KSAR 232015Z AUTO 17021G26KT 10SM CLR 25/15 A2988 RMK AO2
     T02520147=
KSLO 232015Z AUTO 17017G24KT 10SM BKN044 26/14 A2990 RMK AO2
     T02620140=
KTNU 232015Z AUTO 16019G26KT 10SM CLR 27/14 A2954 RMK A01=
KUSE 232015Z AUTO 17012G18KT 10SM CLR 24/09 A3006 RMK AO2=
KXLL 232015Z AUTO 03006KT 10SM SCT050 SCT060 17/09 A3026 RMK
     AO2=
K0F2 232015Z AUTO 17017G25KT 10SM CLR 29/15 A2970 RMK AO2
     T02910152=
K3S8 232015Z AUTO 00000KT 10SM SCT025 SCT030 11/05 A3022 RMK
     AO2=
K5T9 232015Z AUTO 13008G15KT 100V160 10SM CLR 27/19 A2975 RMK
     A01=
K65S 232015Z AUTO 00000KT 10SM FEW028 SCT055 BKN090 08/04 A3001
     RMK AO2=
KARM 232015Z AUTO 16015G21KT 10SM SCT046 SCT050 OVC055 28/16 A2988
     RMK AO2 T02810161 TSNO=
KBAM 232015Z AUTO 33010G15KT 10SM SCT033 BKN041 BKN060 05/00 A3003
     RMK AO1=
KBKD 232015Z AUTO 18015G21KT 5SM HZ CLR 31/14 A2970 RMK AO2
     T03130141=
KBPC 232015Z AUTO 21023G28KT 10SM CLR 26/08 A2953 RMK AO2 PNO=
KCWC 232015Z AUTO 16023G30KT 10SM CLR 32/14 A2965 RMK AO2
     T03150135=
KDZB 232015Z AUTO 17014G21KT 150V210 10SM SCT050 29/14 A2979 RMK
     AO2 T02910140=
KF05 232015Z AUTO 20023G30KT 10SM CLR 34/12 A2961 RMK AO2
     T03350119=
KFOT 232010Z AUTO 32013KT 10SM CLR 15/06 A3015 RMK AO1=
KGDJ 232015Z AUTO 16023G32KT 10SM CLR 29/15 A2975 RMK AO2
     T02880151=
KGOO 232015Z AUTO VRB05G13KT 10SM CLR 14/M08 A2996 RMK A01=
KRTS 232015Z AUTO 07009G17KT 10SM BKN050 OVC065 06/M09 A3006 RMK
     AO2=
KAUM 232017Z AUTO 16016G24KT 10SM CLR 24/13 A2955 RMK AO2=
KBAX 232015Z AUTO 17012G17KT 10SM CLR 23/10 A3009 RMK AO2
     T02280102=
KCQM 232016Z AUTO 14012G18KT 110V170 10SM CLR 23/11 A2961 RMK
     AO2=
KD39 232015Z AUTO 11020G27KT 10SM SCT044 23/12 A2942 RMK AO2
     T02260123=
KDSF 232015Z AUTO 06005KT 10SM CLR 25/14 A3006 RMK A01=
KGLX 232015Z AUTO 05010KT 10SM CLR 26/14 A3006 RMK A01=
KHCD 232015Z AUTO 12021G30KT 10SM CLR 25/12 A2944 RMK AO2
     T02500123=
KHHV 232015Z AUTO 14016G24KT 10SM CLR 27/19 A2988 RMK A01=
KHZX 232015Z AUTO 13017G23KT 10SM SCT046 23/12 A2956 RMK AO2=
KIMS 232015Z AUTO 17009G15KT 10SM CLR 25/08 A3008 RMK AO2=
KJYG 232016Z AUTO 14022G35KT 10SM CLR 25/12 A2941 RMK AO2=
KLVN 232015Z AUTO 15019G28KT 10SM CLR 24/11 A2950 RMK AO2=
KLXL 232015Z AUTO 14017G25KT 10SM CLR 24/13 A2946 RMK AO2=
KMJQ 232015Z AUTO 15021G28KT 10SM CLR 25/11 A2941 RMK AO2=
KMZH 232015Z AUTO 13005G17KT 10SM BKN047 25/11 A2957 RMK AO2=
KONA 232015Z AUTO 15014G21KT 10SM CLR 25/12 A2959 RMK AO2=
KOSC 232015Z AUTO 11004KT 10SM CLR 21/12 A3007 RMK AO2
     T02130119=
KPMH 232015Z AUTO 18003KT 10SM CLR 26/03 A3012 RMK AO2
     T02620026=
KRRT 232015Z AUTO 04012G17KT 10SM CLR 14/11 A2955 RMK AO2=
KVAF 232015Z AUTO 14016KT 10SM CLR 28/18 A2992 RMK A01=
KWBF 232015Z AUTO 00000KT 10SM 27/18 A3002 RMK A01=
KY49 232015Z AUTO 10007KT 070V140 10SM CLR 21/11 A2949 RMK AO2
     T02070111=
K05U 232015Z AUTO 35015G21KT 10SM 02/M03 A2999 RMK A01=
