SAUS70 KWBC 231738 RRC
METAR
KBWW 231735Z AUTO 03009KT 10SM OVC013 07/05 A2936 RMK AO2=
KBXK 231735Z AUTO 25008G14KT 10SM BKN075 22/10 A2979 RMK A01=
KC29 231735Z AUTO 16012G19KT 10SM CLR 23/12 A2981 RMK AO1
     T02260122=
KCAD 231735Z AUTO 16011G19KT 10SM CLR 22/11 A3000 RMK AO2
     T02160109=
KCDA 231735Z AUTO 11004KT 10SM 18/06 A3036 RMK AO2 T01760056=
KCDI 231735Z AUTO 00000KT 10SM CLR 22/10 A3020 RMK AO2
     T02170100=
KCDN 231735Z AUTO 00000G10KT 10SM CLR 23/07 A3017 RMK AO2=
KCEY 231735Z AUTO 16008G23KT 140V200 10SM CLR 25/11 A3006 RMK
     A01=
KCFJ 231735Z AUTO 17015G22KT 10SM CLR 23/07 A3001 RMK AO2
     T02340070=
KCGC 231735Z AUTO 02003KT 10SM SCT050 27/14 A3012 RMK AO2=
KCJR 231735Z AUTO 01008KT 10SM OVC026 18/09 A3024 RMK AO2
     T01830085=
KCKC 231735Z AUTO 14006KT 10SM SCT100 17/11 A2979 RMK AO2=
KCKM 231735Z AUTO 18013G20KT 10SM CLR 27/15 A3005 RMK A01=
KCLS 231735Z AUTO 26003KT 9SM OVC005 05/05 A3015 RMK AO2=
KCLW 231735Z AUTO 04005KT 10SM CLR 26/14 A3009 RMK AO2=
KCMR 231735Z AUTO 27009G16KT 10SM SCT035 BKN040 OVC060 04/M01
     A2986 RMK AO2=
KCNB 231735Z AUTO 10024G28KT 10SM CLR 22/12 A2938 RMK AO2
     T02210116=
KCPT 231735Z AUTO 17023G29KT 10SM SCT038 27/17 A2984 RMK A01=
KCTZ 231735Z AUTO 02005KT 10SM CLR 21/10 A3014 RMK AO2
     T02110102=
KCVX 231735Z AUTO 16010G18KT 10SM CLR 23/12 A2999 RMK AO2
     T02310119=
KD57 231735Z AUTO 06012KT 10SM CLR 10/03 A2934 RMK AO2=
KD60 231735Z AUTO 07017KT 10SM OVC008 04/05 A2951 RMK AO2=
KD95 231735Z AUTO 18007G18KT 10SM CLR 23/06 A3012 RMK AO2
     T02260064=
KDNA 231735Z AUTO 23019G30KT 10SM SCT060 SCT075 SCT085 26/08 A2982
     RMK AO2=
KDNN 231735Z AUTO VRB03KT 10SM CLR 21/03 A3021 RMK AO2
     T02120027=
KTSP 231735Z AUTO 28012KT 9SM CLR 09/00 A2995 RMK AO2=
KTTF 231735Z AUTO 16011G15KT 10SM CLR 23/10 A3012 RMK AO2
     T02320101=
KTWT 231735Z AUTO 20017G23KT 10SM CLR 26/10 A3003 RMK AO2=
KU42 231735Z AUTO 32018G23KT 10SM SCT023 SCT043 BKN060 04/02 A2978
     RMK AO1 T00440024=
KULM 231735Z AUTO 14018G26KT 10SM CLR 22/11 A2947 RMK AO2=
KUOX 231735Z AUTO 18012KT 10SM SCT042 24/13 A3010 RMK AO2
     PWINO=
KUTA 231735Z AUTO 20018G25KT 10SM CLR 27/15 A3004 RMK AO2
     T02680150 $=
KVGC 231735Z AUTO 15006KT 10SM CLR 16/02 A3030 RMK AO2=
KVJI 231735Z AUTO 00000KT 10SM CLR 22/02 A3023 RMK AO2
     T02150018=
KVLL 231735Z AUTO 16008KT 130V190 10SM CLR 22/11 A3015 RMK AO2
     T02230105=
KVWU 231735Z AUTO 12012KT 10SM CLR 22/11 A2958 RMK AO2=
KW78 231735Z AUTO 34005KT 10SM CLR 17/06 A3020 RMK AO1
     T01720058=
KW81 231735Z AUTO 36006KT 10SM OVC025 17/06 A3019 RMK AO1
     T01670064=
KX07 231735Z AUTO 00000KT 10SM SCT044 SCT055 27/16 A3010 RMK
     A01=
KX60 231735Z AUTO 01006KT 10SM CLR 27/13 A3012 RMK AO2
     T02700131=
KXNX 231735Z AUTO 17012G19KT 150V210 10SM CLR 25/06 A3016 RMK
     A01=
KY19 231735Z AUTO 07013G20KT 10SM CLR 11/06 A2933 RMK AO2=
KY70 231735Z AUTO 17010G15KT 10SM CLR 22/10 A3004 RMK AO2
     T02170104=
KONZ 231735Z AUTO 20003KT 10SM CLR 17/06 A3014 RMK AO2
     T01680064=
KORS 231735Z AUTO 18005KT 10SM BKN014 OVC038 10/09 A3011 RMK
     AO2=
KOSC 231735Z AUTO 13008KT 10SM CLR 22/12 A3010 RMK AO2
     T02210115=
KOXD 231735Z AUTO 20011G16KT 10SM CLR 25/07 A3013 RMK AO2
     T02530069=
KOZS 231735Z AUTO 17018G26KT 10SM CLR 27/12 A2977 RMK AO2=
KPAN 231735Z AUTO 21011G17KT 10SM FEW019 SCT029 BKN035 12/07 A2986
     RMK AO2 PWINO TSNO=
KPCM 231735Z AUTO 02005KT 10SM SCT044 29/18 A3012 RMK AO2=
KPGV 231735Z AUTO 34008KT 10SM OVC016 18/15 A3013 RMK AO2=
KPJC 231735Z AUTO RMK AO2 TSNO PWINO=
