SAUS80 KWBC 231800 RRC
METAR
KY23 231755Z AUTO 13008KT 10SM CLR 22/15 A2968 RMK AO2 T02200149
     10220 20131=
KYKM 231753Z AUTO 00000KT 10SM CLR 10/01 A3007 RMK AO2 SLP186
     T01000006 10106 21017 51020=
PAOT 231753Z 20007KT 10SM FEW020 BKN039 M01/M02 A2983 RMK AO2
     SLP100 60000 T10061017 10011 21006 51008=
PASN 231753Z AUTO 20027G32KT 2 1/2SM -RA BR OVC005 06/06 A2975 RMK
     AO2 PK WND 20039/1719 CIG 004V010 SLP076 P0000 60013
     T00610056 10061 20050 56033 TSNO $=
PATK 231753Z 05003KT 10SM CLR M06/M08 A2990 RMK AO2 SLP133
     T10561083 11011 21056 51010=
PAYA 231753Z AUTO 31004KT 10SM CLR 04/03 A2947 RMK AO2 SLP980
     T00440028 10050 20011 56015 TSNO $=
PHJR 231753Z 00000KT 5SM -RA BR FEW025 BKN036 OVC050 23/21 A3004
     RMK AO2 RAB35 SLP178 P0001 60001 T02330211 10244 20228
     53016=
PHNL 231753Z 05009KT 10SM FEW021 BKN044 BKN065 26/22 A3002 RMK AO2
     RAB20E34 SLP165 VCSH N P0000 60001 T02560222 10261 20244
     53015=
KSTC 231753Z 13012G22KT 10SM CLR 22/12 A2952 RMK AO2 SLP004
     T02220117 10222 20139 58023=
KTRI 231753Z 00000KT 10SM CLR 22/04 A3021 RMK AO2 SLP215 T02170039
     10217 20022 58020 $=
KTUP 231753Z 17014G18KT 10SM CLR 26/11 A3011 RMK AO2 SLP194
     T02560106 10256 20128 58013 $=
KTYS 231753Z 23003KT 10SM CLR 22/05 A3019 RMK AO2 SLP217 T02220050
     10222 20056 58020=
KUIL 231753Z AUTO 00000KT 10SM BKN023 09/06 A3012 RMK AO2 SLP200
     I6001 T00890056 10089 21006 50015=
PABE 231753Z 14008KT 6SM BR OVC002 M01/M02 A3001 RMK AO2 SLP166
     60000 I1001 I6013 T10111017 11011 21044 58012=
PABT 231753Z 01003KT 6SM BR FEW008 OVC035 M06/M07 A3002 RMK AO2
     SLP183 T10561072 11050 21056 $=
PACD 231753Z 23009KT 10SM SCT035 04/03 A3022 RMK AO2 SLP234
     T00440028 10061 20044 50000=
PADQ 231753Z 30008KT 10SM CLR 06/M03 A2990 RMK AO2 SLP126
     T00561033 10061 20050 51017=
PAFA 231753Z 00000KT 1/4SM FZFG VV003 M02/M03 A3000 RMK AO2 SLP168
     60000 T10171028 11011 21017 51008 RVRNO $=
PAHO 231753Z 00000KT 10SM CLR M02/M04 A2991 RMK AO2 SLP129 I1000
     I6000 T10221044 11011 21033 51014=
PAJN 231753Z 10016G28KT 10SM FEW028 BKN050 OVC060 06/M02 A2953 RMK
     AO2 PK WND 08028/1747 SLP999 T00611017 10067 20039 58030
     $=
PANC 231753Z VRB03KT 10SM FEW003 SCT220 M02/M06 A2988 RMK AO2
     SLP120 T10221061 11006 21028 51013=
PANN 231753Z AUTO VRB04KT 1 3/4SM BR OVC003 M02/M02 A3000 RMK AO2
     SLP169 T10171022 11011 21022 51004 TSNO=
PAOM 231753Z 15019KT 10SM -RA OVC010 04/02 A2974 RMK AO2 RAB1656
     SLP070 P0000 60017 T00440022 10044 20011 58016=
PAOR 231753Z 30004KT 10SM FEW042 OVC085 M04/M06 A2985 RMK AO2
     SLP145 4/006 60000 T10441061 11044 21050 51006 $=
KBFF 231753Z AUTO 32022G33KT 10SM CLR 15/02 A2931 RMK AO2 PK WND
     30038/1654 SLP900 T01500017 10161 20056 53011=
KEKN 231751Z AUTO 36006KT 10SM CLR 22/00 A3022 RMK AO2 SLP238
     I6000 T02170000 10217 21017 58022=
KMFD 231752Z 14010KT 10SM CLR 22/08 A3017 RMK AO2 SLP212 T02220083
     10233 20089 58012=
KBDR 231752Z 03009KT 10SM -RA BKN110 14/08 A3027 RMK AO2 RAB01
     SLP249 P0001 60001 T01390078 10150 20117 58017=
KMBG 231752Z AUTO 10013KT 10SM CLR 18/09 A2920 RMK AO2 SLP885
     T01830094 10194 20078 58028=
KNYC 231751Z AUTO 07008KT 10SM -RA OVC100 14/11 A3029 RMK AO2
     SLP249 P0001 60001 T01390106 10156 20133 55007 $=
KTOL 231752Z 17007G16KT 120V200 10SM CLR 24/11 A3011 RMK AO2
     SLP192 T02440106 10250 20100 58016=
KBLU 231752Z AUTO VRB06G16KT 10SM CLR 06/M06 A2999 RMK AO2 SLP139
     T00561061 10061 20006 51018 $=
