SAUS80 KWBC 231900
METAR
KESN 231845Z 34004KT 7SM BKN020 16/16 A3021=
