SAUS70 KWBC 232100 RRQ
METAR
KOLM 232054Z 20005KT 10SM SCT035 12/06 A3016 RMK AO2 SLP215
     T01220056 51003 $=
KPSO 232055Z AUTO 24010G22KT 10SM OVC050 04/M06 A2974 RMK AO2 LTG
     DSNT S T00411062=
KSAA 232055Z AUTO 26018KT 4SM -SN SCT013 BKN026 OVC032 00/00 A2960
     RMK AO2=
KCFS 232055Z AUTO 17012G19KT 10SM CLR 24/08 A3006 RMK AO2
     T02380079=
KCKN 232055Z AUTO 12015G23KT 10SM CLR 25/11 A2938 RMK AO2=
KDNV 232055Z AUTO 16017G25KT 10SM CLR 25/11 A2992 RMK AO2
     T02480106=
KFET 232055Z AUTO 17017G31KT 5SM HZ SCT040 SCT046 30/13 A2932 RMK
     AO2 T02970132=
KFOA 232055Z AUTO 18023G30KT 10SM SCT050 26/13 A2992 RMK AO2=
KFSW 232055Z AUTO 16015G22KT 10SM OVC001 26/15 A2967 RMK AO2=
KFWC 232055Z AUTO 18017G22KT CLR 26/11 A2992 RMK AO1 T02610111
     PWINO=
KGDB 232055Z AUTO 12023G32KT 10SM CLR 26/13 A2935 RMK AO2 LTG DSNT
     SE T02600129=
KGPC 232055Z AUTO 19015KT 10SM CLR 25/11 A2998 RMK AO2 LTG DSNT NW
     T02520108=
KGWB 232055Z AUTO 16003KT 10SM CLR 23/10 A3003 RMK AO2=
KHJH 232055Z AUTO 17026G31KT 7SM SCT034 BKN042 BKN050 29/11 A2932
     RMK AO2 LTG DSNT NE T02880110=
KLNN 232055Z AUTO 12008KT 10SM CLR 23/03 A3012 RMK AO1
     T02250029=
KMWO 232055Z AUTO 14010G17KT 10SM CLR 25/07 A3007 RMK AO2
     T02470071=
KMZZ 232055Z AUTO 17014G18KT 7SM CLR 24/10 A3002 RMK AO2
     T02410101=
KPHN 232055Z AUTO 15009G15KT 10SM CLR 23/06 A3010 RMK AO2=
KPMV 232055Z AUTO 18028G38KT 10SM SCT120 28/13 A2937 RMK AO2 LTG
     DSNT NE AND E T02810130=
KPPO 232055Z AUTO 17013G24KT 10SM CLR 24/14 A2993 RMK AO2 LTG DSNT
     W T02440143=
KPRG 232055Z AUTO 17022KT 10SM CLR 25/12 A2993 RMK AO2 LTG DSNT NW
     T02450122=
KRPJ 232055Z AUTO 16023G31KT 10SM SCT046 BKN110 24/16 A2979 RMK
     AO2 T02380155 TSNO=
KRSV 232055Z AUTO 17017G22KT 10SM CLR 25/10 A2995 RMK AO2
     T02470098=
KSXK 232055Z AUTO 17019G30KT 10SM CLR 28/12 A2927 RMK AO2=
K2V5 232055Z AUTO 36017G24KT 10SM SCT120 22/M04 A2926 RMK AO2=
K5SM 232055Z AUTO M1/4SM +SN OVC002 M06/M08 A2965 RMK AO2 LTG DSNT
     S=
K7BM 232055Z AUTO 26013G22KT 1 1/4SM -SN BKN006 OVC010 M02/M05
     A2961 RMK AO2 LTG DSNT W=
K81R 232055Z AUTO 17014G24KT 10SM CLR 29/14 A2977 RMK AO2
     T02930138=
KBPG 232055Z AUTO 19021KT 10SM CLR 29/11 A2969 RMK AO2
     T02950111=
KT82 232055Z AUTO 18015G19KT 10SM CLR 26/15 A2982 RMK AO2
     T02610146=
KTEX 232055Z AUTO 25015G20KT 3/4SM -SN BKN008 OVC012 M01/M06 A2972
     RMK AO2 LTG DSNT N=
KTPH 232056Z AUTO 32019G33KT 10SM FEW070 07/M07 A2996 RMK AO2 PK
     WND 32034/2014 SLP141 T00721072 51005=
KTYL 232055Z AUTO 24015G28KT 10SM SCT060 15/00 A2980 RMK AO2=
KUKI 232056Z AUTO 31007KT 10SM CLR 19/M01 A3002 RMK AO2 SLP161
     T01941006 58012=
KVHN 232055Z AUTO 23020G26KT 10SM CLR 30/07 A2975 RMK AO2
     T03020066=
KVTP 232055Z AUTO 25018G29KT 10SM BKN018 BKN029 OVC037 M11/M16
     A2962 RMK AO2=
