SAUS70 KWBC 232100 RRX
METAR
KBOW 232050Z 02007KT 10SM SKC 28/14 A3006=
KHSA 232050Z COR 12011KT 10SM CLR 25/14 A3007=
PALJ 232058Z 00000KT 40SM SKC 02/M05 A3002 RMK EST PASS OPN
     NOSPECI=
