SAUS80 KWBC 231846
METAR
KROS 231842Z AUTO 12011G22KT 10SM CLR 25/14 A2957 RMK AO2=
