SAUS70 KWBC 232000 RRN
METAR
KFHR 231953Z AUTO 12004KT 10SM CLR 11/07 A3015 RMK AO2 SLP210
     T01060072=
KGEY 231953Z AUTO 34018G29KT 10SM BKN022 OVC029 04/02 A2960 RMK
     AO2 PK WND 33030/1936 RAB03E29 SLP027 P0000 T00390017=
KHIO 231953Z 00000KT 10SM BKN055 13/07 A3017 RMK AO2 SLP217
     T01280067=
KL18 231955Z AUTO 00000KT 10SM SCT041 19/08 A2986 RMK AO2=
KLGB 231953Z 19008KT 10SM FEW036 22/11 A2986 RMK AO2 SLP110
     T02170106=
KMFE 231953Z 15020G29KT 10SM CLR 32/18 A2977 RMK AO2 PK WND
     15034/1912 SLP080 T03220178 $=
KBYS 231955Z AUTO 34007KT 10SM CLR 17/M10 A2986 RMK AO2 SLP098
     T01671101=
KHQM 231953Z AUTO 08006KT 10SM FEW027 SCT032 13/08 A3016 RMK AO2
     SLP216 T01280078=
KIDA 231953Z 33006KT 9SM SCT035 BKN043 OVC050 04/M04 A2980 RMK AO2
     PK WND 35027/1929 RAB31E34SNB34E50 SLP100 P0000 T00391044=
KLOL 231953Z AUTO 02012G20KT 10SM BKN070 10/M09 A3004 RMK AO2
     SLPNO T01001089 $=
PANA 231956Z AUTO 15011KT 10SM FEW032 OVC046 00/M01 A2997 RMK AO2
     SLP149 T00001006 FZRANO TSNO $=
PANV 231956Z AUTO 14006KT 1/4SM FZFG OVC003 M03/M03 A2998 RMK AO2
     SLP257 T10281033 FZRANO TSNO=
PANW 231956Z AUTO 00000KT 10SM CLR 01/M03 A3011 RMK AO2 SLP203
     T00111028 FZRANO=
PAOH 231956Z AUTO 09011G18KT 10SM -RA OVC016 04/03 A2947 RMK AO2
     SLP980 T00390028 PNO $=
PAOO 231956Z AUTO 12006KT FEW027 OVC033 03/03 A2988 RMK AO2 SLP123
     T00280028 PWINO TSNO $=
PAOU 231956Z AUTO 21011KT 10SM BKN038 05/03 A3020 RMK AO2 SLP226
     T00500033 PNO $=
PAPG 231956Z 15009G22KT 100V190 10SM -RA SCT023 BKN036 OVC080
     07/02 A2942 RMK AO2 PK WND 11026/1932 SLP967 P0001
     T00670022=
PAPH 231956Z AUTO 28010KT 10SM BKN045 BKN050 06/03 A3018 RMK AO2
     SLP220 T00610028=
PAPM 231956Z AUTO 05/02 RMK AO2 RAB06E22 SLPNO P0000 T00500022
     PWINO $=
PAQH 231956Z AUTO 11009KT 10SM OVC035 01/01 A3000 RMK AO2 SLP159
     T00110011 FZRANO=
PARC 231956Z AUTO 00000KT 3SM -SN SCT012 SCT018 BKN023 M11/M14
     A2991 RMK AO2 SLP196 P0000 T11061139 FZRANO=
PARS 231956Z AUTO 11004KT 10SM OVC003 A2999 RMK AO2 SLPNO FZRANO
     $=
PARY 231956Z AUTO 15004KT 10SM UP BKN027 OVC034 M02/M03 A3001 RMK
     AO2 UPB49SNE43 SLP177 P0000 T10221028 FZRANO=
PASA 231956Z AUTO 30011KT 4SM UP BR OVC009 01/00 A2970 RMK AO2
     RAE07UPB56 CIG 007V014 SLP059 P0000 T00060000 FZRANO=
PASD 231956Z 23007KT 10SM FEW024 SCT048 BKN060 07/02 A3024 RMK AO2
     SLP242 T00720022 PNO $=
PASH 231956Z AUTO 12010KT 10SM FEW042 BKN055 OVC065 M01/M02 A2976
     RMK AO2 SLP078 T10111017 FZRANO PNO $=
PASK 231956Z AUTO 12006KT 10SM BKN060 M01/M02 A2991 RMK AO2 SLP125
     T10111017 FZRANO=
PASL 231956Z AUTO 04003KT 10SM CLR M01/M02 A3010 RMK AO2 SLP187
     T10111022 FZRANO=
PASM 231956Z AUTO 15009G19KT 5SM -SN BR OVC002 00/M01 A2990 RMK
     AO2 UPB01E51SNE01B51 SLP135 P0000 T00001006 FZRANO=
PASX 231956Z AUTO 00000KT 10SM CLR 01/M01 A2995 RMK AO2 SLP148
     T00061006 FZRANO=
PATE 231956Z AUTO 11014KT 9SM -SN BKN019 OVC027 00/M01 A2968 RMK
     AO2 SLP055 P0000 T00001006 FZRANO=
PATG 231956Z AUTO 36005KT 10SM OVC033 M02/M02 A3011 RMK AO2 SLP195
     T10221022 FZRANO=
PATQ 231956Z AUTO 11011KT 10SM CLR M09/M11 A2993 RMK AO2 SLP140
     T10941106 FZRANO TSNO=
PAUN 231956Z AUTO 08006KT 10SM -SN OVC037 00/M02 A2996 RMK AO2
     UPB23E30B46E51SNB30E46B51 SLP149 P0000 T00001022 FZRANO=
PAUT 231955Z AUTO 21017KT 10SM SCT046 BKN065 OVC085 07/05 A3018
     RMK AO2=
KBFL 231954Z 26005KT 10SM CLR 17/02 A2995 RMK AO2 SLP139
     T01670017=
KCCR 231953Z VRB05KT 10SM CLR 21/M02 A2999 RMK AO2 SLP141
     T02111022=
