SAUS80 KWBC 232138
METAR
KIKW 232135Z AUTO 12009KT 10SM CLR 24/11 A3002 RMK AO2
     T02350112=
KLYV 232135Z AUTO 17017G28KT 10SM CLR 26/10 A2930 RMK AO2=
KPOV 232135Z AUTO 14005KT 10SM CLR 22/M01 A3013 RMK AO2 T02211006
     PWINO=
KPZQ 232135Z AUTO 15008G14KT 10SM CLR 23/12 A3004 RMK AO2
     T02260116=
KCLI 232135Z AUTO 14010G19KT 10SM CLR 20/12 A2980 RMK AO2
     T02040124=
KEKX 232135Z AUTO 17009KT 10SM CLR 23/07 A3007 RMK AO2
     T02300070=
KM21 232135Z AUTO 17011G17KT 10SM CLR 26/08 A3002 RMK AO2
     T02560082=
KSYN 232135Z AUTO 15012G33KT 7SM CLR 25/12 A2950 RMK AO2
     T02470121=
KY23 232135Z AUTO 13013G21KT 10SM SCT050 24/15 A2960 RMK AO2
     T02410151=
KPTS 232135Z AUTO 18018G29KT 10SM CLR 29/14 A2963 RMK AO2
     T02900135 PWINO=
KSMS 232135Z AUTO 00000KT 10SM CLR 23/07 A3013 RMK AO2=
KSNC 232135Z AUTO 36004KT 10SM BKN033 12/10 A3027 RMK AO2=
KSOW 232135Z AUTO 22017G26KT 10SM FEW037 SCT043 SCT050 11/02 A2983
     RMK AO2=
KEDU 232140Z AUTO 34013G22KT 10SM CLR 20/M03 A2998 RMK AO1=
KGNG 232135Z AUTO 29019G25KT 10SM CLR 09/M08 A2991 RMK AO2=
KCIR 232135Z AUTO 21007G20KT 10SM CLR 27/14 A2994 RMK AO2
     T02650135=
KJNX 232135Z AUTO 01008KT 10SM OVC032 21/12 A3012 RMK AO2=
KTKV 232135Z AUTO 14006KT 10SM OVC043 21/12 A2974 RMK AO2
     T02110119 PWINO=
KVTI 232135Z AUTO 15018G28KT 10SM CLR 25/14 A2960 RMK AO2
     T02450135=
KMKN 232135Z AUTO 17016G25KT 10SM CLR 29/14 A2974 RMK AO2
     T02920136=
KRFI 232135Z AUTO 15011G18KT 10SM SCT060 30/08 A2987 RMK AO2
     T02960082=
KRLD 232135Z AUTO 21006KT 10SM CLR 16/01 A3011 RMK AO2
     T01560012=
KS39 232130Z AUTO VRB06KT 10SM CLR 09/M03 A3011 RMK AO2=
KSEP 232135Z AUTO 18017G25KT 10SM CLR 30/13 A2976 RMK AO2
     T02990127=
KIKW 232135Z AUTO 12009KT 10SM CLR 24/11 A3002 RMK AO2
     T02350112=
KLYV 232135Z AUTO 17017G28KT 10SM CLR 26/10 A2930 RMK AO2=
KPOV 232135Z AUTO 14005KT 10SM CLR 22/M01 A3013 RMK AO2 T02211006
     PWINO=
KPZQ 232135Z AUTO 15008G14KT 10SM CLR 23/12 A3004 RMK AO2
     T02260116=
KSVE 232135Z AUTO 11005KT 10SM BKN070 M22/M52 A3007 RMK AO2=
KCLI 232135Z AUTO 14010G19KT 10SM CLR 20/12 A2980 RMK AO2
     T02040124=
KSYN 232135Z AUTO 15012G33KT 7SM CLR 25/12 A2950 RMK AO2
     T02470121=
KY23 232135Z AUTO 13013G21KT 10SM SCT050 24/15 A2960 RMK AO2
     T02410151=
