SAUS70 KWBC 231838 RRE
METAR
KLRU 231835Z AUTO 24022G28KT 10SM BKN055 BKN075 OVC085 23/06 A2983
     RMK AO2 T02270064=
KMAN 231835Z AUTO 31014KT 10SM CLR 09/M00 A3001 RMK A01=
KO22 231835Z AUTO 22007KT 10SM CLR 16/M02 A2994 RMK A01=
KO32 231835Z AUTO 00000KT 10SM CLR 16/03 A2994 RMK AO2 T01580035
     $=
KONM 231835Z AUTO 21020G26KT 10SM CLR 22/M01 A2972 RMK AO2
     T02191012=
KPAN 231835Z AUTO 24012G21KT 220V280 10SM SCT025 SCT030 BKN065
     12/05 A2986 RMK AO2 PWINO TSNO=
KPVF 231835Z AUTO 29007KT 10SM CLR 13/M08 A2997 RMK AO1=
KRPH 231835Z AUTO 16015G24KT 10SM CLR 29/15 A2971 RMK AO2
     T02910150 $=
KSXU 231835Z AUTO 24021G31KT 10SM BKN095 24/00 A2963 RMK AO2
     T02410001=
KTME 231835Z AUTO 16014G21KT 10SM BKN055 BKN065 30/16 A2992 RMK
     AO2=
KTSP 231835Z AUTO 27015G21KT 9SM CLR 09/M01 A2995 RMK AO2=
KU42 231835Z AUTO 33018G22KT 10SM SCT035 SCT042 BKN065 05/01 A2980
     RMK AO1 T00460010=
K10G 231835Z AUTO 14010KT 10SM CLR 23/05 A3018 RMK AO2=
K1P1 231835Z AUTO 00000KT 10SM CLR 17/05 A3034 RMK AO2
     T01730046=
K20U 231835Z AUTO 04013KT 10SM OVC009 06/05 A2941 RMK AO2=
K2P2 231835Z AUTO 18012G18KT 10SM SCT110 17/12 A2992 RMK AO2
     T01700116=
K3D2 231835Z AUTO 17015G26KT 130V200 10SM CLR 17/11 A2990 RMK AO2
     T01650105=
K6L4 231835Z AUTO VRB05KT 10SM CLR 23/05 A3018 RMK AO2=
KANQ 231835Z AUTO 16015G21KT 10SM FEW050 23/11 A3005 RMK AO2=
KAQP 231833Z AUTO 17016G28KT 10SM SCT085 23/11 A2937 RMK AO2=
KD25 231835Z AUTO 15016G22KT 10SM CLR 21/12 A2977 RMK AO2
     T02110119=
KD55 231835Z AUTO 05019G26KT 10SM BKN012 11/11 A2950 RMK AO2=
KETH 231833Z AUTO 11026G30KT 10SM 23/12 A2936 RMK AO2=
KHZE 231835Z AUTO 05016G22KT 10SM CLR 12/06 A2936 RMK AO2=
KI68 231835Z AUTO 16010G15KT 10SM CLR 24/10 A3012 RMK AO1
     T02400098=
KIDI 231835Z AUTO 00000KT 10SM CLR 20/02 A3026 RMK A01=
KLNL 231835Z AUTO 17013G21KT 10SM SCT039 22/10 A2982 RMK AO2
     T02150103=
KMDS 231835Z AUTO 14024G32KT 10SM CLR 23/13 A2929 RMK AO2=
KN38 231835Z AUTO 18009KT 10SM CLR 17/03 A3026 RMK AO2=
KPCZ 231835Z AUTO 12014KT 10SM CLR 24/12 A2980 RMK AO2
     T02360121=
KRCX 231835Z AUTO 14012G18KT 10SM CLR 23/16 A2971 RMK AO2
     T02250155=
KRPD 231835Z AUTO 11013G18KT 10SM CLR 22/16 A2966 RMK AO2
     T02220157=
KSDC 231835Z AUTO 14006KT 10SM CLR 21/01 A3024 RMK AO2=
KTME 231835Z AUTO 16014G21KT 10SM BKN055 BKN065 30/16 A2992 RMK
     AO2=
KVGC 231835Z AUTO 18004KT 10SM CLR 18/05 A3029 RMK AO2=
K06D 231835Z AUTO 04019KT 10SM OVC013 09/06 A2951 RMK AO2=
K46D 231835Z AUTO 08019G25KT 10SM CLR 17/07 A2937 RMK AO2=
K7L2 231835Z AUTO 09013G19KT 10SM CLR 18/09 A2926 RMK AO2=
KBWP 231835Z AUTO 12019G29KT 10SM CLR 24/12 A2934 RMK AO2=
KBWW 231835Z AUTO 35010KT 10SM OVC015 08/05 A2936 RMK AO2=
KC29 231835Z AUTO 15015G20KT 10SM CLR 24/12 A2978 RMK AO1
     T02370124=
KCFJ 231835Z AUTO 18022G27KT 10SM CLR 24/07 A2999 RMK AO2
     T02380067=
KCKZ 231835Z AUTO 07009G16KT 10SM CLR 17/10 A3025 RMK AO2=
KD57 231835Z AUTO 05016KT 10SM CLR 12/03 A2929 RMK AO2=
KD60 231835Z AUTO 05013KT 10SM OVC008 05/05 A2949 RMK AO2=
KEKM 231835Z AUTO 17015G23KT 8SM FEW049 25/13 A3000 RMK AO2
     T02480134=
KGWR 231835Z AUTO 11023KT 9SM CLR 21/12 A2932 RMK A01=
KOLG 231835Z AUTO 14011G15KT 110V180 10SM CLR 23/10 A2965 RMK
     AO1=
KPVB 231835Z AUTO 15016G22KT 10SM CLR 24/12 A2973 RMK AO1
     T02370122=
KRNH 231835Z AUTO 12011G21KT 10SM CLR 23/16 A2959 RMK AO2
     T02330162=
KRUG 231835Z AUTO 06024G31KT 10SM CLR 09/07 A2943 RMK AO2=
KRVL 231835Z AUTO 00000KT 8SM BKN027 BKN035 OVC090 17/08 A3026 RMK
     AO2=
