SAUS70 KWBC 231800 RRB
METAR
KABY 231753Z AUTO VRB04KT 10SM CLR 24/09 A3017 RMK AO2 SLP217
     T02440089 10244 20061 58017=
KACK 231753Z 04011KT 8SM -RA FEW025 BKN041 OVC055 16/14 A3026 RMK
     AO2 RAE30B46 SLP248 P0001 60012 T01560139 10167 20156
     58012=
KAEX 231753Z 16015G21KT 10SM BKN047 BKN055 28/16 A3000 RMK AO2
     SLP161 T02780156 10289 20167 58015=
KAFW 231753Z 18023G36KT 10SM FEW034 SCT250 28/16 A2979 RMK AO2 PK
     WND 19036/1747 SLP074 T02830161 10283 20200 58007=
KAGC 231753Z 8SM CLR 21/03 A3021 RMK AO2 SLP233 T02060033 10211
     20072 58012=
KAIA 231753Z AUTO 32017G23KT 10SM CLR 14/03 A2927 RMK AO2 PK WND
     34026/1728 SLP891 T01440028 10156 20000 51013=
KAKO 231753Z AUTO 23022G34KT 10SM CLR 24/M03 A2927 RMK AO2 PK WND
     25034/1746 SLP852 T02391033 10239 20150 $=
KALI 231753Z AUTO 15014G21KT 10SM SCT044 30/20 A2985 RMK AO2 PK
     WND 15028/1723 SLP105 T03000200 10300 20178 58014=
KAMA 231753Z 22018G27KT 10SM CLR 23/11 A2965 RMK AO2 PK WND
     23036/1700 SLP990 T02280111 10250 20167 58013=
KAMG 231753Z AUTO 00000KT 10SM CLR 26/12 A3015 RMK AO2 SLP206
     T02560122 10256 20106 58016=
KAOO 231753Z AUTO 07004KT 10SM CLR 17/03 A3027 RMK AO2 SLP253
     T01720033 10189 20000 58014=
KAPA 231753Z 23017G32KT 10SM FEW035 FEW050 BKN090 BKN200 17/M01
     A2936 RMK AO2 PK WND 22033/1741 SLP885 SHSN OMTNS DSNT SW-NW
     T01671006 10172 20144 50008=
KAPF 231753Z 05011G16KT 10SM SCT048 BKN060 29/19 A3004 RMK AO2
     SLP171 T02890194 10294 20189 58016 $=
KAQP 231753Z AUTO 16021G30KT 10SM CLR 23/11 A2937 RMK AO2=
KASD 231753Z AUTO 17012G19KT 10SM CLR 27/14 A3010 RMK AO2 SLP193
     T02720139 10272 20117 58013=
KASE 231753Z 36006KT 1SM -SN BR FEW005 OVC015 01/M01 A2957 RMK AO2
     SLP943 P0003 60035 T00061006 10044 20000 50000=
KAUG 231753Z AUTO 10003KT 10SM CLR 18/08 A3036 RMK AO2 SLP283
     T01780083 10178 20067 58012=
KAZO 231753Z 17013G21KT 10SM CLR 24/12 A3002 RMK AO2 SLP162
     T02440122 10244 20139 58018 $=
KBAK 231745Z 19016G24KT 10SM SCT060 24/09 A3009=
KBBW 231753Z AUTO 18029G40KT 10SM FEW031 28/03 A2922 RMK AO2 PK
     WND 20045/1733 SLP872 T02830028 10283 20011 58019=
KBEH 231753Z AUTO 16016G24KT 10SM CLR 24/13 A2995 RMK AO2 PK WND
     14026/1721 SLP140 T02440133 10244 20150 58018=
KBFD 231753Z AUTO 18006KT 10SM CLR 20/01 A3026 RMK AO2 SLP244
     T02000011 10200 20011 58010=
KCEZ 231753Z AUTO 19016G24KT 10SM OVC095 06/02 A2972 RMK AO2 PK
     WND 19028/1743 RAE11 SLP019 P0000 60006 T00560022 10122 20039
     50018 $=
KCGI 231753Z 17013G23KT 10SM OVC040 25/15 A2998 RMK AO2 PK WND
     20028/1658 SLP148 T02500150 10250 20178 58013=
KCHO 231753Z 04005KT 10SM OVC031 21/08 A3021 RMK AO2 SLP227
     T02060078 10206 20061 58017=
KCMI 231753Z 17023G34KT 10SM FEW090 26/13 A2992 RMK AO2 PK WND
     17035/1710 SLP127 T02560133 10256 20172 58014=
KCNM 231753Z AUTO 21013G22KT 10SM CLR 29/09 A2971 RMK AO2 PK WND
     25026/1706 SLP005 T02890094 10289 20139 58009=
KCOT 231753Z AUTO 15012G21KT 7SM CLR 28/18 A2983 RMK AO2 PK WND
     14026/1712 SLP093 T02830183 10283 20200 58012=
KCPR 231753Z 36004KT 3SM -RA BR BKN009 BKN019 OVC023 03/01 A2950
     RMK AO2 RAE1659B17UPB26E30 SLP968 P0001 60013 I6000 T00330011
     10039 20011 51013=
KCRE 231753Z 35010G15KT 10SM CLR 22/04 A3012 RMK AO1 SLP199
     T02220044 10222 20122 58008=
KCRG 231753Z 04009KT 10SM FEW022 SCT030 BKN037 26/19 A3013 RMK AO2
     SLP202 T02610189 10261 20122 58014=
KCRS 231753Z AUTO 18021G30KT 10SM SCT048 29/15 A2989 RMK AO2 PK
     WND 19032/1739 SLP117 T02940150 10300 20206 58010 $=
