SAUS70 KWBC 231900 RRG
METAR
KHBG 231853Z AUTO 17008KT 10SM CLR 28/10 A3009 RMK AO2 SLP188
     T02780100=
KHBI 231855Z AUTO 36006KT 10SM CLR 21/04 A3020 RMK AO2
     T02050039=
KHBR 231853Z AUTO 18021G30KT 10SM CLR 27/13 A2964 RMK AO2 PK WND
     17030/1847 SLP020 T02720133=
KHEI 231853Z AUTO 35008KT 10SM BKN024 BKN030 11/04 A2932 RMK AO2
     SLP932 T01110039=
KHFD 231853Z 02004KT 10SM -RA FEW080 FEW095 OVC120 13/08 A3030 RMK
     AO2 RAB33 SLP260 P0000 T01330078=
KHGR 231853Z 02009KT 10SM FEW026 OVC041 18/10 A3024 RMK AO2 SLP250
     T01780100 $=
KHHR 231853Z VRB03KT 10SM CLR 22/08 A2986 RMK AO2 SLP110
     T02170083=
KHIB 231853Z AUTO 14011G24KT 10SM FEW060 21/12 A2963 RMK AO2
     SLP038 T02060117=
KHIO 231853Z 00000KT 10SM BKN040 11/07 A3017 RMK AO2 SLP217
     T01060072=
KHJO 231853Z AUTO 34012KT 5SM HZ CLR 19/01 A2995 RMK AO2 SLP142
     T01890011=
KHKA 231853Z AUTO 18017G25KT 10SM CLR 27/14 A2997 RMK AO2 PK WND
     18027/1755 SLP148 T02670139 $=
KHKS 231853Z 17008G17KT 10SM SCT055 28/14 A3006 RMK AO2 SLP170
     T02780139=
KHKY 231853Z 28003KT 10SM CLR 22/07 A3017 RMK AO2 SLP203
     T02170067=
KHLG 231853Z 19003KT 10SM CLR 23/04 A3018 RMK AO2 SLP219
     T02280044=
KHOT 231853Z AUTO 20013G20KT 10SM SCT045 26/16 A2992 RMK AO2
     SLP125 T02610156=
KHOU 231853Z 16018G29KT 10SM FEW040 SCT060 BKN250 30/15 A2991 RMK
     AO2 PK WND 17029/1848 SLP134 T03000150=
KHQM 231853Z AUTO 09008KT 10SM OVC031 12/08 A3015 RMK AO2 SLP212
     T01170078=
KHRI 231853Z AUTO 24009KT 10SM CLR 12/03 A3010 RMK AO2 SLP191
     T01220033=
KHRJ 231855Z AUTO 36010KT 10SM CLR 21/04 A3015 RMK AO2
     T02110043=
KHRO 231853Z AUTO 18014G20KT 10SM CLR 24/14 A2986 RMK AO2 SLP097
     T02390144=
KHUF 231853Z 18019G30KT 10SM CLR 27/12 A2997 RMK AO2 PK WND
     20034/1830 SLP145 T02670122=
KHUL 231853Z AUTO VRB03KT 10SM CLR 21/07 A3033 RMK AO2 SLP272
     T02060072=
KHWO 231853Z 06011KT 10SM FEW041 SCT060 BKN070 28/18 A3003 RMK AO2
     SLP169 T02830183=
KHWY 231855Z AUTO 01007KT 10SM OVC040 19/11 A3024 RMK AO2
     T01890106=
KHYR 231853Z AUTO 15014G22KT 10SM CLR 23/12 A2966 RMK AO2 SLP041
     T02330122=
KHZY 231853Z AUTO 17008KT 10SM CLR 23/06 A3019 RMK AO2 SLP219
     T02330061=
KIAH 231853Z 16016G25KT 10SM SCT065 BKN250 29/14 A2991 RMK AO2 PK
     WND 15031/1823 SLP127 T02940144=
KICR 231853Z AUTO 17010KT CLR 26/04 A2914 RMK AO2 SLP853
     T02560039=
KLFK 231853Z AUTO 18012G23KT 10SM BKN060 29/15 A2993 RMK AO2 PK
     WND 14031/1834 SLP130 T02890150=
KLFT 231853Z 15010G22KT 10SM SCT046 28/16 A3002 RMK AO2 SLP165
     T02780161=
KLGB 231853Z VRB04KT 10SM SCT031 BKN047 BKN055 21/11 A2986 RMK AO2
     SLP112 T02110111=
KLHQ 231853Z AUTO 17007KT 10SM CLR 24/09 A3014 RMK AO2 SLP205
     T02440089=
KLKU 231855Z AUTO 02009KT 3/4SM -RA BR BKN015 OVC020 15/13 A3020
     RMK AO2 T01500126=
KLLQ 231853Z AUTO 19012G18KT 10SM FEW050 28/14 A2998 RMK AO2
     SLP147 T02830139=
KLMT 231853Z VRB04KT 10SM SCT041 07/M03 A3010 RMK AO2 SLP196
     T00671033=
KLNS 231853Z 02006KT 10SM BKN070 BKN085 18/10 A3024 RMK AO2 SLP241
     T01780100=
KLOL 231853Z AUTO 34015G20KT 10SM CLR 09/M08 A3004 RMK AO2 SLPNO
     T00891083 $=
KLOU 231853Z 17014G23KT 10SM CLR 25/08 A3008 RMK AO2 SLP182
     T02500083=
KLOZ 231853Z AUTO 20003KT 10SM CLR 23/03 A3015 RMK AO2 SLP204
     T02280028=
KLPR 231853Z AUTO 18012G18KT 10SM CLR 24/08 A3015 RMK AO2 SLP206
     T02390083=
KLSE 231853Z 14017G24KT 10SM FEW046 26/13 A2963 RMK AO2 PK WND
     18027/1837 SLP026 T02560128 $=
KLUK 231853Z 21007G17KT 10SM CLR 26/08 A3010 RMK AO2 SLP191
     T02560083=
