SAUS80 KWBC 231934
METAR
KSVE 231935Z AUTO 02006KT 10SM BKN050 BKN070 M16/M25 A3007 RMK
     AO2=
