SAHA31 KWBC 231900
METAR
KQHA NIL=
MTCA NIL=
MTCH NIL=
MTEG NIL=
MTJA NIL=
MTJE NIL=
MTPP 231900Z 30007KT 270V330 9999 SCT028CB 31/22 Q1010 A2985
     RMK/CB/N=
MTPP 231900Z 30007KT 270V330 9999 SCT028CB 31/22 Q1010 A2985
     RMK:CB/N=
MTPX NIL=
MTTP NIL=
