SAUS70 KWBC 231942 RRA
METAR
KAUH 231935Z AUTO 19026G31KT 7SM CLR 30/11 A2926 RMK AO2
     T02980110=
KAWG 231935Z AUTO 16020G29KT 10SM CLR 24/16 A2964 RMK AO2=
KC75 231935Z AUTO 17022G28KT 10SM CLR 25/16 A2978 RMK AO2
     T02460160=
KCNC 231935Z AUTO 17015G27KT 10SM CLR 27/15 A2953 RMK AO2=
KDNS 231935Z AUTO RMK AO2 PNO PWINO=
KFFL 231935Z AUTO 16016G24KT 9SM CLR 24/13 A2963 RMK A01=
KGGP 231935Z AUTO 18016G26KT 10SM SCT050 25/10 A2999 RMK AO2=
KICL 231935Z AUTO 18020G28KT 10SM CLR 29/14 A2946 RMK AO2=
KJOT 231935Z AUTO 17016G24KT 10SM SCT120 26/14 A2985 RMK AO2
     T02600138=
KLOM 231935Z AUTO 05007KT 010V070 10SM BKN047 BKN060 OVC120 17/11
     A3022 RMK AO2 T01670106=
KLOT 231935Z AUTO 16019G35KT 10SM CLR 26/14 A2985 RMK AO2=
KLXN 231935Z AUTO 21027G39KT 5SM HZ SCT110 31/03 A2921 RMK AO2
     T03050027=
KN03 231935Z AUTO 21003KT 10SM CLR 18/06 A3026 RMK AO2=
KOGA 231935Z AUTO 33019G22KT 10SM CLR 23/M01 A2923 RMK AO2
     T02271010=
KOGS 231935Z AUTO 00000KT 10SM CLR 22/04 A3023 RMK AO2=
KOLE 231935Z AUTO 21004KT 10SM CLR 18/02 A3025 RMK AO2=
KONL 231935Z AUTO 17025G33KT 10SM CLR 29/05 A2918 RMK AO2
     T02860054=
KOOA 231935Z AUTO 16019G29KT 10SM CLR 26/18 A2960 RMK AO2
     T02590180=
KPNT 231935Z AUTO 17023G33KT 10SM CLR 25/16 A2985 RMK AO2
     T02520162=
KGLW 231935Z AUTO 17010KT 10SM CLR 25/09 A3009 RMK AO2
     T02470089=
KHCR 231935Z AUTO 02013KT 10SM BKN055 BKN080 03/M03 A2973 RMK
     AO2=
KHHW 231935Z AUTO 17018G24KT 10SM BKN045 28/16 A2981 RMK AO2=
KI75 231935Z AUTO 16017G22KT 10SM SCT110 28/14 A2953 RMK AO2
     T02790142=
KIIB 231935Z AUTO 15020G27KT 7SM CLR 24/14 A2963 RMK AO2
     T02370138=
KIJX 231935Z AUTO 16016G25KT 10SM CLR 24/15 A2978 RMK AO2 LTG DSNT
     SW T02410145=
KLMO 231935Z AUTO 24005KT 10SM SCT110 20/M05 A2933 RMK AO2
     T01961049=
KLUV 231935Z AUTO 20018G26KT 10SM CLR 30/10 A2970 RMK AO2=
KMGC 231935Z AUTO 19015G24KT 10SM CLR 25/12 A2992 RMK AO2=
KMLE 231935Z AUTO 17019G28KT 10SM CLR 30/13 A2934 RMK AO2
     T02990129=
KMNE 231940Z AUTO 20011G18KT 10SM BKN050 30/17 A2993 RMK AO2
     T02950166=
KMQB 231935Z AUTO 16020G27KT 10SM CLR 24/13 A2975 RMK AO2
     T02410125=
KNOW 231935Z AUTO 05007KT 10SM SCT070 11/08 A3014 RMK AO2
     T01080077=
KNRN 231935Z AUTO 24017G37KT 7SM SCT034 BKN120 31/03 A2927 RMK
     AO2=
KORG 231935Z AUTO 16012G17KT 10SM OVC050 29/19 A2998 RMK AO2
     T02900186=
KPPA 231935Z AUTO 22018G23KT 10SM CLR 27/12 A2959 RMK AO2
     T02690116=
KPTT 231935Z AUTO 18032G39KT 7SM CLR 31/11 A2943 RMK AO2
     T03070110=
KRBO 231935Z AUTO 10SM SCT001 SCT033 BKN060 30/20 A2982 RMK AO2
     T02950204=
KRCR 231935Z AUTO 18016G23KT 10SM FEW055 24/11 A2998 RMK AO2=
KSDA 231935Z AUTO 17027G36KT 10SM CLR 29/14 A2940 RMK AO2=
KSEF 231935Z AUTO 04006KT 7SM SCT048 28/17 A3005 RMK AO2=
KSHL 231935Z AUTO 15025G35KT 10SM CLR 27/13 A2932 RMK AO2=
KSJS 231935Z AUTO 00000KT 10SM CLR 24/07 A3016 RMK AO2
     T02350072=
KSLB 231935Z AUTO 17027G37KT 9SM CLR 27/13 A2939 RMK AO2=
KSNL 231935Z AUTO 19020G32KT 10SM CLR 29/12 A2968 RMK AO2
     T02850122=
KSUT 231935Z AUTO 36004KT 10SM CLR 24/08 A3009 RMK AO2
     T02440079=
KT35 231935Z AUTO 19018G23KT 10SM BKN048 BKN055 30/17 A2983 RMK
     AO2 T03000172=
KT41 231935Z AUTO 10SM BKN042 BKN050 BKN065 30/18 A2991 RMK AO2
     T02970181=
KTAZ 231935Z AUTO 17020G26KT 10SM SCT036 24/14 A2985 RMK AO2 LTG
     DSNT W T02350141=
KTBR 231935Z AUTO 28004KT 10SM CLR 24/09 A3013 RMK AO2
     T02440089=
K04V 231935Z AUTO 23025G39KT 10SM CLR 11/M08 A2957 RMK AO2=
K17J 231935Z AUTO 04005KT 10SM CLR 25/03 A3012 RMK AO2
     T02480034=
