SACA33 KWBC 232100 RRC
METAR
TFFF 232130Z AUTO 09008KT 9999 FEW024 29/25 Q1011 NOSIG=
TFFR 232130Z AUTO VRB01KT CAVOK 27/24 Q1011 TEMPO 4000 SHRA
     SCT018TCU=
