SACA31 KWBC 232000 RRB
METAR
MKJS 232000Z 05010KT 9999 FEW020CB 30/23 Q1011=
