SAUS80 KWBC 231638
METAR
KPOV 231635Z AUTO 00000KT 10SM CLR 19/04 A3023 RMK AO2 T01890041
     PWINO=
KPZQ 231635Z AUTO 17007KT 10SM CLR 22/13 A3009 RMK AO2
     T02200126=
KIKW 231635Z AUTO 13007KT 10SM CLR 23/12 A3008 RMK AO2
     T02280119=
KLYV 231635Z AUTO 15017G28KT 10SM CLR 20/11 A2941 RMK AO2=
KCLI 231635Z AUTO 15012KT 10SM CLR 20/13 A2987 RMK AO2
     T01990125=
KEKX 231635Z AUTO 19011G17KT 10SM CLR 23/08 A3015 RMK AO2
     T02310076=
KM21 231635Z AUTO 20010G20KT 10SM CLR 24/10 A3011 RMK AO2
     T02390096=
KY23 231635Z AUTO 15011G22KT 10SM CLR 20/14 A2972 RMK AO2
     T02000142=
KPTS 231635Z AUTO 20025G33KT 10SM CLR 26/16 A2971 RMK AO2
     T02590156 PWINO=
KSMS 231635Z AUTO 34007KT 10SM CLR 22/09 A3019 RMK AO2=
KSNC 231635Z AUTO 36003KT 10SM CLR 14/08 A3031 RMK AO2=
KSOW 231635Z AUTO 22016G24KT 4SM -RA FEW001 BKN018 OVC024 09/06
     A2982 RMK AO2=
KSYN 231635Z AUTO 15013G22KT 10SM CLR 22/12 A2962 RMK AO2
     T02150118=
KIKW 231635Z AUTO 13007KT 10SM CLR 23/12 A3008 RMK AO2
     T02280119=
KLYV 231635Z AUTO 15017G28KT 10SM CLR 20/11 A2941 RMK AO2=
KPZQ 231635Z AUTO 17007KT 10SM CLR 22/13 A3009 RMK AO2
     T02200126=
KEDU 231635Z AUTO 35011G18KT 10SM CLR 15/00 A2999 RMK AO1=
KGNG 231635Z AUTO 27017KT 10SM CLR 03/01 A2987 RMK AO2=
KJNX 231635Z AUTO 01008KT 10SM CLR 20/11 A3018 RMK AO2=
KRFI 231635Z AUTO 18007G19KT 150V210 10SM BKN035 BKN045 28/14
     A2996 RMK AO2 T02780136=
KRLD 231635Z AUTO 00000KT 10SM OVC100 10/02 A3006 RMK AO2
     T00970021=
KS39 231635Z AUTO 00000KT 10SM CLR 04/00 A3007 RMK AO2=
KSEP 231635Z AUTO 18019G27KT 10SM SCT031 26/15 A2987 RMK AO2
     T02570154=
KMKN 231635Z AUTO 18025G31KT 10SM CLR 26/17 A2985 RMK AO2
     T02550165=
KTKV 231635Z AUTO 14005KT 10SM CLR 19/12 A2982 RMK AO2 T01920119
     PWINO=
KVTI 231635Z AUTO 15018G24KT 10SM CLR 25/13 A2969 RMK AO2
     T02450134=
KCIR 231635Z AUTO 22011G18KT 10SM SCT045 OVC050 23/15 A3003 RMK
     AO2 T02260147=
KPOV 231635Z AUTO 00000KT 10SM CLR 19/04 A3023 RMK AO2 T01890041
     PWINO=
KSVE 231635Z AUTO 09004KT 10SM CLR 04/M03 A3005 RMK AO2=
KSNC 231635Z AUTO 36003KT 10SM CLR 14/08 A3031 RMK AO2=
KY23 231635Z AUTO 15011G22KT 10SM CLR 20/14 A2972 RMK AO2
     T02000142=
KCLI 231635Z AUTO 15012KT 10SM CLR 20/13 A2987 RMK AO2
     T01990125=
