SAUS70 KWBC 231700 RRS
METAR
KBYL 231655Z AUTO 16006KT 10SM CLR 21/05 A3021 RMK AO1=
KHHW 231659Z AUTO 17017G25KT 10SM OVC033 25/16 A2988 RMK AO2=
KJVY 231655Z AUTO 21012KT 10SM CLR 24/10 A3012 RMK AO2 PWINO=
KTNB 231650Z AUTO 00000KT 10SM CLR 20/01 A3025 RMK AO2
     T01950014=
KUKF 231655Z AUTO 00000KT 10SM CLR 19/04 A3027 RMK AO2=
KGOV 231658Z AUTO 17014G19KT 10SM CLR 22/11 A3004 RMK AO2 SLP176
     T02190107 $=
KNSE 231656Z AUTO 14003KT 10SM CLR 24/ A3018 RMK AO2 SLP206 T0239
     PNO $=
TISX 231653Z 12011KT 10SM SCT034 SCT047 31/24 A2992 RMK AO2
     RAB16E30 SLP130 P0000 T03110244 $=
KNSE 231656Z AUTO 14003KT 10SM CLR 24/ A3018 RMK AO2 SLP206 T0239
     PNO $=
