SAUS80 KWBC 232000
METAR
KJQF 231950Z 36005KT 10SM CLR 23/04 A3018=
