SAUS80 KWBC 232014
METAR
KSVE 232015Z AUTO 06004KT 10SM BKN060 OVC070 M22/M49 A3006 RMK
     AO2=
