SAUS70 KWBC 231800 RRH
METAR
KODO 231753Z AUTO 19016G24KT 10SM CLR 26/12 A2979 RMK AO2 SLP045
     T02610122 10267 20167 58003 $=
KOGB 231753Z AUTO 32008KT 10SM CLR 23/09 A3016 RMK AO2 SLP212
     T02280094 10233 20083 58018=
KOGD 231753Z 34015KT 10SM FEW033 SCT100 07/M01 A2976 RMK AO2
     SLP065 T00671011 10067 20033 51020=
KOJC 231753Z 18019G32KT 10SM CLR 27/14 A2960 RMK AO2 PK WND
     18035/1725 SLP013 T02720144 10272 20211 58009=
KOLF 231753Z AUTO 05014G23KT -RA OVC008 05/04 A2953 RMK AO2 PK WND
     06027/1734 CIG 006V010 SLP013 P0001 60009 T00500039 10056
     20050 53004=
KONO 231753Z AUTO 32017G23KT 10SM OVC090 09/M01 A3002 RMK AO2
     SLP171 T00941011 10094 20022 51022=
KONT 231753Z 00000KT 10SM BKN022 BKN045 17/11 A2987 RMK AO2 SLP109
     T01670106 10172 20122 50012 $=
KOPF 231753Z 06010G18KT 10SM SCT046 SCT055 OVC070 28/17 A3005 RMK
     AO2 SLP176 T02780172 10294 20200 58013=
KORL 231753Z 36006KT 10SM CLR 28/14 A3009 RMK AO2 SLP193 T02780139
     10278 20178 58017=
KOSH 231753Z 14011G20KT 10SM CLR 22/13 A2983 RMK AO2 SLP091
     T02220128 10222 20111 58015=
KOSU 231753Z 13006KT 10SM CLR 24/11 A3015 RMK AO2 SLP207 T02390106
     10239 20122 58016=
KOTM 231753Z AUTO 16023G31KT 10SM CLR 24/14 A2964 RMK AO2 PK WND
     15031/1753 SLP030 T02390139 10244 20172 58015=
KOVS 231753Z AUTO 16007G20KT 100V200 10SM CLR 24/13 A2973 RMK AO2
     SLP063 T02390128 10244 20150 58018 $=
KOWD 231753Z 02006KT 10SM CLR 15/12 A3034 RMK AO2 SLP273 T01500117
     10161 20067 56009=
KPBG 231753Z AUTO 13006KT 10SM CLR 16/06 A3030 RMK AO2 SLP261
     T01560056 10161 20028 58013=
KPBI 231753Z 04011KT 10SM SCT045 BKN070 28/18 A3006 RMK AO2 SLP178
     T02830178 10294 20206 58013 $=
KPEO 231753Z AUTO 22005KT 10SM CLR 20/04 A3026 RMK AO2 SLP245
     T02000039 10200 20072 58017=
KPGD 231753Z 07007KT 060V130 10SM SCT049 29/17 A3007 RMK AO2
     SLP183 T02940167 10294 20178 58018=
KPHD 231753Z AUTO 18005KT 10SM CLR 23/07 A3019 RMK AO2 SLP223
     T02280067 10228 20056 58013=
KPIE 231753Z 04004KT 10SM CLR 27/17 A3008 RMK AO2 SLP187 T02670172
     10272 20183 58018=
KPIH 231753Z 24016KT 10SM SCT055 BKN075 02/M02 A2982 RMK AO2
     SLP104 60000 T00221022 10022 20006 51020 $=
KPIL 231753Z AUTO 15020G28KT 10SM FEW037 31/21 A2985 RMK AO2 PK
     WND 16033/1738 RAE49 SLP108 P0000 60000 T03110211 10311 20217
     58012=
KPKB 231753Z 00000KT 10SM CLR 23/08 A3020 RMK AO2 SLP222 T02330083
     10239 20056 58013=
KPMD 231753Z AUTO 27012KT 10SM CLR 14/M01 A2991 RMK AO2 SLP117
     T01441011 10144 20083 50015=
KPMP 231753Z 03011KT 10SM FEW045 29/19 A3005 RMK AO2 SLP175
     T02940189 10294 20189 58012=
KPNS 231753Z 12007KT 10SM CLR 25/06 A3015 RMK AO2 SLP210 T02500061
     10256 20128 58009=
KPOU 231753Z 30004KT 10SM FEW120 13/08 A3028 RMK AO2 SLP249
     T01330083 10133 20067 58020=
KPPF 231752Z AUTO 20022G33KT 10SM FEW100 27/14 A2968 RMK AO2 PK
     WND 20035/1724 LTG DSNT W SLP040 T02720144 10272 20211 58010
     PWINO $=
KPQL 231753Z AUTO 17007KT 10SM CLR 26/13 A3013 RMK AO2 SLP205
     T02610128 10267 20083 58013=
KPRC 231753Z 01011G14KT 10SM FEW033 SCT041 BKN055 09/02 A2985 RMK
     AO2 SLP058 T00940022 10117 20083 51010=
KPSP 231753Z 30004KT 10SM CLR 23/05 A2981 RMK AO2 SLP094 T02280050
     10233 20161 51017 $=
KPSX 231753Z AUTO 15015G27KT 10SM BKN065 28/19 A2993 RMK AO2 PK
     WND 15027/1748 SLP136 T02830189 10283 20239 50002=
KPTK 231753Z 15007G17KT 10SM FEW040 BKN190 22/11 A3012 RMK AO2
     SLP197 T02170106 10222 20072 58014 $=
KPUB 231753Z 23024G33KT 10SM CLR 22/01 A2939 RMK AO2 PK WND
     21036/1737 SLP888 T02170006 10228 20183 56000=
