SAUS80 KWBC 231800
METAR
K77S 231755Z AUTO 17003KT 10SM SCT038 10/09 A3017 RMK A01=
