SAUS70 KWBC 231720 RRH
METAR
KLOM 231715Z AUTO 06008KT 020V080 10SM SCT120 17/11 A3025 RMK AO2
     T01690108=
KLOT 231715Z AUTO 16021G27KT 10SM CLR 24/13 A2991 RMK AO2=
KLRJ 231715Z AUTO 16025G30KT 10SM CLR 24/13 A2934 RMK AO2=
KLXN 231715Z AUTO 19023G31KT 10SM CLR 29/06 A2926 RMK AO2
     T02860063=
KMGC 231715Z AUTO 17010G26KT 10SM CLR 23/12 A2997 RMK AO2=
KMJD 231715Z AUTO 14011G16KT 10SM CLR 25/14 A3012 RMK AO2=
KMLJ 231715Z AUTO 00000KT 10SM CLR 23/10 A3019 RMK AO2=
KMNH 231715Z AUTO 23018G35KT 10SM SCT080 16/M03 A2942 RMK AO2=
KMQI 231715Z AUTO 01016G23KT 3SM -DZ OVC004 17/16 A3005 RMK AO2
     T01650161=
KMQS 231715Z AUTO 04007G15KT 10SM FEW080 16/10 A3026 RMK AO2=
KMYP 231716Z AUTO OVC002 M04/M05 A2973 RMK AO2 PWINO=
KOBE 231715Z AUTO 05011KT 10SM SCT043 SCT055 SCT065 28/19 A3008
     RMK AO2=
KOGA 231715Z AUTO 23011G15KT 10SM CLR 25/00 A2922 RMK AO2
     T02450000=
KOGS 231715Z AUTO 00000KT 10SM CLR 21/04 A3026 RMK AO2=
KOKM 231715Z AUTO 17024G33KT 10SM CLR 24/16 A2977 RMK AO2
     T02420160=
KOKZ 231715Z AUTO 13004KT 10SM CLR 23/10 A3019 RMK AO2
     T02290100=
KOLE 231715Z AUTO 19003KT 10SM CLR 17/03 A3027 RMK AO2=
KOLZ 231715Z AUTO 16021G30KT 10SM CLR 22/13 A2967 RMK A01=
KONL 231715Z AUTO 17021G25KT 10SM CLR 24/04 A2924 RMK AO2
     T02430041=
KOOA 231715Z AUTO 17023G29KT 10SM CLR 26/18 A2965 RMK AO2
     T02560177=
KOPL 231715Z AUTO 15015KT 10SM SCT039 SCT065 26/16 A3006 RMK AO2
     T02640157=
KOPN 231715Z AUTO 00000KT 10SM CLR 25/01 A3022 RMK AO2=
KOQN 231715Z AUTO 04006KT 10SM SCT100 SCT120 16/10 A3025 RMK
     AO2=
KOWP 231715Z AUTO 17015G21KT 140V210 10SM CLR 28/16 A2976 RMK AO2
     T02760155=
KOWX 231715Z AUTO 17008KT 10SM CLR 24/07 A3014 RMK AO1=
KPBX 231715Z AUTO 00000KT 10SM CLR 21/07 A3022 RMK AO2
     T02060067=
KPEA 231715Z AUTO 16015G23KT 10SM CLR 25/14 A2961 RMK AO2
     T02480138=
KPIM 231715Z AUTO 12005KT 10SM CLR 23/03 A3021 RMK AO2
     T02280028=
KPLU 231715Z AUTO 00000KT 10SM -DZ CLR 08/08 A3012 RMK AO2=
KPMU 231715Z AUTO 18013KT 10SM CLR 26/14 A3007 RMK AO2=
KPNA 231715Z AUTO 30025G30KT 10SM OVC120 00/M06 A2959 RMK AO2=
KPNT 231715Z AUTO 18019G26KT 10SM CLR 24/16 A2990 RMK AO2
     T02410159=
KPOY 231715Z AUTO 33019G25KT 2 1/2SM -SN 00/M02 A2958 RMK AO2 SKY
     OBSCURED=
KPPQ 231715Z AUTO 18015G21KT 10SM CLR 23/15 A2982 RMK AO2
     T02280148=
KRCR 231715Z AUTO 18014G20KT 10SM CLR 24/13 A3002 RMK AO2=
KRCV 231715Z AUTO 24010KT 7SM -RA SCT020 BKN026 OVC070 04/02 A2961
     RMK AO2 T00440023=
KRDK 231715Z AUTO 19023G30KT CLR 27/14 A2946 RMK AO2=
KREG 231715Z AUTO 15007G16KT 10SM SCT039 27/16 A3009 RMK AO2
     T02740156=
KRQO 231715Z AUTO 18023G31KT CLR 24/16 A2972 RMK AO2 PWINO
     T02380163=
KSBO 231715Z AUTO 02003KT 10SM CLR 24/11 A3019 RMK AO2=
KSBS 231715Z AUTO 25003KT 4SM BKN006 BKN009 OVC017 00/00 A2954 RMK
     AO1 T00040004=
KSDA 231715Z AUTO 17021G31KT 10SM CLR 27/13 A2944 RMK AO2=
KSEF 231715Z AUTO 04008KT 10SM SCT039 SCT048 BKN070 27/18 A3010
     RMK AO2=
KSHL 231715Z AUTO 16024G33KT 10SM CLR 23/13 A2938 RMK AO2=
KSJS 231715Z AUTO 16003KT 10SM CLR 22/08 A3022 RMK AO2
     T02220075=
KSLB 231715Z AUTO 16026G32KT 10SM CLR 23/13 A2943 RMK AO2=
KSME 231715Z AUTO VRB04KT 10SM CLR 23/06 A3017 RMK AO2=
KSUT 231715Z AUTO 36008G16KT 10SM CLR 22/07 A3011 RMK AO2
     T02170070=
KT35 231715Z AUTO 19015G25KT 10SM SCT047 BKN050 27/17 A2991 RMK
     AO2 T02660173=
KT41 231715Z AUTO 10SM BKN044 OVC060 28/16 A2999 RMK AO2
     T02820165=
KTIP 231715Z AUTO 17024G29KT 10SM CLR 24/13 A2994 RMK AO2
     T02410125=
KUNI 231715Z AUTO 00000KT 10SM -RA CLR 25/09 A3019 RMK AO2
     T02540085=
