SAUS70 KWBC 232000 RRX
METAR
KIWA 231954Z 26013KT 10SM SCT070 22/08 A2977=
KDNA 231955Z AUTO 27021G27KT 10SM CLR 25/07 A2977 RMK AO2=
KF70 231955Z AUTO 20003KT 10SM CLR 18/06 A2986 RMK AO2=
KILE 231956Z AUTO 18019G25KT 10SM CLR 30/16 A2979 RMK AO2 PK WND
     17030/1923 SLP078 T03000161=
KJAC 231956Z 29013KT 10SM SCT050 BKN065 02/M07 A2968 RMK AO2
     SLP068 T00171067 PNO $=
KLLJ 231955Z AUTO 31012G17KT 10SM BKN060 OVC075 04/M09 A2987 RMK
     AO2 SLP115 T00391089 $=
KLPC 231956Z AUTO 31011G19KT 10SM CLR 22/06 A2990 RMK AO2 SLP125
     T02170061=
KLRD 231956Z 14016G25KT 10SM CLR 33/17 A2974 RMK AO2 SLP067
     T03280172=
KLVS 231953Z AUTO 23033G54KT 10SM BKN085 18/M02 A2965 RMK AO2 PK
     WND 21054/1949 SLP943 T01781022=
KT69 231955Z AUTO 15017G22KT 9SM FEW026 FEW033 28/22 A2982 RMK
     A01=
KTME 231955Z AUTO 18010G18KT 10SM BKN065 30/15 A2989 RMK AO2=
KTVY 231955Z AUTO 33010KT 10SM BKN042 BKN049 OVC065 04/00 A2985
     RMK AO2=
K2DP 231955Z AUTO 35013G21KT 10SM OVC008 18/18 A3001 RMK AO2 SLPNO
     T01840184 $=
KNFE 231956Z AUTO 34008G16KT 3SM BR OVC008 17/15 A3008 RMK AO2
     SLP187 T01670150=
