SAUS70 KWBC 231700 RRK
METAR
KSFF 231653Z COR 26003KT 10SM BKN046 04/01 A3000 RMK AO2 SLP168
     T00440011=
KSIK 231655Z AUTO 17015G20KT 10SM SCT040 BKN050 24/15 A3001 RMK
     AO2=
KSPF 231655Z AUTO 29019G29KT 10SM CLR 08/02 A2934 RMK AO2=
KSTF 231655Z AUTO 15008G14KT 10SM CLR 23/13 A3013 RMK AO2=
KSUZ 231655Z AUTO 20011G19KT 10SM BKN035 OVC040 25/16 A2998 RMK
     A01=
KT69 231655Z AUTO 18012G18KT 10SM FEW037 SCT044 SCT055 29/20 A2991
     RMK A01=
KTKX 231655Z AUTO 19014G23KT 7SM OVC050 25/15 A3000 RMK AO2
     TSNO=
KTME 231655Z AUTO 17012G22KT 10SM SCT048 BKN055 29/17 A2997 RMK
     AO2=
KTSP 231655Z AUTO 28010KT 9SM CLR 08/01 A2994 RMK AO2=
KTWT 231655Z AUTO 20020G26KT 10SM CLR 26/10 A3005 RMK AO2=
KU42 231655Z AUTO 33018G22KT 10SM BKN085 03/01 A2976 RMK AO1
     T00300014=
K06D 231655Z AUTO 07018G24KT 10SM OVC006 06/06 A2956 RMK AO2=
K0S9 231655Z AUTO 11003KT 10SM CLR 07/07 A3010 RMK AO2=
K0VG 231655Z AUTO VRB03KT 10SM CLR 21/03 A3024 RMK AO2=
K15M 231655Z AUTO 18013G18KT 10SM CLR 22/08 A3016 RMK AO2
     T02250084 $=
K1R7 231655Z AUTO 16009KT 10SM CLR 25/18 A3013 RMK AO2 PWINO=
K24A 231655Z AUTO 00000KT 10SM CLR 18/03 A3026 RMK AO2
     T01760025=
K24J 231655Z AUTO 33004KT 10SM 24/10 A3015 RMK A01=
K28J 231655Z AUTO VRB05KT 9SM CLR 24/13 A3014 RMK AO2 TSNO=
K2D5 231655Z AUTO 08018KT 8SM CLR 14/07 A2937 RMK AO2=
K2P2 231655Z AUTO 19009G18KT 10SM BKN110 15/12 A2995 RMK AO2
     T01510119=
K3AU 231655Z AUTO 19029G35KT 10SM CLR 26/10 A2959 RMK AO2=
K42J 231655Z AUTO 08005KT 10SM CLR 24/11 A3014 RMK A01=
K46D 231655Z AUTO 08015G24KT 10SM CLR 13/05 A2944 RMK AO2=
K4A6 231655Z AUTO 00000G11KT 10SM CLR 22/06 A3021 RMK AO2=
K4M9 231655Z AUTO 19017G27KT 10SM FEW035 BKN043 24/17 A2999 RMK
     AO2 PWINO=
K5H4 231655Z AUTO 06018G23KT 10SM CLR 09/M03 A2946 RMK AO2=
K6B9 231655Z AUTO 10008KT 10SM CLR 19/04 A3028 RMK AO2=
K7L2 231655Z AUTO 09012KT 10SM CLR 14/08 A2933 RMK AO2=
K7W6 231655Z AUTO 33011G17KT 10SM OVC004 17/17 A3005 RMK AO2 P0001
     T01700170=
K82C 231655Z AUTO 15011G16KT 10SM CLR 21/13 A2978 RMK AO2
     T02070126=
K96D 231655Z AUTO 04011KT 10SM OVC012 09/09 A2958 RMK AO2=
K9D7 231655Z AUTO 06016G21KT 10SM OVC012 09/06 A2954 RMK AO2
     TSNO=
KACJ 231655Z AUTO 00000KT 10SM CLR 22/08 A3019 RMK AO2
     T02230080=
KAGO 231655Z AUTO 20016KT 10SM FEW041 27/16 A2998 RMK A01=
KAIG 231655Z AUTO 14014KT 10SM CLR 19/12 A2985 RMK AO2
     T01860121=
KAIK 231655Z AUTO 01007KT 340V060 10SM CLR 22/10 A3021 RMK AO2
     T02200101=
KAKH 231654Z AUTO 02004KT 10SM CLR 21/07 A3021 RMK AO2 SLP230
     T02110067=
KAKR 231654Z AUTO 14003KT 9SM CLR 23/05 A3020 RMK AO2 SLP224
     T02330050=
KALM 231655Z AUTO 22013G18KT 10SM CLR 22/10 A2982 RMK AO2=
KANQ 231655Z AUTO 15013KT 10SM CLR 22/11 A3008 RMK AO2=
KAPC 231654Z 13004KT 10SM CLR 14/03 A3001 RMK AO2 SLP154
     T01440028=
KAQX 231655Z AUTO VRB06KT 10SM CLR 23/10 A3018 RMK AO2=
KARW 231655Z AUTO 35010KT 10SM CLR 22/11 A3017 RMK AO2=
KASJ 231655Z AUTO 35005KT 10SM OVC010 15/13 A3016 RMK AO2
     T01450133=
KATS 231655Z AUTO 22026G32KT 10SM CLR 25/11 A2973 RMK AO2=
KAUW 231654Z AUTO 12014G20KT 10SM CLR 20/12 A2980 RMK AO2 SLPNO
     T02000117 $=
KAVC 231655Z AUTO 35011KT 10SM OVC020 19/12 A3025 RMK AO2
     T01880117=
K10G 231655Z AUTO 00000KT 10SM CLR 21/07 A3022 RMK AO2=
K1P1 231655Z AUTO 00000KT 10SM CLR 15/06 A3037 RMK AO2
     T01480058=
K3D2 231655Z AUTO 17010G21KT 10SM CLR 16/11 A2993 RMK AO2
     T01600105=
KABR 231653Z AUTO 14014KT 10SM CLR 21/12 A2931 RMK AO2 SLP924
     T02060122=
KAGC 231653Z 08003KT 10SM CLR 19/03 A3023 RMK AO2 SLP240
     T01940028=
