SAUS70 KWBC 232100 RRT
METAR
KE16 232055Z AUTO 30013G17KT 10SM CLR 20/01 A2997 RMK AO2=
KECU 232055Z AUTO 15014G22KT 10SM CLR 23/17 A2987 RMK AO2=
KFFZ 232054Z 24011KT 10SM CLR 23/06 A2973 RMK AO2 SLP049 T02330061
     56016=
KFMM 232055Z AUTO 01021KT 10SM BKN090 17/01 A2930 RMK AO2 LTG DSNT
     W=
KJAS 232055Z AUTO 16009G18KT 9SM FEW041 FEW055 BKN070 27/18 A2991
     RMK AO2=
KLAM 232055Z AUTO 24012G16KT 10SM OVC050 07/01 A2976 RMK AO2
     T00660012=
KLLN 232055Z AUTO 24019KT 10SM FEW080 27/09 A2967 RMK AO2=
KMNH 232055Z AUTO 25014G22KT 10SM SCT050 BKN060 OVC100 10/M01
     A2948 RMK AO2=
KPLU 232055Z AUTO 00000KT 10SM SCT034 12/05 A3017 RMK AO2=
KPNA 232055Z AUTO 30023G27KT 7SM -SN SCT032 SCT041 SCT050 00/M05
     A2966 RMK AO2=
KSBD 232051Z 26012KT 7SM FEW040 22/02 A2982=
KUMP 232055Z AUTO 17015G23KT 10SM CLR 25/11 A3001 RMK AO2
     T02520111=
K04V 232055Z AUTO 30019G24KT 10SM SCT060 SCT070 BKN095 07/M03
     A2959 RMK AO2=
K11R 232055Z AUTO 16014G19KT 10SM SCT055 OVC070 30/17 A2984 RMK
     AO2 T03020165=
K17J 232055Z AUTO 17003KT 10SM CLR 25/03 A3011 RMK AO2
     T02540033=
K1A6 232055Z AUTO 17003KT 10SM CLR 23/05 A3014 RMK AO2
     T02340045=
K2G9 232055Z AUTO 11005KT 10SM CLR 15/02 A3023 RMK AO2=
K2W6 232059Z AUTO 36003KT 10SM OVC019 13/12 A3017 RMK AO1=
K5C1 232055Z AUTO 17012G20KT 10SM BKN044 27/15 A2982 RMK AO1=
K6P9 232055Z AUTO 19013G22KT 160V220 10SM CLR 29/14 A2973 RMK AO2
     T02930138=
K8A0 232055Z AUTO 20004KT 10SM CLR 23/03 A3011 RMK AO2=
KAFO 232055Z AUTO 32007KT 10SM SCT035 BKN047 OVC055 00/M07 A2976
     RMK AO2=
KAPS 232057Z AUTO 18011G14KT 10SM CLR 27/13 A3004 RMK AO2=
KAXX 232055Z AUTO 26003G18KT 3SM RA BKN016 OVC021 02/00 A2973 RMK
     AO2 P0002 60002 T00230001=
KAZE 232055Z AUTO 06004KT 10SM CLR 26/10 A3011 RMK AO2
     T02570102=
KBHC 232055Z AUTO 02004KT 10SM CLR A3012 RMK AO2=
KBIJ 232055Z AUTO 08004KT 10SM CLR 25/01 A3011 RMK AO2=
KBMT 232055Z AUTO 17010KT 7SM RA SCT028 BKN033 OVC039 25/21 A2993
     RMK AO2 T02480211=
KCCO 232055Z AUTO 00000KT 10SM CLR 23/02 A3015 RMK AO2
     T02290020=
KCGE 232055Z AUTO 01005G12KT 3SM BR OVC004 15/15 A3015 RMK A01
     P0010=
KCNI 232055Z AUTO 17003KT 10SM CLR 22/03 A3015 RMK AO2 LTG DSNT SE
     T02250027=
KCPW 232055Z AUTO 24031G54KT 1/2SM -SN OVC003 M08/M08 A2968 RMK
     AO2=
KCQB 232055Z AUTO 16020G29KT 10SM CLR 28/15 A2965 RMK AO2
     T02780149=
KCTJ 232055Z AUTO 00000KT 10SM CLR 22/03 A3018 RMK AO2
     T02190032=
KCZT 232055Z AUTO 15010G14KT 10SM CLR 31/17 A2974 RMK AO2=
KDED 232055Z AUTO 06009G14KT 10SM SCT048 26/16 A3009 RMK AO2
     T02610160=
KDMW 232055Z AUTO 10SM OVC046 17/10 A3023 RMK AO2=
KDPL 232055Z AUTO 01008KT 10SM OVC029 21/14 A3011 RMK AO2=
KDQH 232055Z AUTO 06003KT 10SM CLR 26/09 A3013 RMK AO2
     T02550090=
KDUX 232055Z AUTO 18026G37KT 10SM CLR 26/08 A2953 RMK AO2
     T02600075=
KE38 232055Z AUTO 22012G17KT 10SM CLR 28/05 A2987 RMK AO2
     T02760047=
KETN 232055Z AUTO 17020G30KT 10SM CLR 29/14 A2972 RMK AO2
     T02920136=
KFME 232059Z AUTO 01005KT 10SM OVC029 17/08 A3021 RMK AO1=
KRCV 232055Z AUTO 24020G33KT 10SM SCT049 OVC060 06/M05 A2963 RMK
     AO2 T00601055=
KRDK 232055Z AUTO 16026G37KT FEW120 29/14 A2940 RMK AO2=
KREG 232055Z AUTO 14008KT 10SM BKN060 27/15 A3002 RMK AO2
     T02710146=
KRGA 232057Z AUTO 15007KT 10SM CLR 25/05 A3011 RMK AO2=
KSBO 232055Z AUTO 12003KT 10SM CLR 25/09 A3014 RMK AO2=
KSBS 232055Z AUTO 24009KT 3/4SM OVC010 M02/M02 A2962 RMK AO1
     T10181018=
KSDA 232055Z AUTO 17021G40KT 10SM FEW120 28/14 A2939 RMK AO2=
