SAUS70 KWBC 232004
METAR
PAFS 232001Z AUTO 00000KT 10SM OVC013 M02/M03 A3006 RMK AO2 SLP190
     T10171028 FZRANO=
KEVM 232001Z AUTO 13011G16KT 10SM SCT065 21/12 A2963 RMK AO2=
KW13 232015Z AUTO 10SM BKN032 17/06 A3022 RMK AO1 T01710056=
KGZN 231940Z AUTO 18020G26KT 10SM CLR 29/14 A2971 RMK AO2=
KDLL 232015Z AUTO 15014G22KT 10SM CLR 22/12 A2974 RMK AO2
     T02150117=
KGAF 232015Z AUTO 06013G19KT 8SM CLR 20/09 A2943 RMK AO2=
KGPH 232015Z AUTO 19018G30KT 10SM CLR 28/12 A2957 RMK AO2 LTG DSNT
     W=
KW63 232015Z AUTO 34004KT 10SM SCT032 20/10 A3015 RMK AO1=
