SASA31 KWBC 231800 RRD
METAR
SKBO 231800Z 24007KT 9999 SCT018 BKN080 17/13 Q1025 NOSIG=
SKCL 231800Z 31006KT 9999 SCT020TCU SCT300 29/19 Q1013 NOSIG=
SMZO 231800Z 05005KT 9999 SCT035 34/23 Q1008 NOSIG=
SOCA 231830Z AUTO 07011KT CAVOK 31/23 Q1009 TEMPO 3000 SHRA
     BKN015CB=
