SAUS80 KWBC 232106
METAR
KSFY 232103Z AUTO 15019G27KT 10SM SCT045 24/14 A2971 RMK AO2 LTG
     DSNT W=
