SAUS70 KWBC 231800 RRG
METAR
KLWV 231753Z AUTO 19024G34KT 10SM CLR 27/11 A3000 RMK AO2 PK WND
     18035/1725 SLP155 T02670111 10267 20167 58016 $=
KLXT 231753Z AUTO 18019G32KT 10SM CLR 28/14 A2962 RMK AO2 PK WND
     19036/1706 SLP022 T02780144 10278 20189 58009=
KMAF 231753Z 19013G22KT 10SM CLR 27/13 A2978 RMK AO2 SLP041
     T02670128 10267 20167 58002=
KMAI 231753Z AUTO 12003KT 10SM CLR 24/05 A3014 RMK AO1 SLP206
     T02390050 10244 20050 58017 $=
KMBS 231753Z 16013G27KT 10SM CLR 23/11 A3007 RMK AO2 PK WND
     17027/1745 SLP182 T02330106 10239 20128 58017=
KMCI 231753Z 18024G33KT 10SM CLR 29/14 A2958 RMK AO2 PK WND
     19034/1723 SLP003 T02890139 10294 20200 58008=
KMCK 231753Z AUTO 22037G51KT 4SM HZ CLR 29/03 A2924 RMK AO2 PK WND
     21054/1729 SLP876 T02890028 10289 20133 56013=
KMCO 231753Z 35007KT 10SM FEW050 29/14 A3009 RMK AO2 SLP187
     T02890144 10289 20172 58016 $=
KMCW 231753Z AUTO 15017G34KT 10SM CLR 23/13 A2956 RMK AO2 PK WND
     16035/1733 SLP999 T02330128 10233 20133 58024=
KMDW 231753Z 17018G27KT 10SM FEW060 26/13 A2988 RMK AO2 PK WND
     17031/1722 SLP110 T02610128 10261 20178 58020=
KMGW 231753Z 34005KT 10SM CLR 23/03 A3022 RMK AO2 SLP230 T02280033
     10228 20056 58012=
KMGY 231753Z AUTO 17011G19KT 10SM FEW050 24/10 A3013 RMK AO2
     SLP197 T02390100 10239 20133 58014=
KMHT 231753Z 31003KT 10SM SCT130 OVC200 16/07 A3033 RMK AO2 SLP285
     T01610067 10161 20050 58012=
KMIA 231753Z 07011KT 10SM SCT044 SCT250 30/19 A3004 RMK AO2 SLP173
     T03000189 10300 20217 58015 $=
KMIE 231753Z 19014G23KT 10SM CLR 25/09 A3007 RMK AO2 PK WND
     18027/1727 SLP173 T02500094 10250 20156 58013=
KMIW 231753Z AUTO 15023G33KT 10SM CLR 24/13 A2958 RMK AO2 PK WND
     16034/1743 SLP010 T02440133 10244 20150 58020=
KMKO 231753Z AUTO 17019G31KT 10SM FEW032 27/16 A2980 RMK AO2 PK
     WND 16037/1711 SLP083 T02670161 10267 20206 58010=
KMLB 231753Z 03013KT 10SM CLR 27/17 A3009 RMK AO2 SLP188 T02670172
     10272 20178 58011=
KMLC 231753Z AUTO 18012G29KT 140V200 10SM SCT033 SCT110 25/17
     A2980 RMK AO2 PK WND 20031/1723 SLP083 T02500167 10250 20206
     58007=
KMLS 231753Z AUTO 30009KT 3SM RA BR FEW009 BKN018 OVC024 06/05
     A2947 RMK AO2 SLP989 P0013 60045 T00560050 10061 20056
     50010=
KMMK 231753Z AUTO 01008KT 10SM BKN100 BKN120 13/06 A3028 RMK AO2
     SLP253 T01280061 10133 20094 58022=
KMNN 231753Z AUTO 16012KT 7SM CLR 23/10 A3015 RMK AO2 SLP208
     T02280100 10239 20106 58013=
KMPO 231753Z AUTO 09008KT 10SM FEW075 OVC090 15/08 A3028 RMK AO2
     SLP260 T01500078 10150 20044 58010=
KMRB 231753Z 01005KT 10SM OVC027 18/07 A3024 RMK AO2 SLP240
     T01780072 10178 20017 58015 $=
KMSS 231753Z AUTO 06005KT 10SM CLR 22/06 A3029 RMK AO2 SLP257
     T02170061 10217 20017 58016=
KMSY 231753Z 12011KT 10SM FEW045 SCT250 27/15 A3009 RMK AO2 SLP193
     T02670150 10272 20172 58012 $=
KMTH 231753Z AUTO 03009KT 10SM CLR 28/20 A3003 RMK AO2 SLP167
     T02830200 10283 20233 58012 $=
KMTJ 231753Z AUTO 12014KT 10SM BKN008 BKN035 OVC100 04/03 A2961
     RMK AO2 RAE28 SLP979 P0002 60016 T00440033 10078 20011 58002
     $=
KMTO 231753Z AUTO 16015G29KT 10SM CLR 24/13 A2993 RMK AO2 PK WND
     17037/1729 SLP131 T02390133 10239 20172 58011=
KMVY 231753Z 06011KT 10SM -RA FEW070 BKN090 OVC110 14/12 A3028 RMK
     AO2 SLP252 P0003 60005 T01440122 10167 20144 58014=
KMWL 231753Z AUTO 17019G31KT 10SM CLR 29/15 A2978 RMK AO2 PK WND
     17035/1717 SLP069 T02940150 10294 20194 58011=
KNEW 231753Z 13011G20KT 10SM CLR 27/13 A3010 RMK AO2 SLP186
     T02670128 10272 20189 58013=
