SAUS70 KWBC 232100 RRD
METAR
KATA 232055Z AUTO 16011G18KT 10SM SCT060 29/14 A2984 RMK AO2
     SLP006 T02920141 $=
KATS 232055Z AUTO 23014G25KT 10SM CLR 25/10 A2968 RMK AO2=
KBVU 232055Z AUTO 03015KT 10SM CLR 18/M10 A2984 RMK AO2=
KDNA 232055Z AUTO 27015G26KT 10SM FEW080 26/07 A2976 RMK AO2=
KEUG 232054Z 05004KT 10SM FEW037 BKN050 14/03 A3020 RMK AO2 SLP226
     T01390033 51003 $=
KSXU 232055Z AUTO 23029G39KT 10SM SCT100 23/00 A2960 RMK AO2
     T02271003=
KMGN 232055Z AUTO 15003KT 10SM SCT075 22/11 A2997 RMK AO2
     T02300110=
KMVE 232055Z AUTO 16019G28KT 10SM CLR 24/12 A2933 RMK AO2 LTG DSNT
     SE=
KOVL 232055Z AUTO 14023G32KT 3SM HZ CLR 25/12 A2938 RMK AO2=
KPSF 232054Z AUTO 06004KT 10SM FEW120 14/02 A3029 RMK AO2 SLP254
     T01440017 55001=
KRNP 232053Z AUTO 15013G18KT 10SM SCT060 A3004 RMK AO2=
KROX 232055Z AUTO 07020KT 10SM CLR 18/09 A2949 RMK AO2=
KRYM 232055Z AUTO 14017G27KT 10SM CLR 24/13 A2943 RMK AO2 PK WND
     12027/44 LTG DSNT S SLP968 T02370126 57026 $=
K46D 232055Z AUTO 09015G21KT 10SM CLR 19/09 A2933 RMK AO2=
K6L4 232055Z AUTO 00000KT 10SM VCTS CLR 23/04 A3015 RMK AO2 LTG
     DSNT N=
K96D 232055Z AUTO 03013KT 10SM CLR 15/09 A2947 RMK AO2=
K9D7 232055Z AUTO 06019G29KT 10SM CLR 14/08 A2942 RMK AO2 TSNO=
KAKR 232054Z AUTO 15006KT 10SM CLR 24/01 A3013 RMK AO2 SLP199
     T02440006 56016=
KANQ 232055Z AUTO 15014G22KT 10SM CLR 24/10 A3002 RMK AO2=
KBTA 232055Z AUTO 17020G37KT 10SM CLR 30/13 A2933 RMK AO2
     T02970126=
KBWW 232055Z AUTO 34017KT 10SM OVC010 06/06 A2936 RMK AO2=
KC29 232055Z AUTO 16020G27KT 10SM SCT046 25/13 A2974 RMK AO1
     T02460130=
KD60 232055Z AUTO 04021KT 10SM OVC009 05/05 A2947 RMK AO2=
KEKM 232055Z AUTO 16012G24KT 140V200 9SM CLR 24/11 A2997 RMK AO2
     T02440112=
KOLG 232055Z AUTO 15014G20KT 10SM SCT048 23/11 A2961 RMK AO1=
KPHL 232054Z 05009KT 10SM -RA BKN030 BKN043 OVC075 15/13 A3021 RMK
     AO2 SLP230 P0003 60003 T01500133 55006 $=
KPNE 232054Z 06012KT 6SM -RA FEW036 BKN045 OVC055 15/11 A3022 RMK
     AO2 SLP234 P0002 60002 T01500106 58008=
KRDG 232054Z 05006KT 10SM R36/3500V4000FT FEW050 BKN060 17/09
     A3022 RMK AO2 SLP239 T01720094 58008 $=
KS32 232055Z AUTO 10018G27KT 10SM CLR 23/11 A2933 RMK AO2 TSNO=
KSDC 232055Z AUTO 12003KT 10SM CLR 20/03 A3023 RMK AO2=
KTTS 232055Z AUTO 01012KT 10SM CLR 25/17 A3006 RMK AO2 VIS 3/4
     RWY15/33 SLP184 T02510168 55006 $=
K2P2 232055Z AUTO 19008G17KT 150V210 10SM SCT075 OVC085 18/12
     A2989 RMK AO2 T01760121=
K6B9 232055Z AUTO 14004KT 10SM CLR 19/02 A3024 RMK AO2=
KAIG 232055Z AUTO 12013KT 10SM CLR 21/13 A2978 RMK AO2
     T02050125=
KBAC 232055Z AUTO 11016G23KT 9SM CLR 23/13 A2930 RMK AO2=
KCFJ 232055Z AUTO 17016G23KT 10SM CLR 24/07 A2997 RMK AO2 LTG DSNT
     NW T02360065=
KD57 232055Z AUTO 05013KT 10SM OVC031 13/04 A2930 RMK AO2=
KDSV 232054Z AUTO 13007KT 10SM CLR 21/04 A3020 RMK AO2 SLP237
     T02060039 56007=
KMGJ 232054Z AUTO 03004KT 10SM BKN120 14/06 A3027 RMK AO2 SLP251
     60000 T01390061 58003=
KMIV 232054Z AUTO 03014G19KT 8SM OVC008 15/14 A3017 RMK AO2 RAE46
     CIG 006V011 SLP214 P0007 60025 T01500139 56006 $=
KOCQ 232055Z AUTO 15011G16KT 10SM SCT090 17/12 A2984 RMK AO1
     T01730120=
KOEO 232055Z AUTO 14020G27KT 10SM CLR 25/15 A2956 RMK AO2
     T02500153=
KPVB 232055Z AUTO 16016G22KT 10SM CLR 23/13 A2970 RMK AO1
     T02280126=
KRUG 232055Z AUTO 06026G33KT 10SM CLR 12/07 A2937 RMK AO2=
KRZL 232055Z AUTO 17017G25KT 10SM CLR 25/11 A2993 RMK AO2 LTG DSNT
     W=
KRZN 232055Z AUTO 15015G21KT 10SM SCT047 24/12 A2957 RMK AO2
     T02390117=
KSPF 232055Z AUTO 29018G24KT 10SM OVC014 04/01 A2945 RMK AO2=
