SAUS70 KWBC 232000 RRC
METAR
KCVX 231955Z AUTO 17012G15KT 130V190 10SM CLR 23/11 A2996 RMK AO2
     T02340114=
KCWI 231956Z AUTO 17021G25KT 10SM CLR 25/14 A2972 RMK AO2 PK WND
     16029/1916 SLP063 T02500144=
KDLZ 231955Z AUTO 17012G16KT 10SM CLR 23/07 A3012 RMK AO2=
KDTL 231955Z AUTO 13017G29KT 10SM CLR 23/12 A2939 RMK AO2=
KDYT 231955Z AUTO 08007G16KT 050V120 10SM CLR 13/10 A2963 RMK
     AO2=
KFFX 231955Z AUTO 15011G21KT 7SM BKN050 BKN070 26/11 A2995 RMK AO2
     T02570112=
KMVN 231956Z AUTO 17018G30KT 10SM SCT047 26/14 A2992 RMK AO2 PK
     WND 21031/1933 SLP133 T02610139=
KOKK 231956Z AUTO 16020G24KT 10SM CLR 25/11 A3001 RMK AO2 PK WND
     18027/1901 SLP158 T02500111 PNO $=
KOTG 231956Z AUTO 15022G32KT 10SM CLR 26/13 A2935 RMK AO2 PK WND
     15032/1949 SLP934 T02560128=
KPJC 231955Z AUTO RMK AO2 TSNO PWINO=
KRQB 231955Z AUTO 17018G28KT 10SM SCT050 OVC070 24/11 A2997 RMK
     AO2 T02350110=
KRZT 231955Z AUTO 14007KT 10SM CLR 25/03 A3011 RMK AO2 PWINO=
KULM 231955Z AUTO 15023G30KT 10SM CLR 25/11 A2942 RMK AO2=
KVWU 231955Z AUTO 12015G21KT 10SM CLR 26/12 A2952 RMK AO2=
KBKX 231956Z AUTO 14026G34KT 10SM CLR A2927 RMK AO2 PK WND
     14038/1910 SLPNO FZRANO $=
KCDA 231955Z AUTO 13006KT 10SM 18/04 A3035 RMK AO2 T01750036=
KDUH 231955Z AUTO 14009KT 10SM CLR 25/07 A3008 RMK AO2
     T02460065=
KEFK 231955Z AUTO 36003KT 10SM CLR 18/07 A3032 RMK AO2
     T01820069=
KFGN 231955Z AUTO 05009KT 10SM CLR 14/07 A2957 RMK AO2=
KFKA 231955Z AUTO 15013G20KT 7SM CLR 23/13 A2960 RMK AO2
     T02320128=
KFOD 231956Z AUTO 17013G28KT 10SM CLR 26/13 A2947 RMK AO2 PK WND
     16029/1931 LTG DSNT SW SLP983 T02560133=
KFPK 231955Z AUTO 17015G22KT 10SM SCT055 23/10 A3002 RMK AO2
     T02250095=
KFSO 231955Z AUTO 00000KT 5SM HZ CLR 19/05 A3029 RMK AO2
     T01940054=
KGAI 231956Z AUTO VRB03KT 10SM BKN050 18/11 A3021 RMK AO2 SLP245
     T01830111=
KHZL 231955Z AUTO 00000KT 10SM SCT034 BKN050 OVC095 16/08 A3029
     RMK AO2=
KMSV 231956Z AUTO 11007KT 10SM SCT100 16/09 A3029 RMK AO2 SLP263
     T01610094=
KOLU 231956Z AUTO 18030G37KT 7SM FEW043 31/11 A2926 RMK AO2 PK WND
     18037/1953 SLP898 T03060111=
KONZ 231955Z AUTO 14005KT 10SM BKN100 OVC110 22/05 A3009 RMK AO2
     T02220050=
KRUT 231956Z AUTO 13009KT 10SM CLR 18/03 A3031 RMK AO2 SLP259
     T01830028 $=
KSFM 231956Z AUTO 11004KT 10SM CLR 16/09 A3035 RMK AO2 SLP281
     T01610094=
KSJX 231955Z AUTO 16009G19KT 10SM CLR 24/11 A2995 RMK AO2
     T02400107=
KTVF 231956Z AUTO 10SM 23/12 RMK AO2 SLPNO T02330122 $=
KIRS 231955Z AUTO 18015G21KT 10SM CLR 24/09 A3000 RMK AO2
     T02400091=
KITH 231956Z 14007KT 10SM CLR 19/07 A3026 RMK AO2 SLP249
     T01940072=
KIWD 231956Z AUTO 14015G21KT 10SM CLR 23/13 A2971 RMK AO2 SLP056
     T02280128=
KJHW 231956Z AUTO 20003KT 10SM CLR 21/04 A3022 RMK AO2 SLP235
     T02110039=
KJRB 231956Z AUTO 03008KT 10SM UP OVC055 A3025 RMK AO2
     RAB45E54UPB54 SLPNO P0000 FZRANO $=
KJYM 231955Z AUTO 16012G20KT 10SM BKN050 24/07 A3005 RMK AO2
     T02350071=
KLCI 231956Z AUTO 00000KT 10SM CLR 15/08 A3035 RMK AO2 SLP280
     T01500083=
KLEW 231956Z AUTO 00000KT 10SM CLR 18/09 A3036 RMK AO2 SLP289
     T01780089=
KLGA 231951Z COR 05012KT 10SM -RA BKN045 BKN070 BKN110 OVC150
     16/08 A3025 RMK AO2 RAB46 SLPNO P0000 T01610078 $=
KLWA 231955Z AUTO 15014G24KT 10SM SCT055 26/12 A2993 RMK AO2
     T02560115=
KMKT 231956Z AUTO 15027G32KT 10SM CLR 24/13 A2945 RMK AO2 PK WND
     14035/1941 SLP971 T02440128=
KMML 231956Z AUTO 14028G32KT 10SM CLR 24/13 A2933 RMK AO2 PK WND
     15038/1919 SLP928 T02440128=
