SAUS70 KWBC 231728
METAR
KCGE 231715Z AUTO 01007G14KT 7SM BKN021 16/15 A3017 RMK A01=
KDCY 231715Z AUTO 17016G20KT 10SM CLR 25/12 A3004 RMK AO2
     T02460116=
KDLL 231735Z AUTO 14012KT 10SM CLR 20/11 A2980 RMK AO2
     T02020112=
KDMW 231715Z AUTO 36005KT 10SM BKN041 18/10 A3025 RMK AO2=
KEBS 231715Z AUTO 15022G32KT 10SM CLR 24/14 A2951 RMK AO2=
KEVM 231721Z AUTO 14007KT 10SM SCT075 SCT095 19/11 A2969 RMK
     AO2=
KFME 231719Z AUTO 05005KT 10SM OVC050 18/08 A3024 RMK AO1=
KGAF 231735Z AUTO 07012KT 8SM CLR 14/07 A2953 RMK AO2=
KJVY 231715Z AUTO 22010G15KT 10SM CLR 25/10 A3011 RMK AO2
     PWINO=
KMPZ 231710Z AUTO 17017G24KT 10SM CLR 24/17 A2972 RMK AO2=
KUYF 231715Z AUTO 14008KT 10SM SCT047 23/07 A3016 RMK AO2=
KVES 231715Z AUTO 18009G16KT 10SM CLR 22/07 A3012 RMK AO2=
K1S5 231735Z AUTO 00000KT 10SM CLR 07/01 A3007 RMK AO2
     T00730010=
KCPF 231735Z AUTO 19003KT 10SM CLR 23/04 A3021 RMK AO2=
KEMV 231735Z AUTO 31011G15KT 10SM OVC015 17/12 A3018 RMK AO2
     T01700119=
KFFA 231735Z AUTO 33004G17KT 10SM OVC003 16/16 A3004 RMK AO2
     T01630163=
KMCJ 231735Z AUTO 17019G30KT 10SM CLR 28/13 A2994 RMK A01=
KSUW 231735Z AUTO 06009KT 10SM OVC085 13/09 A2970 RMK AO2
     T01330093=
