SAUS70 KWBC 232118 RRD
METAR
KO32 232115Z AUTO 30005KT 10SM CLR 20/01 A2990 RMK AO2 T01950010
     $=
KOCQ 232115Z AUTO 15007KT 10SM SCT090 18/12 A2983 RMK AO1
     T01780121=
KOEB 232115Z AUTO 17010G17KT 10SM CLR 23/10 A3002 RMK AO2
     T02320097=
KOKV 232115Z AUTO 00000KT 10SM OVC044 17/08 A3020 RMK AO2=
K08D 232115Z AUTO 04017G26KT 10SM OVC011 06/05 A2944 RMK AO2=
K20U 232115Z AUTO 35012G17KT 9SM OVC007 06/06 A2944 RMK AO2=
K4R5 232115Z AUTO 00000KT 10SM SCT060 SCT075 OVC110 19/12 A2965
     RMK AO2 T01910121=
KAQP 232113Z AUTO 18021G31KT 4SM HZ SCT085 25/11 A2931 RMK AO2=
KARV 232115Z AUTO 16011G15KT 10SM BKN043 22/12 A2974 RMK AO2
     T02160120=
KD55 232115Z AUTO 05022G30KT 10SM CLR 13/12 A2944 RMK AO2=
KDVP 232113Z AUTO 14027G34KT 10SM CLR 25/13 A2933 RMK AO2 LTG DSNT
     SE T02540125=
KETH 232113Z AUTO 11026G34KT 10SM 23/12 A2930 RMK AO2=
KFOZ 232113Z AUTO 12010G21KT 10SM CLR 23/12 A2960 RMK AO2=
KHFY 232115Z AUTO 16014G18KT 10SM CLR 25/11 A3001 RMK AO2
     T02520112=
KIUA 232115Z AUTO 14006KT 10SM CLR 19/05 A3022 RMK AO2
     T01850052=
KLDJ 232115Z AUTO 06010G17KT 10SM -DZ BKN041 BKN047 OVC090 16/07
     A3023 RMK AO2 T01560074=
KLUM 232115Z AUTO 13021G29KT 10SM SCT050 25/17 A2958 RMK AO2
     T02540172 PWINO=
KMDZ 232115Z AUTO 14013G20KT 10SM SCT043 22/13 A2971 RMK AO2
     T02210125 PWINO=
KMRJ 232115Z AUTO 15020G29KT 10SM CLR 22/11 A2971 RMK AO2=
KORB 232113Z AUTO 12008G17KT 100V160 10SM CLR 23/12 A2957 RMK
     AO2=
KOWA 232113Z AUTO 14019G35KT 10SM CLR 24/13 A2950 RMK AO2=
KRID 232135Z AUTO 18011G17KT 3SM HZ CLR 22/11 A3008 RMK AO2=
KRPD 232115Z AUTO 13020G26KT 10SM CLR 24/16 A2961 RMK AO2
     T02350160=
KSDC 232115Z AUTO 11003KT 10SM CLR 19/03 A3023 RMK AO2=
KXVG 232113Z AUTO 12011G20KT 094V154 10SM SCT048 22/12 A2949 RMK
     AO2=
KOMH 232115Z AUTO 01004KT 10SM OVC037 17/10 A3020 RMK AO2=
KONM 232115Z AUTO 20013G20KT 10SM CLR 24/M03 A2967 RMK AO2
     T02431029=
KONZ 232115Z AUTO 12008KT 10SM SCT100 22/03 A3007 RMK AO2
     T02170026=
KORS 232115Z AUTO 17005KT 10SM CLR 12/08 A3013 RMK AO2=
KOSC 232115Z AUTO 11006KT 10SM CLR 19/12 A3006 RMK AO2
     T01930115=
KOXD 232115Z AUTO 19010G14KT 10SM CLR 26/03 A3007 RMK AO2
     T02580029=
KOZS 232115Z AUTO 17020G27KT 10SM SCT120 28/11 A2973 RMK AO2=
KPAN 232115Z AUTO 22015KT 10SM BKN040 BKN049 BKN060 13/03 A2982
     RMK AO2 PWINO TSNO=
KPCM 232115Z AUTO 04005KT 10SM SCT060 30/16 A3008 RMK AO2=
KPGV 232115Z AUTO 36007G14KT 10SM SCT018 BKN048 18/16 A3010 RMK
     AO2=
KPJC 232115Z AUTO RMK AO2 TSNO PWINO=
KPLR 232115Z AUTO 00000KT 10SM CLR 25/04 A3011 RMK A01=
KPNM 232115Z AUTO 12019G27KT 10SM CLR 24/13 A2948 RMK AO2 TSNO=
KPVF 232115Z AUTO 29007KT 10SM CLR 15/M06 A2995 RMK AO1=
KRCE 232115Z AUTO 18025G32KT 10SM CLR 27/15 A2962 RMK AO2=
KRMN 232115Z AUTO 35004KT 10SM OVC029 19/12 A3021 RMK AO2
     T01920120=
KRMY 232115Z AUTO 16012G16KT 10SM CLR 23/10 A3002 RMK AO2
     T02300099=
KRNP 232115Z AUTO 17010G18KT 10SM CLR 24/08 A3004 RMK AO2
     T02350081=
KRPH 232115Z AUTO 16013G25KT 130V210 10SM CLR 31/14 A2965 RMK AO2
     T03060144 $=
KRQB 232115Z AUTO 16013G23KT 120V190 10SM SCT055 23/11 A2997 RMK
     AO2 T02310105=
KRUG 232115Z AUTO 06027G33KT 10SM CLR 12/07 A2937 RMK AO2=
KRVL 232115Z AUTO 00000KT 7SM OVC032 17/10 A3024 RMK AO2=
KRYV 232115Z AUTO 15017G24KT 10SM SCT047 SCT120 24/12 A2977 RMK
     AO2 T02370124=
KRZN 232115Z AUTO 14009G20KT 10SM SCT047 24/12 A2957 RMK AO2
     T02370117=
KRZT 232115Z AUTO 15006KT 10SM CLR 24/03 A3010 RMK AO2 PWINO=
KS25 232115Z AUTO 01009G18KT 10SM OVC015 07/06 A2944 RMK AO2=
