SAUS70 KWBC 231724 RRB
METAR
KSLR 231710Z AUTO 18016G22KT 10SM BKN038 27/16 A2991 RMK AO2
     T02680156=
KT20 231715Z AUTO 18009G19KT 10SM SCT034 SCT046 BKN055 28/19 A2990
     RMK AO2 T02840193=
KTMK 231715Z AUTO 00000KT 10SM CLR 09/08 A3017 RMK AO2=
KTXW 231710Z AUTO 15020G30KT 1/4SM HZ VV002 30/18 A2985 RMK AO2
     T03030180=
