SAUS70 KWBC 231626 RRA
METAR
KTNB 231610Z AUTO 00000KT 10SM CLR 19/00 A3026 RMK AO2
     T01901004=
