SACA45 KWBC 231800 RRB
METAR
MNPC 231800Z 09010KT 7000 VCRA BKN016TCU 31/25 Q1011
     TCURA/NE/E/SE/SW=
