SAUS70 KWBC 231922 RRA
METAR
KMZZ 231915Z AUTO 17017G24KT 10SM CLR 25/11 A3003 RMK AO2
     T02450107=
KOLY 231915Z AUTO 17015G27KT 10SM BKN049 26/11 A2996 RMK AO2
     T02560106=
KOOA 231915Z AUTO 16024G28KT 10SM CLR 27/18 A2960 RMK AO2
     T02680183=
KPMV 231915Z AUTO 18027G36KT 10SM CLR 29/13 A2939 RMK AO2
     T02920130=
KPPO 231915Z AUTO 19014G23KT 10SM CLR 25/15 A2994 RMK AO2
     T02520153=
KPRG 231915Z AUTO 18019G27KT 10SM CLR 25/13 A2995 RMK AO2
     T02540129=
KRPJ 231915Z AUTO 17021G28KT 10SM CLR 24/16 A2980 RMK AO2
     T02440155 TSNO=
KRSV 231915Z AUTO 18023G28KT 10SM CLR 26/10 A2997 RMK AO2
     T02580104=
KSTE 231915Z AUTO 14013G21KT 10SM CLR 24/10 A2976 RMK AO2
     T02360100=
KSXK 231915Z AUTO 16025G32KT 10SM CLR 27/12 A2930 RMK AO2=
K06C 231915Z AUTO 18013G23KT 150V210 10SM SCT047 25/17 A2985 RMK
     AO2 T02450165=
KAFK 231915Z AUTO 20021G33KT 10SM CLR 30/13 A2941 RMK AO2
     T03000130=
KASW 231915Z AUTO 18009G17KT 150V210 10SM SCT050 24/11 A3000 RMK
     AO2 T02420112=
KAWG 231915Z AUTO 15025G31KT 10SM CLR 24/16 A2964 RMK AO2=
KCAV 231915Z AUTO 16026G34KT 10SM CLR 25/15 A2950 RMK A01=
KCIN 231915Z AUTO 17025G32KT 10SM FEW120 28/14 A2942 RMK AO2=
KCNC 231915Z AUTO 16024G30KT 9SM CLR 28/15 A2954 RMK AO2=
KDNS 231915Z AUTO RMK AO2 PNO PWINO=
KFEP 231915Z AUTO 16016G23KT 7SM CLR 24/16 A2978 RMK AO2
     T02430159=
KFKR 231915Z AUTO 18018G25KT 10SM FEW055 25/11 A2997 RMK AO2=
KGHG 231915Z AUTO VRB05KT 10SM CLR 14/12 A3030 RMK AO2=
KHDE 231915Z AUTO 21025G32KT 7SM SCT035 BKN041 BKN047 30/06 A2923
     RMK AO2 T03020056=
KHHG 231915Z AUTO 17009G15KT 10SM BKN055 A3003 RMK AO2=
KHMZ 231915Z AUTO 13003KT 10SM CLR 18/03 A3024 RMK AO2
     T01840030=
KHNR 231915Z AUTO 17027G32KT 10SM CLR 28/15 A2939 RMK A01=
KIBM 231915Z AUTO 33023G29KT 10SM CLR 15/00 A2934 RMK AO2
     T01450001=
KIKV 231915Z AUTO 16016G28KT 10SM CLR 26/14 A2952 RMK AO2=
KLOM 231915Z AUTO 05008G17KT 10SM OVC045 17/11 A3023 RMK AO2
     T01680105=
KLXN 231915Z AUTO 22028G36KT 7SM SCT110 31/03 A2922 RMK AO2
     T03060032=
KMQS 231915Z AUTO VRB04G10KT 10SM FEW045 16/12 A3024 RMK AO2=
KOGA 231915Z AUTO 32017G24KT 10SM CLR 22/M03 A2923 RMK AO2
     T02211035=
KOGS 231915Z AUTO VRB04KT 10SM CLR 22/04 A3023 RMK AO2=
KOLZ 231915Z AUTO 16021G29KT 10SM CLR 25/13 A2962 RMK A01=
KONL 231915Z AUTO 17021G28KT 10SM CLR 29/04 A2919 RMK AO2
     T02910038=
KPNT 231915Z AUTO 17025G29KT 10SM CLR 25/16 A2986 RMK AO2
     T02540162=
KRCR 231915Z AUTO 17013G19KT 10SM FEW055 24/11 A2998 RMK AO2=
KUMP 231915Z AUTO 18012G20KT 10SM CLR 26/12 A3001 RMK AO2
     T02550121=
K04V 231915Z AUTO 21024G37KT 10SM SCT080 11/M08 A2957 RMK AO2=
K17J 231915Z AUTO 14005KT 10SM CLR 25/04 A3012 RMK AO2
     T02480040=
K1A6 231915Z AUTO 20005KT 10SM CLR 23/04 A3017 RMK AO2
     T02290044=
K2G9 231915Z AUTO 11007KT 10SM CLR 16/03 A3025 RMK AO2=
K2W6 231919Z AUTO 01006KT 10SM BKN021 OVC028 15/11 A3018 RMK
     AO1=
K5C1 231915Z AUTO 16013G18KT 10SM SCT039 26/15 A2985 RMK AO1=
K5R8 231915Z AUTO 16014G20KT 10SM SCT045 SCT060 SCT070 28/17 A2998
     RMK AO2 T02800168=
K6P9 231915Z AUTO 17023G28KT 10SM CLR 29/14 A2975 RMK AO2
     T02850144=
KAFO 231915Z AUTO 33013G19KT 10SM SCT032 BKN039 OVC055 00/M07
     A2973 RMK AO2=
KAPS 231917Z AUTO 16011G15KT 10SM SCT050 27/13 A3006 RMK AO2=
KAXX 231915Z AUTO 26026G37KT 10SM -RA BKN046 OVC050 08/00 A2968
     RMK AO2 T00811003=
KBHC 231915Z AUTO 00000KT 10SM CLR A3012 RMK AO2=
KBIJ 231915Z AUTO 01004KT 10SM CLR 25/02 A3013 RMK AO2=
KBMT 231915Z AUTO 15013G19KT 10SM BKN039 OVC044 27/18 A2996 RMK
     AO2 T02680179=
