SAUS70 KWBC 232100 RRU
METAR
KSEF 232055Z AUTO 05008KT 10SM SCT050 SCT060 29/17 A3005 RMK AO2
     T02930165=
KSHL 232055Z AUTO 16028G34KT 10SM CLR 28/13 A2930 RMK AO2=
KSJS 232055Z AUTO 20003KT 10SM CLR 24/06 A3014 RMK AO2
     T02380056=
KSLB 232055Z AUTO 16028G37KT 9SM CLR 28/13 A2936 RMK AO2=
KSNL 232055Z AUTO 19021G28KT 10SM CLR 30/12 A2967 RMK AO2
     T02950116=
KT20 232055Z AUTO 18014G22KT 10SM SCT048 BKN060 29/18 A2980 RMK
     AO2 T02930178=
KT35 232055Z AUTO 18017G22KT 10SM SCT065 29/16 A2980 RMK AO2
     T02930164=
KT41 232055Z AUTO 10SM SCT043 SCT050 28/17 A2990 RMK AO2
     T02810171=
KTAZ 232055Z AUTO 17023G32KT 10SM CLR 25/14 A2983 RMK AO2 LTG DSNT
     NW T02450141=
KTBR 232055Z AUTO 00000KT 10SM CLR 25/09 A3013 RMK AO2
     T02450085=
KTIF 232055Z AUTO 29017G26KT 10SM CLR 23/00 A2923 RMK AO2
     T02251005=
KTIP 232055Z AUTO 17019G24KT 10SM CLR 24/12 A2989 RMK AO2 LTG DSNT
     NW T02350120=
KTMK 232055Z AUTO 26005KT 10SM SCT026 SCT034 SCT048 13/07 A3021
     RMK AO2=
KTQK 232055Z AUTO 22036G44KT 3 1/2SM HZ BKN030 OVC035 30/01 A2934
     RMK AO2 T02950012=
KTVI 232055Z AUTO 00000KT 10SM CLR 25/08 A3012 RMK AO2=
KUKL 232055Z AUTO 19026G37KT 10SM CLR A2955 RMK AO2 LTG DSNT
     NE=
KUNI 232055Z AUTO 14005KT 10SM CLR 25/06 A3012 RMK AO2
     T02470055=
KVDI 232055Z AUTO 13003KT 10SM CLR 26/10 A3012 RMK AO2=
KVES 232055Z AUTO 19008G17KT 10SM CLR 23/05 A3007 RMK AO2=
KVKS 232055Z AUTO 16007G14KT 10SM SCT055 29/13 A2998 RMK A01=
KVPC 232055Z AUTO 00000KT 10SM CLR 23/02 A3014 RMK AO2=
KVUJ 232055Z AUTO 04005KT 10SM CLR 22/05 A3019 RMK AO2
     T02220048=
KW22 232055Z AUTO 03006KT 10SM 24/01 A3016 RMK AO2=
KWDR 232055Z AUTO 00000KT 10SM CLR 23/00 A3016 RMK AO2=
KXBP 232055Z AUTO 18018G29KT 10SM CLR 30/14 A2973 RMK AO2
     T03000137=
KZER 232055Z AUTO 07006KT 10SM SCT050 14/08 A3026 RMK AO2=
KFQD 232055Z AUTO 00000KT 10SM CLR 22/03 A3016 RMK AO2=
KFWZ 232055Z AUTO 00000KT 1/2SM SN OVC005 M02/M03 A2961 RMK
     AO2=
KFXY 232055Z AUTO 14025G33KT 10SM SCT047 23/13 A2949 RMK AO2=
KFYJ 232055Z AUTO 34003KT 10SM SCT019 BKN027 15/13 A3014 RMK AO1
     T01540129=
KGEV 232055Z AUTO 11004KT 10SM CLR 18/02 A3021 RMK AO2
     T01790023=
KGLW 232055Z AUTO 17008KT 150V210 10SM CLR 25/08 A3007 RMK AO2
     T02500082=
KHCR 232055Z AUTO 28005KT 10SM SCT034 SCT046 BKN060 05/M05 A2975
     RMK AO2=
KHDC 232059Z AUTO 14011KT 10SM CLR 27/14 A3005 RMK AO2 TSNO=
KHHW 232055Z AUTO 17019G25KT 10SM OVC049 28/14 A2978 RMK AO2=
KHVE 232055Z AUTO 30017G22KT 10SM SCT080 BKN100 08/M02 A2973 RMK
     AO2=
KHZR 232055Z AUTO 15007KT 10SM SCT050 SCT065 27/15 A3001 RMK AO2
     T02670152=
KI75 232055Z AUTO 15018G27KT 10SM CLR 28/14 A2952 RMK AO2
     T02830142=
KIIB 232055Z AUTO 15021G28KT 7SM CLR 24/14 A2963 RMK AO2
     T02380140=
KIJX 232055Z AUTO 15017G24KT 10SM CLR 23/15 A2977 RMK AO2 LTG DSNT
     NW T02300145=
KJES 232055Z AUTO 00000KT 10SM CLR 21/05 A3014 RMK AO2=
KLMO 232055Z AUTO 25013G25KT 7SM CLR 20/M07 A2935 RMK AO2
     T01951072=
KLUV 232055Z AUTO 20015G24KT 10SM CLR 30/10 A2968 RMK AO2=
KMLE 232055Z AUTO 17020G32KT 10SM CLR 30/13 A2933 RMK AO2 LTG DSNT
     NE T02950130=
KMQB 232055Z AUTO 16020G24KT 10SM CLR 24/13 A2975 RMK AO2
     T02410126=
KMQW 232055Z AUTO 11003KT 10SM CLR 25/10 A3012 RMK AO2
     T02550099=
KNOW 232055Z AUTO 05003KT 10SM CLR 10/09 A3015 RMK AO2
     T01040085=
KNRN 232055Z AUTO 23018G31KT 7SM BKN030 BKN040 OVC120 31/02 A2927
     RMK AO2=
KORG 232055Z AUTO 15010G17KT 10SM SCT036 SCT043 OVC055 29/20 A2997
     RMK AO2 T02850202=
KPOY 232055Z AUTO 33023G35KT 10SM CLR 03/M06 A2961 RMK AO2=
