SAUS70 KWBC 231818 RRD
METAR
KFYG 231815Z AUTO 17017G25KT 10SM CLR 26/16 A2980 RMK AO2=
KGLY 231815Z AUTO 19020G28KT 9SM CLR 29/14 A2967 RMK AO2=
KGWR 231815Z AUTO 10019G25KT 9SM CLR 20/12 A2933 RMK A01=
KS24 231815Z AUTO 17008G18KT 10SM FEW060 25/09 A3012 RMK AO2=
KACQ 231815Z AUTO 14024G29KT 10SM CLR 22/12 A2954 RMK AO2=
KAIT 231815Z AUTO 13011G14KT 10SM CLR 22/12 A2957 RMK AO2=
KBDH 231815Z AUTO 13023G31KT 10SM CLR 23/12 A2946 RMK AO2=
KCBG 231815Z AUTO 11014G17KT 10SM CLR 24/12 A2956 RMK AO2=
KCOQ 231815Z AUTO 09009KT 10SM CLR 17/09 A2965 RMK AO2 TSNO=
KDRM 231815Z AUTO 15008KT 10SM CLR 19/11 A3006 RMK AO2
     T01860107=
KDXX 231815Z AUTO 14024G33KT 10SM CLR 24/12 A2937 RMK AO2=
KDYT 231815Z AUTO 07010KT 10SM BKN070 12/10 A2968 RMK AO2=
KFFM 231815Z AUTO 11020G27KT 10SM CLR 22/12 A2939 RMK AO2=
KFGN 231815Z AUTO 08007KT 10SM CLR 13/07 A2963 RMK AO2=
KFSE 231815Z AUTO 12009G17KT 10SM CLR 22/10 A2949 RMK AO2=
KGHW 231815Z AUTO 11020G26KT 10SM CLR 22/12 A2945 RMK AO2=
KGYL 231815Z AUTO 13019G26KT 7SM CLR 23/12 A2949 RMK AO2
     T02290124=
KJKJ 231815Z AUTO 11011G18KT 10SM CLR 22/11 A2940 RMK AO2 TSNO=
KJMR 231815Z AUTO 13010G16KT 10SM CLR 22/11 A2962 RMK AO2=
KLJF 231815Z AUTO 13018G26KT 10SM CLR 23/11 A2947 RMK AO2=
KMVE 231815Z AUTO 14021G28KT 10SM CLR 23/13 A2939 RMK AO2=
KOZW 231815Z AUTO 15018G21KT 10SM CLR 24/10 A3009 RMK AO2
     T02360104=
KPWC 231815Z AUTO 12012G19KT 10SM CLR 21/12 A2958 RMK AO2=
KRGK 231815Z AUTO 13013KT 10SM CLR 23/12 A2957 RMK AO2=
KROX 231815Z AUTO 06017KT 10SM CLR 14/08 A2956 RMK AO2=
KSAZ 231815Z AUTO 14009G18KT 103V163 10SM CLR 23/11 A2950 RMK
     AO2=
KSGS 231815Z AUTO 14011G23KT 100V160 10SM CLR 23/12 A2956 RMK AO2
     T02290116=
KTEW 231815Z AUTO 16012G19KT 10SM CLR 25/10 A3007 RMK AO2
     T02460100=
KVVV 231815Z 13021G29KT 10SM 22/13 A2935 RMK AO2=
KY63 231815Z AUTO 12019G26KT 10SM CLR 21/12 A2941 RMK AO2
     T02090120=
K14Y 231815Z AUTO 12012G18KT 10SM CLR 21/11 A2949 RMK AO2=
K1P1 231815Z AUTO 00000KT 10SM CLR 17/04 A3034 RMK AO2
     T01720038=
K20U 231815Z AUTO 06011KT 10SM OVC011 06/05 A2942 RMK AO2=
K2P2 231815Z AUTO 18008G17KT 110V200 10SM SCT120 17/12 A2993 RMK
     AO2 T01680116=
K6L4 231815Z AUTO VRB04KT 10SM CLR 22/05 A3019 RMK AO2=
K82C 231815Z AUTO 13014G19KT 10SM CLR 23/13 A2974 RMK AO2
     T02300131=
KAMN 231815Z AUTO 16013G20KT 10SM SCT060 24/09 A3004 RMK AO2
     T02410085=
KANQ 231815Z AUTO 16016KT 10SM CLR 23/11 A3005 RMK AO2=
KD25 231815Z AUTO 16015G22KT 10SM CLR 21/12 A2978 RMK AO2
     T02070119=
KFBL 231815Z AUTO 13016G26KT 10SM CLR 23/13 A2954 RMK AO2=
KLNL 231815Z AUTO 14012G20KT 10SM SCT039 22/10 A2983 RMK AO2
     T02150104=
KMCX 231835Z AUTO 18015G26KT 10SM CLR 25/11 A2997 RMK AO2
     T02480111=
KMGG 231815Z AUTO 12009G19KT 10SM CLR 23/11 A2952 RMK AO2
     T02260114 PWINO=
KMGN 231815Z AUTO 18006G17KT 10SM SCT050 23/11 A2999 RMK AO2
     T02380112=
KOVL 231815Z AUTO 13018G25KT 5SM HZ CLR 23/12 A2943 RMK AO2=
KPCZ 231815Z AUTO 13010G16KT 10SM CLR 23/12 A2981 RMK AO2
     T02310121=
KRCX 231815Z AUTO 14009G16KT 10SM CLR 22/16 A2972 RMK AO2
     T02200155=
KSLH 231815Z AUTO 17008KT 10SM CLR 23/11 A3001 RMK AO2=
KTWM 231815Z AUTO 07008KT 10SM SCT080 18/10 A2969 RMK AO2=
KUKT 231815Z AUTO 04004KT 10SM CLR 17/10 A3025 RMK A01=
KVGC 231815Z AUTO 16004KT 10SM CLR 17/04 A3029 RMK AO2=
KDZB 231815Z AUTO 17011G24KT 10SM CLR 29/14 A2986 RMK AO2
     T02870143=
KECS 231815Z AUTO 32024G30KT 10SM OVC013 04/00 A2939 RMK AO2=
KEDN 231815Z AUTO 01003KT 10SM CLR 23/05 A3015 RMK AO2
     T02320045=
