SAUS80 KWBC 231742
METAR
KPSN 231735Z AUTO 18015G21KT 10SM BKN046 BKN055 28/17 A2991 RMK
     AO2=
KSOA 231735Z AUTO 16016KT 10SM 25/16 A2989 RMK AO2=
K9V9 231735Z AUTO 14017G21KT 10SM CLR 21/10 A2918 RMK AO2
     T02120102=
KAYS 231735Z AUTO 00000KT 10SM CLR 25/12 A3015 RMK AO2
     T02500122=
KGIC 231735Z AUTO 26003KT 10SM OVC025 03/00 A2998 RMK AO1=
KIZA 231735Z AUTO 23005KT 10SM CLR 15/08 A2990 RMK AO2=
K4BM 231735Z AUTO 17013G20KT M1/4SM +SN OVC002 M01/M02 A2962 RMK
     AO2=
KCKP 231735Z AUTO 17021G27KT 10SM CLR 25/13 A2941 RMK AO2
     T02460125=
KCBE 231735Z AUTO 00000KT 10SM CLR 16/06 A3031 RMK AO2
     T01610055=
KSFY 231743Z AUTO 18017G23KT 10SM CLR 24/13 A2978 RMK AO2=
