SAUS70 KWBC 231820 RRH
METAR
KOGA 231815Z AUTO 27008KT 10SM CLR 26/00 A2921 RMK AO2
     T02571002=
KOGS 231815Z AUTO 00000KT 10SM CLR 22/02 A3024 RMK AO2=
KOKM 231815Z AUTO 18014G31KT 10SM CLR 26/16 A2974 RMK AO2
     T02600162=
KOKZ 231815Z AUTO 01007KT 350V160 10SM CLR 23/09 A3017 RMK AO2
     T02330091=
KOLE 231815Z AUTO 16005KT 10SM CLR 18/02 A3025 RMK AO2=
KOLZ 231815Z AUTO 15022G32KT 10SM CLR 23/13 A2964 RMK A01=
KONL 231815Z AUTO 16023G29KT 10SM CLR 26/05 A2922 RMK AO2
     T02630045=
KOOA 231815Z AUTO 17022G25KT 10SM CLR 25/18 A2963 RMK AO2
     T02490176=
KOPL 231815Z AUTO 14015G22KT 10SM SCT043 SCT065 BKN070 28/15 A3004
     RMK AO2 T02780154=
KOPN 231815Z AUTO 10003KT 10SM CLR 26/02 A3020 RMK AO2=
KOWP 231815Z AUTO 17014G23KT 10SM CLR 28/15 A2973 RMK AO2
     T02810154=
KPEA 231815Z AUTO 15012G20KT 10SM CLR 24/14 A2960 RMK AO2
     T02410139=
KPIM 231815Z AUTO 03003KT 10SM CLR 23/03 A3018 RMK AO2
     T02320034=
KPLU 231815Z AUTO 00000KT 10SM -DZ FEW015 SCT023 10/07 A3015 RMK
     AO2=
KPMU 231815Z AUTO 19014KT 10SM CLR 27/13 A3004 RMK AO2=
KPNA 231815Z AUTO 30025G30KT 10SM CLR 01/M07 A2961 RMK AO2=
KPNT 231815Z AUTO 16022G27KT 10SM CLR 25/16 A2987 RMK AO2
     T02510160=
KPOY 231815Z AUTO 33024G32KT 2 1/2SM -SN 00/M02 A2959 RMK AO2 SKY
     OBSCURED=
KPPQ 231815Z AUTO 15013G19KT 10SM CLR 23/15 A2980 RMK AO2
     T02290148=
KRCR 231815Z AUTO 17014G20KT 10SM FEW048 FEW055 24/12 A3000 RMK
     AO2=
KRCV 231815Z AUTO 23008KT 10SM DZ BKN046 OVC050 05/01 A2961 RMK
     AO2 T00480005=
KRDK 231815Z AUTO 18027G34KT CLR 27/13 A2945 RMK AO2=
KREG 231815Z AUTO 11009KT 10SM OVC047 28/16 A3006 RMK AO2
     T02760159=
KRQO 231815Z AUTO 18022G29KT CLR 25/16 A2969 RMK AO2 PWINO
     T02510164=
KSBO 231815Z AUTO 00000KT 10SM CLR 24/10 A3017 RMK AO2=
KSBS 231815Z AUTO 23005KT 3SM BKN007 OVC013 01/01 A2954 RMK AO1
     T00060006=
KC35 231815Z AUTO 14009G16KT 10SM CLR 23/13 A2975 RMK AO2
     T02260125 PWINO=
KC65 231815Z AUTO 17014G24KT 10SM CLR 25/13 A2998 RMK A01=
KFOA 231815Z AUTO 17021G29KT 10SM OVC045 25/14 A2996 RMK AO2=
KFWC 231815Z AUTO 18017G24KT OVC046 25/13 A2996 RMK AO1 T02450126
     PWINO=
KGDB 231815Z AUTO 12019G28KT 10SM CLR 24/13 A2941 RMK AO2
     T02350130=
KHJH 231815Z AUTO 19023G29KT 10SM CLR 29/11 A2936 RMK AO2
     T02940110=
KLWA 231815Z AUTO 16010G18KT 10SM CLR 25/12 A2996 RMK AO2
     T02490122=
KLXL 231815Z AUTO 11012G20KT 10SM CLR 22/12 A2951 RMK AO2=
KMCD 231815Z AUTO 15005KT 10SM CLR 21/11 A3002 RMK AO2
     T02080110=
KMOP 231815Z AUTO 16011G22KT 10SM SCT055 24/10 A3003 RMK AO2
     T02400104=
KMZH 231815Z AUTO 11006KT 10SM SCT060 23/11 A2961 RMK AO2=
KN03 231815Z AUTO 12005KT 10SM CLR 18/02 A3028 RMK AO2=
KONA 231815Z AUTO 15012G21KT 10SM CLR 24/12 A2963 RMK AO2=
KOQN 231815Z AUTO 06006KT 018V078 10SM -DZ CLR 17/11 A3023 RMK
     AO2=
KOSC 231815Z AUTO 16008G17KT 10SM CLR 22/11 A3009 RMK AO2
     T02170114=
KPMV 231815Z AUTO 16020G30KT 10SM CLR 28/13 A2942 RMK AO2
     T02840129=
KRMY 231815Z AUTO 15014G18KT 10SM CLR 23/11 A3005 RMK AO2
     T02300105=
KRSV 231815Z AUTO 18019G24KT 10SM CLR 26/11 A2999 RMK AO2
     T02600107=
KTTF 231815Z AUTO 12005KT 10SM CLR 22/10 A3011 RMK AO2
     T02240102=
KTYQ 231815Z AUTO 18010KT 10SM CLR 24/11 A3003 RMK AO2
     T02390114=
KVAF 231815Z AUTO 18016KT 10SM CLR 28/15 A2997 RMK A01=
KVVS 231815Z AUTO 12004KT 10SM CLR 22/02 A3022 RMK AO2
     T02200024=
KVWU 231815Z AUTO 11013G18KT 10SM CLR 24/11 A2955 RMK AO2=
KY49 231815Z AUTO 09008KT 050V120 10SM CLR 19/10 A2954 RMK AO2
     T01920101=
K04W 231815Z AUTO 11009G15KT 10SM CLR 22/12 A2960 RMK AO2=
