SAUS70 KWBC 232200
METAR
KW13 232155Z AUTO 10SM BKN032 17/07 A3020 RMK AO1 T01680074=
KDLL 232155Z AUTO 16014G21KT 10SM CLR 22/12 A2972 RMK AO2
     T02160123=
