SAUS70 KWBC 231716 RRA
METAR
KTVY 231715Z AUTO 11007KT 10SM UP BKN033 OVC041 01/01 A2980 RMK
     AO2=
KVDF 231715Z AUTO 04003KT 10SM CLR 29/18 A3011 RMK AO2=
KVVV 231715Z 14019G29KT 10SM 20/13 A2939 RMK AO2=
KXSA 231715Z AUTO 33006KT 5SM BR OVC003 14/14 A3020 RMK AO2
     T01350135=
K10G 231715Z AUTO 14005KT 10SM CLR 22/07 A3021 RMK AO2=
