SAUS70 KWBC 231900 RRU
METAR
KDCY 231855Z AUTO 17018G25KT 10SM CLR 26/10 A3000 RMK AO2
     T02600101=
KEBS 231855Z AUTO 15023G29KT 10SM CLR 26/15 A2948 RMK AO2=
KGOV 231858Z AUTO 17012G25KT 10SM CLR 23/10 A3001 RMK AO2 PK WND
     17026/02 SLP166 T02280103 $=
KJVY 231855Z AUTO 17012G18KT 10SM CLR 26/09 A3006 RMK AO2
     PWINO=
KMPZ 231850Z AUTO 17016G24KT 10SM CLR 23/17 A2969 RMK AO2=
KUYF 231855Z AUTO 16006G15KT 10SM CLR 24/06 A3012 RMK AO2=
K20V 231855Z AUTO 24013G16KT 10SM SCT031 SCT046 BKN120 05/00 A2956
     RMK AO2=
KANK 231855Z AUTO 28011G22KT 10SM SCT022 SCT039 BKN050 06/00 A2961
     RMK AO1 T00631001=
KBMC 231850Z AUTO 10SM BKN070 OVC095 05/M02 A2981 RMK AO1
     T00511021=
KEAN 231850Z AUTO 35017G26KT 10SM SCT039 08/02 A2940 RMK AO2
     T00830022=
KGNC 231855Z AUTO 23019G30KT 10SM CLR 28/10 A2976 RMK AO2
     T02810098=
KHBV 231850Z AUTO 18018G23KT 10SM CLR 30/17 A2981 RMK AO2
     T03030168=
KHEQ 231855Z AUTO 29015G23KT 10SM CLR 27/M02 A2923 RMK AO2=
KHSG 231850Z AUTO 02007KT 10SM -SN BKN013 OVC022 02/00 A2962 RMK
     AO2 T00150003=
KMMH 231854Z AUTO 36009G16KT 10SM CLR 06/M11 A2997 RMK AO2=
KOZA 231855Z AUTO 19015G27KT 10SM CLR 26/14 A2983 RMK AO2=
KPEQ 231855Z AUTO 22018G21KT 10SM CLR 32/08 A2970 RMK AO2
     T03200077=
KPVW 231855Z AUTO 22023G29KT 10SM CLR 29/09 A2965 RMK AO2
     T02890093=
KTXW 231850Z AUTO 17016G27KT 1/2SM HZ VV005 31/18 A2982 RMK AO2
     VIS 1/4V3 T03120181=
KOCW 231855Z AUTO 32011KT 10SM OVC013 17/13 A3010 RMK AO2
     T01700132=
