SAUS70 KWBC 231900 RRJ
METAR
KFRG 231853Z 04007KT 10SM OVC060 15/10 A3025 RMK AO2 SLP242
     T01500100 $=
KFSM 231853Z 17012G20KT 10SM CLR 28/16 A2982 RMK AO2 SLP093
     T02780156=
KFST 231853Z AUTO 20014G24KT 10SM CLR 30/08 A2976 RMK AO2 SLP028
     T03000078 $=
KFTW 231853Z 16021G39KT 10SM CLR 29/17 A2977 RMK AO2 PK WND
     18039/1849 SLP073 T02890167 $=
KFTY 231853Z 08003KT 10SM CLR 23/03 A3016 RMK AO2 SLP210
     T02280028=
KFUL 231853Z 00000KT 10SM FEW043 21/09 A2985 RMK AO2 SLP107
     T02110094=
KFVE 231853Z AUTO 16004KT 10SM CLR 20/06 A3031 RMK AO2 SLP262
     T02000061=
KFWN 231853Z AUTO 04006KT 10SM CLR 16/08 A3029 RMK AO2 SLP257
     T01610078 $=
KFYV 231853Z 17017G28KT 10SM CLR 27/16 A2981 RMK AO2 PK WND
     18029/1808 SLP081 T02720156=
KGAG 231853Z AUTO 18026G33KT 10SM CLR 26/12 A2954 RMK AO2 PK WND
     18035/1802 SLP973 T02560117=
KUNO 231853Z AUTO 19013G23KT 10SM FEW032 24/14 A2989 RMK AO2 PK
     WND 19028/1837 SLP110 T02440144=
KUTS 231853Z AUTO 17012G26KT 10SM BKN060 30/14 A2991 RMK AO2 PK
     WND 19026/1815 SLP121 T03000139=
KUUU 231853Z AUTO 04006KT 10SM BKN050 OVC110 14/12 A3028 RMK AO2
     RAE47 SLP255 P0001 T01440117=
KVCB 231853Z AUTO 35019G24KT 10SM CLR 20/M02 A3001 RMK AO2 PK WND
     36030/1821 SLP162 T02001022=
KVEL 231853Z AUTO 19004KT 10SM SCT110 03/00 A2966 RMK AO2 SNE12
     SLP040 P0000 T00280000=
KVGC 231855Z AUTO 18006KT 10SM CLR 17/06 A3029 RMK AO2=
KVGT 231853Z 35021G35KT 10SM CLR 17/M09 A2984 RMK AO2 PK WND
     32035/1844 SLP112 T01671094 $=
KVIH 231853Z AUTO 16017G27KT 10SM CLR 26/14 A2979 RMK AO2 PK WND
     17033/1814 SLP078 T02610144 $=
KVLD 231853Z VRB04KT 10SM CLR 26/09 A3012 RMK AO2 SLP208 T02610094
     $=
KVRB 231853Z 35012KT 10SM FEW040 28/18 A3007 RMK AO2 SLP180
     T02780178=
KVUO 231853Z AUTO 00000KT 10SM FEW034 BKN055 12/06 A3018 RMK AO2
     SLP221 T01220061 $=
KWLD 231854Z AUTO 18027G39KT 10SM CLR 28/14 A2957 RMK AO2 PK WND
     20045/1838 SLP999 T02780144=
KWST 231853Z AUTO 03005KT 10SM -RA FEW055 OVC110 14/12 A3028 RMK
     AO2 SLP252 P0003 T01390122=
KWVI 231853Z AUTO 20009KT 10SM CLR 17/08 A2999 RMK AO2 SLP155
     T01670078=
KX60 231855Z AUTO 11004KT 10SM CLR 27/12 A3010 RMK AO2
     T02740119=
KXNA 231853Z 17020G30KT 10SM CLR 27/15 A2979 RMK AO2 PK WND
     18031/1842 SLP072 T02670150=
KXSA 231855Z AUTO 31003KT 10SM SCT009 OVC018 15/15 A3018 RMK AO2
     T01480148=
KYIP 231853Z 19015G20KT 10SM CLR 26/10 A3010 RMK AO2 SLP188
     T02610100=
KZZV 231853Z AUTO VRB03KT 10SM CLR 23/09 A3015 RMK AO2 SLP209
     T02330089=
PAAQ 231853Z 00000KT 10SM CLR M03/M04 A2985 RMK AO2 SLP114
     T10281044=
PAKW 231853Z AUTO 08009G17KT 4SM -RA BR OVC033 08/06 A2935 RMK AO2
     SLP941 P0014 T00780056 TSNO $=
PAPB 231853Z AUTO 22022G31KT 7SM SCT006 BKN009 OVC034 08/ A2982
     RMK AO2 PK WND 20037/1808 RAE42 CIG 008V014 SLP085 P0000
     T0078 TSNO $=
KOTM 231853Z AUTO 17021G29KT 10SM CLR 24/14 A2962 RMK AO2 PK WND
     16031/1842 SLP023 T02440144=
KOVE 231853Z AUTO 34008G17KT 10SM CLR 21/M03 A3002 RMK AO2 SLP166
     T02061033=
KOVS 231853Z AUTO 15008KT 120V200 10SM CLR 25/13 A2970 RMK AO2
     SLP054 T02500128 $=
KOWD 231853Z 04005KT 10SM SCT120 15/12 A3032 RMK AO2 SLP267
     T01500117=
KPAE 231853Z 23006KT 10SM BKN005 BKN016 OVC038 09/07 A3015 RMK AO2
     SLP212 T00940067=
KPAH 231853Z 21013G25KT 10SM FEW050 26/12 A2998 RMK AO2 PK WND
     16029/1800 SLP149 T02610122=
KPBF 231853Z AUTO 19015G25KT 10SM SCT050 29/14 A2995 RMK AO2
     SLP138 T02940144=
KPBG 231853Z AUTO 13003KT 10SM CLR 16/06 A3029 RMK AO2 SLP257
     T01610056=
