SAKA31 PTKK 232000
METAR PTKK 231950Z VRB04KT 15SM FEW014CB SCT120 BKN280 27/24 A2978
RMK
CB E AND NW SLP086 T02670243
