SACA33 KWBC 232100
METAR
TBPB 232100Z 10013KT 9999 FEW018 29/24 Q1010 NOSIG=
TDPD NIL=
TDPR NIL=
TFFF 232100Z AUTO 09009KT 050V110 9999 FEW024/// ///TCU 30/25
     Q1011 TEMPO 4000 SHRA BECMG SCT035=
TFFG NIL=
TFFJ NIL=
TFFR 232100Z AUTO 07006KT 9999 FEW048 27/24 Q1011 TEMPO 4000 SHRA
     SCT018TCU=
TGPY 232100Z 09015KT 9999 SCT018 30/26 Q1009 NOSIG RMK VCSH N-NE/
     ESE=
TGPZ NIL=
TLPC 232100Z 09007KT 9999 FEW028 30/24 Q1011 NOSIG=
TLPL 232100Z 09012KT 9999 FEW019CB SCT026 29/25 Q1011 NOSIG=
TNCA NIL=
TNCB 232055Z 09011KT 060V140 9999 FEW021 30/24 Q1008=
TNCC 232100Z 10010KT 9999 FEW020 30/23 Q1008 NOSIG=
TNCE 232055Z AUTO 09007KT 060V120 //// // ///////// 28/23 Q1012
     RE//=
TNCM 232100Z 09005KT 050V120 9999 FEW018 29/22 Q1013 NOSIG=
TTCP NIL=
TTPP NIL=
TVSM NIL=
TVSU NIL=
TVSV NIL=
