SAUS80 KWBC 231632
METAR
KNY0 231619Z AUTO 00000KT 10SM CLR 13/06 A3035 RMK AO2=
KROS 231623Z AUTO 15009G17KT 10SM CLR 22/13 A2964 RMK AO2=
