SAUS70 KWBC 232000
METAR
KSWF 231945Z 00000KT 10SM BKN120 14/09 A3028=
