SAUS70 KWBC 231800 RRD
METAR
KD60 231755Z AUTO 06019G26KT 10SM OVC008 04/05 A2949 RMK AO2=
KDSV 231754Z AUTO 00000KT 10SM CLR 22/04 A3023 RMK AO2 SLP244
     T02220044 10228 20050 58019=
KGWR 231755Z AUTO 10018G24KT 10SM CLR 19/12 A2935 RMK A01=
KHZE 231755Z AUTO 05013G24KT 10SM CLR 11/05 A2938 RMK AO2=
KIDI 231755Z AUTO VRB04KT 10SM CLR 20/03 A3027 RMK A01=
KISQ 231755Z AUTO 13009KT 10SM CLR 16/11 A2997 RMK AO2 T01590109
     10159 20094=
KIWD 231756Z AUTO 17012G24KT 10SM FEW110 21/12 A2975 RMK AO2 PK
     WND 17028/1742 SLP069 T02110122 10211 20144 58006=
KLEW 231756Z AUTO 00000KT 10SM CLR 17/08 A3036 RMK AO2 SLP289
     T01670078 10167 20033 58014=
KMFI 231754Z AUTO 14014G23KT 10SM -RA CLR 21/13 A2975 RMK AO2
     RAB47 SLP073 P0000 60000 T02110128 10217 20117 58016=
KRVL 231755Z AUTO 00000KT 9SM OVC025 16/07 A3027 RMK AO2=
KRYV 231755Z AUTO 14013G19KT 10SM CLR 23/11 A2983 RMK AO2
     T02250114 10225 20132=
KRZN 231755Z AUTO 14008KT 10SM CLR 21/11 A2964 RMK AO2 T02140113
     10215 20140=
KTME 231755Z AUTO 17015G21KT 10SM BKN060 30/16 A2994 RMK AO2=
KTQE 231754Z AUTO 17024G33KT 10SM CLR 29/13 A2936 RMK AO2 PK WND
     16034/1731 SLP931 T02890128 10289 20156 58018=
KVLL 231755Z AUTO 17010G14KT 10SM CLR 22/10 A3015 RMK AO2
     T02210104 10226 20085=
PAJC 231757Z AUTO VRB06G22KT 10SM OVC028 06/01 A3017 RMK AO2
     SLP217 6//// T00610006 10061 20044 51012 PNO $=
PAWG 231756Z 09012G18KT 7SM -RA BKN035 OVC040 06/04 A2952=
KNFE 231756Z AUTO 35013G21KT 4SM RA BR BKN005 BKN047 OVC070 17/14
     A3007 RMK AO2 PRESFR SLP183 P0020 60039 T01670144 10167 20161
     58020=
KCVX 231755Z AUTO 16012G18KT 10SM CLR 23/12 A2998 RMK AO2
     T02320116 10233 20127=
KCWI 231756Z AUTO 18018G25KT 10SM CLR 24/14 A2977 RMK AO2 SLP077
     T02440139 10244 20150 58016=
KDTL 231755Z AUTO 13013G24KT 10SM CLR 21/11 A2946 RMK AO2=
KFFX 231755Z AUTO 16008G15KT 10SM SCT050 SCT070 24/11 A2998 RMK
     AO2 T02410113 10243 20134=
KMTW 231756Z AUTO 16015KT 10SM CLR 16/12 A2991 RMK AO2 SLP127
     T01560117 10156 20122 58011=
KMVN 231756Z AUTO 18021G29KT 10SM OVC038 24/14 A2995 RMK AO2 PK
     WND 19029/1754 SLP143 T02440144 10250 20167 58014=
KMWM 231755Z AUTO 14022G32KT 10SM CLR 22/12 A2943 RMK AO2=
KOXD 231755Z AUTO 16010KT 10SM SCT050 26/07 A3012 RMK AO2
     T02570070 10257 20135=
KRQB 231755Z AUTO 17014G22KT 130V190 10SM CLR 23/11 A3001 RMK AO2
     T02260113 10226 20068=
KSJX 231755Z AUTO 14009KT 10SM CLR 23/12 A2998 RMK AO2 T02250116
     10226 20127=
KTOB 231755Z AUTO 14022G27KT 10SM CLR 23/12 A2959 RMK AO2=
KUGN 231755Z 13013G18KT 10SM CLR 21/12 A2987 RMK AO2 SLP108
     T02060122 10211 20122 58016=
KULM 231755Z AUTO 14021G28KT 10SM CLR 23/11 A2947 RMK AO2=
KCKZ 231755Z AUTO 06010KT 10SM CLR 17/10 A3026 RMK AO2=
KEKM 231755Z AUTO 17016G23KT 130V200 8SM CLR 24/14 A3001 RMK AO2
     T02410136=
KFIG 231754Z AUTO VRB03KT 10SM CLR 19/04 A3026 RMK AO2 SLP250
     T01890044 10194 20006 58014=
KI68 231755Z AUTO 18011KT 10SM CLR 24/10 A3014 RMK AO1 T02360099
     10238 20126=
KISW 231754Z AUTO 14016G23KT 10SM CLR 22/12 A2978 RMK AO2 SLP082
     T02220122 10222 20133 58017=
KJST 231754Z AUTO 11005KT CLR 16/03 A3026 RMK AO2 SLP245 T01610028
     10172 20056 58006 $=
KRST 231754Z 15019G30KT 10SM CLR 23/12 A2961 RMK AO2 PK WND
     16031/1734 SLP021 T02280122 10228 20133 58023=
KRUG 231755Z AUTO 06020G29KT 10SM OVC013 09/06 A2946 RMK AO2=
KRZL 231755Z AUTO 16017G25KT 10SM CLR 25/12 A2997 RMK AO2=
KS25 231755Z AUTO 05014G19KT 10SM OVC011 07/07 A2945 RMK AO2=
KS32 231755Z AUTO 09019KT 10SM CLR 15/07 A2942 RMK AO2 TSNO=
KSPF 231755Z AUTO 31016KT 10SM OVC019 08/03 A2936 RMK AO2=
