SAUS70 KWBC 231900
METAR
KFST 231853Z AUTO 20014G24KT 10SM CLR 30/08 A2976 RMK AO2 SLP028
     T03000078 $=
KFUL 231853Z 00000KT 10SM FEW043 21/09 A2985 RMK AO2 SLP107
     T02110094=
KGKY 231853Z 16021G39KT 10SM FEW046 29/15 A2980 RMK AO2 PK WND
     17039/1846 SLP081 T02890150=
KGTF 231853Z 34016G26KT 2SM -SN BR OVC006 00/M01 A2982 RMK AO2 PK
     WND 33026/1846 TWR VIS 2 1/2 CIG 005V010 SLP136 P0001
     T00001006 $=
KHHR 231853Z VRB03KT 10SM CLR 22/08 A2986 RMK AO2 SLP110
     T02170083=
KHIO 231853Z 00000KT 10SM BKN040 11/07 A3017 RMK AO2 SLP217
     T01060072=
KHRI 231853Z AUTO 24009KT 10SM CLR 12/03 A3010 RMK AO2 SLP191
     T01220033=
KLVM 231853Z AUTO 29008KT 3/4SM -SN BR FEW010 BKN015 OVC022 01/M01
     A2974 RMK AO2 SLP093 P0000 T00061011 $=
KMAF 231853Z 20017G25KT 10SM CLR 28/12 A2975 RMK AO2 SLP029
     T02780117=
KMTJ 231853Z AUTO 21011KT 10SM FEW070 BKN085 07/01 A2963 RMK AO2
     SLP982 T00720011 $=
KODO 231853Z AUTO 18015G23KT 10SM CLR 27/12 A2976 RMK AO2 SLP033
     T02720122 $=
KONM 231855Z AUTO 21018G27KT 10SM CLR 22/M01 A2971 RMK AO2
     T02221012=
KBRL 231853Z AUTO 17016G26KT 10SM CLR 22/14 A2972 RMK AO2 PK WND
     17029/1832 SLP061 T02220139=
KCQX 231852Z AUTO 04008KT 4SM RA BR FEW008 BKN055 OVC070 15/13
     A3029 RMK AO2 RAB15 SLP257 P0002 T01500133=
KDPA 231852Z 18020G32KT 10SM SCT045 25/14 A2985 RMK AO2 PK WND
     17036/1842 SLP103 T02500139=
KDVP 231853Z AUTO 14028G33KT 10SM CLR 23/12 A2938 RMK AO2
     T02290122=
KFDY 231853Z AUTO 16014KT 10SM CLR 24/11 A3010 RMK AO2 SLP185
     T02440106=
KGLR 231853Z AUTO 16012G24KT 10SM SCT050 23/10 A3002 RMK AO2 PK
     WND 15028/1831 SLP162 T02280100=
KGSH 231853Z AUTO 19019G27KT 10SM FEW055 24/12 A3000 RMK AO2 PK
     WND 18032/1835 SLP154 T02440117=
KHIB 231853Z AUTO 14011G24KT 10SM FEW060 21/12 A2963 RMK AO2
     SLP038 T02060117=
KHLG 231853Z 19003KT 10SM CLR 23/04 A3018 RMK AO2 SLP219
     T02280044=
KHYR 231853Z AUTO 15014G22KT 10SM CLR 23/12 A2966 RMK AO2 SLP041
     T02330122=
KLNS 231853Z 02006KT 10SM BKN070 BKN085 18/10 A3024 RMK AO2 SLP241
     T01780100=
KLSE 231853Z 14017G24KT 10SM FEW046 26/13 A2963 RMK AO2 PK WND
     18027/1837 SLP026 T02560128 $=
KSPI 231852Z 17019G33KT 10SM CLR 24/14 A2983 RMK AO2 PK WND
     17033/1851 SLP097 T02440139=
KYIP 231853Z 19015G20KT 10SM CLR 26/10 A3010 RMK AO2 SLP188
     T02610100=
KGEZ 231853Z AUTO 15014G23KT 10SM FEW055 26/11 A3003 RMK AO2 PK
     WND 16026/1835 SLP164 T02610106=
KGFL 231853Z AUTO 00000KT 10SM CLR 17/06 A3030 RMK AO2 SLP263
     T01720061=
KGKJ 231853Z AUTO VRB03KT 10SM CLR 22/04 A3020 RMK AO2 SLP224
     T02170039=
KGRI 231853Z 20021G38KT 10SM CLR 31/09 A2926 RMK AO2 PK WND
     20043/1812 SLP895 T03110094 $=
KHFD 231853Z 02004KT 10SM -RA FEW080 FEW095 OVC120 13/08 A3030 RMK
     AO2 RAB33 SLP260 P0000 T01330078=
KHUF 231853Z 18019G30KT 10SM CLR 27/12 A2997 RMK AO2 PK WND
     20034/1830 SLP145 T02670122=
KLPR 231853Z AUTO 18012G18KT 10SM CLR 24/08 A3015 RMK AO2 SLP206
     T02390083=
KLUK 231853Z 21007G17KT 10SM CLR 26/08 A3010 RMK AO2 SLP191
     T02560083=
KLWV 231853Z AUTO 19024G32KT 10SM FEW055 27/12 A2998 RMK AO2 PK
     WND 19033/1821 SLP149 T02720117 $=
KMVY 231853Z 04010G19KT 2 1/2SM RA BR FEW011 SCT047 OVC070 14/12
     A3026 RMK AO2 SLP246 P0002 T01390122=
KOSU 231853Z 12012KT 10SM CLR 24/09 A3013 RMK AO2 SLP200
     T02440094=
KVGC 231855Z AUTO 18006KT 10SM CLR 17/06 A3029 RMK AO2=
KWST 231853Z AUTO 03005KT 10SM -RA FEW055 OVC110 14/12 A3028 RMK
     AO2 SLP252 P0003 T01390122=
KZZV 231853Z AUTO VRB03KT 10SM CLR 23/09 A3015 RMK AO2 SLP209
     T02330089=
