SAUS80 KWBC 231800 RRA
METAR
KMSO 231753Z 32009KT 10SM OVC038 05/01 A2991 RMK AO2 SLP145 60001
     T00500011 10050 20022 51020 $=
KSDM 231753Z 00000KT 10SM BKN041 18/08 A2988 RMK AO2 SLP115
     T01830083 10183 20128 50007=
KTCS 231753Z AUTO 22020G33KT 10SM CLR 21/02 A2977 RMK AO2 PK WND
     22033/1749 SLP008 T02060017 10206 20161 50002=
PHJR 231747Z 08004KT 2SM -RA BR FEW023 BKN030 OVC047 23/21 A3004
     RMK AO2 RAB35 P0001=
KGRR 231753Z 18014G23KT 10SM FEW050 SCT070 SCT250 23/12 A3002 RMK
     AO2 SLP162 T02280117 10233 20128 58014 $=
KCDR 231753Z AUTO 30018G28KT 10SM CLR 12/03 A2930 RMK AO2 PK WND
     30028/1744 SLP925 T01220028 10150 20022 53009=
KCID 231752Z 15021G29KT 10SM CLR 24/13 A2967 RMK AO2 PK WND
     17031/1730 SLP041 T02390128 10239 20150 58016 $=
KVTN 231752Z AUTO 17011KT 10SM CLR 19/00 A2918 RMK AO2 SLP865
     T01940000 10200 20017 56013=
KMSN 231753Z 14018G24KT 10SM CLR 22/12 A2980 RMK AO2 PK WND
     14026/1730 SLP087 T02220122 10222 20139 58018=
KFNT 231753Z 16010G21KT 10SM CLR 23/12 A3009 RMK AO2 SLP189
     T02280117 10239 20111 58015=
KLAX 231753Z VRB04KT 10SM FEW024 SCT055 21/10 A2986 RMK AO2 SLP110
     T02060100 10211 20150 50014=
KPGA 231753Z AUTO 26012G21KT 10SM FEW060 09/M06 A2976 RMK AO2
     SLP043 60000 T00891056 10100 20067 51017 $=
KRQE 231753Z AUTO 26013G25KT 10SM FEW019 BKN047 OVC055 06/02 A2978
     RMK AO2 RAE45 SLP016 P0001 60012 T00610017 10100 20056 51024
     $=
KFMN 231753Z 30012G26KT 10SM FEW027 OVC044 07/01 A2975 RMK AO2 PK
     WND 28029/1702 SLP047 60012 T00670011 10133 20061 51034=
KLBB 231753Z 20016G28KT 10SM FEW120 BKN200 BKN260 26/11 A2971 RMK
     AO2 PK WND 23030/1659 SLP010 T02610106 10272 20167 58008=
KRIW 231753Z AUTO 02014KT 1SM -SN BR BKN004 OVC013 00/M01 A2958
     RMK AO2 SLP010 P0005 60016 T00001006 10006 20000 51023=
KTUS 231753Z 31010KT 10SM CLR 23/08 A2983 RMK AO2 SLP061 T02330083
     10233 20178 58004=
KCUT 231753Z AUTO 27007KT 10SM FEW110 15/00 A2928 RMK AO2 SLP869
     T01500000 10150 20072 58015=
KLWD 231753Z AUTO 19021G34KT 10SM -RA CLR 27/14 A2956 RMK AO2 PK
     WND 18034/1752 SLP000 P0000 60000 T02720139 10272 20172
     58014=
KDAL 231753Z 18017G43KT 10SM FEW035 SCT042 BKN250 27/16 A2983 RMK
     AO2 PK WND 17043/1749 SLP095 T02720161 10272 20217 58008=
KCLL 231753Z 17020G25KT 10SM FEW049 29/17 A2991 RMK AO2 PK WND
     17029/1743 SLP123 T02890172 10294 20183 58012=
KDMN 231753Z AUTO 24021G35KT 10SM CLR 21/04 A2982 RMK AO2 PK WND
     23035/1748 SLP033 T02110044 10217 20178 58002=
KLXV 231753Z AUTO VRB03KT 9SM -SN FEW033 BKN039 OVC060 M01/M04
     A2958 RMK AO2 SNB07 SLP915 P0000 60018 T10061039 10022 21011
     51010 $=
KDBQ 231753Z 16022G29KT 10SM CLR 23/13 A2974 RMK AO2 PK WND
     15029/1709 SLP065 T02330133 10233 20144 58017=
KDMH 231754Z AUTO 19/09 A3022 RMK AO1 SLP232 T01940094 10194 20128
     58012=
KSAN 231751Z 19008KT 10SM BKN043 20/08 A2989 RMK AO2 SLP121
     T02000083 10200 20150 50009=
KGCC 231753Z AUTO 6SM -SN BKN009 OVC022 01/ A2947 RMK AO2 SLP979
     P0002 60023 T0011 10061 20006 53005 $=
KRNM 231753Z 22004KT 10SM BKN036 16/09 A2988 RMK AO2 SLP110
     T01610089 10161 20100 50008=
PHMK 231754Z 36003KT 10SM CLR 26/20 A3004 RMK AO2 SLP172 60001
     T02610200 10267 20233 53017=
PHOG 231754Z 13010KT 070V190 10SM CLR 28/18 A3000 RMK AO2 SLP163
     T02780178 10283 20222 51012=
KBUF 231754Z 06007KT 10SM FEW200 FEW250 24/05 A3021 RMK AO2 SLP229
     T02390050 10239 20106 58011 $=
KDSM 231754Z 17023G30KT 10SM BKN210 BKN250 24/13 A2955 RMK AO2 PK
     WND 16032/1744 SLP999 T02440133 10244 20161 56015=
