SAUS70 KWBC 232044
METAR
K2G9 232035Z AUTO 11005KT 10SM CLR 16/02 A3024 RMK AO2=
K2W6 232039Z AUTO 36005KT 10SM OVC019 14/12 A3018 RMK AO1=
KAJG 232035Z AUTO 17018G22KT 10SM CLR 26/10 A2996 RMK AO2
     T02610099=
KCGE 232035Z AUTO 33008KT 1 1/2SM BR BKN004 OVC013 15/15 A3015 RMK
     A01=
KDMW 232035Z AUTO 10SM BKN048 OVC060 17/09 A3023 RMK AO2=
KFKR 232035Z AUTO 17019KT 10SM CLR 25/10 A2996 RMK AO2=
KFME 232039Z AUTO 02006KT 10SM SCT028 BKN033 OVC039 17/08 A3021
     RMK AO1=
KFXY 232035Z AUTO 14020G33KT 10SM CLR 25/13 A2950 RMK AO2=
KI75 232035Z AUTO 16019G29KT 10SM CLR 29/14 A2950 RMK AO2
     T02880141=
KIIB 232035Z AUTO 16024G30KT 10SM CLR 24/14 A2963 RMK AO2
     T02400140=
KIJX 232035Z AUTO 17020G26KT 10SM CLR 23/14 A2977 RMK AO2
     T02330143=
KMLE 232035Z AUTO 17016G28KT 10SM CLR 30/13 A2933 RMK AO2
     T02980127=
KMQB 232035Z AUTO 16022G27KT 10SM CLR 24/13 A2975 RMK AO2
     T02420126=
KOWX 232035Z AUTO 16011G15KT 10SM CLR 25/05 A3008 RMK AO1=
KRCR 232035Z AUTO 17014G23KT 10SM CLR 24/11 A2997 RMK AO2=
KSLB 232035Z AUTO 16026G32KT 10SM CLR 27/13 A2937 RMK AO2=
KTAZ 232035Z AUTO 18018G31KT 10SM SCT038 25/14 A2983 RMK AO2
     T02460143=
KTIF 232035Z AUTO 30019G31KT 10SM CLR 23/M01 A2921 RMK AO2
     T02311015=
KTIP 232035Z AUTO 17021G33KT 10SM CLR 23/12 A2989 RMK AO2
     T02330123=
KUMP 232035Z AUTO 16014G20KT 10SM CLR 25/11 A3001 RMK AO2
     T02540113=
KUNI 232035Z AUTO 13005KT 1 1/2SM HZ VV007 25/06 A3013 RMK AO2
     T02500056=
KW22 232035Z AUTO 000KT 10SM A3017 RMK AO2=
KZER 232035Z AUTO 08006KT 10SM OVC050 15/08 A3027 RMK AO2=
K66R 232035Z AUTO 15011G17KT 10SM SCT047 SCT055 OVC065 29/18 A2987
     RMK AO2 T02860176=
KBBD 232035Z AUTO 17017G23KT 10SM CLR 28/13 A2976 RMK AO2=
KBDG 232035Z AUTO 24017KT 10SM 06/M04 A2978 RMK AO1 T00631041=
KBVS 232035Z AUTO 18004KT 10SM FEW018 12/08 A3016 RMK A01=
KBYY 232035Z AUTO 17012G18KT 10SM CLR 27/16 A2989 RMK AO2
     T02790164=
KHCR 232035Z AUTO 36007KT 10SM SCT049 SCT055 BKN090 04/M05 A2975
     RMK AO2=
KLMO 232035Z AUTO 26015G25KT 4SM HZ CLR 20/M07 A2935 RMK AO2
     T01961070=
KLUV 232035Z AUTO 20018G27KT 10SM CLR 30/10 A2968 RMK AO2=
KNOW 232035Z AUTO 02004KT 10SM CLR 10/08 A3015 RMK AO2
     T01020084=
KORG 232035Z AUTO 14008G14KT 10SM SCT026 BKN037 OVC055 28/21 A2997
     RMK AO2 T02820205=
KPPA 232035Z AUTO 21021G28KT 10SM CLR 26/11 A2958 RMK AO2
     T02600112=
KRBO 232035Z AUTO 10SM SCT001 SCT005 BKN037 30/21 A2980 RMK AO2
     T03020207=
KT35 232035Z AUTO 18017G26KT 10SM BKN065 29/16 A2980 RMK AO2
     T02930164=
KXBP 232035Z AUTO 19018G27KT 10SM CLR 30/14 A2972 RMK AO2
     T03020136=
KANK 232030Z AUTO 25016G23KT 230V290 10SM SCT045 SCT060 SCT070
     07/M05 A2966 RMK AO1 T00721047=
KBMC 232030Z AUTO 10SM SCT042 BKN075 06/M04 A2985 RMK AO1
     T00591038=
KCHK 232030Z AUTO 17021G30KT 10SM CLR 28/15 A2962 RMK AO2
     T02790151=
KCPC 232035Z AUTO 35008KT 10SM CLR 23/02 A3012 RMK AO2
     T02300016=
KDUB 232034Z AUTO 28019G27KT 10SM SCT041 BKN049 OVC055 01/M09
     A2961 RMK AO2=
KEAN 232030Z AUTO 34020G28KT 10SM BKN050 08/00 A2944 RMK AO2
     T00841002=
KGLE 232035Z AUTO 17022G32KT 10SM CLR 29/14 A2973 RMK AO2
     T02860138=
KHBV 232030Z AUTO 15013G23KT 10SM CLR 32/17 A2977 RMK AO2
     T03170171=
KHSG 232030Z AUTO 02008KT 10SM BKN015 OVC023 03/01 A2964 RMK AO2
     T00250007=
KMMH 232036Z AUTO 36011G18KT 10SM CLR 07/M10 A2997 RMK AO2=
KMPZ 232030Z AUTO 16020G26KT 10SM CLR 26/18 A2965 RMK AO2=
KMYZ 232030Z AUTO 18023G33KT 10SM CLR 28/13 A2941 RMK AO2=
KOSA 232030Z AUTO 16016G21KT 10SM OVC050 28/15 A2984 RMK AO2
     T02820155=
