SAUS70 KWBC 231900 RRF
METAR
KJTC 231850Z AUTO 25017G29KT 10SM FEW036 SCT043 BKN100 15/04 A2981
     RMK AO2=
KOAR 231855Z AUTO 27007KT 10SM CLR M06/M21 A3000 RMK AO2=
KPYX 231855Z AUTO 21030G34KT 10SM CLR 28/07 A2952 RMK AO2
     T02820071=
KBOS 231854Z 04009KT 10SM FEW020 BKN110 OVC140 14/11 A3033 RMK AO2
     SLP270 T01440106=
KPHL 231854Z 04012KT 10SM FEW027 BKN044 BKN095 OVC140 17/13 A3022
     RMK AO2 RAB24E44 SLP231 P0000 T01670128 $=
KBOK 231856Z AUTO 00000KT 10SM CLR 14/03 A3019 RMK AO2 SLP225
     T01440033 $=
KBPC 231855Z AUTO 22024G30KT 10SM CLR 27/08 A2956 RMK AO2 PNO=
KC83 231855Z AUTO 35019G25KT 10SM CLR 20/M02 A2999 RMK AO2=
KDZB 231855Z AUTO 16017G25KT 10SM CLR 30/13 A2983 RMK AO2
     T02950129=
KEKS 231850Z AUTO 30006KT M01/M02 A2982 RMK AO2 PWINO TSNO=
KFOT 231850Z AUTO 32013G17KT 10SM CLR 14/07 A3014 RMK AO1=
KMEV 231855Z AUTO 00000KT 10SM CLR 06/M04 A3004 RMK AO2=
KMNZ 231855Z AUTO 19019G28KT 10SM CLR 29/15 A2982 RMK AO2
     T02880149=
KVAF 231855Z AUTO 17018KT 10SM CLR 28/16 A2995 RMK A01=
KWBF 231855Z AUTO VRB04KT 10SM 27/18 A3004 RMK A01=
KGON 231856Z 01005KT 5SM -RA SCT055 BKN070 OVC090 14/11 A3027 RMK
     AO2 SLP250 P0004 T01440106=
KHVN 231853Z 36006KT 9SM OVC110 13/10 A3027 RMK AO2 RAE27 SLP251
     P0000 T01330100=
KHYX 231855Z AUTO 17017G22KT 10SM CLR 24/10 A3006 RMK AO2
     T02410095=
KLNR 231856Z AUTO 14014G22KT 10SM CLR 27/13 A2972 RMK AO2 PK WND
     15026/1822 SLP056 T02670128=
KLVN 231855Z AUTO 14016G26KT 10SM CLR 24/11 A2952 RMK AO2=
KMDT 231856Z 00000KT 6SM HZ FEW042 OVC050 16/09 A3024 RMK AO2
     SLP242 T01610089=
KMKT 231856Z AUTO 14022G32KT 10SM CLR 24/13 A2948 RMK AO2 PK WND
     15032/1847 SLP979 T02390128=
KONA 231855Z AUTO 14013G24KT 10SM CLR 25/12 A2961 RMK AO2=
KOSC 231855Z AUTO 13007KT 10SM CLR 21/12 A3008 RMK AO2
     T02140118=
KPEX 231855Z AUTO 11018G25KT 10SM CLR 23/12 A2946 RMK AO2=
KPMH 231855Z AUTO 00000KT 10SM CLR 26/04 A3015 RMK AO2
     T02580043=
KS24 231855Z AUTO 18011G17KT 10SM CLR 25/09 A3011 RMK AO2=
KVAF 231855Z AUTO 17018KT 10SM CLR 28/16 A2995 RMK A01=
KWBF 231855Z AUTO VRB04KT 10SM 27/18 A3004 RMK A01=
KART 231856Z AUTO 26006KT 10SM CLR 21/06 A3025 RMK AO2 SLP241
     T02110061=
KBAF 231853Z 35006KT 10SM CLR 13/07 A3031 RMK AO2 SLP267
     T01280067=
KCKV 231852Z AUTO 17010G20KT 10SM CLR 26/08 A3005 RMK AO2 SLP171
     T02560078=
KFFZ 231854Z 27013G18KT 10SM FEW038 22/09 A2977 RMK AO2 SLP061
     T02220089=
KHPN 231856Z 04008KT 360V070 10SM -RA FEW070 BKN120 16/07 A3026
     RMK AO2 SLP246 P0000 T01560072 $=
KHWV 231856Z AUTO 36005KT 2 1/2SM +RA BR SCT039 BKN048 OVC085
     13/11 A3025 RMK AO2 RAB11 SLP244 P0010 T01280106=
KISP 231856Z 05013KT 10SM BKN050 OVC170 15/11 A3025 RMK AO2 SLP242
     T01500106=
KJKA 231857Z 11009G14KT 10SM CLR 25/13 A3011=
KROG 231858Z 10SM CLR 27/14 A2980 RMK AO2 SLP075 T02670144 $=
KIWA 231854Z 29014KT 10SM SCT075 22/09 A2979=
PPIZ 231856Z AUTO 10009KT 10SM SCT046 BKN060 M05/M07 A2976 RMK AO2
     SNE01 SLP080 P0000 T10501067 FZRANO=
KCKN 231855Z AUTO 13017G20KT 10SM CLR 24/11 A2943 RMK AO2=
KCXY 231856Z 00000KT 10SM BKN041 OVC047 18/09 A3025 RMK AO2 SLP244
     T01830089=
KDAY 231856Z 17015G19KT 10SM SCT055 24/09 A3012 RMK AO2 SLP192
     T02390089=
KDDH 231854Z AUTO 00000KT 10SM CLR 18/02 A3030 RMK AO2 SLP261
     T01830017=
KDSF 231855Z AUTO 06006KT 10SM CLR 25/14 A3008 RMK A01=
KELZ 231856Z AUTO 12006KT 10SM CLR 21/01 A3026 RMK AO2 SLP244
     T02060006=
KERY 231855Z AUTO 16016G22KT 10SM CLR 21/11 A2997 RMK AO2
     T02120111=
KGLX 231855Z AUTO 04012KT 10SM CLR 26/13 A3008 RMK A01=
