SAUS70 KWBC 232100 RRI
METAR
KHAI 232055Z AUTO 15010G21KT 10SM CLR 24/11 A2999 RMK AO2
     T02420106=
KHDN 232056Z AUTO 27013KT 1SM -SN BR OVC005 M01/M01 A2966 RMK AO2
     CIG 003V007 SLP050 P0000 60000 T10111011 53021 FZRANO=
KHEF 232056Z 35007KT 10SM FEW038 OVC046 18/12 A3019 RMK AO2 SLP229
     T01830117 56013=
KHEZ 232056Z AUTO 14012KT 10SM FEW060 28/15 A3001 RMK AO2 SLP160
     T02780150 56021=
KHNB 232056Z AUTO 19016KT 10SM CLR 25/10 A3002 RMK AO2 SLP162
     T02500100 55011=
KHND 232056Z 36019G23KT 10SM CLR 17/M11 A2986 RMK AO2 SLP116
     T01721111 58006=
KHYI 232056Z 15020KT 10SM BKN055 32/16 A2980 RMK AO2 PK WND
     16027/2035 SLPNO T03200160 58030 $=
KHYS 232056Z AUTO 21036G46KT 2 1/2SM HZ OVC032 32/06 A2930 RMK AO2
     PK WND 21050/2009 SLP904 6//// T03170056 56017 $=
KHZL 232055Z AUTO 00000KT 10SM SCT080 SCT100 16/09 A3029 RMK
     AO2=
KI23 232055Z AUTO 18008KT 10SM CLR 24/05 A3010 RMK AO1=
KI69 232055Z AUTO 14006KT 10SM CLR 25/07 A3009 RMK AO2
     T02450072=
KILE 232056Z AUTO 16020G26KT 10SM FEW050 29/16 A2978 RMK AO2 PK
     WND 18031/2012 SLP074 T02940161 56028=
KIRS 232055Z AUTO 17013G21KT 10SM CLR 24/08 A2999 RMK AO2
     T02350084=
KISQ 232055Z AUTO 12004KT 10SM BKN048 17/11 A2992 RMK AO2
     T01720112=
KITH 232056Z 16006KT 10SM CLR 18/09 A3026 RMK AO2 SLP247 T01830094
     58005=
KIWD 232056Z AUTO 13013G20KT 10SM CLR 22/12 A2970 RMK AO2 SLP053
     T02220122 56016=
KJAC 232056Z 30010G18KT 10SM BKN047 OVC055 02/M07 A2971 RMK AO2
     SLP078 6//// T00171072 53009 PNO $=
KJHW 232056Z AUTO 18004KT 10SM CLR 21/01 A3021 RMK AO2 SLP232
     T02060011 56011=
KJRB 232056Z AUTO 04012G19KT 10SM OVC044 A3024 RMK AO2
     UPE00RAB00E33 SLPNO P0000 60000 57010 FZRANO $=
KJYG 232055Z AUTO 15027G33KT 10SM CLR 25/12 A2941 RMK AO2 LTG DSNT
     SE=
KJYM 232055Z AUTO 16012G18KT 10SM CLR 23/07 A3004 RMK AO2
     T02250069=
KKLS 232056Z AUTO VRB03KT 10SM CLR 14/07 A3019 RMK AO2 SLP226
     T01440067 53007=
KLBL 232056Z AUTO 21032G45KT 1 3/4SM HZ FEW011 SCT017 BKN095 31/06
     A2943 RMK AO2 PK WND 23048/1959 VIS 1V3 SLP931 T03060056
     56020=
KY50 232056Z AUTO 16013G24KT 10SM FEW046 SCT120 24/13 A2975 RMK
     AO2 SLP068 6//// T02390133 56017 $=
KY70 232055Z AUTO 17017G23KT 10SM CLR 24/08 A2999 RMK AO2
     T02400080=
KYKN 232056Z AUTO 16025G34KT 10SM CLR 30/12 A2919 RMK AO2 PK WND
     16034/2051 SLP889 T03000117 56024=
PAAK 232056Z AUTO 23005KT 10SM -RA OVC024 A3028 RMK AO2 SLPNO
     P0000 60000 52017 FZRANO $=
PABV 232056Z AUTO 23004KT 10SM CLR 00/M03 A2991 RMK AO2 SLP135
     T00001033 51006 FZRANO=
PAFM 232056Z AUTO 13008G15KT 6SM -SN BR BKN009 OVC022 M01/M02
     A2997 RMK AO2 SNB25 SLP157 P0000 60000 T10111022 58000
     FZRANO=
PAGL 232056Z AUTO 17025G29KT 7SM OVC011 03/01 A2981 RMK AO2 PK WND
     16030/2006 SLP089 T00280011 58016 PWINO $=
PAGN 232056Z AUTO 05011G16KT 10SM -RA SCT011 BKN026 OVC060 04/03
     A2941 RMK AO2 SLP949 P0001 60005 T00390033 58020=
PAKK 232056Z AUTO 18006KT 10SM SCT065 BKN075 01/00 A2985 RMK AO2
     SLP119 T00060000 58004 FZRANO=
PAKP 232056Z AUTO 20011KT 4SM -SN BR BKN003 M11/M12 A2989 RMK AO2
     SLP180 P0000 60000 T11061122 50001 FZRANO=
PANA 232056Z AUTO 16010G16KT 10SM BKN025 OVC033 01/01 A2995 RMK
     AO2 UPB29E52RAB40E45 SLP140 P0000 60000 T00060006 58021
     FZRANO TSNO $=
PANV 232056Z AUTO 16008KT 3SM BR OVC003 M02/M02 A2997 RMK AO2
     SLP255 T10171022 56005 FZRANO TSNO=
PAQH 232056Z AUTO 11012KT 10SM OVC030 03/03 A2997 RMK AO2 SLP150
     T00280028 58020=
PASL 232056Z AUTO 00000KT 10SM CLR 01/M01 A3009 RMK AO2 SLP183
     T00061011 58006 FZRANO=
