SAUS70 KWBC 231700 RRI
METAR
KHDE 231655Z AUTO 18020G25KT 10SM CLR 25/10 A2929 RMK AO2
     T02480095=
KHDL 231655Z AUTO VRB04KT 10SM CLR 23/03 A3018 RMK AO2=
KHHG 231655Z AUTO 18010G16KT 10SM CLR A3008 RMK AO2=
KHII 231655Z AUTO 33017G22KT 10SM CLR 21/M05 A2978 RMK AO2=
KHMZ 231655Z AUTO 00000KT 10SM CLR 14/04 A3029 RMK AO2
     T01350043=
KHNR 231655Z AUTO 18026G31KT 10SM CLR 25/15 A2944 RMK A01=
KHPN 231656Z 03006KT 10SM -DZ SCT095 16/07 A3027 RMK AO2
     RAB45E53DZB53 SLP249 P0000 T01610067 $=
KHPT 231655Z AUTO 16017G23KT 10SM CLR 23/12 A2959 RMK AO2=
KHWV 231656Z AUTO VRB05KT 10SM -RA BKN100 OVC120 14/11 A3026 RMK
     AO2 SLP246 P0002 T01390111=
KI63 231655Z AUTO 16016G24KT 10SM SCT120 22/14 A2980 RMK AO2
     T02190135=
KI74 231655Z AUTO 17004KT 10SM CLR 21/11 A3016 RMK AO2=
KIBM 231655Z AUTO 33022G28KT 10SM CLR 15/01 A2931 RMK AO2
     T01490007=
KICL 231655Z AUTO 18020G30KT 10SM CLR 27/13 A2951 RMK AO2=
KIDP 231655Z AUTO 18028G34KT 10SM CLR 26/15 A2969 RMK AO2
     T02580152=
KIKK 231655Z AUTO 18017G22KT 10SM CLR 23/13 A2995 RMK AO2
     T02330129=
KIKV 231655Z AUTO 16015G25KT 10SM CLR 25/14 A2957 RMK AO2=
KISP 231656Z 04011KT 10SM -RA SCT085 OVC110 14/11 A3025 RMK AO2
     SLP243 P0002 T01440106=
KJAS 231655Z AUTO 17013G20KT 140V200 9SM SCT041 SCT047 SCT060
     27/18 A2999 RMK AO2=
KJOT 231655Z AUTO 18016G20KT 10SM CLR 24/14 A2991 RMK AO2
     T02390136=
KJYR 231655Z AUTO 18023G31KT 10SM CLR 26/12 A2935 RMK AO2=
KK88 231655Z AUTO 17025G31KT 10SM CLR 26/14 A2968 RMK AO1
     T02550139=
KLAM 231655Z AUTO 19021G30KT 10SM BKN060 OVC065 11/M01 A2972 RMK
     AO2 T01101013=
KLCQ 231655Z AUTO 06006KT 10SM CLR 23/12 A3015 RMK AO2=
KLGC 231655Z AUTO 00000KT 10SM CLR 21/03 A3022 RMK AO2
     T02110028=
KLLN 231655Z AUTO 20020G29KT 10SM FEW120 26/10 A2975 RMK AO2=
