SAUS70 KWBC 231718 RRB
METAR
KASJ 231715Z AUTO 34005KT 10SM OVC012 15/14 A3016 RMK AO2
     T01460135=
KATS 231715Z AUTO 23021G33KT 10SM CLR 25/11 A2974 RMK AO2=
KAVC 231715Z AUTO 03006KT 10SM OVC020 18/12 A3024 RMK AO2
     T01820117=
KBAC 231715Z AUTO 09015KT 9SM CLR 15/09 A2942 RMK AO2=
KBCB 231715Z AUTO 00000KT 10SM CLR 18/05 A3027 RMK AO2
     T01830045=
KVJI 231715Z AUTO 25004KT 10SM CLR 22/02 A3024 RMK AO2
     T02150024=
KW78 231715Z AUTO 35007KT 10SM CLR 17/05 A3021 RMK AO1
     T01700053=
KW81 231715Z AUTO 35006KT 10SM OVC025 17/07 A3020 RMK AO1
     T01680068=
KX07 231715Z AUTO 00000KT 10SM SCT042 SCT050 27/17 A3011 RMK
     A01=
KX60 231715Z AUTO 33006KT 10SM CLR 27/14 A3013 RMK AO2
     T02660138=
KXNX 231715Z AUTO 20007G13KT 170V230 10SM CLR 25/06 A3017 RMK
     A01=
KY19 231715Z AUTO 08015KT 10SM CLR 11/05 A2934 RMK AO2=
KOKV 231715Z AUTO 00000KT 10SM OVC028 15/06 A3025 RMK AO2=
KOMH 231715Z AUTO 36008KT 10SM OVC027 17/08 A3024 RMK AO2=
KONM 231715Z AUTO 21016G24KT 10SM CLR 21/M01 A2975 RMK AO2
     T02121008=
KORS 231715Z AUTO 14003KT 10SM OVC038 09/09 A3010 RMK AO2=
KOSC 231715Z AUTO 16009KT 10SM CLR 21/11 A3011 RMK AO2
     T02140112=
KOZS 231715Z AUTO 16018G22KT 10SM CLR 26/12 A2978 RMK AO2=
KPAN 231715Z AUTO 19010G18KT 160V220 10SM SCT018 BKN027 OVC050
     10/07 A2986 RMK AO2 PWINO TSNO=
KPCM 231715Z AUTO 04005KT 10SM SCT042 29/18 A3013 RMK AO2=
KPGV 231715Z AUTO 34007KT 10SM OVC016 17/15 A3013 RMK AO2=
KPLR 231715Z AUTO 00000KT 10SM CLR 23/06 A3021 RMK A01=
KPVF 231715Z AUTO 00000KT 7SM CLR 11/M04 A2996 RMK AO1=
KRCE 231715Z AUTO 19027G35KT 10SM CLR 24/16 A2968 RMK AO2=
KRMN 231715Z AUTO 34006KT 10SM SCT018 OVC024 16/12 A3025 RMK AO2
     T01580124=
KRPH 231715Z AUTO 19012G20KT 150V220 9SM CLR 27/15 A2975 RMK AO2
     T02740151 $=
KRUG 231715Z AUTO 07022G28KT 10SM OVC013 08/06 A2948 RMK AO2=
KRVL 231715Z AUTO 00000KT 8SM OVC026 16/06 A3028 RMK AO2=
KRYV 231715Z AUTO 15011G17KT 10SM CLR 22/11 A2984 RMK AO2
     T02160111=
KRZN 231715Z AUTO 15011G15KT 10SM CLR 21/11 A2966 RMK AO2
     T02070110=
KS25 231715Z AUTO 07013G23KT 10SM OVC010 07/07 A2947 RMK AO2=
KS32 231715Z AUTO 08019KT 10SM CLR 14/06 A2944 RMK AO2 TSNO=
KSCR 231715Z AUTO 03009KT 10SM CLR 20/06 A3021 RMK AO2
     T01960061=
KSIK 231715Z AUTO 17007G21KT 10SM OVC038 24/15 A3001 RMK AO2=
KSPF 231715Z AUTO 30019G26KT 10SM CLR 08/02 A2935 RMK AO2=
KSTF 231715Z AUTO 16009KT 10SM CLR 24/13 A3013 RMK AO2=
KSUZ 231715Z AUTO 21014KT 10SM OVC037 24/16 A2998 RMK A01=
KT69 231715Z AUTO 17015KT 10SM FEW038 FEW044 SCT060 28/22 A2990
     RMK A01=
KTKX 231715Z AUTO 20018G26KT 7SM SCT050 26/15 A2999 RMK AO2
     TSNO=
KTSP 231715Z AUTO 31010KT 8SM CLR 08/00 A2995 RMK AO2=
KTWT 231715Z AUTO 20018G28KT 10SM CLR 25/10 A3004 RMK AO2=
KU42 231715Z AUTO 33015G20KT 10SM SCT045 BKN055 BKN085 04/02 A2977
     RMK AO1 T00360024=
KUOX 231715Z AUTO 19010G18KT 150V230 10SM FEW040 24/14 A3011 RMK
     AO2 PWINO=
KUTA 231715Z AUTO 20016G24KT 10SM FEW050 26/16 A3005 RMK AO2
     T02630157 $=
KVGC 231715Z AUTO 16006KT 10SM CLR 16/02 A3030 RMK AO2=
KHBI 231715Z AUTO 01010KT 10SM CLR 20/05 A3022 RMK AO2
     T01960047=
KHRJ 231715Z AUTO 35013G17KT 10SM CLR 20/04 A3018 RMK AO2
     T02040045=
KHVS 231715Z AUTO 05010KT 10SM CLR 22/06 A3018 RMK AO2=
KHWY 231715Z AUTO 04006KT 10SM OVC021 17/09 A3027 RMK AO2
     T01660090=
KHZE 231715Z AUTO 06014G24KT 10SM CLR 10/06 A2939 RMK AO2=
KIDI 231715Z AUTO VRB04KT 10SM CLR 19/04 A3028 RMK A01=
KINF 231715Z AUTO 03006KT 10SM CLR 26/16 A3013 RMK AO2=
KJFZ 231715Z AUTO 06003KT 10SM CLR 19/03 A3025 RMK AO2
     T01890025=
