SAUS70 KWBC 231900 RRP
METAR
KPTK 231853Z 14013KT 10SM FEW050 BKN220 22/10 A3010 RMK AO2 SLP191
     T02220100 $=
KSDC 231855Z AUTO 00000KT 10SM CLR 22/01 A3024 RMK AO2=
KSMQ 231853Z AUTO 07003KT 10SM OVC055 18/08 A3024 RMK AO2 SLP240
     T01830083=
KTDZ 231853Z AUTO 17011KT 10SM FEW060 25/11 A3011 RMK AO2 SLP192
     T02500106=
KVVV 231855Z 13022G28KT 10SM 22/13 A2933 RMK AO2=
KACQ 231855Z AUTO 13022G28KT 10SM CLR 23/12 A2954 RMK AO2=
KAIT 231855Z AUTO 13013G17KT 10SM CLR 23/12 A2954 RMK AO2=
KCMI 231853Z 16027G41KT 10SM CLR 26/13 A2991 RMK AO2 PK WND
     16041/1850 SLP123 T02610133=
KI69 231855Z AUTO 17007G17KT 140V200 10SM CLR 24/09 A3013 RMK AO2
     T02440085=
KLJF 231855Z AUTO 14019G28KT 10SM CLR 24/11 A2944 RMK AO2=
KOTM 231853Z AUTO 17021G29KT 10SM CLR 24/14 A2962 RMK AO2 PK WND
     16031/1842 SLP023 T02440144=
KOVS 231853Z AUTO 15008KT 120V200 10SM CLR 25/13 A2970 RMK AO2
     SLP054 T02500128 $=
KOWD 231853Z 04005KT 10SM SCT120 15/12 A3032 RMK AO2 SLP267
     T01500117=
KPBG 231853Z AUTO 13003KT 10SM CLR 16/06 A3029 RMK AO2 SLP257
     T01610056=
KPEO 231853Z AUTO 13007KT 10SM CLR 19/04 A3025 RMK AO2 SLP244
     T01940044=
KPIR 231853Z AUTO 15013G18KT 10SM CLR 21/09 A2916 RMK AO2 SLP869
     T02060094 $=
KPKB 231853Z 03003KT 10SM CLR 24/07 A3017 RMK AO2 SLP214
     T02390072=
KPKD 231853Z AUTO 13014G26KT 10SM CLR 22/11 A2948 RMK AO2 PK WND
     14026/1850 SLP984 T02220111=
KTWM 231855Z AUTO 05013G19KT 10SM BKN070 18/10 A2967 RMK AO2=
KY63 231855Z AUTO 12019G27KT 10SM CLR 22/12 A2939 RMK AO2
     T02200120=
KS24 231855Z AUTO 18011G17KT 10SM CLR 25/09 A3011 RMK AO2=
PAOH 231856Z AUTO 07012G19KT 040V110 6SM RA BR BKN014 OVC020 04/02
     A2949 RMK AO2 SLP985 T00390022=
PAQH 231856Z AUTO 12010KT 10SM SCT026 BKN031 00/M01 A3002 RMK AO2
     SLP164 T00001006 FZRANO=
PASL 231856Z AUTO 00000KT 10SM CLR M03/M04 A3011 RMK AO2 SLP189
     T10331039 FZRANO=
PATQ 231856Z AUTO 11013KT 10SM CLR M09/M10 A2992 RMK AO2 SLP138
     T10941100 FZRANO TSNO=
PAZK 231856Z AUTO 33005KT 9SM -SN OVC026 M06/M09 A2977 RMK AO2
     SNB1757 SLP144 P0000 T10561089 FZRANO=
PFCL 231856Z AUTO 22003KT 10SM CLR A3011 RMK AO2 SLPNO FZRANO TSNO
     $=
PFKW 231856Z AUTO 14011KT 10SM CLR M02/M02 A3000 RMK AO2 SLP158
     T10171017 FZRANO=
PFSH 231856Z AUTO 16016KT 10SM FEW043 SCT075 OVC095 02/M02 A2993
     RMK AO2 SLP134 T00171017 FZRANO=
PFWS 231856Z AUTO 00000KT 10SM CLR 01/M01 A3012 RMK AO2 SLP245
     T00111011 FZRANO=
PABA 231852Z AUTO 09021KT 10SM OVC008 M04/M06 A3006 RMK AO2 PK WND
     09027/1848 SLP185 T10391056 FZRANO PNO $=
KBRO 231853Z 15021G31KT 10SM SCT044 32/20 A2983 RMK AO2 PK WND
     15032/1824 SLP101 T03220200=
KFLL 231853Z 05011KT 10SM SCT034 SCT043 28/19 A3001 RMK AO2 SLP163
     T02830194 $=
KJFK 231851Z 03009KT 10SM BKN060 BKN120 OVC150 16/11 A3025 RMK AO2
     SLP245 T01610106=
KMCO 231853Z 33009KT 10SM FEW050 29/14 A3006 RMK AO2 SLP179
     T02890139 $=
KPBI 231853Z 02012KT 350V050 10SM FEW045 SCT070 29/18 A3004 RMK
     AO2 SLP172 T02890178 $=
TIST 231853Z VRB04KT 10SM SCT030 29/24 A2988 RMK AO2 SLP119
     T02940239=
KMGW 231853Z 05005KT 10SM CLR 23/04 A3020 RMK AO2 SLP224
     T02280044=
KMGY 231853Z AUTO 18013G21KT 10SM CLR 24/09 A3011 RMK AO2 SLP191
     T02440094=
KMHE 231853Z AUTO 15022G34KT 10SM CLR 26/11 A2919 RMK AO2 PK WND
     15037/1823 SLP879 T02560106=
KMHT 231853Z 32003KT 10SM OVC180 16/07 A3032 RMK AO2 SLP282
     T01610072=
KMIC 231853Z 12017G35KT 10SM CLR 24/13 A2951 RMK AO2 PK WND
     15035/1845 SLP988 T02440128=
KMLT 231853Z AUTO VRB03KT 10SM CLR 20/09 A3035 RMK AO2 SLP285
     T02000094=
