SAUS70 KWBC 232106
METAR
KGZN 232040Z AUTO 17022G33KT 10SM CLR 29/14 A2970 RMK AO2=
KGAF 232115Z AUTO 04015KT 8SM CLR 21/09 A2940 RMK AO2=
KGPH 232115Z AUTO 19014G19KT 10SM SCT120 28/12 A2957 RMK AO2 LTG
     DSNT N AND NE=
KW63 232115Z AUTO 35003KT 10SM BKN031 20/11 A3014 RMK AO1=
KEZS 232115Z AUTO 14011G20KT 10SM CLR 22/14 A2980 RMK AO2 LTG DSNT
     SW T02160136=
K4I3 232102Z AUTO 18006KT 10SM CLR 23/07 A3013 RMK AO2=
KDLL 232115Z AUTO 15016G22KT 10SM SCT046 23/12 A2972 RMK AO2 LTG
     DSNT SW T02260122=
