SAUS70 KWBC 232000 RRE
METAR
KIYA 231955Z AUTO 12008G22KT SCT060 OVC070 27/13 A3002 RMK AO2
     T02670133 PWINO=
KJCA 231955Z AUTO 28003KT 10SM CLR 23/03 A3016 RMK AO2
     T02330028=
KJDD 231955Z AUTO 19010G17KT 10SM SCT050 29/16 A2984 RMK AO2=
KJXN 231956Z 14009G18KT 10SM CLR 23/10 A3005 RMK AO2 PK WND
     17027/1904 SLP172 T02330100=
KK88 231955Z AUTO 17021G32KT 10SM CLR 27/14 A2961 RMK AO1
     T02650142=
KLCK 231955Z AUTO 19005G14KT 10SM CLR 25/07 A3011 RMK AO2
     T02510067=
KLHB 231955Z AUTO 16016G24KT 10SM SCT055 BKN065 31/16 A2984 RMK
     AO2 T03080164=
KLHM 231955Z AUTO 32017G25KT 10SM CLR 20/M02 A2995 RMK AO1=
KLNN 231955Z AUTO 10SM CLR 23/05 A3014 RMK AO1 T02330051=
KLRO 231955Z AUTO 00000KT 9SM CLR 24/10 A3012 RMK AO2=
KLUA 231955Z AUTO 03006KT 10SM OVC033 17/08 A3022 RMK AO2=
KLUD 231955Z AUTO 16018G29KT 10SM CLR 29/15 A2972 RMK AO2
     T02850150=
KLUL 231955Z AUTO 15008KT 110V170 10SM CLR 27/10 A3007 RMK A02
     T02660099=
KMDD 231955Z AUTO 17015G22KT 10SM CLR 28/12 A2971 RMK AO2
     T02820120=
KMGR 231955Z AUTO 11004KT 10SM CLR 25/08 A3012 RMK AO2=
KMKS 231955Z AUTO 00000KT 10SM CLR 22/09 A3013 RMK AO2=
KMPR 231955Z AUTO 18031G41KT 3SM HZ CLR 29/12 A2943 RMK AO2
     T02910124=
KMWK 231955Z AUTO 14003KT 10SM CLR 21/06 A3019 RMK AO2
     T02120058=
KMWO 231955Z AUTO 16010KT 10SM CLR 25/08 A3009 RMK AO2
     T02470075=
KMZZ 231955Z AUTO 17014G21KT 10SM CLR 25/11 A3003 RMK AO2
     T02470106=
KOEL 231955Z AUTO 23026G37KT 7SM CLR 30/M05 A2928 RMK AO1
     T03001052=
KOKM 231955Z AUTO 17022G28KT 10SM CLR 30/15 A2969 RMK AO2
     T03010147=
KOLM 231954Z 22007KT 10SM SCT025 12/06 A3016 RMK AO2 SLP215
     T01170061 $=
KOLY 231955Z AUTO 18016G21KT 10SM SCT049 25/11 A2995 RMK AO2
     T02520107=
KONX 231955Z AUTO 34009G14KT 7SM OVC008 16/16 A3006 RMK AO2
     T01640164=
KPCD 231955Z AUTO 19021G29KT 10SM BKN044 27/17 A2988 RMK AO2
     T02670167=
KPEZ 231955Z AUTO 16010G19KT 10SM BKN049 31/18 A2980 RMK AO2
     T03100180=
KPHN 231955Z AUTO 16014G19KT 10SM CLR 25/06 A3011 RMK AO2=
KPMV 231955Z AUTO 17024G39KT 7SM CLR 29/13 A2938 RMK AO2 LTG DSNT
     S T02940127=
KPPO 231955Z AUTO 19016G26KT 10SM CLR 25/15 A2993 RMK AO2
     T02510148=
KPRG 231955Z AUTO 16027G30KT 10SM CLR 26/13 A2994 RMK AO2
     T02610125=
KPSO 231955Z AUTO 23016G23KT 10SM BKN050 BKN060 OVC100 05/M05
     A2973 RMK AO2 T00461055=
KRAS 231955Z AUTO 14016G23KT 10SM CLR A2986 RMK AO2=
KRDM 231956Z 36009G15KT 10SM FEW041 10/M02 A3010 RMK AO2 SLP195
     T01001017 $=
KRPJ 231955Z AUTO 16021G26KT 10SM CLR 25/16 A2979 RMK AO2
     T02500159 TSNO=
KRSV 231955Z AUTO 18020G25KT 10SM SCT060 26/11 A2997 RMK AO2
     T02630106=
KRVJ 231955Z AUTO 11004KT 10SM CLR 25/11 A3012 RMK AO2
     T02530113=
KRWV 231955Z AUTO 17017G24KT 10SM SCT050 SCT065 29/16 A2984 RMK
     AO2 T02930161=
KRYW 231955Z AUTO 17012G27KT 10SM SCT047 28/15 A2982 RMK AO2
     T02830150=
KS33 231955Z AUTO 30004KT 10SM CLR 09/00 A3013 RMK AO2=
KSAA 231955Z AUTO 26011G15KT 1 1/4SM -SN BKN010 BKN015 OVC020
     00/00 A2958 RMK AO2=
KSLE 231956Z 00000KT 10SM FEW027 SCT033 SCT060 13/06 A3018 RMK AO2
     SLP219 T01330056=
KSME 231955Z AUTO VRB06KT 10SM CLR 24/05 A3010 RMK AO2=
KSTE 231955Z AUTO 13014G20KT 10SM SCT047 24/10 A2975 RMK AO2
     T02410100=
KSTK 231955Z AUTO 34015G23KT 10SM CLR 20/01 A2930 RMK AO2=
KSXK 231955Z AUTO 16028G33KT 10SM CLR 28/12 A2929 RMK AO2=
KT41 231955Z AUTO 10SM SCT042 SCT050 29/18 A2991 RMK AO2
     T02890176=
KT74 231955Z AUTO 17020G25KT 10SM SCT050 29/17 A2980 RMK AO2
     T02940167=
