SAUS70 KWBC 232100
METAR
KAND 232056Z AUTO VRB03KT 10SM CLR 24/02 A3014 RMK AO2 SLP202
     T02390022 56015=
KART 232056Z AUTO 00000KT 10SM CLR 18/08 A3024 RMK AO2 SLP238
     T01830078 58005=
KATP 232055Z AUTO 11014G20KT 10SM SCT037 SCT050 25/17 A3003 RMK
     A01=
KBAX 232055Z AUTO 17013G19KT 10SM CLR 23/10 A3008 RMK AO2
     T02300095=
KBBB 232056Z AUTO 15023G30KT 10SM SCT050 24/12 A2934 RMK AO2=
KBJJ 232056Z AUTO 16008KT 10SM CLR 22/08 A3014 RMK AO2 SLP205
     T02220078 56015=
KBQX 232055Z AUTO 15013G21KT 9SM 28/18 A2989 RMK A01=
KCKC 232056Z AUTO 09008G15KT 10SM CLR 18/11 A2975 RMK AO2 LTG=
KCTB 232056Z AUTO 34021G29KT 7SM OVC010 00/M01 A2993 RMK AO2 PK
     WND 34033/2032 SNE34 CIG 008V014 SLP164 P0003 60008 T00001006
     51024 $=
KCXY 232056Z 01005KT 10SM OVC060 18/09 A3023 RMK AO2 SLP239
     T01830094 56009=
KD39 232055Z AUTO 13016G27KT 10SM SCT044 23/12 A2941 RMK AO2 LTG
     DSNT SE T02300124=
KDAY 232056Z 17009G16KT 150V210 10SM CLR 24/08 A3008 RMK AO2
     SLP181 T02440083 56018=
KDDH 232054Z AUTO VRB03KT 10SM CLR 17/04 A3030 RMK AO2 SLP264
     T01670044 55002=
KDIK 232056Z AUTO 02014G20KT 10SM OVC018 09/04 A2934 RMK AO2
     SLP939 T00940044 55004=
KDSF 232055Z AUTO 07008KT 10SM CLR 25/15 A3006 RMK A01=
KEAU 232056Z 14015G23KT 10SM FEW050 24/13 A2960 RMK AO2 PK WND
     14029/2008 SLP020 T02440128 56020=
KEED 232056Z AUTO 02011G20KT 10SM CLR 23/M02 A2979 RMK AO2 SLP063
     T02331022 58004 $=
KELZ 232056Z AUTO 14006KT 10SM CLR 19/00 A3025 RMK AO2 SLP244
     T01940000 56006=
KERY 232055Z AUTO 16016G21KT 10SM CLR 22/10 A2994 RMK AO2
     T02190104=
KFDR 232053Z AUTO 17025G33KT 10SM CLR 33/13 A2957 RMK AO2 PK WND
     19037/2036 SLP993 T03280128 56026=
KGHB 232055Z AUTO VRB04G10KT 7SM CLR 26/17 A2999 RMK A01=
KGLX 232055Z AUTO 05011KT 10SM CLR 25/14 A3006 RMK A01=
KGON 232056Z 03013KT 10SM -RA SCT048 BKN110 14/11 A3023 RMK AO2
     SLP238 P0005 60012 T01390111 58012=
KNFE 232056Z AUTO 34007G15KT 1 3/4SM -RA BR OVC006 17/14 A3008 RMK
     AO2 RAB40 SLP188 P0000 60006 T01670144 51005=
KGRD 232056Z AUTO 00000KT 10SM CLR 23/04 A3016 RMK AO2 SLP209
     T02330044 56013=
KGRY 232055Z AUTO 13011KT 10SM CLR 24/16 A3003 RMK A01=
KHCD 232055Z AUTO 14023G31KT 10SM CLR 25/12 A2944 RMK AO2 LTG DSNT
     SE T02490123=
KHHV 232055Z AUTO 14016G23KT 10SM FEW034 27/18 A2988 RMK A01=
KHVN 232053Z 02006KT 8SM BKN048 BKN060 OVC110 13/11 A3027 RMK AO2
     RAE47 SLP249 P0002 60004 T01280111 58002=
KHYA 232056Z 35010KT 3SM -RA BR BKN007 OVC019 14/13 A3027 RMK AO2
     SLP249 P0010 60013 T01390133 55008=
KHYX 232055Z AUTO 17011G17KT 10SM SCT060 23/09 A3004 RMK AO2
     T02310093=
KHZX 232055Z AUTO 10009G17KT 10SM BKN046 BKN050 22/12 A2954 RMK
     AO2 LTG DSNT S=
KIMS 232055Z AUTO 17008G15KT 10SM CLR 25/08 A3008 RMK AO2=
KJMS 232056Z AUTO 12021G30KT 10SM CLR 23/11 A2927 RMK AO2 PK WND
     11032/2044 SLP911 T02280111 56027=
KJXN 232056Z 14014G20KT 10SM CLR 23/10 A3004 RMK AO2 SLP170
     T02330100 56013=
KLAS 232056Z 01022G29KT 10SM FEW130 18/M10 A2984 RMK AO2 PK WND
     01035/2042 SLP094 T01781100 58005=
KLNR 232056Z AUTO 15016G27KT 10SM FEW049 27/13 A2969 RMK AO2 PK
     WND 14028/2045 RAB31E51 SLP046 P0000 60000 T02670133
     56019=
KLVN 232055Z AUTO 15018G26KT 7SM CLR 24/11 A2949 RMK AO2 LTG DSNT
     SE=
KLXL 232055Z AUTO 14016G22KT 10SM SCT050 24/13 A2945 RMK AO2 LTG
     DSNT SE=
KMDT 232056Z 04003KT 10SM BKN060 OVC120 17/10 A3023 RMK AO2 SLP237
     T01720100 56007=
KMJQ 232055Z AUTO 16028G33KT 10SM CLR 25/11 A2941 RMK AO2=
KMOP 232055Z AUTO 14011G19KT 10SM BKN060 23/10 A3000 RMK AO2
     T02310096=
