SAUS70 KWBC 231746
METAR
KBYL 231735Z AUTO 13006KT 10SM CLR 22/05 A3019 RMK AO1=
KJVY 231735Z AUTO 22012KT 10SM CLR 25/10 A3010 RMK AO2 PWINO=
KTNB 231730Z AUTO 00000KT 10SM CLR 19/01 A3023 RMK AO2
     T01940011=
KUKF 231735Z AUTO 00000KT 10SM CLR 20/02 A3025 RMK AO2=
