SAUS80 KWBC 231700 CCA
METAR
KP28 231656Z AUTO 18017G31KT 27/13 A2952 RMK AO1 PK WND 19034/1635
     SLP980 T02670128 $=
KP58 231655Z AUTO 13010KT 14/12 A3012 RMK AO1 SLP198 T01440117=
KMEH 231656Z AUTO 00000KT 10SM BKN012 BKN060 02/01 A3000 RMK AO2
     SNB31E48 SLP179 P0000 T00220006=
