SAUS70 KWBC 231942
METAR
KBJI 231935Z AUTO 11014G19KT 10SM CLR 22/12 A2950 RMK AO2
     T02150115=
KOWX 231935Z AUTO 18011G16KT 10SM SCT060 25/06 A3010 RMK AO1=
K33V 231935Z AUTO 35015KT 10SM SCT036 BKN045 OVC055 00/M03 A2952
     RMK AO1=
KAJZ 231935Z AUTO 23003KT 10SM SCT038 SCT048 SCT060 10/02 A2962
     RMK AO2 T00950020=
KBBD 231935Z AUTO 16017KT 10SM CLR 28/14 A2977 RMK AO2=
KBVS 231935Z AUTO 18005KT 10SM SCT017 SCT029 SCT041 11/08 A3015
     RMK A01=
KBYY 231935Z AUTO 17015G22KT 10SM OVC060 28/16 A2990 RMK AO2
     T02860163=
KCCU 231935Z AUTO 28007KT M1/4SM FZFG OVC001 M02/M05 A2961 RMK
     AO2=
KE11 231935Z AUTO 19017G21KT 10SM CLR 29/10 A2971 RMK AO2
     T02880101=
KE16 231935Z AUTO 31013G19KT 10SM CLR 18/02 A2999 RMK AO2=
KE41 231935Z AUTO 19015G22KT 10SM CLR 25/15 A2979 RMK AO2
     T02500147=
KEMM 231935Z AUTO 29018G26KT 7SM -SN SCT013 SCT020 BKN025 00/M04
     A2969 RMK AO2=
KHII 231935Z AUTO 32015G21KT 10SM CLR 23/M04 A2977 RMK AO2=
KJAS 231935Z AUTO 17010G18KT 130V190 9SM FEW048 SCT065 29/17 A2993
     RMK AO2=
KLAM 231935Z AUTO 24012G22KT 7SM -DZ SCT018 BKN050 OVC070 08/03
     A2974 RMK AO2 T00800029=
KLLN 231935Z AUTO 21020G27KT 10SM CLR 28/09 A2969 RMK AO2=
KMDD 231935Z AUTO 17015G21KT 10SM CLR 28/12 A2972 RMK AO2
     T02820116=
KMNH 231935Z AUTO 24018G24KT 10SM SCT045 BKN065 OVC110 08/00 A2949
     RMK AO2=
KPEZ 231935Z AUTO 14011G19KT 10SM SCT049 30/18 A2981 RMK AO2
     T02980179=
KRYW 231935Z AUTO 17014G21KT 10SM SCT047 28/15 A2983 RMK AO2
     T02840153=
K1H2 231935Z AUTO 14012G20KT 10SM BKN044 25/14 A2993 RMK AO2
     T02490142=
KAAA 231935Z AUTO 18025G32KT 10SM SCT042 25/15 A2983 RMK AO2
     T02490149=
KAXA 231935Z AUTO 15021G35KT 9SM CLR 25/14 A2945 RMK A01=
KBVN 231935Z AUTO 19022G30KT 10SM CLR 30/09 A2922 RMK AO2
     T03020093=
KCQM 231937Z AUTO 13009G17KT 10SM SCT095 23/10 A2962 RMK AO2=
KGWB 231935Z AUTO 20008G14KT 10SM SCT055 SCT075 23/11 A3004 RMK
     AO2=
KHMZ 231935Z AUTO 13004KT 10SM CLR 19/03 A3024 RMK AO2
     T01880034=
KHNR 231935Z AUTO 17025G33KT 10SM CLR 28/15 A2939 RMK A01=
KHPT 231935Z AUTO 15021G26KT 10SM CLR 25/12 A2954 RMK AO2=
KI63 231935Z AUTO 15021G25KT 10SM CLR 24/14 A2974 RMK AO2 LTG DSNT
     S T02410140=
KI74 231935Z AUTO 17007KT 10SM BKN060 23/10 A3011 RMK AO2=
KIBM 231935Z AUTO 33023G28KT 10SM CLR 14/00 A2935 RMK AO2
     T01420000=
KIKK 231935Z AUTO 19019G28KT 10SM CLR 26/12 A2989 RMK AO2
     T02560119=
KIKV 231935Z AUTO 17015G22KT 10SM CLR 25/14 A2953 RMK AO2=
KJYR 231935Z AUTO 19030KT 9SM CLR 30/10 A2928 RMK AO2=
KLRJ 231935Z AUTO 15026G34KT 10SM CLR 28/12 A2929 RMK AO2=
KMQS 231935Z AUTO 05003G10KT 10SM CLR 16/11 A3024 RMK AO2=
KOLZ 231935Z AUTO 16021G30KT 10SM CLR 23/13 A2962 RMK A01=
KPHN 231935Z AUTO 16013G18KT 10SM CLR 24/06 A3011 RMK AO2=
KPPO 231935Z AUTO 17019G24KT 10SM CLR 25/15 A2994 RMK AO2
     T02510152=
KPRG 231935Z AUTO 16024G29KT 10SM CLR 25/13 A2995 RMK AO2
     T02490125=
KRSV 231935Z AUTO 20019G25KT 10SM CLR 27/10 A2997 RMK AO2
     T02680104=
KTYQ 231935Z AUTO 16018G22KT 10SM SCT055 25/11 A3000 RMK AO2
     T02490105=
KVYS 231935Z AUTO 16022G31KT 10SM SCT043 25/14 A2978 RMK AO2
     T02480140=
K06C 231935Z AUTO 17014G26KT 10SM SCT047 SCT120 25/17 A2984 RMK
     AO2 T02470166=
KADU 231935Z AUTO 17016G25KT 10SM SCT004 BKN039 OVC080 28/13 A2944
     RMK AO2 PWINO=
KAFK 231935Z AUTO 20023G38KT 10SM CLR 30/13 A2941 RMK AO2
     T02960130=
KAIO 231935Z AUTO 17022G29KT 8SM CLR 28/15 A2941 RMK AO2=
KASW 231935Z AUTO 21004G18KT 10SM SCT055 24/11 A3000 RMK AO2
     T02440109=
