SAUS70 KWBC 232100 RRH
METAR
PATO 232053Z AUTO 27014G27KT 10SM CLR 00/M04 A2984 RMK AO2 PK WND
     27027/2053 SLP104 T00001044 50004 TSNO=
PAWD 232053Z AUTO 32019G28KT 10SM CLR 05/M09 A2980 RMK AO2 PK WND
     33037/2026 SLP092 T00501089 50007 TSNO $=
PAWI 232053Z AUTO 10019KT 10SM CLR M09/M12 A2983 RMK AO2 SLP104
     T10891117 55003 TSNO $=
PAAQ 232053Z 11004KT 10SM CLR M01/M03 A2986 RMK AO2 SLP116
     T10061028 50006=
PABR 232053Z 12017KT 10SM CLR M07/M08 A2997 RMK AO2 SLP149
     T10671083 53000=
PACV 232053Z 00000KT 10SM SCT200 07/M03 A2963 RMK AO2 SLP034
     T00671028 58005=
PAEL 232047Z COR 30011KT 20SM OVC021 05/02 A2942 RMK SPB
     E03012G22KT NOSPECI=
PAEN 232053Z 18003KT 10SM CLR 02/M02 A2993 RMK AO2 SLP136
     T00171022 50006=
PAGK 232053Z AUTO 34010KT 10SM CLR M01/M08 A2984 RMK AO2 SLP134
     T10111083 50004 TSNO=
PAGY 232053Z AUTO 04009KT 10SM BKN075 09/M03 A2958 RMK AO2 SLP015
     T00941028 56004 TSNO $=
PAIL 232053Z 30010KT 10SM FEW020 01/M04 A3005 RMK AO2 SLP179
     T00111039 53007=
PAKT 232053Z 13020G33KT 3SM R11/5000VP6000FT RA BR SCT008 BKN016
     OVC026 06/04 A2942 RMK AO2 PK WND 11034/2037 SLP961 HARBOR
     WIND 10020KT ROOF WIND 13020G35KT VIS 2V4 P0028 60043
     T00610044 56037=
PAKV 232053Z AUTO 00000KT 10SM OVC010 M02/M02 A3001 RMK AO2 SLP166
     T10171022 58003 TSNO=
PAKW 232053Z AUTO 03008KT 2SM RA BR OVC030 07/06 A2927 RMK AO2
     SLP913 P0007 60023 T00720061 58034 TSNO $=
PALH 232053Z 00000KT 10SM CLR 01/M05 A2991 RMK AO2 SLP130
     T00061050 51007=
PAMR 232053Z 34003KT 10SM CLR 01/M06 A2990 RMK AO2 SLP127
     T00111056 51007=
KHHR 232053Z 25013KT 10SM CLR 21/12 A2984 RMK AO2 SLP105 T02110117
     57007=
KHIB 232053Z AUTO 12015G23KT 10SM CLR 21/12 A2959 RMK AO2 PK WND
     12026/1955 SLP027 T02110117 56019=
KHIO 232053Z 00000KT 10SM FEW047 FEW055 13/04 A3017 RMK AO2 SLP218
     T01330044 51005=
KHJO 232053Z AUTO 30011KT 6SM HZ CLR 21/00 A2992 RMK AO2 SLP131
     T02110000 58012=
KHKA 232053Z AUTO 18014KT 10SM FEW055 26/13 A2995 RMK AO2 SLP141
     T02610128 56019 $=
KHKY 232053Z 00000KT 10SM CLR 22/06 A3015 RMK AO2 SLP197 T02220061
     56013=
KHLN 232053Z 32015KT 3SM -SN SCT020 BKN027 OVC034 02/M01 A2987 RMK
     AO2 SLP154 P0000 60000 T00221011 51015=
KHOT 232053Z AUTO 17014G21KT 10SM CLR 28/14 A2987 RMK AO2 SLP108
     T02780139 56031=
KHOU 232053Z 16017G25KT 10SM FEW055 BKN250 29/16 A2989 RMK AO2 PK
     WND 16029/2026 SLP125 T02940156 56021=
KHQM 232053Z AUTO 13006KT 10SM SCT025 BKN035 14/08 A3016 RMK AO2
     SLP215 T01390083 50007=
KHRI 232053Z AUTO 24006KT 10SM CLR 14/01 A3011 RMK AO2 SLP197
     T01390011 53009=
KHRO 232053Z AUTO 18016G24KT 10SM CLR 25/15 A2983 RMK AO2 SLP088
     T02500150 56013=
KHSI 232053Z AUTO 17023G41KT 9SM FEW042 29/09 A2926 RMK AO2 PK WND
     15041/2053 SLP889 T02940094 $=
KHSP 232055Z AUTO 10006KT 7SM CLR 16/00 A3025 RMK AO2
     T01631005=
KHYR 232053Z AUTO 16015G26KT 10SM FEW046 23/13 A2963 RMK AO2 PK
     WND 14027/2025 SLP032 T02330128 56019=
KHZY 232053Z AUTO 12005KT 10SM CLR 23/04 A3016 RMK AO2 SLP211
     T02330044 56015=
KIAH 232053Z 17016G29KT 10SM SCT060 BKN250 29/16 A2987 RMK AO2 PK
     WND 17029/2048 SLP116 T02940161 56024=
KICR 232053Z AUTO 27015G26KT CLR 27/01 A2914 RMK AO2 PK WND
     27026/2053 SLP855 T02670011 55005=
KIDA 232053Z 28008G18KT 10SM SCT049 OVC060 04/M04 A2982 RMK AO2
     SLP106 60000 T00391044 53013=
KIMT 232054Z AUTO 15015G25KT 10SM FEW070 19/12 A2983 RMK AO2
     SLP104 T01940117 56009=
KISO 232056Z 34009KT 10SM BKN018 BKN027 BKN040 19/15 A3011=
