SAUS70 KWBC 231816
METAR
KDVP 231813Z AUTO 13024G31KT 10SM CLR 22/12 A2940 RMK AO2
     T02210122=
KFOZ 231813Z AUTO 14009KT 10SM CLR 22/11 A2966 RMK AO2=
KORB 231813Z AUTO 16009G15KT 10SM CLR 22/11 A2963 RMK AO2=
KOWA 231813Z AUTO 14020G27KT 10SM CLR 23/13 A2954 RMK AO2=
KXVG 231813Z AUTO 09008KT 064V134 10SM OVC065 21/11 A2956 RMK
     AO2=
KTFP 231735Z AUTO 17017G22KT 10SM SCT025 29/22 A2989 RMK AO2
     T02940218=
K1S5 231815Z AUTO 26006KT 10SM CLR 09/02 A3009 RMK AO2
     T00940024=
KJXI 231815Z AUTO 16010G20KT 130V190 10SM SCT049 27/15 A2991 RMK
     AO2 T02690150=
KMCJ 231815Z AUTO 19014G27KT 160V230 10SM SCT060 28/13 A2993 RMK
     A01=
KEFT 231815Z AUTO 16018G23KT 10SM CLR 22/12 A2979 RMK AO2
     T02240121=
KETB 231815Z AUTO 11010KT 10SM CLR 20/12 A2986 RMK AO2=
KFRH 231815Z AUTO 19008G16KT 10SM CLR 23/07 A3006 RMK AO1=
KOIC 231815Z AUTO 16004KT 10SM CLR 17/07 A3032 RMK AO2
     T01720070=
KPBH 231815Z AUTO 15013G21KT 10SM CLR 21/13 A2974 RMK AO2
     T02140125=
KPDC 231815Z AUTO 13011G20KT 10SM CLR 24/12 A2969 RMK AO2
     T02350117=
KRRL 231815Z AUTO 15015G21KT 10SM CLR 22/13 A2978 RMK AO2
     T02150127 TSNO=
KSUW 231815Z AUTO 06009KT 10SM BKN075 14/09 A2969 RMK AO2
     T01360092=
KUNU 231815Z AUTO 15015G18KT 10SM CLR 22/13 A2983 RMK AO2
     T02170126=
KVNW 231815Z AUTO 20010G17KT 10SM CLR 24/08 A3010 RMK AO2=
K08D 231815Z AUTO 05010G17KT 10SM OVC009 06/06 A2948 RMK AO2=
K0E0 231815Z AUTO 22023G29KT 10SM SCT075 SCT090 19/M01 A2974 RMK
     AO2 T01881009 TSNO=
KAQP 231813Z AUTO 17017G30KT 10SM SCT095 23/11 A2937 RMK AO2=
KBEA 231815Z AUTO 17020G27KT 10SM BKN047 BKN050 31/16 A2985 RMK
     AO2 T03080161=
KCDH 231815Z AUTO 16013KT 8SM FEW042 28/18 A2996 RMK AO2=
KCQW 231815Z AUTO 01008G13KT 10SM CLR 23/06 A3016 RMK AO2
     PWINO=
KD55 231815Z AUTO 05019G27KT 10SM BKN011 10/10 A2951 RMK AO2=
KEHO 231815Z AUTO 35005KT 10SM CLR 22/05 A3019 RMK AO2
     T02150045=
KETH 231813Z AUTO 11026G30KT 10SM 22/12 A2936 RMK A=
KJHN 231815Z AUTO 21033G47KT 2SM HZ OVC001 28/00 A2940 RMK AO2
     T02801004=
KLDJ 231815Z AUTO 05008KT 10SM BKN120 17/09 A3026 RMK AO2
     T01680090=
KLUM 231815Z AUTO 11017G23KT 10SM CLR 24/17 A2964 RMK AO2
     T02410172 PWINO=
KMAW 231815Z AUTO 20021G27KT 10SM BKN044 BKN049 27/13 A2998 RMK
     AO1=
KMHL 231815Z AUTO 17017G24KT 10SM CLR 28/15 A2967 RMK AO2=
KMRJ 231815Z AUTO 15015G21KT 10SM CLR 22/10 A2976 RMK AO2=
KRCZ 231815Z AUTO 01004KT 10SM CLR 22/06 A3016 RMK AO2
     T02220058=
KRID 231835Z AUTO 21012G16KT 10SM CLR 23/12 A3012 RMK AO2=
KRNV 231815Z AUTO 19013G20KT 10SM SCT048 A3003 RMK AO2 TSNO=
KRPD 231815Z AUTO 11012G21KT 10SM CLR 22/16 A2967 RMK AO2
     T02170156=
KSDC 231815Z AUTO 17004KT 10SM CLR 20/01 A3025 RMK AO2=
KSNK 231815Z AUTO 19018G25KT 10SM CLR 28/12 A2975 RMK AO2
     T02750117=
K10G 231815Z AUTO 16007KT 109V179 10SM CLR 23/06 A3018 RMK AO2=
K1P1 231815Z AUTO 00000KT 10SM CLR 17/04 A3034 RMK AO2
     T01720038=
K20U 231815Z AUTO 06011KT 10SM OVC011 06/05 A2942 RMK AO2=
K24A 231815Z AUTO 00000KT 7SM CLR 21/M02 A3021 RMK AO2
     T02111016=
K27K 231815Z AUTO 19008G15KT 160V220 10SM CLR 23/06 A3015 RMK
     AO1=
K2P2 231815Z AUTO 18008G17KT 110V200 10SM SCT120 17/12 A2993 RMK
     AO2 T01680116=
K35A 231815Z AUTO 01005KT 10SM CLR 22/07 A3022 RMK A02
     T02210066=
K3D2 231815Z AUTO 17016G23KT 10SM CLR 16/10 A2991 RMK AO2
     T01640104=
K4S2 231815Z AUTO 29003KT 10SM CLR 11/04 A3012 RMK AO2=
K54J 231815Z AUTO 00000KT 10SM CLR 25/04 A3016 RMK AO2
     T02450035=
K6L4 231815Z AUTO VRB04KT 10SM CLR 22/05 A3019 RMK AO2=
