SACA31 KWBC 231700 RRA
METAR
MKJS 231700Z 07009KT 9999 FEW020CB 30/23 Q1013=
