SAUS80 KWBC 231800 RRD
METAR
KLYV 231755Z AUTO 14018G27KT 10SM CLR 22/11 A2937 RMK AO2=
KMVL 231754Z AUTO 00000KT 10SM CLR 20/05 A3032 RMK AO2 SLP272
     T02000050 10200 20000 58015=
KPOV 231755Z AUTO 12004KT 10SM CLR 23/03 A3019 RMK AO2 T02340028
     PWINO=
KPZQ 231755Z AUTO 17013G20KT 10SM CLR 24/12 A3006 RMK AO2
     T02370119 10238 20133=
KRFD 231754Z 16015G27KT 10SM CLR 23/13 A2984 RMK AO2 PK WND
     16028/1659 SLP100 T02330133 10233 20139 58018=
PHNY 231756Z AUTO 35008KT 10SM CLR 23/19 A3008 RMK AO2 SLP165
     T02330194 10233 20183 53018 $=
KANJ 231755Z AUTO 13011G20KT 10SM CLR 19/12 A3002 RMK AO2 SLP166
     T01940117 10200 20100 58008=
KAST 231755Z AUTO 19003KT 6SM BR OVC035 12/09 A3014 RMK AO2 SLP205
     T01170094 10117 20039 53022=
PABT 231753Z COR 01003KT 6SM BR FEW008 OVC035 M06/M07 A3002 RMK
     AO2 SLP183 T10561072 11050 21056 51003 $=
PADK 231756Z AUTO 26018G30KT OVC008 09/09 A3021 RMK AO2 PK WND
     25030/1752 SLP231 P0007 60020 T00940089 10106 20094 51014
     PWINO $=
KAAT 231755Z AUTO 23006KT 10SM SCT028 BKN037 OVC060 03/M01 A3008
     RMK AO2 SLP198 T00331011 10033 21028 51021=
PAQT 231753Z AUTO 09008KT 9SM OVC007 M07/M07 A3004 RMK AO2 SLP173
     I1000 I6000 T10671072 11061 21100 56002 TSNO=
KMKN 231755Z AUTO 18018G25KT 10SM CLR 28/16 A2983 RMK AO2
     T02760164 10276 20189=
KJNX 231755Z AUTO 35006KT 10SM CLR 22/10 A3014 RMK AO2=
KRFI 231755Z AUTO 17012G18KT 10SM BKN042 BKN050 29/12 A2995 RMK
     AO2 T02920124 10293 20203=
KRLD 231755Z AUTO 27005KT 10SM CLR 12/01 A3008 RMK AO2 T01240007
     10126 20043=
KRNO 231755Z 18004KT 10SM BKN060 06/M05 A3005 RMK AO2 SLP168 MTN
     TOPS OBSCD DSNT SW T00611050 10061 21006 51018=
KCIR 231755Z AUTO 23014G20KT 10SM OVC050 25/15 A3001 RMK AO2
     T02460145 10249 20182=
KDLH 231755Z 10012KT 10SM BKN070 BKN085 18/10 A2968 RMK AO2 SLP055
     T01780100 10178 20072 58009=
KDVL 231756Z AUTO 06017G25KT 10SM CLR 12/06 A2945 RMK AO2 SLP990
     T01220056 10122 20056 58034=
KDWU 231756Z AUTO 00000KT 10SM CLR 24/10 A3018 RMK AO2 SLP218
     T02440100 10244 20072 58018=
KEDU 231800Z AUTO 36018G24KT 9SM CLR 17/00 A3000 RMK AO1=
KGNG 231755Z AUTO 28025KT 10SM CLR 05/00 A2988 RMK AO2=
KGPZ 231756Z AUTO 15010KT 10SM FEW060 SCT085 20/11 A2963 RMK AO2
     SLP037 T02000111 10200 20083 58013=
KS39 231755Z AUTO VRB03KT 10SM FEW026 06/M01 A3009 RMK AO2=
KSCK 231755Z 33007KT 10SM CLR 17/02 A2998 RMK AO2 SLP152 T01720017
     10172 20083 51016=
KSEP 231755Z AUTO 16017G25KT 10SM CLR 28/15 A2985 RMK AO2
     T02760149 10276 20186=
KSHV 231756Z 19016G23KT 10SM SCT049 SCT300 29/15 A2995 RMK
     SLPNO=
KTKV 231755Z AUTO 15004KT 10SM SCT038 22/12 A2979 RMK AO2
     T02220119 10222 20106 PWINO=
KTLH 231753Z COR VRB0KT 10SM FEW250 25/07 A3014 RMK AO2 SLP206
     T02500067 10250 20044 58016=
KMHS 231756Z AUTO 10SM CLR 08/M01 A3009 RMK AO2 SLP213 T00781006
     10078 20028 51024=
KSXT 231756Z AUTO VRB04KT 4SM BR BKN004 BKN011 OVC018 02/02 A3013
     RMK AO2 SLP219 T00220017 10028 20006 51020=
KALK 231756Z AUTO 26018G28KT 10SM CLR 19/06 A2991 RMK AO2 PK WND
     24028/1721 SLP045 T01890056 10194 20139 58003=
