SAUS70 KWBC 231800 RRF
METAR
KENW 231753Z 15014G19KT 10SM FEW041 23/13 A2987 RMK AO2 SLP113
     T02330133 10233 20144 58017=
KETH 231753Z AUTO 11024KT 10SM 22/12 A2938 RMK AO2=
KEYE 231753Z AUTO 18013G23KT 140V210 10SM CLR 24/12 A3003 RMK AO2
     SLP164 T02440117 10244 20144 58014 $=
KFRG 231753Z 03006KT 10SM BKN060 OVC100 14/11 A3027 RMK AO2 RAE45
     SLP249 P0000 60000 T01440106 10150 20139 55009 $=
KHFD 231753Z 01006KT 10SM CLR 13/07 A3030 RMK AO2 SLP260 T01330072
     10133 20083 58019=
KLEB 231753Z 00000KT 10SM CLR 16/06 A3033 RMK AO2 SLP272 T01560061
     10156 20033 58021=
KLHQ 231753Z AUTO 18008KT 10SM CLR 24/09 A3016 RMK AO2 SLP212
     T02390094 10239 20067 58015=
KLNS 231753Z 05006KT 10SM SCT050 OVC065 17/10 A3025 RMK AO2 SLP242
     T01720100 10172 20078 58009=
KMCK 231753Z AUTO 22037G51KT 4SM HZ CLR 29/03 A2924 RMK AO2 PK WND
     21054/1729 SLP876 T02890028 10289 20133 56013=
KOSU 231753Z 13006KT 10SM CLR 24/11 A3015 RMK AO2 SLP207 T02390106
     10239 20122 58016=
KRAC 231753Z AUTO 16013KT 10SM CLR 18/12 A2991 RMK AO2 SLP124
     T01830122 10183 20139 58013=
KYIP 231753Z 16013KT 10SM CLR 24/10 A3012 RMK AO2 SLP194 T02440100
     10250 20072 58014=
KBYI 231753Z AUTO 27014G26KT 10SM CLR 04/M02 A2984 RMK AO2 PK WND
     27030/1707 SLP106 T00441017 10044 20006 52022=
KFST 231753Z AUTO 24012KT 10SM CLR 29/08 A2979 RMK AO2 SLP043
     T02890078 10294 20161 58003 $=
KFWS 231752Z 18018G30KT 10SM SCT039 28/15 A2984=
KGEY 231753Z AUTO 33015KT 8SM -RA FEW009 BKN014 OVC023 02/01 A2960
     RMK AO2 SLP032 P0001 60004 T00220011 10050 20022 51027=
KLHX 231753Z AUTO 22029G46KT 10SM CLR 25/M03 A2939 RMK AO2 PK WND
     22047/1719 SLP892 T02501033 10250 20133 56015 $=
KLVM 231753Z AUTO 24017KT 1SM -SN VV013 01/M02 A2972 RMK AO2
     SLP085 P0000 60000 T00111017 10011 20006 53023 $=
KOGD 231753Z 34015KT 10SM FEW033 SCT100 07/M01 A2976 RMK AO2
     SLP065 T00671011 10067 20033 51020=
KOLF 231753Z AUTO 05014G23KT -RA OVC008 05/04 A2953 RMK AO2 PK WND
     06027/1734 CIG 006V010 SLP013 P0001 60009 T00500039 10056
     20050 53004=
KONT 231753Z 00000KT 10SM BKN022 BKN045 17/11 A2987 RMK AO2 SLP109
     T01670106 10172 20122 50012 $=
KRBD 231753Z 18021G34KT 10SM BKN040 28/17 A2984 RMK AO2 PK WND
     19040/1739 SLP096 T02780167 10278 20206 58004=
KRTN 231753Z AUTO 24034G49KT 10SM CLR 19/M02 A2954 RMK AO2 PK WND
     24052/1735 SLP929 T01891022 10194 20094 56018=
KTOR 231753Z AUTO 31028G43KT 10SM CLR 11/01 A2932 RMK AO2 PK WND
     31043/1752 SLP906 T01110011 10133 20094 51009=
KVEL 231753Z AUTO 16012KT 4SM -SN BR BKN033 OVC043 02/M01 A2964
     RMK AO2 SNB09E18B46 SLP029 P0000 60003 T00171006 10028 20006
     53016=
KDGW 231753Z AUTO 31016KT 10SM -RA OVC015 04/02 A2948 RMK AO2 PK
     WND 32026/1655 SLP960 P0000 60000 T00390017 10067 20033
     53017=
KDTO 231753Z 18020G31KT 10SM CLR 28/16 A2982 RMK AO2 PK WND
     17036/1735 SLP090 T02830161 10283 20200 55006=
KGGG 231753Z 18018G26KT 10SM BKN043 28/16 A2993 RMK AO2 PK WND
     20026/1727 SLP127 T02830156 10289 20178 58005=
KIAH 231753Z 17015G27KT 10SM SCT060 BKN250 29/15 A2994 RMK AO2 PK
     WND 15031/1732 SLP140 T02890150 10294 20211 58009=
KINK 231753Z AUTO 21014G22KT 10SM CLR 30/08 A2974 RMK AO2 SLP027
     T03000083 10300 20144 58008 $=
KLGB 231753Z VRB05KT 10SM SCT027 21/12 A2987 RMK AO2 SLP113
     T02110117 10211 20156 50015=
KONO 231753Z AUTO 32017G23KT 10SM OVC090 09/M01 A3002 RMK AO2
     SLP171 T00941011 10094 20022 51022=
KPRC 231753Z 01011G14KT 10SM FEW033 SCT041 BKN055 09/02 A2985 RMK
     AO2 SLP058 T00940022 10117 20083 51010=
