SAKA31 PTKK 232100
METAR PTKK 232050Z VRB05KT 15SM FEW014 SCT290 27/24 A2980 RMK SLP093
60000 8/101 T02700242 52019=
