SAUS70 KWBC 232100 RRM
METAR
KDAY 232056Z 17009G16KT 150V210 10SM CLR 24/08 A3008 RMK AO2
     SLP181 T02440083 56018=
KEDJ 232055Z AUTO 20009G14KT 10SM CLR 23/09 A3009 RMK A01=
KEFK 232055Z AUTO 00000KT 10SM CLR 18/04 A3032 RMK AO2
     T01790035=
KFGN 232055Z AUTO 06007KT 10SM CLR 16/08 A2956 RMK AO2=
KFKA 232055Z AUTO 15019G27KT 10SM VCTS CLR 23/13 A2960 RMK AO2 LTG
     DSNT S T02280126=
KFKS 232055Z AUTO 17009G16KT 10SM BKN060 OVC080 24/12 A2990 RMK
     AO2 T02400124=
KFPK 232055Z AUTO 17012G17KT 10SM CLR 23/09 A3001 RMK AO2
     T02300089=
KFSO 232055Z AUTO 00000KT 10SM CLR 18/06 A3029 RMK AO2
     T01770064=
KIWD 232056Z AUTO 13013G20KT 10SM CLR 22/12 A2970 RMK AO2 SLP053
     T02220122 56016=
KOXD 232055Z AUTO 15009KT 10SM CLR 26/04 A3007 RMK AO2
     T02600037=
KRKD 232056Z AUTO 00000KT 10SM CLR 13/12 A3036 RMK AO2 SLP279
     T01330122 58003=
KRUT 232056Z AUTO 14007KT 10SM CLR 17/03 A3031 RMK AO2 SLP260
     T01720033 56003 $=
KRZT 232055Z AUTO 14007KT 10SM CLR 24/03 A3010 RMK AO2 PWINO=
KSGH 232056Z AUTO 17007G14KT 10SM CLR 23/08 A3009 RMK AO2 SLP188
     T02330083 56015=
KY50 232056Z AUTO 16013G24KT 10SM FEW046 SCT120 24/13 A2975 RMK
     AO2 SLP068 6//// T02390133 56017 $=
KY70 232055Z AUTO 17017G23KT 10SM CLR 24/08 A2999 RMK AO2
     T02400080=
KBOK 232056Z AUTO 30009G14KT 10SM CLR 14/06 A3018 RMK AO2 SLP224
     T01390061 50001 $=
KCTB 232056Z AUTO 34021G29KT 7SM OVC010 00/M01 A2993 RMK AO2 PK
     WND 34033/2032 SNE34 CIG 008V014 SLP164 P0003 60008 T00001006
     51024 $=
KDSF 232055Z AUTO 07008KT 10SM CLR 25/15 A3006 RMK A01=
KEED 232056Z AUTO 02011G20KT 10SM CLR 23/M02 A2979 RMK AO2 SLP063
     T02331022 58004 $=
KGLX 232055Z AUTO 05011KT 10SM CLR 25/14 A3006 RMK A01=
KMRF 232056Z AUTO 17011G20KT 10SM CLR 27/06 A2984 RMK AO2 SLP046
     T02670056 56024=
KRDM 232056Z 05005KT 10SM BKN070 11/M03 A3010 RMK AO2 SLP197
     T01061028 51005 $=
KSBP 232056Z 30014KT 10SM CLR 22/05 A2989 RMK AO2 SLP118 T02170050
     58017=
KSLE 232056Z 16006KT 10SM SCT030 14/06 A3019 RMK AO2 SLP222
     T01440056 52008=
KVAF 232055Z AUTO 14018KT 10SM CLR 28/17 A2991 RMK A01=
KWBF 232055Z AUTO 00000KT 10SM 27/18 A3001 RMK A01=
KWJF 232056Z 29018G27KT 10SM CLR 19/M04 A2988 RMK AO2 PK WND
     26027/2048 SLP109 T01891039 58010=
KFSK 232055Z AUTO 18024G30KT 10SM CLR 29/13 A2961 RMK AO2
     T02880133=
KFZG 232055Z AUTO 00000KT 10SM CLR 25/10 A3012 RMK AO2
     T02510098=
KGBG 232055Z AUTO 17014G20KT 10SM CLR 24/16 A2973 RMK AO2 LTG DSNT
     NW T02400155=
KGCD 232055Z AUTO 00000KT 10SM SCT042 OVC050 04/M01 A3010 RMK AO2
     T00431006=
KGCM 232055Z AUTO 17015G21KT 10SM CLR 28/11 A2970 RMK AO2=
KGGF 232055Z AUTO 33022G28KT 10SM FEW120 21/M00 A2925 RMK AO2=
KGGP 232055Z AUTO 17017G23KT 10SM CLR 25/09 A2998 RMK AO2=
KGHG 232055Z AUTO VRB04KT 9SM -RA SCT036 SCT045 BKN065 14/12 A3031
     RMK AO2 P0001=
KGMJ 232055Z AUTO 18018G29KT 10SM CLR 22/05 A2968 RMK AO2=
KGOP 232055Z AUTO 10SM CLR 30/14 A2979 RMK AO2=
KGVT 232055Z AUTO 17022G32KT 10SM SCT050 30/16 A2978 RMK AO2 TSNO
     T02960156=
KGZL 232055Z AUTO 19019G26KT 10SM CLR 28/15 A2973 RMK AO2=
KHDE 232055Z AUTO 22028G36KT 7SM BKN031 OVC037 31/02 A2922 RMK AO2
     LTG DSNT NE T03060020=
KHDL 232055Z AUTO 00000KT 10SM CLR 25/03 A3010 RMK AO2=
KHHG 232055Z AUTO 18012G19KT 10SM CLR A3001 RMK AO2=
KHII 232055Z AUTO 31010G26KT 10SM CLR 24/M06 A2977 RMK AO2=
KHIO 232053Z COR 00000KT 10SM FEW047 BKN055 13/04 A3017 RMK AO2
     SLP218 T01330044 51005=
KHMZ 232055Z AUTO 15005KT 10SM CLR 18/07 A3022 RMK AO2
     T01840071=
KHNR 232055Z AUTO 18028G35KT 10SM CLR 28/15 A2938 RMK A01=
