SAUS70 KWBC 231922
METAR
KBJI 231915Z AUTO 11013G18KT 10SM CLR 21/11 A2950 RMK AO2
     T02110112=
KCDD 231915Z AUTO 12004KT 10SM CLR 22/09 A2966 RMK AO2=
KOWX 231915Z AUTO 17011G17KT 10SM SCT060 25/06 A3010 RMK AO1=
K0CO 231915Z AUTO 27021G30KT 3SM HZ SCT001 BKN020 OVC036 M04/M08
     A2960 RMK AO2=
K2R9 231915Z AUTO 14014G21KT 10SM SCT044 SCT050 31/18 A2984 RMK
     AO2=
K2V5 231915Z AUTO 22020G30KT 10SM CLR 27/M05 A2923 RMK AO2=
K5SM 231915Z AUTO 1/4SM SN OVC002 M04/M05 A2964 RMK AO2=
K7BM 231915Z AUTO 22013G18KT 190V270 10SM SCT031 BKN042 OVC060
     01/M03 A2957 RMK AO2=
KASL 231915Z AUTO 00000KT 10SM SCT060 29/14 A2988 RMK AO2
     T02870137 TSNO $=
KBPG 231915Z AUTO 19016G24KT 10SM CLR 29/12 A2973 RMK AO2
     T02910119=
KCFD 231915Z AUTO 15013G18KT 10SM SCT050 BKN055 29/17 A2988 RMK
     AO2 T02890165=
KELA 231915Z AUTO 18013G23KT 10SM BKN049 OVC060 30/17 A2988 RMK
     AO2 T02970168=
KEMM 231915Z AUTO 28014G25KT 10SM SCT018 BKN024 BKN033 00/M05
     A2969 RMK AO2=
KJDD 231915Z AUTO 17008KT 10SM BKN048 OVC050 28/17 A2986 RMK
     AO2=
KPOY 231915Z AUTO 34025G30KT 10SM SCT022 SCT033 02/M03 A2959 RMK
     AO2=
KRAS 231915Z AUTO 14018G22KT 10SM SCT055 A2987 RMK AO2=
KRWV 231915Z AUTO 17017G24KT 10SM SCT050 SCT065 30/17 A2986 RMK
     AO2 T02970165=
KSAA 231915Z AUTO 27009KT 10SM SCT028 OVC042 00/M02 A2958 RMK
     AO2=
K66R 231915Z AUTO 18012G18KT 10SM BKN045 OVC060 29/17 A2988 RMK
     AO2 T02860173=
KBBD 231915Z AUTO 17017KT 10SM CLR 27/14 A2978 RMK AO2=
KBYY 231915Z AUTO 17014G21KT 10SM BKN060 28/16 A2990 RMK AO2
     T02890168=
KCCU 231915Z AUTO 28008KT 1/4SM -SN OVC001 M02/M05 A2961 RMK
     AO2=
KCOM 231915Z AUTO 16017G25KT 10SM CLR 29/14 A2977 RMK AO2
     T02900137=
KDKR 231915Z AUTO 16015G20KT 10SM BKN060 30/15 A2989 RMK AO2=
KE16 231915Z AUTO 32013G19KT 10SM CLR 18/02 A3000 RMK AO2=
KE41 231915Z AUTO 18014G24KT 10SM CLR 25/15 A2979 RMK AO2
     T02500147=
KECU 231915Z AUTO 16017KT 10SM CLR 23/16 A2988 RMK AO2=
KGCD 231915Z AUTO 31003KT 10SM SCT032 BKN039 OVC046 04/00 A3006
     RMK AO2 T00380001=
KGOP 231915Z AUTO 10SM FEW048 28/15 A2983 RMK AO2=
KGVT 231915Z AUTO 17021G31KT 10SM SCT047 29/16 A2983 RMK AO2 TSNO
     T02890157=
KHII 231915Z AUTO 31013G19KT 10SM CLR 23/M04 A2978 RMK AO2=
KJAS 231915Z AUTO 16007G21KT 100V220 9SM SCT047 SCT070 29/18 A2994
     RMK AO2=
KLAM 231915Z AUTO 24013G19KT 7SM -DZ SCT017 BKN055 OVC065 08/03
     A2973 RMK AO2 T00820032=
KLLN 231915Z AUTO 21020G27KT 10SM CLR 27/09 A2970 RMK AO2=
KMNH 231915Z AUTO 25023G32KT 10SM SCT060 SCT090 SCT110 09/M01
     A2949 RMK AO2=
KAIO 231915Z AUTO 17016G28KT 9SM CLR 27/15 A2942 RMK AO2=
KBBB 231917Z AUTO 15014G30KT 10SM CLR 24/12 A2937 RMK AO2=
KBCK 231915Z AUTO 13007G16KT 10SM SCT047 25/12 A2967 RMK AO2
     T02470122=
KBUU 231915Z AUTO 16009G19KT 10SM CLR 24/13 A2983 RMK AO2
     T02380134 PWINO=
KBVN 231915Z AUTO 19021G28KT 10SM CLR 30/10 A2924 RMK AO2
     T02960098=
KC75 231915Z AUTO 18019G29KT 10SM CLR 25/16 A2979 RMK AO2
     T02450160=
KCFS 231915Z AUTO 17013G18KT 10SM CLR 24/09 A3008 RMK AO2
     T02430094=
KFOA 231915Z AUTO 19018G28KT 10SM SCT049 25/14 A2995 RMK AO2=
KFWC 231915Z AUTO 18019G24KT SCT050 25/12 A2995 RMK AO1 T02500123
     PWINO=
KGDB 231915Z AUTO 11023G31KT 10SM CLR 25/13 A2938 RMK AO2
     T02470130=
KGGP 231915Z AUTO 16016G23KT 10SM SCT050 25/10 A2999 RMK AO2=
KHJH 231915Z AUTO 18023G36KT 10SM CLR 29/11 A2934 RMK AO2
     T02890114=
KI63 231915Z AUTO 16018G27KT 10SM CLR 24/14 A2974 RMK AO2 LTG DSNT
     SW T02400138=
KJOT 231915Z AUTO 18018G25KT 10SM CLR 26/14 A2985 RMK AO2
     T02610139=
