SAUS70 KWBC 232100 RRK
METAR
KACV 232053Z AUTO 31016G23KT 10SM CLR 14/07 A3014 RMK AO2 SLP213
     T01440072 58003=
KADG 232053Z AUTO 19014KT 10SM CLR 23/09 A3007 RMK AO2 SLP181
     T02330089 56013=
KADM 232050Z 16021G29KT 10SM CLR 29/15 A2969=
KAEX 232053Z 17017G23KT 10SM FEW050 BKN075 31/16 A2994 RMK AO2
     SLP141 T03110156 56020=
KAGC 232053Z 10006KT 10SM CLR 22/03 A3017 RMK AO2 SLP220 T02170028
     56013=
KAGS 232053Z 31004KT 10SM CLR 25/07 A3012 RMK AO2 SLP199 T02500072
     56014=
KALI 232053Z AUTO 14020G29KT 10SM BKN050 29/21 A2977 RMK AO2 PK
     WND 15029/2036 SLP077 T02940206 56027=
KALW 232053Z 24009KT 10SM BKN042 OVC049 10/01 A3010 RMK AO2 SLP197
     T01000011 53013 $=
KAMW 232053Z AUTO 14016G26KT 10SM FEW120 27/14 A2948 RMK AO2 PK
     WND 16028/2026 SLP972 T02720144 58021=
KANB 232053Z AUTO 00000KT 10SM CLR 25/05 A3011 RMK AO2 SLP195
     T02500050 56023=
KAPF 232053Z 06009KT 10SM CLR 29/19 A3001 RMK AO2 SLP160 T02940189
     56012 $=
KARA 232053Z 17014G21KT 10SM OVC075 27/14 A3000 RMK AO2 SLP158
     T02670139 56017=
KARB 232053Z 14011G19KT 10SM SCT060 24/10 A3006 RMK AO2 SLP179
     T02390100 56013=
KASD 232053Z AUTO 13011KT 10SM CLR 26/13 A3005 RMK AO2 SLP176
     T02610133 56017=
KASX 232053Z AUTO 15009G21KT 10SM CLR 24/13 A2965 RMK AO2 SLP041
     T02440128 56020=
KATY 232053Z AUTO 14021G33KT 10SM -RA CLR 24/12 A2926 RMK AO2 PK
     WND 15036/2033 SLP900 P0000 60000 T02390117 56021=
KAUS 232053Z 17018G30KT 10SM SCT050 SCT060 BKN200 BKN250 30/18
     A2977 RMK AO2 PK WND 16030/2044 SLP071 T03000178 56033=
KAWM 232053Z AUTO 18015G22KT 10SM FEW055 28/13 A2994 RMK AO2
     SLP135 T02780128 56021=
KAXN 232053Z AUTO 12022G39KT 10SM CLR 23/12 A2940 RMK AO2 PK WND
     12039/2009 SLP951 T02330117 56024=
KBDE 232053Z AUTO 11015G23KT 10SM FEW070 24/11 A2952 RMK AO2
     SLP997 T02440111 56027=
KBFI 232053Z 25005KT 10SM BKN015 BKN024 12/07 A3018 RMK AO2 SLP218
     T01170067 51010=
KBFM 232053Z 18008KT 10SM CLR 24/11 A3009 RMK AO2 SLP190 T02440111
     56020=
KBGM 232053Z 00000KT 10SM CLR 16/09 A3027 RMK AO2 SLP254 T01610089
     55006=
KBHM 232053Z VRB06KT 10SM FEW250 24/05 A3012 RMK AO2 SLP195
     T02440050 56026=
KVGT 232053Z 35016G26KT 10SM CLR 18/M09 A2984 RMK AO2 PK WND
     35032/1954 SLP110 T01831094 50002 $=
KVIH 232053Z AUTO 16018G28KT 10SM CLR 26/14 A2978 RMK AO2 PK WND
     17030/2015 SLP073 T02560144 56010 $=
KVRB 232053Z 01013KT 10SM CLR 27/16 A3006 RMK AO2 SLP177 T02720156
     55010=
KVUO 232053Z AUTO 00000KT 10SM OVC060 14/06 A3019 RMK AO2 SLP224
     T01390056 51007 $=
KWLD 232054Z AUTO 17023G36KT 10SM CLR 28/15 A2956 RMK AO2 PK WND
     18039/2015 SLP994 T02780150 56021=
KWRL 232053Z AUTO 34013G25KT 10SM FEW029 BKN075 04/M01 A2962 RMK
     AO2 PK WND 36028/2026 SLP035 T00441006 53007=
KWVI 232053Z AUTO 21006KT 10SM CLR 19/06 A2996 RMK AO2 SLP145
     T01890056 58016=
KXNA 232053Z 16027G35KT 10SM CLR 27/14 A2975 RMK AO2 PK WND
     17036/2042 SLP058 T02670144 56023=
KXSA 232055Z AUTO 34005KT 10SM -DZ OVC020 15/15 A3016 RMK AO2
     T01480148=
KYIP 232053Z 13011KT 10SM CLR 24/09 A3008 RMK AO2 SLP182 T02390094
     56013=
KZZV 232053Z AUTO 15007KT 10SM CLR 23/08 A3013 RMK AO2 SLP199
     T02330083 56018=
KRHI 232053Z AUTO 15012G22KT 10SM CLR 21/11 A2977 RMK AO2 PK WND
     17027/2021 SLP078 T02110111 56016=
KRHP 232055Z AUTO 24006KT 10SM CLR 24/M03 A3014 RMK AO2
     T02411034=
KRKP 232053Z AUTO 15012G24KT 10SM FEW024 29/22 A2982 RMK AO2 PK
     WND 14026/2013 SLP101 T02940217 56027=
KRKS 232054Z AUTO 27013G21KT 10SM FEW048 OVC060 02/M04 A2964 RMK
     AO2 SLP038 T00221044 51009=
