SAUS70 KWBC 231742
METAR
KUNI 231735Z AUTO 00000KT 10SM CLR 26/07 A3018 RMK AO2
     T02550074=
KVDI 231735Z AUTO 00000KT 10SM CLR 25/11 A3017 RMK AO2=
KVKS 231735Z AUTO 19014KT 10SM FEW045 28/15 A3005 RMK A01=
KVPC 231735Z AUTO 00000KT 10SM CLR 22/02 A3021 RMK AO2=
KVUJ 231735Z AUTO 35004KT 10SM CLR 21/06 A3023 RMK AO2
     T02130056=
KW22 231735Z AUTO VRB03KT 2 1/2SM HZ CLR 24/03 A3022 RMK AO2=
KWDR 231735Z AUTO 00000KT 10SM CLR 21/02 A3022 RMK AO2=
KXBP 231735Z AUTO 20019G28KT 10SM CLR 28/15 A2981 RMK AO2
     T02830146=
KZER 231735Z AUTO 10005KT 10SM OVC031 15/07 A3029 RMK AO2=
KLOT 231735Z AUTO 17016G27KT 10SM CLR 24/14 A2990 RMK AO2=
KLUV 231735Z AUTO 21020G26KT 10SM CLR 28/09 A2976 RMK AO2=
KMLE 231735Z AUTO 17015G24KT 10SM CLR 28/13 A2941 RMK AO2
     T02750128=
KMQB 231735Z AUTO 16018G24KT 10SM SCT120 22/12 A2980 RMK AO2
     T02230121=
KNOW 231735Z AUTO 00000KT 10SM CLR 10/06 A3011 RMK AO2
     T01020058=
KNRN 231735Z AUTO 22021G32KT 10SM CLR 30/07 A2933 RMK AO2=
KOCQ 231735Z AUTO 16011G16KT 10SM CLR 19/12 A2989 RMK AO1
     T01850122=
KORG 231735Z AUTO 16013G18KT 10SM SCT070 31/18 A3002 RMK AO2
     T03050181=
KPPA 231735Z AUTO 22017G25KT 10SM CLR 26/12 A2965 RMK AO2
     T02560118=
KPPQ 231735Z AUTO 17015G21KT 10SM CLR 24/15 A2981 RMK AO2
     T02350150=
KPTT 231735Z AUTO 19028G34KT 10SM CLR 29/10 A2949 RMK AO2
     T02930104=
KRBO 231735Z AUTO 10SM SCT001 SCT035 SCT041 29/20 A2989 RMK AO2
     T02930200=
KRCR 231735Z AUTO 18014KT 10SM CLR 24/13 A3002 RMK AO2=
KRCV 231735Z AUTO 23018G26KT 10SM RA SCT022 BKN032 OVC070 05/02
     A2961 RMK AO2 T00500016=
KRDK 231735Z AUTO 19023G32KT CLR 28/13 A2946 RMK AO2=
KREG 231735Z AUTO 15008KT 10SM SCT041 27/16 A3008 RMK AO2
     T02720159=
KRQO 231735Z AUTO 18022G32KT CLR 25/16 A2971 RMK AO2 PWINO
     T02500164=
KSBO 231735Z AUTO 05004KT 10SM CLR 24/11 A3018 RMK AO2=
KSBS 231735Z AUTO 23003KT 3SM SCT007 OVC023 00/00 A2954 RMK AO1
     T00030003=
KSDA 231735Z AUTO 18023G33KT 10SM CLR 27/13 A2944 RMK AO2=
KSEF 231735Z AUTO 04006KT 10SM SCT041 SCT050 SCT070 28/18 A3009
     RMK AO2=
KSHL 231735Z AUTO 16025G31KT 10SM CLR 24/13 A2938 RMK AO2=
KSJS 231735Z AUTO 00000KT 10SM CLR 23/08 A3020 RMK AO2
     T02250082=
KSLB 231735Z AUTO 17025G34KT 10SM CLR 24/13 A2943 RMK AO2=
KSNL 231735Z AUTO 18023G26KT 10SM CLR 25/14 A2973 RMK AO2
     T02520142=
KT35 231735Z AUTO 19013G22KT 10SM SCT039 SCT045 BKN050 27/17 A2990
     RMK AO2 T02740172=
KTAZ 231735Z AUTO 17017G25KT 10SM CLR 24/14 A2988 RMK AO2
     T02350140=
KTBR 231735Z AUTO 01006KT 7SM CLR 23/10 A3016 RMK AO2
     T02340102=
KTIF 231735Z AUTO 19021G27KT 10SM CLR 24/02 A2920 RMK AO2
     T02410021=
KTIP 231735Z AUTO 18024G29KT 10SM CLR 25/13 A2994 RMK AO2
     T02470127=
KTQK 231735Z AUTO 22032G39KT 3 1/2SM HZ BKN035 BKN042 29/06 A2936
     RMK AO2 T02860061=
KTVI 231735Z AUTO 36004KT 10SM CLR 23/08 A3017 RMK AO2=
K04V 231735Z AUTO 16013G19KT 10SM SCT014 BKN026 BKN047 07/03 A2959
     RMK AO2=
K17J 231735Z AUTO 07008KT 10SM CLR 24/04 A3017 RMK AO2
     T02390037=
K1A6 231735Z AUTO 15004KT 10SM CLR 22/05 A3021 RMK AO2
     T02160046=
K2G9 231735Z AUTO 15006KT 10SM CLR 16/02 A3026 RMK AO2=
K5C1 231735Z AUTO 17013G21KT 10SM BKN035 BKN041 25/15 A2991 RMK
     AO1=
K5R8 231735Z AUTO 16015G20KT 10SM SCT047 SCT060 SCT070 28/15 A3001
     RMK AO2 T02820154=
K6P9 231735Z AUTO 19016G28KT 10SM CLR 26/15 A2981 RMK AO2
     T02630151=
KAFO 231735Z AUTO 32011G15KT 10SM BKN025 OVC032 00/M06 A2971 RMK
     AO2=
KAPS 231736Z AUTO 16012KT 10SM SCT046 27/14 A3010 RMK AO2=
KBHC 231735Z AUTO 05006KT 10SM CLR A3015 RMK AO2=
