SAUS80 KWBC 232006
METAR
KSFY 232003Z AUTO 16019G24KT 10SM CLR 26/13 A2972 RMK AO2=
KROS 232003Z AUTO 12013G19KT 080V140 10SM SCT047 26/14 A2955 RMK
     AO2=
