SAUS70 KWBC 231918 RRC
METAR
KCFE 231915Z AUTO 13018G27KT 10SM CLR 24/13 A2948 RMK AO2=
KD25 231915Z AUTO 16011G19KT 10SM CLR 22/12 A2975 RMK AO2
     T02180122=
KD55 231915Z AUTO 05021G30KT 10SM CLR 12/12 A2947 RMK AO2=
KDRM 231915Z AUTO 14008KT 120V180 10SM CLR 18/10 A3004 RMK AO2
     T01830103=
KDXX 231915Z AUTO 13026G32KT 10SM CLR 25/12 A2934 RMK AO2=
KELO 231915Z AUTO 13013KT 10SM CLR 22/09 A2967 RMK AO2=
KFFM 231915Z AUTO 13022G27KT 10SM CLR 23/12 A2936 RMK AO2=
KGHW 231915Z AUTO 11022G29KT 10SM CLR 23/12 A2942 RMK AO2=
KOZW 231915Z AUTO 15017G20KT 10SM SCT055 24/10 A3007 RMK AO2
     T02400097=
KROX 231915Z AUTO 07019KT 10SM CLR 17/08 A2953 RMK AO2=
K08D 231915Z AUTO 05015G25KT 10SM OVC012 07/06 A2943 RMK AO2=
K2P2 231915Z AUTO 18012G20KT 10SM BKN110 17/12 A2991 RMK AO2
     T01720116=
K4R5 231915Z AUTO 08004KT 10SM CLR 21/12 A2967 RMK AO2
     T02130124=
KACQ 231915Z AUTO 13025G31KT 10SM CLR 23/12 A2952 RMK AO2=
KAQP 231913Z AUTO 17022G28KT 10SM CLR 24/11 A2934 RMK AO2=
KARV 231915Z AUTO 15013G21KT 10SM SCT039 22/12 A2977 RMK AO2
     T02150118=
KCOQ 231915Z AUTO 09012G19KT 10SM CLR 18/09 A2961 RMK AO2 TSNO=
KDVP 231913Z AUTO 14029G34KT 10SM CLR 23/12 A2937 RMK AO2
     T02340122=
KETH 231913Z AUTO 12025G33KT 10SM 23/12 A2933 RMK AO2=
KFBL 231915Z AUTO 13024G30KT 10SM CLR 24/13 A2953 RMK AO2=
KFOZ 231913Z AUTO 12012KT 10SM SCT080 23/11 A2963 RMK AO2=
KHFY 231915Z AUTO 17012G18KT 10SM SCT060 26/12 A3003 RMK AO2
     T02600123=
KIUA 231915Z AUTO 12009KT 10SM CLR 23/06 A3023 RMK AO2
     T02270055=
KLDJ 231915Z AUTO 05007KT 10SM BKN060 OVC120 17/07 A3025 RMK AO2
     T01670074=
KLUM 231915Z AUTO 11017G26KT 10SM SCT045 25/17 A2961 RMK AO2
     T02500174 PWINO=
KMDZ 231915Z AUTO 13015G20KT 10SM CLR 22/13 A2973 RMK AO2
     T02200125 PWINO=
KMRJ 231915Z AUTO 16020KT 10SM CLR 22/10 A2974 RMK AO2=
KORB 231913Z AUTO 14006KT SCT060 22/11 A2961 RMK AO2=
KOWA 231913Z AUTO 15019G26KT 10SM CLR 24/13 A2953 RMK AO2=
KRID 231935Z AUTO 16015G20KT 5SM HZ SCT055 23/12 A3010 RMK AO2=
KRPD 231915Z AUTO 11016G19KT 10SM CLR 23/16 A2964 RMK AO2
     T02300161=
KSDC 231915Z AUTO 17005KT 10SM CLR 22/01 A3024 RMK AO2=
KXVG 231913Z AUTO 12010G20KT 084V144 10SM CLR 22/11 A2953 RMK
     AO2=
KFGN 231915Z AUTO 07006KT 10SM CLR 14/07 A2960 RMK AO2=
KFSE 231915Z AUTO 12009G15KT 10SM CLR 23/10 A2946 RMK AO2=
KGYL 231915Z AUTO 14016G28KT 7SM CLR 24/13 A2946 RMK AO2
     T02400125=
KHCO 231915Z AUTO 07013G19KT 10SM CLR 19/09 A2947 RMK AO2=
KJKJ 231915Z AUTO 12017G23KT 10SM CLR 24/12 A2936 RMK AO2 TSNO=
KJMR 231915Z AUTO 13009G21KT 10SM CLR 23/12 A2958 RMK AO2=
KLDM 231915Z AUTO 16016G20KT 10SM SCT050 BKN055 24/12 A2992 RMK
     AO2 T02390116=
KLNL 231915Z AUTO 15013G20KT 10SM BKN040 22/11 A2981 RMK AO2
     T02200106=
KMGG 231915Z AUTO 13011G19KT 10SM CLR 24/12 A2950 RMK AO2
     T02370115 PWINO=
KMGN 231915Z AUTO 16011G19KT 10SM SCT060 24/11 A2998 RMK AO2
     T02430109=
KMVE 231915Z AUTO 15020G32KT 10SM CLR 24/13 A2936 RMK AO2=
KOVL 231915Z AUTO 14021G30KT 5SM HZ CLR 23/12 A2941 RMK AO2=
KPCZ 231915Z AUTO 12014KT 10SM CLR 24/12 A2978 RMK AO2
     T02400123=
KPWC 231915Z AUTO 12014G20KT 10SM CLR 22/13 A2955 RMK AO2=
KRCX 231915Z AUTO 14017G24KT 10SM CLR 23/15 A2969 RMK AO2
     T02280154=
KRGK 231915Z AUTO 13014G20KT 10SM CLR 24/12 A2954 RMK AO2=
KSAZ 231915Z AUTO 13011G22KT 10SM CLR 24/12 A2947 RMK AO2=
KSGS 231915Z AUTO 14011G23KT 120V180 10SM CLR 24/12 A2952 RMK AO2
     T02400117=
KTEW 231915Z AUTO 16015G19KT 10SM BKN050 24/10 A3005 RMK AO2
     T02400095=
KTWM 231915Z AUTO 07013G18KT 10SM SCT070 19/11 A2966 RMK AO2=
