SAPA31 KWBC 232000 RRA
METAR
PGSN 231957Z 09007KT 10SM SCT030CB 27/24 A2981=
PGUM 232001Z 10005KT 10SM SCT021 BKN026 BKN039 27/24 A2981=
