SAUS70 KWBC 232116
METAR
KDVP 232113Z AUTO 14027G34KT 10SM CLR 25/13 A2933 RMK AO2 LTG DSNT
     SE T02540125=
KFOZ 232113Z AUTO 12010G21KT 10SM CLR 23/12 A2960 RMK AO2=
KORB 232113Z AUTO 12008G17KT 100V160 10SM CLR 23/12 A2957 RMK
     AO2=
KOWA 232113Z AUTO 14019G35KT 10SM CLR 24/13 A2950 RMK AO2=
K08D 232115Z AUTO 04017G26KT 10SM OVC011 06/05 A2944 RMK AO2=
K0E0 232115Z AUTO 25022G32KT 10SM OVC080 18/M03 A2970 RMK AO2
     T01841027 TSNO=
K2J9 232115Z AUTO 00000KT 10SM CLR 27/06 A3012 RMK AO2=
KAQP 232113Z AUTO 18021G31KT 4SM HZ SCT085 25/11 A2931 RMK AO2=
KBEA 232115Z AUTO 15017G23KT 10SM BKN030 BKN034 29/20 A2979 RMK
     AO2 T02910196=
KCQW 232115Z AUTO 00000KT 10SM CLR 23/05 A3013 RMK AO2 PWINO=
KD55 232115Z AUTO 05022G30KT 10SM CLR 13/12 A2944 RMK AO2=
KEHO 232115Z AUTO 00000KT 10SM CLR 22/04 A3015 RMK AO2
     T02230037=
KETH 232113Z AUTO 11026G34KT 10SM 23/12 A2930 RMK AO2=
KJHN 232115Z AUTO 22032G41KT 7SM SCT001 29/M01 A2939 RMK AO2
     T02881014=
KLDJ 232115Z AUTO 06010G17KT 10SM -DZ BKN041 BKN047 OVC090 16/07
     A3023 RMK AO2 T01560074=
KLUM 232115Z AUTO 13021G29KT 10SM SCT050 25/17 A2958 RMK AO2
     T02540172 PWINO=
KMAW 232115Z AUTO 17018G25KT 10SM BKN060 27/12 A2994 RMK AO1=
KMHL 232115Z AUTO 17018G25KT 10SM CLR 27/14 A2964 RMK AO2=
KMRJ 232115Z AUTO 15020G29KT 10SM CLR 22/11 A2971 RMK AO2=
KRAW 232115Z AUTO 17012G17KT 10SM SCT120 28/12 A2968 RMK AO2=
KRCZ 232115Z AUTO 34004KT 10SM CLR 22/06 A3013 RMK AO2
     T02220057=
KRID 232135Z AUTO 18011G17KT 3SM HZ CLR 22/11 A3008 RMK AO2=
KRNV 232115Z AUTO 18017G24KT 10SM CLR A2996 RMK AO2 TSNO=
KRPD 232115Z AUTO 13020G26KT 10SM CLR 24/16 A2961 RMK AO2
     T02350160=
KSDC 232115Z AUTO 11003KT 10SM CLR 19/03 A3023 RMK AO2=
KSNK 232115Z AUTO 18018G23KT 10SM CLR 30/10 A2967 RMK AO2
     T03030102=
KXVG 232113Z AUTO 12011G20KT 094V154 10SM SCT048 22/12 A2949 RMK
     AO2=
K2C8 232115Z AUTO 02010KT 9SM CLR 18/10 A2944 RMK AO2=
KD50 232115Z AUTO 02015G21KT 10SM OVC012 05/03 A2953 RMK AO2=
KETB 232115Z AUTO 13010G15KT 10SM SCT120 20/13 A2981 RMK AO2=
KFRH 232115Z AUTO 17005KT 10SM CLR 23/06 A3002 RMK AO1=
KOIC 232115Z AUTO 00000KT 10SM CLR 17/10 A3029 RMK AO2
     T01700099=
KPBH 232115Z AUTO 15009G16KT 10SM BKN047 BKN050 22/13 A2969 RMK
     AO2 LTG DSNT S T02170127=
KRRL 232115Z AUTO 14011G18KT 10SM OVC044 22/13 A2973 RMK AO2
     T02150127 TSNO=
KUNU 232115Z AUTO 15013KT 10SM SCT120 23/14 A2979 RMK AO2 LTG DSNT
     W T02280135=
KVNW 232115Z AUTO 16010KT 10SM CLR 24/07 A3005 RMK AO2=
KY51 232115Z AUTO 15019G23KT 10SM CLR 22/15 A2965 RMK AO1
     T02190145=
K20U 232115Z AUTO 35012G17KT 9SM OVC007 06/06 A2944 RMK AO2=
K27K 232115Z AUTO 18008KT 10SM CLR 23/05 A3009 RMK AO1=
K54J 232115Z AUTO 00000KT 10SM CLR 26/03 A3010 RMK AO2
     T02580033=
KCKI 232115Z AUTO 34004KT 10SM CLR 23/03 A3012 RMK AO2=
KEDE 232115Z AUTO 35011G17KT 10SM OVC008 17/16 A3010 RMK AO2
     T01700163=
KEYF 232115Z AUTO 10SM CLR 21/05 A3011 RMK AO2 T02150052=
KGGE 232115Z AUTO 33005KT 10SM CLR 22/08 A3011 RMK AO2=
KHAE 232115Z AUTO 16014G21KT 10SM CLR 27/13 A2971 RMK AO2=
KHSP 232115Z AUTO 10005KT 7SM CLR 16/M02 A3025 RMK AO2
     T01601017=
KJFX 232115Z AUTO 00000KT 10SM CLR 25/07 A3008 RMK AO2=
KJSO 232115Z AUTO 19012G17KT 10SM SCT060 28/13 A2988 RMK AO2
     T02790129 TSNO=
KL18 232115Z AUTO 23007G15KT 10SM SCT045 SCT050 20/09 A2985 RMK
     AO2=
KLNL 232115Z AUTO 13010G16KT 10SM BKN040 21/11 A2979 RMK AO2
     T02140110=
KMCX 232135Z AUTO 18011G17KT 10SM CLR 24/09 A2994 RMK AO2
     T02420094=
KOIN 232115Z AUTO 24025G35KT 10SM SCT043 SCT050 31/02 A2929 RMK
     AO1 T03050016=
