SAUS80 KWBC 231702
METAR
K77S 231715Z AUTO 17005KT 10SM SCT040 OVC050 08/08 A3016 RMK
     A01=
KSFY 231702Z AUTO 16016G20KT 10SM CLR 23/13 A2980 RMK AO2=
K77S 231715Z AUTO 17005KT 10SM SCT040 OVC050 08/08 A3016 RMK
     A01=
