SAUS70 KWBC 231920 RRE
METAR
KBCK 231915Z AUTO 13007G16KT 10SM SCT047 25/12 A2967 RMK AO2
     T02470122=
KBGE 231915Z AUTO 10006G16KT 10SM CLR 25/06 A3013 RMK AO2
     T02520057=
KBIE 231915Z AUTO 18021G35KT 10SM CLR 29/13 A2937 RMK AO2
     T02930130=
KBPG 231915Z AUTO 19016G24KT 10SM CLR 29/12 A2973 RMK AO2
     T02910119=
KBVN 231915Z AUTO 19021G28KT 10SM CLR 30/10 A2924 RMK AO2
     T02960098=
KC35 231915Z AUTO 16015G21KT 10SM CLR 23/13 A2973 RMK AO2
     T02330126 PWINO=
KCBK 231915Z AUTO 21023G33KT 10SM CLR A2929 RMK AO2=
KCFD 231915Z AUTO 15013G18KT 10SM SCT050 BKN055 29/17 A2988 RMK
     AO2 T02890165=
KCFS 231915Z AUTO 17013G18KT 10SM CLR 24/09 A3008 RMK AO2
     T02430094=
KCKC 231917Z AUTO 08009KT 10SM CLR 18/11 A2977 RMK AO2=
KCKN 231915Z AUTO 13014G20KT 10SM CLR 25/11 A2942 RMK AO2=
KCQF 231915Z AUTO 12009G14KT 10SM CLR 24/12 A3010 RMK AO2=
KDCM 231915Z AUTO 02009KT 360V070 10SM CLR 22/05 A3017 RMK AO2=
KARM 231915Z AUTO 16017G24KT 10SM BKN048 OVC055 29/16 A2989 RMK
     AO2 T02860159 TSNO=
KAZC 231915Z AUTO 31013G24KT 10SM BKN043 BKN050 BKN095 08/M01
     A2988 RMK AO2=
KBAM 231915Z AUTO 03006KT 10SM SCT030 BKN035 OVC045 03/00 A3003
     RMK AO1=
KCWC 231915Z AUTO 18022G30KT 10SM CLR 31/14 A2968 RMK AO2
     T03050137=
KDNA 231915Z AUTO 26020G26KT 10SM CLR 24/08 A2979 RMK AO2=
KDTA 231915Z AUTO 35010KT 10SM SCT037 SCT047 OVC070 04/M03 A2985
     RMK AO1=
KMNZ 231915Z AUTO 17018G22KT 10SM CLR 29/15 A2981 RMK AO2
     T02890147=
KP08 231915Z AUTO 28012KT 10SM BKN055 22/08 A2978 RMK AO2=
KPKV 231915Z AUTO 16019G24KT 10SM SCT037 SCT049 SCT055 30/19 A2987
     RMK AO2 T03010191=
KPRS 231915Z AUTO 17008KT 10SM CLR 30/10 A2980 RMK AO2
     T03000100=
KPYX 231915Z AUTO 20028G36KT 7SM CLR 28/08 A2951 RMK AO2
     T02830075=
KT89 231915Z AUTO 04006KT 10SM CLR 30/05 A2976 RMK A01=
KUVA 231915Z AUTO 14014G18KT 10SM CLR 27/17 A2983 RMK AO2
     T02720171=
KAVQ 231915Z AUTO 30013G19KT 10SM SCT050 BKN065 24/08 A2980 RMK
     AO2 T02350079=
KAXH 231915Z AUTO 16009G18KT 110V200 10SM SCT060 30/15 A2991 RMK
     AO2 T03040145=
KBDU 231915Z AUTO 23014G19KT 10SM CLR 17/M04 A2932 RMK AO2=
KBKD 231915Z AUTO 19018G26KT 7SM CLR 30/14 A2972 RMK AO2
     T03000140=
KBPC 231915Z AUTO 21024G30KT 10SM CLR 27/08 A2955 RMK AO2=
KC07 231915Z AUTO 28006KT 1/4SM SN OVC001 M03/M03 A2958 RMK AO2
     P0001=
KC83 231915Z AUTO 35017G26KT 10SM CLR 20/M02 A2999 RMK AO2=
KMHV 231920Z AUTO 27017KT 10SM CLR 17/M04 A2988 RMK A01=
KMVH 231915Z AUTO 30024G30KT 3SM HZ CLR 00/M02 A2962 RMK AO2
     PWINO=
KO69 231915Z AUTO 35010G16KT 10SM CLR 19/M02 A3002 RMK A01=
KRTS 231915Z AUTO 02012KT 10SM BKN049 OVC055 05/M08 A3006 RMK
     AO2=
KSEZ 231915Z AUTO 28009G20KT 250V310 10SM 13/02 A2981 RMK AO2=
KSWW 231915Z AUTO 20021G27KT 10SM CLR 29/12 A2975 RMK AO2
     T02930117=
KSZT 231915Z AUTO 02007KT 10SM CLR 09/01 A3000 RMK AO2=
KU68 231915Z AUTO 31024G33KT 10SM BKN075 OVC085 03/00 A2962 RMK
     AO2=
KVCV 231915Z AUTO 35006G12KT 10SM CLR 15/M05 A2993 RMK AO2=
KANW 231915Z AUTO 20018G29KT 10SM CLR 27/00 A2915 RMK AO2
     T02721003=
KBAC 231915Z AUTO 10015G26KT 10SM CLR 21/12 A2933 RMK AO2=
KBNW 231915Z AUTO 17024G31KT 10SM CLR 26/14 A2952 RMK AO2=
KBTN 231915Z AUTO 11016G27KT 10SM CLR 22/11 A2927 RMK AO2=
KCCY 231915Z AUTO 15022G30KT 7SM CLR 23/13 A2956 RMK AO2=
KCSQ 231915Z AUTO 18025G31KT 9SM CLR 26/14 A2949 RMK AO2=
KGWR 231915Z AUTO 12026G32KT 9SM CLR 22/12 A2929 RMK A01=
KMOP 231915Z AUTO 16010G20KT 10SM CLR 24/10 A3002 RMK AO2
     T02380100=
KMUT 231915Z AUTO 16019G29KT 10SM CLR 25/14 A2969 RMK AO2=
