SAUS70 KWBC 232006
METAR
KDLL 232015Z AUTO 15014G22KT 10SM CLR 22/12 A2974 RMK AO2
     T02150117=
KEVM 232001Z AUTO 13011G16KT 10SM SCT065 21/12 A2963 RMK AO2=
KGAF 232015Z AUTO 06013G19KT 8SM CLR 20/09 A2943 RMK AO2=
KEZS 232015Z AUTO 13011G20KT 10SM CLR 23/14 A2980 RMK AO2
     T02300140=
