SAUS70 KWBC 232008
METAR
K1S5 232015Z AUTO 00000KT 10SM CLR 13/02 A3009 RMK AO2
     T01290015=
KCPF 232015Z AUTO 00000KT 10SM CLR 25/04 A3014 RMK AO2=
KEMV 232015Z AUTO 31006KT 10SM BKN010 BKN018 OVC028 15/14 A3016
     RMK AO2 T01500135=
KFFA 232015Z AUTO 34009G18KT 310V020 3SM BR OVC003 16/16 A3003 RMK
     AO2 T01640164=
KMCJ 232015Z AUTO 17024G33KT 10SM FEW060 FEW065 28/14 A2986 RMK
     A01=
KSUW 232015Z AUTO 08012G18KT 10SM CLR 14/10 A2963 RMK AO2
     T01410096=
KTFP 231935Z AUTO 17020G26KT 10SM CLR 30/22 A2982 RMK AO2
     T02980220=
