SAUS70 KWBC 231800 RRO
METAR
KGBG 231755Z AUTO 17017G24KT 10SM CLR 23/15 A2978 RMK AO2
     T02310149 10233 20152=
KGCD 231755Z AUTO 27003KT 10SM BKN039 BKN047 OVC055 03/00 A3005
     RMK AO2 60005 T00270001 10027 20007=
KGCM 231755Z AUTO 17017G21KT 10SM CLR 26/12 A2976 RMK AO2=
KGGP 231755Z AUTO 17014G23KT 10SM SCT049 25/11 A3002 RMK AO2=
KGHG 231755Z AUTO 05006KT 10SM CLR 15/12 A3033 RMK AO2=
KGMJ 231755Z AUTO 19023G30KT 10SM CLR 21/05 A2974 RMK AO2=
KGOP 231755Z AUTO 10SM BKN040 BKN080 27/16 A2987 RMK AO2=
KGVT 231755Z AUTO 19022G33KT 10SM SCT039 28/16 A2987 RMK AO2 TSNO
     T02780156 10285 20207=
KHDE 231755Z AUTO 19017G32KT 10SM CLR 28/09 A2928 RMK AO2
     T02820090 10282 20092=
KHHG 231755Z AUTO 17012G19KT 10SM CLR A3005 RMK AO2=
KHII 231755Z AUTO 33013G20KT 10SM CLR 22/M04 A2978 RMK AO2=
KHMZ 231755Z AUTO 00000KT 10SM CLR 17/04 A3026 RMK AO2 T01740040
     10174 21020=
KHNR 231755Z AUTO 18021G33KT 10SM CLR 26/15 A2943 RMK A01=
KHPT 231755Z AUTO 15017G27KT 10SM CLR 24/12 A2955 RMK AO2=
KI63 231755Z AUTO 16018G25KT 10SM CLR 23/14 A2978 RMK AO2 LTG DSNT
     SW T02340138 10234 20157=
KI74 231755Z AUTO 17007G15KT 10SM BKN049 22/11 A3014 RMK AO2=
KIBM 231755Z AUTO 33019G27KT 10SM CLR 15/00 A2932 RMK AO2
     T01510000 10151 20049=
KICL 231755Z AUTO 19022G36KT 10SM CLR 27/13 A2950 RMK AO2=
KIDP 231755Z AUTO 18024G30KT 10SM SCT120 27/15 A2967 RMK AO2 LTG
     DSNT W AND NW T02680153 10275 20205=
KIKK 231755Z AUTO 18017G23KT 10SM CLR 25/13 A2992 RMK AO2
     T02480130 10248 20152=
KIKV 231755Z AUTO 18016G26KT 10SM CLR 25/14 A2955 RMK AO2=
KJOT 231755Z AUTO 17015G23KT 10SM CLR 25/14 A2988 RMK AO2
     T02510138 10252 20167=
KLAM 231755Z AUTO 20015G34KT 10SM OVC050 11/M01 A2971 RMK AO2
     T01101013 10124 20096=
KLCQ 231755Z AUTO 02004KT 10SM CLR 25/11 A3013 RMK AO2=
KLGC 231755Z AUTO 01005KT 10SM CLR 22/04 A3019 RMK AO2 T02210035
     10230 20025=
KLOM 231755Z AUTO 06008G14KT 10SM SCT044 BKN060 17/11 A3024 RMK
     AO2 T01720109 10172 20114=
KLRJ 231755Z AUTO 16020G30KT 10SM CLR 26/13 A2933 RMK AO2=
KLXN 231755Z AUTO 21024G35KT 7SM CLR 30/03 A2924 RMK AO2 T02950028
     10296 20093=
KMLJ 231755Z AUTO 36005KT 10SM CLR 23/09 A3017 RMK AO2=
KMNH 231755Z AUTO 22029G37KT 10SM CLR 15/M03 A2945 RMK AO2=
KMQS 231755Z AUTO 06006G14KT 10SM CLR 16/11 A3025 RMK AO2=
KOGA 231755Z AUTO 25006G14KT 10SM CLR 25/00 A2921 RMK AO2
     T02541001 10254 20013=
KOGS 231755Z AUTO VRB03KT 10SM CLR 22/04 A3024 RMK AO2=
KOKM 231755Z AUTO 18018G31KT 10SM CLR 25/16 A2975 RMK AO2
     T02510161 10255 20201=
KOKZ 231755Z AUTO 08003KT 10SM CLR 24/09 A3018 RMK AO2 T02380095
     10240 20058=
KOLZ 231755Z AUTO 15023KT 10SM CLR 23/13 A2965 RMK A01=
KONL 231755Z AUTO 16022G27KT 10SM CLR 26/04 A2922 RMK AO2
     T02580040 10259 20102=
KOOA 231755Z AUTO 17024G28KT 10SM CLR 25/18 A2963 RMK AO2
     T02520176 10260 20161=
KOPL 231755Z AUTO 14016G20KT 10SM BKN041 BKN065 28/16 A3004 RMK
     AO2 T02750157 10277 20163=
KOPN 231755Z AUTO 05006KT 10SM CLR 25/03 A3020 RMK AO2=
KOWP 231755Z AUTO 17016G23KT 10SM CLR 27/16 A2974 RMK AO2
     T02740156 10280 20216=
KOWX 231755Z AUTO 17010G16KT 10SM CLR 25/07 A3012 RMK AO1=
KPBX 231755Z AUTO 00000KT 10SM CLR 22/07 A3020 RMK AO2 T02150068
     10215 20092=
KPEA 231755Z AUTO 16015G24KT 10SM CLR 24/14 A2960 RMK AO2
     T02430138 10251 20165=
KPIM 231755Z AUTO 00000KT 10SM CLR 24/04 A3019 RMK AO2 T02390037
     10239 20045=
KPLU 231755Z AUTO 00000KT 10SM -DZ BKN023 10/07 A3015 RMK AO2=
KPMU 231755Z AUTO 19012KT 10SM CLR 27/13 A3005 RMK AO2=
KPNA 231755Z AUTO 30023G31KT 10SM CLR 00/M06 A2959 RMK AO2=
