SAUS70 KWBC 232018 RRL
METAR
KY19 232015Z AUTO 08013KT 10SM CLR 16/09 A2927 RMK AO2=
KY63 232015Z AUTO 13019G29KT 10SM CLR 23/12 A2935 RMK AO2
     T02260121=
KY70 232015Z AUTO 17017G22KT 10SM CLR 24/08 A3000 RMK AO2
     T02360084=
