SAUS70 KWBC 231816 RRA
METAR
K6S2 231815Z AUTO 19004KT 10SM FEW012 11/11 A3020 RMK AO2=
K82C 231815Z AUTO 13014G19KT 10SM CLR 23/13 A2974 RMK AO2
     T02300131=
KAIK 231815Z AUTO 02005KT 10SM CLR 23/09 A3017 RMK AO2
     T02320087=
KANQ 231815Z AUTO 16016KT 10SM CLR 23/11 A3005 RMK AO2=
KC29 231815Z AUTO 16013G20KT 10SM CLR 23/12 A2979 RMK AO1
     T02330123=
KCGC 231815Z AUTO 30006KT 10SM CLR 27/14 A3010 RMK AO2=
KCKI 231815Z AUTO 03005KT 10SM CLR 22/04 A3015 RMK AO2=
KCLW 231815Z AUTO 04004KT 10SM CLR 27/13 A3007 RMK AO2=
KD25 231815Z AUTO 16015G22KT 10SM CLR 21/12 A2978 RMK AO2
     T02070119=
KEDE 231815Z AUTO 33010G15KT 10SM OVC006 16/16 A3009 RMK AO2
     T01630163=
KEYF 231815Z AUTO 32009KT 10SM CLR 23/04 A3012 RMK AO2
     T02270038=
KEZM 231815Z AUTO 00000KT 10SM CLR 24/09 A3016 RMK AO2=
KF70 231815Z AUTO 21006KT 10SM SCT030 17/08 A2989 RMK AO2=
KGGE 231815Z AUTO 35007G14KT 10SM CLR 22/07 A3013 RMK AO2=
KHAE 231815Z AUTO 17015G25KT 10SM CLR 26/13 A2975 RMK AO2=
KHBI 231815Z AUTO 36007KT 10SM CLR 20/04 A3021 RMK AO2
     T02010037=
KHRJ 231815Z AUTO 35012G15KT 7SM CLR 21/03 A3016 RMK AO2
     T02100034=
KHSP 231815Z AUTO 05005KT 7SM CLR 16/00 A3028 RMK AO2
     T01551002=
KHWY 231815Z AUTO 36006KT 10SM BKN031 OVC042 18/10 A3025 RMK AO2
     T01830098=
KINF 231815Z AUTO 07004KT 7SM CLR 27/15 A3010 RMK AO2=
KJFX 231815Z AUTO VRB05KT 10SM CLR 24/07 A3015 RMK AO2=
KJSO 231815Z AUTO 20017G24KT 10SM SCT039 SCT046 BKN050 27/16 A2996
     RMK AO2 T02740156 TSNO=
KL18 231815Z AUTO 15005KT 10SM BKN035 18/09 A2988 RMK AO2
     P0001=
KL35 231815Z AUTO 00000KT 10SM CLR 07/M08 A2993 RMK AO2=
KLBO 231815Z AUTO 17015G23KT 10SM BKN100 BKN120 26/12 A2980 RMK
     AO2=
KLKU 231815Z AUTO 02010G15KT 340V040 5SM HZ OVC022 16/11 A3021 RMK
     AO2 T01610108=
KLNL 231815Z AUTO 14012G20KT 10SM SCT039 22/10 A2983 RMK AO2
     T02150104=
KMBY 231815Z AUTO 18018G22KT 10SM CLR 27/12 A2970 RMK AO2=
KMCX 231835Z AUTO 18015G26KT 10SM CLR 25/11 A2997 RMK AO2
     T02480111=
KMNI 231815Z AUTO 04005KT 10SM CLR 22/07 A3015 RMK AO2=
KMTV 231815Z AUTO 06009KT 4SM HZ CLR 20/02 A3022 RMK AO2
     T02030021=
KOIN 231815Z AUTO 24028G38KT 10SM SCT036 SCT046 SCT055 29/04 A2932
     RMK AO1 T02930042=
KOKV 231815Z AUTO 00000KT 10SM OVC028 16/07 A3023 RMK AO2=
KOMH 231815Z AUTO 01007KT 10SM OVC025 16/10 A3023 RMK AO2=
KONM 231815Z AUTO 19019G25KT 10SM CLR 22/M01 A2972 RMK AO2
     T02161008=
KPCM 231815Z AUTO 05004KT 10SM CLR 30/17 A3010 RMK AO2=
KPCZ 231815Z AUTO 13010G16KT 10SM CLR 23/12 A2981 RMK AO2
     T02310121=
KPSK 231815Z AUTO 00000KT 10SM CLR 19/05 A3021 RMK AO2
     T01880046=
KRCM 231815Z AUTO 17018G26KT 10SM CLR 28/12 A2965 RMK AO2=
KRCX 231815Z AUTO 14009G16KT 10SM CLR 22/16 A2972 RMK AO2
     T02200155=
KRHP 231815Z AUTO 00000KT 10SM CLR 23/M01 A3018 RMK AO2
     T02301012=
KSHD 231815Z AUTO 05004KT 10SM CLR 16/06 A3025 RMK AO2
     T01600062=
KSRR 231815Z AUTO 25035G60KT 10SM 16/02 A2978 RMK AO2=
KTVY 231815Z AUTO 31014G18KT 10SM SCT036 SCT044 OVC050 02/00 A2982
     RMK AO2=
KVDF 231815Z AUTO 08004KT 10SM CLR 29/17 A3009 RMK AO2=
KVGC 231815Z AUTO 16004KT 10SM CLR 17/04 A3029 RMK AO2=
KX60 231815Z AUTO 31007KT 10SM CLR 27/12 A3011 RMK AO2
     T02730122=
KXSA 231815Z AUTO 33004KT 10SM OVC007 14/14 A3018 RMK AO2
     T01420142=
K10G 231815Z AUTO 16007KT 109V179 10SM CLR 23/06 A3018 RMK AO2=
