SAUS70 KWBC 231900 RRO
METAR
KELO 231855Z AUTO 13014G20KT 10SM CLR 21/09 A2968 RMK AO2=
KEMT 231850Z 21003KT 10SM SCT040 20/09 A2987=
KEYF 231855Z AUTO 34008KT 10SM CLR 23/05 A3011 RMK AO2
     T02260047=
KFBL 231855Z AUTO 12018G29KT 10SM CLR 24/13 A2953 RMK AO2=
KFFM 231855Z AUTO 12016G27KT 10SM CLR 23/12 A2937 RMK AO2=
KFSE 231855Z AUTO 12011KT 10SM CLR 23/10 A2947 RMK AO2=
KGGE 231855Z AUTO 36006KT 10SM CLR 23/07 A3013 RMK AO2=
KGHW 231855Z AUTO 11024G30KT 10SM CLR 23/12 A2942 RMK AO2=
KGYL 231855Z AUTO 13020G31KT 7SM CLR 24/13 A2948 RMK AO2
     T02360125=
KHAE 231855Z AUTO 15013G24KT 10SM CLR 26/13 A2973 RMK AO2=
KHAF 231855Z AUTO 33014KT 6SM HZ CLR 15/08 A3003 RMK AO2=
KHCO 231855Z AUTO 08013G17KT 10SM CLR 18/09 A2948 RMK AO2=
KHSP 231855Z AUTO 05004KT 4SM HZ CLR 16/M02 A3028 RMK AO2
     T01611018=
KI69 231855Z AUTO 17007G17KT 140V200 10SM CLR 24/09 A3013 RMK AO2
     T02440085=
KISO 231856Z 35007KT 10SM OVC018 19/14 A3011=
KJKJ 231855Z AUTO 12014G19KT 10SM CLR 24/12 A2937 RMK AO2 TSNO=
KJMR 231855Z AUTO 11011G17KT 10SM CLR 23/12 A2959 RMK AO2=
KL18 231855Z AUTO 18005KT 10SM SCT038 19/09 A2988 RMK AO2
     P0001=
KLDM 231855Z AUTO 15012G18KT 130V190 10SM SCT055 24/12 A2992 RMK
     AO2 T02410117=
KLJF 231855Z AUTO 14019G28KT 10SM CLR 24/11 A2944 RMK AO2=
KLNL 231855Z AUTO 15012G20KT 10SM SCT040 21/11 A2981 RMK AO2
     T02140105=
KMGG 231855Z AUTO 13014G19KT 10SM CLR 24/12 A2950 RMK AO2
     T02360115 PWINO=
KMGN 231855Z AUTO 19007G15KT 10SM SCT060 23/11 A2999 RMK AO2
     T02400112=
KMQJ 231855Z AUTO RMK AO1=
KMVE 231855Z AUTO 15020G30KT 10SM CLR 23/13 A2937 RMK AO2=
KOIN 231855Z AUTO 23027G37KT 7SM SCT038 BKN047 30/04 A2931 RMK AO1
     T02960040=
KORB 231855Z AUTO 13006G14KT 10SM CLR 23/11 A2961 RMK AO2=
KOVL 231855Z AUTO 14023G28KT 4SM HZ CLR 23/12 A2942 RMK AO2=
KOZW 231855Z AUTO 17012G23KT 10SM SCT060 24/10 A3008 RMK AO2
     T02380096=
KPCZ 231855Z AUTO 12017KT 10SM CLR 24/12 A2979 RMK AO2
     T02360121=
KPSK 231855Z AUTO 08004KT 10SM CLR 19/04 A3020 RMK AO2
     T01910043=
KRCM 231855Z AUTO 17021G28KT 10SM CLR 28/12 A2963 RMK AO2=
KRGK 231855Z AUTO 13014KT 10SM CLR 23/12 A2956 RMK AO2=
KRHP 231855Z AUTO 28003KT 10SM CLR 24/00 A3016 RMK AO2
     T02380000=
KROX 231855Z AUTO 07020KT 10SM CLR 16/08 A2954 RMK AO2=
KSAZ 231855Z AUTO 11015G21KT 10SM CLR 24/12 A2947 RMK AO2=
KSGS 231855Z AUTO 13015G21KT 10SM CLR 24/12 A2954 RMK AO2
     T02380117=
KSHD 231855Z AUTO 02005KT 10SM OVC033 18/06 A3024 RMK AO2
     T01810057=
KSLH 231855Z AUTO 16006G15KT 10SM CLR 23/11 A2999 RMK AO2=
KSRR 231855Z AUTO 25041G55KT 10SM 17/01 A2975 RMK AO2=
KTEW 231855Z AUTO 16013G21KT 10SM SCT050 25/09 A3006 RMK AO2
     T02470092=
KTWM 231855Z AUTO 05013G19KT 10SM BKN070 18/10 A2967 RMK AO2=
KUKT 231855Z AUTO 08008G14KT 10SM CLR 18/10 A3025 RMK A01=
KVDF 231855Z AUTO 10SM CLR 30/17 A3007 RMK AO2=
KVVV 231855Z 13022G28KT 10SM 22/13 A2933 RMK AO2=
KY63 231855Z AUTO 12019G27KT 10SM CLR 22/12 A2939 RMK AO2
     T02200120=
