SAUS70 KWBC 231740 RRB
METAR
KCNB 231735Z AUTO 10024G28KT 10SM CLR 22/12 A2938 RMK AO2
     T02210116=
KD57 231735Z AUTO 06012KT 10SM CLR 10/03 A2934 RMK AO2=
KDTL 231735Z AUTO 14013G19KT 10SM CLR 20/10 A2948 RMK AO2=
KEKM 231735Z AUTO 18015G24KT 8SM CLR 24/13 A3002 RMK AO2
     T02360133=
KHZE 231735Z AUTO 06015G23KT 10SM CLR 11/05 A2939 RMK AO2=
KIDI 231735Z AUTO 14006KT 10SM CLR 20/02 A3027 RMK A01=
KLWA 231735Z AUTO 14010G20KT 110V170 10SM CLR 24/12 A2997 RMK AO2
     T02390121=
KMCD 231735Z AUTO 15008G15KT 10SM CLR 20/11 A3003 RMK AO2
     T02040113=
KOEB 231735Z AUTO 18009G17KT 10SM CLR 23/11 A3007 RMK AO2
     T02250109=
KONZ 231735Z AUTO 20003KT 10SM CLR 17/06 A3014 RMK AO2
     T01680064=
KRYV 231735Z AUTO 16010KT 10SM CLR 22/11 A2984 RMK AO2
     T02200113=
KS32 231735Z AUTO 08016G22KT 10SM CLR 15/06 A2944 RMK AO2 TSNO=
KSPF 231735Z AUTO 30017G22KT 10SM SCT020 08/03 A2935 RMK AO2=
KTTF 231735Z AUTO 16011G15KT 10SM CLR 23/10 A3012 RMK AO2
     T02320101=
KULM 231735Z AUTO 14018G26KT 10SM CLR 22/11 A2947 RMK AO2=
KVWU 231735Z AUTO 12012KT 10SM CLR 22/11 A2958 RMK AO2=
KY70 231735Z AUTO 17010G15KT 10SM CLR 22/10 A3004 RMK AO2
     T02170104=
K21D 231735Z AUTO 15015G20KT 10SM CLR 22/12 A2961 RMK AO2=
KAMN 231735Z AUTO 15013G19KT 10SM BKN060 23/09 A3006 RMK AO2
     T02340088=
KBDH 231735Z AUTO 13019G27KT 10SM CLR 23/12 A2949 RMK AO2=
KCBG 231735Z AUTO 11010G18KT 10SM CLR 23/12 A2959 RMK AO2=
KCFE 231735Z AUTO 14013G20KT 10SM CLR 23/12 A2954 RMK AO2=
KDLZ 231735Z AUTO 17006KT 10SM CLR 20/10 A3017 RMK AO2=
KDXX 231735Z AUTO 13021G29KT 10SM CLR 23/12 A2939 RMK AO2=
KDYT 231735Z AUTO 06011KT 10SM OVC075 12/10 A2969 RMK AO2=
KELO 231735Z AUTO 12013KT 10SM CLR 19/09 A2970 RMK AO2=
KFSE 231735Z AUTO 13012KT 10SM CLR 21/09 A2951 RMK AO2=
KGYL 231735Z AUTO 13016G24KT 7SM CLR 22/12 A2952 RMK AO2
     T02210121=
KLJF 231735Z AUTO 13019G24KT 10SM CLR 22/11 A2950 RMK AO2=
KMGG 231735Z AUTO 12009G16KT 10SM CLR 22/11 A2955 RMK AO2
     T02190112 PWINO=
KMVE 231735Z AUTO 14022G27KT 10SM CLR 22/13 A2940 RMK AO2=
KRGK 231735Z AUTO 13012G16KT 10SM CLR 22/12 A2960 RMK AO2=
KRZT 231735Z AUTO 16004KT 10SM CLR 23/07 A3017 RMK AO2 PWINO=
KS24 231735Z AUTO 15009G15KT 120V180 10SM CLR 24/10 A3013 RMK
     AO2=
KTEW 231735Z AUTO 15012KT 10SM CLR 24/11 A3008 RMK AO2
     T02400105=
KTWM 231735Z AUTO 08009KT 10SM BKN090 18/10 A2970 RMK AO2=
KVVV 231735Z 14021G27KT 10SM 21/13 A2937 RMK AO2=
K0CO 231735Z AUTO 30005KT M1/4SM -SN OVC001 M05/M05 A2962 RMK
     AO2=
K13K 231735Z AUTO 18024G31KT 10SM SCT120 26/15 A2963 RMK AO2
     T02550146=
K18A 231735Z AUTO 11004KT 10SM CLR 22/02 A3021 RMK AO2
     T02240023=
K1F0 231735Z AUTO 17020G25KT 10SM CLR 26/17 A2979 RMK AO2
     T02630166=
K1H2 231735Z AUTO 14017G24KT 10SM BKN038 24/14 A2997 RMK AO2
     T02350144=
K2J3 231735Z AUTO 04003KT 10SM CLR 24/11 A3018 RMK AO2
     T02350110=
K2R9 231735Z AUTO 18014G20KT 10SM SCT044 29/18 A2989 RMK AO2=
K2V5 231735Z AUTO 22021G34KT 10SM CLR 26/M05 A2924 RMK AO2=
K3F3 231735Z AUTO 17011KT 10SM BKN050 29/15 A3002 RMK AO2
     T02850151=
K4A9 231735Z AUTO 25004KT 10SM CLR 22/03 A3019 RMK AO2
     T02200030=
K57C 231735Z AUTO 14009G15KT 10SM CLR 22/12 A2986 RMK AO2
     T02190124=
K5M9 231735Z AUTO 20010G20KT 160V230 10SM CLR 25/10 A3004 RMK AO2
     T02530098=
K7BM 231735Z AUTO 30007G16KT 260V350 3/4SM SN OVC004 00/M01 A2959
     RMK AO2=
K81R 231735Z AUTO 18015G26KT 10SM SCT035 27/16 A2986 RMK AO2
     T02660161=
K9A5 231735Z AUTO 00000KT 10SM CLR 22/03 A3021 RMK AO2
     T02150033=
KAAA 231735Z AUTO 17017G27KT 10SM SCT120 23/15 A2986 RMK AO2
     T02340146=
