SACA42 KWBC 231800
METAR
TIST 231753Z VRB06KT 10SM SCT030 30/24 A2989=
TJBQ 231750Z 06010KT 10SM CLR 30/24 A2991=
TJMZ NIL=
TJPS NIL=
TJSJ 231756Z 06010KT 10SM FEW034 SCT050 SCT085 31/24 A2990=
