SAUS70 KWBC 231800 RRQ
METAR
KSUX 231752Z 16022G28KT 10SM CLR 27/13 A2934 RMK AO2 PK WND
     17030/1732 SLP930 T02670133 10267 20133 58021=
KAIA 231753Z AUTO 32017G23KT 10SM CLR 14/03 A2927 RMK AO2 PK WND
     34026/1728 SLP891 T01440028 10156 20000 51013=
KAOO 231753Z AUTO 07004KT 10SM CLR 17/03 A3027 RMK AO2 SLP253
     T01720033 10189 20000 58014=
KAQP 231753Z AUTO 16021G30KT 10SM CLR 23/11 A2937 RMK AO2=
KAUG 231753Z AUTO 10003KT 10SM CLR 18/08 A3036 RMK AO2 SLP283
     T01780083 10178 20067 58012=
KAZO 231753Z 17013G21KT 10SM CLR 24/12 A3002 RMK AO2 SLP162
     T02440122 10244 20139 58018 $=
KBFD 231753Z AUTO 18006KT 10SM CLR 20/01 A3026 RMK AO2 SLP244
     T02000011 10200 20011 58010=
KLDJ 231755Z AUTO 04005KT 10SM SCT120 16/09 A3026 RMK AO2
     T01600092 10160 20135=
KLUM 231755Z AUTO 13015G22KT 10SM CLR 24/17 A2965 RMK AO2
     T02360171 10236 20122 PWINO=
KOMA 231752Z 17020G32KT 10SM BKN170 BKN200 28/13 A2940 RMK AO2 PK
     WND 18038/1729 SLP947 T02780133 10278 20167 56013=
KRPD 231755Z AUTO 12013G16KT 10SM CLR 21/16 A2969 RMK AO2
     T02140155 10214 20130=
KSPW 231753Z AUTO 16025G34KT 10SM CLR 25/12 A2943 RMK AO2 PK WND
     14035/1737 SLP958 T02500117 10250 20150 58023=
KACT 231751Z 19019G29KT 10SM BKN046 29/17 A2986 RMK AO2 PK WND
     19037/1726 SLP105 T02890167 10289 20206 58009 $=
KAFW 231753Z 18023G36KT 10SM FEW034 SCT250 28/16 A2979 RMK AO2 PK
     WND 19036/1747 SLP074 T02830161 10283 20200 58007=
KALI 231753Z AUTO 15014G21KT 10SM SCT044 30/20 A2985 RMK AO2 PK
     WND 15028/1723 SLP105 T03000200 10300 20178 58014=
KAMA 231753Z 22018G27KT 10SM CLR 23/11 A2965 RMK AO2 PK WND
     23036/1700 SLP990 T02280111 10250 20167 58013=
KAPA 231753Z 23017G32KT 10SM FEW035 FEW050 BKN090 BKN200 17/M01
     A2936 RMK AO2 PK WND 22033/1741 SLP885 SHSN OMTNS DSNT SW-NW
     T01671006 10172 20144 50008=
KASE 231753Z 36006KT 1SM -SN BR FEW005 OVC015 01/M01 A2957 RMK AO2
     SLP943 P0003 60035 T00061006 10044 20000 50000=
KBEA 231755Z AUTO 15016G23KT 10SM BKN046 BKN050 31/16 A2986 RMK
     AO2 T03050157 10305 20185=
KBGD 231751Z AUTO 19015G35KT 10SM CLR 28/10 A2961 RMK AO2 PK WND
     19035/1743 SLP982 T02780100 10289 20206 58010=
KBJC 231753Z 28018G21KT 10SM BKN120 BKN200 17/M02 A2934=
KLKV 231753Z AUTO 03006KT 10SM FEW028 OVC055 04/M03 A3007 RMK AO2
     SLP205 T00391033 10044 21072 51019=
KMWH 231752Z 34006KT 10SM CLR 11/M02 A3004 RMK AO2 SLP178
     T01061017 10106 20011 51021=
KSNK 231755Z AUTO 18018G23KT 10SM CLR 27/12 A2976 RMK AO2
     T02660118=
KTPL 231751Z AUTO 17020G28KT 10SM FEW032 BKN041 OVC047 27/17 A2987
     RMK AO2 PK WND 19029/1740 SLP105 T02720172 10278 20194
     58009=
K10G 231755Z AUTO 17004KT 10SM CLR 22/06 A3020 RMK AO2=
K4R5 231755Z AUTO 10004KT 10SM BKN110 21/12 A2971 RMK AO2
     T02060122=
KARV 231755Z AUTO 16012G20KT 10SM CLR 20/12 A2979 RMK AO2
     T02030117 10203 20116=
KERI 231751Z 34006KT 10SM CLR 20/09 A3020 RMK AO2 SLP225 T02000094
     10228 20122 58007=
KEWR 231751Z 03008KT 10SM -RA FEW045 SCT075 BKN110 OVC150 17/09
     A3026 RMK AO2 SLP247 P0001 60001 T01670094 10167 20133
     57006=
KHFY 231755Z AUTO 16012G20KT 150V210 10SM SCT050 25/13 A3006 RMK
     AO2 T02500128 10251 20146=
KILG 231751Z 04015KT 10SM -RA FEW046 BKN100 OVC120 17/12 A3022 RMK
     AO2 RAB02E22B41 SLP233 P0000 60000 T01720117 10178 20128
     58010=
KIUA 231755Z AUTO 15005KT 10SM CLR 23/07 A3024 RMK AO2 T02270072
     10227 20038=
KJFK 231751Z 02009KT 10SM FEW047 BKN065 OVC120 15/11 A3027 RMK AO2
     RAE46 SLP250 P0001 60001 T01500106 10161 20144 55006=
