SAUS70 KWBC 232138 RRG
METAR
KCXP 232135Z AUTO VRB04G11KT 10SM OVC060 08/M08 A3006 RMK AO2=
KCXU 232135Z AUTO 00000KT 10SM CLR 26/04 A3011 RMK AO1
     T02550038=
KCXW 232135Z AUTO 19015G21KT 7SM CLR 28/14 A2986 RMK A01=
KCZL 232135Z AUTO 22003KT 10SM CLR 24/03 A3014 RMK AO2=
KHFJ 232135Z AUTO 17022G30KT 10SM CLR 27/12 A2972 RMK AO2=
KHHF 232135Z AUTO 17019G26KT 10SM CLR 26/12 A2951 RMK AO2
     T02580116=
KHLB 232135Z AUTO 16011KT 10SM CLR 23/08 A3005 RMK A01=
KHLX 232135Z AUTO 06005KT 10SM CLR 19/M16 A3019 RMK AO2
     T01851162=
KHOE 232135Z AUTO 04004KT 10SM CLR 26/11 A3011 RMK AO2
     T02620109=
KHQG 232135Z AUTO 22031G42KT 5SM HZ BKN001 OVC006 29/02 A2942 RMK
     AO2 T02880022=
KHRX 232135Z AUTO 20019G27KT 10SM CLR 25/09 A2961 RMK AO2
     T02480091=
KHSB 232135Z AUTO 19014G19KT 10SM CLR 27/14 A2994 RMK AO2
     T02650139=
KHSD 232135Z AUTO 18019G30KT 10SM CLR 28/15 A2962 RMK A01=
KHYW 232135Z AUTO 00000KT 10SM CLR 22/07 A3011 RMK AO2=
KHZD 232135Z AUTO 18012KT 10SM CLR 26/06 A3000 RMK A01=
KI35 232135Z AUTO 00000KT 10SM CLR 22/02 A3014 RMK AO2
     T02210024=
KI67 232135Z AUTO 17007KT 10SM CLR 25/07 A3005 RMK AO1=
KI68 232135Z AUTO 18008G17KT 10SM CLR 24/08 A3008 RMK AO1
     T02410080=
KIER 232135Z AUTO 17013G16KT 10SM SCT060 SCT070 29/16 A2992 RMK
     AO2 T02940160=
KIFA 232135Z AUTO 12014G22KT 10SM SCT120 24/15 A2953 RMK AO2
     T02370150=
KIGQ 232135Z AUTO 17021G29KT 10SM CLR 25/12 A2988 RMK AO2
     T02500121=
KINJ 232135Z AUTO 17020G26KT 10SM BKN050 31/16 A2977 RMK AO2
     T03090157=
KIOB 232135Z AUTO 19005KT 10SM CLR 24/03 A3012 RMK AO2 PWINO=
KJAU 232135Z AUTO VRB03KT 10SM CLR 23/01 A3017 RMK A01=
KJPX 232135Z AUTO 03007KT 7SM DZ SCT015 OVC028 13/13 A3025 RMK AO2
     P0004 T01310131=
KJTC 232135Z AUTO 24022G36KT 10SM CLR 14/M01 A2982 RMK AO2=
KJWG 232135Z AUTO 17021G31KT 10SM CLR 27/14 A2961 RMK AO2=
KJWY 232135Z AUTO 17021G25KT 10SM SCT050 30/16 A2977 RMK AO2
     T02950159=
KJYL 232135Z AUTO 00000KT 10SM CLR 26/10 A3013 RMK AO2
     T02550097=
KK70 232135Z AUTO 05009KT 10SM CLR 28/21 A3000 RMK AO2=
KLCG 232135Z AUTO 19025G33KT 10SM CLR 31/10 A2925 RMK AO2
     T03070103=
KLNA 232135Z AUTO 36013G18KT 10SM CLR 27/20 A3004 RMK AO2
     T02730200 PNO=
KLNC 232135Z AUTO 16015G26KT 10SM SCT055 29/15 A2977 RMK AO2
     T02930149=
KLNP 232135Z AUTO 12003KT 10SM CLR 20/03 A3020 RMK AO2=
KLNQ 232135Z AUTO 08008KT 10SM CLR 27/16 A3007 RMK AO2
     T02710162=
KT89 232135Z AUTO 19015G20KT 10SM CLR 31/05 A2970 RMK A01=
KTDF 232135Z AUTO 36004KT 10SM CLR 18/05 A3017 RMK AO2=
KTHA 232135Z AUTO 19008KT 10SM CLR 23/05 A3009 RMK A01=
KTNU 232135Z AUTO 15023G30KT 9SM CLR 27/14 A2952 RMK A01=
KTQH 232135Z AUTO 16017G23KT 10SM CLR 28/11 A2975 RMK AO2=
KTQV 232135Z AUTO 02008KT 10SM CLR 20/04 A3013 RMK A01=
KTYL 232135Z AUTO 24017G26KT 10SM BKN060 15/00 A2981 RMK AO2=
KU68 232135Z AUTO 31024G31KT 10SM OVC090 03/M01 A2967 RMK AO2=
KUCY 232135Z AUTO 18014KT 10SM CLR 26/11 A2996 RMK A01=
KUSE 232135Z AUTO 16011G17KT 10SM CLR 24/09 A3005 RMK AO2=
KUVA 232135Z AUTO 14012KT 10SM CLR 28/17 A2980 RMK AO2
     T02780166=
KUXL 232135Z AUTO 14017G20KT 10SM SCT065 OVC075 26/19 A2997 RMK
     AO2 T02620187=
KVCV 232135Z AUTO 32011KT 10SM CLR 17/M07 A2990 RMK AO2=
KXLL 232135Z AUTO 05004KT 10SM CLR 16/10 A3024 RMK AO2=
PAAD 232135Z AUTO 11013KT 10SM OVC007 M05/M06 A3002 RMK AO2
     T10531061=
PAUT 232135Z AUTO 21019G26KT 10SM BKN011 OVC044 07/05 A3017 RMK
     AO2=
KLUG 232135Z AUTO 18012KT 10SM CLR 24/06 A3007 RMK A01=
KLUX 232135Z AUTO 00000KT 10SM CLR 22/05 A3015 RMK AO2=
