SAUS70 KWBC 231900 RRR
METAR
KMIE 231853Z 18014G22KT 10SM SCT055 25/09 A3004 RMK AO2 SLP164
     T02500089=
KMIW 231853Z AUTO 16019G32KT 10SM CLR 24/13 A2956 RMK AO2 PK WND
     16034/1754 SLP005 T02390133=
KMPO 231853Z AUTO 07007KT 10SM BKN045 BKN100 15/09 A3028 RMK AO2
     SLP260 T01500089=
KMRB 231853Z 01005KT 10SM FEW029 OVC039 18/08 A3023 RMK AO2 SLP237
     T01780078 $=
KRYM 231855Z AUTO 14021KT 10SM CLR 24/13 A2947 RMK AO2 SLP980
     T02360126 $=
KXIF 231855Z AUTO 36004KT 9SM OVC040 16/10 A3022 RMK AO2 SLP239
     T01630104 $=
KBYS 231855Z AUTO 36013KT 10SM CLR 17/M11 A2985 RMK AO2 SLP094
     T01651111=
KHFF 231855Z AUTO 03009KT 10SM CLR 23/07 A3013 RMK AO2 SLP205
     T02250067 $=
K2DP 231855Z AUTO 35013G16KT 10SM OVC007 18/15 A3002 RMK AO2
     RAE03DZB03E07RAB07E34 SLPNO P0000 T01820147 $=
K1P1 231855Z AUTO 00000KT 10SM CLR 18/05 A3034 RMK AO2
     T01750048=
K2P2 231855Z AUTO 18008G17KT 10SM BKN110 17/12 A2992 RMK AO2
     T01710116=
K82C 231855Z AUTO 13011G23KT 090V150 10SM CLR 23/13 A2972 RMK AO2
     T02320131=
KACK 231853Z 02015KT 3SM -RA BR SCT028 OVC036 15/14 A3025 RMK AO2
     SLP242 P0012 T01500139=
KADG 231853Z AUTO 19014KT 10SM BKN060 24/10 A3009 RMK AO2 PK WND
     16026/1832 SLP190 T02390100=
KAIA 231853Z AUTO 31024G34KT 10SM CLR 16/03 A2929 RMK AO2 PK WND
     30034/1850 SLP900 T01610033=
KANQ 231855Z AUTO 18017G25KT 10SM CLR 23/10 A3004 RMK AO2=
KAOO 231853Z AUTO 09005KT 10SM FEW031 19/04 A3025 RMK AO2 SLP246
     T01890044=
KD25 231855Z AUTO 15015G19KT 10SM CLR 22/12 A2976 RMK AO2
     T02160121=
KDFI 231853Z AUTO 19012G24KT 10SM CLR 24/09 A3007 RMK AO2 PK WND
     17026/1827 SLP181 T02440094=
KMGG 231855Z AUTO 13014G19KT 10SM CLR 24/12 A2950 RMK AO2
     T02360115 PWINO=
KMQJ 231855Z AUTO RMK AO1=
KMVE 231855Z AUTO 15020G30KT 10SM CLR 23/13 A2937 RMK AO2=
KOVL 231855Z AUTO 14023G28KT 4SM HZ CLR 23/12 A2942 RMK AO2=
KOZW 231855Z AUTO 17012G23KT 10SM SCT060 24/10 A3008 RMK AO2
     T02380096=
KPCZ 231855Z AUTO 12017KT 10SM CLR 24/12 A2979 RMK AO2
     T02360121=
KRGK 231855Z AUTO 13014KT 10SM CLR 23/12 A2956 RMK AO2=
KSAZ 231855Z AUTO 11015G21KT 10SM CLR 24/12 A2947 RMK AO2=
KSGS 231855Z AUTO 13015G21KT 10SM CLR 24/12 A2954 RMK AO2
     T02380117=
PAMK 231856Z AUTO 17014KT 10SM FEW055 OVC075 01/M01 A2991 RMK AO2
     SLP129 T00111011 FZRANO=
PANA 231856Z AUTO 15009KT 10SM BKN033 OVC055 M01/M01 A2999 RMK AO2
     SLP154 T10061011 FZRANO TSNO $=
PANV 231856Z AUTO 14006KT 1/2SM FZFG OVC001 M03/M03 A2998 RMK AO2
     SLP257 T10281033 FZRANO TSNO=
PANW 231856Z AUTO 36004KT 10SM CLR M01/M03 A3010 RMK AO2 SLP202
     T10111033 FZRANO=
PAOH 231856Z AUTO 07012G19KT 040V110 6SM RA BR BKN014 OVC020 04/02
     A2949 RMK AO2 SLP985 T00390022=
PAOO 231856Z AUTO 16008KT FEW020 BKN029 OVC035 03/03 A2990 RMK AO2
     SLP130 T00280028 PWINO TSNO $=
PAPG 231856Z 13008G15KT 080V150 10SM -RA BKN032 OVC042 05/02 A2947
     RMK AO2 SLP983 P0004 T00500022=
PAPH 231856Z AUTO 29007KT 10SM FEW019 SCT023 BKN028 05/03 A3017
     RMK AO2 RAB19E32 SLP216 P0000 T00500028=
PAPM 231856Z AUTO 18012KT 10SM OVC036 05/02 A3005 RMK AO2 RAB09E21
     SLP177 P0000 T00500022=
PAQH 231856Z AUTO 12010KT 10SM SCT026 BKN031 00/M01 A3002 RMK AO2
     SLP164 T00001006 FZRANO=
PARC 231856Z AUTO 00000KT 5SM -SN BR SCT034 BKN041 OVC050 M12/M14
     A2990 RMK AO2 SLP197 P0000 T11221144 FZRANO=
PARS 231856Z AUTO 15004KT 2 1/2SM BR OVC003 A3000 RMK AO2 VIS 1
     1/2V4 SNB1758E41 SLPNO P0000 FZRANO $=
PARY 231856Z AUTO 11003KT 3SM -SN BR BKN024 OVC029 M03/M04 A3001
     RMK AO2 SLP177 P0000 T10281039 FZRANO=
