SAUS70 KWBC 231656
METAR
K4I3 231642Z AUTO 17003KT 10SM CLR 22/11 A3020 RMK AO2=
KDCY 231635Z AUTO 18013G20KT 10SM CLR 24/12 A3005 RMK AO2
     T02400117=
KEBS 231635Z AUTO 15026G34KT 10SM CLR 22/14 A2952 RMK AO2=
KEVM 231641Z AUTO 15008KT 10SM CLR 19/10 A2970 RMK AO2=
KJVY 231635Z AUTO 24014G18KT 10SM CLR 24/10 A3012 RMK AO2
     PWINO=
KMPZ 231630Z AUTO 17015G22KT 10SM CLR 24/17 A2974 RMK AO2=
KUYF 231635Z AUTO 22006KT 10SM CLR 21/07 A3018 RMK AO2=
KW99 231642Z AUTO 00000KT 10SM CLR 16/05 A3030 RMK AO2=
K6S8 231640Z AUTO 26015G22KT 10SM 04/M00 A2962 RMK A01 LAUREL=
KDUB 231638Z AUTO 31017G22KT 10SM OVC120 00/M08 A2956 RMK AO2=
KOSA 231635Z AUTO 17018G23KT 10SM BKN030 OVC037 26/18 A2993 RMK
     AO2 T02550180=
KTFP 231615Z AUTO 18014G22KT 10SM CLR 29/21 A2991 RMK AO2
     T02930212=
KMCX 231715Z AUTO 17011G17KT 140V200 10SM OVC070 23/12 A3001 RMK
     AO2 T02290116=
KRID 231715Z AUTO 19011G14KT 10SM CLR 22/12 A3015 RMK AO2=
