SAUS70 KWBC 231800 RRH
METAR
PASI 231753Z 08014G23KT 10SM SCT075 08/00 A2927=
KBAC 231755Z AUTO 10019G25KT 9SM CLR 16/09 A2940 RMK AO2=
KBCB 231755Z AUTO 00000KT 10SM CLR 19/04 A3025 RMK AO2 T01930042
     10194 20009=
KBKS 231755Z AUTO 15020KT 10SM SCT045 31/20 A2984 RMK AO2 SLP064
     T03110197 $=
KBKT 231755Z AUTO 01006KT 10SM OVC021 17/10 A3018 RMK AO1
     T01710100 10174 20086=
KBRG 231755Z AUTO 22029G40KT 10SM CLR 21/M04 A2974 RMK AO2
     T02051036 10205 20128=
KBRY 231755Z AUTO 20010G16KT 170V230 10SM CLR 24/08 A3010 RMK AO2
     T02440079=
KBVU 231755Z AUTO 30012G21KT 10SM CLR 17/M12 A2985 RMK AO2=
KBWP 231755Z AUTO 13020KT 10SM CLR 23/12 A2936 RMK AO2=
KBWW 231755Z AUTO 03015KT 10SM OVC013 07/05 A2933 RMK AO2=
KBXK 231755Z AUTO 25010KT 10SM FEW050 SCT075 23/09 A2979 RMK
     A01=
KCDN 231755Z AUTO 30006G12KT 10SM CLR 23/06 A3017 RMK AO2=
KCEU 231754Z AUTO 09003KT 10SM CLR 22/03 A3020 RMK AO2 SLP220
     60000 T02220028 10222 20089 58017=
KCEY 231755Z AUTO 14016KT 10SM CLR 25/11 A3005 RMK A01=
KCFJ 231755Z AUTO 16020G24KT 10SM CLR 24/07 A3000 RMK AO2
     T02350070 10237 20140=
KCJR 231755Z AUTO 36008KT 10SM OVC024 18/09 A3023 RMK AO2
     T01810089 10185 20056=
KCKM 231755Z AUTO 17013G20KT 10SM CLR 27/15 A3004 RMK A01=
KCKZ 231755Z AUTO 06010KT 10SM CLR 17/10 A3026 RMK AO2=
KCLS 231755Z AUTO 00000KT 10SM BKN005 07/06 A3016 RMK AO2=
KCMR 231755Z AUTO 27014KT 10SM SCT040 SCT047 SCT060 05/M01 A2985
     RMK AO2=
KCPT 231755Z AUTO 17023G32KT 10SM FEW038 27/16 A2983 RMK A01=
KCTZ 231755Z AUTO 34006KT 10SM CLR 22/11 A3013 RMK AO2 T02180107
     10221 20111=
KCXE 231755Z AUTO 36008KT 10SM CLR 18/09 A3019 RMK AO1 T01840090
     10184 20075=
KD57 231755Z AUTO 06016KT 10SM CLR 11/03 A2932 RMK AO2=
KD60 231755Z AUTO 06019G26KT 10SM OVC008 04/05 A2949 RMK AO2=
KDNA 231755Z AUTO 25018G29KT 10SM CLR 24/07 A2982 RMK AO2=
KDNN 231755Z AUTO 18005KT 10SM CLR 22/03 A3020 RMK AO2
     T02200029=
KDRI 231755Z AUTO 17013KT 9SM SCT045 SCT055 28/17 A3001 RMK AO2
     T02800169 $=
KDSV 231754Z AUTO 00000KT 10SM CLR 22/04 A3023 RMK AO2 SLP244
     T02220044 10228 20050 58019=
KDYB 231755Z AUTO 33009KT 6SM HZ CLR 23/11 A3015 RMK AO2=
KEKM 231755Z AUTO 17016G23KT 130V200 8SM CLR 24/14 A3001 RMK AO2
     T02410136=
KELK 231755Z AUTO 19021G29KT 9SM CLR 24/12 A2966 RMK AO2 PK WND
     19029/1750 SLP335 T02420118 $=
KX07 231755Z AUTO 02004KT 10SM SCT046 BKN055 27/17 A3009 RMK
     A01=
KXNX 231755Z AUTO 19008KT 150V220 10SM CLR 26/07 A3015 RMK A01=
KY19 231755Z AUTO 07014G20KT 10SM CLR 12/06 A2932 RMK AO2=
KEUG 231754Z 21004KT 10SM FEW035 12/08 A3019 RMK AO2 SLP223
     T01170078 10117 20033 53020 $=
KEVU 231755Z AUTO 18017G29KT 10SM CLR 26/15 A2951 RMK AO2
     T02680153=
KEWN 231754Z 33010G17KT 10SM OVC016 18/14 A3009 RMK AO2 SLP188
     T01780139 10178 20144 55015=
KEXX 231755Z AUTO 34003KT 10SM CLR 21/06 A3019 RMK AO2 T02070057
     10212 20029=
KEZF 231755Z AUTO 35007KT 10SM SCT029 OVC036 16/12 A3019 RMK AO2
     T01570122 10157 20071=
KFIG 231754Z AUTO VRB03KT 10SM CLR 19/04 A3026 RMK AO2 SLP250
     T01890044 10194 20006 58014=
KFVX 231755Z AUTO 02006KT 10SM OVC025 19/10 A3018 RMK AO2
     T01870099 10196 20074=
KFWB 231755Z AUTO 16013G19KT 120V200 10SM CLR 27/14 A2983 RMK
     AO2=
KGLY 231755Z AUTO 19015G21KT 10SM CLR 29/15 A2968 RMK AO2=
KGWR 231755Z AUTO 10018G24KT 10SM CLR 19/12 A2935 RMK A01=
KHVS 231755Z AUTO 01006KT 10SM CLR 22/07 A3017 RMK AO2=
KHWD 231754Z VRB04KT 10SM CLR 16/03 A3001 RMK AO2 SLP171 T01610033
     10161 20072 50014=
KHZE 231755Z AUTO 05013G24KT 10SM CLR 11/05 A2938 RMK AO2=
