SAUS70 KWBC 232118 RRI
METAR
KMOR 232115Z AUTO 00000KT 10SM CLR 23/05 A3013 RMK A01=
KMRC 232110Z AUTO 19007G14KT 10SM CLR 25/05 A3004 RMK A01=
KMUT 232115Z AUTO 16019G27KT 10SM CLR 25/15 A2967 RMK AO2=
KMVH 232115Z AUTO 30022G29KT 3/4SM BR M01/M02 A2966 RMK AO2
     PWINO=
KO69 232115Z AUTO 36009G15KT 10SM CLR 20/M05 A2999 RMK A01=
KOEL 232115Z AUTO 24027G39KT 10SM CLR 30/M09 A2928 RMK AO1
     T02981089=
KOJA 232115Z AUTO 17023G29KT 10SM CLR 27/14 A2961 RMK AO2
     T02680143=
KOLG 232115Z AUTO 13008G17KT 10SM BKN048 23/11 A2961 RMK AO1=
KOXI 232115Z AUTO 17016G24KT 10SM CLR 25/10 A2993 RMK AO1=
KOXV 232115Z AUTO 17025G30KT 10SM FEW140 28/13 A2951 RMK AO2=
KP08 232115Z AUTO 27008KT 10SM BKN060 OVC070 23/08 A2976 RMK
     AO2=
KPCW 232115Z AUTO 19011KT 10SM CLR 22/08 A3008 RMK AO2=
KPHT 232115Z AUTO 20012G17KT 10SM CLR 26/05 A3000 RMK A01=
KPKV 232115Z AUTO 16017G23KT 10SM BKN036 BKN043 OVC060 29/20 A2985
     RMK AO2 T02870199=
KPRO 232115Z AUTO 16021G27KT 10SM CLR 29/13 A2945 RMK AO2
     T02860130=
KPRS 232115Z AUTO 21007G14KT 10SM CLR 32/11 A2974 RMK AO2
     T03180107=
KGZS 232115Z AUTO 19009G14KT 10SM CLR 25/06 A3007 RMK A01=
KH71 232115Z AUTO 16018G27KT 10SM CLR 29/15 A2968 RMK AO2=
KHFJ 232115Z AUTO 18021G29KT 10SM CLR 28/12 A2971 RMK AO2=
KHHF 232115Z AUTO 18019G27KT 10SM CLR 26/12 A2952 RMK AO2
     T02600115=
KHLB 232115Z AUTO 16010G16KT 10SM CLR 23/08 A3006 RMK A01=
KHLX 232115Z AUTO 04003KT 10SM CLR 19/M11 A3019 RMK AO2
     T01931108=
KHOE 232115Z AUTO 03004KT 10SM CLR 26/10 A3011 RMK AO2
     T02650108=
KHQG 232115Z AUTO 22031G40KT 10SM OVC001 29/03 A2942 RMK AO2
     T02890026=
KHRX 232115Z AUTO 20024G33KT 10SM CLR 25/09 A2960 RMK AO2
     T02500091=
KHSB 232115Z AUTO 19017G22KT 10SM CLR 26/14 A2995 RMK AO2
     T02640144=
KHSD 232115Z AUTO 17020G26KT 10SM CLR 27/15 A2962 RMK A01=
KHYW 232115Z AUTO 33004KT 10SM CLR 22/06 A3011 RMK AO2=
KHZD 232115Z AUTO 17013G18KT 10SM CLR 26/06 A3001 RMK A01=
KI35 232115Z AUTO 00000KT 10SM CLR 22/03 A3015 RMK AO2
     T02230031=
KI67 232115Z AUTO 19008G14KT 10SM CLR 25/07 A3006 RMK AO1=
KI68 232115Z AUTO 18009KT 10SM CLR 25/09 A3008 RMK AO1
     T02450085=
KIER 232115Z AUTO 17010KT 10SM SCT060 SCT070 29/16 A2992 RMK AO2
     T02850155=
KIFA 232115Z AUTO 13018G26KT 10SM BKN120 25/15 A2953 RMK AO2
     T02470148=
KIGQ 232115Z AUTO 17019G26KT 10SM CLR 26/13 A2987 RMK AO2
     T02550126=
KINJ 232115Z AUTO 17018G28KT 10SM SCT050 31/16 A2977 RMK AO2
     T03060160=
KIOB 232115Z AUTO 15007KT 10SM CLR 25/03 A3012 RMK AO2 PWINO=
KJPX 232115Z AUTO 04004KT 10SM -RA SCT015 OVC028 13/13 A3025 RMK
     AO2 T01320130=
KJTC 232115Z AUTO 25026G36KT 10SM CLR 14/01 A2980 RMK AO2=
KJWG 232115Z AUTO 17021G31KT 10SM CLR 27/15 A2962 RMK AO2
     T02660147=
KJWY 232115Z AUTO 16019G28KT 10SM SCT050 29/16 A2977 RMK AO2
     T02910158=
KJYL 232115Z AUTO 00000KT 10SM CLR 26/10 A3013 RMK AO2
     T02550095=
KK70 232115Z AUTO 05008G15KT 10SM CLR 28/21 A3000 RMK AO2=
KLCG 232115Z AUTO 18022G34KT 10SM SCT085 31/11 A2924 RMK AO2
     T03110105=
KLNA 232115Z AUTO 02013KT 10SM CLR 28/20 A3004 RMK AO2 T02750200
     PNO=
KLNC 232115Z AUTO 17022G29KT 10SM SCT055 29/15 A2978 RMK AO2
     T02880147=
KLNP 232115Z AUTO 09004KT 10SM CLR 20/03 A3020 RMK AO2=
KLNQ 232115Z AUTO 08005KT 10SM CLR 27/16 A3007 RMK AO2
     T02680159=
KLUG 232115Z AUTO 21008G17KT 8SM CLR 24/06 A3006 RMK A01=
KLUX 232115Z AUTO 00000KT 10SM CLR 23/05 A3015 RMK AO2=
PAAD 232115Z AUTO 10015G19KT 10SM OVC007 M05/M06 A3002 RMK AO2
     T10551061=
PAUT 232115Z AUTO 22022G30KT 10SM -RA BKN044 OVC049 07/05 A3019
     RMK AO2=
