SAUS70 KWBC 231900 RRE
METAR
KPYM 231852Z AUTO 04008KT 10SM FEW070 SCT090 BKN110 14/13 A3030
     RMK AO2 RAB07E38 SLP262 P0001 T01440128=
KTAN 231852Z AUTO A3029 RMK AO2 SLPNO PWINO FZRANO TSNO $=
KXVG 231853Z AUTO 09011G16KT 074V134 10SM CLR 22/11 A2954 RMK
     AO2=
KAVX 231851Z AUTO 04006KT 10SM CLR 17/11 A2989 RMK AO2 SLP112
     T01720111=
KBGD 231851Z AUTO 18017G37KT 10SM CLR 27/11 A2959 RMK AO2 PK WND
     19039/1818 SLP976 T02670106=
KBHK 231851Z AUTO 33010KT 10SM OVC014 07/04 A2941 RMK AO2 SLP964
     T00670039=
KJAQ 231855Z AUTO 32007KT 10SM CLR 14/M02 A2996 RMK AO1
     T01411023=
KJCT 231851Z AUTO 20011G23KT 10SM CLR 28/16 A2981 RMK AO2 PK WND
     16028/1834 SLP059 T02830156 $=
KLHX 231853Z AUTO 23022G43KT 10SM SCT120 26/M03 A2937 RMK AO2 PK
     WND 22043/1808 SLP885 T02561028 $=
KPHX 231851Z 27010KT 10SM SCT050 BKN080 BKN110 23/08 A2976 RMK AO2
     SLP061 T02280078 $=
KSMO 231851Z 34005KT 10SM CLR 23/M02 A2986 RMK AO2 SLP109
     T02331017=
KTWF 231853Z 28022G34KT 10SM FEW027 05/M02 A2988 RMK AO2 PK WND
     30034/1848 SLP112 T00501017=
KVNY 231851Z 35012G20KT 10SM CLR 22/M02 A2985 RMK AO2 SLP102
     T02221017 $=
KAFN 231852Z AUTO 00000KT 10SM CLR 15/07 A3033 RMK AO2 SLP280
     T01500072=
KAQW 231852Z AUTO 11007KT 10SM CLR 18/03 A3030 RMK AO2 SLP263
     T01780033=
KARR 231852Z 17016G30KT 10SM FEW045 24/13 A2983 RMK AO2 PK WND
     15033/1833 SLP098 T02440133=
KBLF 231852Z AUTO 04008KT 10SM CLR 19/M01 A3022 RMK AO2 SLP213
     T01891006=
KBML 231852Z AUTO 00000KT 10SM CLR 20/06 A3033 RMK AO2 SLP278
     T02000061=
KCPS 231853Z 18013G31KT 10SM FEW034 24/15 A2984 RMK AO2 PK WND
     17031/1845 SLP102 T02390150 $=
KDVN 231852Z AUTO 15015G25KT 10SM CLR 26/13 A2973 RMK AO2 PK WND
     16028/1834 SLP061 T02560133=
KFIT 231852Z AUTO 08003KT 10SM CLR 15/06 A3033 RMK AO2 SLP274
     T01500056=
KFOZ 231853Z AUTO 13009G14KT 10SM CLR 23/11 A2964 RMK AO2=
KHIE 231852Z AUTO 00000KT 10SM CLR 18/07 A3033 RMK AO2 SLP276
     T01830072=
KIEN 231852Z AUTO 31012G21KT 10SM CLR 12/02 A2928 RMK AO2 SLP908
     T01170017=
KMLI 231852Z 15017G29KT 10SM CLR 26/14 A2972 RMK AO2 PK WND
     15029/1852 SLP059 T02560139=
KMSS 231853Z AUTO 02006KT 10SM CLR 21/05 A3028 RMK AO2 SLP254
     T02110050=
KOWA 231853Z AUTO 13018G28KT 10SM CLR 24/13 A2953 RMK AO2=
KRAP 231852Z 34028G44KT 10SM CLR 11/03 A2924 RMK AO2 PK WND
     34046/1801 SLP901 T01110033 $=
KBYI 231853Z AUTO 28016G28KT 10SM CLR 06/M01 A2985 RMK AO2 PK WND
     29028/1813 SLP109 T00611011=
KGLS 231852Z 16010KT 10SM FEW044 SCT060 28/21 A2995 RMK AO2 SLP142
     T02830206=
KHRL 231852Z 16024G32KT 10SM CLR 33/18 A2981 RMK AO2 PK WND
     16032/1803 SLP095 T03280178 $=
KITR 231853Z AUTO 23038G52KT 2 1/2SM HZ BKN030 OVC038 26/M04 A2932
     RMK AO2 PK WND 23055/1812 SLP871 T02611044 $=
KCLM 231853Z AUTO VRB03KT 10SM CLR 11/06 A3013 RMK AO2 SLP205
     T01110056=
KCLW 231855Z AUTO 08003KT 10SM CLR 27/14 A3006 RMK AO2 PWINO=
KCMI 231853Z 16027G41KT 10SM CLR 26/13 A2991 RMK AO2 PK WND
     16041/1850 SLP123 T02610133=
KCNM 231853Z AUTO 24015G28KT 10SM CLR 29/08 A2968 RMK AO2 PK WND
     23028/1848 SLP995 T02940083=
KCNO 231853Z VRB03KT 10SM BKN040 21/11 A2987 RMK AO2 SLP111
     T02060106=
KCOT 231853Z AUTO 15016G24KT 8SM CLR 31/18 A2980 RMK AO2 SLP084
     T03060178=
KCPR 231853Z 27003KT 8SM FEW011 FEW017 OVC041 03/02 A2951 RMK AO2
     RAE08B20E30 SLP977 P0000 T00280017=
KCRE 231853Z 33010KT 10SM CLR 22/04 A3010 RMK AO1 SLP192
     T02220044=
KCRG 231853Z 04008KT 10SM SCT025 BKN032 25/18 A3012 RMK AO2 SLP198
     T02500178=
