SAUS80 KWBC 232044
METAR
K9V9 232035Z AUTO 16007KT 10SM CLR 27/04 A2913 RMK AO2
     T02740041=
KCBE 232035Z AUTO 22004KT 10SM SCT033 19/05 A3027 RMK AO2
     T01870053=
K4BM 232035Z AUTO 16014G22KT 10SM BKN010 BKN022 OVC036 00/M02
     A2961 RMK AO2 LTG DSNT S=
KGIC 232035Z AUTO 05006KT 10SM BKN018 OVC037 03/00 A3004 RMK
     AO1=
KIZA 232035Z AUTO 04011KT 10SM CLR 23/M06 A2986 RMK AO2=
KPSN 232035Z AUTO 16015G22KT 140V200 10SM BKN065 30/13 A2984 RMK
     AO2=
KSOA 232035Z AUTO 17019KT 10SM 26/13 A2982 RMK AO2=
KCUL 232033Z AUTO 15015G21KT 10SM CLR 28/09 A2995 RMK AO2=
KDVK 232030Z AUTO 19006KT 10SM CLR 23/03 A3011 RMK AO2=
KNY0 232034Z AUTO 00000KT 10SM CLR 16/06 A3030 RMK AO2=
KRFI 232035Z AUTO 16013G19KT 10SM BKN060 30/08 A2987 RMK AO2
     T03040079=
