SAUS70 KWBC 231900 RRN
METAR
KTIF 231855Z AUTO 20017G28KT 10SM CLR 27/02 A2919 RMK AO2
     T02650015=
KTIP 231855Z AUTO 18027G33KT 10SM CLR 26/13 A2991 RMK AO2
     T02550131=
KTMK 231855Z AUTO 00000KT 10SM SCT017 SCT022 BKN033 12/07 A3019
     RMK AO2=
KTQK 231855Z AUTO 22036G43KT 2SM HZ OVC029 29/01 A2934 RMK AO2
     T02940011=
KTVI 231855Z AUTO 34004KT 10SM CLR 24/08 A3014 RMK AO2=
KUKL 231855Z AUTO 17022G28KT 10SM -RA SCT120 A2959 RMK AO2 LTG
     DSNT E AND NW=
KUNI 231855Z AUTO 00000KT 3SM HZ CLR 25/07 A3015 RMK AO2
     T02520065=
KVDI 231855Z AUTO 11004KT 10SM CLR 26/10 A3014 RMK AO2=
KVES 231855Z AUTO 17009G18KT 150V210 10SM SCT055 23/06 A3009 RMK
     AO2=
KVKS 231855Z AUTO 17014KT 10SM CLR 29/14 A3001 RMK A01=
KVPC 231855Z AUTO 00000KT 10SM CLR 22/03 A3017 RMK AO2=
KVUJ 231855Z AUTO 07004KT 10SM CLR 23/05 A3021 RMK AO2
     T02250052=
KW22 231855Z AUTO 00000KT 1 3/4SM HZ CLR 24/02 A3020 RMK AO2=
KWDR 231855Z AUTO 00000KT 10SM CLR 22/01 A3019 RMK AO2=
KUMP 231855Z AUTO 17013G20KT 10SM SCT055 25/12 A3002 RMK AO2
     T02510124=
KC75 231855Z AUTO 18017G29KT 10SM CLR 24/16 A2980 RMK AO2
     T02440160=
KCMY 231858Z AUTO 14016G22KT 8SM CLR 24/13 A2969 RMK AO2 SLP053
     T02430129 $=
KDNS 231855Z AUTO RMK AO2 PNO PWINO=
KFFL 231855Z AUTO 15019G27KT 10SM CLR 24/13 A2965 RMK A01=
KHDE 231855Z AUTO 21018G31KT 10SM CLR 29/08 A2925 RMK AO2
     T02870075=
KHNR 231855Z AUTO 18025G34KT 9SM CLR 28/15 A2941 RMK A01=
KHPN 231856Z 04008KT 360V070 10SM -RA FEW070 BKN120 16/07 A3026
     RMK AO2 SLP246 P0000 T01560072 $=
KIBM 231855Z AUTO 33021G27KT 10SM CLR 15/00 A2934 RMK AO2
     T01481003=
KICL 231855Z AUTO 18020G29KT 10SM CLR 29/14 A2947 RMK AO2=
KIKK 231855Z AUTO 18019G28KT 10SM CLR 25/12 A2990 RMK AO2
     T02520121=
KISP 231856Z 05013KT 10SM BKN050 OVC170 15/11 A3025 RMK AO2 SLP242
     T01500106=
KJYR 231855Z AUTO 20024G37KT 8SM CLR 30/11 A2929 RMK AO2=
KLOT 231855Z AUTO 18023G30KT 10SM CLR 26/14 A2987 RMK AO2=
KMGC 231855Z AUTO 19011G22KT 10SM CLR 25/12 A2993 RMK AO2=
KMQS 231855Z AUTO 06006G21KT 10SM SCT044 16/11 A3024 RMK AO2=
KN03 231855Z AUTO 12004KT 10SM CLR 18/05 A3028 RMK AO2=
KOGA 231855Z AUTO 32018G25KT 10SM CLR 23/M03 A2923 RMK AO2
     T02311030=
KOGS 231855Z AUTO VRB03KT 10SM CLR 22/04 A3023 RMK AO2=
KOLE 231855Z AUTO 20005KT 10SM CLR 18/01 A3025 RMK AO2=
KOLZ 231855Z AUTO 15024G30KT 10SM CLR 24/13 A2962 RMK A01=
KONL 231855Z AUTO 18024G30KT 10SM CLR 28/04 A2920 RMK AO2
     T02810039=
KOOA 231855Z AUTO 16021G25KT 10SM CLR 25/18 A2962 RMK AO2
     T02520180=
KOQN 231855Z AUTO 05008KT 10SM BKN039 BKN046 BKN120 17/11 A3023
     RMK AO2=
KOWX 231855Z AUTO 19012G20KT 10SM CLR 26/06 A3011 RMK AO1=
KPEA 231855Z AUTO 15016G23KT 10SM CLR 26/14 A2957 RMK AO2
     T02570141=
K33V 231855Z AUTO 36010KT 10SM OVC034 01/M02 A2954 RMK AO1=
K74V 231855Z AUTO 15004KT 10SM 03/01 A2970 RMK AO2=
KAJZ 231855Z AUTO 05003KT 10SM BKN021 BKN028 OVC050 08/03 A2963
     RMK AO2 LTG DSNT NW T00800030=
KAQO 231855Z AUTO 19017G27KT 9SM CLR 30/14 A2980 RMK AO2=
KASL 231855Z AUTO 00000KT 10SM SCT055 30/14 A2990 RMK AO2
     T02960141 TSNO $=
KBBD 231855Z AUTO 17019G25KT 10SM CLR 27/14 A2979 RMK AO2=
KBYY 231855Z AUTO 17018G24KT 10SM SCT060 28/16 A2991 RMK AO2
     T02920168=
KCOM 231855Z AUTO 19021G25KT 10SM CLR 29/14 A2977 RMK AO2
     T02870138=
KDKR 231855Z AUTO 16012G20KT 10SM OVC060 28/15 A2990 RMK AO2=
KDVO 231855Z AUTO 36008G15KT 10SM CLR 21/M01 A3001 RMK AO2=
KE11 231855Z AUTO 20018G25KT 10SM CLR 29/10 A2974 RMK AO2
     T02870098=
KE16 231855Z AUTO 33011G19KT 10SM CLR 17/03 A3000 RMK AO2=
