SASA31 KWBC 231800
METAR
SEGU 231800Z 20007KT 9999 BKN023 OVC100 27/19 Q1011 NOSIG RMK
     A2986=
SEQM NIL=
SEQU NIL=
SKBO 231800Z 24007KT 9999 SCT018 BKN080 17/13 Q1025 NOSIG RMK
     A3028=
SKBQ 231800Z VRB02KT 9999 FEW015 SCT100 28/24 Q1010 NOSIG RMK
     A2984=
SKCG 231800Z 22005KT 160V260 9999 SCT017 BKN100 29/24 Q1010 RMK
     A2983=
SKCL 231800Z 31006KT 9999 SCT020TCU SCT300 29/19 Q1013 NOSIG RMK
     TCU S/SW A2993=
SKLT 231800Z VRB02KT 9999 SCT013 BKN080 28/24 Q1011 RMK A2987=
SKRG 231800Z 10009KT 9999 VCSH BKN017TCU 21/13 Q1024 NOSIG RMK
     TCU/SE/NW VCSH/NE A3024=
SKSP 231800Z 07011KT 9999 FEW018 31/25 Q1011 RMK A2987=
SMNI NIL=
SMZO NIL=
SMZY NIL=
SOCA 231800Z AUTO 08011KT 050V110 CAVOK 32/23 Q1009 TEMPO 3000
     SHRA BKN015CB=
SPJC 231800Z 18008KT 130V210 9999 BKN014 18/12 Q1015 NOSIG RMK
     PP000=
SPQT 231800Z 12006KT 070V160 9999 BKN015 BKN100 28/26 Q1011 NOSIG
     RMK PP000=
SPQU 231800Z 26009KT 220V310 CAVOK 20/M11 Q1027 NOSIG RMK
     PP000=
SPSO 231800Z 30008KT CAVOK 20/14 Q1014 RMK BIRD HAZARD RWY 22/04
     PP000=
SPTN 231800Z VRB04KT CAVOK 21/11 Q1016 RMK PP000=
SPYL 231800Z 19014KT CAVOK 23/15 Q1012 RMK BIRD HAZARD RWY 17/35
     PP000=
SPZO 231800Z VRB03KT 9999 SCT050 24/01 Q1027 NOSIG RMK BIRD HAZARD
     RWY 10/28=
SVBC NIL=
SVMC NIL=
SVMG NIL=
SVMI 231800Z 09006KT 9999 BKN016 31/25 Q1012 REDZ=
SYCJ 231800Z 05004KT 9999 FEW022CB SCT023 32/26 Q1008 NOSIG RMK CB
     S-WNW=
SYTM NIL=
