SAUS80 KWBC 231900 RRC
METAR
K2WX 231856Z AUTO 33016G25KT 08/03 A2931 RMK AO1 SLP932
     T00780033=
K2WX 231856Z AUTO 33016G25KT 08/03 A2931 RMK AO1 SLP932
     T00780033=
K8D3 231856Z AUTO 14027G36KT 23/12 A2931 RMK AO1 PK WND 14036/1850
     SLP920 T02330117=
KD07 231856Z AUTO 34011KT 12/04 A2925 RMK AO1 SLP912 T01170039=
KP53 231856Z AUTO 18017G32KT 20/12 A2990 RMK AO1 PK WND 19032/1856
     SLP124 T02000117=
KCAO 231855Z AUTO 21035G51KT 10SM FEW100 24/01 A2953 RMK AO2 PK
     WND 22053/1758 SLP933 T02390011=
KCQC 231853Z AUTO 24031G44KT 10SM BKN065 BKN080 BKN095 16/01 A2973
     RMK AO2 PK WND 23045/1818 SLP987 T01610006=
KGIC 231855Z AUTO 29003KT 10SM SCT018 BKN025 OVC033 03/00 A3001
     RMK AO1=
KPSN 231855Z AUTO 16014G20KT 10SM SCT050 BKN060 29/16 A2987 RMK
     AO2=
KDVK 231850Z AUTO 20005KT 10SM CLR 23/05 A3014 RMK AO2=
KNY0 231857Z AUTO 00000KT 10SM CLR 15/06 A3030 RMK AO2=
