SAUS70 KWBC 231718 RRK
METAR
KSAR 231715Z AUTO 19019G30KT 10SM BKN029 23/15 A2994 RMK AO2
     T02280146=
KSCD 231715Z AUTO 10006KT 10SM SCT110 24/05 A3021 RMK AO2
     T02350052=
KSCX 231715Z AUTO 20005G12KT 10SM CLR 21/03 A3020 RMK A01=
KSEM 231715Z AUTO 16007KT 10SM CLR 25/04 A3018 RMK AO2=
KSEZ 231715Z AUTO 17014G19KT 10SM 15/07 A2981 RMK AO2=
KSFQ 231715Z AUTO 33004KT 2 1/2SM BR OVC005 15/15 A3015 RMK AO2
     T01500150=
KSIF 231715Z AUTO 07003KT 10SM CLR 20/05 A3021 RMK AO2
     T02010054=
KSLO 231715Z AUTO 17012G17KT 10SM OVC032 24/14 A2995 RMK AO2
     T02380142=
KSNH 231710Z AUTO 17011G19KT 10SM CLR 23/10 A3012 RMK A01=
KSRB 231715Z AUTO 22008KT 10SM CLR 23/06 A3018 RMK A01=
KSRE 231715Z AUTO 10SM CLR 24/16 A2976 RMK AO2=
KSVC 231715Z AUTO 26011G24KT 10SM SCT046 SCT050 18/07 A2988 RMK
     AO2 T01790065=
KSVH 231715Z AUTO 00000KT 10SM CLR 20/05 A3021 RMK AO2
     T02010053=
KSWW 231715Z AUTO 19023G31KT 10SM CLR 26/13 A2980 RMK AO2
     T02620131=
KSXU 231715Z AUTO 22025G36KT 10SM CLR 23/03 A2966 RMK AO2
     T02270030=
KSYF 231715Z AUTO 22035G43KT 4SM SCT027 OVC036 25/M04 A2927 RMK
     AO2 T02501045 PWINO=
KSYI 231715Z AUTO 20009G17KT 10SM CLR 23/06 A3017 RMK A01=
KSZT 231715Z AUTO 00000KT 10SM CLR 07/02 A2998 RMK AO2=
KSZY 231715Z AUTO 16017KT 10SM CLR 23/08 A3011 RMK A01=
KT89 231715Z AUTO VRB06KT 10SM CLR 28/06 A2983 RMK A01=
KTDF 231715Z AUTO 05013G17KT 10SM BKN002 17/05 A3022 RMK AO2=
KTHA 231715Z AUTO 17008G15KT 10SM CLR 22/05 A3018 RMK A01=
KTME 231715Z AUTO 17015G21KT 10SM SCT050 BKN060 29/16 A2996 RMK
     AO2=
KTNU 231715Z AUTO 15023G31KT 10SM CLR 24/14 A2959 RMK A01=
