SAUS70 KWBC 231800 RRA
METAR
KBGD 231751Z AUTO 19015G35KT 10SM CLR 28/10 A2961 RMK AO2 PK WND
     19035/1743 SLP982 T02780100 10289 20206 58010=
KCMH 231751Z 19007KT 10SM FEW055 SCT230 23/11 A3016 RMK AO2 SLP208
     T02330106 10233 20106 58014 $=
KDAW 231751Z AUTO 00000KT 10SM CLR 17/08 A3034 RMK AO2 SLP272
     T01720083 10178 20061 58012=
KHDO 231751Z AUTO 16018KT 10SM FEW036 28/18 A2987 RMK AO2 PK WND
     17029/1702 RAB12E32 SLP099 P0000 60000 T02780178 10289 20189
     58012=
KJCT 231751Z AUTO 18013G26KT 10SM CLR 27/16 A2985 RMK AO2 PK WND
     17027/1708 SLP073 T02670161 10267 20206 58010 $=
KMPV 231751Z AUTO 00000KT 10SM CLR 19/06 A3037 RMK AO2 SLP288
     60000 T01890061 10189 20028 58013=
KOMN 231750Z 03007KT 10SM FEW015 25/17 A3011=
KOQU 231750Z 02012KT 10SM -DZ SCT090 OVC120 15/12 A3030=
KORD 231751Z 17018G26KT 10SM FEW055 24/13 A2987 RMK AO2 PK WND
     18027/1719 SLP112 T02440128 10244 20167 58019=
KPAO 231747Z 34005KT 10SM SKC 16/07 A3003=
KPHX 231751Z 26012KT 10SM SCT050 BKN080 BKN110 22/08 A2977 RMK AO2
     SLP065 T02220083 10228 20200 51013 $=
KPWM 231751Z 11005KT 10SM FEW150 OVC200 15/09 A3036 RMK AO2 SLP281
     T01500094 10161 20056 56011=
KRDU 231751Z 02003KT 10SM BKN250 18/06 A3018 RMK AO2 SLP217
     T01830061 10183 20094 58016=
KSJT 231751Z 18017G28KT 10SM CLR 28/14 A2978 RMK AO2 PK WND
     19032/1657 SLP061 T02780139 10278 20183 58011=
KSLK 231751Z AUTO 00000KT 10SM CLR 19/03 A3029 RMK AO2 SLP264
     T01890028 10200 21022 58014=
KSTL 231751Z 17016G27KT 10SM FEW120 BKN250 24/14 A2985 RMK AO2 PK
     WND 19031/1717 SLP099 T02440139 10250 20194 58009 $=
PABA 231752Z AUTO 09021KT 10SM OVC008 M04/M05 A3006 RMK AO2 PK WND
     09026/1734 CIG 006V011 SLP186 6//// T10391050 11039 21044
     51002 FZRANO PNO $=
K2J9 231755Z AUTO VRB03KT 10SM CLR 25/07 A3016 RMK AO2=
K4R5 231755Z AUTO 10004KT 10SM BKN110 21/12 A2971 RMK AO2
     T02060122=
K8W2 231755Z AUTO 02005KT 10SM CLR 19/04 A3024 RMK AO1 T01870037
     10187 20001=
KAHN 231751Z 00000KT 10SM CLR 23/06 A3019 RMK AO2 SLP223 T02280056
     10233 20039 58018=
KARV 231755Z AUTO 16012G20KT 10SM CLR 20/12 A2979 RMK AO2
     T02030117 10203 20116=
KASG 231748Z 17016G26KT 10SM FEW110 26/18 A2985=
KAVX 231751Z AUTO 36003KT 10SM FEW010 17/11 A2989 RMK AO2 SLP111
     T01670111 10167 20117 51018=
KBHK 231751Z AUTO 03005KT 10SM OVC013 07/04 A2941 RMK AO2 SLP964
     T00720039 10072 20056 53003=
KCCA 231755Z AUTO 20007G15KT 10SM BKN029 OVC034 23/16 A2995 RMK
     AO2=
KCDH 231755Z AUTO 16014G20KT 10SM SCT041 27/18 A2997 RMK AO2=
KCLE 231751Z 14010KT 10SM SCT250 24/08 A3015 RMK AO2 SLP221
     T02390078 10244 20128 58013 $=
KCPK 231755Z AUTO 34006KT 15/14 A3010 RMK AO2 P0007 60007
     T01510143 10152 20145=
KCSG 231751Z 03004KT 10SM CLR 23/03 A3017 RMK AO2 SLP215 T02330028
     10239 20061 58013=
KEOE 231755Z AUTO 04005KT 10SM CLR 22/06 A3021 RMK AO2=
KERI 231751Z 34006KT 10SM CLR 20/09 A3020 RMK AO2 SLP225 T02000094
     10228 20122 58007=
KEWR 231751Z 03008KT 10SM -RA FEW045 SCT075 BKN110 OVC150 17/09
     A3026 RMK AO2 SLP247 P0001 60001 T01670094 10167 20133
     57006=
KFDW 231755Z AUTO 36007KT 10SM CLR 22/08 A3018 RMK AO1=
KHFY 231755Z AUTO 16012G20KT 150V210 10SM SCT050 25/13 A3006 RMK
     AO2 T02500128 10251 20146=
KILG 231751Z 04015KT 10SM -RA FEW046 BKN100 OVC120 17/12 A3022 RMK
     AO2 RAB02E22B41 SLP233 P0000 60000 T01720117 10178 20128
     58010=
KIUA 231755Z AUTO 15005KT 10SM CLR 23/07 A3024 RMK AO2 T02270072
     10227 20038=
KIXA 231755Z AUTO 01009KT 10SM OVC017 16/15 A3016 RMK AO2=
