SAUS80 KWBC 231800 RRF
METAR
KLZZ 231755Z AUTO 19009G17KT 10SM BKN040 BKN120 27/16 A2982 RMK
     AO2 T02650159 10265 20207=
