SAUS70 KWBC 231800 RRL
METAR
KT89 231755Z AUTO 13009KT 10SM CLR 30/06 A2981 RMK A01=
KTYL 231755Z AUTO 25024G33KT 10SM SCT034 BKN042 BKN060 12/05 A2983
     RMK AO2=
KVAF 231755Z AUTO 16016KT 10SM CLR 29/15 A2998 RMK A01=
KBCK 231755Z AUTO 12009KT 080V160 10SM CLR 24/12 A2970 RMK AO2
     T02390124 10239 20086=
KBTP 231756Z AUTO 07007KT 10SM CLR 20/05 A3023 RMK AO2 SLP241
     T02000050 10200 20033 58012 TSNO=
KGVQ 231756Z AUTO 08004KT 10SM CLR 21/07 A3023 RMK AO2 SLP234
     T02110067 10211 20106 58011=
KHSB 231755Z AUTO 19018G23KT 10SM BKN047 25/17 A2999 RMK AO2
     T02500165 10259 20168=
KHVN 231753Z 01007KT 9SM -RA BKN110 14/09 A3027 RMK AO2 RAB31
     SLP251 P0000 60000 T01390094 10144 20117 58016=
KHYA 231756Z 04005KT 8SM -RA BKN100 OVC120 14/13 A3029 RMK AO2
     SLP258 P0002 60002 T01390128 10161 20133 58012=
KHYX 231755Z AUTO 17012G17KT 10SM CLR 23/10 A3008 RMK AO2
     T02320104 10234 20102=
KIFA 231755Z AUTO 15023G29KT 10SM CLR 25/14 A2956 RMK AO2
     T02450142 10245 20150=
KIMT 231754Z AUTO 15013G20KT 10SM CLR 21/12 A2986 RMK AO2 SLP113
     T02060122 10211 20078 58015=
KLVN 231755Z AUTO 15015G22KT 10SM CLR 23/11 A2956 RMK AO2=
KMJQ 231755Z AUTO 15017G26KT 10SM CLR 23/11 A2946 RMK AO2=
KMTN 231757Z 36003KT 10SM OVC060 18/11 A3022=
KMZH 231755Z AUTO 13006KT 10SM BKN060 22/11 A2963 RMK AO2=
KPEX 231755Z AUTO 12014G22KT 10SM CLR 21/12 A2949 RMK AO2=
KSAR 231755Z AUTO 18019G26KT 10SM BKN033 23/15 A2993 RMK AO2
     T02250146 10228 20179=
KSLO 231755Z AUTO 18016G21KT 10SM OVC036 24/15 A2994 RMK AO2
     T02440145 10244 20180=
KTNU 231755Z AUTO 17021G28KT 10SM CLR 24/14 A2957 RMK A01=
K3S8 231755Z AUTO 00000KT 10SM OVC006 08/06 A3022 RMK AO2=
K4V0 231755Z AUTO 00000KT 1/2SM -SN OVC006 00/00 A2965 RMK AO2
     T00000000 10013 20000=
K65S 231755Z AUTO 00000KT 10SM SCT003 SCT007 BKN011 05/05 A2999
     RMK AO2=
KCVO 231756Z AUTO VRB05KT 10SM CLR 11/08 A3019 RMK AO2 SLP225
     T01060078 10106 20017 51020=
KDTA 231755Z AUTO 36014G22KT 10SM OVC100 03/M02 A2982 RMK AO1=
KDZB 231755Z AUTO 17018G23KT 10SM CLR 29/15 A2988 RMK AO2
     T02850145 10285 20216=
KECS 231755Z AUTO 32022G31KT 10SM BKN013 05/01 A2940 RMK AO2=
KERV 231755Z AUTO 16016G24KT 10SM BKN035 25/16 A2988 RMK AO2
     T02510160 10251 20195=
KF46 231755Z AUTO 21020G27KT 10SM BKN041 27/16 A2986 RMK AO2
     T02690162 10275 20202=
KFTN 231755Z AUTO 15011KT 130V190 10SM CLR 27/18 A2983 RMK A01=
KGDJ 231755Z AUTO 18023G28KT 10SM CLR 28/16 A2983 RMK AO2
     T02790157 10279 20201=
KMNZ 231755Z AUTO 19022G28KT 10SM CLR 28/15 A2985 RMK AO2
     T02800153 10281 20200=
KUVA 231755Z AUTO 16010KT 10SM CLR 26/18 A2988 RMK AO2 T02550182
     10255 20172=
PPIZ 231756Z AUTO 10007KT 9SM -SN SCT031 BKN040 OVC050 M04/M06
     A2976 RMK AO2 SNB35 SLP081 P0000 60000 T10391056 11039 21089
     58007 FZRANO=
KSGH 231756Z AUTO 19009G16KT 10SM SCT055 24/10 A3014 RMK AO2
     SLP203 T02440100 10244 20122 58015=
KWJF 231756Z 30013KT 10SM CLR 16/M01 A2991 RMK AO2 SLP122
     T01611011 10161 20100 50012=
PAGA 231756Z AUTO 10SM OVC042 M01/M02 A3002 RMK AO2 UPB41E46SNE41
     SLP167 P0000 60000 T10111022 11011 21017 58002 FZRANO $=
KART 231756Z AUTO 27009KT 10SM CLR 22/07 A3025 RMK AO2 SLP241
     T02170067 10222 20033 58013=
KBBB 231756Z AUTO 14016G24KT 10SM CLR 22/12 A2940 RMK AO2=
KCXY 231756Z 32003KT 10SM OVC043 17/08 A3026 RMK AO2 SLP249
     T01720078 10172 20050 58014=
KD39 231755Z AUTO 11016G21KT 10SM CLR 21/12 A2948 RMK AO2
     T02110119 10213 20120=
KDAY 231756Z 19014G20KT 10SM SCT050 SCT250 24/09 A3013 RMK AO2
     SLP198 T02440089 10244 20128 58015=
