SAUS70 KWBC 231900
METAR
KW75 231855Z AUTO 31004KT 5SM OVC013 15/14 A3015 RMK AO1 P0006
     T01470136=
KMWC 231845Z 11009KT 10SM CLR 21/10 A2986=
KDLL 231855Z AUTO 15015G21KT 10SM CLR 22/12 A2976 RMK AO2
     T02160116=
KGAF 231855Z AUTO 07012KT 8SM CLR 17/08 A2948 RMK AO2=
KGPH 231855Z AUTO 18020G25KT 10SM CLR 28/12 A2958 RMK AO2=
KW13 231855Z AUTO 10SM BKN030 16/06 A3023 RMK AO1 T01590056=
