SAUS70 KWBC 232000
METAR
KHOB 231950Z 22022G31KT 10SM SKC 29/07 A2969=
KHUM 231947Z 13014KT 7SM CLR 27/17 A3004=
KSBA 231953Z 19006KTKT 10SM CLR 22/04 A2986=
KSUN 231951Z 33010G21KT 10SM SCT080 06/M10 A2983=
KUNV 231953Z VRB04KT 10SM OVC029 17/10 A3025=
PALP 231950Z 10014KT 8SM OVC008 M05/M06 A3002=
PAMD 231951Z AUTO 33018G25KT 10SM CLR 07/01 A2965 RMK AO2 SLP029
     T00720011 PNO $=
K2C8 231955Z AUTO 04011KT 9SM CLR 17/09 A2947 RMK AO2=
KBJC 231947Z 36004KT 10SM VCSH BKN080 BKN120 14/00 A3034=
KCLK 231955Z AUTO 17020KT 10SM CLR 26/13 A2962 RMK AO2=
KD50 231955Z AUTO 03013KT 10SM OVC012 05/03 A2953 RMK AO2=
KDAG 231950Z AUTO 00000KT 10SM CLR 18/M07 A2987 RMK AO2 SLP101
     T01781067=
KFRR 231955Z AUTO 00000KT 10SM OVC026 17/07 A3022 RMK AO1=
KLQK 231955Z AUTO 10SM CLR 24/03 A3015 RMK AO2 T02440033=
KOCF 231951Z VRB06KT 10SM CLR 28/13 A3008 RMK AO2 SLP187 T02830133
     PNO $=
KOMN 231950Z 01009KT 10SM CLR 25/17 A3009=
KOXC 231951Z 03004KT 10SM FEW050 SCT110 13/08 A3028 RMK AO2 RAE48
     SLP270 P0000 T01280083=
KRHV 231947Z 30012KT 10SM SKC 18/03 A2999=
KTPL 231951Z AUTO 15020G28KT 10SM BKN050 30/17 A2981 RMK AO2 PK
     WND 16032/1908 SLP082 T03000172=
KY51 231955Z AUTO 14018G25KT 10SM CLR 23/15 A2967 RMK AO1
     T02300145=
PABA 231952Z AUTO 10020KT 9SM -SN OVC010 M04/M06 A3007 RMK AO2 PK
     WND 09027/1909 SNB03 SLP188 T10391056 FZRANO PNO $=
KERI 231951Z 06008KT 10SM CLR 20/07 A3017 RMK AO2 SLP215
     T02000067=
KEWR 231951Z 02011KT 10SM -RA FEW045 BKN060 OVC120 17/08 A3025 RMK
     AO2 RAB16 SLP242 P0000 T01720083=
KFDW 231955Z AUTO 00000KT 10SM CLR 23/06 A3015 RMK AO1=
KGEU 231951Z 23007KT 10SM SCT080 24/08 A2973=
KHDO 231951Z AUTO 15016G24KT 10SM -RA CLR 29/17 A2980 RMK AO2 PK
     WND 15027/1932 RAB28 SLP076 P0000 T02940172=
KHFY 231955Z AUTO 17014G17KT 10SM SCT060 26/12 A3002 RMK AO2
     T02580121=
KILG 231951Z 03013KT 10SM BKN039 OVC046 17/12 A3020 RMK AO2
     RAB05E29 SLP226 P0000 T01720117=
KIUA 231955Z AUTO 14006KT 10SM CLR 20/04 A3023 RMK AO2
     T02000035=
KIXA 231955Z AUTO 36009G14KT 10SM OVC017 16/15 A3013 RMK AO2=
KJAQ 231955Z AUTO 33007KT 10SM CLR 16/M04 A2995 RMK AO1
     T01571036=
KJCT 231951Z AUTO 18013G28KT 10SM CLR 28/15 A2979 RMK AO2 PK WND
     17028/1944 SLP051 T02780150 $=
KJFK 231951Z 04012KT 10SM -RA BKN050 BKN120 BKN150 15/10 A3025 RMK
     AO2 RAB10 SLP241 P0001 T01500100=
KLGA 231951Z 05012KT 10SM -RA BKN045 BKN070 BKN110 OVC150 16/08
     RMK AO2 RAB46 SLPNO P0000 T01610078 $=
KLGU 231951Z AUTO 31019KT 10SM SCT031 BKN042 OVC070 04/M02 A2981
     RMK AO2 SLP096 T00441017=
KMDZ 231955Z AUTO 14014G24KT 10SM CLR 22/13 A2972 RMK AO2
     T02200125 PWINO=
KMPV 231951Z AUTO 17004KT 10SM CLR 19/04 A3035 RMK AO2 SLP283
     T01940044=
KOLV 231950Z 15014G22KT 10SM FEW055 26/12 A2999=
KORD 231951Z 17020G31KT 10SM SCT050 SCT120 26/13 A2983 RMK AO2 PK
     WND 17035/1854 SLP097 T02560128=
KPHX 231951Z 24010KT 10SM FEW050 SCT080 SCT110 24/07 A2972 RMK AO2
     SLP049 T02440072 $=
KPIT 231951Z 10004KT 10SM FEW130 FEW250 22/03 A3018 RMK AO2 SLP227
     T02170028=
KPPF 231952Z AUTO 19019G37KT 10SM CLR 28/14 A2961 RMK AO2 PK WND
     20038/1938 PRESFR SLP015 T02830139 PWINO $=
KPWM 231951Z 09006KT 10SM BKN150 OVC200 14/11 A3036 RMK AO2 SLP281
     T01390111=
KRDU 231951Z 32009KT 10SM BKN250 21/07 A3015 RMK AO2 SLP208
     T02060067=
K2J9 231955Z AUTO 33006KT 10SM CLR 26/06 A3012 RMK AO2=
K4R5 231955Z AUTO 12006KT 10SM BKN110 21/12 A2966 RMK AO2
     T02090124=
K8W2 231955Z AUTO 05007KT 10SM OVC033 20/03 A3021 RMK AO1
     T01980034=
