SAUS80 KWBC 232010
METAR
KROS 232003Z AUTO 12013G19KT 080V140 10SM SCT047 26/14 A2955 RMK
     AO2=
KGNT 232015Z AUTO 30014G17KT 10SM SCT022 BKN046 OVC060 11/04 A2980
     RMK AO2 T01080038=
