SAUS80 KWBC 232124
METAR
KCUL 232113Z AUTO 15017G21KT 10SM CLR 27/09 A2994 RMK AO2=
KDVK 232110Z AUTO 00000KT 10SM CLR 23/05 A3010 RMK AO2=
KM25 232135Z AUTO 19008KT 160V220 10SM CLR 26/07 A2999 RMK AO2
     PWINO=
KNY0 232114Z AUTO 00000KT 10SM CLR 15/06 A3030 RMK AO2=
K77S 232135Z AUTO 26005KT 10SM BKN043 BKN065 15/04 A3019 RMK
     A01=
K9V9 232115Z AUTO 17006KT 10SM CLR 28/04 A2911 RMK AO2
     T02820039=
KCBE 232115Z AUTO 00000KT 10SM OVC037 18/05 A3025 RMK AO2
     T01830053=
KCKP 232115Z AUTO 17019G28KT 10SM CLR 28/12 A2935 RMK AO2
     T02750117=
KSFY 232123Z AUTO 16019G26KT 10SM CLR 25/14 A2971 RMK AO2=
