SAUS70 KWBC 231938 RRB
METAR
K24J 231935Z AUTO 00000KT 10SM 27/08 A3010 RMK A01=
K28J 231935Z AUTO 36006KT 10SM CLR 25/13 A3009 RMK AO2 TSNO=
K2D5 231935Z AUTO 10024G34KT 9SM CLR 22/12 A2927 RMK AO2=
K3AU 231935Z AUTO 17028G37KT 10SM CLR 28/10 A2953 RMK AO2=
K3N8 231935Z AUTO 12016G24KT 10SM CLR 23/12 A2941 RMK AO2
     T02290115=
K42J 231935Z AUTO 00000KT 10SM CLR 26/09 A3009 RMK A01=
K46D 231935Z AUTO 08019G25KT 10SM CLR 17/08 A2934 RMK AO2=
K4A6 231935Z AUTO VRB05KT 10SM CLR 24/06 A3013 RMK AO2=
K4M9 231935Z AUTO 19017G24KT 10SM BKN046 26/17 A2993 RMK AO2
     PWINO=
K5H4 231935Z AUTO 06018G24KT 10SM CLR 13/01 A2937 RMK AO2=
K6B0 231935Z AUTO 00000KT 10SM CLR 19/08 A3030 RMK AO2
     T01850076=
K6B9 231935Z AUTO 11006KT 10SM CLR 20/00 A3025 RMK AO2=
K7L2 231935Z AUTO 10015KT 10SM CLR 18/10 A2925 RMK AO2=
K7W4 231935Z AUTO 00000KT 10SM OVC018 15/13 A3019 RMK AO1
     T01520125=
K7W6 231935Z AUTO 34014G19KT 10SM OVC006 17/17 A3002 RMK AO2
     T01700170=
K96D 231935Z AUTO 03013G18KT 10SM FEW022 14/11 A2950 RMK AO2=
K9D7 231935Z AUTO 05018G25KT 10SM CLR 13/08 A2944 RMK AO2 TSNO=
KACB 231935Z AUTO 15010G17KT 10SM SCT060 24/11 A2996 RMK AO2
     T02380110=
KACJ 231935Z AUTO 01004KT 10SM CLR 24/08 A3013 RMK AO2
     T02400078=
KAEL 231935Z AUTO 15019G28KT 10SM CLR 24/13 A2951 RMK AO2=
KAFP 231935Z AUTO 36006KT 10SM CLR 23/02 A3015 RMK AO2
     T02330022=
KAGO 231935Z AUTO 20017G23KT 10SM BKN050 29/14 A2990 RMK A01=
KAIG 231935Z AUTO 14019G26KT 10SM CLR 21/12 A2980 RMK AO2
     T02070122=
KALM 231935Z AUTO 25016KT 10SM CLR 24/07 A2976 RMK AO2=
KAQX 231935Z AUTO 31006G13KT 10SM CLR 25/09 A3012 RMK AO2=
KARW 231935Z AUTO 35008KT 10SM CLR 23/10 A3012 RMK AO2=
KASJ 231935Z AUTO 34007KT 10SM OVC012 16/14 A3013 RMK AO2
     T01550140=
KATA 231935Z AUTO 18009G19KT 10SM BKN050 29/16 A2987 RMK AO2
     SLP015 T02940156 $=
KATS 231935Z AUTO 23022G33KT 10SM FEW080 FEW090 25/10 A2970 RMK
     AO2=
KAVC 231935Z AUTO 36006KT 10SM OVC020 19/12 A3020 RMK AO2
     T01910123=
KAXV 231935Z AUTO 17013G18KT 10SM SCT055 24/08 A3009 RMK AO2=
KBAC 231935Z AUTO 09021KT 9SM CLR 22/12 A2933 RMK AO2=
KBBB 231935Z AUTO 17022G30KT 10SM CLR 24/12 A2937 RMK AO2=
KBCB 231935Z AUTO 10003KT 10SM CLR 21/04 A3022 RMK AO2
     T02060038=
KBKS 231935Z AUTO 14014G22KT 10SM SCT055 32/18 A2977 RMK AO2
     SLP041 T03170185 $=
KBKT 231935Z AUTO 36009KT 10SM OVC021 18/12 A3016 RMK AO1
     T01800115=
KBRG 231935Z AUTO 24023G34KT 10SM CLR 22/M03 A2968 RMK AO2
     T02151029=
KBRY 231935Z AUTO 18007KT 10SM CLR 25/08 A3006 RMK AO2
     T02500078=
KBVI 231935Z AUTO 13004KT 10SM CLR 24/01 A3019 RMK AO2
     T02370006=
KBVU 231935Z AUTO 04013KT 10SM CLR 17/M09 A2985 RMK AO2=
KBWP 231935Z AUTO 14023G34KT 9SM CLR 24/12 A2930 RMK AO2=
KBWW 231935Z AUTO 36015KT 10SM OVC012 07/05 A2935 RMK AO2=
KBXK 231935Z AUTO 28009KT 260V330 10SM FEW060 24/07 A2976 RMK
     A01=
KCAD 231935Z AUTO 16014G22KT 10SM SCT048 SCT060 23/11 A2998 RMK
     AO2 T02310107=
KCDA 231935Z AUTO 12003KT 10SM 18/04 A3034 RMK AO2 T01750037=
KCDI 231935Z AUTO 00000KT 10SM CLR 24/08 A3015 RMK AO2
     T02380079=
KCDN 231935Z AUTO VRB04G11KT 10SM CLR 24/06 A3014 RMK AO2=
KCEY 231935Z AUTO 16012G24KT 130V210 10SM CLR 26/07 A3001 RMK
     A01=
KCFJ 231935Z AUTO 19020G25KT 10SM CLR 24/06 A2998 RMK AO2
     T02400063=
KCJR 231935Z AUTO 36009KT 10SM OVC041 20/10 A3021 RMK AO2
     T01970104=
KCKC 231935Z AUTO 08009G14KT 10SM CLR 18/11 A2977 RMK AO2=
KCKM 231935Z AUTO 17013G19KT 10SM SCT055 27/13 A2999 RMK A01=
KCKZ 231935Z AUTO 06009KT 10SM OVC044 17/09 A3025 RMK AO2=
