SAUS70 KWBC 231700
METAR
KDYA 231655Z AUTO 12005KT 10SM CLR 24/08 A3018 RMK AO2
     T02360078=
KFRH 231655Z AUTO 22008G16KT 171V251 10SM CLR 22/09 A3009 RMK
     AO1=
KGWW 231655Z AUTO 35009KT 10SM CLR 21/12 A3016 RMK AO2
     T02060124=
KGYR 231647Z 24015KT 10SM SCT080 BKN140 21/10 A2979=
KHOB 231650Z 19018G23KT 10SM SKC 25/10 A2978=
KIFP 231649Z 35016KT 10SM CLR 20/M01 A2980=
KJVL 231645Z 17019G24KT 10SM FEW250 22/10 A2985=
KJYO 231655Z AUTO 05005KT 10SM BKN019 OVC025 15/11 A3028 RMK
     AO2=
KLQK 231655Z AUTO 10SM CLR 22/03 A3022 RMK AO2 T02190031=
KMRN 231655Z AUTO 00000KT 10SM CLR 20/06 A3027 RMK AO2
     T02010059=
KMYJ 231655Z AUTO 16013G20KT 10SM CLR 22/15 A2977 RMK AO2=
KOIC 231655Z AUTO 00000KT 10SM CLR 14/06 A3034 RMK AO2
     T01400064=
KPBH 231655Z AUTO 14010KT 10SM CLR 19/12 A2977 RMK AO2
     T01860121=
KPTB 231655Z AUTO 02009KT 10SM OVC016 16/11 A3020 RMK AO2
     T01550110=
KTGI 231655Z AUTO 35015KT 10SM OVC009 16/14 A3014 RMK AO1
     T01630143=
KTRK 231645Z 00000KT 10SM CLR M03/M04 A3002=
KUNV 231653Z VRB03KT 10SM CLR 15/06 A3030=
KVNW 231655Z AUTO 16010KT 10SM CLR 23/10 A3012 RMK AO2=
KWDG 231650Z 18032G37KT 10 SM BKN150 27/14 A2963=
KAEG 231647Z 21027G34KT 10SM SCT060 BKN085 17/01 A2974=
KCIC 231647Z 31016KT 10SM CLR 14/M02 A3003=
KMER 231653Z 33005KT 7SM CLR 16/01 A2995=
KRHV 231647Z 00000KT 10SM SKC 13/05 A3002=
KSUA 231647Z 36010G17KT 10SM SCT035 27/19 A3010=
KTZR 231650Z 19005G15KT 10SM CLR 22/11 A3019=
KUES 231645Z 15011G20KT 10SM CLR 21/12 A2990=
KHSA 231650Z 14010KT 10SM FEW035 26/16 A3015=
KPAO 231647Z 35004KT 10SM SKC 14/06 A3002=
KRYY 231650Z 00000KT 10SM CLR 21/03 A3024 RMK AO2 SLP237 T02110033
     $=
