SAUS70 KWBC 231738 RRF
METAR
KGZS 231735Z AUTO 18010KT 10SM CLR 23/08 A3016 RMK A01=
KH71 231735Z AUTO 19015G29KT 10SM CLR 27/15 A2975 RMK AO2=
KHCD 231735Z AUTO 12018G25KT 10SM CLR 23/12 A2952 RMK AO2
     T02250120=
KHFJ 231735Z AUTO 19022G27KT 10SM BKN120 25/13 A2979 RMK AO2=
KHHF 231735Z AUTO 21020G28KT 10SM CLR 27/11 A2960 RMK AO2
     T02690113=
KHHV 231735Z AUTO 16010G20KT 10SM CLR 26/17 A2995 RMK A01=
KHLB 231735Z AUTO 18008G15KT 10SM CLR 23/10 A3011 RMK A01=
KHLX 231735Z AUTO 35007KT 10SM CLR 18/M10 A3023 RMK AO2
     T01791101=
KHOE 231735Z AUTO 18003KT 10SM CLR 24/11 A3016 RMK AO2
     T02450113=
KHQG 231735Z AUTO 22034G43KT 5SM HZ OVC001 28/04 A2948 RMK AO2
     T02800039=
KHRX 231735Z AUTO 22012KT 10SM CLR 23/11 A2970 RMK AO2
     T02330111=
KHSB 231735Z AUTO 19018G25KT 10SM SCT045 26/17 A3000 RMK AO2
     T02580170=
KHSD 231730Z AUTO 18025G34KT 10SM 25/16 A2967 RMK A01=
KHYW 231735Z AUTO 02008G15KT 10SM CLR 21/06 A3015 RMK AO2=
KHYX 231735Z AUTO 16011G18KT 10SM CLR 23/11 A3008 RMK AO2
     T02250106=
KHZD 231735Z AUTO 18016G21KT 10SM CLR 25/10 A3007 RMK A01=
KHZX 231735Z AUTO 13010G14KT 10SM SCT075 20/11 A2963 RMK AO2=
KI35 231735Z AUTO 00000KT 10SM CLR 21/05 A3021 RMK AO2
     T02120050=
KI67 231735Z AUTO 20007G15KT 10SM CLR 23/09 A3012 RMK AO1=
KI68 231735Z AUTO 20011G14KT 10SM CLR 23/10 A3014 RMK AO1
     T02340099=
KIER 231735Z AUTO 17011G21KT 10SM SCT046 BKN055 28/16 A3001 RMK
     AO2 T02820161=
KIFA 231735Z AUTO 14020G30KT 10SM CLR 24/14 A2958 RMK AO2
     T02380141=
KIGQ 231735Z AUTO 18021G28KT 10SM SCT060 24/14 A2993 RMK AO2
     T02400135=
KIMS 231735Z AUTO 18013KT 10SM CLR 24/10 A3014 RMK AO2=
KINJ 231735Z AUTO 20023G29KT 10SM OVC040 27/17 A2987 RMK AO2
     T02710168=
KIOB 231735Z AUTO 17006KT 10SM CLR 23/07 A3019 RMK AO2 PWINO=
KJAU 231735Z AUTO VRB03KT 10SM CLR 20/08 A3025 RMK A01=
KJPX 231735Z AUTO 06007KT 10SM -RA SCT050 OVC070 14/14 A3026 RMK
     AO2 P0002 T01380138=
KBTN 231735Z AUTO 13016KT 10SM CLR 21/10 A2932 RMK AO2=
KOAR 231735Z AUTO 00000KT 10SM CLR M03/M13 A3000 RMK AO2=
KRZL 231735Z AUTO 17021G28KT 10SM CLR 24/12 A2997 RMK AO2=
KRZR 231735Z AUTO VRB06KT 10SM CLR 23/02 A3018 RMK A01=
KSAR 231735Z AUTO 19020G28KT 10SM BKN031 22/15 A2994 RMK AO2
     T02230145=
KSCD 231735Z AUTO 13003KT 10SM SCT120 23/06 A3020 RMK AO2
     T02340056=
KSCX 231735Z AUTO VRB06KT 10SM CLR 22/03 A3019 RMK A01=
KSEM 231735Z AUTO VRB04KT 10SM CLR 24/04 A3017 RMK AO2=
KSEZ 231735Z AUTO 28017G22KT 10SM 12/04 A2981 RMK AO2=
KSFQ 231735Z AUTO 34006KT 4SM -DZ OVC005 15/15 A3014 RMK AO2
     T01500150=
KSIF 231735Z AUTO 06003KT 10SM CLR 21/04 A3020 RMK AO2
     T02070040=
KSLO 231735Z AUTO 15014G18KT 10SM OVC034 24/14 A2995 RMK AO2
     T02350143=
KSNH 231730Z AUTO 20011G19KT 10SM CLR 24/09 A3011 RMK A01=
KSRB 231735Z AUTO VRB06G13KT 10SM CLR 23/06 A3017 RMK A01=
KSRE 231735Z AUTO 10SM CLR 26/15 A2976 RMK AO2=
KSVC 231735Z AUTO 26012G21KT 10SM SCT050 18/06 A2988 RMK AO2
     T01810059=
KSVH 231735Z AUTO 00000KT 10SM CLR 21/06 A3020 RMK AO2
     T02050056=
KSWW 231735Z AUTO 18020G29KT 10SM CLR 27/14 A2979 RMK AO2
     T02650138=
KSXU 231735Z AUTO 20025G35KT 10SM SCT075 SCT085 23/04 A2965 RMK
     AO2 T02290041=
KSYF 231735Z AUTO 21037G44KT 4SM SCT028 OVC036 25/M04 A2926 RMK
     AO2 T02541043 PWINO=
KSYI 231735Z AUTO 20009G15KT 10SM CLR 23/06 A3016 RMK A01=
KSZT 231735Z AUTO 05005KT 7SM SCT018 07/02 A2998 RMK AO2=
KSZY 231735Z AUTO 16015G20KT 140V200 10SM CLR 23/08 A3011 RMK
     A01=
KT89 231735Z AUTO 10007KT 10SM CLR 29/06 A2982 RMK A01=
KTDF 231735Z AUTO 03008G15KT 10SM SCT002 17/05 A3021 RMK AO2=
