SAUS70 KWBC 231718 RRF
METAR
KCVH 231715Z AUTO 00000KT 10SM CLR 13/06 A3001 RMK A01=
KF70 231715Z AUTO 18006KT 10SM CLR 15/07 A2989 RMK AO2=
KJAQ 231715Z AUTO 36004KT 10SM CLR 12/M01 A2995 RMK AO1
     T01181007=
KJSO 231715Z AUTO 19014G22KT 10SM SCT033 SCT047 26/17 A2996 RMK
     AO2 T02610174 TSNO=
KL18 231715Z AUTO 15003KT 10SM CLR 16/10 A2989 RMK AO2=
KL35 231715Z AUTO 25005KT 10SM CLR 05/M06 A2993 RMK AO2=
KONM 231715Z AUTO 21016G24KT 10SM CLR 21/M01 A2975 RMK AO2
     T02121008=
KORS 231715Z AUTO 14003KT 10SM OVC038 09/09 A3010 RMK AO2=
KPAN 231715Z AUTO 19010G18KT 160V220 10SM SCT018 BKN027 OVC050
     10/07 A2986 RMK AO2 PWINO TSNO=
KPVF 231715Z AUTO 00000KT 7SM CLR 11/M04 A2996 RMK AO1=
KSNK 231715Z AUTO 20020G24KT 10SM CLR 26/12 A2977 RMK AO2
     T02560119=
KSRR 231715Z AUTO 24033G51KT 10SM 16/04 A2982 RMK AO2=
KTVY 231715Z AUTO 11007KT 10SM UP BKN033 OVC041 01/01 A2980 RMK
     AO2=
K1P1 231715Z AUTO 00000KT 10SM CLR 16/06 A3035 RMK AO2
     T01600061=
K2P2 231715Z AUTO 18009G15KT 150V210 10SM BKN110 16/12 A2995 RMK
     AO2 T01590118=
K46D 231715Z AUTO 07019KT 10SM CLR 14/05 A2942 RMK AO2=
K7L2 231715Z AUTO 09013G18KT 10SM CLR 15/08 A2931 RMK AO2=
K96D 231715Z AUTO 03011G19KT 10SM OVC013 10/10 A2956 RMK AO2=
K9D7 231715Z AUTO 06013G21KT 10SM BKN013 09/07 A2952 RMK AO2
     TSNO=
KAIG 231715Z AUTO 14014G18KT 10SM CLR 19/12 A2985 RMK AO2
     T01910122=
KANQ 231715Z AUTO 15012G18KT 10SM CLR 22/11 A3007 RMK AO2=
KBAC 231715Z AUTO 09015KT 9SM CLR 15/09 A2942 RMK AO2=
KBWW 231715Z AUTO 04010KT 10SM OVC012 07/05 A2936 RMK AO2=
KCFJ 231715Z AUTO 17015G23KT 10SM CLR 23/07 A3002 RMK AO2
     T02310073=
KD57 231715Z AUTO 07013G18KT 10SM CLR 10/03 A2935 RMK AO2=
KD60 231715Z AUTO 06015G22KT 10SM OVC007 04/04 A2952 RMK AO2=
KEKM 231715Z AUTO 17011G20KT 130V200 9SM CLR 23/13 A3003 RMK AO2
     T02300133=
KHZE 231715Z AUTO 06014G24KT 10SM CLR 10/06 A2939 RMK AO2=
KMDS 231715Z AUTO 13025KT 10SM CLR 20/13 A2931 RMK AO2=
KOCQ 231715Z AUTO 14010KT 10SM CLR 19/12 A2989 RMK AO1
     T01850122=
KOEO 231715Z AUTO 13013G18KT 10SM CLR 22/15 A2965 RMK AO2
     T02220148=
KOSC 231715Z AUTO 16009KT 10SM CLR 21/11 A3011 RMK AO2
     T02140112=
KRGK 231715Z AUTO 13011KT 10SM CLR 22/12 A2962 RMK AO2=
KRUG 231715Z AUTO 07022G28KT 10SM OVC013 08/06 A2948 RMK AO2=
KRYV 231715Z AUTO 15011G17KT 10SM CLR 22/11 A2984 RMK AO2
     T02160111=
KS25 231715Z AUTO 07013G23KT 10SM OVC010 07/07 A2947 RMK AO2=
KS32 231715Z AUTO 08019KT 10SM CLR 14/06 A2944 RMK AO2 TSNO=
KSPF 231715Z AUTO 30019G26KT 10SM CLR 08/02 A2935 RMK AO2=
KTEW 231715Z AUTO 14014G19KT 10SM CLR 24/11 A3009 RMK AO2
     T02350106=
PAAD 231715Z AUTO 11011KT 10SM OVC007 M09/M10 A3003 RMK AO2
     T10951105=
PAUT 231715Z AUTO 22010KT 10SM OVC095 06/03 A3024 RMK AO2=
KCVC 231715Z AUTO 03004KT 10SM CLR 21/06 A3022 RMK AO2=
KCWC 231715Z AUTO 18018G27KT 10SM CLR 27/15 A2974 RMK AO2
     T02710152=
KCXE 231715Z AUTO 36007KT 10SM CLR 16/08 A3020 RMK AO1
     T01640081=
KCXP 231715Z AUTO 25006KT 10SM CLR 05/M04 A3004 RMK AO2=
KCXU 231715Z AUTO 08004KT 10SM CLR 24/05 A3018 RMK AO1
     T02420053=
KCXW 231715Z AUTO 17018KT 10SM BKN034 OVC039 25/17 A2994 RMK
     A01=
KCZL 231715Z AUTO 00000KT 10SM CLR 21/05 A3024 RMK AO2=
KD39 231715Z AUTO 13014G20KT 10SM CLR 21/12 A2951 RMK AO2
     T02050117=
KDCM 231715Z AUTO 33006KT 10SM CLR 21/06 A3021 RMK AO2=
KDEH 231715Z AUTO 15016G21KT 10SM CLR 22/13 A2967 RMK AO2=
KDKX 231715Z AUTO 00000KT 10SM CLR 21/06 A3022 RMK A01=
KDSF 231715Z AUTO 08006KT 10SM CLR 25/13 A3012 RMK A01=
KDTA 231715Z AUTO 36015G23KT 10SM SCT065 OVC080 02/M02 A2980 RMK
     AO1=
