SATO31 NFTF 232000
METAR NFTV 232000Z 17006KT 9999 FEW010 FEW016TCU BKN120 25/22 Q1013=

METAR NFTL 232000Z 08012KT 9999 SCT016TCU BKN280 24/18 Q1014=

METAR NFTF 232000Z 15012KT 9999 FEW017 24/18 Q1017=


