SAUS70 KWBC 232100
METAR
KANE 232045Z 14014G24KT 10SM FEW045 26/12 A2949=
KLBE 232047Z 09006KT 20SM CLR 21/M01 A3019=
KEZS 232055Z AUTO 12009G17KT 10SM CLR 22/14 A2980 RMK AO2
     T02230138=
KFMH 232045Z 04013KT 3SM RA BR SCT006 BKN024 OVC029 143/13
     A3027=
KMWC 232045Z 13008G15KT 10SM CLR 22/11 A2982=
TJIG 232045Z 10008KT 10SM SCT040 SCT070 29/24 A2989=
