SAUS70 KWBC 231900 RRQ
METAR
K06C 231855Z AUTO 17011G24KT 10SM CLR 24/16 A2986 RMK AO2
     T02410164=
K2G9 231855Z AUTO 10003KT 10SM CLR 16/03 A3025 RMK AO2=
KADU 231855Z AUTO 18016G26KT 10SM BKN002 BKN027 OVC045 27/12 A2945
     RMK AO2 PWINO=
KAUH 231855Z AUTO 19025G37KT 7SM CLR 30/11 A2928 RMK AO2
     T02960111=
KDNV 231855Z AUTO 17023G28KT 5SM HZ CLR 26/12 A2994 RMK AO2
     T02600120=
KFKR 231855Z AUTO 17019G26KT 10SM FEW055 26/11 A2998 RMK AO2=
KFXY 231855Z AUTO 13022G29KT 10SM CLR 25/13 A2951 RMK AO2=
KHMZ 231855Z AUTO 00000KT 10SM CLR 19/04 A3024 RMK AO2
     T01900035=
KIIB 231855Z AUTO 16022G27KT 10SM CLR 24/14 A2963 RMK AO2
     T02430138=
KIJX 231855Z AUTO 17017G23KT 10SM CLR 24/14 A2980 RMK AO2
     T02400143=
KLOM 231855Z AUTO 06008KT 10SM OVC045 17/11 A3024 RMK AO2
     T01720108=
KMLE 231855Z AUTO 18018G25KT 10SM CLR 30/13 A2936 RMK AO2
     T02950126=
KMQB 231855Z AUTO 17019G26KT 10SM SCT120 22/12 A2978 RMK AO2
     T02160122=
KRCR 231855Z AUTO 16016KT 10SM FEW050 24/12 A2998 RMK AO2=
KUMP 231855Z AUTO 17013G20KT 10SM SCT055 25/12 A3002 RMK AO2
     T02510124=
KZER 231855Z AUTO 07005KT 10SM SCT033 OVC039 15/08 A3027 RMK
     AO2=
K04V 231855Z AUTO 24027G45KT 10SM SCT090 11/M08 A2958 RMK AO2=
K6P9 231855Z AUTO 19014G23KT 10SM CLR 28/15 A2977 RMK AO2
     T02840147=
KCPW 231855Z AUTO M1/4SM +SN OVC001 M06/M06 A2966 RMK AO2=
KDUX 231855Z AUTO 19027G39KT 10SM CLR 27/08 A2958 RMK AO2
     T02690078=
KETN 231855Z AUTO 17019G28KT 10SM CLR 27/15 A2975 RMK AO2
     T02720149=
KFWZ 231855Z AUTO 34014G19KT 10SM BKN036 OVC045 M01/M04 A2956 RMK
     AO2=
KHCR 231855Z AUTO 35009KT 10SM BKN055 05/M07 A2972 RMK AO2=
KHVE 231855Z AUTO 30014G17KT 10SM SCT080 OVC095 11/M01 A2968 RMK
     AO2=
KLMO 231855Z AUTO 32004KT 7SM CLR 22/M02 A2933 RMK AO2
     T02161024=
KMYP 231857Z AUTO OVC002 M05/M06 A2971 RMK AO2 PWINO=
KNOW 231855Z AUTO 05005KT 10SM CLR 10/07 A3013 RMK AO2
     T01010071=
KORG 231855Z AUTO 15013KT 10SM BKN050 OVC055 29/18 A3000 RMK AO2
     T02900184=
KPPA 231855Z AUTO 22012G19KT 10SM CLR 27/12 A2962 RMK AO2
     T02690119=
KXBP 231855Z AUTO 19020G25KT 10SM CLR 30/14 A2976 RMK AO2
     T02950137=
TISX 231853Z 10011KT 10SM SCT028 31/23 A2989 RMK AO2 SLP120
     T03110233 $=
K11R 231855Z AUTO 17015G20KT 10SM SCT049 OVC060 30/17 A2988 RMK
     AO2 T02950170=
K4S2 231855Z AUTO 00000KT 10SM CLR 12/03 A3013 RMK AO2=
K5C1 231855Z AUTO 17013G19KT 10SM BKN039 25/15 A2986 RMK AO1=
KAFO 231855Z AUTO 32013G16KT 10SM SCT026 BKN032 OVC040 00/M07
     A2972 RMK AO2=
KAXX 231855Z AUTO 21029G43KT 10SM BKN048 OVC050 10/M01 A2967 RMK
     AO2 T01011014=
KBMT 231855Z AUTO 16013G20KT 10SM OVC039 27/18 A2996 RMK AO2
     T02720176=
KCZT 231855Z AUTO 14013G18KT 10SM SCT037 28/18 A2979 RMK AO2=
KE38 231855Z AUTO 21011G15KT 10SM CLR 27/07 A2992 RMK AO2
     T02680065=
KLUV 231855Z AUTO 21021G30KT 10SM CLR 30/09 A2972 RMK AO2=
KPOY 231855Z AUTO 33023G28KT 5SM -SN BKN022 01/M02 A2959 RMK
     AO2=
KRBO 231855Z AUTO 10SM SCT035 SCT044 30/20 A2983 RMK AO2
     T02990203=
KRCV 231855Z AUTO 22015G23KT 10SM SCT047 OVC060 06/M01 A2962 RMK
     AO2 T00601009=
KSBS 231855Z AUTO 22008KT 2SM OVC007 01/01 A2954 RMK AO1
     T00050005=
KSFF 231853Z COR 24005KT 10SM SCT030 08/02 A3003 RMK AO2 SLP176
     T00780017=
KTMK 231855Z AUTO 00000KT 10SM SCT017 SCT022 BKN033 12/07 A3019
     RMK AO2=
KRGA 231859Z AUTO 19004KT 10SM CLR 25/06 A3014 RMK AO2=
KSLR 231850Z AUTO 19019G27KT 10SM BKN046 28/14 A2987 RMK AO2
     T02840144=
KTOC 231855Z AUTO 11004KT 10SM CLR 23/01 A3017 RMK AO2
     T02320012=
