SAUS80 KWBC 231836
METAR
KCLI 231835Z AUTO 16012G18KT 10SM CLR 22/13 A2983 RMK AO2
     T02190126=
