SAUS70 KWBC 232000 RRX
METAR
TISX 231953Z 06008KT 10SM BKN029 30/23 A2988 RMK AO2 SLP118
     T03000228 $=
KLBE 231947Z 06006KT 20SM CLR 22/02 A3020=
