SAUS70 KWBC 231900 RRQ
METAR
KMMK 231853Z AUTO 04004KT 10SM -RA BKN110 12/08 A3029 RMK AO2
     RAB08 SLP258 P0001 T01220078=
KMNN 231853Z AUTO 20012KT 7SM CLR 23/09 A3013 RMK AO2 SLP201
     T02330094=
KPHD 231853Z AUTO 15007KT 10SM CLR 24/07 A3017 RMK AO2 SLP216
     T02390067=
KPOU 231853Z 26003KT 10SM BKN110 13/08 A3028 RMK AO2 SLP251
     T01330083=
KMFR 231853Z 10SM SCT029 SCT034 BKN044 11/04 A3019 RMK AO2 SLP225
     T01110039=
KMLS 231853Z AUTO 30019G24KT 5SM RA BR OVC008 05/04 A2948 RMK AO2
     CIG 006V015 SLP992 P0011 T00500039=
KPAE 231853Z 23006KT 10SM BKN005 BKN016 OVC038 09/07 A3015 RMK AO2
     SLP212 T00940067=
KPRB 231853Z AUTO 31012KT 10SM CLR 17/03 A2998 RMK AO2 SLP148
     T01720028 $=
KTTS 231855Z AUTO 36011G18KT 10SM CLR 26/13 A3006 RMK AO2 VIS 3/4
     RWY15/33 SLP184 T02610132 $=
K1MW 231855Z AUTO 01014G20KT 10SM M 19/M01 A2516 RMK AO2 SLP456
     T01901015 FZRANO $=
KBYS 231855Z AUTO 36013KT 10SM CLR 17/M11 A2985 RMK AO2 SLP094
     T01651111=
KMOD 231853Z 32014KT 10SM CLR 17/M01 A2997 RMK AO2 SLP147
     T01721006 $=
KGUR 231855Z AUTO 32022G31KT 10SM SCT075 BKN120 BKN150 06/04 A2937
     RMK AO2 PK WND 32031/51 RAE36 SLPNO P0000 T00620044=
KGFA 231855Z AUTO 34012KT 4SM -SN OVC006 00/M00 A2982 RMK AO2 OVC
     V BKN SLP128 P0000 T00001001 $=
K10G 231855Z AUTO 20007KT 10SM CLR 23/06 A3018 RMK AO2=
K3D2 231855Z AUTO 17017G25KT 10SM CLR 17/11 A2990 RMK AO2
     T01650105=
K6L4 231855Z AUTO VRB06KT 10SM CLR 23/05 A3017 RMK AO2=
KABR 231853Z AUTO 11015G26KT 10SM -RA CLR 23/13 A2924 RMK AO2 PK
     WND 11027/1831 SLP899 P0000 T02330128=
KAGC 231853Z 10005KT 10SM CLR 22/04 A3019 RMK AO2 SLP226
     T02170044=
KAMW 231853Z AUTO 16020G33KT 10SM CLR 26/14 A2952 RMK AO2 PK WND
     18033/1851 SLP986 T02610139=
KGFA 231855Z AUTO 34012KT 4SM -SN OVC006 00/M00 A2982 RMK AO2 OVC
     V BKN SLP128 P0000 T00001001 $=
KTDR 231855Z AUTO 24008KT 10SM CLR 27/11 A3008 RMK AO2 SLP190
     T02680105 $=
KBYS 231855Z AUTO 36013KT 10SM CLR 17/M11 A2985 RMK AO2 SLP094
     T01651111=
KALI 231853Z AUTO 14018G23KT 10SM SCT049 31/19 A2981 RMK AO2 PK
     WND 15028/1755 SLP091 T03060194=
KAPA 231853Z 24025G37KT 10SM SCT050 SCT090 BKN200 17/M02 A2935 RMK
     AO2 PK WND 25037/1852 SLP880 SHSN OMTNS DSNT SW-NW
     T01721022=
KCNM 231853Z AUTO 24015G28KT 10SM CLR 29/08 A2968 RMK AO2 PK WND
     23028/1848 SLP995 T02940083=
KCXO 231853Z 15019G27KT 10SM BKN060 29/14 A2991 RMK AO2 PK WND
     17030/1825 SLP126 T02940144=
KGUR 231855Z AUTO 32022G31KT 10SM SCT075 BKN120 BKN150 06/04 A2937
     RMK AO2 PK WND 32031/51 RAE36 SLPNO P0000 T00620044=
K6S2 231855Z AUTO 00000KT 10SM SCT012 SCT041 13/11 A3021 RMK
     AO2=
KACV 231853Z AUTO 31014KT 10SM CLR 13/07 A3015 RMK AO2 SLP215
     T01330072=
KAFW 231853Z 18025G34KT 10SM FEW035 FEW250 29/16 A2976 RMK AO2 PK
     WND 18037/1815 SLP064 T02890161=
KAKO 231853Z AUTO 32015G29KT 10SM CLR 23/M02 A2928 RMK AO2 PK WND
     31030/1810 SLP859 T02281022 $=
KALW 231853Z 20007KT 10SM FEW032 09/02 A3008 RMK AO2 SLP189
     T00940022 $=
KAMA 231853Z 21021G29KT 10SM CLR 24/11 A2961 RMK AO2 PK WND
     21030/1832 SLP976 T02390106=
KCLM 231853Z AUTO VRB03KT 10SM CLR 11/06 A3013 RMK AO2 SLP205
     T01110056=
KCNO 231853Z VRB03KT 10SM BKN040 21/11 A2987 RMK AO2 SLP111
     T02060106=
KCOT 231853Z AUTO 15016G24KT 8SM CLR 31/18 A2980 RMK AO2 SLP084
     T03060178=
KCRS 231853Z AUTO 17024G34KT 10SM BKN050 29/15 A2985 RMK AO2 PK
     WND 16035/1755 SLP103 T02940150 $=
KDEW 231853Z AUTO 22005KT 10SM CLR 08/02 A3002 RMK AO2 SLP177
     T00830022=
