SAUS70 KWBC 232048
METAR
K6S8 232040Z AUTO 30013G18KT 9SM 04/02 A2968 RMK A01 Laurel=
KDCY 232035Z AUTO 17016G23KT 10SM CLR 26/09 A2999 RMK AO2
     T02570093=
KEBS 232035Z AUTO 15018G29KT 10SM FEW110 25/15 A2946 RMK AO2=
KEVM 232041Z AUTO 13009G15KT 10SM CLR 21/12 A2962 RMK AO2=
KMPZ 232030Z AUTO 16020G26KT 10SM CLR 26/18 A2965 RMK AO2=
KRNP 232042Z AUTO 16011G17KT 10SM SCT060 24/08 A3004 RMK AO2=
KUYF 232035Z AUTO 19011KT 10SM CLR 23/03 A3010 RMK AO2=
KVES 232035Z AUTO 16009G15KT 10SM CLR 23/05 A3007 RMK AO2=
KTFP 232015Z AUTO 17022G26KT 10SM SCT021 30/22 A2981 RMK AO2
     T02950222=
