SAUS70 KWBC 232040 RRC
METAR
KHAI 232035Z AUTO 17015G19KT 10SM SCT055 24/11 A3000 RMK AO2
     T02440105=
KI23 232035Z AUTO 17011G15KT 10SM CLR 24/06 A3010 RMK AO1=
KISQ 232035Z AUTO 12003KT 10SM BKN048 18/12 A2993 RMK AO2
     T01800116=
KJYM 232035Z AUTO 14007G19KT 10SM CLR 23/07 A3005 RMK AO2
     T02290068=
KS24 232035Z AUTO 16010G16KT 10SM CLR 24/08 A3009 RMK AO2=
K2G2 232035Z AUTO 00000KT 10SM CLR 23/03 A3016 RMK A01=
K33N 232030Z AUTO 02009KT 4SM BR BKN006 BKN009 BKN018 14/14 A3018
     RMK A01=
K3LF 232035Z AUTO 18023G30KT 10SM CLR 25/14 A2984 RMK AO2
     T02460140=
KADC 232036Z AUTO 13019G28KT 10SM CLR 24/11 A2941 RMK AO2 TSNO=
KBAX 232035Z AUTO 17014G21KT 10SM CLR 23/09 A3008 RMK AO2
     T02300092=
KCDA 232035Z AUTO 13004KT 10SM 17/04 A3035 RMK AO2 T01700043=
KCDI 232035Z AUTO 17005KT 10SM CLR 24/08 A3014 RMK AO2
     T02400078=
KCNB 232035Z AUTO 10022G31KT 10SM CLR 25/11 A2931 RMK AO2
     T02530111=
KCSQ 232035Z AUTO 16020G32KT 9SM CLR 28/14 A2948 RMK AO2=
KD95 232035Z AUTO 13011G14KT 10SM SCT060 23/05 A3008 RMK AO2
     T02310052=
KDEH 232035Z AUTO 15015G25KT 10SM CLR 24/13 A2959 RMK AO2=
KEFK 232035Z AUTO 00000KT 10SM CLR 17/07 A3032 RMK AO2
     T01690072=
KFKA 232035Z AUTO 15016G24KT 7SM CLR 23/13 A2960 RMK AO2
     T02270127=
KFPK 232035Z AUTO 16013KT 10SM SCT055 24/10 A3001 RMK AO2
     T02360095=
KFSO 232035Z AUTO 00000KT 10SM CLR 18/07 A3029 RMK AO2
     T01840069=
KHCD 232035Z AUTO 13023G28KT 10SM CLR 25/12 A2944 RMK AO2
     T02510124=
KHZL 232035Z AUTO 06003KT 10SM SCT050 BKN080 16/09 A3029 RMK
     AO2=
KI69 232035Z AUTO 18007G15KT 10SM CLR 25/07 A3010 RMK AO2
     T02460070=
KIRS 232035Z AUTO 17013G23KT 10SM SCT055 24/09 A3000 RMK AO2
     T02350085=
KLCG 232035Z AUTO 18026G32KT 10SM CLR 30/11 A2926 RMK AO2
     T03040112=
KUSE 232035Z AUTO 16012G21KT 10SM FEW060 25/09 A3006 RMK AO2=
KXLL 232035Z AUTO 04005KT 10SM SCT060 17/10 A3025 RMK AO2=
K05U 232035Z AUTO 34012G18KT 10SM 01/M03 A3000 RMK A01=
K0A0 232035Z AUTO 22019G29KT 10SM CLR 22/03 A2974 RMK AO2=
K0F2 232035Z AUTO 16020G27KT 10SM CLR 29/15 A2970 RMK AO2
     T02910150=
K1V6 232035Z AUTO 23028G35KT 10SM SCT110 20/M06 A2941 RMK AO2=
K3N8 232035Z AUTO 12018G26KT 10SM CLR 23/12 A2939 RMK AO2
     T02330118=
K3S8 232035Z AUTO 00000KT 10SM SCT026 12/05 A3022 RMK AO2=
K46U 232035Z AUTO 33011G18KT 10SM BKN037 OVC044 02/M04 A2976 RMK
     A01=
K4V0 232035Z AUTO 00000KT 10SM SCT010 BKN070 OVC095 02/00 A2970
     RMK AO2 T00160004=
K5T9 232035Z AUTO 13009KT 10SM CLR 28/19 A2975 RMK A01=
K65S 232035Z AUTO 00000KT 10SM SCT050 BKN060 OVC090 09/04 A3001
     RMK AO2=
K82V 232035Z AUTO 33021G28KT 10SM SCT075 BKN090 OVC110 10/M02
     A2938 RMK AO2=
KAEJ 232035Z AUTO 24019G27KT 7SM 03/M03 A2958 RMK AO2
     T00301032=
KALM 232035Z AUTO 23019KT 10SM CLR 23/06 A2974 RMK AO2=
KARM 232035Z AUTO 14017G20KT 10SM SCT046 OVC055 28/16 A2988 RMK
     AO2 T02810159 TSNO=
KATS 232035Z AUTO 22013G22KT 10SM CLR 25/11 A2969 RMK AO2=
KBKS 232035Z AUTO 16018G26KT 10SM CLR 33/18 A2976 RMK AO2 PK WND
     17026/2034 SLP037 T03320178 $=
KBQX 232035Z AUTO 16016G21KT 9SM 28/18 A2989 RMK A01=
KAVQ 232035Z AUTO 30010G15KT 10SM SCT070 22/08 A2977 RMK AO2
     T02240081=
KBDU 232035Z AUTO 26014G22KT 10SM CLR 18/M05 A2933 RMK AO2=
KC83 232035Z AUTO 32016G22KT 10SM CLR 21/M04 A2997 RMK AO2=
KCWC 232035Z AUTO 18022G30KT 10SM CLR 32/13 A2965 RMK AO2
     T03210133=
KDZB 232035Z AUTO 18012G21KT 10SM SCT050 29/14 A2980 RMK AO2
     T02880142=
KECS 232035Z AUTO 34023G31KT 10SM -RA BKN013 OVC075 02/01 A2943
     RMK AO2=
