SAUS70 KWBC 231838 RRA
METAR
K28J 231835Z AUTO 09006KT 10SM CLR 25/13 A3010 RMK AO2 TSNO=
K2D5 231835Z AUTO 09020G26KT 9SM CLR 20/11 A2930 RMK AO2=
K3AU 231835Z AUTO 18025G34KT 10SM CLR 28/10 A2954 RMK AO2=
K42J 231835Z AUTO 33005KT 10SM CLR 26/08 A3010 RMK A01=
K46D 231835Z AUTO 08019G25KT 10SM CLR 17/07 A2937 RMK AO2=
K4A6 231835Z AUTO VRB05G10KT 10SM CLR 23/06 A3017 RMK AO2=
K4M9 231835Z AUTO 19018G25KT 10SM OVC040 25/17 A2995 RMK AO2
     PWINO=
K5H4 231835Z AUTO 06019KT 10SM CLR 12/M00 A2939 RMK AO2=
K6B9 231835Z AUTO VRB05KT 10SM CLR 20/03 A3026 RMK AO2=
K7L2 231835Z AUTO 09013G19KT 10SM CLR 18/09 A2926 RMK AO2=
K7W4 231835Z AUTO 34004KT 5SM OVC017 15/12 A3020 RMK AO1
     T01490121=
K7W6 231835Z AUTO 33013G18KT 10SM OVC004 17/17 A3003 RMK AO2
     T01650165=
K82C 231835Z AUTO 13010G18KT 10SM CLR 23/13 A2973 RMK AO2
     T02300131=
K96D 231835Z AUTO 03014KT 10SM SCT018 13/11 A2953 RMK AO2=
K9D7 231835Z AUTO 06019G25KT 10SM CLR 13/07 A2947 RMK AO2 TSNO=
KACJ 231835Z AUTO VRB04KT 10SM CLR 23/07 A3014 RMK AO2
     T02340073=
KAFP 231835Z AUTO 32006G15KT 10SM CLR 23/02 A3016 RMK AO2
     T02300017=
KAGO 231835Z AUTO 18013G23KT 10SM CLR 28/14 A2993 RMK A01=
KAIG 231835Z AUTO 14020G24KT 10SM CLR 20/12 A2982 RMK AO2
     T02040121=
KAIK 231835Z AUTO 11003KT 10SM CLR 23/09 A3016 RMK AO2
     T02290086=
KALM 231835Z AUTO 23018G28KT 10SM FEW070 24/06 A2979 RMK AO2=
KAQX 231835Z AUTO 35009KT 310V010 10SM CLR 24/10 A3014 RMK AO2=
KARW 231835Z AUTO 34008KT 10SM CLR 23/11 A3014 RMK AO2=
KASJ 231835Z AUTO 34005KT 10SM OVC012 15/14 A3012 RMK AO2
     T01520139=
KATA 231835Z AUTO 17010G17KT 140V210 10SM BKN047 28/17 A2990 RMK
     AO2 SLP025 T02760169 $=
KATS 231835Z AUTO 23021G32KT 10SM CLR 26/10 A2972 RMK AO2=
KAVC 231835Z AUTO 36009G16KT 10SM OVC022 20/12 A3021 RMK AO2
     T01960123=
KBAC 231835Z AUTO 08018KT 9SM CLR 18/10 A2937 RMK AO2=
KBCB 231835Z AUTO 16003KT 10SM CLR 20/04 A3024 RMK AO2
     T01990042=
KBKS 231835Z AUTO 16016KT 10SM BKN049 31/19 A2981 RMK AO2 SLP056
     T03110192 $=
KBKT 231835Z AUTO 01006KT 10SM OVC021 18/11 A3018 RMK AO1
     T01750105=
KBRG 231835Z AUTO 21027G34KT 10SM CLR 21/M03 A2972 RMK AO2
     T02111033=
KBRY 231835Z AUTO 18010G16KT 10SM CLR 25/08 A3009 RMK AO2
     T02450080=
KHYW 231835Z AUTO 32007KT 300V010 10SM CLR 22/07 A3013 RMK AO2=
KHZE 231835Z AUTO 05016G22KT 10SM CLR 12/06 A2936 RMK AO2=
KI68 231835Z AUTO 16010G15KT 10SM CLR 24/10 A3012 RMK AO1
     T02400098=
KIDI 231835Z AUTO 00000KT 10SM CLR 20/02 A3026 RMK A01=
KIOB 231835Z AUTO 27003KT 10SM CLR 24/06 A3016 RMK AO2 PWINO=
KJFZ 231835Z AUTO 06007KT 030V090 10SM CLR 20/01 A3021 RMK AO2
     T02040012=
KJVW 231835Z AUTO 20006G14KT 10SM FEW049 BKN060 27/14 A3006 RMK
     AO2=
KJZI 231835Z AUTO 34010KT 10SM CLR 24/11 A3013 RMK AO2=
KKY8 231835Z AUTO 16015G24KT 9SM CLR 26/13 A3004 RMK A01=
KL08 231835Z AUTO 00000KT 10SM CLR 22/00 A2980 RMK AO2=
KL52 231835Z AUTO 31008G13KT 9SM CLR 19/05 A2992 RMK A01=
KLBO 231835Z AUTO 16019G24KT 10SM BKN100 27/12 A2979 RMK AO2=
KLKR 231835Z AUTO VRB06KT 10SM CLR 23/06 A3017 RMK AO2=
KLNP 231835Z AUTO 20003KT 10SM CLR 20/03 A3022 RMK AO2=
KLRO 231835Z AUTO 32007G12KT 9SM CLR 24/10 A3012 RMK AO2=
KLRU 231835Z AUTO 24022G28KT 10SM BKN055 BKN075 OVC085 23/06 A2983
     RMK AO2 T02270064=
KLRY 231835Z AUTO 20020G26KT 10SM CLR 30/13 A2965 RMK AO2=
KLUX 231835Z AUTO 33003KT 10SM CLR 22/06 A3018 RMK AO2=
KLVL 231835Z AUTO 34005KT 10SM OVC020 18/12 A3016 RMK AO1
     T01790120=
KM40 231835Z AUTO 17014KT 10SM CLR 26/07 A3011 RMK AO2=
KMAN 231835Z AUTO 31014KT 10SM CLR 09/M00 A3001 RMK A01=
