SAUS70 KWBC 231722 RRA
METAR
K6S8 231710Z AUTO 27013G21KT 10SM 04/M00 A2963 RMK A01 LAUREL=
KF44 231715Z AUTO 18016G24KT 10SM SCT041 BKN050 27/17 A2990 RMK
     AO2=
KF46 231715Z AUTO 22020G28KT 10SM BKN035 26/17 A2987 RMK AO2
     T02590165=
KFTN 231715Z AUTO 14010G15KT 10SM CLR 26/19 A2985 RMK A01=
KJWY 231715Z AUTO 19024G31KT 10SM SCT034 27/17 A2988 RMK AO2
     T02650174=
KLUD 231715Z AUTO 18017G25KT 7SM CLR 26/15 A2981 RMK AO2
     T02630154=
KLXY 231715Z AUTO 18023G28KT 10SM SCT043 BKN049 27/16 A2990 RMK
     AO2 T02680157=
KMDD 231715Z AUTO 19016KT 10SM CLR 27/11 A2979 RMK AO2
     T02670107=
KMEV 231715Z AUTO 00000KT 10SM CLR 02/M03 A3004 RMK AO2=
K2R9 231715Z AUTO 17015G26KT 10SM SCT042 SCT049 30/18 A2990 RMK
     AO2=
K5SM 231715Z AUTO M1/4SM +SN OVC002 M05/M06 A2962 RMK AO2=
KAQO 231715Z AUTO 16013G23KT 10SM BKN039 28/15 A2987 RMK AO2=
KAUN 231715Z AUTO VRB04KT 10SM CLR 14/M03 A2997 RMK A01=
KBBD 231715Z AUTO 18018G29KT 10SM CLR 25/15 A2985 RMK AO2=
KBPG 231715Z AUTO 19018KT 10SM CLR 25/13 A2979 RMK AO2
     T02550127=
KE42 231715Z AUTO 22025G35KT 10SM CLR 28/09 A2959 RMK AO2
     T02840092=
KEBG 231715Z AUTO 15017G26KT 10SM SCT041 31/19 A2985 RMK AO2
     T03050192 PWINO=
KELA 231715Z AUTO 18016G21KT 10SM BKN045 BKN060 29/18 A2994 RMK
     AO2 T02910176=
KPSO 231715Z AUTO 24015G25KT 10SM -RA SCT013 BKN023 OVC070 05/03
     A2968 RMK AO2 T00460032=
KRWV 231715Z AUTO 16014G19KT 10SM SCT034 BKN040 OVC050 27/18 A2993
     RMK AO2 T02750181=
KRYW 231715Z AUTO 19012KT 10SM SCT033 BKN041 25/17 A2992 RMK AO2
     T02530170=
KSAA 231715Z AUTO 28011G17KT 10SM BKN032 OVC049 00/M02 A2955 RMK
     AO2=
KT74 231715Z AUTO 17015G27KT 10SM SCT044 SCT050 27/18 A2990 RMK
     AO2 T02740176=
KT82 231715Z AUTO 19016G23KT 10SM BKN032 25/16 A2990 RMK AO2
     T02490156=
KVHN 231715Z AUTO 21014G22KT 10SM CLR 26/08 A2988 RMK AO2
     T02600080=
K2V5 231715Z AUTO 23025G35KT 10SM CLR 26/M05 A2924 RMK AO2=
K33V 231715Z AUTO 20011G19KT 10SM SCT070 SCT090 04/M02 A2952 RMK
     AO1=
KAJZ 231715Z AUTO 14009KT 10SM SCT013 OVC047 06/04 A2964 RMK AO2
     T00630036=
KASL 231715Z AUTO 00000KT 10SM BKN042 27/16 A2994 RMK AO2
     T02670161 TSNO $=
KEMM 231715Z AUTO 30017G27KT 10SM CLR 00/M05 A2965 RMK AO2=
KF00 231715Z AUTO 19021G27KT 10SM SCT033 26/17 A2986 RMK AO2
     T02640169=
KJDD 231715Z AUTO 18009G17KT 10SM BKN040 BKN046 25/18 A2991 RMK
     AO2=
KLHB 231715Z AUTO 18016G22KT 10SM SCT035 SCT044 BKN050 29/18 A2993
     RMK AO2 T02860183=
KLHM 231715Z AUTO 34013KT 10SM CLR 15/00 A2997 RMK AO1=
KPEZ 231715Z AUTO 15013G23KT 10SM SCT038 29/18 A2989 RMK AO2
     T02850182=
KRAS 231715Z AUTO 16016G20KT 10SM SCT060 A2994 RMK AO2=
KSTK 231715Z AUTO 31013G18KT 10SM CLR 21/00 A2924 RMK AO2=
KTEX 231715Z AUTO 28008G15KT 2 1/2SM -SN SCT031 BKN038 OVC055
     00/M02 A2968 RMK AO2=
KTYL 231715Z AUTO 25017G26KT 10SM BKN022 BKN028 OVC042 10/08 A2983
     RMK AO2=
KVTP 231715Z AUTO 24024G38KT 5SM HZ SCT013 SCT018 OVC026 M09/M13
     A2958 RMK AO2=
K04V 231715Z AUTO 17011G14KT 10SM SCT018 BKN048 OVC110 07/02 A2960
     RMK AO2=
K11R 231715Z AUTO 16013G17KT 10SM SCT043 SCT060 30/18 A2993 RMK
     AO2 T02960181=
K17J 231715Z AUTO 10008KT 10SM CLR 23/04 A3018 RMK AO2
     T02320039=
K1A6 231715Z AUTO 17006KT 10SM CLR 21/05 A3022 RMK AO2
     T02130045=
K2G9 231715Z AUTO 11005KT 10SM CLR 16/02 A3027 RMK AO2=
K5C1 231715Z AUTO 17013G21KT 10SM SCT033 BKN041 25/15 A2991 RMK
     AO1=
K6P9 231715Z AUTO 17021G28KT 10SM CLR 26/15 A2982 RMK AO2
     T02630151=
K8A0 231715Z AUTO 17005KT 10SM CLR 22/03 A3020 RMK AO2=
