SAUS70 KWBC 232126
METAR
KEVM 232122Z AUTO 12009G18KT 10SM CLR 21/12 A2962 RMK AO2=
K11R 232115Z AUTO 17010G23KT 10SM SCT050 OVC070 29/16 A2984 RMK
     AO2 T02920164=
KANK 232110Z AUTO 27015G22KT 10SM SCT110 07/M06 A2966 RMK AO1
     T00731060=
KBMC 232110Z AUTO 10SM SCT044 SCT050 OVC065 06/M04 A2987 RMK AO1
     T00631045=
KDUB 232114Z AUTO 32013G20KT 10SM SCT029 BKN043 OVC050 00/M07
     A2963 RMK AO2=
KEAN 232110Z AUTO 34015G23KT 10SM OVC048 08/00 A2946 RMK AO2
     T00750000=
KGLE 232115Z AUTO 18017G25KT 10SM CLR 29/14 A2975 RMK AO2
     T02900139=
KGNB 232115Z AUTO 25013G18KT 10SM SCT044 BKN050 OVC100 07/M05
     A2957 RMK AO2 T00661054=
KGNC 232115Z AUTO 21015G25KT 10SM CLR 30/09 A2971 RMK AO2
     T02950085=
KHBV 232110Z AUTO 17014G22KT 10SM CLR 32/17 A2977 RMK AO2
     T03150168=
KHEQ 232115Z AUTO 34017G24KT 10SM CLR 20/01 A2931 RMK AO2=
KHSG 232110Z AUTO 36005KT 10SM SCT017 OVC023 02/00 A2965 RMK AO2
     T00231001=
KHVE 232115Z AUTO 30016G21KT 10SM OVC090 09/M03 A2973 RMK AO2=
KMMH 232114Z AUTO 35014KT 10SM CLR 07/M10 A2997 RMK AO2=
KOSA 232110Z AUTO 18016G23KT 10SM BKN060 28/15 A2983 RMK AO2
     T02850149=
KOZA 232115Z AUTO 20019G27KT 7SM CLR 25/14 A2981 RMK AO2=
KPEZ 232110Z AUTO 17015G19KT 10SM SCT050 30/17 A2977 RMK AO2
     T03030174=
KPVW 232110Z AUTO 21016G22KT 10SM CLR 26/09 A2963 RMK AO2
     T02620090=
KSLR 232110Z AUTO 16011G21KT 10SM SCT050 A2981 RMK AO2=
KTXW 232110Z AUTO 16022G28KT 1/2SM HZ VV005 30/18 A2978 RMK AO2
     VIS 1/4V1 1/4 T03010180=
KEZS 232135Z AUTO 13013G17KT 10SM CLR 21/14 A2980 RMK AO2
     T02110135=
KJVY 232115Z AUTO 19009KT 10SM CLR 25/07 A3005 RMK AO2 PWINO=
KTNB 232110Z AUTO 12004KT 10SM CLR 17/03 A3021 RMK AO2
     T01720032=
KW63 232135Z AUTO 00000KT 10SM OVC033 20/12 A3014 RMK AO1=
