SAUS70 KWBC 231736 RRA
METAR
KSRR 231735Z AUTO 24038G53KT 10SM 16/02 A2981 RMK AO2=
KTVY 231735Z AUTO 15005KT 10SM SCT022 OVC032 01/01 A2981 RMK
     AO2=
KVDF 231735Z AUTO 02005KT 10SM SCT047 29/17 A3010 RMK AO2=
KXSA 231735Z AUTO 33003KT 10SM OVC005 14/14 A3020 RMK AO2
     T01370137=
K10G 231735Z AUTO 14004KT 10SM CLR 22/07 A3020 RMK AO2=
