SITO21 NFTF 232100
AAXX 23214

91779 41398 61810 10253 20219 40133 50011 70222 8473/ 333 5649/ 82709 84816
86361=

91784 41498 60812 10246 20183 40142 51011 70222 82231 333 56299 82816 86078=

91792 41498 21514 10239 20175 40160 50007 70200 82100 333 563// 82817 555
20000 34521 4////=

