SIPS21 NZKL 232100
AAXX 23214
91723 46/// /3607 10296 20234 30122 40126=
91759 41598 70403 10285 20243 40122 50003 71522 8687/ 333 5699/ 82820
84650 87463=
91762 41598 70000 10284 20244 40118 51003 70522 85875 333 56999 83820
87464=
91825 46/// /2110 10239 20228 30040 40114 52004=
91845 47498 /0209 10254 20243 30109 40116 57002 781//=
91964 NIL=