SMNZ01 NZKL 231800
AAXX 23184
93004 16/// /1307 10121 20085 30037 40296 57002 60001=
93014 17/97 /1705 10080 20078 30202 40297 57006 60001 700//=
93021 17/97 /2003 10082 20079 30113 40298 57005 60001 700//=
93057 17/97 /2903 10091 20085 30246 40296 57007 60001 700//=
93069 16/// /2114 10139 20116 30206 40291 57004 60001=
93110 17/97 /1201 10108 20107 30282 40291 57004 60001 700//=
93129 16/// ///// 10121 20092 30279 40285 52001 60001=
93173 17/98 /0801 10061 20056 30225 40291 57004 60001 700//=
93186 17/98 /2209 10107 20090 30275 40280 57002 60001 700//=
93191 17/95 /2303 10069 20067 30264 40272 57005 60001 731//=
93196 16/// /2405 10121 20084 30201 40256 57002 60001=
93201 16/// /1402 10132 20122 30276 40296 57002 60001=
93245 17/98 /0902 10053 20047 39788 40289 52002 60001 700//=
93292 17/98 /3108 10113 20082 30234 40239 57016 60001 700//=
93309 17697 /2510 10136 20125 30253 40289 57005 60001 700//=
93313 16/// /3011 10134 20122 30164 40284 57005 60001=
93327 17598 /3309 10137 20113 30265 40275 57009 60001 700//=
93339 16/// /2504 10067 20059 39329 57005 60001=
93373 17/98 /2818 10152 20062 30229 40231 57014 60001 700//=
93393 16/// /3203 10110 20091 30073 40238 57018 60001=
93404 17598 /3410 10130 20099 30214 40270 57008 60001 700//=
93420 17/97 /3410 10138 20124 30249 40256 57008 60001 700//=
93439 17/98 /0217 10144 20093 30215 40230 57003 60001 700//=
93441 16/// /2417 10133 20062 39823 40237 57010 60001=
93479 16/// /0220 10163 20052 30198 40205 57006 60001=
93498 16/// /3316 10140 20094 30065 40207 52040 60001=
93515 17898 /1103 10117 20105 30275 40280 57009 60001 700//=
93527 16/// /2815 10159 20123 30250 40254 57005 60001=
93546 17/98 /2413 10152 20064 30239 40245 57008 60001 700//=
93562 16/// /1204 10126 20105 30026 40251 57006 60001=
93597 16/// /3216 10142 20070 30189 40195 57002 60001=
93615 17897 /3501 10105 20104 30221 40279 57006 69981 700//=
93678 17/98 /0604 10135 20063 30068 40197 52004 60001 700//=
93709 16/// /0505 10124 20111 30263 40265 57010 60011=
93721 17496 /3306 10142 20108 30239 40243 57010 60081 761//=
93738 16/// /3212 10104 20022 39466 57006 60001=
93747 16/// /1203 10083 20021 39640 40224 57003 60001=
93773 17998 /2916 10178 20019 30142 40174 57020 60001 700//=
93781 17/98 /3204 10119 20033 30148 40194 54000 60001 700//=
93791 NIL=
93792 16/// /2610 10152 21007 39911 40192 52006 60001=
93796 17998 /0307 10124 20068 30148 40184 52002 60001 700//=
93800 16/// /0107 10131 20129 30206 40227 57006 60001=
93805 16/// /1709 10094 20081 30200 40254 52039 60311=
93817 NIL=
93831 17/99 /2410 10139 20058 39778 40202 57005 6///1 700//=
93845 17497 /2006 10084 20075 30228 40229 52051 60091 761//=
93887 17/// /2132 10080 20078 30039 40200 52038 60011 781//=
93891 17498 /2012 10103 20083 30205 40208 52041 69921 781//=
93909 16/// /2124 10079 20066 30099 40226 52028 60101=
93929 16/// /2111 10041 20004 30184 40233 52037 60001=
93947 16/// /2418 10043 21021 30149 40168 52022 60001=
93985 17/97 /3117 10124 20110 30166 40182 57024 69921 700//=
93994 NIL=