SMTO01 NFTF 231800
AAXX 23184
91772 11398 60000 10249 20234 40129 69901 70225 8377/ 333 5699/ 81709
 83817
86362=
91776 11398 79901 10239 20225 40100 60021 70282 8377/ 333 5699/ 81709
 83818
87361=
91779 11398 51706 10232 20220 40122 53016 69941 70361 855// 333 564//
 81708
83816 85635=
91784 11498 70912 10233 20181 40131 53012 69931 70282 82131 333 56299
 82816
84361 87078=
91792 31398 41511 10221 20186 40154 53014 70200 84701 333 563/9 81709
 84817=