SMSO01 AMMC 231800
AAXX 23184
91503 31497 70000 10238 20237 40082 5//// 70522 81237
  333 56900 81816 83360 87280=
91517 11498 51805 10236 20218 40084 55002 69941 75055 83838
  333 56990 81815 83627=
91520 31498 51803 10226 20224 40084 53001 70521 82938
  333 56999 81816 81914 84280=