SMNV01 NVVV 231800
AAXX 23184
91551 16/// /0000 10225 20216 30091 40105 52002 60001=
91553 16/// /0000 10252 20249 30074 40105 52003 60001=
91554 11498 70305 10233 20229 40095 53007 60311 70166 878//
  333 561// 60311 81712 83818 87645=
91555 NIL=
91557 11397 80811 10227 20218 40106 53006 60081 76166 8687/
  333 5629/ 60081 81708 85818 88550=
91565 16/// /0912 10235 20198 30106 40112 52001 60001=
91568 11498 80908 10229 20200 40135 5//// 69901 750// 8472/
  333 5629/ 69901 81712 84820 88461=