ASUS46 KSTO 220204
RWRCA 

NORTHERN AND CENTRAL CA REGIONAL WEATHER ROUNDUP
NATIONAL WEATHER SERVICE SACRAMENTO CA 
700 PM PDT FRI OCT 21 2022

NOTE: FAIR INDICATES FEW OR NO CLOUDS BELOW 12,000 FEET WITH NO
SIGNIFICANT WEATHER AND/OR OBSTRUCTIONS TO VISIBILITY.

CAZ001-003-220300-
NORTHWEST AREA
  
CITY           SKY/WX    TMP DP  RH WIND       PRES   REMARKS
CRESCENT CITY  CLOUDY    57  52  83 S8        29.89F                  
UKIAH          MOCLDY    69  47  45 N7        29.81S                  
$$

CAZ006-505>513-220300-
BAY AREA
  
CITY           SKY/WX    TMP DP  RH WIND       PRES   REMARKS
SANTA ROSA     MOCLDY    54  51  90 SE6       29.85R                  
SAN RAFAEL     N/A       65  MM  MM MISG
NAPA           MOCLDY    59  52  77 W16       29.82R                  
CONCORD        MOCLDY    60  51  72 W10       29.82R                  
OAKLAND CITY   N/A       61  MM  MM MISG
OAKLAND        MOCLDY    59  53  80 W15       29.86R                  
SAN FRAN CITY  N/A       58  MM  83 MISG
SAN FRAN ARPT  MOCLDY    59  53  80 W9        29.85R                  
LIVERMORE      PTCLDY    59  52  77 W9        29.81S                  
HAYWARD        PTCLDY    58  54  86 NW10      29.85S                  
REDWOOD CITY   N/A       64  MM  69 MISG
MOFFETT ARPT   CLEAR     61  54  77 N9        29.84S                  
SAN JOSE ARPT  PTCLDY    62  54  74 NW9       29.84S                  
$$
CAZ034-037-514>518-220300-
CENTRAL COAST
  
CITY           SKY/WX    TMP DP  RH WIND       PRES   REMARKS
WATSONVILLE    CLOUDY    56  52  86 CALM      29.88S                  
SALINAS        CLOUDY    59  53  80 NW9       29.87F                  
MONTEREY       CLOUDY    57  52  83 W8        29.89R                  
SAN LUIS OBISP PTCLDY    59  53  80 NW7       29.89S                  
SANTA MARIA    CLOUDY    58  55  90 N6        29.89F                  
HALF MOON BAY  CLOUDY    57  55  94 SE6       29.89R                  
$$
CAZ015-016-220300-
NORTHERN SACRAMENTO VALLEY
  
CITY           SKY/WX    TMP DP  RH WIND       PRES   REMARKS
REDDING        MOCLDY    77  44  30 S8        29.70F                  
RED BLUFF      CLOUDY    77  46  33 S6        29.73F                  
OROVILLE       MOCLDY    78  47  33 SE6       29.75R                  
$$
CAZ016>018-220300-
SOUTHERN SACRAMENTO VALLEY
  
CITY           SKY/WX    TMP DP  RH WIND       PRES   REMARKS
AUBURN         CLEAR     72  45  37 SE5       29.81S                  
BEALE AFB      CLOUDY    69  45  41 S5        29.72R                  
LINCOLN        FAIR      72  45  37 S10       29.72S                  
MARYSVILLE     PTCLDY    72  41  32 S6        29.73R                  
SAC INTL ARPT  MOCLDY    67  52  58 S15       29.73S                  
MATHER AIRPORT MOCLDY    66  46  48 S7        29.75R                  
DOWNTOWN SAC   N/A       68  MM  MM MISG
SAC EXEC ARPT  PTCLDY    65  52  62 S8        29.76S                  
VACAVILLE      MOCLDY    66  51  58 SW12G21   29.75R                  
TRAVIS AFB     MOCLDY    61  52  73 SW22      29.76R                  
$$
CAZ019>021-220300-
SAN JOAQUIN VALLEY
  
CITY           SKY/WX    TMP DP  RH WIND       PRES   REMARKS
STOCKTON       PTCLDY    69  50  50 NW9       29.77R HAZE             
MODESTO        CLEAR     74  52  46 NW8       29.75S                  
MERCED         CLEAR     75  43  31 SW6       29.75S                  
LEMOORE        PTCLDY    79  44  28 NE7       29.76S                  
FRESNO         CLEAR     82  47  29 CALM      29.77S                  
HANFORD        CLEAR     71  56  58 NE5       29.76S                  
PORTERVILLE    CLEAR     77  49  37 CALM      29.78S                  
BAKERSFIELD    CLEAR     79  40  24 N7        29.76S                  
$$
CAZ011-012-071-220300-
NORTHERN MOUNTAINS
  
CITY           SKY/WX    TMP DP  RH WIND       PRES   REMARKS
YREKA          MOCLDY    68  45  43 W16       29.80S                  
MOUNT SHASTA   MOCLDY    60  42  51 CALM      29.81F                  
ALTURAS        MOCLDY    62  31  31 SW10      29.80F                  
$$
CAZ011-012-071-220300-
SIERRA NEVADA MTNS
  
CITY           SKY/WX    TMP DP  RH WIND       PRES   REMARKS
BLUE CANYON    PTCLDY    58  33  39 S6        29.99S                  
TRUCKEE        PTCLDY    55  25  30 SW9       29.98S                  
TAHOE VLY ARPT PTCLDY    58  27  30 S8        30.00S                  
$$
  
