ASUS46 KSTO 212315
RWRCA 

NORTHERN AND CENTRAL CA REGIONAL WEATHER ROUNDUP
NATIONAL WEATHER SERVICE SACRAMENTO CA 
400 PM PDT FRI OCT 21 2022

NOTE: FAIR INDICATES FEW OR NO CLOUDS BELOW 12,000 FEET WITH NO
SIGNIFICANT WEATHER AND/OR OBSTRUCTIONS TO VISIBILITY.

CAZ001-003-220000-
NORTHWEST AREA
  
CITY           SKY/WX    TMP DP  RH WIND       PRES   REMARKS
CRESCENT CITY  CLOUDY    59  45  59 NW3       29.95S                  
UKIAH          PTSUNNY   80  48  32 W6G16     29.80S                  
$$

CAZ006-505>513-220000-
BAY AREA
  
CITY           SKY/WX    TMP DP  RH WIND       PRES   REMARKS
SANTA ROSA     PTSUNNY   64  51  62 S15       29.84F                  
SAN RAFAEL     N/A       74  MM  MM MISG
NAPA           SUNNY     68  55  63 S16       29.83F                  
CONCORD        SUNNY     70  49  47 W12       29.83R                  
OAKLAND CITY   N/A       62  MM  MM MISG
OAKLAND        MOSUNNY   62  53  72 NW16G32   29.88R                  
SAN FRAN CITY  N/A       59  MM  79 MISG
SAN FRAN ARPT  MOSUNNY   64  53  67 W20       29.86R                  
LIVERMORE      SUNNY     73  52  47 NW13      29.83R                  
HAYWARD        SUNNY     63  54  72 NW16      29.87R                  
REDWOOD CITY   N/A       68  MM  61 MISG
MOFFETT ARPT   SUNNY     64  54  68 N12       29.86R                  
SAN JOSE ARPT  MOSUNNY   69  53  56 NW15      29.85S                  
$$
CAZ034-037-514>518-220000-
CENTRAL COAST
  
CITY           SKY/WX    TMP DP  RH WIND       PRES   REMARKS
WATSONVILLE    PTSUNNY   59  52  77 SW12      29.90F                  
SALINAS        CLOUDY    61  53  75 NW13      29.89R                  
MONTEREY       PTSUNNY   59  53  80 VRB7      29.91S                  
SAN LUIS OBISP SUNNY     71  55  56 VRB6      29.87S                  
SANTA MARIA    SUNNY     65  56  72 NW8       29.89S                  
HALF MOON BAY  CLOUDY    57  55  94 S6        29.91R FOG              
$$
CAZ015-016-220000-
NORTHERN SACRAMENTO VALLEY
  
CITY           SKY/WX    TMP DP  RH WIND       PRES   REMARKS
REDDING        PTSUNNY   83  41  22 S10       29.74F                  
RED BLUFF      PTSUNNY   83  43  24 S9        29.76F                  
OROVILLE       PTSUNNY   85  45  24 SE16      29.76F                  
$$
CAZ016>018-220000-
SOUTHERN SACRAMENTO VALLEY
  
CITY           SKY/WX    TMP DP  RH WIND       PRES   REMARKS
AUBURN         SUNNY     81  45  28 SW8       29.84F                  
BEALE AFB      MOSUNNY   84  45  24 SE13      29.75F                  
LINCOLN        FAIR      82  43  24 S8        29.77F                  
MARYSVILLE     MOSUNNY   85  46  25 SE15      29.75F                  
SAC INTL ARPT  PTSUNNY   82  41  23 S14       29.76F                  
MATHER AIRPORT MOSUNNY   82  50  32 W9        29.77F                  
DOWNTOWN SAC   N/A       81  MM  MM MISG
SAC EXEC ARPT  SUNNY     79  49  34 S8        29.79F                  
VACAVILLE      SUNNY     82  47  29 S10G20    29.77F                  
TRAVIS AFB     SUNNY     74  52  46 SW23      29.77F                  
$$
CAZ019>021-220000-
SAN JOAQUIN VALLEY
  
CITY           SKY/WX    TMP DP  RH WIND       PRES   REMARKS
STOCKTON       SUNNY     86  51  29 NW8       29.79R                  
MODESTO        SUNNY     85  38  18 SW5       29.76F                  
MERCED         SUNNY     89  40  17 CALM      29.76F                  
LEMOORE        SUNNY     92  44  19 E7        29.77F                  
FRESNO         SUNNY     89  44  20 NW6       29.79S                  
HANFORD        SUNNY     89  47  23 CALM      29.78F                  
PORTERVILLE    SUNNY     90  44  20 NW7       29.79F                  
BAKERSFIELD    SUNNY     89  40  17 W6        29.77F                  
$$
CAZ011-012-071-220000-
NORTHERN MOUNTAINS
  
CITY           SKY/WX    TMP DP  RH WIND       PRES   REMARKS
YREKA          PTSUNNY   73  44  35 N9        29.84F                  
MOUNT SHASTA   PTSUNNY   72  37  28 CALM      29.85F                  
$$
CAZ011-012-071-220000-
SIERRA NEVADA MTNS
  
CITY           SKY/WX    TMP DP  RH WIND       PRES   REMARKS
BLUE CANYON    SUNNY     68  32  26 SW8       30.02F                  
TRUCKEE        SUNNY     66  23  19 SW15G22   30.02S                  
TAHOE VLY ARPT SUNNY     65  23  20 S14G23    30.03R                  
MAMMOTH LAKES  FAIR      66  16  14 W14G23    30.07S                  
$$
  
