ASUS46 KSGX 220110
RWRSGX

SAN DIEGO HOURLY WEATHER ROUNDUP
NATIONAL WEATHER SERVICE SAN DIEGO CA
600 PM PDT FRI OCT 21 2022

NOTE: "FAIR" INDICATES FEW OR NO CLOUDS BELOW 12,000 FEET WITH NO 
SIGNIFICANT WEATHER AND/OR OBSTRUCTIONS TO VISIBILITY.

CAZ042-043-060-061-PZZ750-775-220200-

GREATER SAN DIEGO AREA
  
CITY           SKY/WX    TMP DP  RH WIND       PRES   REMARKS
SAN DIEGO AP   MOCLDY    71  61  70 S6        29.86F                  
BROWN FIELD    PTCLDY    67  59  75 W7        29.86S                  
MIRAMAR MCAS   PTCLDY    67  61  81 SW7       29.86R                  
MONTGOMERY FLD PTCLDY    68  61  78 SW8       29.86S                  
GILLESPIE FLD  CLEAR     70  61  73 SW9       29.86R                  
LEMON GROVE      N/A     67  62  82 W2        29.83S                  

$$

NORTH SAN DIEGO COUNTY
  
CITY           SKY/WX    TMP DP  RH WIND       PRES   REMARKS
CAMP PENDLETON CLEAR     70  63  78 SW5       29.85R                  
OCEANSIDE AP   MOCLDY    70  62  76 SW7       29.84S                  
OCEANSIDE HBR    N/A     70  65  84 CALM      29.91S                  
VISTA            N/A     69  63  80 SW1       29.82S                  
CARLSBAD       CLOUDY    69  62  78 SW9       29.84S                  
ENCINITAS        N/A     68  64  86 CALM        N/A                   
LA JOLLA SCRIP   N/A     68  62  80 CALM      29.85R                  
FALLBROOK      FAIR      66  63  88 SW6       29.86S                  
ESCONDIDO        N/A     72  62  71 SW1       29.84R                  
SAN MARCOS       N/A     68  63  82 W3        29.87S                  
RANCHO BERNARD   N/A     69  62  78 W3        29.84R                  
POWAY            N/A     71  62  72 W5        29.86R                  

$$

EAST SAN DIEGO COUNTY
  
CITY           SKY/WX    TMP DP  RH WIND       PRES   REMARKS
RAMONA         CLEAR     69  60  73 W8        29.87R                  
SANTEE           N/A     72  62  71 CALM      29.80S                  
LA MESA          N/A     67  61  81 SW1       29.80R                  
EL CAJON         N/A     70  62  76 NE3       29.73R                  
ALPINE           N/A     69  60  73 CALM      30.01R                  
DESCANSO N       N/A     66  56  70 S3        29.84S                  

$$

ORANGE COUNTY AND THE LOS ANGELES BASIN
  
CITY           SKY/WX    TMP DP  RH WIND       PRES   REMARKS
JOHN WAYNE AP  PTCLDY    71  61  70 S10       29.83F                  
LAGUNA BEACH     N/A     70  65  84 CALM      29.83S                  
LAKE FOREST FR   N/A     72  60  67 W2        29.70S                  
SANTA ANA        N/A     70  64  81 CALM      29.82S                  
HUNTINGTON BCH   N/A     68  64  87 CALM      29.83S                  
LOS ALAMITOS   MOCLDY    68  64  88 SW7       29.81S                  
FULLERTON      CLEAR     71  62  73 SW7       29.82S                  
LONG BEACH     CLEAR     71  62  73 S7        29.83F                  
L.A. AP        MOCLDY    67  62  84 W12       29.84S                  
L.A. DOWNTOWN  CLEAR     69  63  81 W3        29.84S                  

$$

THE INLAND EMPIRE
  
CITY           SKY/WX    TMP DP  RH WIND       PRES   REMARKS
CORONA         CLEAR     74  63  68 W13       29.82S                  
UPLAND AP      FAIR      75  55  50 W10       29.84F                  
CHINO          CLEAR     75  59  57 SW12      29.83S                  
ONTARIO        CLEAR     75  59  57 SW12      29.83S                  
SAN BERNARDINO CLEAR     81  46  30 W7        29.84R HAZE             
RIVERSIDE AP   CLEAR     76  56  49 W8        29.83R                  
MORENO VALLEY    N/A     79  57  46 W5        29.79S                  
MARCH ARB      CLEAR     76  52  42 NW7       29.84F                  
HORSETHIEF CYN   N/A     77  54  45 NW2       29.78F                  
PERRIS           N/A     78  49  36 NW3       29.85S                  
LAKE ELSINORE    N/A     78  58  48 CALM      29.73S                  
HEMET AP       FAIR      75  58  55 SW13      29.85R                  
FRENCH VALLEY  FAIR      72  59  64 SW7       29.86R                  
TEMECULA         N/A     74  63  69 CALM      29.87S                  

$$

SAN BERNARDINO AND RIVERSIDE COUNTY MOUNTAINS
  
CITY           SKY/WX    TMP DP  RH WIND       PRES   REMARKS
BIG BEAR AP    PTCLDY    55  37  50 W7        30.09F                  
BIG BEAR LAKE    N/A     58  39  49 SW2       29.89F                  
WRIGHTWOOD       N/A     59  37  44 CALM      29.91S                  
ANGELUS OAKS     N/A     58  42  54 CALM      29.77F                  
IDYLLWILD        N/A     65  42  43 CALM      29.77R                  
TORO PEAK        N/A     47  32  57 SW16        N/A                   

$$

SOUTHERN DESERT INCLUDING THE COACHELLA VALLEY
  
CITY           SKY/WX    TMP DP  RH WIND       PRES   REMARKS
PALM SPRINGS   CLEAR     89  44  20 E7        29.76S                  
THOUSAND PALMS   N/A     89  47  23 SE6       29.69S                  
INDIO            N/A     87  49  26 CALM      29.72S                  
THERMAL        CLEAR     83  52  34 SE7       29.71F                  
BORREGO AP     FAIR      86  45  23 SE5       29.75S                  
OCOTILLO WELLS   N/A     91  42  17 E6        29.70F                  
CANEBRAKE        N/A     83  44  24 SE2       29.68F                  
BLYTHE         CLEAR     88  47  24 SE6       29.74F                  
IMPERIAL AP    CLEAR     90  43  19 SE5       29.72F                  
EL CENTRO NAS  CLEAR     90  47  22 SE6       29.74F                  
YUMA AZ        CLEAR     88  50  27 SW5       29.75S                  

$$

UPPER DESERT
  
CITY           SKY/WX    TMP DP  RH WIND       PRES   REMARKS
VICTORVILLE AP   N/A     77  43  29 S15       29.89                   
HESPERIA         N/A     72  48  42 S12       29.59S                  
APPLE VALLEY     N/A     74  50  42 NW6       29.83S                  
PALMDALE       CLEAR     76  47  35 SW16      29.86S                  
LANCASTER      CLEAR     78  44  29 SW15G24   29.86R                  
EDWARDS AFB    CLEAR     79  43  27 SW18      29.82R                  
DAGGETT        CLEAR     84  29  13 E3        29.80F                  
29 PALMS N     CLEAR     81  34  18 SE10      29.88F                  
29 PALMS JTNP    N/A     82  38  20 CALM      29.70S                  
NEEDLES        CLEAR     88  41  19 SW10      29.76F                  

$$

REGIONAL REPORTS
  
CITY           SKY/WX    TMP DP  RH WIND       PRES   REMARKS
SANDBERG       CLEAR     66  41  40 MISG      29.99F                  
LAS VEGAS NV   PTCLDY    83  31  15 S8        29.79F                  
PHOENIX AZ     PTCLDY    86  47  25 W9        29.78S                  
TIJUANA        CLEAR     70  61  73 SW8       29.88S                  
ENSENADA NW      N/A     69  32  25 S1        29.82S                  

$$

OFFSHORE ISLANDS
  
CITY           SKY/WX    TMP DP  RH WIND       PRES   REMARKS
CATALINA ARPT  CLEAR     65  56  72 CALM      29.88F                  
SAN CLEMENTE I MOCLDY    62  32  32 W9        29.87S                  
SAN NICOLAS IS MOCLDY    60  55  83 NW12      29.86S                  

$$

MARINE AND OFFSHORE BUOY REPORTS
  
STATION/POSITION SKY/WX   TEMP    WIND        PRES    VSBY  SWELL
                          AIR SEA DIR/SP/G                  HT/PER/DIR
                          (F)     (DEG/KT/KT) (MB)    (MI)  (FT/S/D)
TANNER BANKS               62     300/ 12/ 16 1010.5R         7/300/13
S CLEMENTE BASIN           65 70  260/ 10/ 14 1010.1S         5/290/13
SAN NICOLAS IS.               67                N/A           5/300/14
SO. S. ROSA ISLA           61 67  300/ 14/ 19 1010.9S         5/290/14
W. S. BARBARA CH           58 60  310/ 16/ 17 1011.1S         5/290/12
M. S. BARBARA CH           62 64  280/ 12/ 16 1010.3F         3/270/12
S. MONICA BASIN            65 69  260/  4/  6 1010.9F         3/190/13
S PEDRO CHANNEL               67                N/A           2/220/13
OCEANSIDE OFFSHR              71                N/A           3/220/13
TORREY PINES OTR              71                N/A           3/240/13
SAN DIEGO BAY                 69              1010.7F
POINT LOMA SOUTH              70                N/A           3/250/13

$$

  
