ASUS46 KSTO 220009
RWRCA 

NORTHERN AND CENTRAL CA REGIONAL WEATHER ROUNDUP
NATIONAL WEATHER SERVICE SACRAMENTO CA 
500 PM PDT FRI OCT 21 2022

NOTE: FAIR INDICATES FEW OR NO CLOUDS BELOW 12,000 FEET WITH NO
SIGNIFICANT WEATHER AND/OR OBSTRUCTIONS TO VISIBILITY.

CAZ001-003-220100-
NORTHWEST AREA
  
CITY           SKY/WX    TMP DP  RH WIND       PRES   REMARKS
CRESCENT CITY  CLOUDY    60  48  64 E5        29.93F                  
ARCATA         NOT AVBL                                               
SHELTER COVE   NOT AVBL                                               
UKIAH          PTSUNNY   77  47  34 W6        29.80S                  
$$

CAZ006-505>513-220100-
BAY AREA
  
CITY           SKY/WX    TMP DP  RH WIND       PRES   REMARKS
SANTA ROSA     PTSUNNY   61  52  72 S12       29.84S                  
SAN RAFAEL     N/A       74  MM  MM MISG
NAPA           MOSUNNY   64  55  72 SW18      29.83S                  
CONCORD        MOSUNNY   69  50  50 SW12      29.81F                  
OAKLAND CITY   N/A       62  MM  MM MISG
OAKLAND        MOSUNNY   62  53  72 W13       29.86F                  
SAN FRAN CITY  N/A       59  MM  78 MISG
SAN FRAN ARPT  MOSUNNY   63  53  70 W15       29.84F                  
LIVERMORE      SUNNY     68  51  54 NW13      29.82F                  
HAYWARD        SUNNY     63  54  72 W9        29.85F                  
REDWOOD CITY   N/A       68  MM  61 MISG
MOFFETT ARPT   SUNNY     64  55  72 N9        29.85F                  
SAN JOSE ARPT  MOSUNNY   67  53  61 NW9       29.85S                  
$$
CAZ034-037-514>518-220100-
CENTRAL COAST
  
CITY           SKY/WX    TMP DP  RH WIND       PRES   REMARKS
WATSONVILLE    MOSUNNY   56  52  86 W8        29.90S                  
SALINAS        CLOUDY    61  53  75 NW10      29.90R                  
MONTEREY       PTSUNNY   58  52  80 W9        29.91S                  
PT PIEDRAS BLS NOT AVBL                                               
SAN LUIS OBISP SUNNY     66  55  67 NW13      29.88R                  
SANTA MARIA    SUNNY     62  56  80 NW9       29.89S                  
HALF MOON BAY  CLOUDY    57  55  94 VRB7      29.89S FOG              
$$
CAZ015-016-220100-
NORTHERN SACRAMENTO VALLEY
  
CITY           SKY/WX    TMP DP  RH WIND       PRES   REMARKS
REDDING        PTSUNNY   82  42  24 S12       29.72F                  
RED BLUFF      PTSUNNY   82  44  26 S10       29.74F                  
OROVILLE       PTSUNNY   83  45  26 S12       29.75F                  
$$
CAZ016>018-220100-
SOUTHERN SACRAMENTO VALLEY
  
CITY           SKY/WX    TMP DP  RH WIND       PRES   REMARKS
AUBURN         SUNNY     79  43  27 S8        29.83F                  
BEALE AFB      PTSUNNY   83  44  25 S12       29.73F                  
LINCOLN        FAIR      82  45  26 S12       29.75F                  
MARYSVILLE     PTSUNNY   82  45  27 S14       29.75S                  
SAC INTL ARPT  PTSUNNY   80  43  26 S16G24    29.75F                  
MATHER AIRPORT SUNNY     81  48  32 SW10      29.76F                  
DOWNTOWN SAC   N/A       80  MM  MM MISG
SAC EXEC ARPT  MOSUNNY   77  46  33 S10       29.76F                  
VACAVILLE      MOSUNNY   76  52  43 S12G23    29.76F                  
TRAVIS AFB     MOSUNNY   69  52  53 SW24G30   29.77S                  
$$
CAZ019>021-220100-
SAN JOAQUIN VALLEY
  
CITY           SKY/WX    TMP DP  RH WIND       PRES   REMARKS
STOCKTON       SUNNY     80  53  39 NW10      29.78F                  
MODESTO        SUNNY     84  46  26 NW10      29.76S                  
MERCED         SUNNY     90  40  17 N3        29.76S                  
LEMOORE        SUNNY     91  45  20 E6        29.76F                  
FRESNO         SUNNY     89  41  18 CALM      29.77F                  
HANFORD        MOSUNNY   88  50  27 CALM      29.77F                  
PORTERVILLE    SUNNY     89  46  22 NW5       29.79S                  
BAKERSFIELD    SUNNY     89  39  17 NW7       29.76F                  
$$
CAZ011-012-071-220100-
NORTHERN MOUNTAINS
  
CITY           SKY/WX    TMP DP  RH WIND       PRES   REMARKS
YREKA          PTSUNNY   72  40  31 NW18G24   29.82F                  
MOUNT SHASTA   PTSUNNY   67  38  34 CALM      29.84F                  
ALTURAS        NOT AVBL                                               
$$
CAZ011-012-071-220100-
SIERRA NEVADA MTNS
  
CITY           SKY/WX    TMP DP  RH WIND       PRES   REMARKS
BLUE CANYON    MOSUNNY   64  31  28 SW8       30.02S                  
TRUCKEE        SUNNY     64  25  22 MISG      30.00F                  
TAHOE VLY ARPT MOSUNNY   63  21  20 S7        30.02F                  
MAMMOTH LAKES  FAIR      63  19  19 W20G25    30.07S                  
$$
  
