ASMX46 KSGX 220210
RWRMX 

MEXICAN WEATHER ROUNDUP
NATIONAL WEATHER SERVICE SAN DIEGO CA
700 PM PDT FRI OCT 21 2022

BAJA CALIFORNIA
  
CITY           SKY/WX    TMP DP  RH WIND       PRES   REMARKS
ENSENADA NW      N/A     67  32  27 W2        29.82S                  
LA PAZ         PTCLDY    82  63  51 S9        29.85R                  
MEXICALI       CLEAR     82  45  26 E5        29.75S                  
S.J. DEL CABO  CLEAR     81  68  65 N2        29.85R                  
TIJUANA        CLEAR     66  61  82 SW6       29.90R                  

NORTHWESTERN MEXICO
  
CITY           SKY/WX    TMP DP  RH WIND       PRES   REMARKS
CHIHUAHUA      PTCLDY    68  46  45 S5        30.07R                  
CULIACAN       CLEAR     82  70  65 W2        29.80R                  
GUAYMAS        CLEAR     86  75  70 S7        29.76R HX  95           
HERMOSILLO     CLEAR     84  63  48 SW5       29.84                   
JUAREZ         CLEAR     73  48  40 CALM      29.98R                  
LOS MOCHIS     PTCLDY    82  70  65 W10       29.80R                  
OBREGON        CLEAR     82  63  51 CALM      29.78R                  

NORTHEASTERN MEXICO
  
CITY           SKY/WX    TMP DP  RH WIND       PRES   REMARKS
MONTERREY      CLEAR     72  57  60 SE7       29.96R                  
REYNOSA        CLEAR     73  61  64 S14       29.98R                  
SALTILLO       CLEAR     64  46  52 CALM      30.14S                  
TORREON        CLEAR     75  41  29 CALM      30.06R                  

WESTERN MEXICO
  
CITY           SKY/WX    TMP DP  RH WIND       PRES   REMARKS
AGUASCALIENTES PTCLDY    64  30  27 NE3       30.20R                  
COLIMA         MOCLDY    73  72  94 CALM      30.00R                  
DURANGO        CLEAR     63  39  42 NE5       30.20R                  
GUADALAJARA    CLOUDY    70  52  52 SE6       30.13R                  
MANZANILLO     MOCLDY    81  77  89 CALM      29.91R                  
MAZATLAN       PTCLDY    79  77  94 CALM      29.82R                  
PTO. VALLARTA  CLOUDY    84  75  74 SW7       29.84R                  
TEPIC          MOCLDY    73  68  83 CALM      30.00R                  
ZACATECAS      PTCLDY    63  34  34 MISG      30.24R                  

CENTRAL MEXICO
  
CITY           SKY/WX    TMP DP  RH WIND       PRES   REMARKS
LEON           CLOUDY    64  50  59 CALM      30.24R                  
MEXICO CITY    CLOUDY    63  52  67 SW6       30.31R                  
MORELIA        CLOUDY    64  55  72 SW6       30.21R                  
PUEBLA         MOCLDY    61  55  82 SE6       30.30R                  
QUERETARO      CLOUDY    64  45  48 CALM      30.27R                  
S. LUIS POTOSI PTCLDY    59  45  58 CALM      30.20R                  
TAMPICO        MOCLDY    75  66  73 SE9       30.01R                  
TOLUCA         CLOUDY    57  54  88 E3        30.37R                  
VERACRUZ       CLOUDY    73  68  83 CALM      30.02R                  

SOUTHERN MEXICO
  
CITY           SKY/WX    TMP DP  RH WIND       PRES   REMARKS
ACAPULCO       MOCLDY    79  75  89 CALM      29.89R                  
OAXACA         MOCLDY    64  57  77 W7        30.19R                  
PTO. ESCONDIDO CLEAR     81  64  57 CALM      29.91                   
TAPACHULA      MOCLDY    75  75 100 CALM      29.87R                  
TUX. GUTIERREZ MOCLDY    73  64  73 NW9       30.02R                  
VILLAHERMOSA   PTCLDY    73  68  83 CALM      30.03R                  
ZIHUATANEJO    CLOUDY    79  73  83 CALM      29.90R                  

YUCATAN PENINSULA
  
CITY           SKY/WX    TMP DP  RH WIND       PRES   REMARKS
CAMPECHE       PTCLDY    75  66  73 NE7       30.02R                  
CANCUN         PTCLDY    70  70 100 CALM      30.02R                  
C. DEL CARMEN  PTCLDY    79  66  65 NE10      30.02R                  
COZUMEL        PTCLDY    75  61  60 NE5       30.00R                  
MERIDA         PTCLDY    73  66  78 NE6       30.02R                  

$$

  
