SPCA35 KWBC 220031
SPECI
MPDA 220020Z 29003KT 2500 +TSRA SCT004 SCT012CB 25/24 Q1011=
