ASUS43 KOAX 231803
RWRNE 

WEATHER ROUNDUP FOR NEBRASKA
NATIONAL WEATHER SERVICE OMAHA NE
100 PM CDT SUN OCT 23 2022

NOTES: SATELLITE DATA IS BEING USED TO AUGMENT CLOUD COVER ABOVE
       12000 FEET.
       "FAIR" INDICATES FEW OR NO CLOUDS BELOW 12,000 FEET WITH NO
       SIGNIFICANT WEATHER AND/OR OBSTRUCTIONS TO VISIBILITY.

   
NEZ001>004-019>022-054>056-231900-
NEBRASKA PANHANDLE
  
CITY           SKY/WX    TMP DP  RH WIND       PRES   REMARKS
SCOTTSBLUFF    PTSUNNY   59  35  40 NW25G38   29.31R                  
6HR MIN TEMP:  42; 6HR MAX TEMP:  61;                                

ALLIANCE       PTSUNNY   58  37  45 NW20G26   29.27R                  
6HR MIN TEMP:  32; 6HR MAX TEMP:  60;                                

CHADRON        PTSUNNY   54  37  52 NW21G32   29.30R                  
6HR MIN TEMP:  36; 6HR MAX TEMP:  59;                                

GORDON         SUNNY     52  34  50 NW15G21   29.23F                  
6HR MIN TEMP:  30; 6HR MAX TEMP:  52;                                

KIMBALL        MOSUNNY   59  32  35 NW22G31   29.32R                  
SIDNEY         MOSUNNY   64  31  28 N23G32    29.28R                  
6HR MIN TEMP:  41; 6HR MAX TEMP:  66;                                

$$
 
NEZ057>060-069>072-079>082-231900-
SOUTHWEST NEBRASKA
  
CITY           SKY/WX    TMP DP  RH WIND       PRES   REMARKS
NORTH PLATTE   MOSUNNY   83  31  15 SW26G40   29.20S                  
6HR MIN TEMP:  40; 6HR MAX TEMP:  83;                                

IMPERIAL       MOSUNNY   80  28  15 SW33G53   29.22S                  
6HR MIN TEMP:  35; 6HR MAX TEMP:  80;                                

LEXINGTON      SUNNY     85  37  18 SW28G40   29.24F                  
MCCOOK         SUNNY     84  37  18 SW43G59   29.24F HAZE             
6HR MIN TEMP:  56; 6HR MAX TEMP:  84;                                

OGALLALA       SUNNY     78  32  18 W7G16     29.21F                  
$$
 
NEZ005>010-023>029-035>040-094-231900-
NORTH CENTRAL NEBRASKA
  
CITY           SKY/WX    TMP DP  RH WIND       PRES   REMARKS
VALENTINE      SUNNY     67  32  27 S13       29.18S                  
6HR MIN TEMP:  35; 6HR MAX TEMP:  68;                                

AINSWORTH      SUNNY     76  32  20 S16       29.17F                  
BROKEN BOW     MOSUNNY   83  37  19 S33G46    29.22F                  
6HR MIN TEMP:  34; 6HR MAX TEMP:  83;                                

O'NEILL        SUNNY     78  39  24 S25G31    29.22F                  
ORD            SUNNY     82  45  27 S17G28    29.23F                  
6HR MIN TEMP:  48; 6HR MAX TEMP:  82;                                

THEDFORD       SUNNY     77  36  22 S21G35    29.19F                  
$$
 
NEZ041-046>049-061>064-073>077-083>087-231900-
SOUTH CENTRAL NEBRASKA
  
CITY           SKY/WX    TMP DP  RH WIND       PRES   REMARKS
GRAND ISLAND   SUNNY     84  51  31 S29G43    29.29F                  
6HR MIN TEMP:  55; 6HR MAX TEMP:  84;                                

AURORA         SUNNY     83  53  35 S25G33    29.30F                  
HASTINGS       SUNNY     84  52  33 S23G41    29.31F                  
6HR MIN TEMP:  53; 6HR MAX TEMP:  84; 6HR PCP: TRACE;                

HEBRON         SUNNY     84  52  33 S26G38    29.38S                  
HOLDREGE       SUNNY     83  48  29 S20G37    29.28F                  
KEARNEY        SUNNY     83  52  34 S29G39    29.27F                  
YORK           SUNNY     82  54  36 S23G33    29.32F                  
$$
 
NEZ011>018-030>034-042>045-231900-
NORTHEAST NEBRASKA
  
CITY           SKY/WX    TMP DP  RH WIND       PRES   REMARKS
NORFOLK        SUNNY     81  51  35 S29G40    29.30F                  
6HR MIN TEMP:  57; 6HR MAX TEMP:  82;                                

ALBION         SUNNY     79  49  34 S23G30    29.29F                  
BLAIR          SUNNY     81  55  41 S22G33    29.39F                  
COLUMBUS       SUNNY     82  54  37 S24G36    29.32F                  
FREMONT        SUNNY     81  56  42 S14G29    29.37F                  
TEKAMAH        SUNNY     84  55  36 S28G38    29.36F                  
6HR MIN TEMP:  60; 6HR MAX TEMP:  84;                                

WAYNE          SUNNY     80  53  38 S24G33    29.32F                  
$$

NEZ050>053-065>068-078-088>093-231900-
SOUTHEAST NEBRASKA
  
CITY           SKY/WX    TMP DP  RH WIND       PRES   REMARKS
LINCOLN        MOSUNNY   85  55  35 S32G40    29.36F                  
6HR MIN TEMP:  62; 6HR MAX TEMP:  85;                                

OMAHA EPPLEY   PTSUNNY   82  56  40 S23G37    29.40F                  
6HR MIN TEMP:  62; 6HR MAX TEMP:  82;                                

BEATRICE       SUNNY     84  55  37 S24G35    29.40F                  
FALLS CITY     PTSUNNY   83  58  42 S24G43    29.48F                  
6HR MIN TEMP:  63; 6HR MAX TEMP:  83;                                

NEBRASKA CITY  MOSUNNY   83  55  38 S30G37    29.44F                  
PLATTSMOUTH    SUNNY     81  55  40 S26G35    29.43F                  
$$

NEZ044-045-051>053-067-231900-
OMAHA AREA
  
CITY           SKY/WX    TMP DP  RH WIND       PRES   REMARKS
OMAHA EPPLEY   PTSUNNY   82  56  40 S23G37    29.40F                  
6HR MIN TEMP:  62; 6HR MAX TEMP:  82;                                

BLAIR          SUNNY     81  55  41 S22G33    29.39F                  
FREMONT        SUNNY     81  56  42 S14G29    29.37F                  
MILLARD        SUNNY     81  55  40 S17G30    29.40F                  
OFFUTT AFB     MOSUNNY   83  54  36 S25G37    29.42F                  
PLATTSMOUTH    SUNNY     81  55  40 S26G35    29.43F                  
WAHOO          MOSUNNY   83  54  36 S26G36    29.37F                  
$$
  
