ASUS43 KOAX 232110
RWRNE 

WEATHER ROUNDUP FOR NEBRASKA
NATIONAL WEATHER SERVICE OMAHA NE
400 PM CDT SUN OCT 23 2022

NOTES: SATELLITE DATA IS BEING USED TO AUGMENT CLOUD COVER ABOVE
       12000 FEET.
       "FAIR" INDICATES FEW OR NO CLOUDS BELOW 12,000 FEET WITH NO
       SIGNIFICANT WEATHER AND/OR OBSTRUCTIONS TO VISIBILITY.

   
NEZ001>004-019>022-054>056-232200-
NEBRASKA PANHANDLE
  
CITY           SKY/WX    TMP DP  RH WIND       PRES   REMARKS
SCOTTSBLUFF    MOSUNNY   53  34  48 W24G36    29.39R                  
ALLIANCE       MOSUNNY   56  38  50 N20G31    29.36R                  
CHADRON        PTSUNNY   50  35  56 W23G31    29.40R                  
GORDON         SUNNY     57  34  42 N14G21    29.32R                  
KIMBALL        PTSUNNY   52  33  48 NW23G31   29.41R                  
SIDNEY         MOSUNNY   62  35  36 NW26G32   29.34R                  
$$
 
NEZ057>060-069>072-079>082-232200-
SOUTHWEST NEBRASKA
  
CITY           SKY/WX    TMP DP  RH WIND       PRES   REMARKS
NORTH PLATTE   SUNNY     78  30  17 NW20G32   29.19R                  
IMPERIAL       MOSUNNY   71  27  19 NW23G31   29.25R                  
LEXINGTON      MOSUNNY   87  34  15 SW29G40   29.22R                  
MCCOOK         CLOUDY    85  27  12 SW26G45   29.22S HAZE             
OGALLALA       MOSUNNY   70  37  30 N26G33    29.27R                  
$$
 
NEZ005>010-023>029-035>040-094-232200-
NORTH CENTRAL NEBRASKA
  
CITY           SKY/WX    TMP DP  RH WIND       PRES   REMARKS
VALENTINE      SUNNY     65  34  31 W22G31    29.23R                  
AINSWORTH      SUNNY     76  26  15 W25G37    29.19R                  
BROKEN BOW     CLOUDY    85  30  13 S25G45    29.19R                  
O'NEILL        MOSUNNY   86  41  20 S28G35    29.16F                  
ORD            PTSUNNY   88  40  18 S26G39    29.17S                  
THEDFORD       SUNNY     73  31  21 W20G30    29.23R                  
$$
 
NEZ041-046>049-061>064-073>077-083>087-232200-
SOUTH CENTRAL NEBRASKA
  
CITY           SKY/WX    TMP DP  RH WIND       PRES   REMARKS
GRAND ISLAND   PTSUNNY   87  47  24 S23G38    29.24S                  
AURORA         MOSUNNY   85  50  29 S28G35    29.26R                  
HASTINGS       MOSUNNY   85  49  28 S26G47    29.26S                  
HEBRON         PTSUNNY   84  52  32 S30G36    29.32F                  
HOLDREGE       CLOUDY    87  36  16 SW32G41   29.22S                  
KEARNEY        HVY RAIN  82  45  27 S24G37    29.23R                  
YORK           SUNNY     82  52  34 S32G45    29.28R                  
$$
 
NEZ011>018-030>034-042>045-232200-
NORTHEAST NEBRASKA
  
CITY           SKY/WX    TMP DP  RH WIND       PRES   REMARKS
NORFOLK        CLOUDY    89  49  25 S29G47    29.22F                  
ALBION         MOSUNNY   87  44  22 S32G39    29.21S                  
BLAIR          MOSUNNY   85  55  34 S23G43    29.33F                  
COLUMBUS       MOSUNNY   86  53  32 S28G40    29.25F                  
FREMONT        MOSUNNY   85  56  36 S20G36    29.32R HAZE             
TEKAMAH        MOSUNNY   87  55  33 S33G48    29.30                   
WAYNE          MOSUNNY   88  52  28 S25G36    29.25F                  
$$

NEZ050>053-065>068-078-088>093-232200-
SOUTHEAST NEBRASKA
  
CITY           SKY/WX    TMP DP  RH WIND       PRES   REMARKS
LINCOLN        CLOUDY    85  55  35 S31G49    29.32S                  
OMAHA EPPLEY   PTSUNNY   85  57  38 S32G49    29.33F                  
BEATRICE       SUNNY     84  56  37 S23G41    29.36F                  
FALLS CITY     SUNNY     81  61  50 S26G45    29.44F                  
NEBRASKA CITY  MOSUNNY   82  57  42 S36G43    29.40S                  
PLATTSMOUTH    MOSUNNY   83  55  39 S32G44    29.37F                  
$$

NEZ044-045-051>053-067-232200-
OMAHA AREA
  
CITY           SKY/WX    TMP DP  RH WIND       PRES   REMARKS
OMAHA EPPLEY   PTSUNNY   85  57  38 S32G49    29.33F                  
BLAIR          MOSUNNY   85  55  34 S23G43    29.33F                  
FREMONT        MOSUNNY   85  56  36 S20G36    29.32R HAZE             
MILLARD        MOSUNNY   85  55  36 S23G37    29.33S                  
OFFUTT AFB     PTSUNNY   87  54  32 S29G45    29.36S                  
PLATTSMOUTH    MOSUNNY   83  55  39 S32G44    29.37F                  
WAHOO          MOSUNNY   86  52  31 S29G37    29.32S HAZE             
$$
  
