ASUS43 KOAX 231703
RWRNE 

WEATHER ROUNDUP FOR NEBRASKA
NATIONAL WEATHER SERVICE OMAHA NE
1200 PM CDT SUN OCT 23 2022

NOTES: SATELLITE DATA IS BEING USED TO AUGMENT CLOUD COVER ABOVE
       12000 FEET.
       "FAIR" INDICATES FEW OR NO CLOUDS BELOW 12,000 FEET WITH NO
       SIGNIFICANT WEATHER AND/OR OBSTRUCTIONS TO VISIBILITY.

   
NEZ001>004-019>022-054>056-231800-
NEBRASKA PANHANDLE
  
CITY           SKY/WX    TMP DP  RH WIND       PRES   REMARKS
SCOTTSBLUFF    PTSUNNY   58  35  42 W25G35    29.30R                  
ALLIANCE       PTSUNNY   58  34  40 NW17G28   29.25F                  
CHADRON        MOSUNNY   56  37  49 NW14G28   29.28R                  
GORDON         MOSUNNY   49  33  54 NW16G23   29.24R                  
KIMBALL        MOSUNNY   59  33  38 NW25G32   29.31R                  
SIDNEY         PTSUNNY   64  29  26 N12       29.26R                  
$$
 
NEZ057>060-069>072-079>082-231800-
SOUTHWEST NEBRASKA
  
CITY           SKY/WX    TMP DP  RH WIND       PRES   REMARKS
NORTH PLATTE   SUNNY     81  34  18 SW23G37   29.20F                  
IMPERIAL       PTSUNNY   78  31  17 SW33G51   29.22S                  
LEXINGTON      SUNNY     80  45  29 S22G28    29.26S                  
MCCOOK         SUNNY     82  38  20 SW39G54   29.25F HAZE             
OGALLALA       SUNNY     75  32  20 SW12G20   29.22S                  
$$
 
NEZ005>010-023>029-035>040-094-231800-
NORTH CENTRAL NEBRASKA
  
CITY           SKY/WX    TMP DP  RH WIND       PRES   REMARKS
VALENTINE      MOSUNNY   64  30  27 S13       29.18F                  
AINSWORTH      SUNNY     69  33  26 S16       29.20S                  
BROKEN BOW     SUNNY     75  41  29 S24G31    29.24F                  
O'NEILL        SUNNY     73  41  31 S25       29.24F                  
ORD            SUNNY     74  44  34 S18G30    29.26F                  
THEDFORD       SUNNY     73  36  25 S20G28    29.19F                  
$$
 
NEZ041-046>049-061>064-073>077-083>087-231800-
SOUTH CENTRAL NEBRASKA
  
CITY           SKY/WX    TMP DP  RH WIND       PRES   REMARKS
GRAND ISLAND   SUNNY     79  50  36 S23G35    29.31F                  
AURORA         SUNNY     77  52  41 S21G29    29.34S                  
HASTINGS       LGT RAIN  78  51  38 S21G40    29.33F                  
HEBRON         SUNNY     81  53  37 S29G38    29.39S                  
HOLDREGE       SUNNY     77  49  37 S23G29    29.29F                  
KEARNEY        SUNNY     78  51  38 S26G38    29.29F                  
YORK           SUNNY     79  54  41 S26G36    29.35S                  
$$
 
NEZ011>018-030>034-042>045-231800-
NORTHEAST NEBRASKA
  
CITY           SKY/WX    TMP DP  RH WIND       PRES   REMARKS
NORFOLK        SUNNY     77  52  41 S22G33    29.32F                  
ALBION         SUNNY     75  48  38 S17G29    29.31F                  
BLAIR          SUNNY     78  55  46 S24G35    29.41S                  
COLUMBUS       SUNNY     78  54  43 S23G32    29.34F                  
FREMONT        SUNNY     79  56  45 S17G28    29.38F                  
TEKAMAH        SUNNY     80  56  43 S29G39    29.38F                  
WAYNE          SUNNY     75  54  48 S28G35    29.34F                  
$$

NEZ050>053-065>068-078-088>093-231800-
SOUTHEAST NEBRASKA
  
CITY           SKY/WX    TMP DP  RH WIND       PRES   REMARKS
LINCOLN        SUNNY     82  55  39 S30G41    29.38F                  
OMAHA EPPLEY   MOSUNNY   79  56  45 S23G32    29.41F                  
BEATRICE       MOSUNNY   81  55  41 S26G37    29.41F                  
FALLS CITY     MOSUNNY   80  57  45 S22G38    29.49F                  
NEBRASKA CITY  MOSUNNY   80  55  41 S31G37    29.45F                  
PLATTSMOUTH    SUNNY     79  55  43 S24G33    29.44F                  
$$

NEZ044-045-051>053-067-231800-
OMAHA AREA
  
CITY           SKY/WX    TMP DP  RH WIND       PRES   REMARKS
OMAHA EPPLEY   MOSUNNY   79  56  45 S23G32    29.41F                  
BLAIR          SUNNY     78  55  46 S24G35    29.41S                  
FREMONT        SUNNY     79  56  45 S17G28    29.38F                  
MILLARD        SUNNY     79  55  44 S17G28    29.42S                  
OFFUTT AFB     MOSUNNY   81  54  39 S17G29    29.44F                  
PLATTSMOUTH    SUNNY     79  55  43 S24G33    29.44F                  
WAHOO          SUNNY     80  54  40 S22G33    29.38F                  
$$
  
