ASUS42 KMHX 231822
RWRMHX
WEATHER ROUNDUP FOR EASTERN NORTH CAROLINA
NATIONAL WEATHER SERVICE NEWPORT/MOREHEAD CITY NC
200 PM EDT SUN OCT 23 2022

NOTE: "FAIR" INDICATES FEW OR NO CLOUDS BELOW 12,000 FEET
WITH NO SIGNIFICANT WEATHER AND/OR OBSTRUCTIONS TO VISIBILITY

NCZ015>017-031-032-045>047-102-103-231900-
NORTH COAST
  
CITY           SKY/WX    TMP DP  RH WIND       PRES   REMARKS
EDENTON        CLOUDY    61  61 100 NW12G17   30.09F                  
ELIZABETH CITY LGT RAIN  63  61  93 NW10      30.07S                  
KITTY HAWK     RAIN      61  61 100 NW8       30.05R VSB 1            
MANTEO         DRIZZLE   62  61  97 N12G18    30.06S                  

$$

NCZ045>047-081-094-103-104-231900-
CENTRAL COAST
  
CITY           SKY/WX    TMP DP  RH WIND       PRES   REMARKS
FRISCO         CLOUDY    63  63 100 VRB7      30.00F                  

$$

NCZ095-097-098-100-101-231900-
SOUTHERN COAST
  
CITY           SKY/WX    TMP DP  RH WIND       PRES   REMARKS
PINEY ISLAND   LGT RAIN  65  59  81 NW17G26   30.05S                  
BEAUFORT       LGT RAIN  61  59  93 NW14      30.06S                  
CAPE CARTERET  PTSUNNY   68  57  68 NW12G21   30.07F                  
JACKSONVILLE   CLOUDY    67  58  72 N13       30.08F                  
WILMINGTON     MOSUNNY   73  54  51 NW15      30.09F                  


$$

NCZ011>013-027>030-043-044-078>080-089-090>093-098-231900-
COASTAL PLAIN
  
CITY           SKY/WX    TMP DP  RH WIND       PRES   REMARKS
AHOSKIE        CLOUDY    59  57  91 NW8       30.13F                  
ROCKY MOUNT    CLOUDY    68  55  63 N10       30.14F                  
GREENVILLE     CLOUDY    64  61  88 N13       30.11F                  
WASHINGTON     CLOUDY    62  55  80 NW7       30.11F                  
GOLDSBORO      PTSUNNY   71  51  50 W10       30.09F                  
KINSTON        CLOUDY    64  57  77 N9        30.13F                  
NEW BERN       CLOUDY    64  57  78 NW12G20   30.09F                  
HAVELOCK       CLOUDY    63  57  81 NW12      30.08F                  
KENANSVILLE    MOSUNNY   72  55  56 N14       30.12F                  
RICHLANDS      CLOUDY    69  57  65 N8        30.10F                  
CLINTON        MOSUNNY   71  51  48 NW9       30.12F                  
ELIZABETHTOWN  MOSUNNY   73  39  29 NW10      30.12F                  
WHITEVILLE     SUNNY     71  39  32 N6        30.14F                  

$$

AMZ130-135-150-152-154-156-158-170-250-252-270-ANZ085-086-088-633-658-670-231900-
MARINE OBSERVATIONS
  
STATION/POSITION TIME  TEMP    WIND        PRES    WAVE   SWELL
                       AIR SEA DIR/SP/G            HT/PER HT/PER
                 (UTC) (F)     (DEG/KT/KT) (MB)    (FT/S) (FT/S)
64 E VA BEACH    NOT AVBL
64 E VA BEACH    1800   67 65                N/A     8/ 8   3/10
DUCK PIER        1742      64  330/ 20/ 25 1016.9
2 E DUCK         1756      65                N/A     7/ 6   2/13
10 NE DUCK       1756      66                N/A     7/ 7   2/11
OREGON INLET     1742      65  340/ 13/ 17 1017.3
13E OREGON INLT  1756      69                N/A     7/ 6   7/ 6
13E CAPE HATTERA 1730      70                N/A     6/ 7   2/10
HATTERAS CG      1742      64  350/ 23/ 27 1016.5
DIAMOND BUOY     1810      78  360/ 25/ 31 1014.3
CAPE LOOKOUT     1800   61     330/ 14/ 16 1018.4
BEAUFORT LAB     1742      65  330/  9/ 15 1016.8
30 SE NEW RVR IN 1708   64 73  330/ 19/ 25 1019.5
30 SE NEW RVR IN 1756      73                N/A     5/ 5   2/14
27 SE WRIGHTSVLE 1708   65 75  330/ 16/ 21 1018.6
5 SE WRIGHTSVLE  NOT AVBL
27 SE WRIGHTSVL  1708   65 75  330/ 16/ 21 1018.6
FRYING PAN BUOY  1810   66 75  340/ 16/ 17 1018.8
225 S CAPE HAT   1810   75 78   10/  6/  8 1014.1
41 SE CHARLESTON 1810   69 77  360/ 16/ 19 1020.2

$$
  
