ASUS42 KMHX 232010
RWRMHX
WEATHER ROUNDUP FOR EASTERN NORTH CAROLINA
NATIONAL WEATHER SERVICE NEWPORT/MOREHEAD CITY NC
400 PM EDT SUN OCT 23 2022

NOTE: "FAIR" INDICATES FEW OR NO CLOUDS BELOW 12,000 FEET
WITH NO SIGNIFICANT WEATHER AND/OR OBSTRUCTIONS TO VISIBILITY

NCZ015>017-031-032-045>047-102-103-232100-
NORTH COAST
  
CITY           SKY/WX    TMP DP  RH WIND       PRES   REMARKS
EDENTON        CLOUDY    62  62  97 N13       30.09S                  
ELIZABETH CITY CLOUDY    62  59  90 NW15      30.07F                  
KITTY HAWK     CLOUDY    62  62 100 N10G21    30.03S FOG              
MANTEO         CLOUDY    62  61  97 N15G23    30.04S                  

$$

NCZ045>047-081-094-103-104-232100-
CENTRAL COAST
  
CITY           SKY/WX    TMP DP  RH WIND       PRES   REMARKS
FRISCO         CLOUDY    63  62  97 N10G28    30.00F                  

$$

NCZ095-097-098-100-101-232100-
SOUTHERN COAST
  
CITY           SKY/WX    TMP DP  RH WIND       PRES   REMARKS
PINEY ISLAND   CLOUDY    66  60  81 NW12      30.06R                  
BEAUFORT       CLOUDY    62  60  93 NW12      30.06S                  
CAPE CARTERET  CLOUDY    68  58  70 NW7       30.07F                  
JACKSONVILLE   PTSUNNY   67  60  78 NW13      30.08R                  
WILMINGTON     PTSUNNY   75  54  47 NW12      30.07F                  


$$

NCZ011>013-027>030-043-044-078>080-089-090>093-098-232100-
COASTAL PLAIN
  
CITY           SKY/WX    TMP DP  RH WIND       PRES   REMARKS
AHOSKIE        CLOUDY    60  57  90 N7        30.13R                  
ROCKY MOUNT    CLOUDY    69  56  62 N9        30.12S                  
GREENVILLE     CLOUDY    64  61  88 N7        30.11S                  
WASHINGTON     NOT AVBL                                               
GOLDSBORO      PTSUNNY   70  52  53 NW9       30.08S                  
KINSTON        CLOUDY    66  59  77 N9        30.11S                  
NEW BERN       CLOUDY    66  58  75 N10       30.09S                  
HAVELOCK       NOT AVBL                                               
KENANSVILLE    PTSUNNY   73  57  56 N12       30.10S                  
RICHLANDS      PTSUNNY   68  60  75 N7        30.10S                  
CLINTON        MOSUNNY   73  50  44 NW8       30.11S                  
ELIZABETHTOWN  MOSUNNY   72  42  33 N9        30.12R                  
WHITEVILLE     SUNNY     74  38  27 N6        30.12S                  

$$

AMZ130-135-150-152-154-156-158-170-250-252-270-ANZ085-086-088-633-658-670-232100-
MARINE OBSERVATIONS
  
STATION/POSITION TIME  TEMP    WIND        PRES    WAVE   SWELL
                       AIR SEA DIR/SP/G            HT/PER HT/PER
                 (UTC) (F)     (DEG/KT/KT) (MB)    (FT/S) (FT/S)
64 E VA BEACH    NOT AVBL
64 E VA BEACH    1930   67 65                N/A     8/ 9   3/10
DUCK PIER        1930      64  350/ 21/ 24 1016.7
2 E DUCK         1926      65                N/A     7/ 7   2/11
10 NE DUCK       1956      66                N/A     8/ 6   2/13
OREGON INLET     1930      65  360/ 14/ 23 1016.2
13E OREGON INLT  1956      69                N/A     7/ 6   5/ 9
13E CAPE HATTERA 1900      71                N/A     7/ 6   2/13
HATTERAS CG      1930      64   10/ 24/ 28 1015.9
DIAMOND BUOY     1950      78  360/ 27/ 35 1013.9
CAPE LOOKOUT     1900   61     330/ 14/ 17 1018.3
BEAUFORT LAB     1930      65  340/  8/ 13 1017.1
30 SE NEW RVR IN NOT AVBL
30 SE NEW RVR IN 1926      73                N/A     4/ 4   2/13
27 SE WRIGHTSVLE NOT AVBL
5 SE WRIGHTSVLE  NOT AVBL
27 SE WRIGHTSVL  NOT AVBL
FRYING PAN BUOY  1950   69 75  330/ 12/ 16 1018.5    5/ 9   5/ 9
225 S CAPE HAT   1950   76 78  340/ 17/ 21 1014.3    7/ 8   3/14
41 SE CHARLESTON 1950   69 77   10/ 12/ 16 1019.8    6/10   5/10

$$
  
