ASUS42 KMHX 231622
RWRMHX
WEATHER ROUNDUP FOR EASTERN NORTH CAROLINA
NATIONAL WEATHER SERVICE NEWPORT/MOREHEAD CITY NC
1200 PM EDT SUN OCT 23 2022

NOTE: "FAIR" INDICATES FEW OR NO CLOUDS BELOW 12,000 FEET
WITH NO SIGNIFICANT WEATHER AND/OR OBSTRUCTIONS TO VISIBILITY

NCZ015>017-031-032-045>047-102-103-231700-
NORTH COAST
  
CITY           SKY/WX    TMP DP  RH WIND       PRES   REMARKS
EDENTON        CLOUDY    61  60  99 N12       30.14S                  
ELIZABETH CITY LGT RAIN  61  59  93 N13       30.12R FOG              
KITTY HAWK     RAIN      64  64 100 NW9       30.06S                  
MANTEO         DRIZZLE   62  61  98 N12G23    30.07F                  

$$

NCZ045>047-081-094-103-104-231700-
CENTRAL COAST
  
CITY           SKY/WX    TMP DP  RH WIND       PRES   REMARKS
FRISCO         CLOUDY    62  62 100 VRB6G18   30.04F                  

$$

NCZ095-097-098-100-101-231700-
SOUTHERN COAST
  
CITY           SKY/WX    TMP DP  RH WIND       PRES   REMARKS
PINEY ISLAND   HVY RAIN  65  59  81 NW17G25   30.07F                  
BEAUFORT       CLOUDY    61  58  90 NW18      30.08F                  
CAPE CARTERET  CLOUDY    66  57  72 N12G21    30.10F                  
JACKSONVILLE   PTSUNNY   61  56  83 N12       30.12S                  
WILMINGTON     MOSUNNY   66  52  60 N13       30.13S                  


$$

NCZ011>013-027>030-043-044-078>080-089-090>093-098-231700-
COASTAL PLAIN
  
CITY           SKY/WX    TMP DP  RH WIND       PRES   REMARKS
AHOSKIE        CLOUDY    58  56  95 N7        30.17R                  
ROCKY MOUNT    PTSUNNY   69  53  56 N15       30.18R                  
GREENVILLE     CLOUDY    63  59  88 N12       30.15S                  
WASHINGTON     CLOUDY    60  54  79 NW7       30.15S                  
GOLDSBORO      MOSUNNY   67  50  54 NW12      30.14S                  
KINSTON        CLOUDY    66  57  72 N13G18    30.16R                  
NEW BERN       CLOUDY    62  56  80 N10       30.13S                  
HAVELOCK       CLOUDY    61  56  83 N14       30.12S                  
KENANSVILLE    MOSUNNY   66  55  68 N9        30.16S                  
RICHLANDS      MOSUNNY   64  55  72 N10       30.14S                  
CLINTON        MOSUNNY   64  52  63 N8G17     30.17F                  
ELIZABETHTOWN  MOSUNNY   66  43  43 N10G18    30.17F                  
WHITEVILLE     MOSUNNY   68  41  37 N6        30.17S                  

$$

AMZ130-135-150-152-154-156-158-170-250-252-270-ANZ085-086-088-633-658-670-231700-
MARINE OBSERVATIONS
  
STATION/POSITION TIME  TEMP    WIND        PRES    WAVE   SWELL
                       AIR SEA DIR/SP/G            HT/PER HT/PER
                 (UTC) (F)     (DEG/KT/KT) (MB)    (FT/S) (FT/S)
64 E VA BEACH    NOT AVBL
64 E VA BEACH    1530   65 65                N/A     8/ 8   3/10
DUCK PIER        1548      64  330/ 20/ 22 1018.0
2 E DUCK         1556      66                N/A     7/ 6   2/11
10 NE DUCK       1556      66                N/A     8/ 8   2/14
OREGON INLET     1542      65   10/ 11/ 14 1017.9
13E OREGON INLT  1556      69                N/A     8/ 6   7/ 6
13E CAPE HATTERA 1530      71                N/A     8/ 6   2/10
HATTERAS CG      1548      64  340/ 21/ 25 1017.3
DIAMOND BUOY     1610      79  350/ 21/ 27 1015.7
CAPE LOOKOUT     1600   60     330/ 17/ 21 1018.8
BEAUFORT LAB     1548      66  340/ 10/ 16 1017.8
30 SE NEW RVR IN 1508   63 74  340/ 19/ 25 1020.1
30 SE NEW RVR IN 1556      73                N/A     5/10   2/11
27 SE WRIGHTSVLE 1508   64 75  340/ 17/ 23 1018.6
5 SE WRIGHTSVLE  1508   62 70  330/ 16/ 23   N/A
27 SE WRIGHTSVL  1508   64 75  340/ 17/ 23 1018.6
FRYING PAN BUOY  1610   65 75  350/ 17/ 21 1019.9
225 S CAPE HAT   1610   73 78   90/  8/ 12 1014.5
41 SE CHARLESTON 1600   69 77  360/ 17/ 21 1020.8

$$
  
