ASUS42 KMHX 231922
RWRMHX
WEATHER ROUNDUP FOR EASTERN NORTH CAROLINA
NATIONAL WEATHER SERVICE NEWPORT/MOREHEAD CITY NC
300 PM EDT SUN OCT 23 2022

NOTE: "FAIR" INDICATES FEW OR NO CLOUDS BELOW 12,000 FEET
WITH NO SIGNIFICANT WEATHER AND/OR OBSTRUCTIONS TO VISIBILITY

NCZ015>017-031-032-045>047-102-103-232000-
NORTH COAST
  
CITY           SKY/WX    TMP DP  RH WIND       PRES   REMARKS
EDENTON        CLOUDY    62  62  99 N13       30.09F                  
ELIZABETH CITY CLOUDY    62  60  93 N13       30.08R                  
KITTY HAWK     DRIZZLE   61  61 100 N10G17    30.04S                  
MANTEO         CLOUDY    62  61  97 N17G23    30.04F FOG              

$$

NCZ045>047-081-094-103-104-232000-
CENTRAL COAST
  
CITY           SKY/WX    TMP DP  RH WIND       PRES   REMARKS
FRISCO         CLOUDY    63  63 100 N9G22     30.01R                  

$$

NCZ095-097-098-100-101-232000-
SOUTHERN COAST
  
CITY           SKY/WX    TMP DP  RH WIND       PRES   REMARKS
PINEY ISLAND   CLOUDY    66  59  78 NW16G24   30.05S                  
BEAUFORT       CLOUDY    62  59  90 N13       30.06S                  
CAPE CARTERET  CLOUDY    68  58  70 N8        30.08R                  
JACKSONVILLE   PTSUNNY   68  59  73 N12       30.07F                  
WILMINGTON     MOSUNNY   74  54  49 NW15      30.08F                  


$$

NCZ011>013-027>030-043-044-078>080-089-090>093-098-232000-
COASTAL PLAIN
  
CITY           SKY/WX    TMP DP  RH WIND       PRES   REMARKS
AHOSKIE        CLOUDY    59  57  92 NW8       30.12S                  
ROCKY MOUNT    CLOUDY    69  56  62 N8        30.12F                  
GREENVILLE     CLOUDY    64  61  88 N9        30.11R                  
WASHINGTON     CLOUDY    63  56  78 NW13      30.10S                  
GOLDSBORO      PTSUNNY   70  52  52 NW7       30.08F                  
KINSTON        CLOUDY    66  57  72 N8        30.11F                  
NEW BERN       CLOUDY    65  57  75 NW9       30.09S                  
HAVELOCK       CLOUDY    64  58  80 NW14      30.08S                  
KENANSVILLE    MOSUNNY   72  55  56 N13       30.11S                  
RICHLANDS      PTSUNNY   68  59  73 VRB6      30.10S                  
CLINTON        MOSUNNY   73  50  44 NW8       30.11F                  
ELIZABETHTOWN  MOSUNNY   72  41  32 NW9       30.11F                  
WHITEVILLE     SUNNY     73  37  26 N7        30.12F                  

$$

AMZ130-135-150-152-154-156-158-170-250-252-270-ANZ085-086-088-633-658-670-232000-
MARINE OBSERVATIONS
  
STATION/POSITION TIME  TEMP    WIND        PRES    WAVE   SWELL
                       AIR SEA DIR/SP/G            HT/PER HT/PER
                 (UTC) (F)     (DEG/KT/KT) (MB)    (FT/S) (FT/S)
64 E VA BEACH    NOT AVBL
64 E VA BEACH    1830   67 65                N/A     8/ 8   3/10
DUCK PIER        1836      64  340/ 17/ 20   N/A
2 E DUCK         1856      65                N/A     6/ 8   2/11
10 NE DUCK       1856      67                N/A     8/ 6   2/13
OREGON INLET     1836      65  350/ 16/ 20   N/A
13E OREGON INLT  1856      69                N/A     7/ 7   5/ 8
13E CAPE HATTERA 1830      71                N/A     7/ 9   2/10
HATTERAS CG      1836      64  360/ 24/ 27   N/A
DIAMOND BUOY     1910      78  350/ 27/ 33 1014.3
CAPE LOOKOUT     1900   61     330/ 14/ 17 1018.3
BEAUFORT LAB     1836      65  340/  9/ 15   N/A
30 SE NEW RVR IN 1808   65 73  330/ 16/ 23 1018.9
30 SE NEW RVR IN 1856      73                N/A     5/ 8   2/11
27 SE WRIGHTSVLE 1808   66 75  340/ 16/ 19 1018.7
5 SE WRIGHTSVLE  NOT AVBL
27 SE WRIGHTSVL  1808   66 75  340/ 16/ 19 1018.7
FRYING PAN BUOY  1910   68 75  320/ 12/ 16 1018.7
225 S CAPE HAT   1900   76 78  340/ 17/ 23 1013.7
41 SE CHARLESTON 1910   69 77  360/ 14/ 17 1020.1

$$
  
