ASUS42 KRAH 231710
RWRRAH
NORTH CAROLINA WEATHER ROUNDUP
NATIONAL WEATHER SERVICE RALEIGH NC
100 PM EDT SUN OCT 23 2022

NOTE: "FAIR" INDICATES FEW OR NO CLOUDS BELOW 12,000 FEET WITH NO
SIGNIFICANT WEATHER AND/OR OBSTRUCTIONS TO VISIBILITY.

NCZ001-053-055-056-065-067-231800-
WESTERN NORTH CAROLINA
  
CITY           SKY/WX    TMP DP  RH WIND       PRES   REMARKS
ASHEVILLE      SUNNY     66  36  32 NW7       30.24F                  
JEFFERSON      SUNNY     63  32  31 N5        30.26F                  
HICKORY        SUNNY     67  44  43 CALM      30.22F                  
RUTHERFORDTON  NOT AVBL                                               
MOUNT AIRY     SUNNY     66  40  38 CALM      30.24F                  
$$
 
NCZ021-022-025-041-071-084-088-231800-
CENTRAL NORTH CAROLINA
  
CITY           SKY/WX    TMP DP  RH WIND       PRES   REMARKS
CHARLOTTE      MOSUNNY   71  43  36 N8        30.22F                  
GREENSBORO     MOSUNNY   67  42  40 N8        30.21F                  
WINSTON-SALEM  SUNNY     68  43  40 N9        30.23F                  
RALEIGH-DURHAM PTSUNNY   64  41  42 N10G18    30.20F                  
FORT BRAGG     MOSUNNY   67  43  41 N14G21    30.16F                  
FAYETTEVILLE   MOSUNNY   68  43  40 N12       30.17F                  
$$
 
NCZ011-015-027-028-043-044-047-080-103-231800-
NORTHEASTERN NORTH CAROLINA
  
CITY           SKY/WX    TMP DP  RH WIND       PRES   REMARKS
ROANOKE RAPIDS CLOUDY    61  59  94 N14       30.17F                  
ROCKY MT-WILSO CLOUDY    69  54  58 N14       30.16F                  
GREENVILLE     CLOUDY    63  59  88 N6        30.15S                  
ELIZABETH CITY NOT AVBL                                               
MANTEO         CLOUDY    62  61  97 N16G23    30.06F FOG              
CAPE HATTERAS  LGT RAIN  63  63 100 N8        30.02F                  
$$
 
NCZ078-087-090-091-093-098-101-231800-
SOUTHEASTERN NORTH CAROLINA
  
CITY           SKY/WX    TMP DP  RH WIND       PRES   REMARKS
LUMBERTON      SUNNY     72  41  32 N14G23    30.17S                  
GOLDSBORO      PTSUNNY   70  51  50 NW7       30.12F                  
KINSTON        CLOUDY    64  55  72 N12       30.14F                  
KENANSVILLE    PTSUNNY   68  55  64 N14       30.15S                  
NEW BERN       CLOUDY    63  56  78 N14       30.12F                  
CHERRY POINT   CLOUDY    62  57  83 NW16G23   30.10F                  
BEAUFORT       CLOUDY    60  59  96 NW18      30.06F                  
JACKSONVILLE   CLOUDY    68  58  70 NW12      30.10F                  
WILMINGTON     MOSUNNY   70  56  61 NW12      30.11F                  
$$

  
