ASUS42 KILM 231710
RWRILM
RWRILM
REGIONAL HOURLY WEATHER ROUNDUP
NATIONAL WEATHER SERVICE WILMINGTON NC
100 PM EDT SUN OCT 23 2022
 
NOTE: "FAIR" INDICATES FEW OR NO CLOUDS BELOW 12,000 FEET WITH NO
SIGNIFICANT WEATHER AND/OR OBSTRUCTIONS TO VISIBILITY.
 
...............WFO WILMINGTON COUNTY WARNING AREA...............

......COASTAL NC AND SC COUNTIES......
  
CITY           SKY/WX    TMP DP  RH WIND       PRES   REMARKS
WILMINGTON     MOSUNNY   70  56  61 NW12      30.11F                  
N MYRTLE BEACH MOSUNNY   68  40  35 N10       30.14S                  
MYRTLE BEACH   MOSUNNY   71  43  36 N15       30.15F                  

......INLAND NC AND SC COUNTIES.......
  
CITY           SKY/WX    TMP DP  RH WIND       PRES   REMARKS
LUMBERTON      SUNNY     72  41  32 N14G23    30.17S                  
ELIZABETHTOWN  MOSUNNY   67  43  41 N7        30.17S                  
WHITEVILLE     MOSUNNY   70  38  31 N10       30.17S                  
FLORENCE       SUNNY     72  44  36 N12       30.18F                  
DARLINGTON     SUNNY     73  45  36 N14       30.18F                  
KINGSTREE      FAIR      70  41  35 N6        30.17F                  
HARTSVILLE     FAIR      70  45  40 N9G15     30.18F                  
BENNETTSVILLE  FAIR      72  45  37 N10       30.18F                  
CONWAY         FAIR      70  45  40 N6        30.16F                  
GEORGETOWN     FAIR      72  45  37 N10G17    30.16F                  
MARION         FAIR      70  34  26 NE10      30.17F                  
 
....................REST OF NORTH CAROLINA......................

.........EASTERN NC.........
  
CITY           SKY/WX    TMP DP  RH WIND       PRES   REMARKS
CAPE HATTERAS  LGT RAIN  63  63 100 N8        30.02F                  
JACKSONVILLE   PTSUNNY   70  57  63 CALM      30.12F                  
MOREHEAD CITY  CLOUDY    60  59  96 NW18      30.06F                  
KENANSVILLE    MOSUNNY   68  55  64 N14       30.15S                  
NEW BERN       CLOUDY    63  56  78 N14       30.12F                  
ELIZABETH CITY HVY RAIN  61  59  93 NW23      30.08F FOG              

.........CENTRAL NC.........
  
CITY           SKY/WX    TMP DP  RH WIND       PRES   REMARKS
RALEIGH DURHAM PTSUNNY   64  41  42 N10G18    30.20F                  
ROCKY MOUNT    CLOUDY    69  54  58 N14       30.16F                  
ROANOKE RAPIDS NOT AVBL                                               
FAYETTEVILLE   MOSUNNY   68  43  40 N12       30.17F                  
HOFFMAN        SUNNY     70  45  40 NE10G16   30.16F                  

.........WESTERN NC.........
  
CITY           SKY/WX    TMP DP  RH WIND       PRES   REMARKS
CHARLOTTE      MOSUNNY   71  43  36 N8        30.22F                  
GREENSBORO     MOSUNNY   67  42  40 N8        30.21F                  
HICKORY        NOT AVBL                                               
BOONE          NOT AVBL                                               
ASHEVILLE      NOT AVBL                                               

.....................REST OF SOUTH CAROLINA.....................

.........EASTERN SC.........
  
CITY           SKY/WX    TMP DP  RH WIND       PRES   REMARKS
CHARLESTON     MOSUNNY   73  49  42 N9        30.16F                  
BEAUFORT MCAS  SUNNY     76  53  44 N8G20     30.17F                  
HILTON HEAD    SUNNY     73  54  49 N12G18    30.18F                  

.........CENTRAL SC.........
  
CITY           SKY/WX    TMP DP  RH WIND       PRES   REMARKS
COLUMBIA       MOSUNNY   72  50  45 VRB3      30.19F                  
ORANGEBURG     SUNNY     73  49  42 N9        30.19F                  
SUMTER SHAW    SUNNY     73  47  39 N9        30.17F                  

.........WESTERN SC.........
  
CITY           SKY/WX    TMP DP  RH WIND       PRES   REMARKS
GREENVILLE     NOT AVBL                                               
ROCK HILL      SUNNY     70  47  43 N9        30.22F                  
ANDERSON       MOSUNNY   71  40  32 E3        30.21F                  
CLEMSON        NOT AVBL                                               
GREENWOOD      SUNNY     71  45  39 VRB3      30.23F                  
 

...................COASTAL AND OFFSHORE REPORTS..................

................LOCAL PIERS AND NC RESERVE................

  
STATION/POSITION TIME  SKY/WX   TEMP    WIND        PRES    VSBY
                                AIR SEA DIR/SP/G
                 (UTC)          (F)     (DEG/KT/KT) (MB)    (MI)
JOHNY MRCER PIER 1624               68  350/ 11/ 16 1019.6
NC RESRV MASNBRO NOT AVBL
OCEAN CREST PIER NOT AVBL
SPRINGMAID  PIER 1624                    10/  9/ 14 1022.1


................COASTAL AND OFFSHORE BUOYS................

  
STATION/POSITION TIME  SKY/WX   TEMP    WIND        PRES    VSBY
                                AIR SEA DIR/SP/G
                 (UTC)          (F)     (DEG/KT/KT) (MB)    (MI)
DIMNDSHOAL 41025 1650               79  350/ 21/ 27 1015.3F
CAPE LOOKOUT     1600            60     330/ 17/ 21 1018.8F
ONSLOW BAY 41036 NOT AVBL
ONSLOW BAY 41064 1608            64 73  330/ 17/ 25 1019.6F
ONSLOW BAY 41159 1626               73                N/A
WVE H/P(F/S)=  5/ 9 SWL H/P/D(F/S/D)=  2/ 90/11

MASNBO INL 41110 NOT AVBL
WILM HARBR 41108 NOT AVBL
27SE WRITB 41037 1608            64 75  340/ 17/ 25 1019.3R
FRYING PAN 41013 1650            66 75  350/ 16/ 17 1019.4F
WVE H/P(F/S)=  6/ 9 SWL H/P/D(F/S/D)=  3/ 90/ 9

SUNST NRSH 41024 1608            66 68  360/ 14/ 17 1020.9F
CAPRS NRSH 41029 1608            67 68   30/ 10/ 14 1021.5F
EDISTO     41004 1650            69 77  360/ 17/ 21 1020.8F
WVE H/P(F/S)=  7/10 SWL H/P/D(F/S/D)=  5/ 90/10



..........OFFSHORE BUOYS BEYOND 100 NM OFFSHORE...........
.....IN A TRIANGLE---HAT TO BERMUDA TO BAHAMAS TO HAT..... 

  
STATION/POSITION TIME  SKY/WX   TEMP    WIND        PRES    VSBY
                                AIR SEA DIR/SP/G
                 (UTC)          (F)     (DEG/KT/KT) (MB)    (MI)
150E HAT   41001 1650            78 78  160/ 16/ 21 1017.3F
WVE H/P(F/S)=  6/ 8 SWL H/P/D(F/S/D)=  3/ 40/13

W BERMUDA  41048 1650                               1019.3F
WVE H/P(F/S)=  6/ 6

ATLANTIC S 41049 1650            81 82   90/ 12/ 16 1015.3F
WVE H/P(F/S)=  7/ 7 SWL H/P/D(F/S/D)=  7/ 70/ 7

E BAHAMAS  41046 1650            82 84   40/  8/ 12 1015.2F
NE BAHAMAS 41047 1650            80 83  130/  6/  8 1015.7F
WVE H/P(F/S)=  5/14 SWL H/P/D(F/S/D)=  5/ 50/14

120E CANVRL41010 1650            77 82   20/  8/ 12 1019.1F

END
  
