ASUS42 KMHX 231810
RWRMHX
WEATHER ROUNDUP FOR EASTERN NORTH CAROLINA
NATIONAL WEATHER SERVICE NEWPORT/MOREHEAD CITY NC
200 PM EDT SUN OCT 23 2022

NOTE: "FAIR" INDICATES FEW OR NO CLOUDS BELOW 12,000 FEET
WITH NO SIGNIFICANT WEATHER AND/OR OBSTRUCTIONS TO VISIBILITY

NCZ015>017-031-032-045>047-102-103-231900-
NORTH COAST
  
CITY           SKY/WX    TMP DP  RH WIND       PRES   REMARKS
EDENTON        LGT RAIN  61  61 100 N13G20    30.10F                  
ELIZABETH CITY LGT RAIN  63  61  93 NW10      30.07S                  
KITTY HAWK     RAIN      61  61 100 NW8       30.05R VSB 1            
MANTEO         DRIZZLE   61  60  97 N9G17     30.07R                  

$$

NCZ045>047-081-094-103-104-231900-
CENTRAL COAST
  
CITY           SKY/WX    TMP DP  RH WIND       PRES   REMARKS
FRISCO         CLOUDY    63  63 100 VRB7      30.00F                  

$$

NCZ095-097-098-100-101-231900-
SOUTHERN COAST
  
CITY           SKY/WX    TMP DP  RH WIND       PRES   REMARKS
PINEY ISLAND   LGT RAIN  65  59  81 NW17G26   30.05S                  
BEAUFORT       LGT RAIN  61  59  93 NW15      30.06S                  
CAPE CARTERET  PTSUNNY   68  57  68 NW12G21   30.07F                  
JACKSONVILLE   CLOUDY    67  58  72 N13       30.08F                  
WILMINGTON     MOSUNNY   73  54  51 NW15      30.09F                  


$$

NCZ011>013-027>030-043-044-078>080-089-090>093-098-231900-
COASTAL PLAIN
  
CITY           SKY/WX    TMP DP  RH WIND       PRES   REMARKS
AHOSKIE        CLOUDY    59  57  92 N6        30.14F                  
ROCKY MOUNT    CLOUDY    68  55  63 N10       30.14F                  
GREENVILLE     CLOUDY    64  61  88 N10       30.12F                  
WASHINGTON     NOT AVBL                                               
GOLDSBORO      PTSUNNY   71  51  50 W10       30.09F                  
KINSTON        CLOUDY    64  57  77 N9        30.13F                  
NEW BERN       CLOUDY    64  57  78 NW12G20   30.09F                  
HAVELOCK       CLOUDY    63  57  81 NW12      30.08F                  
KENANSVILLE    MOSUNNY   72  55  56 N14       30.12F                  
RICHLANDS      CLOUDY    69  57  65 N8        30.10F                  
CLINTON        MOSUNNY   71  51  49 N7        30.13F                  
ELIZABETHTOWN  MOSUNNY   72  39  30 N9        30.13F                  
WHITEVILLE     SUNNY     71  39  32 N6        30.14F                  

$$

AMZ130-135-150-152-154-156-158-170-250-252-270-ANZ085-086-088-633-658-670-231900-
MARINE OBSERVATIONS
  
STATION/POSITION TIME  TEMP    WIND        PRES    WAVE   SWELL
                       AIR SEA DIR/SP/G            HT/PER HT/PER
                 (UTC) (F)     (DEG/KT/KT) (MB)    (FT/S) (FT/S)
64 E VA BEACH    NOT AVBL
64 E VA BEACH    1730   67 65                N/A     8/ 8   3/10
DUCK PIER        1724      64  330/ 20/ 24 1016.7
2 E DUCK         1756      65                N/A     7/ 6   2/13
10 NE DUCK       1756      66                N/A     7/ 7   2/11
OREGON INLET     1724      65  350/  9/ 17 1017.2
13E OREGON INLT  1756      69                N/A     7/ 6   7/ 6
13E CAPE HATTERA 1730      70                N/A     6/ 7   2/10
HATTERAS CG      1724      64  340/ 21/ 27 1016.6
DIAMOND BUOY     1750      78  360/ 25/ 31 1014.7
CAPE LOOKOUT     1700   60     320/ 17/ 20 1018.3
BEAUFORT LAB     1724      65  330/ 10/ 13 1016.9
30 SE NEW RVR IN NOT AVBL
30 SE NEW RVR IN 1756      73                N/A     5/ 5   2/14
27 SE WRIGHTSVLE NOT AVBL
5 SE WRIGHTSVLE  NOT AVBL
27 SE WRIGHTSVL  NOT AVBL
FRYING PAN BUOY  1750   66 75  340/ 14/ 17 1019.2    6/ 9   3/ 9
225 S CAPE HAT   1750   74 78   20/  6/ 10 1014.2    6/ 8   7/ 8
41 SE CHARLESTON 1750   68 77  360/ 17/ 19 1020.2    6/10   5/10

$$
  
