ASUS42 KMHX 231910
RWRMHX
WEATHER ROUNDUP FOR EASTERN NORTH CAROLINA
NATIONAL WEATHER SERVICE NEWPORT/MOREHEAD CITY NC
300 PM EDT SUN OCT 23 2022

NOTE: "FAIR" INDICATES FEW OR NO CLOUDS BELOW 12,000 FEET
WITH NO SIGNIFICANT WEATHER AND/OR OBSTRUCTIONS TO VISIBILITY

NCZ015>017-031-032-045>047-102-103-232000-
NORTH COAST
  
CITY           SKY/WX    TMP DP  RH WIND       PRES   REMARKS
EDENTON        CLOUDY    62  62  98 N13       30.10R                  
ELIZABETH CITY CLOUDY    62  60  93 N13       30.08R                  
KITTY HAWK     DRIZZLE   61  61 100 N10G17    30.04S                  
MANTEO         DRIZZLE   61  60  97 N15G23    30.05F                  

$$

NCZ045>047-081-094-103-104-232000-
CENTRAL COAST
  
CITY           SKY/WX    TMP DP  RH WIND       PRES   REMARKS
FRISCO         CLOUDY    63  63 100 N9G22     30.01R                  

$$

NCZ095-097-098-100-101-232000-
SOUTHERN COAST
  
CITY           SKY/WX    TMP DP  RH WIND       PRES   REMARKS
PINEY ISLAND   CLOUDY    66  60  81 NW15G24   30.05S                  
BEAUFORT       CLOUDY    62  59  90 N13       30.06S                  
CAPE CARTERET  CLOUDY    68  58  70 N8        30.08R                  
JACKSONVILLE   PTSUNNY   68  59  73 N12       30.07F                  
WILMINGTON     MOSUNNY   74  54  49 NW15      30.08F                  


$$

NCZ011>013-027>030-043-044-078>080-089-090>093-098-232000-
COASTAL PLAIN
  
CITY           SKY/WX    TMP DP  RH WIND       PRES   REMARKS
AHOSKIE        CLOUDY    59  57  92 NW9       30.11F                  
ROCKY MOUNT    CLOUDY    69  56  62 N8        30.12F                  
GREENVILLE     CLOUDY    64  61  88 N8        30.10F                  
WASHINGTON     NOT AVBL                                               
GOLDSBORO      PTSUNNY   70  52  52 NW7       30.08F                  
KINSTON        CLOUDY    66  57  72 N8        30.11F                  
NEW BERN       CLOUDY    65  57  75 NW9       30.09S                  
HAVELOCK       CLOUDY    64  58  80 NW14      30.08S                  
KENANSVILLE    MOSUNNY   72  55  56 N13       30.11S                  
RICHLANDS      PTSUNNY   68  59  73 VRB6      30.10S                  
CLINTON        MOSUNNY   71  50  46 NW8       30.12S                  
ELIZABETHTOWN  MOSUNNY   73  40  31 N9        30.11F                  
WHITEVILLE     SUNNY     73  37  26 N7        30.12F                  

$$

AMZ130-135-150-152-154-156-158-170-250-252-270-ANZ085-086-088-633-658-670-232000-
MARINE OBSERVATIONS
  
STATION/POSITION TIME  TEMP    WIND        PRES    WAVE   SWELL
                       AIR SEA DIR/SP/G            HT/PER HT/PER
                 (UTC) (F)     (DEG/KT/KT) (MB)    (FT/S) (FT/S)
64 E VA BEACH    NOT AVBL
64 E VA BEACH    1830   67 65                N/A     8/ 8   3/10
DUCK PIER        1830      64  330/ 17/ 23 1017.4
2 E DUCK         1826      65                N/A     6/ 7   2/13
10 NE DUCK       1856      67                N/A     8/ 6   2/13
OREGON INLET     1824      65  340/ 12/ 17 1017.0
13E OREGON INLT  1856      69                N/A     7/ 7   5/ 8
13E CAPE HATTERA 1830      71                N/A     7/ 9   2/10
HATTERAS CG      1824      64  350/ 21/ 26 1016.2
DIAMOND BUOY     1850      78  360/ 27/ 33 1014.5
CAPE LOOKOUT     1800   61     330/ 14/ 16 1018.4
BEAUFORT LAB     1824      65  330/ 10/ 13 1017.1
30 SE NEW RVR IN NOT AVBL
30 SE NEW RVR IN 1826      73                N/A     5/ 5   2/11
27 SE WRIGHTSVLE NOT AVBL
5 SE WRIGHTSVLE  NOT AVBL
27 SE WRIGHTSVL  NOT AVBL
FRYING PAN BUOY  1850   67 75  330/ 12/ 16 1018.8    5/ 8   5/ 8
225 S CAPE HAT   1850   76 78  350/ 12/ 19 1013.8    6/ 8   7/ 8
41 SE CHARLESTON 1850   69 77  360/ 14/ 17 1020.2    6/10   3/10

$$
  
