ASUS43 KDTX 232001
RWRMI 
MICHIGAN HOURLY REGIONAL WEATHER ROUNDUP
NATIONAL WEATHER SERVICE DETROIT/PONTIAC MI
400 PM EDT SUN OCT 23 2022

NOTE: "FAIR" INDICATES FEW OR NO CLOUDS BELOW 12,000 FEET WITH NO
SIGNIFICANT WEATHER AND/OR OBSTRUCTION TO VISIBILITY.

MIZ047>049-052>055-059>063-066>070-074>076-081>083-232100-
SOUTHEAST LOWER MICHIGAN
  
CITY           SKY/WX    TMP DP  RH WIND       PRES   REMARKS
ADRIAN         MOSUNNY   76  49  38 S17G28    30.07F                  
ALMA           PTSUNNY   75  47  36 SE16G22   30.02F                  
ANN ARBOR      MOSUNNY   75  49  39 S13G23    30.07F                  
BAD AXE        MOSUNNY   73  50  44 S17G31    30.09S                  
CARO           SUNNY     75  48  38 SE16G24   30.07F                  
DETROIT CITY   MOSUNNY   77  49  37 S13G21    30.10F                  
DETROIT        MOSUNNY   74  50  42 SE15G21   30.10F                  
FLINT          MOSUNNY   75  52  44 SE22G31   30.06F                  
GROSSE ILE     CLOUDY    72  41  32 SE6       30.09F                  
HILLSDALE      PTSUNNY   74  45  34 S14G23    30.05F                  
HOWELL         SUNNY     75  51  42 S16G24    30.06F                  

CITY           SKY/WX    TMP DP  RH WIND       PRES   REMARKS
JACKSON        SUNNY     74  50  42 SE10G21   30.05F                  
LAMBERTVILLE   MOSUNNY   76  44  31 SE10      30.08S                  
LANSING        PTSUNNY   75  51  43 S10G26    30.04F                  
LAPEER         MOSUNNY   75  39  26 S16G24    30.09F                  
MASON          MOSUNNY   76  49  38 S16       30.05S                  
MONROE         MOSUNNY   71  50  46 E7        30.09S                  
MT. CLEMENS    MOSUNNY   71  52  51 SE12      30.08F                  
PONTIAC        MOSUNNY   72  49  44 S15G23    30.09F                  
PORT HOPE        N/A     68  54  60 SE13G21   30.08F                  
PORT HURON     MOSUNNY   77  43  29 S16G22    30.11F                  
TRI CITIES     SUNNY     74  50  42 S16G28    30.05F                  
MIDLAND        MOSUNNY   76  49  38 SE15G21   30.03F                  
TROY           MOSUNNY   75  46  35 S10G18    30.11F                  
SAGINAW HB     SUNNY     74  49  41 S15G22    30.05F                  
$$
MIZ043>046-050>051-056>058-064>065-071>073-077>080-232100-
SOUTHWEST LOWER MICHIGAN
  
CITY           SKY/WX    TMP DP  RH WIND       PRES   REMARKS
BATTLE CREEK   MOSUNNY   76  52  43 S18G25    30.01F                  
BENTON HARBOR  MOSUNNY   79  55  43 S17G30    29.92F                  
BIG RAPIDS     CLOUDY    74  52  45 S21G32    29.97F                  
COLDWATER      MOSUNNY   75  51  42 S10G16    30.03F                  
FREMONT        PTSUNNY   78  52  40 SE13G24   29.95S                  
HOLLAND        MOSUNNY   77  54  44 S18G29    29.94F                  
GRAND RAPIDS   MOSUNNY   75  52  44 S20G30    29.98F                  
IONIA          FAIR      75  47  37 S21G26    30.01S                  
KALAMAZOO      MOSUNNY   77  52  41 S15G26    29.99F                  
LUDINGTON      CLOUDY    74  54  48 S13G22    29.91F                  
MARSHALL       PTSUNNY   75  50  42 S12G22    30.02F                  
MOUNT PLEASANT MOSUNNY   75  50  41 S16       30.01F                  
MUSKEGON       MOSUNNY   79  55  43 S14G28    29.93F                  
SOUTH HAVEN    MOSUNNY   78  53  41 SE16G28   29.93F                  
$$
MIZ016>042-232100-
NORTHERN LOWER MICHIGAN
  
CITY           SKY/WX    TMP DP  RH WIND       PRES   REMARKS
ALPENA         MOSUNNY   74  51  44 S17G30    30.04F                  
BEAVER ISLAND  SUNNY     75  51  43 S10G22    29.95F                  
BELLAIRE       MOSUNNY   76  52  43 S13G29    29.96F                  
CADILLAC       PTSUNNY   73  51  46 S14G21    29.97F                  
CHARLEVOIX     MOSUNNY   74  53  46 S14       29.96S                  
FRANKFORT      PTSUNNY   73  53  51 W6        29.92F                  
GAYLORD        MOSUNNY   74  50  42 S16G28    30.01F                  
HARBOR SPRINGS MOSUNNY   74  51  44 S12G20    29.98S                  
HOUGHTON LAKE  MOSUNNY   72  51  47 S13G23    30.02F                  
MANISTEE       MOSUNNY   77  56  48 SE13      29.91F                  
OSCODA         MOSUNNY   68  53  58 SE6       30.07F                  
PELLSTON       MOSUNNY   76  50  40 S10       29.98F                  
ROGERS CITY    MOSUNNY   76  51  41 S12G22    30.03F                  
TRAVERSE CITY  PTSUNNY   76  52  43 SE12G25   29.93S                  
$$
MIZ007>008-015-232100-
EASTERN UPPER MICHIGAN
  
CITY           SKY/WX    TMP DP  RH WIND       PRES   REMARKS
KINROSS        SUNNY     70  53  54 SE17      30.01F                  
MACKINAC ISLAN MOSUNNY   59  49  69 E7        30.00S                  
NEWBERRY       SUNNY     72  52  48 S17G28    29.95F                  
S. S. MARIE    SUNNY     68  53  58 E10G21    30.01F                  
$$
MIZ004>006-011>014-085-232100-
CENTRAL UPPER MICHIGAN
  
CITY           SKY/WX    TMP DP  RH WIND       PRES   REMARKS
MANISTIQUE     MOSUNNY   67  53  61 SE8       29.94F                  
ESCANABA       MOSUNNY   61  52  72 S14       29.92F                  
MENOMINEE      SUNNY     64  53  67 S10G16    29.88F                  
SAWYER-GWINN   SUNNY     64  52  63 S23       29.88F                  
MUNISING         N/A     68  53  58 S16G37    29.89F                  
$$
MIZ001>003-009>011-084-232100-
WESTERN UPPER MICHIGAN
  
CITY           SKY/WX    TMP DP  RH WIND       PRES   REMARKS
IRON MOUNTAIN  SUNNY     69  54  58 SE17G29   29.84F                  
HOUGHTON       SUNNY     68  52  56 E13       29.78F                  
COPPER HARBOR    N/A     65  53  65 S15G33    29.78F                  
IRONWOOD       SUNNY     73  55  53 SE17G24   29.71F                  
$$

ABBREVIATIONS USED IN REMARKS
   TC - TEMPERATURE IN CELSIUS
  WCI - WIND CHILL INDEX
   HX - HEAT INDEX
  VSB - VISIBILITY

  
