ASUS43 KDTX 231801
RWRMI 
MICHIGAN HOURLY REGIONAL WEATHER ROUNDUP
NATIONAL WEATHER SERVICE DETROIT/PONTIAC MI
200 PM EDT SUN OCT 23 2022

NOTE: "FAIR" INDICATES FEW OR NO CLOUDS BELOW 12,000 FEET WITH NO
SIGNIFICANT WEATHER AND/OR OBSTRUCTION TO VISIBILITY.

MIZ047>049-052>055-059>063-066>070-074>076-081>083-231900-
SOUTHEAST LOWER MICHIGAN
  
CITY           SKY/WX    TMP DP  RH WIND       PRES   REMARKS
ADRIAN         MOSUNNY   73  50  44 S12G24    30.11F                  
6HR MIN TEMP:  48; 6HR MAX TEMP:  74;                                

ALMA           PTSUNNY   76  47  35 S17G24    30.05F                  
6HR MIN TEMP:  51; 6HR MAX TEMP:  76;                                

ANN ARBOR      MOSUNNY   73  51  46 SE9       30.10F                  
BAD AXE        SUNNY     73  52  47 S14G23    30.11F                  
6HR MIN TEMP:  52; 6HR MAX TEMP:  73;                                

CARO           MOSUNNY   75  51  41 S20       30.10F                  
DETROIT CITY   MOSUNNY   75  51  43 S9        30.13F                  
6HR MIN TEMP:  52; 6HR MAX TEMP:  77;                                

DETROIT        PTSUNNY   72  50  45 S10       30.13F                  
6HR MIN TEMP:  51; 6HR MAX TEMP:  73;                                

FLINT          PTSUNNY   73  53  49 S12G24    30.09F                  
6HR MIN TEMP:  52; 6HR MAX TEMP:  75;                                

GROSSE ILE     MOSUNNY   64  43  46 S3        30.13F                  
6HR MIN TEMP:  51; 6HR MAX TEMP:  65;                                

HILLSDALE      SUNNY     74  47  38 S13G20    30.08F                  
6HR MIN TEMP:  52; 6HR MAX TEMP:  74;                                

HOWELL         PTSUNNY   74  53  48 SE9       30.10F                  
6HR MIN TEMP:  53; 6HR MAX TEMP:  74;                                


CITY           SKY/WX    TMP DP  RH WIND       PRES   REMARKS
JACKSON        MOSUNNY   74  52  46 SE16G26   30.08F                  
6HR MIN TEMP:  53; 6HR MAX TEMP:  74;                                

LAMBERTVILLE   MOSUNNY   76  47  35 SE10G20   30.11F                  
6HR MIN TEMP:  52; 6HR MAX TEMP:  76;                                

LANSING        MOSUNNY   75  52  44 S17G28    30.06F                  
6HR MIN TEMP:  54; 6HR MAX TEMP:  75;                                

LAPEER         PTSUNNY   73  44  34 SE9       30.12F                  
6HR MIN TEMP:  46; 6HR MAX TEMP:  74;                                

MASON          MOSUNNY   76  50  39 S18G24    30.08F                  
6HR MIN TEMP:  54; 6HR MAX TEMP:  76;                                

MONROE         PTSUNNY   75  51  41 S12       30.12F                  
6HR MIN TEMP:  53; 6HR MAX TEMP:  75;                                

MT. CLEMENS    PTSUNNY   71  53  52 E8        30.11F                  
6HR MIN TEMP:  47; 6HR MAX TEMP:  71;                                

PONTIAC        PTSUNNY   71  51  49 SE8G20    30.12F                  
6HR MIN TEMP:  45; 6HR MAX TEMP:  72;                                

PORT HOPE        N/A     60  54  80 SE14      30.10F                  
6HR MIN TEMP:  56; 6HR MAX TEMP:  66;                                

PORT HURON     SUNNY     75  46  35 S14G22    30.13F                  
TRI CITIES     MOSUNNY   74  51  44 S15G31    30.07F                  
6HR MIN TEMP:  55; 6HR MAX TEMP:  75;                                

MIDLAND        SUNNY     76  51  40 S13G21    30.05F                  
6HR MIN TEMP:  54; 6HR MAX TEMP:  77;                                

TROY           PTSUNNY   72  51  47 S12       30.15S                  
SAGINAW HB     MOSUNNY   74  51  44 S14G20    30.08F                  
6HR MIN TEMP:  50; 6HR MAX TEMP:  74;                                

$$
MIZ043>046-050>051-056>058-064>065-071>073-077>080-231900-
SOUTHWEST LOWER MICHIGAN
  
CITY           SKY/WX    TMP DP  RH WIND       PRES   REMARKS
BATTLE CREEK   SUNNY     75  52  44 S15G28    30.04F                  
6HR MIN TEMP:  57; 6HR MAX TEMP:  75;                                

BENTON HARBOR  SUNNY     76  56  49 S18G28    29.95F                  
6HR MIN TEMP:  59; 6HR MAX TEMP:  76;                                

BIG RAPIDS     MOSUNNY   73  52  48 S16G25    30.01F                  
6HR MIN TEMP:  44; 6HR MAX TEMP:  73;                                

COLDWATER      SUNNY     73  51  46 S13G20    30.06F                  
6HR MIN TEMP:  55; 6HR MAX TEMP:  73;                                

FREMONT        FAIR      75  52  44 S9G17     29.98F                  
6HR MIN TEMP:  56; 6HR MAX TEMP:  76;                                

HOLLAND        MOSUNNY   75  55  49 S17G31    29.97F                  
6HR MIN TEMP:  56; 6HR MAX TEMP:  75;                                

GRAND RAPIDS   MOSUNNY   73  53  49 S16G26    30.02F                  
6HR MIN TEMP:  55; 6HR MAX TEMP:  74;                                

IONIA          FAIR      73  50  43 SE15      30.03F                  
6HR MIN TEMP:  51; 6HR MAX TEMP:  73;                                

KALAMAZOO      SUNNY     76  54  46 S15G24    30.02F                  
6HR MIN TEMP:  57; 6HR MAX TEMP:  76;                                

LUDINGTON      SUNNY     74  52  45 S10G18    29.94F                  
6HR MIN TEMP:  56; 6HR MAX TEMP:  74;                                

MARSHALL       SUNNY     73  51  45 SE16G22   30.06F                  
6HR MIN TEMP:  55; 6HR MAX TEMP:  74;                                

MOUNT PLEASANT MOSUNNY   73  51  46 SE17G24   30.04F                  
6HR MIN TEMP:  46; 6HR MAX TEMP:  73;                                

MUSKEGON       MOSUNNY   75  54  47 SE14G23   29.97F                  
6HR MIN TEMP:  58; 6HR MAX TEMP:  75;                                

SOUTH HAVEN    SUNNY     76  54  45 S21G30    29.97F                  
$$
MIZ016>042-231900-
NORTHERN LOWER MICHIGAN
  
CITY           SKY/WX    TMP DP  RH WIND       PRES   REMARKS
ALPENA         SUNNY     74  53  48 SE20      30.07F                  
6HR MIN TEMP:  43; 6HR MAX TEMP:  74;                                

BEAVER ISLAND  SUNNY     73  53  50 SE10      29.98F                  
6HR MIN TEMP:  55; 6HR MAX TEMP:  73;                                

BELLAIRE       SUNNY     75  52  44 SE14G22   29.99F                  
6HR MIN TEMP:  52; 6HR MAX TEMP:  76;                                

CADILLAC       PTSUNNY   71  52  50 S9        29.99F                  
6HR MIN TEMP:  55; 6HR MAX TEMP:  72;                                

CHARLEVOIX     SUNNY     74  53  47 S14G21    29.98F                  
6HR MIN TEMP:  55; 6HR MAX TEMP:  74;                                

FRANKFORT      MOSUNNY   73  53  49 S12       29.94F                  
GAYLORD        MOSUNNY   73  50  44 S18G24    30.03F                  
6HR MIN TEMP:  51; 6HR MAX TEMP:  73;                                

HARBOR SPRINGS MOSUNNY   74  53  46 S8G20     30.01F                  
HOUGHTON LAKE  SUNNY     72  52  49 S13G25    30.04F                  
6HR MIN TEMP:  52; 6HR MAX TEMP:  72;                                

MANISTEE       SUNNY     73  54  51 SE12G20   29.94F                  
OSCODA         SUNNY     71  52  51 S8G17     30.09F                  
6HR MIN TEMP:  49; 6HR MAX TEMP:  72;                                

PELLSTON       SUNNY     75  51  43 S16G24    30.02F                  
6HR MIN TEMP:  45; 6HR MAX TEMP:  75;                                

ROGERS CITY    SUNNY     75  53  47 S15G23    30.06F                  
TRAVERSE CITY  MOSUNNY   75  52  44 S13G22    29.95F                  
6HR MIN TEMP:  58; 6HR MAX TEMP:  75;                                

$$
MIZ007>008-015-231900-
EASTERN UPPER MICHIGAN
  
CITY           SKY/WX    TMP DP  RH WIND       PRES   REMARKS
KINROSS        SUNNY     70  53  54 SE20      30.03F                  
6HR MIN TEMP:  49; 6HR MAX TEMP:  70;                                

MACKINAC ISLAN SUNNY     69  52  54 SE8       30.02F                  
6HR MIN TEMP:  56; 6HR MAX TEMP:  69;                                

NEWBERRY       SUNNY     68  52  57 S15       29.99F                  
6HR MIN TEMP:  50; 6HR MAX TEMP:  68;                                

S. S. MARIE    SUNNY     67  53  61 SE13G23   30.02F                  
6HR MIN TEMP:  50; 6HR MAX TEMP:  68;                                

$$
MIZ004>006-011>014-085-231900-
CENTRAL UPPER MICHIGAN
  
CITY           SKY/WX    TMP DP  RH WIND       PRES   REMARKS
MANISTIQUE     SUNNY     61  52  72 SE10      29.97F                  
6HR MIN TEMP:  49; 6HR MAX TEMP:  61;                                

ESCANABA       SUNNY     61  52  72 S15G21    29.94F                  
6HR MIN TEMP:  52; 6HR MAX TEMP:  61;                                

MENOMINEE      SUNNY     63  53  70 S12G17    29.90F                  
6HR MIN TEMP:  52; 6HR MAX TEMP:  64;                                

SAWYER-GWINN   MOSUNNY   66  54  63 S18G24    29.89F                  
MUNISING         N/A     68  54  60 S14G32    29.90F                  
6HR MIN TEMP:  52; 6HR MAX TEMP:  69;                                

$$
MIZ001>003-009>011-084-231900-
WESTERN UPPER MICHIGAN
  
CITY           SKY/WX    TMP DP  RH WIND       PRES   REMARKS
IRON MOUNTAIN  SUNNY     69  54  58 SE15G23   29.86F                  
6HR MIN TEMP:  46; 6HR MAX TEMP:  70;                                

HOUGHTON       SUNNY     68  53  58 SE10G21   29.83S                  
6HR MIN TEMP:  50; 6HR MAX TEMP:  68;                                

COPPER HARBOR    N/A     64  53  67 SW14G31   29.82F                  
6HR MIN TEMP:  53; 6HR MAX TEMP:  64;                                

IRONWOOD       MOSUNNY   70  54  56 S14G28    29.75F                  
6HR MIN TEMP:  58; 6HR MAX TEMP:  70;                                

$$

ABBREVIATIONS USED IN REMARKS
   TC - TEMPERATURE IN CELSIUS
  WCI - WIND CHILL INDEX
   HX - HEAT INDEX
  VSB - VISIBILITY

  
