ASUS44 KOUN 220100
RWROK 

WEATHER ROUNDUP FOR OKLAHOMA
NATIONAL WEATHER SERVICE NORMAN OK
800 PM CDT FRI OCT 21 2022

NOTE: "FAIR" INDICATES FEW OR NO CLOUDS BELOW 12,000 FEET WITH NO
      SIGNIFICANT WEATHER AND/OR OBSTRUCTIONS TO VISIBILITY.

OKZ001>007-009>012-014-015-017-220200-
NORTHWEST OKLAHOMA AND THE PANHANDLE
  
CITY           SKY/WX    TMP DP  RH WIND       PRES   REMARKS
GAGE           CLEAR     71  28  20 S13       29.64R                  
GUYMON         CLEAR     72  20  14 S5        29.66R                  
$$

OKZ016-021>023-033>039-044-045-220200-
SOUTHWEST OKLAHOMA
  
CITY           SKY/WX    TMP DP  RH WIND       PRES   REMARKS
LAWTON/REGL    CLEAR     73  39  29 W6        29.71R                  
LAWTON/FT SILL CLEAR     79  37  21 S7        29.68R                  
FREDERICK      CLEAR     75  33  21 SW10      29.69R                  
CLINTON        CLEAR     73  38  27 S16       29.70R                  
HOBART         CLEAR     73  39  29 S12       29.71R                  
ALTUS AFB      CLEAR     71  37  29 S10       29.68S                  
$$

OKZ018>020-024>031-220200-
CENTRAL OKLAHOMA
  
CITY           SKY/WX    TMP DP  RH WIND       PRES   REMARKS
OKLAHOMA CITY  PTCLDY    69  40  34 S10       29.72R                  
OKC/WILEY POST CLEAR     77  38  24 S13       29.70S                  
OKC/TINKER AFB CLEAR     74  41  30 S7        29.69R                  
STILLWATER     CLEAR     76  38  25 S10       29.69S                  
GUTHRIE        CLEAR     77  38  24 S12       29.69S                  
$$

OKZ008-013-054>072-220200-
NORTHEAST OKLAHOMA
  
CITY           SKY/WX    TMP DP  RH WIND       PRES   REMARKS
TULSA          PTCLDY    80  43  26 S15       29.71R                  
TULSA/JONES    CLEAR     79  41  25 S7        29.72R                  
PONCA CITY     CLEAR     81  35  19 S9        29.66R                  
BARTLESVILLE   MOCLDY    75  42  30 S5        29.70R                  
MUSKOGEE       CLEAR     75  44  33 S9        29.78R                  
$$

OKZ032-040>043-046>053-073>077-220200-
SOUTH CENTRAL/SOUTHEAST OKLAHOMA
  
CITY           SKY/WX    TMP DP  RH WIND       PRES   REMARKS
MCALESTER      PTCLDY    77  43  29 VRB7      29.78R                  
$$

  
