ASUS44 KOUN 220010
RWROK 

WEATHER ROUNDUP FOR OKLAHOMA
NATIONAL WEATHER SERVICE NORMAN OK
700 PM CDT FRI OCT 21 2022

NOTE: "FAIR" INDICATES FEW OR NO CLOUDS BELOW 12,000 FEET WITH NO
      SIGNIFICANT WEATHER AND/OR OBSTRUCTIONS TO VISIBILITY.

OKZ001>007-009>012-014-015-017-220100-
NORTHWEST OKLAHOMA AND THE PANHANDLE
  
CITY           SKY/WX    TMP DP  RH WIND       PRES   REMARKS
GAGE           CLEAR     80  28  15 S15       29.63F                  
6HR MIN TEMP:  80; 6HR MAX TEMP:  93;                                

GUYMON         CLEAR     80  18  10 SW6       29.65S                  
ENID/WOODRING  PTCLDY    82  36  18 S20       29.65S                  
$$

OKZ016-021>023-033>039-044-045-220100-
SOUTHWEST OKLAHOMA
  
CITY           SKY/WX    TMP DP  RH WIND       PRES   REMARKS
LAWTON/REGL    CLEAR     83  36  18 S10       29.70F                  
6HR MIN TEMP:  83; 6HR MAX TEMP:  92;                                

LAWTON/FT SILL CLEAR     84  35  17 SW13      29.67F                  
FREDERICK      CLEAR     83  33  16 SW15      29.68S                  
CLINTON        CLEAR     77  34  21 S16       29.69S                  
HOBART         CLEAR     81  34  18 SW24G33   29.69F                  
ALTUS AFB      CLEAR     81  36  20 S13       29.68S                  
$$

OKZ018>020-024>031-220100-
CENTRAL OKLAHOMA
  
CITY           SKY/WX    TMP DP  RH WIND       PRES   REMARKS
OKLAHOMA CITY  PTCLDY    75  38  26 S10       29.71F                  
6HR MIN TEMP:  75; 6HR MAX TEMP:  89;                                

OKC/WILEY POST CLEAR     80  36  20 S15       29.70S                  
OKC/TINKER AFB CLEAR     77  40  25 S9        29.68F                  
STILLWATER     CLEAR     80  36  20 S10       29.69R                  
GUTHRIE        CLEAR     81  37  20 S13       29.69S                  
$$

OKZ008-013-054>072-220100-
NORTHEAST OKLAHOMA
  
CITY           SKY/WX    TMP DP  RH WIND       PRES   REMARKS
TULSA          PTCLDY    82  43  25 S10       29.70R                  
6HR MIN TEMP:  80; 6HR MAX TEMP:  89; 6HR PCP: TRACE;                

TULSA/JONES    CLEAR     82  41  23 S6        29.70R                  
PONCA CITY     CLEAR     85  33  15 S10G22    29.65R                  
BARTLESVILLE   MOCLDY    81  42  25 S8        29.68S                  
MUSKOGEE       CLEAR     78  41  26 S7        29.76S                  
$$

OKZ032-040>043-046>053-073>077-220100-
SOUTH CENTRAL/SOUTHEAST OKLAHOMA
  
CITY           SKY/WX    TMP DP  RH WIND       PRES   REMARKS
ARDMORE/DWNTWN CLEAR     78  48  34 SE7       29.76R                  
MCALESTER      CLEAR     80  41  24 S7        29.76F                  
$$

  
