ASUS45 KBOU 220010
RWRCO 

WEATHER ROUNDUP FOR COLORADO
NATIONAL WEATHER SERVICE DENVER/BOULDER CO
600 PM MDT FRI OCT 21 2022

NOTE: "FAIR" INDICATES FEW OR NO CLOUDS BELOW 12000 FEET WITH NO
SIGNIFICANT WEATHER AND/OR OBSTRUCTIONS TO VISIBILITY.

COZ001>005-013-030-031-220100-
...NORTHWEST COLORADO...
  
CITY           SKY/WX    TMP DP  RH WIND       PRES   REMARKS
CRAIG          FAIR      61  17  18 W13       29.84F                  
HAYDEN         FAIR      60  15  17 W13       29.88S                  
MEEKER         FAIR      62  18  18 SW17G29   29.88F                  
RANGELY        FAIR      69  16  13 SW14      29.82S                  
RABBIT EARS PA FAIR      43  18  36 W8        30.07S                  
STEAMBOAT SPGS FAIR      58  16  19 W12       29.86F                  
WALDEN         FAIR      54  14  20 SW12G22   29.93S                  
$$

COZ006>008-011-220100-
...WEST CENTRAL VALLEYS...
  
CITY           SKY/WX    TMP DP  RH WIND       PRES   REMARKS
GRAND JUNCTION FAIR      69  28  21 CALM      29.85F                  
MONTROSE       FAIR      67  22  18 SW10      29.91F                  
EAGLE          FAIR      63  14  15 W16G24    29.91F                  
RIFLE          FAIR      67  17  14 W14       29.87F                  
DELTA          FAIR      73  19  13 S3        29.88F                  
NUCLA          NOT AVBL                                               
$$

COZ017>023-064>068-220100-
...SOUTHWEST COLORADO...
  
CITY           SKY/WX    TMP DP  RH WIND       PRES   REMARKS
DURANGO        FAIR      61  26  26 W17       30.01S                  
CORTEZ         FAIR      65  25  22 W9        29.99F                  
PAGOSA SPRINGS FAIR      60  24  24 SW10G20   30.05F                  
TELLURIDE      FAIR      54  12  19 W8        30.12F                  
WOLF CREEK PAS FAIR      37  21  52 SW22G36   30.27F                  
$$

COZ009-010-012-014-032>034-037-058>063-220100-
...CENTRAL COLORADO...
  
CITY           SKY/WX    TMP DP  RH WIND       PRES   REMARKS
ASPEN          FAIR      57  18  21 W5        29.96F                  
BUENA VISTA      N/A     58   6  12 SW13      29.96F                  
COPPER MTN     FAIR      41  10  28 W20G30    30.16F                  
BERTHOUD PASS  FAIR      34   3  27 W29G41    30.12S WCI  20          
COTTONWOOD PAS FAIR      52   7  16 W13G26    30.05F                  
GUNNISON       FAIR      60  15  17 W12       29.99F                  
GRANBY         FAIR      55  11  17 SW15G24   29.95S                  
KREMMLING      FAIR      59  18  20 SW12G23   29.92S                  
LEADVILLE      FAIR      47  15  27 NW9       30.05F                  
SALIDA         FAIR     N/A N/A N/A W15G22    30.01F                  
SUNLIGHT       FAIR      41  12  30 SW10G22   30.15S                  
WILKERSON PASS FAIR      46   3  17 S15G24    30.13F                  
$$

COZ069>075-220100-
...SAN LUIS VALLEY/SANGRE DE CRISTO MOUNTAINS...
  
CITY           SKY/WX    TMP DP  RH WIND       PRES   REMARKS
ALAMOSA        FAIR      61  22  22 SW16      29.94F                  
DEL NORTE      FAIR      58  22  25 W17       29.98F                  
LA VETA PASS   FAIR      46  10  23 SW13G22   30.07F                  
SAGUACHE       FAIR      61  14  16 NW16      29.99F                  
$$

COZ035-036-038>040-220100-
...NORTHERN COLORADO FRONT RANGE...
  
CITY           SKY/WX    TMP DP  RH WIND       PRES   REMARKS
DENVER INTL AP FAIR      72  13  10 NW15      29.72F                  
AURORA         PTCLDY    67  13  12 NW7       29.73F                  
WATKINS        NOT AVBL                                               
ERIE           FAIR      73  11   9 SW15G24   29.71F                  
BOULDER        FAIR      72  18  13 SW13G20   29.72F                  
CENTENNIAL     FAIR      70  12  10 CALM      29.76S                  
BROOMFIELD     PTCLDY    72  12  10 W26G33    29.75F                  
FORT COLLINS   FAIR      71  15  11 NW9       29.69F                  
LONGMONT       FAIR      74  17  11 SW9G17    29.72R                  
$$

COZ041-046-047-076>085-087-088-220100-
...PIKES PEAK/PALMER DIVIDE AND SOUTHERN FOOTHILLS...
  
CITY           SKY/WX    TMP DP  RH WIND       PRES   REMARKS
COLO. SPRINGS  FAIR      71  12  10 S7        29.79F                  
A. F. ACADEMY  FAIR      65   2   8 NW6       29.78F                  
SCHRIEVER AFB  NOT AVBL                                               
CHEYENNE MTN   FAIR      65  13  13 CALM      29.70F                  
ELLICOTT       FAIR      68   7   9 SW13      29.78F                  
FALCON         FAIR      65  15  14 SW3       29.84F                  
FORT CARSON    FAIR      72   7   8 W17       29.73F                  
LIMON          FAIR      66  10  11 CALM      29.74F                  
MONUMENT HILL  FAIR      63   7  11 W9        29.85S                  
CANON CITY     FAIR      73  14  10 W16       29.75F                  
WALSENBURG     NOT AVBL                                               
TRINIDAD       FAIR      72  13  10 SE3       29.79F                  
$$

COZ042>045-048>051-090-091-220100-
...NORTHEAST COLORADO...
  
CITY           SKY/WX    TMP DP  RH WIND       PRES   REMARKS
GREELEY        FAIR      70  19  14 SE6       29.68F                  
AKRON          FAIR      71  19  14 SE3       29.69F                  
BURLINGTON     FAIR      66  18  15 SE10      29.69F                  
WRAY           FAIR      70  18  13 S6        29.65S                  
YUMA           NOT AVBL                                               
STERLING       FAIR      68  25  19 S3        29.63F                  
HOLYOKE        FAIR      68  19  15 SW7       29.64F                  
FORT MORGAN    FAIR      70  21  16 W5        29.67F                  
$$

COZ086-089-092>099-220100-
...SOUTHEAST COLORADO...
  
CITY           SKY/WX    TMP DP  RH WIND       PRES   REMARKS
PUEBLO         FAIR      76   9   7 W10       29.70F                  
LA JUNTA       FAIR      76  11   8 CALM      29.70F                  
LAMAR          FAIR      73  16  11 S7        29.66F                  
SPRINGFIELD      N/A     71  15  11 SE5       29.71F                  
$$
  
