ASUS45 KBOU 220210
RWRCO 

WEATHER ROUNDUP FOR COLORADO
NATIONAL WEATHER SERVICE DENVER/BOULDER CO
800 PM MDT FRI OCT 21 2022

NOTE: "FAIR" INDICATES FEW OR NO CLOUDS BELOW 12000 FEET WITH NO
SIGNIFICANT WEATHER AND/OR OBSTRUCTIONS TO VISIBILITY.

COZ001>005-013-030-031-220300-
...NORTHWEST COLORADO...
  
CITY           SKY/WX    TMP DP  RH WIND       PRES   REMARKS
CRAIG          FAIR      57  18  21 SW13G23   29.86R                  
HAYDEN         FAIR      51  17  26 SW6       29.89S                  
MEEKER         FAIR      54  19  25 S8        29.89R                  
RANGELY        FAIR      60  20  21 S12       29.82S                  
RABBIT EARS PA FAIR      37  18  44 W10       30.07S                  
STEAMBOAT SPGS FAIR      52  14  22 NE3       29.88S                  
WALDEN         FAIR      45  12  26 S7        29.93S                  
$$

COZ006>008-011-220300-
...WEST CENTRAL VALLEYS...
  
CITY           SKY/WX    TMP DP  RH WIND       PRES   REMARKS
GRAND JUNCTION FAIR      56  32  40 SE7       29.84R                  
MONTROSE       FAIR      59  26  28 SW9       29.93R                  
EAGLE          FAIR      55  15  20 NE3       29.94R                  
RIFLE          FAIR      56  19  23 S8        29.88S                  
DELTA          FAIR      64  25  22 SW7       29.89R                  
NUCLA          NOT AVBL                                               
$$

COZ017>023-064>068-220300-
...SOUTHWEST COLORADO...
  
CITY           SKY/WX    TMP DP  RH WIND       PRES   REMARKS
DURANGO        FAIR      54  25  32 CALM      30.03R                  
CORTEZ         FAIR      47  30  51 E8        29.98S                  
PAGOSA SPRINGS FAIR      44  26  49 CALM      30.07S THUNDER          
TELLURIDE      FAIR      46  14  27 CALM      30.12S                  
WOLF CREEK PAS FAIR      32  19  59 SW29G39   30.25R WCI  18          
$$

COZ009-010-012-014-032>034-037-058>063-220300-
...CENTRAL COLORADO...
  
CITY           SKY/WX    TMP DP  RH WIND       PRES   REMARKS
ASPEN          FAIR      40  17  39 VRB3      29.98R                  
BUENA VISTA      N/A     50  11  21 W10       29.96F                  
COPPER MTN     FAIR      37  14  38 W15       30.16S                  
BERTHOUD PASS  FAIR      30   9  40 NW25G33   30.12S WCI  16          
DAKOTA HILL    FAIR      37  10  32 CALM      30.05S                  
COTTONWOOD PAS FAIR      46  12  25 NW10G21   30.04F                  
GUNNISON       FAIR      48  18  30 S5        30.00R                  
GRANBY         FAIR      51  13  22 W12G24    29.97S                  
KREMMLING      FAIR      54  18  24 W10G20    29.94S                  
LEADVILLE      FAIR      40  15  36 NW7       30.05S                  
SALIDA         FAIR      55  13  18 SW9       30.01S                  
SUNLIGHT       FAIR      36  12  38 SW16G24   30.14F                  
WILKERSON PASS FAIR      37   5  25 S15G26    30.12S                  
$$

COZ069>075-220300-
...SAN LUIS VALLEY/SANGRE DE CRISTO MOUNTAINS...
  
CITY           SKY/WX    TMP DP  RH WIND       PRES   REMARKS
ALAMOSA        FAIR      53  24  32 SW14      29.97R                  
DEL NORTE      FAIR      54  22  28 W17G23    30.00S                  
LA VETA PASS   FAIR      41  18  38 SW17G28   30.06S                  
SAGUACHE         N/A     46  18  31 NW9       30.02R                  
$$

COZ035-036-038>040-220300-
...NORTHERN COLORADO FRONT RANGE...
  
CITY           SKY/WX    TMP DP  RH WIND       PRES   REMARKS
DENVER INTL AP FAIR      63  13  14 W10       29.72F                  
AURORA         PTCLDY    57  13  17 S7        29.75R                  
WATKINS        NOT AVBL                                               
ERIE           FAIR      69  11  10 W14G23    29.73R                  
BOULDER        FAIR      68  18  14 SW8       29.73S                  
CENTENNIAL     FAIR      60  10  14 W6        29.77R                  
BROOMFIELD     PTCLDY    66  12  12 W14       29.77S                  
FORT COLLINS   FAIR      66  20  17 W15       29.70S                  
LONGMONT       FAIR      72  15  11 W13G18    29.73S                  
$$

COZ041-046-047-076>085-087-088-220300-
...PIKES PEAK/PALMER DIVIDE AND SOUTHERN FOOTHILLS...
  
CITY           SKY/WX    TMP DP  RH WIND       PRES   REMARKS
COLO. SPRINGS  FAIR      64  14  14 NW9       29.81R                  
A. F. ACADEMY  FAIR      60   7  12 W10       29.81R                  
SCHRIEVER AFB  NOT AVBL                                               
CHEYENNE MTN   FAIR      63   9  12 W12       29.75S                  
ELLICOTT       FAIR      58  12  16 W8        29.79R                  
FALCON         FAIR      54   9  17 NW12G20   29.85S                  
FORT CARSON    FAIR      64  10  12 W13       29.75S                  
LIMON          FAIR      44   7  21 CALM      29.74S                  
MONUMENT HILL  FAIR      50   7  17 W6        29.87R                  
CANON CITY     FAIR      63  12  14 W6        29.77R                  
WALSENBURG     NOT AVBL                                               
TRINIDAD       FAIR      58  18  21 SW14      29.81R                  
$$

COZ042>045-048>051-090-091-220300-
...NORTHEAST COLORADO...
  
CITY           SKY/WX    TMP DP  RH WIND       PRES   REMARKS
GREELEY        FAIR      58  24  27 VRB3      29.70R                  
AKRON          FAIR      60  16  18 W3        29.69S                  
BURLINGTON     FAIR      56  16  20 S12       29.69S                  
WRAY           FAIR      63  19  19 S10       29.65S                  
YUMA           NOT AVBL                                               
STERLING       FAIR      55  23  28 SW6       29.64S                  
HOLYOKE        FAIR      59  23  25 S12       29.65S                  
FORT MORGAN    FAIR      66  16  14 CALM      29.67F                  
$$

COZ086-089-092>099-220300-
...SOUTHEAST COLORADO...
  
CITY           SKY/WX    TMP DP  RH WIND       PRES   REMARKS
PUEBLO         FAIR      59  10  14 NW7       29.72R                  
LA JUNTA       FAIR      63  14  15 S6        29.70R                  
LAMAR          FAIR      51  15  23 S7        29.65F                  
SPRINGFIELD      N/A     54  16  22 CALM      29.72S                  
$$
  
