ASUS45 KBOU 220110
RWRCO 

WEATHER ROUNDUP FOR COLORADO
NATIONAL WEATHER SERVICE DENVER/BOULDER CO
700 PM MDT FRI OCT 21 2022

NOTE: "FAIR" INDICATES FEW OR NO CLOUDS BELOW 12000 FEET WITH NO
SIGNIFICANT WEATHER AND/OR OBSTRUCTIONS TO VISIBILITY.

COZ001>005-013-030-031-220200-
...NORTHWEST COLORADO...
  
CITY           SKY/WX    TMP DP  RH WIND       PRES   REMARKS
CRAIG          FAIR      47  17  30 SW6       29.85R                  
HAYDEN         FAIR      55  14  19 W6        29.89R                  
MEEKER           N/A     57  20  23 S12       29.88S                  
RANGELY        FAIR      64  16  15 S12       29.81S                  
RABBIT EARS PA FAIR      41  18  38 W7G21     30.07S                  
STEAMBOAT SPGS FAIR      54  14  20 W6        29.88R                  
WALDEN         FAIR      48  16  27 SW13      29.94S                  
$$

COZ006>008-011-220200-
...WEST CENTRAL VALLEYS...
  
CITY           SKY/WX    TMP DP  RH WIND       PRES   REMARKS
GRAND JUNCTION FAIR      59  28  30 CALM      29.83F                  
MONTROSE       FAIR      61  23  23 S8        29.91S                  
EAGLE          FAIR      58  14  17 W7        29.92R                  
RIFLE          FAIR      61  18  18 W7        29.88R                  
DELTA          FAIR      65  25  22 SW3       29.87S                  
NUCLA          NOT AVBL                                               
$$

COZ017>023-064>068-220200-
...SOUTHWEST COLORADO...
  
CITY           SKY/WX    TMP DP  RH WIND       PRES   REMARKS
DURANGO        FAIR      57  25  29 W8        30.01S                  
CORTEZ         FAIR      52  30  43 SE5       29.98F                  
PAGOSA SPRINGS FAIR      55  24  29 CALM      30.06R                  
TELLURIDE      FAIR      50  14  23 CALM      30.12S                  
WOLF CREEK PAS FAIR      34  21  60 SW23G33   30.26R WCI  22          
$$

COZ009-010-012-014-032>034-037-058>063-220200-
...CENTRAL COLORADO...
  
CITY           SKY/WX    TMP DP  RH WIND       PRES   REMARKS
ASPEN          FAIR      47  17  30 SW5       29.96S                  
BUENA VISTA      N/A     53   9  17 W9        29.97R                  
COPPER MTN     FAIR      37  12  35 W15G25    30.16S                  
BERTHOUD PASS  FAIR      32   9  37 W23G36    30.12S WCI  19          
DAKOTA HILL    FAIR      39   9  28 W10       30.05F                  
COTTONWOOD PAS FAIR      48  10  21 W10G31    30.05S                  
GUNNISON       FAIR      55  16  21 W7        29.99S                  
GRANBY         FAIR      52  11  19 W12G20    29.97R                  
KREMMLING      FAIR      54  18  24 W14G21    29.93R                  
LEADVILLE      FAIR      43  15  32 NW8       30.05S                  
SALIDA         FAIR      57  10  15 SW8       30.01S                  
SUNLIGHT       FAIR      36  12  38 SW12G25   30.15R                  
WILKERSON PASS FAIR      41   1  19 S13G25    30.12S                  
$$

COZ069>075-220200-
...SAN LUIS VALLEY/SANGRE DE CRISTO MOUNTAINS...
  
CITY           SKY/WX    TMP DP  RH WIND       PRES   REMARKS
ALAMOSA        FAIR      53  23  31 SW10      29.95R                  
DEL NORTE      FAIR      55  23  29 W16G23    29.99R                  
LA VETA PASS   FAIR      43  12  28 SW16G22   30.06F                  
SAGUACHE         N/A     52  16  24 NW8       30.00R                  
$$

COZ035-036-038>040-220200-
...NORTHERN COLORADO FRONT RANGE...
  
CITY           SKY/WX    TMP DP  RH WIND       PRES   REMARKS
DENVER INTL AP FAIR      66  13  12 W8        29.73R                  
AURORA         PTCLDY    64  12  13 CALM      29.74R                  
WATKINS        NOT AVBL                                               
ERIE           FAIR      71  11  10 W16G25    29.72R                  
BOULDER        FAIR      70  18  13 SW7       29.73R                  
CENTENNIAL     FAIR      64   6  10 CALM      29.76S                  
BROOMFIELD     PTCLDY    66  12  12 W20       29.77R                  
FORT COLLINS   FAIR      69  15  12 N3        29.70R                  
LONGMONT       FAIR      71  16  12 W7        29.73R                  
$$

COZ041-046-047-076>085-087-088-220200-
...PIKES PEAK/PALMER DIVIDE AND SOUTHERN FOOTHILLS...
  
CITY           SKY/WX    TMP DP  RH WIND       PRES   REMARKS
COLO. SPRINGS  FAIR      65  13  13 VRB6      29.80R                  
A. F. ACADEMY  FAIR      55   5  13 NW9       29.80R                  
SCHRIEVER AFB  NOT AVBL                                               
CHEYENNE MTN   FAIR      64  14  14 NW12G21   29.75R                  
ELLICOTT       FAIR      60   9  13 SW9       29.78S                  
FALCON         FAIR      56  14  19 N6        29.84S                  
FORT CARSON    FAIR      65  10  11 W12       29.75R                  
LIMON          FAIR      47   7  19 N6        29.74S                  
MONUMENT HILL  FAIR      52   9  17 NW5       29.86R                  
CANON CITY     FAIR      66  14  13 W8        29.76S                  
WALSENBURG     NOT AVBL                                               
TRINIDAD       FAIR      61  16  17 SW10      29.80R                  
$$

COZ042>045-048>051-090-091-220200-
...NORTHEAST COLORADO...
  
CITY           SKY/WX    TMP DP  RH WIND       PRES   REMARKS
GREELEY        FAIR      64  23  21 S5        29.69R                  
AKRON          FAIR      56  19  23 W7        29.69S                  
BURLINGTON     FAIR      57  17  21 SE14      29.69S                  
WRAY           FAIR      64  18  16 S3        29.65S                  
YUMA           NOT AVBL                                               
STERLING       FAIR      61  23  23 CALM      29.64R                  
HOLYOKE        FAIR      55  21  26 S3        29.64S                  
FORT MORGAN    FAIR      66  18  15 CALM      29.68R                  
$$

COZ086-089-092>099-220200-
...SOUTHEAST COLORADO...
  
CITY           SKY/WX    TMP DP  RH WIND       PRES   REMARKS
PUEBLO         FAIR      68  10  10 W9        29.71R                  
LA JUNTA       FAIR      67  14  13 SE8       29.69F                  
LAMAR          FAIR      69  16  13 S10       29.66S                  
SPRINGFIELD      N/A     62  16  16 SE8       29.72R                  
$$
  
