FTPA31 PHFO 231735
TAFMDY
TAF
PMDY 231735Z 2318/2418 VRB03KT P6SM SCT025
     FM232200 05007KT P6SM VCSH SCT025 BKN040=
