FTPA31 PHFO 231735
TAFHNY
TAF
PHNY 231735Z 2318/2418 VRB05KT P6SM FEW020
     FM232200 04012KT P6SM SCT025
     FM240800 05006KT P6SM SCT025=
