FTPA31 PHFO 232100 AAA
TAFHJH
TAF AMD
PHJH 232100Z 2321/2418 07015KT P6SM VCSH FEW030 SCT050
     FM240500 06009KT P6SM SCT050=
