FTPA31 PHFO 231735
TAFHTO
TAF
PHTO 231735Z 2318/2418 24006KT P6SM VCSH FEW030 BKN050
     FM232000 10009KT P6SM VCSH SCT025 BKN050
     FM240600 23005KT P6SM VCSH SCT025 BKN040=
