FTPA31 PHFO 232059 AAA
TAFHMK
TAF AMD
PHMK 232059Z 2321/2418 04014G22KT P6SM VCSH SCT045
     FM240500 04007KT P6SM FEW020 SCT040=
