FTPA31 PHFO 231735
TAFHJH
TAF
PHJH 231735Z 2318/2418 07009KT P6SM SCT030
     FM232000 06015KT P6SM VCSH SCT030 BKN050
     FM240500 06009KT P6SM SCT050=
