FTPA31 PHFO 231735
TAFHNL
TAF
PHNL 231735Z 2318/2424 05009KT P6SM VCSH FEW025 BKN050
     FM232000 06014KT P6SM VCSH SCT025 BKN040
     FM240600 06007KT P6SM FEW025 SCT040
     FM242000 07015KT P6SM FEW025 SCT045=
