FTPA31 PHFO 231735
TAFHLI
TAF
PHLI 231735Z 2318/2418 07011KT P6SM SCT025
     FM232000 06014KT P6SM VCSH SCT025 BKN040
     FM240000 06011KT P6SM VCSH SCT025 BKN040=
