FTPA31 PHFO 231735
TAFHMK
TAF
PHMK 231735Z 2318/2418 04005KT P6SM FEW045
     FM232000 05014G22KT P6SM VCSH SCT020 BKN040
     FM240500 04007KT P6SM FEW020 SCT040=
