FTPA31 PHFO 231735
TAFHKO
TAF
PHKO 231735Z 2318/2418 11006KT P6SM FEW050
     FM232100 20011KT P6SM SCT050
     FM240500 13006KT P6SM FEW050=
