FTPA31 PHFO 232101 AAA
TAFSTU
TAF AMD
NSTU 232101Z 2321/2418 34012G20KT P6SM VCSH SCT020 SCT040 BKN100
     FM240500 25007KT 6SM -SHRA SCT020 BKN040 OVC100=
