FTPA31 PHFO 232058 AAA
TAFHNL
TAF AMD
PHNL 232058Z 2321/2424 07013KT P6SM VCSH SCT025 SCT045 BKN060
     FM240600 06007KT P6SM FEW025 SCT040
     FM242000 07015KT P6SM FEW025 SCT045=
