FTPA31 PHFO 232101 AAA
TAFHTO
TAF AMD
PHTO 232101Z 2321/2418 07009KT P6SM VCSH SCT030 BKN045
     FM240600 23005KT P6SM VCSH SCT025 BKN040=
