ASUS43 KTOP 231759
RWRKS 

WEATHER ROUNDUP FOR KANSAS
NATIONAL WEATHER SERVICE GOODLAND KS
100 PM CDT SUN OCT 23 2022

NOTE:  "FAIR" INDICATES FEW OR NO CLOUDS BELOW 12,000 FEET WITH NO
SIGNIFICANT WEATHER AND/OR OBSTRUCTIONS TO VISIBILITY.

KSZ001>006-013>018-027>032-041>047-231900-
NORTHWEST KANSAS
  
CITY           SKY/WX    TMP DP  RH WIND       PRES   REMARKS
GOODLAND       PTSUNNY   79  25  13 SW31G52   29.30F HAZE             
6HR MIN TEMP:  58; 6HR MAX TEMP:  80;                                

HAYS           CLOUDY    85  49  28 S23G38    29.35F                  
HILL CITY      CLOUDY    88  46  23 SW22G40   29.31F HAZE             
6HR MIN TEMP:  59; 6HR MAX TEMP:  88;                                

RUSSELL        MOSUNNY   84  51  31 S29G43    29.38F                  
6HR MIN TEMP:  62; 6HR MAX TEMP:  85;                                

$$

KSZ061>065-074>080-084>089-231900-
SOUTHWEST KANSAS
  
CITY           SKY/WX    TMP DP  RH WIND       PRES   REMARKS
DODGE CITY       N/A     87  43  21 SW33G60   29.41F HAZE             
6HR MIN TEMP:  63; 6HR MAX TEMP:  87;                                

GARDEN CITY    SUNNY     85  37  18 SW45G64   29.39F BLWGDUST         
6HR MIN TEMP:  54; 6HR MAX TEMP:  85; 6HR PCP: TRACE;                

GREAT BEND     PTSUNNY   86  52  30 S30G39    29.40F                  
LIBERAL        MOSUNNY   85  43  22 SW39G47   29.49F HAZE             
$$

KSZ066>073-081>083-090>101-231900-
SOUTHEAST KANSAS
  
CITY           SKY/WX    TMP DP  RH WIND       PRES   REMARKS
CHANUTE        MOSUNNY   81  59  47 S29G44    29.66F                  
6HR MIN TEMP:  71; 6HR MAX TEMP:  83;                                

COFFEYVILLE    SUNNY     80  61  52 S28G40    29.66F                  
6HR MIN TEMP:  70; 6HR MAX TEMP:  80;                                

HUTCHINSON     PTSUNNY   79  54  41 S29G41    29.48F BLWGDUST         
6HR MIN TEMP:  67; 6HR MAX TEMP:  82;                                

NEWTON         MOSUNNY   79  55  43 S31G43    29.53F                  
PARSONS        MOSUNNY   81  58  45 S25G38    29.68F                  
6HR MIN TEMP:  70; 6HR MAX TEMP:  81;                                

WICHITA INTL   PTSUNNY   82  55  39 S32G47    29.54F                  
6HR MIN TEMP:  71; 6HR MAX TEMP:  82;                                

WICHITA JABRA  PTSUNNY   83  54  36 S28G45    29.56F                  
6HR MIN TEMP:  71; 6HR MAX TEMP:  83;                                

WICHITA MCCONL PTSUNNY   83  55  38 SW26G38   29.54F                  
WINFIELD       PTSUNNY   83  59  44 S25G40    29.62F                  
6HR MIN TEMP:  71; 6HR MAX TEMP:  83;                                

$$

KSZ007>012-019>026-033>040-048>060-102>105-231900-
NORTHEAST KANSAS
  
CITY           SKY/WX    TMP DP  RH WIND       PRES   REMARKS
CONCORDIA      MOSUNNY   85  54  34 S29G39    29.41F                  
6HR MIN TEMP:  68; 6HR MAX TEMP:  87;                                

EMPORIA        MOSUNNY   83  58  42 S28G48    29.56F                  
6HR MIN TEMP:  69; 6HR MAX TEMP:  83;                                

LAWRENCE       MOSUNNY   81  58  45 S23G33    29.57F                  
6HR MIN TEMP:  71; 6HR MAX TEMP:  83;                                

MANHATTAN      SUNNY     85  55  35 S24G39    29.48F                  
6HR MIN TEMP:  70; 6HR MAX TEMP:  86;                                

OLATHE IND     SUNNY     82  58  43 S25G37    29.61F                  
6HR MIN TEMP:  69; 6HR MAX TEMP:  82;                                

OLATHE EXE     SUNNY     81  58  45 S22G37    29.60F                  
6HR MIN TEMP:  70; 6HR MAX TEMP:  81;                                

SALINA         PTSUNNY   79  55  43 S26G47    29.45F                  
6HR MIN TEMP:  68; 6HR MAX TEMP:  81;                                

TOPEKA BILLARD SUNNY     84  58  40 S28G41    29.54F                  
6HR MIN TEMP:  72; 6HR MAX TEMP:  85;                                

TOPEKA FORBES  SUNNY     83  61  47 S32G40    29.54F                  
6HR MIN TEMP:  70; 6HR MAX TEMP:  83;                                

$$
  
