ASUS43 KGLD 232108
RWRGLD

GOODLAND FORECAST AREA HOURLY WEATHER ROUNDUP
NATIONAL WEATHER SERVICE GOODLAND KS
300 PM MDT SUN OCT 23 2022

...OFFICIAL OBSERVATIONS...
  
CITY           SKY/WX    TMP DP  RH WIND       PRES   REMARKS
GOODLAND KS    MOSUNNY   82  24  12 SW36G49   29.29R                  
HILL CITY KS   CLOUDY    89  34  14 SW26G47   29.27S HAZE             
IMPERIAL NEB   MOSUNNY   71  27  19 NW23G31   29.25R                  
MCCOOK NEB     CLOUDY    85  27  12 SW26G45   29.22S HAZE             
AKRON CO       PTSUNNY   63  34  33 N18       29.32R                  
BURLINGTON CO  MOSUNNY   79  25  13 SW39G52   29.33R                  
LIMON CO       SUNNY     71  28  20 SW26G38   29.37R                  
$$

...UNOFFICIAL OBSERVATIONS...
  
CITY           SKY/WX    TMP DP  RH WIND       PRES   REMARKS
COLBY KS       SUNNY    N/A N/A N/A SW31G44   29.28F                  
NORTON KS      CLOUDY    88  36  15 SW21G36   29.27S                  
$$
  
