ASUS43 KGLD 231908
RWRGLD

GOODLAND FORECAST AREA HOURLY WEATHER ROUNDUP
NATIONAL WEATHER SERVICE GOODLAND KS
100 PM MDT SUN OCT 23 2022

...OFFICIAL OBSERVATIONS...
  
CITY           SKY/WX    TMP DP  RH WIND       PRES   REMARKS
GOODLAND KS    CLOUDY    80  24  12 SW32G52   29.29F HAZE             
HILL CITY KS   CLOUDY    89  44  20 SW24G43   29.28F HAZE             
IMPERIAL NEB   MOSUNNY   83  27  13 SW22G47   29.20F                  
MCCOOK NEB     MOSUNNY   85  33  15 SW30G44   29.23F                  
AKRON CO       SUNNY     73  28  18 NW17G33   29.28R                  
BURLINGTON CO  PTSUNNY   80  24  12 SW41G59   29.32F HAZE             
LIMON CO       SUNNY     71  25  17 SW24G49   29.35R                  
$$

...UNOFFICIAL OBSERVATIONS...
  
CITY           SKY/WX    TMP DP  RH WIND       PRES   REMARKS
COLBY KS       SUNNY    N/A N/A N/A SW32G44   29.30F                  
NORTON KS      CLOUDY    88  36  15 SW26G46   29.28F                  
$$
  
