ASUS43 KGLD 231759
RWRGLD

GOODLAND FORECAST AREA HOURLY WEATHER ROUNDUP
NATIONAL WEATHER SERVICE GOODLAND KS
1200 PM MDT SUN OCT 23 2022

...OFFICIAL OBSERVATIONS...
  
CITY           SKY/WX    TMP DP  RH WIND       PRES   REMARKS
GOODLAND KS    PTSUNNY   79  25  13 SW31G52   29.30F HAZE             
HILL CITY KS   CLOUDY    88  46  23 SW22G40   29.31F HAZE             
IMPERIAL NEB   MOSUNNY   80  28  15 SW33G53   29.22S                  
MCCOOK NEB     SUNNY     84  37  18 SW43G59   29.24F HAZE             
AKRON CO       SUNNY     75  26  16 SW25G39   29.27S                  
BURLINGTON CO  CLOUDY    77  25  14 SW43G60   29.34F HAZE             
LIMON CO       SUNNY     71  25  17 SW32G53   29.34S                  
$$

...UNOFFICIAL OBSERVATIONS...
  
CITY           SKY/WX    TMP DP  RH WIND       PRES   REMARKS
COLBY KS       MOSUNNY   81  37  21 SW40G48   29.32F HAZE             
$$
  
