ASUS42 KFFC 232103
RWRGA 
WEATHER ROUNDUP FOR GEORGIA
NATIONAL WEATHER SERVICE PEACHTREE CITY GA
500 PM EDT SUN OCT 23 2022

NOTE: "FAIR" INDICATES FEW OR NO CLOUDS BELOW 12,000 FEET WITH NO
SIGNIFICANT WEATHER AND/OR OBSTRUCTIONS TO VISIBILITY. 

* = USE WITH CAUTION. THE STATIONS MARKED WITH AN ASTERISK MAY NOT
REPORT WEATHER SUCH AS PRECIPITATION, FOG, OR THUNDER AND ARE NOT 
QUALITY CONTROLLED BY NWS.

THE REMARK "TC" DENOTES TEMPERATURE READING IN DEGREES CELSIUS.

GAZ001>058-232200-
NORTH GEORGIA
  
CITY           SKY/WX    TMP DP  RH WIND       PRES   REMARKS
ATLANTA        MOSUNNY   74  36  25 SE3       30.15F                  
ATHENS         SUNNY     75  38  26 VRB3      30.14F                  
CHAMBLEE       SUNNY     73  35  25 CALM      30.14F                  
PEACHTREE CITY SUNNY     74  32  21 S3        30.15S                  
ROME           SUNNY     76  39  26 SE5       30.12F                  
WEST ATLANTA   SUNNY     73  34  23 VRB3      30.14F                  
GAINESVILLE    SUNNY     75  39  27 VRB3      30.16F                  
CARTERSVILLE   SUNNY     73  36  25 CALM      30.14F                  

  
CITY           SKY/WX    TMP DP  RH WIND       PRES   REMARKS
DALTON*        SUNNY     74  38  26 SW3       30.13S                  
LAWRENCEVILLE* SUNNY     74  40  29 S5        30.15S                  
MARIETTA       MOSUNNY   73  35  25 SE3       30.13F                  
KENNESAW*      SUNNY     75  38  26 E5        30.15F                  
CANTON*        SUNNY     73  37  27 S3        30.15S                  
BLAIRSVILLE*   SUNNY     73  31  21 E3        30.15F                  
$$

GAZ059>098-102>109-232200-
CENTRAL GEORGIA
  
CITY           SKY/WX    TMP DP  RH WIND       PRES   REMARKS
AUGUSTA-BUSH   SUNNY     77  45  32 NW5       30.12F                  
AUGUSTA-DANIEL SUNNY     77  45  32 N7        30.14S                  
COLUMBUS       SUNNY     77  40  26 CALM      30.12F                  
MACON          SUNNY     78  48  34 SE6       30.13F                  
ROBINS AFB     SUNNY     78  48  34 CALM      30.11F                  

  
CITY           SKY/WX    TMP DP  RH WIND       PRES   REMARKS
LAGRANGE*      SUNNY     75  36  24 SE3       30.13F                  
SYLVANIA*      SUNNY     78  49  35 N3        30.14S                  
MILLEDGEVILLE* SUNNY     77  46  33 CALM      30.13S                  
$$

GAZ099>101-110>166-232200-
SOUTH GEORGIA
  
CITY           SKY/WX    TMP DP  RH WIND       PRES   REMARKS
SAVANNAH       MOSUNNY   77  50  38 N9        30.12S                  
VALDOSTA       MOSUNNY   80  49  33 NE3       30.10F                  
ALMA           SUNNY     80  51  36 N5        30.11S                  
ST SIMONS      SUNNY     73  58  59 E12       30.13S                  
FT STEWART     SUNNY     77  53  42 CALM      30.09S                  
ALBANY         SUNNY     79  45  29 NE7       30.13S                  
HUNTER AFB     SUNNY     78  55  43 CALM      30.10S                  
MOODY AFB      MOSUNNY   78  48  34 N6        30.09F                  
BRUNSWICK      SUNNY     74  56  52 E13       30.13S                  

  
CITY           SKY/WX    TMP DP  RH WIND       PRES   REMARKS
BAINBRIDGE*    SUNNY     79  44  29 E5        30.12S                  
MOULTRIE*      SUNNY     77  46  33 N3        30.12S                  
VIDALIA*       SUNNY     79  50  36 SE3       30.12F                  
WAYCROSS*      SUNNY     80  50  35 N3        30.11S                  
DOUGLAS*       SUNNY     78  48  35 NE3       30.13S                  
$$
  
