ASUS42 KFFC 231903
RWRGA 
WEATHER ROUNDUP FOR GEORGIA
NATIONAL WEATHER SERVICE PEACHTREE CITY GA
300 PM EDT SUN OCT 23 2022

NOTE: "FAIR" INDICATES FEW OR NO CLOUDS BELOW 12,000 FEET WITH NO
SIGNIFICANT WEATHER AND/OR OBSTRUCTIONS TO VISIBILITY. 

* = USE WITH CAUTION. THE STATIONS MARKED WITH AN ASTERISK MAY NOT
REPORT WEATHER SUCH AS PRECIPITATION, FOG, OR THUNDER AND ARE NOT 
QUALITY CONTROLLED BY NWS.

THE REMARK "TC" DENOTES TEMPERATURE READING IN DEGREES CELSIUS.

GAZ001>058-232000-
NORTH GEORGIA
  
CITY           SKY/WX    TMP DP  RH WIND       PRES   REMARKS
ATLANTA        MOSUNNY   72  37  28 VRB5      30.17F                  
ATHENS         SUNNY     74  41  30 VRB3      30.16F                  
CHAMBLEE       SUNNY     71  37  28 CALM      30.17F                  
PEACHTREE CITY SUNNY     73  35  25 SE5       30.17F                  
ROME           SUNNY     74  38  27 CALM      30.16F                  
WEST ATLANTA   SUNNY     73  37  27 E3        30.16F                  
GAINESVILLE    SUNNY     73  40  30 SW3       30.18F                  
CARTERSVILLE   SUNNY     72  37  28 CALM      30.17F                  

  
CITY           SKY/WX    TMP DP  RH WIND       PRES   REMARKS
DALTON*        SUNNY     73  37  26 SE5       30.17F                  
LAWRENCEVILLE* SUNNY     73  41  31 VRB5      30.17F                  
MARIETTA       MOSUNNY   72  34  25 NW3       30.16F                  
KENNESAW*      SUNNY     72  37  28 CALM      30.18F                  
CANTON*        SUNNY     70  35  27 CALM      30.18F                  
BLAIRSVILLE*   SUNNY     72  27  19 W5        30.18F                  
$$

GAZ059>098-102>109-232000-
CENTRAL GEORGIA
  
CITY           SKY/WX    TMP DP  RH WIND       PRES   REMARKS
AUGUSTA-BUSH   NOT AVBL                                               
AUGUSTA-DANIEL SUNNY     76  46  34 VRB6      30.15F                  
COLUMBUS       SUNNY     75  38  26 CALM      30.15F                  
MACON          SUNNY     77  47  34 VRB3      30.15F                  
ROBINS AFB     SUNNY     76  50  39 CALM      30.14F                  

  
CITY           SKY/WX    TMP DP  RH WIND       PRES   REMARKS
LAGRANGE*      SUNNY     74  39  28 E3        30.16F                  
SYLVANIA*      SUNNY     77  51  39 N7        30.15S                  
MILLEDGEVILLE* SUNNY     75  48  38 E5        30.15F                  
$$

GAZ099>101-110>166-232000-
SOUTH GEORGIA
  
CITY           SKY/WX    TMP DP  RH WIND       PRES   REMARKS
SAVANNAH       MOSUNNY   76  51  41 CALM      30.13F                  
VALDOSTA       SUNNY     79  49  34 VRB5      30.12F                  
ALMA           SUNNY     80  51  36 VRB3      30.12F                  
ST SIMONS      SUNNY     75  59  57 NE12      30.13F                  
FT STEWART     SUNNY     78  53  42 E7        30.10F                  
ALBANY         SUNNY     76  48  37 VRB3      30.15F                  
HUNTER AFB     MOSUNNY   77  55  46 CALM      30.10F                  
MOODY AFB      SUNNY     77  50  38 NE7       30.11F                  
BRUNSWICK      SUNNY     76  55  47 E14       30.14S                  

  
CITY           SKY/WX    TMP DP  RH WIND       PRES   REMARKS
BAINBRIDGE*    SUNNY     77  41  27 NE5       30.13F                  
MOULTRIE*      SUNNY     77  46  33 N3        30.14F                  
VIDALIA*       SUNNY     79  50  36 E5        30.14F                  
WAYCROSS*      SUNNY     79  53  40 CALM      30.12F                  
DOUGLAS*       SUNNY     78  51  38 CALM      30.14F                  
$$
  
