ASUS42 KFFC 232003
RWRGA 
WEATHER ROUNDUP FOR GEORGIA
NATIONAL WEATHER SERVICE PEACHTREE CITY GA
400 PM EDT SUN OCT 23 2022

NOTE: "FAIR" INDICATES FEW OR NO CLOUDS BELOW 12,000 FEET WITH NO
SIGNIFICANT WEATHER AND/OR OBSTRUCTIONS TO VISIBILITY. 

* = USE WITH CAUTION. THE STATIONS MARKED WITH AN ASTERISK MAY NOT
REPORT WEATHER SUCH AS PRECIPITATION, FOG, OR THUNDER AND ARE NOT 
QUALITY CONTROLLED BY NWS.

THE REMARK "TC" DENOTES TEMPERATURE READING IN DEGREES CELSIUS.

GAZ001>058-232100-
NORTH GEORGIA
  
CITY           SKY/WX    TMP DP  RH WIND       PRES   REMARKS
ATLANTA        MOSUNNY   74  37  26 CALM      30.16F                  
ATHENS         SUNNY     74  39  28 CALM      30.15F                  
CHAMBLEE       SUNNY     71  35  26 CALM      30.15F                  
PEACHTREE CITY SUNNY     75  33  21 CALM      30.15F                  
ROME           SUNNY     74  39  28 SE3       30.13F                  
WEST ATLANTA   SUNNY     75  35  23 CALM      30.15F                  
GAINESVILLE    SUNNY     74  39  28 VRB3      30.17F                  
CARTERSVILLE   SUNNY     75  36  23 E5        30.15F                  

  
CITY           SKY/WX    TMP DP  RH WIND       PRES   REMARKS
DALTON*        SUNNY     74  37  26 VRB3      30.14F                  
LAWRENCEVILLE* SUNNY     73  40  30 CALM      30.15F                  
MARIETTA       MOSUNNY   72  33  24 S3        30.14F                  
KENNESAW*      SUNNY     73  38  27 VRB3      30.17F                  
CANTON*        SUNNY     74  36  24 S3        30.17S                  
BLAIRSVILLE*   SUNNY     73  33  23 NE5       30.17F                  
$$

GAZ059>098-102>109-232100-
CENTRAL GEORGIA
  
CITY           SKY/WX    TMP DP  RH WIND       PRES   REMARKS
AUGUSTA-BUSH   SUNNY     77  48  35 NW3       30.13                   
AUGUSTA-DANIEL SUNNY     75  46  35 CALM      30.14F                  
COLUMBUS       SUNNY     76  39  26 CALM      30.13F                  
MACON          SUNNY     78  47  33 CALM      30.14F                  
ROBINS AFB     SUNNY     78  49  36 W3        30.12F                  

  
CITY           SKY/WX    TMP DP  RH WIND       PRES   REMARKS
LAGRANGE*      SUNNY     74  37  25 CALM      30.14F                  
SYLVANIA*      SUNNY     78  50  37 N3        30.14S                  
MILLEDGEVILLE* SUNNY     77  48  36 CALM      30.13F                  
$$

GAZ099>101-110>166-232100-
SOUTH GEORGIA
  
CITY           SKY/WX    TMP DP  RH WIND       PRES   REMARKS
SAVANNAH       MOSUNNY   78  50  37 N8        30.12F                  
VALDOSTA       SUNNY     80  46  30 VRB3      30.11F                  
ALMA           SUNNY     80  52  37 CALM      30.11F                  
ST SIMONS      SUNNY     74  59  59 E10       30.13S                  
FT STEWART     SUNNY     78  54  42 N6        30.09F                  
ALBANY         SUNNY     78  46  32 NE6       30.13F                  
HUNTER AFB     SUNNY     78  55  44 N6        30.10S                  
MOODY AFB      SUNNY     78  50  36 N6        30.10F                  
BRUNSWICK      SUNNY     75  55  48 E15       30.13S                  

  
CITY           SKY/WX    TMP DP  RH WIND       PRES   REMARKS
BAINBRIDGE*    SUNNY     79  42  26 E6        30.11F                  
MOULTRIE*      SUNNY     77  46  33 E5        30.12F                  
VIDALIA*       SUNNY     79  50  36 NE6       30.14S                  
WAYCROSS*      SUNNY     80  50  35 CALM      30.11F                  
DOUGLAS*       SUNNY     78  51  39 CALM      30.13F                  
$$
  
