ASUS42 KFFC 231703
RWRGA 
WEATHER ROUNDUP FOR GEORGIA
NATIONAL WEATHER SERVICE PEACHTREE CITY GA
100 PM EDT SUN OCT 23 2022

NOTE: "FAIR" INDICATES FEW OR NO CLOUDS BELOW 12,000 FEET WITH NO
SIGNIFICANT WEATHER AND/OR OBSTRUCTIONS TO VISIBILITY. 

* = USE WITH CAUTION. THE STATIONS MARKED WITH AN ASTERISK MAY NOT
REPORT WEATHER SUCH AS PRECIPITATION, FOG, OR THUNDER AND ARE NOT 
QUALITY CONTROLLED BY NWS.

THE REMARK "TC" DENOTES TEMPERATURE READING IN DEGREES CELSIUS.

GAZ001>058-231800-
NORTH GEORGIA
  
CITY           SKY/WX    TMP DP  RH WIND       PRES   REMARKS
ATLANTA        PTSUNNY   69  38  32 CALM      30.23F                  
ATHENS         SUNNY     71  43  36 VRB6      30.22F                  
CHAMBLEE       MOSUNNY   67  38  34 MISG      30.23F                  
PEACHTREE CITY MOSUNNY   71  39  31 VRB5      30.23F                  
ROME           SUNNY     70  43  37 CALM      30.21F                  
WEST ATLANTA   MOSUNNY   70  37  29 NE5       30.23S                  
GAINESVILLE    SUNNY     69  42  37 MISG      30.25F                  
CARTERSVILLE   SUNNY     70  37  30 VRB5      30.24F                  

  
CITY           SKY/WX    TMP DP  RH WIND       PRES   REMARKS
DALTON*        SUNNY     68  39  34 SE5       30.22F                  
LAWRENCEVILLE* SUNNY     69  45  41 VRB6      30.23F                  
MARIETTA       PTSUNNY   68  36  31 E6        30.22S                  
KENNESAW*      SUNNY     70  38  31 CALM      30.24F                  
CANTON*        SUNNY     70  37  29 S7        30.24F                  
BLAIRSVILLE*   SUNNY     67  35  30 SE3       30.25F                  
$$

GAZ059>098-102>109-231800-
CENTRAL GEORGIA
  
CITY           SKY/WX    TMP DP  RH WIND       PRES   REMARKS
AUGUSTA-BUSH   SUNNY     73  50  44 NE6       30.19F                  
AUGUSTA-DANIEL SUNNY     73  49  42 N6        30.20F                  
COLUMBUS       SUNNY     72  40  31 SE6       30.20F                  
MACON          SUNNY     74  52  46 VRB6      30.20F                  
ROBINS AFB     SUNNY     74  50  42 NE5       30.19F                  

  
CITY           SKY/WX    TMP DP  RH WIND       PRES   REMARKS
LAGRANGE*      SUNNY     70  37  29 CALM      30.22F                  
SYLVANIA*      SUNNY     76  53  45 E5        30.19F                  
MILLEDGEVILLE* SUNNY     73  48  40 SE3       30.20F                  
$$

GAZ099>101-110>166-231800-
SOUTH GEORGIA
  
CITY           SKY/WX    TMP DP  RH WIND       PRES   REMARKS
SAVANNAH       MOSUNNY   75  52  44 N9        30.18F                  
VALDOSTA       SUNNY     75  52  44 NE6       30.17F                  
ALMA           SUNNY     77  55  46 VRB3      30.16F                  
ST SIMONS      SUNNY     77  55  46 NE12      30.16F                  
FT STEWART     SUNNY     75  54  47 N7        30.14F                  
ALBANY         SUNNY     74  47  38 VRB3      30.21F                  
HUNTER AFB     SUNNY     76  55  48 N9        30.14F                  
MOODY AFB      SUNNY     75  53  46 E8        30.16F                  
BRUNSWICK      SUNNY     77  55  46 E12       30.16F                  

  
CITY           SKY/WX    TMP DP  RH WIND       PRES   REMARKS
BAINBRIDGE*    SUNNY     74  45  35 NE9       30.19S                  
MOULTRIE*      SUNNY     72  52  49 N5        30.19S                  
VIDALIA*       SUNNY     75  54  46 CALM      30.18F                  
WAYCROSS*      SUNNY     75  56  51 E7        30.17F                  
DOUGLAS*       SUNNY     75  54  48 E7        30.19F                  
$$
  
