ASUS41 KCTP 231810
RWRCTP

REGIONAL WEATHER ROUNDUP
NATIONAL WEATHER SERVICE STATE COLLEGE PA
200 PM EDT SUN OCT 23 2022

Note: "fair" indicates few or no clouds below 12,000 feet with no 
significant weather and/or obstructions to visibility.

* = STATION THAT DOES NOT REPORT PRECIPITATION /E.G. RAIN...SNOW...ETC/
    THUNDER OR FOG.

PAZ002>004-007>009-013>016-020>023-029>032-231900-
WESTERN PENNSYLVANIA
  
CITY           SKY/WX    TMP DP  RH WIND       PRES   REMARKS
ERIE           SUNNY     68  49  50 N7        30.20F                  
MEADVILLE      SUNNY     70  38  31 VRB5      30.22F                  
FRANKLIN       SUNNY     69  39  33 S7        30.23F                  
NEW CASTLE     FAIR      72  40  31 VRB6      30.22F                  
BEAVER COUNTY  SUNNY     74  35  24 CALM      30.22F                  
BUTLER         SUNNY     68  41  37 E8        30.23F                  
PITTSBURGH INT MOSUNNY   68  38  33 VRB5      30.21F                  
PITTSBURGH     SUNNY     69  38  32 MISG      30.21F                  
INDIANA*       SUNNY     68  37  32 VRB5      30.27F                  
LATROBE        SUNNY     70  37  30 NE7       30.22F                  
WASHINGTON CO* SUNNY     70  41  34 CALM      30.24F                  
$$

PAZ004>006-010>012-017>019-024>028-033>037-041-042-045-046-049>053-231900-
CENTRAL PENNSYLVANIA
  
CITY           SKY/WX    TMP DP  RH WIND       PRES   REMARKS
BRADFORD       SUNNY     68  34  28 S7        30.26F                  
ST MARYS       NOT AVBL                                               
DUBOIS         MOSUNNY   67  35  30 VRB5      30.24F                  
CLEARFIELD     MOSUNNY   66  40  38 VRB3      30.26F                  
JOHNSTOWN      MOSUNNY   61  37  41 E6        30.26F                  
SOMERSET       FAIR      61  36  39 SE3       30.26F                  
ALTOONA        MOSUNNY   63  38  39 E5        30.27F                  
STATE COLLEGE  SUNNY     63  45  51 SW3       30.28F                  
REEDSVILLE     CLOUDY    61  45  55 CALM      30.27F                  
WELLSBORO      FAIR      61  37  41 S7G13     30.27F                  
WILLIAMSPORT   CLOUDY    63  43  48 CALM      30.27F                  
SELINSGROVE    CLOUDY    61  46  57 CALM      30.28F                  
FT INDIANTOWN  CLOUDY    63  45  52 N5        30.24F                  
CAPITAL CITY   CLOUDY    63  46  54 NW3       30.26F                  
HARRISBURG     CLOUDY    60  47  61 NW7       30.25F                  
YORK           CLOUDY    61  47  59 NE6       30.25F                  
$$

PAZ038>040-043-044-047-048-054-055-060>062-067>071-231900-
EASTERN PENNSYLVANIA
  
CITY           SKY/WX    TMP DP  RH WIND       PRES   REMARKS
TOWANDA        CLEAR     66  45  45 E6        30.29F                  
SCRANTON         N/A    N/A N/A N/A MISG      30.27F                  
MOUNT POCONO   CLOUDY    59  46  62 E9        30.28F                  
HAZLETON       CLOUDY    61  46  59 CALM      30.31S                  
LEHIGHTON      CLOUDY    59  41  51 CALM      30.28F                  
ALLENTOWN      PTSUNNY   62  47  57 NE9       30.26F                  
QN CITY/ALNTWN FAIR      61  46  59 NE9       30.27F                  
QUAKERTOWN*    CLEAR     61  50  67 NE5       30.26F                  
PERKASIE*      MOCLDY    63  50  63 NE12      30.26F                  
DOYLESTOWN     PTSUNNY   64  48  56 NE7       30.25S                  
READING        CLOUDY    62  47  57 N10       30.25F                  
LANCASTER      CLOUDY    63  50  62 NE7       30.25F                  
COATESVILLE    MOCLDY    61  52  72 NE7G16    30.25F                  
WEST CHESTER   MOCLDY    63  50  63 NE8       30.24F                  
POTTSTOWN      LGT RAIN  60  49  66 NE5       30.26F                  
BLUE BELL      PTSUNNY   63  52  66 NE9G16    30.24F                  
NORTH PHILA    CLOUDY    64  51  62 NE15      30.25F                  
PHILADELPHIA   CLOUDY    64  54  69 NE17G24   30.23F                  
$$
  
