ASUS41 KCTP 231703
RWRCTP

REGIONAL WEATHER ROUNDUP
NATIONAL WEATHER SERVICE STATE COLLEGE PA
100 PM EDT SUN OCT 23 2022

Note: "fair" indicates few or no clouds below 12,000 feet with no 
significant weather and/or obstructions to visibility.

* = STATION THAT DOES NOT REPORT PRECIPITATION /E.G. RAIN...SNOW...ETC/
    THUNDER OR FOG.

PAZ002>004-007>009-013>016-020>023-029>032-231800-
WESTERN PENNSYLVANIA
  
CITY           SKY/WX    TMP DP  RH WIND       PRES   REMARKS
ERIE           MOSUNNY   73  41  31 S7        30.22S                  
MEADVILLE      MOSUNNY   67  38  34 VRB5      30.24F                  
FRANKLIN       MOSUNNY   67  40  37 E7        30.25F                  
NEW CASTLE     FAIR      69  40  34 VRB3      30.24F                  
BEAVER COUNTY  SUNNY     71  36  27 E3        30.24S                  
BUTLER         SUNNY     66  41  40 E5        30.25F                  
PITTSBURGH INT MOSUNNY   66  40  38 SW3       30.23F                  
PITTSBURGH     SUNNY     67  37  33 E3        30.23F                  
INDIANA*       SUNNY     66  39  37 VRB3      30.29F                  
LATROBE        SUNNY     68  36  30 CALM      30.24F                  
WASHINGTON CO* SUNNY     68  41  37 CALM      30.26F                  
$$

PAZ004>006-010>012-017>019-024>028-033>037-041-042-045-046-049>053-231800-
CENTRAL PENNSYLVANIA
  
CITY           SKY/WX    TMP DP  RH WIND       PRES   REMARKS
BRADFORD       SUNNY     66  35  31 SE5       30.27F                  
ST MARYS       NOT AVBL                                               
DUBOIS         MOSUNNY   65  39  38 SE8       30.26F                  
CLEARFIELD     MOSUNNY   63  42  46 NE5       30.28F                  
JOHNSTOWN      MOSUNNY   61  36  39 S5        30.27F                  
SOMERSET       FAIR      61  34  36 SE6       30.27F                  
ALTOONA        MOSUNNY   63  40  42 E3        30.28F                  
STATE COLLEGE  SUNNY     59  43  55 VRB3      30.30F                  
REEDSVILLE     PTSUNNY   59  43  55 CALM      30.29S                  
WELLSBORO      FAIR      61  39  44 S10       30.28F                  
WILLIAMSPORT   PTSUNNY   58  43  57 CALM      30.29F                  
SELINSGROVE    CLOUDY    57  45  64 VRB3      30.31S                  
FT INDIANTOWN  CLOUDY    62  44  51 NE6       30.25F                  
CAPITAL CITY   CLOUDY    61  43  51 NW5       30.27F                  
HARRISBURG     CLOUDY    59  45  59 NW7       30.26F                  
YORK           CLOUDY    62  49  62 CALM      30.27F                  
$$

PAZ038>040-043-044-047-048-054-055-060>062-067>071-231800-
EASTERN PENNSYLVANIA
  
CITY           SKY/WX    TMP DP  RH WIND       PRES   REMARKS
TOWANDA        SUNNY     63  41  45 E5        30.31F                  
SCRANTON         N/A    N/A N/A N/A MISG      30.29F                  
MOUNT POCONO   CLOUDY    58  46  64 VRB5      30.30S                  
HAZLETON       CLOUDY    61  46  59 CALM      30.32F                  
LEHIGHTON      CLOUDY    57  41  54 CALM      30.30F                  
ALLENTOWN      CLOUDY    60  45  57 NE10      30.27F                  
QN CITY/ALNTWN FAIR      59  46  63 NE6       30.28F                  
QUAKERTOWN*    MOSUNNY   61  48  63 VRB5      30.27S                  
PERKASIE*      MOSUNNY   61  48  63 E9G16     30.27F                  
DOYLESTOWN     MOSUNNY   63  47  55 NE7       30.25F                  
READING        PTSUNNY   61  46  57 N10       30.26F                  
LANCASTER      CLOUDY    62  49  62 NE7       30.26F                  
COATESVILLE    MOSUNNY   61  50  67 NE3G16    30.27S                  
WEST CHESTER   MOSUNNY   61  48  63 NE6       30.25F                  
POTTSTOWN      PTSUNNY   60  48  64 NE7       30.27F                  
BLUE BELL      MOSUNNY   62  51  67 NE5       30.26S                  
NORTH PHILA    PTSUNNY   63  51  65 NE12      30.26F                  
PHILADELPHIA   CLOUDY    63  54  72 NE14      30.24F                  
$$
  
