ASUS41 KCTP 232003
RWRCTP

REGIONAL WEATHER ROUNDUP
NATIONAL WEATHER SERVICE STATE COLLEGE PA
400 PM EDT SUN OCT 23 2022

Note: "fair" indicates few or no clouds below 12,000 feet with no 
significant weather and/or obstructions to visibility.

* = STATION THAT DOES NOT REPORT PRECIPITATION /E.G. RAIN...SNOW...ETC/
    THUNDER OR FOG.

PAZ002>004-007>009-013>016-020>023-029>032-232100-
WESTERN PENNSYLVANIA
  
CITY           SKY/WX    TMP DP  RH WIND       PRES   REMARKS
ERIE           MOSUNNY   68  44  42 NE9       30.17F                  
MEADVILLE      SUNNY     72  37  28 VRB5      30.18F                  
FRANKLIN       SUNNY     71  37  28 E9        30.21F                  
NEW CASTLE     FAIR      74  38  27 E7        30.18F                  
BEAVER COUNTY  SUNNY     75  35  22 SE3       30.18F                  
BUTLER         SUNNY     70  40  33 SE8       30.20F                  
PITTSBURGH INT MOSUNNY   71  37  28 E5        30.18F                  
PITTSBURGH     SUNNY     72  38  29 E5        30.18F                  
INDIANA*       SUNNY     70  37  30 VRB6      30.24F                  
LATROBE        NOT AVBL                                               
WASHINGTON CO* SUNNY     73  39  29 VRB3      30.21F                  
$$

PAZ004>006-010>012-017>019-024>028-033>037-041-042-045-046-049>053-232100-
CENTRAL PENNSYLVANIA
  
CITY           SKY/WX    TMP DP  RH WIND       PRES   REMARKS
BRADFORD       MOSUNNY   68  33  27 SE9       30.24F                  
ST MARYS       NOT AVBL                                               
DUBOIS         MOSUNNY   65  36  34 SE7       30.23F                  
CLEARFIELD     MOSUNNY   68  34  28 VRB3      30.24F                  
JOHNSTOWN        N/A    N/A N/A N/A MISG        N/A                   
SOMERSET       FAIR      61  37  41 E8        30.25S                  
ALTOONA        CLOUDY    66  46  48 VRB6      30.25S                  
STATE COLLEGE  CLOUDY    63  50  63 VRB5      30.25F                  
REEDSVILLE     CLOUDY    63  48  59 CALM      30.25S                  
WELLSBORO      FAIR      63  41  45 S8        30.25F                  
WILLIAMSPORT   CLOUDY    65  47  52 W3        30.24F                  
SELINSGROVE    CLOUDY    63  47  55 N3        30.26F                  
FT INDIANTOWN  CLOUDY    62  47  58 NE5       30.23S                  
CAPITAL CITY   CLOUDY    65  49  56 NE3       30.24F                  
HARRISBURG     CLOUDY    63  50  62 N6        30.23F                  
YORK           CLOUDY    62  47  57 N5        30.23F                  
$$

PAZ038>040-043-044-047-048-054-055-060>062-067>071-232100-
EASTERN PENNSYLVANIA
  
CITY           SKY/WX    TMP DP  RH WIND       PRES   REMARKS
TOWANDA        CLEAR     66  48  52 E3        30.26F                  
SCRANTON         N/A    N/A N/A N/A MISG      30.26F                  
MOUNT POCONO   PTSUNNY   59  47  64 E6        30.27F                  
HAZLETON       CLOUDY    61  46  59 CALM      30.29S                  
LEHIGHTON      FAIR      63  46  55 CALM      30.27R                  
ALLENTOWN      PTSUNNY   62  48  60 NE10      30.25S                  
QN CITY/ALNTWN FAIR      63  48  59 NE7       30.26S                  
QUAKERTOWN*    MOCLDY    63  48  59 VRB6G14   30.24F                  
PERKASIE*      MOCLDY    61  48  63 NE14G23   30.25S                  
DOYLESTOWN     PTSUNNY   63  47  55 NE9       30.22F                  
READING        PTSUNNY   63  48  58 NE8       30.23F                  
LANCASTER      PTSUNNY   64  50  60 NE9       30.23F                  
COATESVILLE    MOCLDY    61  52  72 NE5G12    30.24S                  
WEST CHESTER   CLOUDY    61  52  72 NE9       30.22F                  
POTTSTOWN      CLOUDY    61  49  64 NE7       30.25S                  
BLUE BELL      CLOUDY    62  51  66 NE6       30.23S                  
NORTH PHILA    LGT RAIN  62  50  64 NE12      30.24S                  
PHILADELPHIA   RAIN      60  54  80 NE14G23   30.21F                  
$$
  
