ASUS41 KCTP 231903
RWRCTP

REGIONAL WEATHER ROUNDUP
NATIONAL WEATHER SERVICE STATE COLLEGE PA
300 PM EDT SUN OCT 23 2022

Note: "fair" indicates few or no clouds below 12,000 feet with no 
significant weather and/or obstructions to visibility.

* = STATION THAT DOES NOT REPORT PRECIPITATION /E.G. RAIN...SNOW...ETC/
    THUNDER OR FOG.

PAZ002>004-007>009-013>016-020>023-029>032-232000-
WESTERN PENNSYLVANIA
  
CITY           SKY/WX    TMP DP  RH WIND       PRES   REMARKS
ERIE           SUNNY     69  48  47 N8        30.18F                  
MEADVILLE      SUNNY     71  39  31 VRB3      30.20F                  
FRANKLIN       SUNNY     70  37  29 E8        30.22F                  
NEW CASTLE     FAIR      72  39  30 S6        30.20F                  
BEAVER COUNTY  SUNNY     76  36  23 S5        30.20F                  
BUTLER         SUNNY     69  38  32 SE5       30.22F                  
PITTSBURGH INT MOSUNNY   70  39  32 E6        30.19F                  
PITTSBURGH     SUNNY     71  40  32 E6        30.19F                  
INDIANA*       SUNNY     70  37  30 E6G12     30.26S                  
LATROBE        SUNNY     72  34  25 NE9       30.21F                  
WASHINGTON CO* SUNNY     72  39  30 E3        30.22F                  
$$

PAZ004>006-010>012-017>019-024>028-033>037-041-042-045-046-049>053-232000-
CENTRAL PENNSYLVANIA
  
CITY           SKY/WX    TMP DP  RH WIND       PRES   REMARKS
BRADFORD       SUNNY     69  33  26 SE10      30.25F                  
ST MARYS       NOT AVBL                                               
DUBOIS         MOSUNNY   65  34  31 SE9       30.24S                  
CLEARFIELD     MOSUNNY   67  34  29 E10       30.25F                  
JOHNSTOWN      MOSUNNY   60  35  39 VRB5      30.24F                  
SOMERSET       FAIR      61  37  41 E3        30.25S                  
ALTOONA        MOSUNNY   66  40  38 E6        30.25F                  
STATE COLLEGE  CLOUDY    64  46  52 W5        30.26F                  
REEDSVILLE     MOCLDY    63  46  55 CALM      30.26F HAZE             
WELLSBORO      FAIR      63  37  39 S9        30.26F                  
WILLIAMSPORT   CLOUDY    64  46  52 W3        30.26F                  
SELINSGROVE    CLOUDY    62  46  55 CALM      30.27F                  
FT INDIANTOWN  CLOUDY    61  46  57 N6        30.23F                  
CAPITAL CITY   CLOUDY    65  48  54 CALM      30.25F                  
HARRISBURG     CLOUDY    61  48  62 CALM      30.24F                  
YORK           CLOUDY    62  48  60 NE6       30.24F                  
$$

PAZ038>040-043-044-047-048-054-055-060>062-067>071-232000-
EASTERN PENNSYLVANIA
  
CITY           SKY/WX    TMP DP  RH WIND       PRES   REMARKS
TOWANDA        CLEAR     66  48  52 E5        30.27F                  
SCRANTON         N/A    N/A N/A N/A MISG      30.27S                  
MOUNT POCONO   PTSUNNY   59  48  67 E8        30.28S                  
HAZLETON       CLOUDY    61  48  63 CALM      30.29F                  
LEHIGHTON      CLOUDY    61  45  55 CALM      30.27F                  
ALLENTOWN      PTSUNNY   62  48  60 E14       30.25F                  
QN CITY/ALNTWN FAIR      63  46  55 NE9       30.26F                  
QUAKERTOWN*    CLEAR     64  50  59 E9G16     30.25S                  
PERKASIE*      MOCLDY    63  48  59 E12G18    30.25F                  
DOYLESTOWN     CLOUDY    64  48  56 NE9       30.23F                  
READING        PTSUNNY   63  48  58 NE7       30.25S                  
LANCASTER      PTSUNNY   64  50  60 N7        30.24F                  
COATESVILLE    MOCLDY    61  52  72 NE7G24    30.24S                  
WEST CHESTER   MOCLDY    63  52  67 NE9       30.23S                  
POTTSTOWN      PTSUNNY   62  49  62 VRB6      30.25F                  
BLUE BELL      CLOUDY    63  51  66 NE9       30.24S                  
NORTH PHILA    PTSUNNY   64  50  60 NE14      30.24F                  
PHILADELPHIA   CLOUDY    62  55  77 NE14      30.22F                  
$$
  
