ASUS41 KPHI 231710
RWRPHI

REGIONAL WEATHER ROUNDUP
NATIONAL WEATHER SERVICE MOUNT HOLLY NJ
100 PM EDT SUN OCT 23 2022

NOTE:  "FAIR" INDICATES FEW OR NO CLOUDS BELOW 12,000 FEET WITH NO
SIGNIFICANT WEATHER AND/OR OBSTRUCTIONS TO VISIBILITY.

 * = STATION DOES NOT REPORT PRECIPITATION (E.G. RAIN, SNOW, ETC.) 
        OR FOG.

NJZ015>026-231800-
SOUTHERN NEW JERSEY
  
CITY           SKY/WX    TMP DP  RH WIND       PRES   REMARKS
POMONA         LGT RAIN  61  58  90 NE16G26   30.20F FOG              
WILDWOOD*        N/A     63  58  83 NE23      30.17F HAZE             
MILLVILLE      CLOUDY    62  57  83 NE12      30.20F                  
WRIGHTSTOWN    CLOUDY    61  54  77 NE14      30.22F                  
MOUNT HOLLY    PTSUNNY   61  56  83 N7        30.23F                  
TRENTON        CLOUDY    61  51  70 NE12      30.24F                  

$$
NJZ001>014-231800-
NORTHERN NEW JERSEY
  
CITY           SKY/WX    TMP DP  RH WIND       PRES   REMARKS
SUSSEX         PTSUNNY   58  45  62 NE6       30.30F                  
ANDOVER*         N/A     60  45  57 VRB3      30.29F                  
MORRISTOWN     PTSUNNY   64  50  59 NE7       30.28F                  
NEWARK         LGT RAIN  61  48  62 N9        30.27F                  
TETERBORO      LGT RAIN  60  46  59 N6        30.26F                  
CALDWELL       MOSUNNY   62  41  46 NE7       30.28F                  
SOMERVILLE     PTSUNNY   65  45  48 NE8       30.25F                  
ALLAIRE*       PTSUNNY   60  58  92 NE10      30.25F                  

$$
PAZ043-044-047-054-055-060>062-066>071-231800-
EASTERN PENNSYLVANIA
  
CITY           SKY/WX    TMP DP  RH WIND       PRES   REMARKS
PHILADELPHIA   CLOUDY    63  54  72 NE14      30.24F                  
NORTH PHILA    PTSUNNY   63  51  65 NE12      30.26F                  
BLUE BELL*     PTSUNNY   62  51  67 NE5       30.26S                  
DOYLESTOWN     PTSUNNY   63  47  55 NE7       30.25F                  
QUAKERTOWN*    MOSUNNY   61  48  63 VRB5      30.27S                  
PERKASIE*      FAIR      61  48  63 E9G16     30.27F                  
POTTSTOWN      PTSUNNY   60  48  64 NE7       30.27F                  
LANCASTER      CLOUDY    62  49  62 NE7       30.26F                  
COATESVILLE    PTSUNNY   61  50  67 NE3G16    30.27S                  
WEST CHESTER   FAIR      61  48  63 NE6       30.25F                  
READING        PTSUNNY   61  46  57 N10       30.26F                  
ALLENTOWN      CLOUDY    60  45  57 NE10      30.27F                  
QN CITY/ALNTWN FAIR      59  46  63 NE6       30.28F                  
MOUNT POCONO   CLOUDY    58  46  64 VRB5      30.30S                  
HAZLETON       CLOUDY    61  46  59 CALM      30.32F                  
LEHIGHTON      CLOUDY    57  41  54 CALM      30.30F                  
WILKES BARRE     N/A    N/A N/A N/A MISG      30.29F                  

$$
DEZALL-MDZ008-012-015-019-020-231800-
DELAWARE AND EASTERN MARYLAND
  
CITY           SKY/WX    TMP DP  RH WIND       PRES   REMARKS
WILMINGTON     PTSUNNY   64  52  64 NE16      30.24F                  
DOVER          PTSUNNY   63  56  78 N14       30.18F                  
CHESWOLD       MOSUNNY   63  55  77 NE9G17    30.20F                  
GEORGETOWN     LGT RAIN  62  57  83 NE10      30.18F                  
EASTON         LGT RAIN  61  55  82 N10       30.23F                  
PATUXENT       PTSUNNY   65  54  67 N10       30.18F                  
OCEAN CITY     NOT AVBL                                               
WALLOPS ISLAND LGT RAIN  63  60  90 NE17G28   30.12F                  
CAMBRIDGE      MOSUNNY   63  59  88 N10G16    30.17F                  
SALISBURY      CLOUDY    64  59  83 NE16G24   30.15F                  

$$
PAZ001-021-NYZ056-072-MDZ011-DCZ001-231800-
OTHER NEARBY LOCATIONS
  
CITY           SKY/WX    TMP DP  RH WIND       PRES   REMARKS
HARRISBURG     CLOUDY    59  45  59 NW7       30.26F                  
STATE COLLEGE  SUNNY     59  43  55 VRB3      30.30F                  
WILLIAMSPORT   PTSUNNY   58  43  57 CALM      30.29F                  
BINGHAMTON     MOSUNNY   58  41  53 SE7       30.30F                  
NEW YORK CITY  LGT RAIN  58  47  66 VRB7      30.29F                  
BALTIMORE      CLOUDY    66  50  56 N10       30.22F                  
WASHINGTON DC  CLOUDY    64  53  67 N9        30.24F                  

$$
  
