ASUS43 KFGF 212331
RWRFGF
PRAIRIE TO PINES  WEATHER ROUNDUP
NATIONAL WEATHER SERVICE EASTERN NORTH DAKOTA/GRAND FORKS ND
600 PM CDT FRI OCT 21 2022

 **SATELLITE DATA USED TO AUGMENT SKY COVER AT AUTOMATED STATIONS**
 *****  WEATHER ACROSS EASTERN NORTH DAKOTA  *****
  
CITY           SKY/WX    TMP DP  RH WIND       PRES   REMARKS
GRAND FORKS    CLOUDY    59  31  34 SW5       29.52F                  
GRAND FRKS AFB CLOUDY    58  31  35 W5        29.50F                  
GRAND FRKS NWS   N/A     59  35  40 W5        29.48S                  
DEVILS LAKE    CLOUDY    54  37  52 SW3       29.53F                  
FARGO          FAIR      58  29  33 S5        29.55F                  
WAHPETON ARPT  FAIR      59  32  36 SW5       29.56S                  
$$

 ***** WEATHER ACROSS CENTRAL AND WESTERN NORTH DAKOTA  *****
  
CITY           SKY/WX    TMP DP  RH WIND       PRES   REMARKS
BISMARCK       CLOUDY    57  33  40 E6        29.51F                  
MINOT          CLOUDY    51  38  60 S3        29.53R                  
JAMESTOWN      FAIR      57  32  38 SE3       29.51F                  
MINOT AFB      LGT RAIN  46  39  76 NW7       29.50S                  
GARRISON         N/A     50  43  77 NE3       29.52F                  
WILLISTON      NOT AVBL                                               
DICKINSON      FAIR      58  35  42 N12       29.48R                  
HETTINGER      FAIR      67  32  27 S9        29.48F                  
$$

 *****  OTHER AIRPORT OBSERVATIONS IN OUR AREA  *****
  
CITY           SKY/WX    TMP DP  RH WIND       PRES   REMARKS
WALHALLA       CLOUDY    55  34  44 W9        29.50S                  
GRAFTON AIRPOR FAIR      55  34  44 W10       29.52S                  
VALLEY CITY AR MOCLDY    57  32  38 SE3       29.53F                  
CANDO          CLOUDY    52  36  54 NW7       29.54S                  
CAVALIER APRT  CLOUDY    57  34  41 W10       29.51R                  
GWINNER        CLEAR     57  34  41 S6        29.55F                  
SHEYENNE NWR     N/A     60  34  37 SW6       29.95S                  
ROLLA          CLOUDY    46  41  81 W9        29.54R                  
 ***** THE ABOVE OBSERVATIONS ARE NON NWS ARE NOT QUALITY
       CONTROLLED AND MAY MIS-REPORT RAIN FOR SNOW...
$$

  *****  WEATHER ACROSS NORTHERN MINNESOTA  *****     
  
CITY           SKY/WX    TMP DP  RH WIND       PRES   REMARKS
FLAG ISLAND    FAIR      55  28  35 CALM      29.49S                  
WARROAD        FAIR      55  39  54 SW3       29.50F                  
ROSEAU         FAIR      57  34  41 SW5       29.50S                  
HALLOCK        MOCLDY    57  32  38 W10       29.50S                  
THF RVR FALLS  FAIR      57  32  38 W8        29.55R                  
BAUDETTE       FAIR      57  32  38 W5        29.52R                  
WASKISH        FAIR      55  36  47 SW5       29.55R                  
CROOKSTON      FAIR      55  28  35 SW7       29.54F                  
$$
  *****  WEATHER ACROSS CENTRAL AND WEST MINNESOTA  *****     
  
CITY           SKY/WX    TMP DP  RH WIND       PRES   REMARKS
FOSSTON        FAIR      52  30  43 S6        29.57R                  
BEMIDJI        FAIR      54  33  45 CALM      29.57R                  
PARK RAPIDS    FAIR      52  33  48 W6        29.57S                  
ELBOW LAKE     FAIR      57  33  40 CALM      29.59F                  
WADENA         FAIR      52  30  43 CALM      29.59R                  
DETROIT LAKES  FAIR      54  32  43 CALM      29.57S                  
MOORHEAD       FAIR      57  30  35 CALM      29.56F                  
FERGUS FALLS   FAIR      57  34  41 SW5       29.57S                  
MORRIS MN      FAIR      59  27  29 CALM      29.61S                  
STAPLES        FAIR      55  30  38 CALM      29.59S                  
$$
  *****  WEATHER ELSEWHERE ACROSS MINNESOTA  *****     
  
CITY           SKY/WX    TMP DP  RH WIND       PRES   REMARKS
DULUTH         FAIR      56  33  42 NW7       29.57R                  
INTRNTL FALLS  FAIR      55  30  38 W3        29.52R                  
ELY            FAIR      54  32  43 W5        29.56R                  
CLOQUET        FAIR      54  30  40 W5        29.58R                  
WHEATON          N/A     59  30  33 CALM      29.60S                  
BRAINERD       FAIR      58  30  34 NW5       29.59R                  
HIBBING        FAIR      54  36  50 SW5       29.57R                  
ALEXANDRIA     FAIR      58  32  37 CALM      29.60S                  
SAINT CLOUD    FAIR      59  36  42 W3        29.60R                  
MINNEAPOLIS    MOCLDY    64  33  31 W7        29.60R                  
$$

  *****  WEATHER ACROSS SOUTH DAKOTA  *****
  
CITY           SKY/WX    TMP DP  RH WIND       PRES   REMARKS
SIOUX FALLS    FAIR      67  36  31 SE5       29.59F                  
BROOKINGS      FAIR     N/A N/A N/A CALM      29.61R HAZE             
WATERTOWN      FAIR      58  35  42 CALM      29.58F HAZE             
HURON          FAIR      65  32  29 S9        29.57F                  
SISSETON         N/A     62  33  33 S8        29.57S                  
ABERDEEN       FAIR      62  33  33 SE6       29.55F                  
MITCHELL       FAIR      66  33  29 SE6       29.59S                  
PIERRE         FAIR      64  35  34 S10       29.51F                  
MOBRIDGE       FAIR      65  34  31 S12       29.49F                  
RAPID CITY     FAIR      70  26  19 S10G21    29.48F                  
$$

  *****  SOME WEATHER IN NEARBY STATES *****
  
CITY           SKY/WX    TMP DP  RH WIND       PRES   REMARKS
GLASGOW MT     MOCLDY    50  40  68 E9        29.53F                  
GREAT FALLS MT LGT RAIN  48  41  76 SW8       29.55R                  
CHEYENNE WY    FAIR      67  12  12 W21G35    29.75S                  
SCOTTSBLUFF NE FAIR      77  15   9 W17G31    29.60F                  
OMAHA NE       FAIR      74  35  24 S3        29.59S                  
DES MOINES IA  FAIR      75  36  24 SW5       29.60R                  
DAVENPORT IA   FAIR      74  39  28 S10       29.64S                  
CHICAGO IL     FAIR      73  37  27 S13       29.67R                  
EAU CLAIRE WI  FAIR      62  39  42 W6        29.59R                  
LA CROSSE WI   FAIR      62  40  44 NW6       29.59R                  
$$

  *****  SOME NATIONAL WEATHER *****
  
CITY           SKY/WX    TMP DP  RH WIND       PRES   REMARKS
LA GUARDIA NY  FAIR      58  33  39 S9        30.13R                  
RALEIGH NC     FAIR      57  38  48 CALM      30.12R                  
ATLANTA GA     FAIR      64  36  35 W3        30.09R                  
NEW ORLEANS LA FAIR      71  56  58 S13G23    30.05S                  
OKLAHOMA CITY  FAIR      85  38  18 S16       29.72S                  
ALBUQUERQUE NM FAIR      74  32  21 W15G21    29.98F                  
SALT LAKE CITY FAIR      77  21  12 W10       29.78F                  
LOS ANGELES CA FAIR      70  63  78 W12       29.85F                  
BOISE ID       FAIR      66  36  32 N5        29.69F                  
SEATTLE WA     CLOUDY    47  44  90 S9        29.75F                  
$$

*** WEATHER ACROSS MANITOBA...SASKATCHEWAN AND ONTARIO ***
                ***ONTARIO***
  
CITY           SKY/WX    TMP DP  RH WIND       PRES   REMARKS
GERALDTON      NOT AVBL                                               
THUNDER BAY    PTCLDY    55  36  47 W8        29.48R                  
SIOUX LOOKOUT  MOCLDY    50  34  53 W7        29.46R                  
TORONTO        CLEAR     59  37  44 S9G17     29.85R                  
BIG TROUT LK   CLOUDY    39  32  75 W9G18     29.24R                  
PICKLE LAKE    MOCLDY    46  37  71 W10G17    29.36R                  
DRYDEN         MOCLDY    50  37  62 SW10      29.46R                  
KENORA         MOCLDY    50  34  53 SW6       29.47S                  
$$      
                *** MANITOBA***
  
CITY           SKY/WX    TMP DP  RH WIND       PRES   REMARKS
BRANDON        LGT RAIN  50  32  50 W15G24    29.50R                  
DAUPHIN        PTCLDY    54  32  43 W14       29.43R                  
ISLAND LAKE    CLOUDY    45  30  57 W17G25    29.29R                  
PILOT MOUND      N/A     52  34  50 W12         N/A                   
THE PAS        PTCLDY    45  30  57 W8G17     29.40R                  
THOMPSON       FLURRIES  37  27  65 NW15G24   29.30R                  
WINNIPEG       MOCLDY    54  36  50 W8        29.46S                  
LYNN LAKE      CLOUDY    34  28  80 NW10G20   29.38R                  
CHURCHILL      FLURRIES  34  28  80 N23       29.19R WCI  22          
GILLAM         FLURRIES  36  34  93 W18G26    29.17R                  
$$
                ***SASKATCHEWAN***
  
CITY           SKY/WX    TMP DP  RH WIND       PRES   REMARKS
ESTEVAN        CLOUDY    43  41  93 NW3       29.56R                  
KINDERSLEY     MOCLDY    48  25  40 W9        29.53S                  
LLOYDMINSTER   MOCLDY    46  28  49 NW8       29.50R                  
PRINCE ALBERT  MOCLDY    48  34  57 W12       29.48R                  
REGINA         MOCLDY    48  32  53 W10G20    29.51S                  
YORKTON        CLEAR     50  28  43 NW10      29.45R                  
N. BATTLEFORD  MOCLDY    48  32  53 NW12      29.51R                  
LA RONGE       MOCLDY    43  28  56 NW8       29.49R                  
SASKATOON      MOCLDY    50  27  40 W10       29.48R                  
SWIFT CURRENT  CLOUDY    45  32  61 NW8       29.54S                  
$$
NOTE: THESE ARE AUTOMATED STATIONS WITH LIMITED QUALITY CONTROL
      "FAIR" INDICATES FEW OR NO CLOUDS BELOW 12,000 FEET WITH NO
      SIGNIFICANT WEATHER AND/OR OBSTRUCTIONS TO VISIBILITY.
      SKY/WX - SKY CONDITION AND SIGNIFICANT WEATHER.
      TMP - AIR TEMPERATURE.    DP   - DEWPOINT TEMPERATURE.
      RH  - RELATIVE HUMIDITY.  PRES - PRESSURE.
      HX  - HEAT INDEX.         WCI  - WIND CHILL INDEX.
$
  
