FPUS83 KFGF 220110
OPUFGF
PRAIRIE TO PINES WEATHER ROUNDUP
NATIONAL WEATHER SERVICE EASTERN NORTH DAKOTA/GRAND FORKS ND
800 PM CDT FRI OCT 21 2022

 **SATELLITE DATA USED TO AUGMENT SKY COVER AT AUTOMATED STATIONS**
 *****  WEATHER ACROSS EASTERN NORTH DAKOTA  *****
  
CITY           SKY/WX    TMP DP  RH WIND       PRES   REMARKS
GRAND FORKS    CLOUDY    53  34  48 SW5       29.53R HAZE             
GRND FORKS AFB CLOUDY    52  32  46 SW3       29.51R                  
GRND FORKS NWS   N/A     55  35  46 W3        29.48R                  
BUXTON         NOT AVBL                                               
DEVILS LAKE    LGT RAIN  51  38  60 NW12      29.55R                  
FARGO          FAIR      53  29  39 S6        29.55R                  
WAHPETON ARPT  CLOUDY    55  30  38 SE6       29.54F                  
$$

 *****  WEATHER ACROSS CENTRAL AND WESTERN NORTH DAKOTA  *****
  
CITY           SKY/WX    TMP DP  RH WIND       PRES   REMARKS
JAMESTOWN      FAIR      49  29  46 NE5       29.53R                  
BISMARCK       FAIR      54  33  45 NE10      29.51S                  
MINOT          CLOUDY    44  41  89 N8        29.54S                  
MINOT AFB      MOCLDY    43  40  92 NE7       29.52S                  
GARRISON         N/A     48  40  73 NE6       29.52S                  
WILLISTON      NOT AVBL                                               
DICKINSON      CLOUDY    51  35  54 N5        29.51R                  
HETTINGER      FAIR      60  34  37 N18G32    29.50R                  
$$

 *****  OTHER OBSERVATIONS NORTHEAST NORTH DAKOTA  *****
  
CITY           SKY/WX    TMP DP  RH WIND       PRES   REMARKS
WALHALLA       DRIZZLE   50  41  71 NW12G17   29.54R                  
LANGDON        CLOUDY    48  39  71 NW10      29.55R                  
CAVALIER       CLOUDY    54  36  50 NW9       29.52R                  
GRAFTON        MOCLDY    52  36  54 W7        29.54R                  
CANDO          CLOUDY    46  43  87 NW6       29.57R                  
FORT TOTTEN      N/A     51  35  55 CALM      29.95S                  
ROLLA          LGT RAIN  43  41  93 NW7       29.56S                  
RUGBY          CLOUDY    45  41  87 N7        29.55R                  
 ***** THE ABOVE OBSERVATIONS ARE NON NWS ARE NOT QUALITY
        CONTROLLED AND MAY MIS-REPORT RAIN FOR SNOW...
$$

 *****  OTHER OBSERVATIONS SOUTHEAST NORTH DAKOTA *****
  
CITY           SKY/WX    TMP DP  RH WIND       PRES   REMARKS
COOPERSTOWN    CLOUDY    48  30  49 CALM      29.55S                  
VALLEY CITY    FAIR      50  32  50 CALM      29.55S                  
OAKES          CLOUDY    52  32  46 SE7       29.55R HAZE             
GWINNER        MOCLDY    54  34  47 S7        29.55R                  
SHEYENNE NWR     N/A     53  33  47 CALM      29.95S                  
BUFFALO        NOT AVBL                                               
WYNDMERE       NOT AVBL                                               
 ***** THE ABOVE OBSERVATIONS ARE NON NWS ARE NOT QUALITY
       CONTROLLED AND MAY MIS-REPORT RAIN FOR SNOW...
$$

  *****  WEATHER ACROSS NORTHERN MINNESOTA  *****     
  
CITY           SKY/WX    TMP DP  RH WIND       PRES   REMARKS
FLAG ISLAND    MOCLDY    52  30  43 SW6       29.49F                  
WARROAD        FAIR      52  37  58 SW6       29.51S                  
ROSEAU         FAIR      54  34  47 SW7       29.51S                  
HALLOCK        CLOUDY    54  34  47 SW9       29.52R                  
THF RVR FALLS  MOCLDY    52  32  46 SW6       29.55S                  
HALSTAD        NOT AVBL                                               
FOSSTON        MOCLDY    48  30  49 S6        29.56S                  
BAUDETTE       FAIR      51  32  48 S6        29.52F                  
WASKISH        FAIR      46  37  71 CALM      29.55S                  
CROOKSTON      FAIR      54  28  37 SW3       29.55R                  
$$
  *****  WEATHER ACROSS CENTRAL AND WEST MINNESOTA  *****     
  
CITY           SKY/WX    TMP DP  RH WIND       PRES   REMARKS
BEMIDJI        FAIR      49  33  53 CALM      29.56S                  
PARK RAPIDS    FAIR      51  32  48 S5        29.57F                  
WADENA         FAIR      48  34  57 CALM      29.59S                  
DETROIT LAKES  CLOUDY    50  34  53 SE5       29.56F                  
MOORHEAD       FAIR      54  30  40 S5        29.56R                  
FERGUS FALLS   FAIR      54  34  47 SE6       29.56F                  
ELBOW LAKE     FAIR      50  36  58 SE5       29.59F                  
MORRIS MN      FAIR      54  27  35 SE5       29.59F                  
STAPLES        FAIR      48  34  57 CALM      29.60R                  
WHEATON          N/A     52  32  46 SE7       29.58F                  
$$
  *****  WEATHER ELSEWHERE ACROSS MINNESOTA  *****     
  
CITY           SKY/WX    TMP DP  RH WIND       PRES   REMARKS
DULUTH         FAIR      50  33  52 NW5       29.59R                  
INTRNTL FALLS  FAIR      45  33  63 SW3       29.53R                  
ELY            FAIR      45  34  65 SW3       29.58R                  
CLOQUET        FAIR      45  34  65 CALM      29.59R                  
BRAINERD       FAIR      47  33  58 CALM      29.60R                  
HIBBING        FAIR      40  36  86 CALM      29.58R                  
ALEXANDRIA     FAIR      50  34  54 SE6       29.61S                  
SAINT CLOUD    FAIR      49  37  63 CALM      29.61S                  
MINNEAPOLIS    MOCLDY    57  35  43 CALM      29.63R                  
$$

  *****  WEATHER ACROSS SOUTH DAKOTA  *****
  
CITY           SKY/WX    TMP DP  RH WIND       PRES   REMARKS
SIOUX FALLS    FAIR      51  35  54 E5        29.60S                  
BROOKINGS      FAIR     N/A N/A N/A E7          N/A                   
WATERTOWN      FAIR      51  32  48 CALM      29.58S                  
HURON          FAIR      55  33  43 SE7       29.55S                  
SISSETON         N/A     56  34  43 S9        29.56S                  
ABERDEEN       FAIR      45  31  58 SE8       29.56R                  
MITCHELL       FAIR      60  34  37 S5        29.57S                  
PIERRE         FAIR      59  35  40 SE13      29.48F                  
MOBRIDGE       FAIR      58  37  45 SE10      29.48S                  
RAPID CITY     FAIR      50  26  39 VRB5      29.46F                  
$$

  *****  SOME WEATHER IN NEARBY STATES *****
  
CITY           SKY/WX    TMP DP  RH WIND       PRES   REMARKS
GLASGOW MT     LGT RAIN  46  42  86 E9        29.55S                  
GREAT FALLS MT CLOUDY    47  37  68 SW3       29.53S                  
CHEYENNE WY    FAIR      61  11  14 SW14      29.75R                  
SCOTTSBLUFF NE FAIR      64  15  15 W8        29.60R                  
OMAHA NE       FAIR      56  36  47 N3        29.59S                  
DES MOINES IA  FAIR      63  38  39 CALM      29.62R                  
DAVENPORT IA   FAIR      67  39  35 S8        29.68R                  
CHICAGO IL     FAIR      70  38  31 S12G24    29.71R                  
EAU CLAIRE WI  FAIR      48  37  65 S3        29.63R                  
LA CROSSE WI   FAIR      52  39  61 CALM      29.63R                  
$$

  *****  SOME NATIONAL WEATHER *****
  
CITY           SKY/WX    TMP DP  RH WIND       PRES   REMARKS
LA GUARDIA NY  FAIR      58  40  51 S7        30.15R                  
RALEIGH NC     FAIR      52  38  58 CALM      30.15R                  
ATLANTA GA     FAIR      58  38  47 SE5       30.12R                  
NEW ORLEANS LA FAIR      67  55  65 S7        30.08R                  
OKLAHOMA CITY  FAIR      69  40  34 S10       29.72R                  
ALBUQUERQUE NM FAIR      69  36  29 W10       29.97S                  
SALT LAKE CITY FAIR      69  19  15 S7        29.75F                  
LOS ANGELES CA MOCLDY    67  62  84 W12       29.84S                  
BOISE ID       MOCLDY    64  36  35 N5        29.65F                  
SEATTLE WA     LGT RAIN  47  45  93 S5        29.71F                  
$$

*** WEATHER ACROSS MANITOBA...SASKATCHEWAN AND ONTARIO ***
                ***ONTARIO***
  
CITY           SKY/WX    TMP DP  RH WIND       PRES   REMARKS
GERALDTON      NOT AVBL                                               
THUNDER BAY    MOCLDY    50  34  53 SW6       29.53R                  
SIOUX LOOKOUT  MOCLDY    46  36  66 SW6       29.48R                  
TORONTO        CLEAR     55  37  50 S7        29.87S                  
BIG TROUT LK   CLOUDY    41  32  70 W12G18    29.28R                  
PICKLE LAKE    MOCLDY    45  37  76 SW13G20   29.40R                  
DRYDEN         PTCLDY    46  36  66 SW7       29.48R                  
KENORA         MOCLDY    50  32  50 SW6       29.48S                  
$$      
                *** MANITOBA***
  
CITY           SKY/WX    TMP DP  RH WIND       PRES   REMARKS
BRANDON        MOCLDY    46  36  66 SW12      29.51S                  
DAUPHIN        MOCLDY    45  32  61 W8        29.46R                  
ISLAND LAKE    CLOUDY    43  32  65 W14G28    29.33R                  
PILOT MOUND      N/A     45  41  87 W8          N/A                   
THE PAS        CLOUDY    45  32  61 NW14G22   29.44R                  
THOMPSON       FLURRIES  36  28  75 W13G20    29.36R                  
WINNIPEG       LGT RAIN  54  36  50 W15G26    29.50R                  
LYNN LAKE      CLOUDY    34  28  80 NW8G17    29.42R                  
CHURCHILL      FLURRIES  32  30  93 N24G30    29.25R WCI  19          
GILLAM         LGT RAIN  36  34  93 NW17G23   29.25R                  
$$
                ***SASKATCHEWAN***
  
CITY           SKY/WX    TMP DP  RH WIND       PRES   REMARKS
ESTEVAN        MOCLDY    39  39 100 W5        29.56R                  
KINDERSLEY     PTCLDY    37  23  56 SW5       29.52S                  
LLOYDMINSTER   PTCLDY    41  30  65 N3        29.49F                  
PRINCE ALBERT  MOCLDY    41  34  75 W8        29.51R                  
REGINA         CLOUDY    43  34  70 SW10      29.52F                  
YORKTON        MOCLDY    45  28  53 W7        29.48R   
