ASUS42 KFFC 220103
RWRGA 
WEATHER ROUNDUP FOR GEORGIA
NATIONAL WEATHER SERVICE PEACHTREE CITY GA
900 PM EDT FRI OCT 21 2022

NOTE: "FAIR" INDICATES FEW OR NO CLOUDS BELOW 12,000 FEET WITH NO
SIGNIFICANT WEATHER AND/OR OBSTRUCTIONS TO VISIBILITY. 

* = USE WITH CAUTION. THE STATIONS MARKED WITH AN ASTERISK MAY NOT
REPORT WEATHER SUCH AS PRECIPITATION, FOG, OR THUNDER AND ARE NOT 
QUALITY CONTROLLED BY NWS.

THE REMARK "TC" DENOTES TEMPERATURE READING IN DEGREES CELSIUS.

GAZ001>058-220200-
NORTH GEORGIA
  
CITY           SKY/WX    TMP DP  RH WIND       PRES   REMARKS
ATLANTA        PTCLDY    58  38  47 SE5       30.12R                  
ATHENS         CLEAR     48  35  60 E7        30.13R                  
CHAMBLEE       CLEAR     48  38  68 CALM      30.12R                  
PEACHTREE CITY CLEAR     48  40  73 CALM      30.12R                  
ROME           CLEAR     51  43  74 CALM      30.09R                  
WEST ATLANTA   CLEAR     50  40  68 CALM      30.11R                  
GAINESVILLE    CLEAR     55  30  38 CALM      30.14R                  
CARTERSVILLE   PTCLDY    52  43  71 CALM      30.11R                  

  
CITY           SKY/WX    TMP DP  RH WIND       PRES   REMARKS
DALTON*        CLEAR     49  39  69 CALM      30.11R                  
LAWRENCEVILLE* CLEAR     50  39  66 CALM      30.13R                  
MARIETTA       CLEAR     52  38  58 CALM      30.10R                  
KENNESAW*      CLEAR     51  40  65 CALM      30.12R                  
CANTON*        CLEAR     54  34  46 CALM      30.12S                  
BLAIRSVILLE*   CLEAR     47  35  60 CALM      30.14R                  
$$

GAZ059>098-102>109-220200-
CENTRAL GEORGIA
  
CITY           SKY/WX    TMP DP  RH WIND       PRES   REMARKS
AUGUSTA-BUSH   CLEAR     47  39  74 CALM      30.12R                  
AUGUSTA-DANIEL CLEAR     59  31  34 CALM      30.13R                  
COLUMBUS       CLEAR     57  40  52 CALM      30.11R                  
MACON          CLEAR     51  42  71 CALM      30.12R                  
ROBINS AFB     CLEAR     50  41  70 CALM      30.11R                  

  
CITY           SKY/WX    TMP DP  RH WIND       PRES   REMARKS
LAGRANGE*      CLEAR     48  42  79 CALM      30.12R                  
SYLVANIA*      CLEAR     48  42  79 CALM      30.14R                  
MILLEDGEVILLE* CLEAR     52  37  58 CALM      30.12R                  
$$

GAZ099>101-110>166-220200-
SOUTH GEORGIA
  
CITY           SKY/WX    TMP DP  RH WIND       PRES   REMARKS
SAVANNAH       CLEAR     53  41  63 CALM      30.13R                  
VALDOSTA       CLEAR     50  41  71 CALM      30.11R                  
ALMA           CLEAR     50  39  66 CALM      30.11R                  
ST SIMONS      CLEAR     61  42  49 NE6       30.11R                  
FT STEWART     CLEAR     49  42  76 CALM      30.10R                  
ALBANY         CLEAR     51  40  65 CALM      30.13R                  
HUNTER AFB     CLEAR     51  42  72 CALM      30.10R                  
MOODY AFB      CLEAR     51  41  69 CALM      30.10R                  
BRUNSWICK      CLEAR     47  42  85 CALM      30.12R                  

  
CITY           SKY/WX    TMP DP  RH WIND       PRES   REMARKS
BAINBRIDGE*    CLEAR     53  40  61 CALM      30.12R                  
MOULTRIE*      CLEAR     54  41  62 CALM      30.12R                  
VIDALIA*       CLEAR     52  39  62 CALM      30.12R                  
WAYCROSS*      CLEAR     51  48  89 CALM      30.12R                  
DOUGLAS*       CLEAR     53  39  60 CALM      30.13R                  
$$
  
