ASUS42 KILM 212310
RWRILM
RWRILM
REGIONAL HOURLY WEATHER ROUNDUP
NATIONAL WEATHER SERVICE WILMINGTON NC
700 PM EDT FRI OCT 21 2022
 
NOTE: "FAIR" INDICATES FEW OR NO CLOUDS BELOW 12,000 FEET WITH NO
SIGNIFICANT WEATHER AND/OR OBSTRUCTIONS TO VISIBILITY.
 
...............WFO WILMINGTON COUNTY WARNING AREA...............

......COASTAL NC AND SC COUNTIES......
  
CITY           SKY/WX    TMP DP  RH WIND       PRES   REMARKS
WILMINGTON     CLOUDY    62  51  67 CALM      30.09S                  
N MYRTLE BEACH CLEAR     57  47  69 CALM      30.09R                  
MYRTLE BEACH   CLEAR     59  49  69 CALM      30.10S                  

......INLAND NC AND SC COUNTIES.......
  
CITY           SKY/WX    TMP DP  RH WIND       PRES   REMARKS
LUMBERTON      CLEAR     55  42  61 CALM      30.10R                  
ELIZABETHTOWN  CLEAR     59  41  50 CALM      30.10S                  
WHITEVILLE     CLEAR     57  43  60 CALM      30.11S                  
FLORENCE       CLEAR     58  41  53 CALM      30.11R                  
DARLINGTON     CLEAR     54  39  57 CALM      30.11R                  
KINGSTREE      FAIR      54  43  66 CALM      30.10R                  
HARTSVILLE     FAIR      54  36  50 CALM      30.11R                  
BENNETTSVILLE  FAIR      55  39  54 CALM      30.11R                  
CONWAY         FAIR      54  48  82 CALM      30.10S                  
GEORGETOWN     FAIR      54  46  76 CALM      30.10S                  
MARION         FAIR      55  36  47 CALM      30.11R                  
 
....................REST OF NORTH CAROLINA......................

.........EASTERN NC.........
  
CITY           SKY/WX    TMP DP  RH WIND       PRES   REMARKS
CAPE HATTERAS  PTCLDY    63  54  72 VRB6      30.09S                  
JACKSONVILLE   MOCLDY    58  50  75 CALM      30.11R                  
MOREHEAD CITY  PTCLDY    60  51  72 N5        30.10R                  
KENANSVILLE    PTCLDY    54  46  76 CALM      30.11R                  
NEW BERN       MOCLDY    57  48  72 CALM      30.12R                  
ELIZABETH CITY CLEAR     57  46  66 NE6       30.13R                  

.........CENTRAL NC.........
  
CITY           SKY/WX    TMP DP  RH WIND       PRES   REMARKS
RALEIGH DURHAM PTCLDY    57  38  48 CALM      30.12R                  
ROCKY MOUNT    CLEAR     55  39  54 CALM      30.12R                  
ROANOKE RAPIDS NOT AVBL                                               
FAYETTEVILLE   CLEAR     60  40  47 CALM      30.10R                  
HOFFMAN        CLEAR     56  38  51 CALM      30.09R                  

.........WESTERN NC.........
  
CITY           SKY/WX    TMP DP  RH WIND       PRES   REMARKS
CHARLOTTE      PTCLDY    60  31  33 SW3       30.11S                  
GREENSBORO     PTCLDY    59  30  33 CALM      30.11R                  
HICKORY        NOT AVBL                                               
BOONE          NOT AVBL                                               
ASHEVILLE      NOT AVBL                                               

.....................REST OF SOUTH CAROLINA.....................

.........EASTERN SC.........
  
CITY           SKY/WX    TMP DP  RH WIND       PRES   REMARKS
CHARLESTON     CLEAR     60  42  51 N6        30.09S                  
BEAUFORT MCAS  CLEAR     61  45  55 CALM      30.09S                  
HILTON HEAD    CLEAR     57  46  67 CALM      30.10S                  

.........CENTRAL SC.........
  
CITY           SKY/WX    TMP DP  RH WIND       PRES   REMARKS
COLUMBIA       CLEAR     62  35  36 CALM      30.10R                  
ORANGEBURG     CLEAR     57  41  55 CALM      30.10R                  
SUMTER SHAW    CLEAR     61  35  38 CALM      30.08S                  

.........WESTERN SC.........
  
CITY           SKY/WX    TMP DP  RH WIND       PRES   REMARKS
GREENVILLE     NOT AVBL                                               
ROCK HILL      CLEAR     51  35  54 CALM      30.11S                  
ANDERSON       CLEAR     59  34  39 CALM      30.09S                  
CLEMSON        NOT AVBL                                               
GREENWOOD      CLEAR     56  34  43 CALM      30.11S                  
 

...................COASTAL AND OFFSHORE REPORTS..................

................LOCAL PIERS AND NC RESERVE................

  
STATION/POSITION TIME  SKY/WX   TEMP    WIND        PRES    VSBY
                                AIR SEA DIR/SP/G
                 (UTC)          (F)     (DEG/KT/KT) (MB)    (MI)
JOHNY MRCER PIER 2230               69   60/  8/ 11 1018.4
NC RESRV MASNBRO NOT AVBL
OCEAN CREST PIER NOT AVBL
SPRINGMAID  PIER 2230                   130/  2/  3 1020.0


................COASTAL AND OFFSHORE BUOYS................

  
STATION/POSITION TIME  SKY/WX   TEMP    WIND        PRES    VSBY
                                AIR SEA DIR/SP/G
                 (UTC)          (F)     (DEG/KT/KT) (MB)    (MI)
DIMNDSHOAL 41025 2250               77   30/ 16/ 19 1018.3R
CAPE LOOKOUT     2200            64      10/ 10/ 13 1019.3R
ONSLOW BAY 41036 NOT AVBL
ONSLOW BAY 41064 NOT AVBL
ONSLOW BAY 41159 2226               74                N/A
WVE H/P(F/S)=  3/ 4

MASNBO INL 41110 NOT AVBL
WILM HARBR 41108 NOT AVBL
27SE WRITB 41037 NOT AVBL
FRYING PAN 41013 2250            68 77   30/ 14/ 17 1018.2R
WVE H/P(F/S)=  4/ 5 SWL H/P/D(F/S/D)=  2/120/ 9

SUNST NRSH 41024 NOT AVBL
CAPRS NRSH 41029 NOT AVBL
EDISTO     41004 2250            67 78   20/ 12/ 16 1018.7R
WVE H/P(F/S)=  2/ 4 SWL H/P/D(F/S/D)=  2/ 90/ 9



..........OFFSHORE BUOYS BEYOND 100 NM OFFSHORE...........
.....IN A TRIANGLE---HAT TO BERMUDA TO BAHAMAS TO HAT..... 

  
STATION/POSITION TIME  SKY/WX   TEMP    WIND        PRES    VSBY
                                AIR SEA DIR/SP/G
                 (UTC)          (F)     (DEG/KT/KT) (MB)    (MI)
150E HAT   41001 2250            74 77   40/ 16/ 19 1017.5R
WVE H/P(F/S)=  5/ 6 SWL H/P/D(F/S/D)=  2/ 90/ 8

W BERMUDA  41048 2250                               1014.9R
WVE H/P(F/S)=  4/13

ATLANTIC S 41049 2250            81 83  100/ 10/ 14 1015.7R
WVE H/P(F/S)=  4/12 SWL H/P/D(F/S/D)=  3/ 20/12

E BAHAMAS  41046 2250            83 84  120/ 10/ 12 1014.4R
NE BAHAMAS 41047 2250            79 82  100/  4/  6 1011.5F
WVE H/P(F/S)=  4/ 5 SWL H/P/D(F/S/D)=  3/170/ 5

120E CANVRL41010 2250            76 82   50/ 14/ 16 1014.9R

END
  
