ASHW40 PHFO 220041
RWRHI 

WEATHER ROUNDUP FOR HAWAII
NATIONAL WEATHER SERVICE HONOLULU HI
200 PM HST FRI OCT 21 2022

THIS IS AN AUTOMATED REPORT THAT HAS NOT BEEN QUALITY CONTROLLED.

NOTE..."FAIR" INDICATES FEW OR NO CLOUDS BELOW 12,000 FEET WITH NO
SIGNIFICANT WEATHER AND/OR OBSTRUCTIONS TO VISIBILITY.

* - THESE SITES REPORT LIMITED FIELDS
# - BUOY DATA PROVIDED BY PACIFIC ISLANDS OCEAN OBSERVING SYSTEM.

HIZ001-003-004-029>031-220100-
KAUAI-NIIHAU-
  
CITY           SKY/WX    TMP DP  RH WIND       PRES   REMARKS
LIHUE APT      SUNNY     84  73  69 S13       29.98F HX  90           
PORT ALLEN*      N/A    N/A N/A N/A SW12        N/A                   
POIPU*           N/A     88 N/A N/A SW6G12      N/A                   
KOKOLE POINT*  NOT AVBL                                               
MOLOAA DAIRY*    N/A     82  72  69 SE9G18      N/A                   
WAIMEA HTS*      N/A     88  70  55 S7G14       N/A  HX  92           
PUU OPAE*        N/A     79  66  65 S9G17       N/A                   
PUU LUA*       NOT AVBL                                               
MAKAHA RIDGE*    N/A     81  63  54 S5G12       N/A                   
$$

HIZ006-007-009>011-032>036-220100-
OAHU-
  
CITY           SKY/WX    TMP DP  RH WIND       PRES   REMARKS
HONOLULU       MOSUNNY   84  72  67 VRB7      29.97F                  
KALAELOA       SUNNY     85  71  63 SE8       29.99F HX  90           
KANEOHE MCB    MOSUNNY   83  69  62 E14       29.94F                  
WHEELER FIELD  FAIR      84  65  51 S3        30.00F                  
BELLOWS*         N/A     86 N/A N/A E14         N/A                   
KAHUKU*          N/A     90 N/A N/A E6G13       N/A                   
WHEELER*         N/A     84 N/A N/A S7G13       N/A                   
WAIANAE HARBOR   N/A     82 N/A N/A S16         N/A                   
DILLINGHAM*      N/A     88  72  58 N1          N/A  HX  94           
KAHUKU TRN*      N/A     82  72  69 SE1G9       N/A                   
KAWAILOA*      NOT AVBL                                               
KII*             N/A     84  72  65 E12G18      N/A                   
MAKUA RANGE*     N/A     88  72  58 SW7         N/A  HX  94           
OAHU FOREST NW   N/A     86  70  58 SW6G15      N/A  HX  90           
SCHOFIELD BRK*   N/A     84  64  51 SE6         N/A                   
SCHOFIELD S*   NOT AVBL                                               
WAIANAE VLY*     N/A     88  70  55 SW7G13      N/A  HX  92           
KUAOKALA*        N/A     81  70  69 S9G15       N/A                   
HONOULIUULI*   NOT AVBL                                               
MOKUOLOE IS*     N/A     82 N/A N/A E6          N/A                   
PALEHUA*         N/A     79  66  65 SE5G12      N/A                   
WAIAWA PHB*    NOT AVBL                                               
$$

HIZ037>041-220100-
MOLOKAI-
  
CITY           SKY/WX    TMP DP  RH WIND       PRES   REMARKS
MOLOKAI AIRPT  MOSUNNY   83  70  64 N8        29.99F                  
KALAUPAPA      NOT AVBL                                               
MAKAPULAPAI*     N/A     84  73  70 E13G18      N/A  HX  91           
MOLOKAI 1*       N/A     79  66  65 SE2G9       N/A                   
PUU ALII*        N/A     71  64  78 NW1         N/A                   
$$

HIZ015-042>044-220100-
LANAI-
  
CITY           SKY/WX    TMP DP  RH WIND       PRES   REMARKS
LANAI CITY     FAIR      81  66  60 W10       30.04F                  
LANAI 1*         N/A     82  66  57 S6          N/A                   
$$

HIZ016-220100-
KAHOOLAWE-
  
CITY           SKY/WX    TMP DP  RH WIND       PRES   REMARKS
KAHOOLAWE*     NOT AVBL                                               
HAKIOAWA*      NOT AVBL                                               
HONOKANAIA*    NOT AVBL                                               
KANELOA*         N/A     82  70  65 E17G25    30.06F                  
KEALIALALO*    NOT AVBL                                               
LUA MAKIKA*    NOT AVBL                                               
$$

HIZ017-018-022-045>050-220100-
MAUI-
  
CITY           SKY/WX    TMP DP  RH WIND       PRES   REMARKS
KAHULUI        MOSUNNY   94  68  42 NE15      29.95F HX  98           
KAPALUA-W MAUI SUNNY     90  64  43 NW10      29.97  HX  91           
HANA AIRPORT   NOT AVBL                                               
HANA*            N/A     82 N/A N/A SE6G13      N/A                   
HALEAKALA SUMM   N/A     59  39  47 SE9         N/A  VSB 0            
MAALAEA BAY*     N/A     91 N/A N/A N13G20      N/A                   
HALEAKALA*     NOT AVBL                                               
KAUPO GAP*     NOT AVBL                                               
KULA 1*          N/A     60  56  87 NW3G9       N/A                   
$$

HIZ023-026-051>054-220100-
BIG ISLAND OF HAWAII COAST AND LOWER SLOPES-
  
CITY           SKY/WX    TMP DP  RH WIND       PRES   REMARKS
KAILUA KONA    MOSUNNY   87  70  56 W13       29.94F HX  92           
HILO           CLOUDY    83  73  72 SE13      29.97F                  
HONOKAA*       NOT AVBL                                               
KAWAIHAE MWT*  NOT AVBL                                               
KAWAIHAE*        N/A     82 N/A N/A W3        29.91                   
SOUTH POINT*     N/A     81 N/A N/A E21G29      N/A                   
UPOLU AIRPORT*   N/A     84 N/A N/A NE18G25     N/A                   
KAMUELA*       NOT AVBL                                               
HAKALAU*         N/A     70  58  65 SE6G13      N/A                   
KALOKO-HONOKO*   N/A     88  70  55 W8G16     29.93F HX  92           
PALI 2*          N/A     75  68  78 SE13G23     N/A                   
KEALAKOMO*       N/A     86  72  62 E12G18      N/A  HX  92           
KAUPULEHU*       N/A     82  66  57 NW10G18     N/A                   
KAPAPALA*        N/A     79  70  73 E7G14       N/A                   
LOWER KAHUKU*    N/A     72  70  94 NE3G15      N/A                   
PUHE CS*         N/A     84  70  61 W5        29.91F                  
PUHO CS*         N/A     86  71  61 W5G10       N/A  HX  92           
PTA KEAMUKU*     N/A    N/A N/A N/A W9G16       N/A                   
WAIKOLOA*        N/A     84  66  54 W7G15       N/A                   
$$ 

HIZ027-028-220100-
BIG ISLAND OF HAWAII INTERIOR AND SUMMMITS-
  
CITY           SKY/WX    TMP DP  RH WIND       PRES   REMARKS
BRADSHAW FIELD MOSUNNY   72  54  53 SW13G23   30.30F                  
MK VISITOR CEN   N/A     55  46  71 S12         N/A                   
MAUNA KEA*       N/A     45  28  53 NE7         N/A                   
MAUNA LOA*     NOT AVBL                                               
MAUNA LOA 1*   NOT AVBL                                               
PTA KIPUKA*      N/A     73  55  53 NW3G12      N/A                   
PTA RANGE 17*    N/A     70  57  64 NW10G18     N/A                   
PTA WEST*        N/A     75  57  53 NW7G15      N/A                   
NENE CABIN*      N/A     64  61  88 E8G16       N/A                   
AHUMOA*          N/A     65  57  75 NW6G12      N/A                   
PTA PORTABLE*  NOT AVBL                                               
PUU MALI*        N/A     63  59  88 N5G10       N/A                   
$$ 

HIC003-220100-
NORTHWEST ISLANDS-
  
CITY           SKY/WX    TMP DP  RH WIND       PRES   REMARKS
MIDWAY ISLAND  LGT RAIN  75  72  88 N14G26    30.00F                  
MIDWAY NOS*    NOT AVBL                                               
FRENCH FRIGATE NOT AVBL                                               
$$

PHZ110>124-180-220100-
BUOY REPORTS
  
STATION/POSITION TIME  TEMP    WIND        PRES    WAVE   SWELL
                       AIR SEA DIR/SP/G            HT/PER HT/DIR
                 (UTC) (F)     (DEG/KT/KT) (MB)    (FT/S) (FT/D)
BUOY 51101       0020   77 80  170/ 16/ 19 1012.8
BUOY 51100       NOT AVBL
BUOY 51002       0020   81 82   70/ 12/ 14 1012.8
BUOY 51003       0020   81     140/ 12/ 16 1013.5
BUOY 51004       0020   80 81   70/ 16/ 19 1011.9
WAIMEA BAY#      2356      82                N/A     6/13   5/360
MOKAPU POINT#    2356      81                N/A     7/13   5
LANAI#           2328      83                N/A     4/17   3/180
BARBERS PT#      0000      82                N/A     4/11   3/320
PAUWELA#         2356      81                N/A     7/12   5/340
HILO#            0015      81                N/A     7/13   5/340
KANEOHE BAY#     2356      81                N/A     7/11   5/350
KANEOHE BAY 2#   NOT AVBL
HANALEI#         2356      81                N/A     8/12   7/350
KAHULUI HARBOR   0000   83 82   70/ 12/ 15 1014.3
HONOLULU HARBOR  0000   81 81  210/  5/  8 1015.1
PEARL HARBOR#    0000   81 81                N/A     3/17   2/170
KILO NALU        NOT AVBL
HILO HARBOR      0000   83 82  120/  6/ 13 1014.2
MOKUOLOE         2336   84 82   90/  6/  9 1014.5F
NAWILIWILI       0000   82 86  150/  7/ 12 1015.3
WHOTS BUOY       NOT AVBL
BUOY 51028       NOT AVBL
$$

......................KEY........................................
  SKY/WX - SKY CONDITIONS/PRESENT WEATHER
  TMP    - TEMPERATURE IN FAHRENHEIT
  DWPT   - DEWPOINT IN FAHRENHEIT
  RH     - RELATIVE HUMIDITY IN PERCENT
  WIND   - DIRECTION AND SPEED /MPH FOR ISLANDS...KTS FOR BUOYS/
  PRES   - MEAN SEA LEVEL PRESSURE IN INCHES OF HG
  VSB    - VISIBILITY IN MILES
  HX     - HEAT INDEX
  WCI    - WIND CHILL INDEX
  VRB    - VARIABLE WIND DIRECTION
  N/A    - NOT AVAILABLE
  
