FTPA31 PHFO 212339
TAFHMK
TAF
PHMK 212339Z 2200/2224 14008KT P6SM SCT025 SCT035
     FM220500 05005KT P6SM SCT025 SCT035
     FM221800 05009KT P6SM FEW025
     FM222100 05012G16KT P6SM FEW025=
