FTPA31 PHFO 212339
TAFMDY
TAF
PMDY 212339Z 2200/2224 34008KT 3SM SHRA BR SCT010 BKN020 OVC050
     FM220400 01007KT P6SM VCSH FEW010 BKN030
     FM220900 03006KT P6SM SCT030 SCT050=
