FTPA31 PHFO 212339
TAFHJR
TAF
PHJR 212339Z 2200/2224 14008KT P6SM FEW025 SCT035
     FM220300 10005KT P6SM FEW025 SCT040
     FM220600 VRB03KT P6SM FEW025
     FM222000 13008KT P6SM FEW025=
