FTPA31 PHFO 212339
TAFHNY
TAF
PHNY 212339Z 2200/2224 28006KT P6SM FEW035
     FM220400 05007KT P6SM FEW025
     FM221900 02008KT P6SM FEW025=
