ASUS45 KABQ 220001
RWRNM 
NEW MEXICO REGIONAL WEATHER ROUNDUP
NATIONAL WEATHER SERVICE ALBUQUERQUE NM
600 PM MDT FRI OCT 21 2022

NOTE: "FAIR" MEANS FEW OR NO CLOUDS BELOW 12,000 FEET AGL WITH NO
       SIGNIFICANT WEATHER OR OBSTRUCTIONS TO VISION.

      THIS PRODUCT IS RELEASED AS TWO VERSIONS.  ONE VERSION NEAR
      THE TOP OF THE HOUR CONTAINING PRELIMINARY DATA FROM ALBUQUERQUE
      AND OTHER STATIONS.  A FINAL VERSION WITH ADDITIONAL DATA IS 
      ISSUED ABOUT 10 MINUTES AFTER THE HOUR.
 
NMZ201-203-204-210>218-220100-
NORTHWEST PLATEAU/NORTHCENTRAL MOUNTAINS
  
CITY           SKY/WX    TMP DP  RH WIND       PRES   REMARKS
FARMINGTON     FAIR      68  27  21 W7        29.97F                  
6HR MIN TEMP:  62; 6HR MAX TEMP:  73;                                

LOS ALAMOS     FAIR      61  24  24 W9G16     30.05S                  
SANTA FE       FAIR      65  27  23 W12       30.00S                  
6HR MIN TEMP:  62; 6HR MAX TEMP:  71;                                

TAOS           FAIR      61  21  21 W13       30.02F                  

$$
NMZ202-205>209-241-402-403-220100-
WESTCENTRAL MOUNTAINS/SOUTHWEST MOUNTAINS
  
CITY           SKY/WX    TMP DP  RH WIND       PRES   REMARKS
GALLUP         FAIR      65  37  35 SW14G24   30.05F                  
6HR MIN TEMP:  63; 6HR MAX TEMP:  69;                                

GRANTS         FAIR      65  35  32 W13       30.08F                  
SILVER CITY    FAIR      73  45  35 NW15G21   30.04F                  

$$
NMZ407-409-411-412-220100-
SOUTHERN DESERTS
  
CITY           SKY/WX    TMP DP  RH WIND       PRES   REMARKS
DEMING         FAIR      78  44  29 W15       29.97F                  
6HR MIN TEMP:  72; 6HR MAX TEMP:  81;                                

LAS CRUCES     FAIR      77  38  25 W17G25    29.98F                  
HOLLOMAN AFB   FAIR      77  40  27 SE7       29.96F                  
ALAMOGORDO     FAIR      73  43  33 SE5       29.95F                  
T OR C         FAIR      77  37  23 S6        29.95F                  
6HR MIN TEMP:  68; 6HR MAX TEMP:  79;                                


$$
NMZ219>223-220100-
CENTRAL VALLEYS/CENTRAL HIGHLANDS
  
CITY           SKY/WX    TMP DP  RH WIND       PRES   REMARKS
ALBUQUERQUE    FAIR      72  34  24 W14       29.97F                  
6HR MIN TEMP:  62; 6HR MAX TEMP:  75;                                

DOUBLE EAGLE   CLEAR     70  32  24 W14       30.00F                  
MORIARTY ARPT  FAIR      66  28  23 W14G22    30.01F                  
6HR MIN TEMP:  64; 6HR MAX TEMP:  69;                                

CLINES CORNERS FAIR      60  30  32 W20G29    30.04F                  
6HR MIN TEMP:  60; 6HR MAX TEMP:  65;                                

BELEN          FAIR      72  32  23 NW9       29.97F                  
6HR MIN TEMP:  68; 6HR MAX TEMP:  77;                                

SOCORRO        FAIR      73  38  27 S9        29.95F                  
6HR MIN TEMP:  65; 6HR MAX TEMP:  76;                                


$$
NMZ224>226-239-240-220100-
SOUTHCENTRAL MOUNTAINS
  
CITY           SKY/WX    TMP DP  RH WIND       PRES   REMARKS
RUIDOSO          N/A     63  34  34 W8        30.08F                  

$$
NMZ227>231-220100-
NORTHEAST HIGHLANDS/NORTHEAST PLAINS
  
CITY           SKY/WX    TMP DP  RH WIND       PRES   REMARKS
LAS VEGAS      FAIR      64  26  23 SW12      29.97R                  
6HR MIN TEMP:  64; 6HR MAX TEMP:  74;                                

RATON          FAIR      67  18  15 W13       29.85S                  
6HR MIN TEMP:  67; 6HR MAX TEMP:  78;                                

CLAYTON        FAIR      71  13  10 SW6       29.77F                  
6HR MIN TEMP:  71; 6HR MAX TEMP:  81;                                


$$
NMZ232>237-220100-
EASTCENTRAL PLAINS
  
CITY           SKY/WX    TMP DP  RH WIND       PRES   REMARKS
SANTA ROSA     FAIR      72  31  21 W16G28    29.85S                  
TUCUMCARI      FAIR      74  32  21 W16       29.75F                  
6HR MIN TEMP:  74; 6HR MAX TEMP:  81;                                

CANNON AFB     FAIR      74  28  18 W22G28    29.83S                  
6HR MIN TEMP:  72; 6HR MAX TEMP:  79;                                

CLOVIS AIRPORT FAIR      73  31  21 W22       29.83F                  

$$
NMZ028-029-033-238-220100-
SOUTHEAST PLAINS
  
CITY           SKY/WX    TMP DP  RH WIND       PRES   REMARKS
ROSWELL        FAIR      80  39  23 NW9       29.86F                  
6HR MIN TEMP:  72; 6HR MAX TEMP:  85;                                

ARTESIA        FAIR      81  46  30 CALM      29.87F                  
CARLSBAD       FAIR      79  38  22 W15       29.85F                  
6HR MIN TEMP:  79; 6HR MAX TEMP:  84;                                

HOBBS          CLEAR     75  43  31 SW6       29.88F                  


$$
  
