ASUS45 KREV 231910
RWRNV 
NEVADA REGIONAL WEATHER ROUNDUP
NATIONAL WEATHER SERVICE RENO NV
1200 PM PDT SUN OCT 23 2022

NOTE: "FAIR" INDICATES FEW OR NO CLOUDS BELOW 12,000 FEET WITH NO
SIGNIFICANT WEATHER AND/OR OBSTRUCTIONS TO VISIBILITY.

NVZ001-003-004-232000-
WESTERN NEVADA
  
CITY           SKY/WX    TMP DP  RH WIND       PRES   REMARKS
RENO           PTSUNNY   46  20  35 NE7       30.05S                  
CARSON CITY    PTSUNNY   45  21  39 NE7G13    30.06R                  
MINDEN         FAIR      43  25  49 CALM      30.04S                  
SLIDE MTN        N/A     19  18  93 NE6         N/A                   
PYRAMID LAKE     N/A     48 N/A N/A VRB5        N/A                   
FALLON         MOSUNNY   47  22  37 N10G17    30.04S                  
LOVELOCK       MOSUNNY   48  17  29 N17G23    30.04S                  
$$

NVZ002-CAZ072-073-232000-
NORTHERN AND CENTRAL SIERRA
  
CITY           SKY/WX    TMP DP  RH WIND       PRES   REMARKS
S. LAKE TAHOE  MOSUNNY   40  16  37 MISG      29.99R                  
TRUCKEE        SUNNY     39  18  41 SE10G17   30.03S                  
BLUE CANYON    MOSUNNY   44  18  35 VRB5      30.01R                  
SUSANVILLE     FAIR       5 -17  36 NE7       30.08S                  
MAMMOTH LAKES  FAIR      43  12  28 N10G18    29.97S                  
BRIDGEPORT       N/A     37  21  52 NE7         N/A                   
$$

NVZ030-031-036-232000-
NORTHERN NEVADA
  
CITY           SKY/WX    TMP DP  RH WIND       PRES   REMARKS
ELKO           PTSUNNY   41  24  51 NW20G30   29.94S                  
WINNEMUCCA       N/A    N/A N/A N/A MISG      30.03S                  
BATTLE MOUNTAI CLOUDY    39  32  75 NW7       30.03R                  
WENDOVER       MOSUNNY   46  14  27 NW24G33   29.86R                  
$$

NVZ035-037-232000-
CENTRAL NEVADA
  
CITY           SKY/WX    TMP DP  RH WIND       PRES   REMARKS
ELY            CLOUDY    32  24  72 W12       29.89R                  
EUREKA           N/A     33  27  78 NW7       29.95R                  
$$

NVZ013-014-232000-
SOUTH CENTRAL NEVADA
  
CITY           SKY/WX    TMP DP  RH WIND       PRES   REMARKS
TONOPAH        MOSUNNY   44  17  33 N23G38    29.95R                  
$$

NVZ017-020-022-232000-
SOUTHERN NEVADA
  
CITY           SKY/WX    TMP DP  RH WIND       PRES   REMARKS
LAS VEGAS      MOSUNNY   63  13  14 N20G31    29.86S                  
N. LAS VEGAS   SUNNY     62  15  16 N24G40    29.84R                  
NELLIS AFB     SUNNY     65  22  19 N6        29.83R                  
HENDERSON      SUNNY     62  13  14 N17G25    29.88S                  
MERCURY        SUNNY     55  19  24 CALM      29.90R                  
$$
  
