ASUS43 KMPX 220210
RWRMN 
WEATHER ROUNDUP FOR MINNESOTA
NATIONAL WEATHER SERVICE TWIN CITIES/CHANHASSEN MN
900 PM CDT FRI OCT 21 2022


NOTE: "FAIR" INDICATES FEW OR NO CLOUDS BELOW 12,000 FEET WITH NO
SIGNIFICANT WEATHER AND/OR OBSTRUCTIONS TO VISIBILITY. N/A MEANS
CURRENT SKY AND/OR WEATHER CONDITIONS ARE NOT AVAILABLE.

MNZ060>063-068>070-220300-
   Twin Cities Metro   
  
CITY           SKY/WX    TMP DP  RH WIND       PRES   REMARKS
TWIN CITIES    MOCLDY    56  35  45 CALM      29.62F                  
ST PAUL        MOCLDY    51  37  58 CALM      29.63S                  
CRYSTAL        MOCLDY    50  37  61 CALM      29.61F                  
BLAINE         PTCLDY    48  37  66 VRB5      29.61F                  
LAKEVILLE      PTCLDY    52  36  54 CALM      29.64R                  
EDEN PRAIRIE   PTCLDY    56  35  45 CALM      29.62R                  
SOUTH ST PAUL  MOCLDY    54  38  56 CALM      29.63R                  
LAKE ELMO      FAIR      45  34  65 CALM      29.64S                  
$$
MNZ001>005-007-008-013>017-022>024-027-028-220300-
   Northwest Minnesota   
  
CITY           SKY/WX    TMP DP  RH WIND       PRES   REMARKS
BEMIDJI        MOCLDY    50  33  51 CALM      29.56S                  
HALLOCK        CLOUDY    55  36  47 W10       29.54R                  
ROSEAU         CLOUDY    55  34  44 W7        29.53R                  
WARROAD        DRIZZLE   54  37  54 W7        29.53R                  
THIEF RVR FALL CLOUDY    50  32  50 SW6       29.56R                  
CROOKSTON      MOCLDY    54  30  40 SW5       29.56R                  
FOSSTON        MOCLDY    46  30  53 S6        29.57R                  
DETROIT LAKES  CLOUDY    50  34  53 CALM      29.57R                  
MOORHEAD       MOCLDY    52  30  43 CALM      29.57R                  
PARK RAPIDS    MOCLDY    50  32  50 S5        29.57S                  
MAHNOMEN       FAIR      49  32  51 S5        29.56S                  
$$
MNZ006-009>011-018-025>026-220300-
   North Central Minnesota   
  
CITY           SKY/WX    TMP DP  RH WIND       PRES   REMARKS
BAUDETTE       MOCLDY    48  33  56 SW6       29.53R                  
FLAG ISLAND    CLOUDY    52  36  54 SW9       29.51R                  
INTL FALLS     PTCLDY    47  33  58 S3        29.53S                  
WASKISH        MOCLDY    54  36  50 S5        29.54S                  
BIG FORK       MOCLDY    48  34  57 CALM      29.62F                  
LONGVILLE      MOCLDY    43  36  75 CALM      29.59R                  
GRAND RAPIDS   MOCLDY    45  36  70 CALM      29.60S                  
CRANE LAKE     MOCLDY    39  34  81 CALM      29.58F                  
ORR            MOCLDY    48  36  61 CALM      29.55S                  
COOK           MOCLDY    48  34  57 CALM      29.57S                  
WALKER         CLOUDY    49  33  52 CALM      29.57S                  
$$
MNZ012-019>021-037-220300-
   Northeast Minnesota   
  
CITY           SKY/WX    TMP DP  RH WIND       PRES   REMARKS
DULUTH         MOCLDY    44  33  65 SW3       29.60R                  
ELY            MOCLDY    46  32  57 CALM      29.59R                  
HIBBING        MOCLDY    40  35  83 CALM      29.59R                  
EVELETH        MOCLDY    41  36  81 CALM      29.60R                  
DULUTH HARBOR    N/A    N/A N/A N/A S6        29.59R                  
TWO HARBORS    MOCLDY    48  36  61 CALM      29.58S                  
GRAND MARAIS     N/A     56  36  47 NW5       29.57R                  
G MARAIS ARPRT MOCLDY    46  36  66 CALM      29.58R                  
$$
MNZ029>031-032-039>041-046>048-054>057-064-220300-
   West Central Minnesota   
  
CITY           SKY/WX    TMP DP  RH WIND       PRES   REMARKS
FERGUS FALLS   MOCLDY    52  34  50 S5        29.56R                  
WHEATON          N/A     57  34  41 S8        29.57S                  
MORRIS         PTCLDY    48  27  43 SE8       29.59S                  
ALEXANDRIA     MOCLDY    50  33  52 SE7       29.59F                  
ELBOW LAKE     FAIR      53  33  47 SE5       29.58R                  
WADENA         MOCLDY    50  34  53 CALM      29.57F                  
GLENWOOD       PTCLDY    50  34  53 SE6       29.59F                  
APPLETON         N/A     52  30  43 S6        29.58S                  
BENSON         PTCLDY    50  34  53 S5        29.59F                  
ORTONVILLE       N/A     46  36  66 SE5       29.58S                  
MADISON        CLEAR     48  32  53 SE8       29.60S                  
WILLMAR        FAIR      46  36  66 E3        29.64S                  
$$
MNZ033>034-036-042>043-049>051-058-059-220300-
   Central Minnesota     
  
CITY           SKY/WX    TMP DP  RH WIND       PRES   REMARKS
ST CLOUD       MOCLDY    46  37  71 SE3       29.60F                  
SAUK CENTRE    FAIR      47  33  57 SE3       29.59F                  
PAYNESVILLE    MOCLDY    48  36  61 CALM      29.62S                  
AITKIN         MOCLDY    41  36  81 CALM      29.59S                  
PINE RIVER     MOCLDY    46  36  66 CALM      29.63S                  
BRAINERD       MOCLDY    45  33  63 S3        29.59F                  
STAPLES        MOCLDY    50  36  57 CALM      29.58F                  
LONG PRAIRIE   FAIR      45  32  61 SE3       29.60F                  
LITTLE FALLS   MOCLDY    45  34  65 CALM      29.61S                  
CAMP RIPLEY    MOCLDY    45  33  62 CALM      29.59S                  
LITCHFIELD     MOCLDY    46  34  61 CALM      29.61F                  
BUFFALO        CLOUDY    46  34  61 CALM      29.62R                  
MAPLE LAKE     MOCLDY    48  37  64 CALM      29.63S                  
HUTCHINSON     MOCLDY    47  32  57 CALM      29.64S                  
$$
MNZ037-044-045-052-053-220300-
   East Central Minnesota   
  
CITY           SKY/WX    TMP DP  RH WIND       PRES   REMARKS
PRINCETON      MOCLDY    45  37  76 CALM      29.62S                  
MORA           PTCLDY    41  34  75 CALM      29.64F                  
CAMBRIDGE      MOCLDY    48  32  53 CALM      29.61F                  
RUSH CITY      PTCLDY    48  39  71 CALM      29.61F                  
MOOSE LAKE     PTCLDY    43  34  70 CALM      29.61F                  
HINCKLEY       PTCLDY    41  36  81 CALM      29.61R                  
CLOQUET        PTCLDY    45  32  61 CALM      29.60R                  
MCGREGOR       MOCLDY    41  34  75 CALM      29.60F                  
$$
MNZ071>073-080-081-089-090-097-098-220300-
   Southwest Minnesota   
  
CITY           SKY/WX    TMP DP  RH WIND       PRES   REMARKS
MONTEVIDEO     CLEAR     46  34  61 SE7       29.59F HAZE             
GRANITE FALLS  CLEAR     53  34  50 SE7       29.61F                  
CANBY          CLEAR     51  33  50 SE5       29.60F                  
MARSHALL       CLEAR     48  33  56 S8        29.61F                  
REDWOOD FALLS  CLEAR     53  33  46 SE5       29.62R                  
OLIVIA         CLEAR     48  32  53 CALM      29.62S HAZE             
WINDOM         CLEAR     46  34  61 SE3       29.62F                  
WORTHINGTON    CLEAR     48  35  60 E6        29.63F                  
JACKSON        CLEAR     46  34  61 E6        29.64S                  
TRACY            N/A     51  31  46 CALM      29.62F                  
SLAYTON        CLEAR     48  33  55 SE7       29.62F                  
$$
MNZ065>067-074>077-082>085-091>093-220300-
   South Central Minnesota  
  
CITY           SKY/WX    TMP DP  RH WIND       PRES   REMARKS
MANKATO        PTCLDY    52  38  58 SE5       29.63F                  
NEW ULM        CLEAR     54  32  43 CALM      29.63R                  
ST JAMES       CLEAR     45  34  65 SE5       29.62F                  
FAIRMONT       CLEAR     49  35  58 E3        29.64S                  
GLENCOE        PTCLDY    51  34  52 CALM      29.62S                  
FARIBAULT      CLEAR     46  37  71 SE3       29.63S                  
OWATONNA       CLEAR     50  39  66 SE6       29.64F                  
WASECA         PTCLDY    45  34  65 SE5       29.65F                  
ALBERT LEA     CLEAR     46  37  71 CALM      29.65S                  
$$
MNZ078>079-086>088-094>096-220300-
   Southeast Minnesota   
  
CITY           SKY/WX    TMP DP  RH WIND       PRES   REMARKS
ROCHESTER      CLEAR     57  36  45 N5        29.67R                  
RED WING       MOCLDY    52  37  58 CALM      29.62S                  
STANTON        PTCLDY    49  35  60 S5        29.63R HAZE             
DODGE CENTER   CLEAR     46  34  61 CALM      29.65S HAZE             
WINONA         CLEAR     48  39  71 CALM      29.65S                  
AUSTIN         CLEAR     48  37  66 CALM      29.66R                  
PRESTON        CLEAR     54  36  49 CALM      29.66R                  
$$
ABBREVIATIONS USED IN REMARKS
   TC - TEMPERATURES IN CELSIUS
  WCI - WIND CHILL INDEX
   HX - HEAT INDEX
  VSB - VISIBILITY 
$$
  
