ASUS44 KLUB 232000
RWRLUB
WEST TEXAS WEATHER ROUNDUP
NATIONAL WEATHER SERVICE LUBBOCK TX
300 PM CDT SUN OCT 23 2022

NOTE: "FAIR" INDICATES FEW OR NO CLOUDS BELOW 12,000 FEET WITH NO
SIGNIFICANT WEATHER AND/OR OBSTRUCTIONS TO VISIBILITY.

TXZ004-006>008-010-012-014-016-OKZ002-232100-
TEXAS PANHANDLE/OKLAHOMA PANHANDLE
  
CITY           SKY/WX    TMP DP  RH WIND       PRES   REMARKS
AMARILLO       CLOUDY    75  51  43 SW21G36   29.60F                  
BORGER         CLOUDY    79  51  37 S20G36    29.56F                  
CANADIAN       PTSUNNY   80  53  39 S22G29    29.54F                  
DALHART        MOSUNNY   80  38  22 SW39G58   29.52F                  
GUYMON           N/A     86  43  22 SW38G56   29.42                   
HEREFORD       CLOUDY    76  50  39 S21G29    29.63F                  
PERRYTON       MOSUNNY   82  46  28 S31G41    29.50F                  
$$

TXZ026-029-035-045-048-232100-
SOUTHERN PANHANDLE/SOUTH PLAINS/ROLLING PLAINS
  
CITY           SKY/WX    TMP DP  RH WIND       PRES   REMARKS
CHILDRESS      CLOUDY    83  52  34 S14G25    29.60F                  
LUBBOCK        PTSUNNY   82  50  32 SW25G32   29.66F                  
SNYDER         SUNNY     85  53  33 S21G28    29.69F                  
$$

TXZ052-054-060>062-072-078-127-140-154-169-232100-
PERMIAN BASIN/CONCHO VALLEY/BIG COUNTRY/EDWARDS PLATEAU  
  
CITY           SKY/WX    TMP DP  RH WIND       PRES   REMARKS
ABILENE        SUNNY     87  57  35 S24G41    29.70F                  
BIG SPRING     SUNNY     85  53  33 S25G32    29.71F                  
JUNCTION       SUNNY     82  59  45 S15G32    29.79F                  
MIDLAND        SUNNY     83  53  35 S21G29    29.70F                  
ODESSA         SUNNY     83  54  36 S22       29.71F                  
SAN ANGELO     SUNNY     85  56  37 S21G33    29.72F                  
SWEETWATER     SUNNY     86  52  30 S25G32    29.74F                  
WINK           SUNNY     89  45  21 SW20G35   29.66F                  
$$

TXZ055-058-074-075-080-082-232100-
FAR WEST/SOUTHWEST MOUNTAINS/TRANS PECOS
  
CITY           SKY/WX    TMP DP  RH WIND       PRES   REMARKS
DRYDEN           N/A     66  61  84 E8        29.82F                  
EL PASO        PTSUNNY   79  44  28 W24G37    29.74F                  
FORT STOCKTON  SUNNY     87  45  23 SW12G22   29.72F                  
GUADALUPE PASS MOSUNNY   73  47  39 SW43G56   29.79F                  
MARFA          SUNNY     81  44  27 SW12G23   29.87F                  
PRESIDIO       FAIR      87  51  28 S7        29.77F                  
$$

TXZ014-016-019-021>030-083-232100
TEXAS TECH WEST TEXAS MESONET/TEXAS PANHANDLE/NORTHERN SOUTH PLAINS
  
CITY           SKY/WX    TMP DP  RH WIND       PRES   REMARKS
ABERNATHY 5ENE   N/A     82  50  33 SW26      29.68S                  
AMARILLO 9NNE    N/A     76  52  41 S24       29.58F                  
AMARILLO 7SSE    N/A     75  51  41 SW24      29.63F                  
AMHERST 1NE      N/A     75  49  39 SW17G37   29.68F                  
BOOTLEG 11WNW    N/A     75  48  39 SW31      29.65F                  
CANADIAN 6E      N/A     80  54  40 S25       29.54F                  
CAPROCK CYN SP   N/A     83  51  32 S18G36    29.62R                  
CHILDRESS 2NNE   N/A     83  53  35 S21       29.60F                  
CLARENDON 2WSW   N/A     80  52  36 S16       29.61S                  
CLAUDE 12SW      N/A     77  51  39 SW21      29.63S                  
DIMMITT 2NE      N/A     73  50  43 S26       29.65F                  
FLOYDADA 2NNE    N/A     83  51  33 S21G38    29.67F                  
FRIONA 2NE       N/A     74  51  43 S24       29.64F                  
GOODLETT 3W      N/A     87  53  31 S24       29.58F                  
HART 3N          N/A     74  51  44 SW24      29.66F                  
HEREFORD 2NW     N/A     74  50  42 SW26      29.63F                  
MCLEAN 1E        N/A     77  53  43 SE14      29.59F                  
MEMPHIS 1NE      N/A     82  53  36 S14       29.58F                  
MULESHOE 2SSW    N/A     75  49  39 S25       29.66F                  
OLTON 6S         N/A     78  49  35 SW30      29.66F                  
PALO DURO SP     N/A     76  50  40 S22G31    29.63F                  
PAMPA 2E         N/A     80  51  35 SW18      29.60F                  
PLAINVIEW 1S     N/A     83  49  29 SW28G43   29.65F                  
SILVERTON 7ESE   N/A     80  51  35 SW25      29.64S                  
TULIA 2ENE       N/A     78  50  37 SW23      29.65S                  
TURKEY 2WSW      N/A     84  50  31 S26G37    29.60S                  
UMBARGER 3NNE    N/A     75  51  42 SW29      29.63F                  
$$

TXZ033>036-039>041-045>048-232100
TEXAS TECH WEST TEXAS MESONET/SOUTH PLAINS  
  
CITY           SKY/WX    TMP DP  RH WIND       PRES   REMARKS
AIKEN 3WSW       N/A     84  52  32 S28       29.67F                  
ANDREWS 2NE      N/A     83  53  35 S20       29.70F                  
ANTON 6SSW       N/A     84  50  31 S24       29.66F                  
BROWNFIELD 2S    N/A     83  51  32 SW20      29.68F                  
DENVR CTY 7WNW   N/A     83  47  29 SW21G38   29.69F                  
GAIL 2ESE        N/A     86  53  31 S22G35    29.67F                  
LAMESA 2SE       N/A     87  51  29 S17G31    29.70F                  
LUBBOCK 3WNW     N/A     83  50  31 SW13      29.67F                  
MORTON 1ENE      N/A     77  48  36 SW23      29.70F                  
ODONNELL 1N      N/A     85  50  29 SW22      29.69F                  
PLAINS 3N        N/A     80  48  31 SW21      29.69F                  
RALLS 1SE        N/A     85  50  29 S24       29.66F                  
REESE CENTER     N/A     83  49  30 SW24      29.67F                  
SEAGRAVES 1SW    N/A     85  50  29 SW23      29.69F                  
SEMINOLE 2NNE    N/A     84  49  29 SW20G35   29.69F                  
SLATON 2NE       N/A     85  51  30 S24       29.67F                  
SNYDER 3E        N/A     86  55  34 S22       29.69F                  
SUNDOWN 8SW      N/A     82  48  30 SW22G36   29.68F                  
TAHOKA 3NNE      N/A     86  52  31 S22       29.68F                  
WOLFFORTH 6SSW   N/A     83  50  32 SW20      29.68F                  
$$

TXZ031-032-036>038-042>044-232100-
TEXAS TECH WEST TEXAS MESONET/ROLLING PLAINS 
  
CITY           SKY/WX    TMP DP  RH WIND       PRES   REMARKS
ASPERMONT 3NE    N/A     89  54  30 S22       29.65F                  
FLUVANNA 3WNW    N/A     86  53  31 S23       29.68F                  
GRAHAM 5SSW      N/A     86  49  27 S24       29.67F                  
GUTHRIE 10WSW    N/A     89  53  28 S23       29.62F                  
HASKELL 1NW      N/A     89  55  31 S28       29.66F                  
JAYTON 1SSE      N/A     89  54  30 S21       29.65F                  
KNOX CITY 3NW    N/A     90  56  31 S26       29.63F                  
LK A HENRY 1NW   N/A     89  54  30 S18       29.66F                  
NORTHFIELD 1S    N/A     86  53  32 S18       29.59F                  
ODELL 4ENE       N/A     89  56  33 S31       29.61F                  
PADUCAH 10SW     N/A     89  54  30 S23G35    29.63F                  
POST 1NE         N/A     88  50  27 S20       29.65F                  
RRING SPRGS 3N   N/A     87  50  28 S24       29.63F                  
SEYMOUR 3NW      N/A     90  57  32 S20       29.64F                  
SPUR 1W          N/A     89  52  28 SW20G35   29.63F                  
WEINERT 2NNE     N/A     91  56  30 S30G43    29.65F                  
WHITE RVR 6NE    N/A     88  50  27 S24       29.64F                  
$$

TXZ052-054-060>062-072-078-127-140-154-169-232100-
TEXAS TECH WEST TEXAS MESONET/PERMIAN BASIN/
CONCHO VALLEY/BIG COUNTRY/EDWARDS PLATEAU
  
CITY           SKY/WX    TMP DP  RH WIND       PRES   REMARKS
COYANOSA 2N      N/A     92  47  21 SW10      29.69F                  
JUNCTION 1SSW    N/A     82  59  46 S17       29.80F                  
MERTZON 3NNE     N/A     83  58  41 S24       29.75F                  
SAN ANGELO 7NW   N/A     85  57  37 S17       29.74F                  
STRLNG CT 4WSW   N/A     85  57  38 S20       29.75F                  
ST LAWRNCE 5SW   N/A     82  56  40 S22       29.75F                  
SWEETWATR 11SW   N/A     83  56  38 S23       29.74F                  
WALL 1E          N/A     87  58  36 S17       29.75F                  
$$

TXZ055-058-074-075-080-082-232100-
TEXAS TECH WEST TEXAS MESONET/FAR WEST/SOUTHWEST MOUNTAINS/TRANS PECOS
  
CITY           SKY/WX    TMP DP  RH WIND       PRES   REMARKS
PRSMN GAP BBNP   N/A     85  44  23 S8        29.78F                  
GUADLPE MTN NP   N/A     69  46  44 W12G46    29.82F                  
$$
  
