ASUS44 KLUB 232010
RWRLUB
WEST TEXAS WEATHER ROUNDUP
NATIONAL WEATHER SERVICE LUBBOCK TX
300 PM CDT SUN OCT 23 2022

NOTE: "FAIR" INDICATES FEW OR NO CLOUDS BELOW 12,000 FEET WITH NO
SIGNIFICANT WEATHER AND/OR OBSTRUCTIONS TO VISIBILITY.

TXZ004-006>008-010-012-014-016-OKZ002-232100-
TEXAS PANHANDLE/OKLAHOMA PANHANDLE
  
CITY           SKY/WX    TMP DP  RH WIND       PRES   REMARKS
AMARILLO       CLOUDY    75  51  43 SW21G36   29.60F                  
BORGER         CLOUDY    79  51  37 S20G36    29.56F                  
CANADIAN       CLOUDY    80  53  39 S22G29    29.54F                  
DALHART        MOSUNNY   80  38  22 SW39G58   29.52F                  
DUMAS          MOSUNNY   81  44  27 S29G44    29.54F                  
GUYMON           N/A     86  43  22 SW38G56   29.42                   
HEREFORD       CLOUDY    76  50  39 S21G29    29.63F                  
PAMPA          CLOUDY    80  52  37 SW24G30   29.59F                  
PERRYTON       CLOUDY    82  46  28 S31G41    29.50F                  
$$

TXZ026-029-035-045-048-232100-
SOUTHERN PANHANDLE/SOUTH PLAINS/ROLLING PLAINS
  
CITY           SKY/WX    TMP DP  RH WIND       PRES   REMARKS
CHILDRESS      CLOUDY    83  52  34 S14G25    29.60F                  
SEMINOLE       SUNNY     85  49  29 SW21G29   29.72F                  
LUBBOCK        PTSUNNY   82  50  32 SW25G32   29.66F                  
PLAINVIEW      PTSUNNY   83  48  29 SW29G35   29.64F                  
SNYDER         SUNNY     85  53  33 S21G28    29.69F                  
$$

TXZ052-054-060>062-072-078-127-140-154-169-232100-
PERMIAN BASIN/CONCHO VALLEY/BIG COUNTRY/EDWARDS PLATEAU  
  
CITY           SKY/WX    TMP DP  RH WIND       PRES   REMARKS
ABILENE        SUNNY     87  57  35 S24G41    29.70F                  
BIG SPRING     SUNNY     85  53  33 S25G32    29.71F                  
BRADY          SUNNY     82  57  42 S22G32    29.76F                  
JUNCTION       CLOUDY    82  59  45 S15G32    29.79F                  
MIDLAND        SUNNY     83  53  35 S21G29    29.70F                  
ODESSA         SUNNY     83  54  36 S22       29.71F                  
SAN ANGELO     SUNNY     85  56  37 S21G33    29.72F                  
SONORA           N/A     81  57  44 S16G24    29.82F                  
SWEETWATER     SUNNY     86  52  30 S25G32    29.74F                  
WINK           SUNNY     89  45  21 SW20G35   29.66F                  
$$

TXZ055-058-074-075-080-082-232100-
FAR WEST/SOUTHWEST MOUNTAINS/TRANS PECOS
  
CITY           SKY/WX    TMP DP  RH WIND       PRES   REMARKS
ALPINE         SUNNY     82  44  26 SW12G21   29.89F                  
DRYDEN           N/A     66  61  84 E8        29.82F                  
EL PASO        PTSUNNY   79  44  28 W24G37    29.74F                  
FORT STOCKTON  MOSUNNY   87  45  23 SW12G22   29.72F                  
GUADALUPE PASS MOSUNNY   73  47  39 SW43G56   29.79F                  
MARFA          SUNNY     81  44  27 SW12G23   29.87F                  
PECOS          SUNNY     90  46  21 SW16G22   29.66F                  
PRESIDIO       FAIR      87  51  28 S7        29.77F                  
$$

TXZ014-016-019-021>030-083-232100
TEXAS TECH WEST TEXAS MESONET/TEXAS PANHANDLE/NORTHERN SOUTH PLAINS
  
CITY           SKY/WX    TMP DP  RH WIND       PRES   REMARKS
ABERNATHY 5ENE   N/A     81  50  34 SW25      29.67F                  
AMARILLO 9NNE    N/A     77  52  41 S22G33    29.58F                  
AMARILLO 7SSE    N/A     76  51  41 SW20      29.63F                  
AMHERST 1NE      N/A     76  49  38 SW18      29.67F                  
BOOTLEG 11WNW    N/A     74  47  37 SW31G43   29.65F                  
CANADIAN 6E      N/A     80  54  40 SE24      29.53F                  
CAPROCK CYN SP   N/A     85  50  30 SW22G37   29.61S                  
CHILDRESS 2NNE   N/A     84  53  34 S20       29.60F                  
CLARENDON 2WSW   N/A     81  52  36 S18       29.60F                  
CLAUDE 12SW      N/A     77  51  39 SW22G39   29.62F                  
DIMMITT 2NE      N/A     73  50  44 S23G35    29.65F                  
FLOYDADA 2NNE    N/A     83  51  32 SW22G35   29.67S                  
FRIONA 2NE       N/A     74  51  43 S30       29.63F                  
GOODLETT 3W      N/A     87  53  31 S22       29.58F                  
HART 3N          N/A     74  51  44 SW22      29.65F                  
HEREFORD 2NW     N/A     74  50  41 S25       29.63F                  
MCLEAN 1E        N/A     75  54  47 SE14      29.59F                  
MEMPHIS 1NE      N/A     83  53  35 S12       29.58F                  
MULESHOE 2SSW    N/A     75  49  39 S22       29.66F                  
OLTON 6S         N/A     77  48  35 SW26      29.66F                  
PALO DURO SP     N/A     76  49  39 SW29G35   29.63F                  
PAMPA 2E         N/A     80  50  34 SW21G37   29.60F                  
PLAINVIEW 1S     N/A     84  48  28 SW24      29.65S                  
SILVERTON 7ESE   N/A     81  50  34 SW24      29.64S                  
TULIA 2ENE       N/A     78  50  37 S24       29.64F                  
TURKEY 2WSW      N/A     85  50  29 SW26      29.59F                  
UMBARGER 3NNE    N/A     75  51  43 S29       29.63F                  
$$

TXZ033>036-039>041-045>048-232100
TEXAS TECH WEST TEXAS MESONET/SOUTH PLAINS  
  
CITY           SKY/WX    TMP DP  RH WIND       PRES   REMARKS
AIKEN 3WSW       N/A     83  49  30 SW24      29.67F                  
ANDREWS 2NE      N/A     83  54  36 S18       29.70F                  
ANTON 6SSW       N/A     85  51  30 S28       29.65F                  
BROWNFIELD 2S    N/A     84  51  31 SW24G38   29.69F                  
DENVR CTY 7WNW   N/A     83  47  29 SW26      29.69F                  
GAIL 2ESE        N/A     87  52  30 S21       29.67F                  
LAMESA 2SE       N/A     86  51  29 S15       29.70F                  
LUBBOCK 3WNW     N/A     84  49  30 SW21      29.67F                  
MORTON 1ENE      N/A     78  49  36 SW25      29.69F                  
ODONNELL 1N      N/A     85  50  29 SW16      29.69F                  
PLAINS 3N        N/A     80  48  32 SW18      29.70S                  
RALLS 1SE        N/A     85  49  29 SW28      29.66F                  
REESE CENTER     N/A     82  49  31 SW26G35   29.67F                  
SEAGRAVES 1SW    N/A     84  50  30 S26       29.68F                  
SEMINOLE 2NNE    N/A     84  48  27 S24       29.69F                  
SLATON 2NE       N/A     85  50  30 S28       29.67F                  
SNYDER 3E        N/A     87  55  33 S16       29.69F                  
SUNDOWN 8SW      N/A     83  47  29 SW26G36   29.68F                  
TAHOKA 3NNE      N/A     85  51  30 S23       29.67F                  
WOLFFORTH 6SSW   N/A     84  51  31 SW20      29.68F                  
$$

TXZ031-032-036>038-042>044-232100-
TEXAS TECH WEST TEXAS MESONET/ROLLING PLAINS 
  
CITY           SKY/WX    TMP DP  RH WIND       PRES   REMARKS
ASPERMONT 3NE    N/A     90  54  30 S23       29.65F                  
FLUVANNA 3WNW    N/A     86  52  31 S23       29.68F                  
GRAHAM 5SSW      N/A     86  50  28 S24       29.66F                  
GUTHRIE 10WSW    N/A     90  53  28 S16       29.62F                  
HASKELL 1NW      N/A     88  56  33 S18       29.66F                  
JAYTON 1SSE      N/A     89  55  31 S20       29.64F                  
KNOX CITY 3NW    N/A     91  54  29 S28       29.62F                  
LK A HENRY 1NW   N/A     88  55  32 S16G32    29.65F                  
NORTHFIELD 1S    N/A     87  52  30 S24G33    29.58F                  
ODELL 4ENE       N/A     88  56  33 S24       29.61F                  
PADUCAH 10SW     N/A     90  54  29 S22       29.63F                  
POST 1NE         N/A     89  51  27 SW14G31   29.65F                  
RRING SPRGS 3N   N/A     87  51  29 S18G35    29.63F                  
SEYMOUR 3NW      N/A     91  57  31 S21       29.64F                  
SPUR 1W          N/A     89  52  28 SW20      29.63F                  
WEINERT 2NNE     N/A     90  55  30 S28       29.65F                  
WHITE RVR 6NE    N/A     88  50  27 S23       29.64F                  
$$

TXZ052-054-060>062-072-078-127-140-154-169-232100-
TEXAS TECH WEST TEXAS MESONET/PERMIAN BASIN/
CONCHO VALLEY/BIG COUNTRY/EDWARDS PLATEAU
  
CITY           SKY/WX    TMP DP  RH WIND       PRES   REMARKS
COYANOSA 2N      N/A     91  46  20 SW7       29.68F                  
JUNCTION 1SSW    N/A     81  59  46 S14       29.80S                  
MERTZON 3NNE     N/A     85  58  40 S22       29.75F                  
SAN ANGELO 7NW   N/A     86  57  36 S21       29.74F                  
STRLNG CT 4WSW   N/A     85  57  39 S13       29.75F                  
ST LAWRNCE 5SW   N/A     81  55  39 S22       29.75F                  
SWEETWATR 11SW   N/A     84  56  38 S23       29.73F                  
WALL 1E          N/A     87  58  36 S22       29.75F                  
$$

TXZ055-058-074-075-080-082-232100-
TEXAS TECH WEST TEXAS MESONET/FAR WEST/SOUTHWEST MOUNTAINS/TRANS PECOS
  
CITY           SKY/WX    TMP DP  RH WIND       PRES   REMARKS
PRSMN GAP BBNP   N/A     85  44  23 S10       29.77F                  
GUADLPE MTN NP   N/A     69  45  41 W30G56    29.82F                  
$$
  
