ASUS44 KMAF 231810
RWRMAF
MIDLAND AREA WEATHER ROUNDUP
NATIONAL WEATHER SERVICE MIDLAND TX
100 PM CDT SUN OCT 23 2022

...IN SOUTHWEST TEXAS AND SOUTHEAST NEW MEXICO...
  
CITY           SKY/WX    TMP DP  RH WIND       PRES   REMARKS
ALPINE         SUNNY     78  45  30 SW10G18   29.95F                  
ANDREWS        FAIR      81  48  31 SW16      29.78F                  
ARTESIA        PTSUNNY   77  52  41 SW29      29.73F                  
BIG SPRING     SUNNY     81  54  38 S21       29.77F                  
CARLSBAD       MOSUNNY   84  49  29 SW15G25   29.71F                  
DRYDEN           N/A     65  61  87 SE7       29.87F                  
FORT STOCKTON  SUNNY     84  46  26 SW14      29.79F                  
GUAD PASS      MOSUNNY   74  48  39 SW39G63   29.82S                  
HOBBS          NOT AVBL                                               
LAMESA         NOT AVBL                                               
MARFA          SUNNY     80  43  26 S18G25    29.93F                  
MIDLAND AIRPK  SUNNY     82  53  36 S15       29.79S                  
MIDLAND INTL   SUNNY     80  55  42 S15G25    29.78F                  
ODESSA         SUNNY     79  54  41 S18G28    29.79F                  
PECOS          SUNNY     88  46  23 SW17G23   29.74F                  
PRESIDIO       FAIR      84  51  31 S12       29.85F                  
SEMINOLE       SUNNY     82  50  32 SW21G28   29.80F                  
SNYDER         SUNNY     80  53  39 S21G26    29.76F                  
WINK           SUNNY     86  47  25 SW16G25   29.74F                  
$$
...OTHER STATIONS IN TEXAS...
  
CITY           SKY/WX    TMP DP  RH WIND       PRES   REMARKS
ABILENE        SUNNY     83  58  42 S23G38    29.76F                  
AMARILLO       PTSUNNY   73  52  47 SW21G31   29.65F                  
AUSTIN         PTSUNNY   85  64  49 S23G31    29.87F                  
BROWNSVILLE    SUNNY     91  66  43 SE22G37   29.85F                  
CORPUS CHRISTI PTSUNNY   86  69  56 S24G36    29.88F                  
DALLAS FTW     PTSUNNY   82  62  50 S30G41    29.81F                  
DEL RIO        PTSUNNY   74  65  73 SE12      29.81F                  
EL PASO        PTSUNNY   76  51  41 SW18G33   29.78F                  
HOUSTON INT    PTSUNNY   84  59  42 S17G31    29.94F                  
LUBBOCK        PTSUNNY   79  51  37 S18G32    29.71F                  
SAN ANGELO     SUNNY     82  57  42 S20G32    29.78F                  
SAN ANTONIO    PTSUNNY   82  62  50 S16G28    29.88F                  
WACO           PTSUNNY   84  62  47 S22G33    29.86F                  
WICHITA FALLS  PTSUNNY   82  55  39 S32G47    29.54F                  
$$
...OTHER LOCATIONS IN NEW MEXICO...
  
CITY           SKY/WX    TMP DP  RH WIND       PRES   REMARKS
ALAMOGORDO       N/A     75  45  33 SW17      29.81F                  
ALBUQUERQUE    MOSUNNY   67  31  26 SW25G48   29.72F                  
CANNON AFB     CLOUDY    71  50  47 SW25G31   29.69F                  
CLOVIS         CLOUDY    72  51  47 SW25G33   29.70F                  
HOLLOMAN AFB   CLOUDY    73  44  35 SW24G32   29.82F                  
ROSWELL        CLOUDY    80  48  32 SW31G48   29.67F                  
RUIDOSO          N/A     63  34  34 SW40G62   29.79F                  
SANTA FE       PTSUNNY   62  33  33 SW32G46   29.70F                  
TRUTH OR CONSE SUNNY     69  35  28 SW23G38   29.77F                  
TUCUMCARI      MOSUNNY   75  48  38 SW31G51   29.61F                  
$$
  
