ASUS44 KEWX 231713
RWREWX
SOUTH TEXAS REGIONAL WEATHER ROUNDUP
NATIONAL WEATHER SERVICE AUSTIN/SAN ANTONIO TX
1200 PM CDT SUN OCT 23 2022

NOTE: "FAIR" INDICATED FEW OR NO CLOUDS BELOW 12,000 FEET WITH NO
SIGNIFICANT WEATHER AND/OR OBSTRUCTIONS TO VISIBILITY.

* - THESE STATIONS ARE NOT NWS OR FAA STATIONS...AND ARE NOT SUBJECT
    TO NWS AND FAA QUALITY CONTROL.
 
TXZ171-172-183>190-231800-
TEXAS HILL COUNTRY AND EDWARDS PLATEAU
  
CITY           SKY/WX    TMP DP  RH WIND       PRES   REMARKS
JUNCTION       MOSUNNY   77  63  61 S20G30    29.88F                  
*LLANO         PTSUNNY   79  61  53 S20G26    29.88F                  
BURNET         PTSUNNY   78  63  59 S21G35    29.91F                  
*HORSESHOE BAY PTSUNNY   78  61  55 S14G24    29.91S                  
*LAGO VISTA    PTSUNNY   75  63  64 S14G24    29.92F                  
*KERRVILLE     PTSUNNY   77  63  61 S22G28    29.91F                  
*FREDERICKSBRG PTSUNNY   75  61  60 S22       29.91F                  
*ROCKSPRINGS   MOSUNNY   72  63  73 SE21G29   29.94F                  
*BOERNE        PTSUNNY   75  59  57 S17G23    29.92F                  
HONDO          PTSUNNY   80  64  58 S20G26    29.89F                  
*UVALDE        PTSUNNY   75  67  75 SE15      29.90F                  
DEL RIO        CLOUDY    71  65  81 SE12      29.85S                  
*LAUGHLIN AFB  CLOUDY    71  65  81 SE16      29.83S                  
*SPOFFORD      PTSUNNY   75  66  73 N14       29.83F                  
CARRIZO SPRGS  PTSUNNY   77  64  65 SE10G17   29.84F                  
*FAITH RANCH   SUNNY     79  66  65 SE12G17   29.86F                  
$$

TXZ173-191>194-202-209-217>225-228-231800-
CENTRAL AND SOUTH CENTRAL TEXAS
  
CITY           SKY/WX    TMP DP  RH WIND       PRES   REMARKS
GEORGETOWN     PTSUNNY   79  63  57 S23G29    29.91F                  
*TAYLOR        PTSUNNY   80  63  54 S22G36    29.91S                  
AUSTIN/BERGSTM PTSUNNY   82  64  54 S22G32    29.90F                  
AUSTIN/MABRY   PTSUNNY   80  63  55 S8G28     29.91F                  
*PFLUGERVILLE  NOT AVBL                                               
SAN MARCOS     CLOUDY    73  70  88 S24       29.94                   
NEW BRAUNFELS  PTSUNNY   83  64  52 S20G32    29.90F                  
*RANDOLPH AFB  PTSUNNY   83  61  47 S18       29.88F                  
*SEGUIN        PTSUNNY   81  62  52 S17G25    29.89F                  
SAN ANTONIO    PTSUNNY   81  62  52 S21G32    29.91F                  
STINSON FIELD  PTSUNNY   84  64  50 S21G28    29.88F                  
*KELLY FIELD   PTSUNNY   82  64  53 SE21      29.87F                  
*PLEASANTON    PTSUNNY   83  65  53 S17G24    29.90F                  
*KENEDY        PTSUNNY   84  64  51 S16G29    29.91F                  
*LA GRANGE     NOT AVBL                                               
*GIDDINGS      PTSUNNY   80  65  61 S15G26    29.94S                  
*GONZALES      MOSUNNY   82  67  61 S15G21    29.92S                  
$$

TXZ163>164-176>182-195>201-210>213-226-227-235-231800-
SOUTHEAST TEXAS
  
CITY           SKY/WX    TMP DP  RH WIND       PRES   REMARKS
COLLEGE STN    PTSUNNY   80  64  58 S17G36    29.93F                  
*BRYAN         CLOUDY    81  65  57 S18G28    29.95F                  
*CALDWELL      CLOUDY    81  65  58 S21G29    29.93F                  
*CROCKETT      PTSUNNY   79  64  61 S12G22    29.95S                  
*BRENHAM       MOSUNNY   83  67  57 S17       29.94S                  
HUNTSVILLE     PTSUNNY   83  63  50 S14G25    29.95F                  
CONROE         PTSUNNY   84  62  47 S17G31    29.96F                  
HOUSTON BUSH   PTSUNNY   84  59  42 S20G32    29.96F                  
HOUSTON HOBBY  PTSUNNY   85  56  37 S20G32    29.97S                  
*HOUSTON SW AP MOSUNNY   86  57  37 S6        29.98S                  
PEARLAND       MOSUNNY   84  60  44 S15G30    29.98F                  
HOUSTON HOOKS  PTSUNNY   84  58  40 S13G23    29.96F                  
ELLINGTON FLD  MOSUNNY   84  59  42 SE25G31   29.96F                  
SUGAR LAND     MOSUNNY   87  58  37 S20G31    29.96F                  
*HOUSTON EXEC  PTSUNNY   84  63  48 S14G25    29.97S                  
*CLEVELAND MUN NOT AVBL                                               
*WHARTON       CLOUDY    82  61  49 SE21G28   29.96S                  
*COLUMBUS      CLOUDY    82  64  53 S10G18    29.95S                  
*EAGLE LAKE    PTSUNNY   84  64  50 S17G23    29.94F                  
$$

TXZ214>216-236>238-231800-
THE UPPER TEXAS COAST
  
CITY           SKY/WX    TMP DP  RH WIND       PRES   REMARKS
*ORANGE        CLOUDY    85  65  51 SE15      30.03F                  
PORT ARTHUR    PTSUNNY   84  66  54 S17G25    30.00F                  
GALVESTON      PTSUNNY   81  68  64 S12       30.00R                  
ANGLETON       MOSUNNY   85  58  39 S20G29    29.97S                  
*BAY CITY      PTSUNNY   83  64  51 S20G28    29.97S                  
PALACIOS       PTSUNNY   83  66  56 SE21G33   29.95S                  
$$

TXZ229>234-239>247-231800-
TEXAS COASTAL BEND AND RIO GRANDE PLAINS
  
CITY           SKY/WX    TMP DP  RH WIND       PRES   REMARKS
VICTORIA       PTSUNNY   84  69  60 SE18G28   29.93S                  
*BEEVILLE      MOSUNNY   84  62  47 S18G29    29.90S                  
ROCKPORT       PTSUNNY   86  70  58 S13G22    29.92R HX  90           
*PORT ARANSAS  CLOUDY   N/A N/A N/A S18G25    29.94S                  
*PORT LAVACA   PTSUNNY   86  67  54 S16G24    29.94S                  
*INGLESIDE     MOSUNNY   85  70  61 S22G28    29.91S                  
CORPUS CHRISTI PTSUNNY   84  70  62 S25G35    29.90F                  
CORPUS NAS     MOSUNNY   88  71  57 S25G32    29.91S HX  94           
*ROBSTOWN      MOSUNNY   85  67  53 MISG      29.90F                  
ALICE          PTSUNNY   83  68  60 S15G31    29.88F                  
KINGSVILLE NAS MOSUNNY   84  67  56 S23       29.88F                  
COTULLA        PTSUNNY   81  65  58 SE16G24   29.86F                  
LAREDO         PTSUNNY   83  66  56 S22G29    29.82F                  
$$

TXZ248>255-231800-
DEEP SOUTH TEXAS
  
CITY           SKY/WX    TMP DP  RH WIND       PRES   REMARKS
BROWNSVILLE    MOSUNNY   88  69  53 S23G36    29.88F HX  92           
PORT ISABEL    LGT RAIN  84  70  62 S24G38    29.88F                  
HARLINGEN      MOSUNNY   88  66  48 S26G36    29.87F HX  90           
*HEBBRONVILLE  SUNNY     83  64  51 S21G28    29.87F                  
MCALLEN        SUNNY     87  65  47 SE24G33   29.85F                  
*WESLACO       HAZE      87  66  50 S18G24    29.86F VSB 1            
FALFURRIAS     MOSUNNY   84  70  62 S18G25    29.86F                  
EDINBURG       MOSUNNY   87  67  51 SE20G26   29.86F                  
*ZAPATA        NOT AVBL                                               
$$

TXZ213>215-236>238-242>244-246-247-251-254-255-231800-
CMAN STATIONS
  
STATION/POSITION TIME  TEMP    WIND        PRES    WAVE
                       AIR SEA DIR/SP/G            HT/PER
                 (UTC) (F)     (DEG/KT/KT) (MB)    (FT/S)
SEA RIM ST PARK  1700   77     130/ 10/ 13 1016.3
NORTH JETTY/GLS  1624      73  160/  8/  9 1014.5
EAGLE POINT      1624      71  150/ 12/ 14 1015.0
MORGANS POINT    1624      72  130/ 10/ 14 1014.9
MISSION/ARANSAS  1600   78     170/ 14     1014.0
PORT O'CONNOR    1624      78  110/ 17/ 20 1013.6
PORT ARANSAS     1700   79     150/ 20/ 22   N/A
BAFFIN BAY       1630      75  130/ 18/ 22 1013.1
PORT ISABEL      1630      75  160/ 19/ 23 1012.2
$$
  
