ASUS44 KSJT 232110
RWRSJT
WEST CENTRAL TEXAS REGIONAL WEATHER ROUNDUP
NATIONAL WEATHER SERVICE SAN ANGELO TX
400 PM CDT SUN OCT 23 2022

NOTE: "FAIR" INDICATES FEW OR NO CLOUDS BELOW 12,000 FEET WITH NO
SIGNIFICANT WEATHER AND/OR OBSTRUCTIONS TO VISIBILITY.

TXZ049-054-064>066-071>073-076>078-098-099-113-114-127-128-139-140-
154-155-168>170-232200-
...LOCATIONS ACROSS WEST CENTRAL TEXAS...
  
CITY           SKY/WX    TMP DP  RH WIND       PRES   REMARKS
SAN ANGELO     CLOUDY    83  55  38 S15G28    29.72S                  
ABILENE        SUNNY     88  57  34 S21G32    29.69F                  
DYESS AFB      SUNNY     88  50  26 S22G31    29.65F                  
JUNCTION       CLOUDY    81  58  45 S15G28    29.79S                  
SWEETWATER     SUNNY     87  53  31 S22       29.72F                  
BROWNWOOD      NOT AVBL                                               
COLEMAN        MOSUNNY   85  54  33 S23G31    29.74F                  
SAN SABA       MOSUNNY   85  57  38 S16G28    29.77F                  
SONORA           N/A     79  57  47 S18G24    29.82S                  
OZONA          FAIR      77  57  50 S21G32    29.80S                  
BRADY          MOSUNNY   84  55  37 S16G23    29.76S                  
$$

TXZ001-004-007-008-010-012-014-016-OKZ002-232200-
TEXAS PANHANDLE/OKLAHOMA PANHANDLE
  
CITY           SKY/WX    TMP DP  RH WIND       PRES   REMARKS
AMARILLO       CLOUDY    76  49  38 SW29G45   29.59F                  
BORGER         CLOUDY    79  51  37 S22G37    29.54F                  
CANADIAN       PTSUNNY   79  53  39 S23G31    29.53S                  
DALHART        MOSUNNY   79  38  22 SW32G60   29.50F                  
DUMAS          PTSUNNY   79  46  30 S30G43    29.53S                  
GUYMON         NOT AVBL                                               
HEREFORD       CLOUDY    76  49  37 S29G39    29.60F                  
PAMPA          CLOUDY    79  52  38 SW25G32   29.57F                  
PERRYTON       CLOUDY    78  47  32 S31G38    29.50S                  
$$

TXZ035-026-045-048-232200-
SOUTHERN PANHANDLE/SOUTH PLAINS/ROLLING PLAINS
  
CITY           SKY/WX    TMP DP  RH WIND       PRES   REMARKS
LUBBOCK        PTSUNNY   85  50  29 SW25G37   29.64F                  
SNYDER         SUNNY     86  51  29 S17G29    29.67F                  
CHILDRESS      CLOUDY    86  50  28 S16       29.59F                  
SEMINOLE       MOSUNNY   85  48  27 SW22G29   29.71F                  
$$

TXZ060>062-232200-
PERMIAN BASIN
  
CITY           SKY/WX    TMP DP  RH WIND       PRES   REMARKS
MIDLAND        SUNNY     84  54  35 S18G31    29.68F                  
ODESSA         SUNNY     84  53  34 S18G30    29.69F                  
WINK           SUNNY     90  44  20 SW22G32   29.64F                  
$$

TXZ075-082-271-274-277-419-232200-
FAR WEST/SOUTHWEST MOUNTAINS/TRANS PECOS
  
CITY           SKY/WX    TMP DP  RH WIND       PRES   REMARKS
ALPINE         SUNNY     82  40  23 SW14G20   29.87F                  
DRYDEN           N/A     67  61  81 E8        29.80F                  
EL PASO        PTSUNNY   78  45  30 W20G33    29.73F                  
FORT STOCKTON  MOSUNNY   88  45  22 S13G28    29.70F                  
GUADALUPE PASS PTSUNNY   71  46  40 SW38G53   29.77F                  
MARFA          SUNNY     80  42  25 S13G23    29.84F                  
PECOS          SUNNY     91  45  20 SW17      29.64F                  
$$

TXZ118-119-232200-
DALLAS/FORT WORTH METROPLEX
  
CITY           SKY/WX    TMP DP  RH WIND       PRES   REMARKS
DFW AIRPORT    MOSUNNY   86  60  41 S30G44    29.72F                  
FTW MEACHAM    SUNNY     85  61  44 S21G35    29.72F                  
DAL-EXECUTIVE  SUNNY     84  60  44 S24G40    29.75F                  
GRAND PRAIRIE  MOSUNNY   84  57  39 S20G30    29.76F                  
ADDISON        MOSUNNY   84  55  37 S25G33    29.75F                  
MESQUITE       MOSUNNY   84  57  39 SE20G29   29.78F                  
LANCASTER      MOSUNNY   85  59  41 S17G32    29.78F                  
$$

TXZ092-093-103-131-134-232200-
NORTH CENTRAL TEXAS
  
CITY           SKY/WX    TMP DP  RH WIND       PRES   REMARKS
SHRMAN/DENISON SUNNY     84  57  39 S22G33    29.75F                  
GAINESVILLE    SUNNY     83  57  40 S28G35    29.74S                  
BRIDGEPORT     SUNNY     86  57  36 S21G33    29.73S                  
DENTON         SUNNY     86  60  41 S24G39    29.74F                  
WAXAHACHIE     MOSUNNY   85  61  43 S21G26    29.78F                  
GRANBURY       SUNNY     85  58  40 S21G30    29.74F                  
$$

TXZ085-086-115-141-232200-
WESTERN NORTH TEXAS
  
CITY           SKY/WX    TMP DP  RH WIND       PRES   REMARKS
WICHITA FALLS  SUNNY     91  56  30 S28G35    29.63F                  
VERNON         NOT AVBL                                               
BRECKENRIDGE   SUNNY     88  57  34 S23       29.70S                  
COMANCHE       MOSUNNY   87  58  37 S16G33    29.75F                  
$$

TXZ145-158-159-173-191-192-194-205-207-220-223-232200-
CENTRAL AND SOUTH CENTRAL TEXAS
  
CITY           SKY/WX    TMP DP  RH WIND       PRES   REMARKS
AUSTIN/BERGSTM PTSUNNY   86  64  47 S21G35    29.77F                  
WACO           MOSUNNY   86  61  42 S23G35    29.78F                  
HILLSBORO      MOSUNNY   86  60  41 S32G39    29.77F                  
TEMPLE         MOSUNNY   87  61  41 S24G33    29.79F                  
KILLEEN-GRAY   MOSUNNY   85  58  38 SE24      29.74F                  
FORT HOOD      MOSUNNY   85  60  42 S22G30    29.78F                  
GEORGETOWN     CLOUDY    84  60  44 S14G24    29.81S                  
LAGO VISTA     FAIR      83  59  44 S14G23    29.81S                  
SAN MARCOS     PTSUNNY   90  61  37 SE23      29.80F                  
NEW BRAUNFELS  MOSUNNY   87  64  46 S18G30    29.78F                  
RANDOLPH AFB   PTSUNNY   85  59  41 S20       29.77F                  
SAN ANTONIO    PTSUNNY   86  61  42 S15G26    29.80F                  
STINSON        MOSUNNY   88  62  41 S16G31    29.76F                  
PLEASANTON     NOT AVBL                                               
LA GRANGE      NOT AVBL                                               
GIDDINGS       MOSUNNY   84  64  49 S14G26    29.83F                  
$$

TXZ095-096-136-137-148-152-232200-
EAST TEXAS
  
CITY           SKY/WX    TMP DP  RH WIND       PRES   REMARKS
PARIS          PTSUNNY   85  60  42 S23G35    29.79F                  
CLARKSVILLE    NOT AVBL                                               
TYLER          PTSUNNY   85  58  39 S22G38    29.83F                  
LONGVIEW       MOSUNNY   85  55  35 S21G26    29.85F                  
PALESTINE      MOSUNNY   84  55  37 S13G23    29.83F                  
NACOGDOCHES    MOSUNNY   85  58  39 S15G25    29.88F                  
$$

TXZ171-183-184-186-188-203-204-232200-
TEXAS HILL COUNTRY AND EDWARDS PLATEAU
  
CITY           SKY/WX    TMP DP  RH WIND       PRES   REMARKS
LLANO          PTSUNNY   84  57  39 S16G25    29.77F                  
HORSESHOE BAY  FAIR      85  58  40 S15G23    29.79S                  
KERRVILLE      PTSUNNY   80  61  52 S18G24    29.81F                  
FREDERICKSBRG  CLOUDY    79  58  48 S17       29.82S                  
ROCKSPRINGS    PTSUNNY   73  63  68 SE16G25   29.87S                  
HONDO          LGT RAIN  86  62  44 SE21G33   29.79F                  
UVALDE         PTSUNNY   82  63  52 SE12G17   29.80F                  
DEL RIO        LGT RAIN  77  67  71 SE14G21   29.74F                  
$$

TXZ163-177-195>197-199-213-226-237-232200-
SOUTHEAST TEXAS
  
CITY           SKY/WX    TMP DP  RH WIND       PRES   REMARKS
COLLEGE STN    PTSUNNY   87  61  41 SE21G31   29.83F                  
CALDWELL       PTSUNNY   86  62  44 S21G31    29.82F                  
CROCKETT       MOSUNNY   88  55  33 S18       29.85F                  
BRENHAM        CLOUDY    86  62  43 S16G22    29.84F                  
HUNTSVILLE     PTSUNNY   87  56  34 S14G29    29.86F                  
CONROE         MOSUNNY   85  60  42 S21G31    29.88F                  
HOUSTON BUSH   PTSUNNY   85  61  44 S18G33    29.87F                  
HOUSTON HOBBY  PTSUNNY   85  60  42 S20G29    29.89S                  
PERLAND        PTSUNNY   84  62  47 S15G30    29.90F                  
WHARTON        PTSUNNY   83  60  45 SE15G25   29.88S                  
$$

TXZ215-216-236-237-438-232200-
THE UPPER TEXAS COAST
  
CITY           SKY/WX    TMP DP  RH WIND       PRES   REMARKS
ORANGE         CLOUDY    83  68  60 SE12G20   29.97S                  
PORT ARTHUR    CLOUDY    82  68  62 SE14G24   29.93S                  
GALVESTON      MOSUNNY   83  68  60 S14       29.91F                  
ANGLETON       PTSUNNY   84  59  42 SE17      29.89S                  
BAY CITY       PTSUNNY   82  62  51 S17       29.88F                  
$$

TXZ229-232-234-239-242-243-245-247-249-250-
253-255-257-343-347-443-232200-
TEXAS COASTAL BEND, RIO GRANDE PLAINS DEEP SOUTH TEXAS
  
CITY           SKY/WX    TMP DP  RH WIND       PRES   REMARKS
VICTORIA       MOSUNNY   89  67  47 SE22G32   29.83F                  
BEEVILLE       PTSUNNY   84  66  55 SE18G30   29.79F                  
ROCKPORT       MOSUNNY   85  71  63 SE14G28   29.82F                  
PORT ARANSAS   SUNNY    N/A N/A N/A SE16G24   29.84F                  
PORT LAVACA    CLOUDY    85  68  56 S21       29.85F                  
CORPUS CHRISTI PTSUNNY   86  72  62 SE25G38   29.81F                  
KINGSVILLE NAS PTSUNNY   87  71  58 SE26G35   29.78F                  
COTULLA        MOSUNNY   90  64  42 SE14G24   29.75F                  
LAREDO         MOSUNNY   92  63  38 SE15G26   29.72F                  
BROWNSVILLE    CLOUDY    88  71  57 SE24G36   29.80F                  
PORT ISABEL    LGT RAIN  86  72  62 S24G36    29.79F                  
HEBBRONVILLE   SUNNY     89  62  40 S15G23    29.76F                  
MCALLEN        MOSUNNY   89  64  43 SE22G33   29.76F                  
WESLACO        NOT AVBL                                          
