ASUS44 KEWX 231613
RWREWX
SOUTH TEXAS REGIONAL WEATHER ROUNDUP
NATIONAL WEATHER SERVICE AUSTIN/SAN ANTONIO TX
1100 AM CDT SUN OCT 23 2022

NOTE: "FAIR" INDICATED FEW OR NO CLOUDS BELOW 12,000 FEET WITH NO
SIGNIFICANT WEATHER AND/OR OBSTRUCTIONS TO VISIBILITY.

* - THESE STATIONS ARE NOT NWS OR FAA STATIONS...AND ARE NOT SUBJECT
    TO NWS AND FAA QUALITY CONTROL.
 
TXZ171-172-183>190-231700-
TEXAS HILL COUNTRY AND EDWARDS PLATEAU
  
CITY           SKY/WX    TMP DP  RH WIND       PRES   REMARKS
JUNCTION       MOSUNNY   75  63  66 S13G24    29.90R                  
*LLANO         CLOUDY    79  63  57 S13G21    29.89S                  
BURNET         MOSUNNY   75  64  68 S20G37    29.92S                  
*HORSESHOE BAY PTSUNNY   75  63  66 S12G20    29.92R                  
*LAGO VISTA    CLOUDY    73  64  74 S17G24    29.93S                  
*KERRVILLE     CLOUDY    72  64  74 S14G20    29.93S                  
*FREDERICKSBRG PTSUNNY   73  62  68 S22G29    29.93S                  
*ROCKSPRINGS   CLOUDY    68  63  83 SE16G22   29.95S                  
*BOERNE        CLOUDY    72  61  68 S17G24    29.94S                  
HONDO          MOSUNNY   78  66  66 S17       29.91S                  
*UVALDE        PTSUNNY   72  68  89 SE12      29.91F                  
DEL RIO        CLOUDY    70  65  84 SE14G26   29.85R                  
*LAUGHLIN AFB  CLOUDY    69  65  86 SE15      29.83R                  
*SPOFFORD      CLOUDY    71  67  84 N14       29.85R                  
CARRIZO SPRGS  PTSUNNY   73  64  73 SE10G18   29.86S                  
*FAITH RANCH   SUNNY     75  66  73 SE9G16    29.87S                  
$$

TXZ173-191>194-202-209-217>225-228-231700-
CENTRAL AND SOUTH CENTRAL TEXAS
  
CITY           SKY/WX    TMP DP  RH WIND       PRES   REMARKS
GEORGETOWN     CLOUDY    76  65  68 S17G28    29.93S                  
*TAYLOR        MOSUNNY   78  67  68 S21G29    29.91F                  
AUSTIN/BERGSTM PTSUNNY   79  67  66 S17G30    29.91F                  
AUSTIN/MABRY   MOSUNNY   79  66  64 S8G26     29.92F                  
*PFLUGERVILLE  NOT AVBL                                               
SAN MARCOS     PTSUNNY  N/A N/A N/A S22G31      N/A                   
NEW BRAUNFELS  MOSUNNY   81  66  60 S22G29    29.91S                  
*RANDOLPH AFB  MOSUNNY   78  65  64 S15       29.90S                  
*SEGUIN        PTSUNNY   80  67  63 S14G22    29.91R                  
SAN ANTONIO    CLOUDY    78  65  63 S14       29.93S                  
STINSON FIELD  MOSUNNY   80  66  62 S17G28    29.90R                  
*KELLY FIELD   MOSUNNY   78  65  64 S16G29    29.90R                  
*PLEASANTON    MOSUNNY   81  67  62 S13G21    29.91S                  
*KENEDY        MOSUNNY   80  68  67 S13G18    29.93S                  
*LA GRANGE     NOT AVBL                                               
*GIDDINGS      PTSUNNY   77  65  66 S8G18     29.94F                  
*GONZALES      PTSUNNY   80  68  67 S14G25    29.93S                  
$$

TXZ163>164-176>182-195>201-210>213-226-227-235-231700-
SOUTHEAST TEXAS
  
CITY           SKY/WX    TMP DP  RH WIND       PRES   REMARKS
COLLEGE STN    CLOUDY    79  67  66 S17G26    29.94S                  
*BRYAN         CLOUDY    79  66  64 S14G20    29.96S                  
*CALDWELL      MOSUNNY   78  66  67 S14G20    29.95S                  
*CROCKETT      PTSUNNY   79  66  65 S15G29    29.96S                  
*BRENHAM       CLOUDY    80  67  66 S12G18    29.95F                  
HUNTSVILLE     MOSUNNY   80  65  59 S12G22    29.96F                  
CONROE         CLOUDY    79  64  60 S21G28    29.98S                  
HOUSTON BUSH   PTSUNNY   81  63  54 S20G28    29.97S                  
HOUSTON HOBBY  PTSUNNY   83  58  42 S21G30    29.97R                  
*HOUSTON SW AP MOSUNNY   84  58  40 S9G17     29.98S                  
PEARLAND       MOSUNNY   83  61  47 S15G25    29.99R                  
HOUSTON HOOKS  PTSUNNY   82  63  52 S9G23     29.97S                  
ELLINGTON FLD  MOSUNNY   81  63  54 SE18G24   29.97S                  
SUGAR LAND     MOSUNNY   83  61  47 S17G26    29.97R                  
*HOUSTON EXEC  CLOUDY    82  64  54 S17G24    29.98R                  
*CLEVELAND MUN NOT AVBL                                               
*WHARTON       PTSUNNY   83  63  51 SE22      29.96S                  
*COLUMBUS      FAIR      82  65  55 S13G18    29.95S                  
*EAGLE LAKE    CLOUDY    82  65  56 S12G21    29.95S                  
$$

TXZ214>216-236>238-231700-
THE UPPER TEXAS COAST
  
CITY           SKY/WX    TMP DP  RH WIND       PRES   REMARKS
*ORANGE        MOSUNNY   82  67  58 S8        30.04S                  
PORT ARTHUR    PTSUNNY   80  66  62 S17G25    30.01R                  
GALVESTON      PTSUNNY   80  68  66 S14       29.99R                  
ANGLETON       SUNNY     84  58  40 S21G29    29.97R                  
*BAY CITY      PTSUNNY   81  65  57 S21G29    29.97R                  
PALACIOS       CLOUDY    82  66  58 SE18G30   29.95R                  
$$

TXZ229>234-239>247-231700-
TEXAS COASTAL BEND AND RIO GRANDE PLAINS
  
CITY           SKY/WX    TMP DP  RH WIND       PRES   REMARKS
VICTORIA       CLOUDY    83  68  60 S22G33    29.93R                  
*BEEVILLE      PTSUNNY   82  64  54 S21G26    29.90S                  
ROCKPORT       PTSUNNY   84  70  62 S14G23    29.91S                  
*PORT ARANSAS  CLOUDY   N/A N/A N/A SE16      29.94R                  
*PORT LAVACA   CLOUDY    84  67  57 S23       29.94R                  
*INGLESIDE     MOSUNNY   83  70  64 S16G25    29.91S                  
CORPUS CHRISTI PTSUNNY   82  70  66 S18       29.91R                  
CORPUS NAS     MOSUNNY   85  71  63 SE17G26   29.91R HX  90           
*ROBSTOWN      MOSUNNY   83  68  60 MISG      29.92S                  
ALICE          MOSUNNY   81  69  67 S20G29    29.89S                  
KINGSVILLE NAS MOSUNNY   85  69  58 S23G31    29.90S                  
COTULLA        PTSUNNY   77  66  68 SE10G23   29.87R                  
LAREDO         PTSUNNY   80  67  64 SE17      29.84F                  
$$

TXZ248>255-231700-
DEEP SOUTH TEXAS
  
CITY           SKY/WX    TMP DP  RH WIND       PRES   REMARKS
BROWNSVILLE    PTSUNNY   84  70  62 S24G33    29.90R                  
PORT ISABEL    LGT RAIN  83  71  67 S22G36    29.89S                  
HARLINGEN      PTSUNNY   85  71  63 S21G32    29.89R HX  90           
*HEBBRONVILLE  SUNNY     77  66  67 S16G22    29.89S                  
MCALLEN        SUNNY     82  67  60 S21G31    29.88S                  
*WESLACO       HAZE      83  67  57 SE20G29   29.89S VSB 1/2          
FALFURRIAS     PTSUNNY   80  72  77 S14       29.88S                  
EDINBURG       PTSUNNY   84  67  56 S23G30    29.89R                  
*ZAPATA        NOT AVBL                                               
$$

TXZ213>215-236>238-242>244-246-247-251-254-255-231700-
CMAN STATIONS
  
STATION/POSITION TIME  TEMP    WIND        PRES    WAVE
                       AIR SEA DIR/SP/G            HT/PER
                 (UTC) (F)     (DEG/KT/KT) (MB)    (FT/S)
SEA RIM ST PARK  1600   77     140/  9/ 10 1016.3
NORTH JETTY/GLS  1530      73  170/ 11/ 11 1014.5
EAGLE POINT      1530      71  160/ 14/ 17 1014.9
MORGANS POINT    1530      72  130/ 11/ 16 1014.9
MISSION/ARANSAS  1500   77     170/ 14     1013.0
PORT O'CONNOR    1530      77  110/ 17/ 22 1013.3
PORT ARANSAS     1600   79     150/ 19/ 23   N/A
BAFFIN BAY       1530      74  140/ 13/ 17 1013.0
PORT ISABEL      1530      75  150/ 17/ 24 1012.2
$$
  
