ASUS44 KLUB 232100
RWRLUB
WEST TEXAS WEATHER ROUNDUP
NATIONAL WEATHER SERVICE LUBBOCK TX
400 PM CDT SUN OCT 23 2022

NOTE: "FAIR" INDICATES FEW OR NO CLOUDS BELOW 12,000 FEET WITH NO
SIGNIFICANT WEATHER AND/OR OBSTRUCTIONS TO VISIBILITY.

TXZ004-006>008-010-012-014-016-OKZ002-232200-
TEXAS PANHANDLE/OKLAHOMA PANHANDLE
  
CITY           SKY/WX    TMP DP  RH WIND       PRES   REMARKS
AMARILLO       CLOUDY    76  49  38 SW29G45   29.59F                  
BORGER         CLOUDY    79  51  37 S22G37    29.54F                  
CANADIAN       CLOUDY    79  53  39 S23G31    29.53S                  
DALHART        MOSUNNY   79  38  22 SW32G60   29.50F                  
GUYMON           N/A     86  35  16 SW36G59   29.41F                  
HEREFORD       CLOUDY    76  49  37 S29G39    29.60F                  
PERRYTON       CLOUDY    78  47  32 S31G38    29.50S                  
$$

TXZ026-029-035-045-048-232200-
SOUTHERN PANHANDLE/SOUTH PLAINS/ROLLING PLAINS
  
CITY           SKY/WX    TMP DP  RH WIND       PRES   REMARKS
CHILDRESS      CLOUDY    86  50  28 S16       29.59F                  
LUBBOCK        PTSUNNY   85  50  29 SW25G37   29.64F                  
SNYDER         SUNNY     86  51  29 S17G29    29.67F                  
$$

TXZ052-054-060>062-072-078-127-140-154-169-232200-
PERMIAN BASIN/CONCHO VALLEY/BIG COUNTRY/EDWARDS PLATEAU  
  
CITY           SKY/WX    TMP DP  RH WIND       PRES   REMARKS
ABILENE        SUNNY     88  57  34 S21G32    29.69F                  
BIG SPRING     SUNNY     85  52  31 S24       29.69F                  
JUNCTION       CLOUDY    81  58  45 S15G28    29.79S                  
MIDLAND        SUNNY     84  54  35 S18G31    29.68F                  
ODESSA         SUNNY     84  53  34 S18G30    29.69F                  
SAN ANGELO     SUNNY     83  55  38 S15G28    29.72S                  
SWEETWATER     SUNNY     87  53  31 S22       29.72F                  
WINK           SUNNY     90  44  20 SW22G32   29.64F                  
$$

TXZ055-058-074-075-080-082-232200-
FAR WEST/SOUTHWEST MOUNTAINS/TRANS PECOS
  
CITY           SKY/WX    TMP DP  RH WIND       PRES   REMARKS
DRYDEN           N/A     67  61  81 E8        29.80F                  
EL PASO        PTSUNNY   78  45  30 W20G33    29.73F                  
FORT STOCKTON  MOSUNNY   88  45  22 S13G28    29.70F                  
GUADALUPE PASS MOSUNNY   71  46  40 SW38G53   29.77F                  
MARFA          SUNNY     80  42  25 S13G23    29.84F                  
PRESIDIO       FAIR      89  51  26 S9G18     29.74F                  
$$

TXZ014-016-019-021>030-083-232200
TEXAS TECH WEST TEXAS MESONET/TEXAS PANHANDLE/NORTHERN SOUTH PLAINS
  
CITY           SKY/WX    TMP DP  RH WIND       PRES   REMARKS
ABERNATHY 5ENE   N/A     84  51  31 SW26      29.66S                  
AMARILLO 9NNE    N/A     77  51  38 SW29      29.56F                  
AMARILLO 7SSE    N/A     75  49  40 SW30G41   29.61F                  
AMHERST 1NE      N/A     76  49  37 S18       29.66F                  
BOOTLEG 11WNW    N/A     76  47  35 S32       29.63F                  
CANADIAN 6E      N/A     78  54  43 S24       29.52F                  
CAPROCK CYN SP   N/A     85  49  28 S26       29.59F                  
CHILDRESS 2NNE   N/A     86  53  31 S16       29.59S                  
CLARENDON 2WSW   N/A     81  51  35 S21       29.58F                  
CLAUDE 12SW      N/A     76  49  38 SW25G37   29.61F                  
DIMMITT 2NE      N/A     73  49  42 S28       29.63F                  
FLOYDADA 2NNE    N/A     82  50  32 SW22      29.66S                  
FRIONA 2NE       N/A     76  50  40 S25       29.61F                  
GOODLETT 3W      N/A     89  54  30 S24       29.57F                  
HART 3N          N/A     73  50  43 SW23      29.65S                  
HEREFORD 2NW     N/A     75  50  41 S20G38    29.61F                  
MCLEAN 1E        N/A     76  55  47 SE15      29.57F                  
MEMPHIS 1NE      N/A     86  51  29 S10       29.57F                  
MULESHOE 2SSW    N/A     76  48  37 SW21      29.65S                  
OLTON 6S         N/A     77  49  37 SW22      29.65S                  
PALO DURO SP     N/A     76  49  38 SW22      29.62F                  
PAMPA 2E         N/A     79  51  37 S23       29.58F                  
PLAINVIEW 1S     N/A     82  49  31 S25       29.64S                  
SILVERTON 7ESE   N/A     82  49  32 SW24      29.62F                  
TULIA 2ENE       N/A     76  49  37 SW24      29.63F                  
TURKEY 2WSW      N/A     85  51  29 S23       29.58F                  
UMBARGER 3NNE    N/A     75  50  42 SW29      29.62S                  
$$

TXZ033>036-039>041-045>048-232200
TEXAS TECH WEST TEXAS MESONET/SOUTH PLAINS  
  
CITY           SKY/WX    TMP DP  RH WIND       PRES   REMARKS
AIKEN 3WSW       N/A     83  50  31 S26       29.65F                  
ANDREWS 2NE      N/A     84  53  33 S18       29.68F                  
ANTON 6SSW       N/A     83  48  29 SW23      29.65F                  
BROWNFIELD 2S    N/A     85  50  30 SW22      29.67F                  
DENVR CTY 7WNW   N/A     82  47  29 SW22G35   29.67F                  
GAIL 2ESE        N/A     87  52  29 S17       29.66S                  
LAMESA 2SE       N/A     86  51  30 SW20      29.68F                  
LUBBOCK 3WNW     N/A     85  49  29 SW17      29.66S                  
MORTON 1ENE      N/A     77  49  36 SW16      29.67S                  
ODONNELL 1N      N/A     84  50  30 S22       29.68S                  
PLAINS 3N        N/A     79  48  33 W14       29.69S                  
RALLS 1SE        N/A     84  49  30 SW21      29.66S                  
REESE CENTER     N/A     83  49  30 S25       29.66F                  
SEAGRAVES 1SW    N/A     86  48  26 SW25G40   29.66F                  
SEMINOLE 2NNE    N/A     85  47  27 SW21      29.67F                  
SLATON 2NE       N/A     85  49  28 SW22      29.66S                  
SNYDER 3E        N/A     88  54  31 S25       29.66F                  
SUNDOWN 8SW      N/A     81  49  32 SW16      29.67S                  
TAHOKA 3NNE      N/A     84  51  32 S22       29.67S                  
WOLFFORTH 6SSW   N/A     82  51  33 SW22      29.67F                  
$$

TXZ031-032-036>038-042>044-232200-
TEXAS TECH WEST TEXAS MESONET/ROLLING PLAINS 
  
CITY           SKY/WX    TMP DP  RH WIND       PRES   REMARKS
ASPERMONT 3NE    N/A     91  53  28 S24       29.63F                  
FLUVANNA 3WNW    N/A     86  52  30 S25       29.66F                  
GRAHAM 5SSW      N/A     86  50  28 S21G36    29.65F                  
GUTHRIE 10WSW    N/A     91  53  27 S23       29.60F                  
HASKELL 1NW      N/A     89  55  31 S17G37    29.64F                  
JAYTON 1SSE      N/A     90  53  28 S22       29.63F                  
KNOX CITY 3NW    N/A     91  55  29 S25G40    29.61F                  
LK A HENRY 1NW   N/A     89  54  30 S14G30    29.63F                  
NORTHFIELD 1S    N/A     87  52  30 S15       29.58S                  
ODELL 4ENE       N/A     91  57  31 S28       29.60S                  
PADUCAH 10SW     N/A     88  54  30 SW18      29.62F                  
POST 1NE         N/A     88  51  27 S17       29.63F                  
RRING SPRGS 3N   N/A     89  50  26 S23G35    29.62F                  
SEYMOUR 3NW      N/A     91  56  30 S23       29.62F                  
SPUR 1W          N/A     89  52  27 S24       29.61F                  
WEINERT 2NNE     N/A     90  55  30 S31       29.63F                  
WHITE RVR 6NE    N/A     88  51  27 S22       29.62F                  
$$

TXZ052-054-060>062-072-078-127-140-154-169-232200-
TEXAS TECH WEST TEXAS MESONET/PERMIAN BASIN/
CONCHO VALLEY/BIG COUNTRY/EDWARDS PLATEAU
  
CITY           SKY/WX    TMP DP  RH WIND       PRES   REMARKS
COYANOSA 2N      N/A     91  48  22 S6        29.66F                  
JUNCTION 1SSW    N/A     80  59  47 S15       29.80S                  
MERTZON 3NNE     N/A     82  58  43 S16       29.76S                  
SAN ANGELO 7NW   N/A     84  58  41 S17       29.73S                  
STRLNG CT 4WSW   N/A     84  56  39 S14       29.73F                  
ST LAWRNCE 5SW   N/A     82  54  36 S21       29.72F                  
SWEETWATR 11SW   N/A     85  55  36 S21       29.71F                  
WALL 1E          N/A     85  58  39 S21       29.74F                  
$$

TXZ055-058-074-075-080-082-232200-
TEXAS TECH WEST TEXAS MESONET/FAR WEST/SOUTHWEST MOUNTAINS/TRANS PECOS
  
CITY           SKY/WX    TMP DP  RH WIND       PRES   REMARKS
PRSMN GAP BBNP   N/A     86  43  22 S9        29.75F                  
GUADLPE MTN NP   N/A     69  45  42 W22       29.80F                  
$$
  
