ASUS44 KLUB 231810
RWRLUB
WEST TEXAS WEATHER ROUNDUP
NATIONAL WEATHER SERVICE LUBBOCK TX
100 PM CDT SUN OCT 23 2022

NOTE: "FAIR" INDICATES FEW OR NO CLOUDS BELOW 12,000 FEET WITH NO
SIGNIFICANT WEATHER AND/OR OBSTRUCTIONS TO VISIBILITY.

TXZ004-006>008-010-012-014-016-OKZ002-231900-
TEXAS PANHANDLE/OKLAHOMA PANHANDLE
  
CITY           SKY/WX    TMP DP  RH WIND       PRES   REMARKS
AMARILLO       PTSUNNY   73  52  47 SW21G31   29.65F                  
BORGER         MOSUNNY   82  50  32 S17G40    29.61F                  
CANADIAN       PTSUNNY   79  53  40 SW24G31   29.59F                  
DALHART        SUNNY     79  41  25 SW37G53   29.57F                  
DUMAS          SUNNY     80  45  28 SW37G48   29.60F                  
GUYMON           N/A     83  46  27 SW39G55   29.48F                  
HEREFORD       CLOUDY    74  51  44 SW15      29.70S                  
PAMPA          CLOUDY    79  53  40 SW25      29.64F                  
PERRYTON       SUNNY     84  45  25 SW29G45   29.55F                  
$$

TXZ026-029-035-045-048-231900-
SOUTHERN PANHANDLE/SOUTH PLAINS/ROLLING PLAINS
  
CITY           SKY/WX    TMP DP  RH WIND       PRES   REMARKS
CHILDRESS      CLOUDY    80  53  39 S22G31    29.66F                  
SEMINOLE       SUNNY     82  50  32 SW21G28   29.80F                  
LUBBOCK        PTSUNNY   79  51  37 S18G32    29.71F                  
PLAINVIEW      CLOUDY    81  49  32 SW25G36   29.68F                  
SNYDER         SUNNY     80  53  39 S21G26    29.76F                  
$$

TXZ052-054-060>062-072-078-127-140-154-169-231900-
PERMIAN BASIN/CONCHO VALLEY/BIG COUNTRY/EDWARDS PLATEAU  
  
CITY           SKY/WX    TMP DP  RH WIND       PRES   REMARKS
ABILENE        SUNNY     83  58  42 S23G38    29.76F                  
BIG SPRING     SUNNY     81  54  38 S21       29.77F                  
BRADY          SUNNY     79  59  50 S22G32    29.82F                  
JUNCTION       SUNNY     80  61  52 S15G30    29.85F                  
MIDLAND        SUNNY     80  55  42 S15G25    29.78F                  
ODESSA         SUNNY     79  54  41 S18G28    29.79F                  
SAN ANGELO     SUNNY     82  57  42 S20G32    29.78F                  
SONORA           N/A     79  61  53 S17G24    29.89F                  
SWEETWATER     SUNNY     82  56  40 S25G33    29.79F                  
WINK           SUNNY     86  47  25 SW16G25   29.74F                  
$$

TXZ055-058-074-075-080-082-231900-
FAR WEST/SOUTHWEST MOUNTAINS/TRANS PECOS
  
CITY           SKY/WX    TMP DP  RH WIND       PRES   REMARKS
ALPINE         SUNNY     78  45  30 SW10G18   29.95F                  
DRYDEN           N/A     65  61  87 SE7       29.87F                  
EL PASO        PTSUNNY   76  51  41 SW18G33   29.78F                  
FORT STOCKTON  SUNNY     84  46  26 SW14      29.79F                  
GUADALUPE PASS MOSUNNY   74  48  39 SW39G63   29.82S                  
MARFA          SUNNY     80  43  26 S18G25    29.93F                  
PECOS          SUNNY     88  46  23 SW17G23   29.74F                  
PRESIDIO       FAIR      84  51  31 S12       29.85F                  
$$

TXZ014-016-019-021>030-083-231900
TEXAS TECH WEST TEXAS MESONET/TEXAS PANHANDLE/NORTHERN SOUTH PLAINS
  
CITY           SKY/WX    TMP DP  RH WIND       PRES   REMARKS
ABERNATHY 5ENE   N/A     84  53  34 SW29      29.71F                  
AMARILLO 9NNE    N/A     75  52  44 S21       29.64S                  
AMARILLO 7SSE    N/A     74  52  46 SW18      29.67F                  
AMHERST 1NE      N/A     78  50  37 SW26G40   29.71S                  
BOOTLEG 11WNW    N/A     75  50  41 S22       29.72F                  
CANADIAN 6E      N/A     80  55  41 S21       29.58F                  
CAPROCK CYN SP   N/A     81  52  35 SW22      29.65F                  
CHILDRESS 2NNE   N/A     79  54  41 S21       29.66F                  
CLARENDON 2WSW   N/A     83  51  31 SW22      29.64F                  
CLAUDE 12SW      N/A     78  51  39 SW22      29.66F                  
DIMMITT 2NE      N/A     73  51  46 SW23      29.69F                  
FLOYDADA 2NNE    N/A     81  51  35 S17G35    29.71F                  
FRIONA 2NE       N/A     73  51  46 SW18      29.69F                  
GOODLETT 3W      N/A     81  55  41 S18       29.65F                  
HART 3N          N/A     76  52  43 SW24      29.70S                  
HEREFORD 2NW     N/A     73  51  46 SW16      29.69F                  
MCLEAN 1E        N/A     75  53  46 S6        29.65F                  
MEMPHIS 1NE      N/A     82  52  35 S13       29.63F                  
MULESHOE 2SSW    N/A     75  50  40 SW25      29.70F                  
OLTON 6S         N/A     79  51  38 SW30      29.70S                  
PALO DURO SP     N/A     76  51  41 SW13      29.68F                  
PAMPA 2E         N/A     77  52  41 S21       29.64F                  
PLAINVIEW 1S     N/A     82  50  33 SW22      29.69F                  
SILVERTON 7ESE   N/A     80  52  37 S18       29.67F                  
TULIA 2ENE       N/A     80  51  36 SW26G39   29.68F                  
TURKEY 2WSW      N/A     82  51  34 S25       29.63F                  
UMBARGER 3NNE    N/A     73  52  47 SW20      29.69S                  
$$

TXZ033>036-039>041-045>048-231900
TEXAS TECH WEST TEXAS MESONET/SOUTH PLAINS  
  
CITY           SKY/WX    TMP DP  RH WIND       PRES   REMARKS
AIKEN 3WSW       N/A     82  51  34 SW30      29.70F                  
ANDREWS 2NE      N/A     82  49  32 S17       29.77F                  
ANTON 6SSW       N/A     82  51  33 S29       29.70F                  
BROWNFIELD 2S    N/A     81  50  34 SW17      29.74F                  
DENVR CTY 7WNW   N/A     80  51  36 SW21      29.75F                  
GAIL 2ESE        N/A     83  53  35 S16       29.73F                  
LAMESA 2SE       N/A     84  50  29 SW22      29.76F                  
LUBBOCK 3WNW     N/A     79  51  37 S15       29.72F                  
MORTON 1ENE      N/A     78  49  36 SW31      29.72F                  
ODONNELL 1N      N/A     82  50  31 SW20      29.76S                  
PLAINS 3N        N/A     79  50  36 SW20      29.75F                  
RALLS 1SE        N/A     79  51  37 S26       29.73F                  
REESE CENTER     N/A     81  51  34 S25       29.72F                  
SEAGRAVES 1SW    N/A     81  49  32 S23       29.74F                  
SEMINOLE 2NNE    N/A     81  49  32 SW22      29.76S                  
SLATON 2NE       N/A     82  53  36 S21       29.74S                  
SNYDER 3E        N/A     82  55  39 S24       29.75F                  
SUNDOWN 8SW      N/A     81  51  34 S24       29.74F                  
TAHOKA 3NNE      N/A     83  53  35 S20       29.74F                  
WOLFFORTH 6SSW   N/A     78  51  39 S22       29.74F                  
$$

TXZ031-032-036>038-042>044-231900-
TEXAS TECH WEST TEXAS MESONET/ROLLING PLAINS 
  
CITY           SKY/WX    TMP DP  RH WIND       PRES   REMARKS
ASPERMONT 3NE    N/A     87  55  34 S26       29.71S                  
FLUVANNA 3WNW    N/A     82  52  35 S23       29.75F                  
GRAHAM 5SSW      N/A     83  49  30 S24       29.72F                  
GUTHRIE 10WSW    N/A     87  53  31 SW21      29.69F                  
HASKELL 1NW      N/A     86  58  39 S16       29.71F                  
JAYTON 1SSE      N/A     86  54  33 S17       29.71F                  
KNOX CITY 3NW    N/A     87  58  37 S24       29.69F                  
LK A HENRY 1NW   N/A     84  54  35 SW21      29.72F                  
NORTHFIELD 1S    N/A     86  53  31 S17       29.64F                  
ODELL 4ENE       N/A     85  57  39 S29       29.68S                  
PADUCAH 10SW     N/A     83  54  37 S18       29.69F                  
POST 1NE         N/A     85  50  30 SW18      29.71F                  
RRING SPRGS 3N   N/A     84  52  32 S25       29.69S                  
SEYMOUR 3NW      N/A     84  57  39 S18       29.69F                  
SPUR 1W          N/A     85  52  31 SW18      29.70F                  
WEINERT 2NNE     N/A     86  57  36 S22       29.71F                  
WHITE RVR 6NE    N/A     84  53  34 S20       29.71F                  
$$

TXZ052-054-060>062-072-078-127-140-154-169-231900-
TEXAS TECH WEST TEXAS MESONET/PERMIAN BASIN/
CONCHO VALLEY/BIG COUNTRY/EDWARDS PLATEAU
  
CITY           SKY/WX    TMP DP  RH WIND       PRES   REMARKS
COYANOSA 2N      N/A     89  48  24 S14       29.76F                  
JUNCTION 1SSW    N/A     80  61  53 S15       29.86F                  
MERTZON 3NNE     N/A     81  59  47 S18       29.81F                  
SAN ANGELO 7NW   N/A     82  58  43 S20       29.81S                  
STRLNG CT 4WSW   N/A     80  57  44 S18       29.80F                  
ST LAWRNCE 5SW   N/A     79  58  48 S18       29.81F                  
SWEETWATR 11SW   N/A     80  57  44 S16G33    29.79F                  
WALL 1E          N/A     84  58  41 S23       29.81F                  
$$

TXZ055-058-074-075-080-082-231900-
TEXAS TECH WEST TEXAS MESONET/FAR WEST/SOUTHWEST MOUNTAINS/TRANS PECOS
  
CITY           SKY/WX    TMP DP  RH WIND       PRES   REMARKS
PRSMN GAP BBNP   N/A     84  43  23 SE12      29.83F                  
GUADLPE MTN NP   N/A     70  46  42 SW21G56   29.87S                  
$$
  
