ASUS44 KFWD 232101
RWRFWD
NORTH TEXAS HOURLY WEATHER ROUNDUP
NATIONAL WEATHER SERVICE FORT WORTH TX
400 PM CDT SUN OCT 23 2022

NOTE: "FAIR" INDICATES FEW OR NO CLOUDS BELOW 12,000 FEET WITH NO
SIGNIFICANT WEATHER AND/OR OBSTRUCTIONS TO VISIBILITY.

TXZ118-119-232200-
DALLAS/FORT WORTH METROPLEX
  
CITY           SKY/WX    TMP DP  RH WIND       PRES   REMARKS
DFW AIRPORT    MOSUNNY   86  60  41 S30G44    29.72F                  
DALLAS LOVE    MOSUNNY   85  59  41 S18G39    29.75F                  
FTW MEACHAM    SUNNY     85  61  44 S21G35    29.72F                  
DAL-EXECUTIVE  SUNNY     84  60  44 S24G40    29.75F                  
FTW-ALLIANCE   MOSUNNY   86  59  39 S25G44    29.71F                  
FTW-NAS-JRB    MOSUNNY   86  62  44 S30G39    29.73F                  
FTW-SPINKS     MOSUNNY   86  57  37 S25G35    29.77F                  
ARLINGTON      SUNNY     86  59  39 SE21G37   29.74F                  
ADDISON        MOSUNNY   84  55  37 S25G33    29.75F                  
MESQUITE       MOSUNNY   84  57  39 SE20G29   29.78F                  
LANCASTER      MOSUNNY   85  59  41 S17G32    29.78F                  
$$

TXZ091>094-102>105-117-120-121-131>134-232200-
NORTH CENTRAL TEXAS
  
CITY           SKY/WX    TMP DP  RH WIND       PRES   REMARKS
SHRMAN/DENISON SUNNY     84  57  39 S22G33    29.75F                  
BOWIE          SUNNY     85  59  41 S22G31    29.70S                  
DENTON         SUNNY     86  60  41 S24G39    29.74F                  
MCKINNEY       SUNNY     84  58  40 S28G39    29.75F                  
BONHAM         SUNNY     83  59  43 S25G35    29.77S                  
GREENVILLE     MOSUNNY   85  60  42 S25G37    29.78F                  
ROCKWALL       MOSUNNY   84  59  42 S21G33    29.77F                  
TERRELL        PTSUNNY   86  60  41 S23G31    29.79F                  
WAXAHACHIE     MOSUNNY   85  61  43 S21G26    29.78F                  
CLEBURNE       SUNNY     84  57  39 S23G37    29.76F                  
GRANBURY       SUNNY     85  58  40 S21G30    29.74F                  
$$

TXZ083>090-098>101-113>116-127>130-139>142-154-155-232200-
WESTERN NORTH TEXAS
  
CITY           SKY/WX    TMP DP  RH WIND       PRES   REMARKS
WICHITA FALLS  SUNNY     91  56  30 S28G35    29.63F                  
WF-KICKAPOO    SUNNY     89  56  32 S26G38    29.65S                  
VERNON         MOSUNNY   93  53  26 S26G33    29.59F HX  90           
ABILENE        SUNNY     88  57  34 S21G32    29.69F                  
ABILENE-DYESS  SUNNY     88  50  26 S22G31    29.65F                  
GRAHAM         SUNNY     87  59  38 S14G25    29.66S                  
BRECKENRIDGE   SUNNY     88  57  34 S23       29.70S                  
CISCO          SUNNY     84  57  39 S25G38    29.70F                  
MINERAL WELLS  SUNNY     88  58  36 S20G37    29.70F                  
STEPHENVILLE   SUNNY     86  55  35 S20G32    29.77F                  
COMANCHE       SUNNY     87  58  37 S16G33    29.75F                  
COLEMAN        SUNNY     85  54  33 S23G31    29.74F                  
BRADY          SUNNY     84  55  37 S16G23    29.76S                  
SAN SABA       SUNNY     85  57  38 S16G28    29.77F                  
$$

TXZ143>147-156>162-174-175-232200-
CENTRAL TEXAS
  
CITY           SKY/WX    TMP DP  RH WIND       PRES   REMARKS
WACO           MOSUNNY   86  61  42 S23G35    29.78F                  
WACO-TSTC      PTSUNNY   86  57  37 S21G29    29.79F                  
WACO-MCGREGOR  PTSUNNY   87  62  43 S21G35    29.78F                  
HILLSBORO      MOSUNNY   86  60  41 S32G39    29.77F                  
CORSICANA      PTSUNNY   86  57  37 S25G36    29.82S                  
MEXIA          PTSUNNY   86  60  40 S18G33    29.81S                  
HEARNE         PTSUNNY   86  62  45 S17G24    29.82F                  
TEMPLE         MOSUNNY   87  61  41 S24G33    29.79F                  
KILLEEN        MOSUNNY   85  58  38 SE24      29.74F                  
KILLEEN-SKYLRK MOSUNNY   85  61  44 S23G30    29.78F                  
FORT HOOD      MOSUNNY   85  60  42 S22G30    29.78F                  
GATESVILLE     SUNNY     86  57  37 MISG      29.79F                  
HAMILTON       SUNNY     86  56  35 S25G32    29.78F                  
$$

TXZ095>097-106>112-122>126-135>138-148>153-164>167-232200-
EAST TEXAS
  
CITY           SKY/WX    TMP DP  RH WIND       PRES   REMARKS
PARIS          PTSUNNY   85  60  42 S23G35    29.79F                  
GILMER         MOSUNNY   83  54  36 S10G24    29.85F                  
MINEOLA        MOSUNNY   84  59  42 S10G21    29.82F                  
TYLER          PTSUNNY   85  58  39 S22G38    29.83F                  
LONGVIEW       MOSUNNY   85  55  35 S21G26    29.85F                  
MARSHALL       SUNNY     84  56  37 CALM      29.84F                  
ATHENS         PTSUNNY   84  59  42 S18G26    29.82S                  
JACKSONVILLE   PTSUNNY   83  55  39 S16G24    29.89S                  
HENDERSON      MOSUNNY   86  46  24 S12G21    29.87F                  
CENTER         PTSUNNY   82  57  42 SE14G20   29.90F                  
NACOGDOCHES    MOSUNNY   85  58  39 S15G25    29.88F                  
LUFKIN         PTSUNNY   85  61  44 S15G25    29.88F                  
$$

SUPPLEMENTAL OBSERVATIONS (NWS FORT WORTH AREA)
  
CITY           SKY/WX    TMP DP  RH WIND       PRES   REMARKS
$$

SUPPLEMENTAL OBSERVATIONS (NWS NORMAN AREA)
  
CITY           SKY/WX    TMP DP  RH WIND       PRES   REMARKS
GOODLETT         N/A     89  54  30 S24       29.57                   
ODELL            N/A     91  57  31 S28       29.60S HX  90           
CROWELL          N/A     91  57  31 S21       29.60F                  
KNOX CITY        N/A     91  55  29 S25G40    29.61                   
SEYMOUR          N/A     91  56  30 S23       29.62F                  
$$

SUPPLEMENTAL OBSERVATIONS (NWS SAN ANGELO AREA)
  
CITY           SKY/WX    TMP DP  RH WIND       PRES   REMARKS
WEINERT          N/A     90  55  30 S31       29.63F                  
HASKELL          N/A     89  55  31 S17G37    29.64                   
THROCKMORTON     N/A     89  60  37 S17       29.66                   
STAMFORD         N/A     89  57  33 S26       29.66                   
CLYDE            N/A     85  57  38 S22G37    29.73F                  
$$

SUPPLEMENTAL OBSERVATIONS (NWS SHREVEPORT AREA)
  
CITY           SKY/WX    TMP DP  RH WIND       PRES   REMARKS
$$

SUPPLEMENTAL OBSERVATIONS ARE A COLLECTION OF AUTOMATED INSTRUMENTS
THAT ARE MAINTAINED BY A VARIETY OF FEDERAL AND STATE AGENCIES. 
CERTAIN ELEMENTS...SUCH AS HUMIDITY VALUES AND SUSTAINED WIND 
SPEEDS...MAY BE APPROXIMATED.

  
