ASUS44 KCRP 231810
RWRCRP

SOUTH TEXAS REGIONAL WEATHER ROUNDUP
NATIONAL WEATHER SERVICE CORPUS CHRISTI TX
100 PM CDT SUN OCT 23 2022


TXZ229>244-231900-
...CORPUS CHRISTI AREA OBSERVATIONS...
  
CITY           SKY/WX    TMP DP  RH WIND       PRES   REMARKS
CORPUS CHRISTI PTSUNNY   86  69  56 S24G36    29.88F HX  90           
NAS CORPUS CHR MOSUNNY   86  71  60 SE20G33   29.89F HX  91           
ROCKPORT       MOSUNNY   87  70  56 S15G24    29.91F HX  92           
KINGSVILLE NAS MOSUNNY   87  69  54 SE20G28   29.86F HX  91           
ALICE          MOSUNNY   86  68  54 SE16G24   29.85F                  
$$
 
...VICTORIA AREA OBSERVATIONS...
  
CITY           SKY/WX    TMP DP  RH WIND       PRES   REMARKS
PORT LAVACA    CLOUDY    84  68  58 S22G28    29.92F                  
VICTORIA       PTSUNNY   86  68  54 S25G36    29.91F                  
BEEVILLE       PTSUNNY   87  60  40 SE18G26   29.86F                  
PLEASANTON     PTSUNNY   85  65  51 SE13G21   29.87F                  
SAN ANTONIO    PTSUNNY   82  62  50 S16G28    29.88F                  
$$
 
...LAREDO AREA OBSERVATIONS...
  
CITY           SKY/WX    TMP DP  RH WIND       PRES   REMARKS
LAREDO         PTSUNNY   87  65  47 S21       29.81F                  
COTULLA        PTSUNNY   83  65  54 SE14G24   29.83F                  
DEL RIO        PTSUNNY   74  65  73 SE12      29.81F                  
MCALLEN        SUNNY     89  63  41 S23G38    29.83F HX  90           
HEBBRONVILLE   MOSUNNY   85  64  47 S20G25    29.84F                  
$$
 
...OTHER TEXAS OBSERVATIONS...
  
CITY           SKY/WX    TMP DP  RH WIND       PRES   REMARKS
BROWNSVILLE    SUNNY     91  66  43 SE22G37   29.85F HX  93           
HOUSTON        PTSUNNY   84  59  42 S17G31    29.94F                  
COL. STATION   MOSUNNY   84  63  49 S23G29    29.91F                  
AUSTIN         PTSUNNY   85  64  49 S23G31    29.87F                  
TEMPLE         CLOUDY    81  63  54 S23G32    29.87F                  
WACO           PTSUNNY   84  62  47 S22G33    29.86F                  
FORT WORTH     PTSUNNY   82  62  50 S30G41    29.81F                  
WICHITA FALLS  MOSUNNY   82  59  45 S24G32    29.70F                  
LUBBOCK        PTSUNNY   79  51  37 S18G32    29.71F                  
EL PASO        PTSUNNY   76  51  41 SW18G33   29.78F                  
$$

...MARINE OBSERVATIONS...
  
STATION/POSITION TIME  SKY/WX   TEMP    WIND        PRES    VSBY  WAVE   SWELL
                                AIR SEA DIR/SP/G                  HT/PER HT/PER
                 (UTC)          (F)     (DEG/KT/KT) (MB)    (MI)  (FT/S) (FT/S)
PORT ARANSAS     1700            79     150/ 20/ 22   N/A
ARANSAS PASS     1724                   130/ 20/ 23 1012.1
BUOY 6 SE PORT A NOT AVBL
BUOY 90 E PORT A 1750            80                 1014.3F         6/ 6
BUOY 45 SE BAFFI 1750            80 79  150/ 19/ 25 1012.8F         7/ 7
BUOY 200 E PT IS 1750            81     140/ 12/ 16 1015.8F         3/ 5   2/10
BUOY 15 E GALVES NOT AVBL
$$
  
