ASUS44 KLUB 231910
RWRLUB
WEST TEXAS WEATHER ROUNDUP
NATIONAL WEATHER SERVICE LUBBOCK TX
200 PM CDT SUN OCT 23 2022

NOTE: "FAIR" INDICATES FEW OR NO CLOUDS BELOW 12,000 FEET WITH NO
SIGNIFICANT WEATHER AND/OR OBSTRUCTIONS TO VISIBILITY.

TXZ004-006>008-010-012-014-016-OKZ002-232000-
TEXAS PANHANDLE/OKLAHOMA PANHANDLE
  
CITY           SKY/WX    TMP DP  RH WIND       PRES   REMARKS
AMARILLO       CLOUDY    75  51  43 SW24G33   29.61F                  
BORGER         CLOUDY    80  51  36 S20G43    29.59F                  
CANADIAN       PTSUNNY   82  54  37 S20G29    29.56F                  
DALHART        SUNNY     81  38  21 SW35G56   29.54F                  
DUMAS          MOSUNNY   80  46  29 S31G45    29.58F                  
HEREFORD       CLOUDY    75  51  42 SW21G31   29.65F                  
PAMPA          CLOUDY    80  53  39 SW14G22   29.62F                  
PERRYTON       MOSUNNY   83  45  26 SW35      29.52F                  
$$

TXZ026-029-035-045-048-232000-
SOUTHERN PANHANDLE/SOUTH PLAINS/ROLLING PLAINS
  
CITY           SKY/WX    TMP DP  RH WIND       PRES   REMARKS
CHILDRESS      CLOUDY    80  52  37 S21G33    29.62F                  
SEMINOLE       SUNNY     83  50  31 SW22G35   29.76F                  
LUBBOCK        PTSUNNY   80  51  36 S22G29    29.69F                  
PLAINVIEW      CLOUDY    84  49  29 SW26G33   29.65F                  
SNYDER         SUNNY     83  52  34 S22G28    29.73F                  
$$

TXZ052-054-060>062-072-078-127-140-154-169-232000-
PERMIAN BASIN/CONCHO VALLEY/BIG COUNTRY/EDWARDS PLATEAU  
  
CITY           SKY/WX    TMP DP  RH WIND       PRES   REMARKS
ABILENE        SUNNY     85  57  38 S25G36    29.73F                  
BIG SPRING     SUNNY     84  53  35 S23G29    29.75F                  
BRADY          SUNNY     81  57  44 S22G29    29.79F                  
JUNCTION       SUNNY     83  60  45 S13G26    29.81F                  
MIDLAND        SUNNY     82  53  36 S20G29    29.75F                  
ODESSA         SUNNY     81  54  39 S17G26    29.76F                  
SAN ANGELO     SUNNY     84  56  38 S18G31    29.75F                  
SONORA           N/A     81  59  47 S20       29.84F                  
SWEETWATER     SUNNY     84  53  34 S25G31    29.76F                  
WINK           SUNNY     89  46  22 SW21G29   29.70F                  
$$

TXZ055-058-074-075-080-082-232000-
FAR WEST/SOUTHWEST MOUNTAINS/TRANS PECOS
  
CITY           SKY/WX    TMP DP  RH WIND       PRES   REMARKS
ALPINE         SUNNY     80  44  27 SW13      29.92F                  
DRYDEN           N/A     66  61  84 SE8       29.83F                  
EL PASO        PTSUNNY   81  46  29 SW28G39   29.76F                  
FORT STOCKTON  SUNNY     86  46  24 S16G28    29.76F                  
GUADALUPE PASS PTSUNNY   73  46  38 SW46G60   29.81F                  
MARFA          SUNNY     80  43  26 SW15      29.90F                  
PECOS          SUNNY     90  46  22 SW21      29.70F                  
PRESIDIO       FAIR      86  52  30 S5        29.82F                  
$$

TXZ014-016-019-021>030-083-232000
TEXAS TECH WEST TEXAS MESONET/TEXAS PANHANDLE/NORTHERN SOUTH PLAINS
  
CITY           SKY/WX    TMP DP  RH WIND       PRES   REMARKS
ABERNATHY 5ENE   N/A     80  53  38 SW28G37   29.69F                  
AMARILLO 9NNE    N/A     76  52  42 S22       29.61F                  
AMARILLO 7SSE    N/A     75  51  43 SW17      29.64F                  
AMHERST 1NE      N/A     77  48  36 SW24      29.69F                  
BOOTLEG 11WNW    N/A     72  50  44 S24       29.68F                  
CANADIAN 6E      N/A     80  55  41 S21       29.55F                  
CAPROCK CYN SP   N/A     83  51  32 SW25G39   29.62F                  
CHILDRESS 2NNE   N/A     80  53  38 S20       29.62F                  
CLARENDON 2WSW   N/A     82  51  33 SW17      29.62F                  
CLAUDE 12SW      N/A     78  51  39 SW17G33   29.63F                  
DIMMITT 2NE      N/A     73  51  46 S22       29.66F                  
FLOYDADA 2NNE    N/A     82  50  33 S28G35    29.69F                  
FRIONA 2NE       N/A     73  51  45 SW25G35   29.66F                  
GOODLETT 3W      N/A     84  54  35 S20       29.61F                  
HART 3N          N/A     75  52  44 SW24      29.67F                  
HEREFORD 2NW     N/A     74  51  45 S21       29.65F                  
MCLEAN 1E        N/A     77  53  43 S15       29.61F                  
MEMPHIS 1NE      N/A     82  52  34 S10       29.60F                  
MULESHOE 2SSW    N/A     74  49  40 SW23      29.69S                  
OLTON 6S         N/A     79  50  36 SW32G46   29.67F                  
PALO DURO SP     N/A     76  51  41 S15       29.65F                  
PAMPA 2E         N/A     80  52  38 S23       29.61F                  
PLAINVIEW 1S     N/A     84  49  29 SW26G44   29.66F                  
SILVERTON 7ESE   N/A     81  51  35 SW24      29.65F                  
TULIA 2ENE       N/A     79  50  36 SW26      29.66F                  
TURKEY 2WSW      N/A     85  51  30 S25       29.61F                  
UMBARGER 3NNE    N/A     74  51  44 SW23      29.65F                  
$$

TXZ033>036-039>041-045>048-232000
TEXAS TECH WEST TEXAS MESONET/SOUTH PLAINS  
  
CITY           SKY/WX    TMP DP  RH WIND       PRES   REMARKS
AIKEN 3WSW       N/A     82  50  33 SW24      29.68F                  
ANDREWS 2NE      N/A     84  51  32 S14       29.73F                  
ANTON 6SSW       N/A     82  50  32 S22       29.69F                  
BROWNFIELD 2S    N/A     83  50  31 S24       29.71F                  
DENVR CTY 7WNW   N/A     83  49  31 SW25G35   29.72F                  
GAIL 2ESE        N/A     85  53  32 S20       29.70F                  
LAMESA 2SE       N/A     86  49  28 S20G32    29.72F                  
LUBBOCK 3WNW     N/A     84  50  31 SW16G29   29.69F                  
MORTON 1ENE      N/A     77  47  35 SW24G39   29.71F                  
ODONNELL 1N      N/A     84  50  30 SW21      29.72F                  
PLAINS 3N        N/A     82  49  31 SW22      29.72F                  
RALLS 1SE        N/A     83  50  31 S26       29.69F                  
REESE CENTER     N/A     83  49  30 SW33G40   29.69F                  
SEAGRAVES 1SW    N/A     83  50  31 S22       29.72F                  
SEMINOLE 2NNE    N/A     83  51  32 SW21      29.72F                  
SLATON 2NE       N/A     84  51  31 S21       29.70F                  
SNYDER 3E        N/A     85  55  36 S15G35    29.72F                  
SUNDOWN 8SW      N/A     83  51  32 SW24      29.71F                  
TAHOKA 3NNE      N/A     85  53  32 S18       29.71F                  
WOLFFORTH 6SSW   N/A     83  51  32 SW25      29.70F                  
$$

TXZ031-032-036>038-042>044-232000-
TEXAS TECH WEST TEXAS MESONET/ROLLING PLAINS 
  
CITY           SKY/WX    TMP DP  RH WIND       PRES   REMARKS
ASPERMONT 3NE    N/A     89  54  30 S23       29.67F                  
FLUVANNA 3WNW    N/A     84  53  34 S20       29.72F                  
GRAHAM 5SSW      N/A     86  49  27 S20G36    29.70F                  
GUTHRIE 10WSW    N/A     89  53  29 S21       29.64F                  
HASKELL 1NW      N/A     88  57  35 S24       29.68F                  
JAYTON 1SSE      N/A     87  55  33 S20       29.67F                  
KNOX CITY 3NW    N/A     89  56  32 S25       29.65F                  
LK A HENRY 1NW   N/A     86  54  32 S18G29    29.68F                  
NORTHFIELD 1S    N/A     84  52  33 S20       29.61F                  
ODELL 4ENE       N/A     85  57  38 S22       29.64F                  
PADUCAH 10SW     N/A     89  55  30 S21       29.66F                  
POST 1NE         N/A     88  50  26 SW14G30   29.68F                  
RRING SPRGS 3N   N/A     87  53  30 S23       29.65F                  
SEYMOUR 3NW      N/A     89  57  33 S21       29.65F                  
SPUR 1W          N/A     87  51  29 SW16      29.66F                  
WEINERT 2NNE     N/A     88  56  34 SW21G39   29.67F                  
WHITE RVR 6NE    N/A     86  51  29 S26G33    29.67F                  
$$

TXZ052-054-060>062-072-078-127-140-154-169-232000-
TEXAS TECH WEST TEXAS MESONET/PERMIAN BASIN/
CONCHO VALLEY/BIG COUNTRY/EDWARDS PLATEAU
  
CITY           SKY/WX    TMP DP  RH WIND       PRES   REMARKS
COYANOSA 2N      N/A     90  46  21 SW7       29.73F                  
JUNCTION 1SSW    N/A     82  61  48 S14       29.82F                  
MERTZON 3NNE     N/A     82  59  45 S17       29.79F                  
SAN ANGELO 7NW   N/A     85  57  38 S16G32    29.76F                  
STRLNG CT 4WSW   N/A     84  58  40 S18G26    29.77F                  
ST LAWRNCE 5SW   N/A     81  56  42 S17       29.78F                  
SWEETWATR 11SW   N/A     81  56  41 S24       29.76F                  
WALL 1E          N/A     86  58  38 S17       29.79F                  
$$

TXZ055-058-074-075-080-082-232000-
TEXAS TECH WEST TEXAS MESONET/FAR WEST/SOUTHWEST MOUNTAINS/TRANS PECOS
  
CITY           SKY/WX    TMP DP  RH WIND       PRES   REMARKS
PRSMN GAP BBNP   N/A     88  44  22 SW6G21    29.80F                  
GUADLPE MTN NP   N/A     70  46  42 SW28G47   29.84F                  
$$
  
