ASUS44 KSJT 231710
RWRSJT
WEST CENTRAL TEXAS REGIONAL WEATHER ROUNDUP
NATIONAL WEATHER SERVICE SAN ANGELO TX
1200 PM CDT SUN OCT 23 2022

NOTE: "FAIR" INDICATES FEW OR NO CLOUDS BELOW 12,000 FEET WITH NO
SIGNIFICANT WEATHER AND/OR OBSTRUCTIONS TO VISIBILITY.

TXZ049-054-064>066-071>073-076>078-098-099-113-114-127-128-139-140-
154-155-168>170-231800-
...LOCATIONS ACROSS WEST CENTRAL TEXAS...
  
CITY           SKY/WX    TMP DP  RH WIND       PRES   REMARKS
SAN ANGELO     SUNNY     78  59  51 S21G32    29.80F                  
ABILENE        SUNNY     79  59  50 S20G35    29.78F                  
DYESS AFB      SUNNY     79  56  43 S30G39    29.74R                  
JUNCTION       MOSUNNY   77  63  61 S20G30    29.88F                  
SWEETWATER     SUNNY     78  57  47 S24       29.81S                  
BROWNWOOD      NOT AVBL                                               
COLEMAN        SUNNY     78  59  51 S21G26    29.84S                  
SAN SABA       PTSUNNY   78  62  57 S18G25    29.87F                  
SONORA         SUNNY     75  61  60 S17       29.90F                  
OZONA          FAIR      73  59  60 S16G28    29.89R                  
BRADY          SUNNY     75  61  60 S20G32    29.86S                  
$$

TXZ001-004-007-008-010-012-014-016-OKZ002-231800-
TEXAS PANHANDLE/OKLAHOMA PANHANDLE
  
CITY           SKY/WX    TMP DP  RH WIND       PRES   REMARKS
AMARILLO       PTSUNNY   75  50  41 SW28G40   29.67F                  
BORGER         SUNNY     81  49  32 S20G36    29.62F                  
CANADIAN       MOSUNNY   77  53  43 SW18G24   29.61S                  
DALHART        SUNNY     76  49  38 SW35G43   29.61F                  
DUMAS          SUNNY     78  49  36 S29G35    29.63F                  
GUYMON         NOT AVBL                                               
HEREFORD       CLOUDY    73  51  46 SW18      29.70F                  
PAMPA          MOSUNNY   80  53  40 SW24G35   29.66F                  
PERRYTON       SUNNY     82  46  28 SW32G41   29.58F                  
$$

TXZ035-026-045-048-231800-
SOUTHERN PANHANDLE/SOUTH PLAINS/ROLLING PLAINS
  
CITY           SKY/WX    TMP DP  RH WIND       PRES   REMARKS
LUBBOCK        PTSUNNY   79  53  40 SW18      29.73F                  
SNYDER         SUNNY     77  54  44 S18G26    29.77F                  
CHILDRESS      CLOUDY    76  53  44 S18       29.68S                  
SEMINOLE       SUNNY     80  49  34 SW20      29.81F                  
$$

TXZ060>062-231800-
PERMIAN BASIN
  
CITY           SKY/WX    TMP DP  RH WIND       PRES   REMARKS
MIDLAND        SUNNY     78  53  41 S18       29.79F                  
ODESSA         SUNNY     79  52  38 S18       29.81S                  
WINK           SUNNY     80  51  36 S14       29.76F                  
$$

TXZ075-082-271-274-277-419-231800-
FAR WEST/SOUTHWEST MOUNTAINS/TRANS PECOS
  
CITY           SKY/WX    TMP DP  RH WIND       PRES   REMARKS
ALPINE         SUNNY     76  45  32 SW18G24   29.98R                  
DRYDEN           N/A     64  61  90 SE12      29.88F                  
EL PASO        PTSUNNY   75  51  43 W20       29.81F                  
FORT STOCKTON  SUNNY     80  46  30 SE5       29.82F                  
GUADALUPE PASS MOSUNNY   72  48  42 SW51G67   29.82F                  
MARFA          SUNNY     75  46  35 S13       29.96F                  
PECOS          SUNNY     86  46  25 SW14G20   29.77S                  
$$

TXZ118-119-231800-
DALLAS/FORT WORTH METROPLEX
  
CITY           SKY/WX    TMP DP  RH WIND       PRES   REMARKS
DFW AIRPORT    PTSUNNY   81  63  54 S29G37    29.82S                  
FTW MEACHAM    MOSUNNY   80  63  55 S22G38    29.82F                  
DAL-EXECUTIVE  MOSUNNY   79  63  57 S24G41    29.85S                  
GRAND PRAIRIE  PTSUNNY   81  61  50 S22       29.87S                  
ADDISON        MOSUNNY   79  61  53 S21G30    29.86S                  
MESQUITE       PTSUNNY   79  63  57 S22G36    29.88S                  
LANCASTER      MOSUNNY   79  62  55 S21G32    29.88S                  
$$

TXZ092-093-103-131-134-231800-
NORTH CENTRAL TEXAS
  
CITY           SKY/WX    TMP DP  RH WIND       PRES   REMARKS
SHRMAN/DENISON SUNNY     79  61  53 S30G36    29.85S                  
GAINESVILLE    SUNNY     78  60  53 S23G31    29.83S                  
BRIDGEPORT     SUNNY     80  59  47 S23G31    29.82S                  
DENTON         SUNNY     82  62  50 S26G41    29.82F                  
WAXAHACHIE     PTSUNNY   78  63  60 S24G38    29.88S                  
GRANBURY       SUNNY     80  60  51 S22G32    29.84F                  
$$

TXZ085-086-115-141-231800-
WESTERN NORTH TEXAS
  
CITY           SKY/WX    TMP DP  RH WIND       PRES   REMARKS
WICHITA FALLS  MOSUNNY   81  61  50 S24G35    29.72F                  
VERNON         NOT AVBL                                               
BRECKENRIDGE   SUNNY     81  60  48 S17G31    29.79S                  
COMANCHE       SUNNY     79  62  55 S24G31    29.85S                  
$$

TXZ145-158-159-173-191-192-194-205-207-220-223-231800-
CENTRAL AND SOUTH CENTRAL TEXAS
  
CITY           SKY/WX    TMP DP  RH WIND       PRES   REMARKS
AUSTIN/BERGSTM PTSUNNY   82  64  54 S22G32    29.90F                  
WACO           PTSUNNY   81  62  52 S23G38    29.88F                  
HILLSBORO      PTSUNNY   78  63  60 S26G33    29.88S                  
TEMPLE         PTSUNNY   78  63  59 S25G33    29.90F                  
KILLEEN-GRAY   PTSUNNY   79  61  53 S24G30    29.86S                  
FORT HOOD      CLOUDY    77  62  60 S21G28    29.90S                  
GEORGETOWN     PTSUNNY   79  63  57 S23G29    29.91F                  
LAGO VISTA     PTSUNNY   75  63  64 S14G24    29.92F                  
SAN MARCOS     PTSUNNY  N/A N/A N/A S24         N/A                   
NEW BRAUNFELS  MOSUNNY   83  64  52 S20G32    29.90F                  
RANDOLPH AFB   PTSUNNY   83  61  47 S18       29.88F                  
SAN ANTONIO    PTSUNNY   81  62  52 S21G32    29.91F                  
STINSON        PTSUNNY   84  64  50 S21G28    29.88F                  
PLEASANTON     NOT AVBL                                               
LA GRANGE      NOT AVBL                                               
GIDDINGS       PTSUNNY   80  65  61 S15G26    29.94S                  
$$

TXZ095-096-136-137-148-152-231800-
EAST TEXAS
  
CITY           SKY/WX    TMP DP  RH WIND       PRES   REMARKS
PARIS          PTSUNNY   80  63  55 S22G29    29.89F                  
CLARKSVILLE    NOT AVBL                                               
TYLER          MOSUNNY   81  63  54 S23G37    29.92F                  
LONGVIEW       PTSUNNY   81  62  52 S16G28    29.94S                  
PALESTINE      PTSUNNY   81  64  57 S15G25    29.92F                  
NACOGDOCHES    CLOUDY    80  61  52 SE16G23   29.97F                  
$$

TXZ171-183-184-186-188-203-204-231800-
TEXAS HILL COUNTRY AND EDWARDS PLATEAU
  
CITY           SKY/WX    TMP DP  RH WIND       PRES   REMARKS
LLANO          PTSUNNY   79  61  53 S20G26    29.88F                  
HORSESHOE BAY  PTSUNNY   78  61  55 S14G24    29.91S                  
KERRVILLE      PTSUNNY   77  63  61 S22G28    29.91F                  
FREDERICKSBRG  PTSUNNY   75  61  60 S22       29.91F                  
ROCKSPRINGS    MOSUNNY   72  63  73 SE21G29   29.94F                  
HONDO          PTSUNNY   80  64  58 S20G26    29.89F                  
UVALDE         PTSUNNY   75  67  75 SE15      29.90F                  
DEL RIO        CLOUDY    71  65  81 SE12      29.85S                  
$$

TXZ163-177-195>197-199-213-226-237-231800-
SOUTHEAST TEXAS
  
CITY           SKY/WX    TMP DP  RH WIND       PRES   REMARKS
COLLEGE STN    PTSUNNY   80  64  58 S17G36    29.93F                  
CALDWELL       CLOUDY    81  65  58 S21G29    29.93F                  
CROCKETT       PTSUNNY   79  64  61 S12G22    29.95S                  
BRENHAM        MOSUNNY   83  67  57 S17       29.94S                  
HUNTSVILLE     PTSUNNY   83  63  50 S14G25    29.95F                  
CONROE         PTSUNNY   84  62  47 S17G31    29.96F                  
HOUSTON BUSH   PTSUNNY   84  59  42 S20G32    29.96F                  
HOUSTON HOBBY  PTSUNNY   85  56  37 S20G32    29.97S                  
PERLAND        MOSUNNY   84  60  44 S15G30    29.98F                  
WHARTON        CLOUDY    82  61  49 SE21G28   29.96S                  
$$

TXZ215-216-236-237-438-231800-
THE UPPER TEXAS COAST
  
CITY           SKY/WX    TMP DP  RH WIND       PRES   REMARKS
ORANGE         CLOUDY    85  65  51 SE15      30.03F                  
PORT ARTHUR    PTSUNNY   84  66  54 S17G25    30.00F                  
GALVESTON      PTSUNNY   81  68  64 S12       30.00R                  
ANGLETON       MOSUNNY   85  58  39 S20G29    29.97S                  
BAY CITY       PTSUNNY   83  64  51 S20G28    29.97S                  
$$

TXZ229-232-234-239-242-243-245-247-249-250-
253-255-257-343-347-443-231800-
TEXAS COASTAL BEND, RIO GRANDE PLAINS DEEP SOUTH TEXAS
  
CITY           SKY/WX    TMP DP  RH WIND       PRES   REMARKS
VICTORIA       PTSUNNY   84  69  60 SE18G28   29.93S                  
BEEVILLE       FAIR      84  62  47 S18G29    29.90S                  
ROCKPORT       PTSUNNY   86  70  58 S13G22    29.92R                  
PORT ARANSAS   CLOUDY   N/A N/A N/A S18G25    29.94S                  
PORT LAVACA    PTSUNNY   86  67  54 S16G24    29.94S                  
CORPUS CHRISTI PTSUNNY   84  70  62 S25G35    29.90F                  
KINGSVILLE NAS MOSUNNY   84  67  56 S23       29.88F                  
COTULLA        PTSUNNY   81  65  58 SE16G24   29.86F                  
LAREDO         MOSUNNY   83  66  56 S22G29    29.82F                  
BROWNSVILLE    MOSUNNY   88  69  53 S23G36    29.88F                  
PORT ISABEL    LGT RAIN  84  70  62 S24G38    29.88F                  
HEBBRONVILLE   MOSUNNY   83  64  51 S21G28    29.87F                  
MCALLEN        SUNNY     87  65  47 SE24G33   29.85F                  
WESLACO        NOT AVBL                                         
