ASUS44 KLUB 231700
RWRLUB
WEST TEXAS WEATHER ROUNDUP
NATIONAL WEATHER SERVICE LUBBOCK TX
1200 PM CDT SUN OCT 23 2022

NOTE: "FAIR" INDICATES FEW OR NO CLOUDS BELOW 12,000 FEET WITH NO
SIGNIFICANT WEATHER AND/OR OBSTRUCTIONS TO VISIBILITY.

TXZ004-006>008-010-012-014-016-OKZ002-231800-
TEXAS PANHANDLE/OKLAHOMA PANHANDLE
  
CITY           SKY/WX    TMP DP  RH WIND       PRES   REMARKS
AMARILLO       MOSUNNY   75  50  41 SW28G40   29.67F                  
BORGER         MOSUNNY   81  49  32 S20G36    29.62F                  
CANADIAN       PTSUNNY   77  53  43 SW18G24   29.61S                  
DALHART        SUNNY     76  49  38 SW35G43   29.61F                  
GUYMON           N/A     82  44  26 SW36G48   29.50F                  
HEREFORD       SUNNY     73  51  46 SW18      29.70F                  
PERRYTON       MOSUNNY   82  46  28 SW32G41   29.58F                  
$$

TXZ026-029-035-045-048-231800-
SOUTHERN PANHANDLE/SOUTH PLAINS/ROLLING PLAINS
  
CITY           SKY/WX    TMP DP  RH WIND       PRES   REMARKS
CHILDRESS      PTSUNNY   76  53  44 S18       29.68S                  
LUBBOCK        PTSUNNY   79  53  40 SW18      29.73F                  
SNYDER         SUNNY     77  54  44 S18G26    29.77F                  
$$

TXZ052-054-060>062-072-078-127-140-154-169-231800-
PERMIAN BASIN/CONCHO VALLEY/BIG COUNTRY/EDWARDS PLATEAU  
  
CITY           SKY/WX    TMP DP  RH WIND       PRES   REMARKS
ABILENE        SUNNY     79  59  50 S20G35    29.78F                  
JUNCTION       MOSUNNY   77  63  61 S20G30    29.88F                  
MIDLAND        SUNNY     78  53  41 S18       29.79F                  
ODESSA         SUNNY     79  52  38 S18       29.81S                  
SAN ANGELO     SUNNY     78  59  51 S21G32    29.80F                  
SWEETWATER     SUNNY     78  57  47 S24       29.81S                  
WINK           SUNNY     80  51  36 S14       29.76F                  
$$

TXZ055-058-074-075-080-082-231800-
FAR WEST/SOUTHWEST MOUNTAINS/TRANS PECOS
  
CITY           SKY/WX    TMP DP  RH WIND       PRES   REMARKS
DRYDEN           N/A     64  61  90 SE12      29.88F                  
EL PASO        PTSUNNY   75  51  43 W20       29.81F                  
FORT STOCKTON  SUNNY     80  46  30 SE5       29.82F                  
GUADALUPE PASS SUNNY     72  48  42 SW51G67   29.82F                  
MARFA          SUNNY     75  46  35 S13       29.96F                  
PRESIDIO       FAIR      81  53  38 S7        29.87F                  
$$

TXZ014-016-019-021>030-083-231800
TEXAS TECH WEST TEXAS MESONET/TEXAS PANHANDLE/NORTHERN SOUTH PLAINS
  
CITY           SKY/WX    TMP DP  RH WIND       PRES   REMARKS
ABERNATHY 5ENE   N/A     78  53  40 SW26      29.74F                  
AMARILLO 9NNE    N/A     77  51  39 S23G37    29.65F                  
AMARILLO 7SSE    N/A     75  51  43 SW24      29.70F                  
AMHERST 1NE      N/A     77  51  39 S29       29.72F                  
BOOTLEG 11WNW    N/A     71  50  47 S23       29.74F                  
CANADIAN 6E      N/A     77  54  45 S18       29.60F                  
CAPROCK CYN SP   N/A     82  52  36 S22       29.66F                  
CHILDRESS 2NNE   N/A     75  54  47 S18       29.67S                  
CLARENDON 2WSW   N/A     80  52  37 SW15      29.66F                  
CLAUDE 12SW      N/A     73  53  48 SW12      29.69F                  
DIMMITT 2NE      N/A     73  51  46 SW24      29.71F                  
FLOYDADA 2NNE    N/A     75  52  44 SW22      29.74F                  
FRIONA 2NE       N/A     71  51  48 SW21      29.71F                  
GOODLETT 3W      N/A     77  55  47 S23       29.67R                  
HART 3N          N/A     77  52  41 SW25      29.71F                  
HEREFORD 2NW     N/A     71  51  48 SW17      29.71F                  
MCLEAN 1E        N/A     74  54  49 S13       29.66F                  
MEMPHIS 1NE      N/A     79  53  41 S10       29.66S                  
MULESHOE 2SSW    N/A     74  51  44 S22       29.71F                  
OLTON 6S         N/A     79  52  38 SW26      29.71F                  
PALO DURO SP     N/A     76  52  42 SW14G32   29.70F                  
PAMPA 2E         N/A     74  52  47 SW23      29.67F                  
PLAINVIEW 1S     N/A     78  51  38 SW21G38   29.72S                  
SILVERTON 7ESE   N/A     83  50  31 SW25      29.69S                  
TULIA 2ENE       N/A     80  51  37 SW30G40   29.70F                  
TURKEY 2WSW      N/A     79  52  39 SW22      29.65F                  
UMBARGER 3NNE    N/A     73  51  47 SW28      29.70F                  
$$

TXZ033>036-039>041-045>048-231800
TEXAS TECH WEST TEXAS MESONET/SOUTH PLAINS  
  
CITY           SKY/WX    TMP DP  RH WIND       PRES   REMARKS
AIKEN 3WSW       N/A     80  53  39 SW26      29.73S                  
ANDREWS 2NE      N/A     78  50  37 S12       29.79F                  
ANTON 6SSW       N/A     80  52  38 S21       29.73F                  
BROWNFIELD 2S    N/A     78  51  39 SW20      29.76F                  
DENVR CTY 7WNW   N/A     76  51  40 S18       29.77F                  
GAIL 2ESE        N/A     79  54  41 S16       29.76F                  
LAMESA 2SE       N/A     81  50  34 S22       29.78F                  
LUBBOCK 3WNW     N/A     79  53  40 SW10G28   29.75F                  
MORTON 1ENE      N/A     78  51  38 S26G39    29.74F                  
ODONNELL 1N      N/A     79  51  38 S20       29.78F                  
PLAINS 3N        N/A     77  50  39 S20       29.77F                  
RALLS 1SE        N/A     78  51  38 SW26      29.74F                  
REESE CENTER     N/A     79  52  38 SW25G37   29.74F                  
SEAGRAVES 1SW    N/A     79  50  35 S21       29.77S                  
SEMINOLE 2NNE    N/A     80  49  33 S25       29.78S                  
SLATON 2NE       N/A     78  53  42 SW20      29.76F                  
SNYDER 3E        N/A     79  56  44 S20       29.77S                  
SUNDOWN 8SW      N/A     79  51  36 S23       29.75F                  
TAHOKA 3NNE      N/A     78  55  43 S18       29.76F                  
WOLFFORTH 6SSW   N/A     77  53  43 SW22      29.76F                  
$$

TXZ031-032-036>038-042>044-231800-
TEXAS TECH WEST TEXAS MESONET/ROLLING PLAINS 
  
CITY           SKY/WX    TMP DP  RH WIND       PRES   REMARKS
ASPERMONT 3NE    N/A     84  55  37 S22       29.73F                  
FLUVANNA 3WNW    N/A     79  53  41 S23       29.78R                  
GRAHAM 5SSW      N/A     79  51  38 S22       29.76S                  
GUTHRIE 10WSW    N/A     83  53  35 S22       29.71S                  
HASKELL 1NW      N/A     81  59  47 S15       29.73F                  
JAYTON 1SSE      N/A     83  54  36 S17       29.73S                  
KNOX CITY 3NW    N/A     82  58  44 S22       29.70F                  
LK A HENRY 1NW   N/A     80  56  43 SW15      29.75S                  
NORTHFIELD 1S    N/A     82  53  36 SW18      29.67S                  
ODELL 4ENE       N/A     86  57  37 S26       29.68F                  
PADUCAH 10SW     N/A     78  55  44 S18       29.71F                  
POST 1NE         N/A     80  53  38 S15       29.74F                  
RRING SPRGS 3N   N/A     82  52  35 S23       29.70F                  
SEYMOUR 3NW      N/A     83  58  43 S24       29.71F                  
SPUR 1W          N/A     80  53  38 SW18      29.73S                  
WEINERT 2NNE     N/A     83  58  42 S28       29.72F                  
WHITE RVR 6NE    N/A     79  54  42 S18       29.74S                  
$$

TXZ052-054-060>062-072-078-127-140-154-169-231800-
TEXAS TECH WEST TEXAS MESONET/PERMIAN BASIN/
CONCHO VALLEY/BIG COUNTRY/EDWARDS PLATEAU
  
CITY           SKY/WX    TMP DP  RH WIND       PRES   REMARKS
COYANOSA 2N      N/A     83  52  34 SE8       29.79S                  
JUNCTION 1SSW    N/A     76  62  62 S16       29.89F                  
MERTZON 3NNE     N/A     77  61  58 S16       29.82F                  
SAN ANGELO 7NW   N/A     78  60  54 S20       29.82F                  
STRLNG CT 4WSW   N/A     77  58  51 S15       29.82S                  
ST LAWRNCE 5SW   N/A     74  59  57 S16       29.83S                  
SWEETWATR 11SW   N/A     76  58  52 S25       29.81F                  
WALL 1E          N/A     80  60  49 S20       29.83F                  
$$

TXZ055-058-074-075-080-082-231800-
TEXAS TECH WEST TEXAS MESONET/FAR WEST/SOUTHWEST MOUNTAINS/TRANS PECOS
  
CITY           SKY/WX    TMP DP  RH WIND       PRES   REMARKS
PRSMN GAP BBNP   N/A     82  43  25 S13       29.86F                  
GUADLPE MTN NP   N/A     69  47  46 SW29G55   29.87F                  
$$
  
