ASUS44 KFWD 231901
RWRFWD
NORTH TEXAS HOURLY WEATHER ROUNDUP
NATIONAL WEATHER SERVICE FORT WORTH TX
200 PM CDT SUN OCT 23 2022

NOTE: "FAIR" INDICATES FEW OR NO CLOUDS BELOW 12,000 FEET WITH NO
SIGNIFICANT WEATHER AND/OR OBSTRUCTIONS TO VISIBILITY.

TXZ118-119-232000-
DALLAS/FORT WORTH METROPLEX
  
CITY           SKY/WX    TMP DP  RH WIND       PRES   REMARKS
DFW AIRPORT    MOSUNNY   85  61  44 S26G44    29.77F                  
DALLAS LOVE    MOSUNNY   84  60  44 S25G41    29.80F                  
FTW MEACHAM    SUNNY     84  62  47 S24G45    29.77F                  
DAL-EXECUTIVE  MOSUNNY   84  60  44 S22G38    29.81F                  
FTW-ALLIANCE   MOSUNNY   84  61  45 S29G39    29.76F                  
FTW-NAS-JRB    MOSUNNY   84  62  47 S26G37    29.78F                  
FTW-SPINKS     MOSUNNY   84  59  42 S20G35    29.82F                  
ARLINGTON      MOSUNNY   84  59  42 S24G45    29.80F                  
GRAND PRAIRIE  MOSUNNY   84  59  42 S17G25    29.82                   
ADDISON        MOSUNNY   82  59  44 S21G32    29.81F                  
MESQUITE       MOSUNNY   84  57  39 S21G35    29.83                   
LANCASTER      PTSUNNY   83  59  44 S25G31    29.84F                  
$$

TXZ091>094-102>105-117-120-121-131>134-232000-
NORTH CENTRAL TEXAS
  
CITY           SKY/WX    TMP DP  RH WIND       PRES   REMARKS
SHRMAN/DENISON SUNNY     82  59  44 S26G32    29.81F                  
BOWIE          SUNNY     84  59  43 SE23G32   29.73F                  
DECATUR        SUNNY     83  59  42 S20G30    29.76F                  
DENTON         SUNNY     85  60  42 S26G44    29.78F                  
MCKINNEY       MOSUNNY   84  58  40 S30G41    29.79F                  
BONHAM         MOSUNNY   83  61  47 S22G30    29.83F                  
GREENVILLE     PTSUNNY   83  60  45 S26G33    29.84F                  
ROCKWALL       PTSUNNY   84  61  45 S21G30    29.83F                  
TERRELL        MOSUNNY   83  59  44 S18G37    29.85F                  
WAXAHACHIE     PTSUNNY   84  61  45 S22G38    29.84F                  
CLEBURNE       SUNNY     82  59  44 S26G39    29.80F                  
GRANBURY       SUNNY     83  60  45 S16G29    29.79F                  
$$

TXZ083>090-098>101-113>116-127>130-139>142-154-155-232000-
WESTERN NORTH TEXAS
  
CITY           SKY/WX    TMP DP  RH WIND       PRES   REMARKS
WICHITA FALLS  MOSUNNY   88  57  34 S26G33    29.66F                  
WF-KICKAPOO    MOSUNNY   87  57  35 S25G33    29.69F                  
VERNON         PTSUNNY   90  55  30 S20G25    29.64F                  
ABILENE        SUNNY     85  57  38 S25G36    29.73F                  
ABILENE-DYESS  SUNNY     86  52  31 S28       29.68F                  
GRAHAM         SUNNY     85  59  41 S14G28    29.70F                  
BRECKENRIDGE   SUNNY     85  58  39 S18G28    29.73F                  
CISCO          SUNNY     82  59  44 S22G33    29.74F                  
MINERAL WELLS  SUNNY     87  58  37 S22G35    29.74F                  
STEPHENVILLE   SUNNY     84  57  39 S20G29    29.81F                  
COMANCHE       SUNNY     85  60  43 S16G30    29.80F                  
COLEMAN        SUNNY     84  57  39 S24       29.77F                  
BRADY          SUNNY     81  57  44 S22G29    29.79F                  
SAN SABA       SUNNY     82  59  45 S18G25    29.82F                  
$$

TXZ143>147-156>162-174-175-232000-
CENTRAL TEXAS
  
CITY           SKY/WX    TMP DP  RH WIND       PRES   REMARKS
WACO           MOSUNNY   84  61  45 S25G36    29.82F                  
WACO-TSTC      PTSUNNY   84  61  45 S20       29.84F                  
WACO-MCGREGOR    N/A    N/A N/A N/A S23       29.83                   
HILLSBORO      CLOUDY    84  61  46 S25G33    29.82F                  
CORSICANA      PTSUNNY   85  59  41 S28G39    29.85F                  
MEXIA          MOSUNNY   84  60  44 S25G35    29.86F                  
HEARNE         PTSUNNY   86  62  45 S16G23    29.87F                  
TEMPLE         PTSUNNY   85  62  46 S25G32    29.83F                  
KILLEEN        MOSUNNY   83  59  43 S22G33    29.78F                  
KILLEEN-SKYLRK MOSUNNY   83  60  45 S21G30    29.82F                  
FORT HOOD      PTSUNNY   83  59  43 S20G32    29.82F                  
GATESVILLE     MOSUNNY   82  59  44 MISG      29.83F                  
HAMILTON       SUNNY     84  59  42 S22G32    29.82F                  
$$

TXZ095>097-106>112-122>126-135>138-148>153-164>167-232000-
EAST TEXAS
  
CITY           SKY/WX    TMP DP  RH WIND       PRES   REMARKS
PARIS          PTSUNNY   84  62  47 S25G31    29.85F                  
GILMER         MOSUNNY   82  57  43 S16G26    29.89F                  
MINEOLA        CLOUDY    81  63  54 S12G20    29.87F                  
TYLER          MOSUNNY   85  60  42 S23G36    29.88F                  
LONGVIEW       PTSUNNY   84  59  42 S21G28    29.90F                  
MARSHALL       MOSUNNY   85  57  38 CALM      29.90F                  
ATHENS         PTSUNNY   82  61  47 S16G24    29.86F                  
JACKSONVILLE   PTSUNNY   82  59  44 S15G21    29.94F                  
HENDERSON      PTSUNNY   85  51  30 S12G22    29.92F                  
CENTER         PTSUNNY   82  55  39 S13G22    29.96F                  
NACOGDOCHES    CLOUDY    85  58  39 S13G24    29.93F                  
LUFKIN         PTSUNNY   84  59  42 S14G26    29.93F                  
$$

SUPPLEMENTAL OBSERVATIONS (NWS FORT WORTH AREA)
  
CITY           SKY/WX    TMP DP  RH WIND       PRES   REMARKS
$$

SUPPLEMENTAL OBSERVATIONS (NWS NORMAN AREA)
  
CITY           SKY/WX    TMP DP  RH WIND       PRES   REMARKS
GOODLETT         N/A     84  54  36 S21       29.61                   
ODELL            N/A     85  57  38 S29       29.65F                  
CROWELL          N/A     87  58  36 S23       29.65F                  
KNOX CITY        N/A     89  57  33 S28       29.66                   
SEYMOUR          N/A     89  57  33 S23G35    29.66F                  
$$

SUPPLEMENTAL OBSERVATIONS (NWS SAN ANGELO AREA)
  
CITY           SKY/WX    TMP DP  RH WIND       PRES   REMARKS
WEINERT          N/A     89  56  33 S25       29.68F                  
HASKELL          N/A     88  57  35 S16       29.69                   
THROCKMORTON     N/A     87  60  39 S15       29.70                   
STAMFORD         N/A     87  58  36 S25       29.70                   
CLYDE            N/A     82  58  43 S25       29.76F                  
$$

SUPPLEMENTAL OBSERVATIONS (NWS SHREVEPORT AREA)
  
CITY           SKY/WX    TMP DP  RH WIND       PRES   REMARKS
$$

SUPPLEMENTAL OBSERVATIONS ARE A COLLECTION OF AUTOMATED INSTRUMENTS
THAT ARE MAINTAINED BY A VARIETY OF FEDERAL AND STATE AGENCIES. 
CERTAIN ELEMENTS...SUCH AS HUMIDITY VALUES AND SUSTAINED WIND 
SPEEDS...MAY BE APPROXIMATED.

  
