ASUS44 KLUB 231710
RWRLUB
WEST TEXAS WEATHER ROUNDUP
NATIONAL WEATHER SERVICE LUBBOCK TX
1200 PM CDT SUN OCT 23 2022

NOTE: "FAIR" INDICATES FEW OR NO CLOUDS BELOW 12,000 FEET WITH NO
SIGNIFICANT WEATHER AND/OR OBSTRUCTIONS TO VISIBILITY.

TXZ004-006>008-010-012-014-016-OKZ002-231800-
TEXAS PANHANDLE/OKLAHOMA PANHANDLE
  
CITY           SKY/WX    TMP DP  RH WIND       PRES   REMARKS
AMARILLO       PTSUNNY   75  50  41 SW28G40   29.67F                  
BORGER         SUNNY     81  49  32 S20G36    29.62F                  
CANADIAN       MOSUNNY   77  53  43 SW18G24   29.61S                  
DALHART        SUNNY     76  49  38 SW35G43   29.61F                  
DUMAS          SUNNY     78  49  36 S29G35    29.63F                  
GUYMON           N/A     82  44  26 SW36G48   29.50F                  
HEREFORD       CLOUDY    73  51  46 SW18      29.70F                  
PAMPA          MOSUNNY   80  53  40 SW24G35   29.66F                  
PERRYTON       SUNNY     82  46  28 SW32G41   29.58F                  
$$

TXZ026-029-035-045-048-231800-
SOUTHERN PANHANDLE/SOUTH PLAINS/ROLLING PLAINS
  
CITY           SKY/WX    TMP DP  RH WIND       PRES   REMARKS
CHILDRESS      CLOUDY    76  53  44 S18       29.68S                  
SEMINOLE       SUNNY     80  49  34 SW20      29.81F                  
LUBBOCK        PTSUNNY   79  53  40 SW18      29.73F                  
PLAINVIEW      PTSUNNY   77  50  38 SW23G36   29.70F                  
SNYDER         SUNNY     77  54  44 S18G26    29.77F                  
$$

TXZ052-054-060>062-072-078-127-140-154-169-231800-
PERMIAN BASIN/CONCHO VALLEY/BIG COUNTRY/EDWARDS PLATEAU  
  
CITY           SKY/WX    TMP DP  RH WIND       PRES   REMARKS
ABILENE        SUNNY     79  59  50 S20G35    29.78F                  
BIG SPRING     SUNNY     77  56  47 S20       29.79S                  
BRADY          SUNNY     75  61  60 S20G32    29.86S                  
JUNCTION       MOSUNNY   77  63  61 S20G30    29.88F                  
MIDLAND        SUNNY     78  53  41 S18       29.79F                  
ODESSA         SUNNY     79  52  38 S18       29.81S                  
SAN ANGELO     SUNNY     78  59  51 S21G32    29.80F                  
SONORA         SUNNY     75  61  60 S17       29.90F                  
SWEETWATER     SUNNY     78  57  47 S24       29.81S                  
WINK           SUNNY     80  51  36 S14       29.76F                  
$$

TXZ055-058-074-075-080-082-231800-
FAR WEST/SOUTHWEST MOUNTAINS/TRANS PECOS
  
CITY           SKY/WX    TMP DP  RH WIND       PRES   REMARKS
ALPINE         SUNNY     76  45  32 SW18G24   29.98R                  
DRYDEN           N/A     64  61  90 SE12      29.88F                  
EL PASO        PTSUNNY   75  51  43 W20       29.81F                  
FORT STOCKTON  SUNNY     80  46  30 SE5       29.82F                  
GUADALUPE PASS MOSUNNY   72  48  42 SW51G67   29.82F                  
MARFA          SUNNY     75  46  35 S13       29.96F                  
PECOS          SUNNY     86  46  25 SW14G20   29.77S                  
PRESIDIO       FAIR      81  53  38 S7        29.87F                  
$$

TXZ014-016-019-021>030-083-231800
TEXAS TECH WEST TEXAS MESONET/TEXAS PANHANDLE/NORTHERN SOUTH PLAINS
  
CITY           SKY/WX    TMP DP  RH WIND       PRES   REMARKS
ABERNATHY 5ENE   N/A     80  53  39 SW26      29.73F                  
AMARILLO 9NNE    N/A     75  51  42 S23       29.65F                  
AMARILLO 7SSE    N/A     74  51  44 SW24G37   29.70F                  
AMHERST 1NE      N/A     77  51  38 S22       29.72F                  
BOOTLEG 11WNW    N/A     71  49  46 SW24      29.74F                  
CANADIAN 6E      N/A     78  55  44 S18       29.60F                  
CAPROCK CYN SP   N/A     81  51  35 SW30      29.66F                  
CHILDRESS 2NNE   N/A     76  54  46 S22       29.68R                  
CLARENDON 2WSW   N/A     82  53  36 SW13      29.66F                  
CLAUDE 12SW      N/A     75  53  45 S21G28    29.69S                  
DIMMITT 2NE      N/A     73  52  48 S21       29.71F                  
FLOYDADA 2NNE    N/A     76  52  43 SW20      29.74S                  
FRIONA 2NE       N/A     71  51  47 SW26      29.70F                  
GOODLETT 3W      N/A     77  55  47 S23       29.66S                  
HART 3N          N/A     77  52  41 SW23G41   29.71F                  
HEREFORD 2NW     N/A     71  51  48 SW14      29.71F                  
MCLEAN 1E        N/A     73  53  49 S14       29.66F                  
MEMPHIS 1NE      N/A     79  53  41 S15       29.65F                  
MULESHOE 2SSW    N/A     74  51  43 S22       29.71F                  
OLTON 6S         N/A     79  51  37 S29       29.70F                  
PALO DURO SP     N/A     75  51  42 SW16      29.70F                  
PAMPA 2E         N/A     77  53  43 SW21      29.67F                  
PLAINVIEW 1S     N/A     80  51  36 SW25G43   29.71F                  
SILVERTON 7ESE   N/A     82  50  32 SW30      29.69S                  
TULIA 2ENE       N/A     80  51  37 SW23G45   29.70F                  
TURKEY 2WSW      N/A     80  53  37 SW20      29.66S                  
UMBARGER 3NNE    N/A     71  51  49 SW21      29.71S                  
$$

TXZ033>036-039>041-045>048-231800
TEXAS TECH WEST TEXAS MESONET/SOUTH PLAINS  
  
CITY           SKY/WX    TMP DP  RH WIND       PRES   REMARKS
AIKEN 3WSW       N/A     80  53  39 SW25      29.72F                  
ANDREWS 2NE      N/A     79  50  36 S14       29.78F                  
ANTON 6SSW       N/A     81  52  36 S25       29.72F                  
BROWNFIELD 2S    N/A     78  52  39 SW18      29.76F                  
DENVR CTY 7WNW   N/A     77  51  39 S21       29.77S                  
GAIL 2ESE        N/A     80  53  39 S21       29.76F                  
LAMESA 2SE       N/A     82  51  33 S20       29.77F                  
LUBBOCK 3WNW     N/A     79  52  38 S17       29.74F                  
MORTON 1ENE      N/A     78  51  38 SW25      29.74F                  
ODONNELL 1N      N/A     79  51  37 S20       29.77F                  
PLAINS 3N        N/A     77  51  39 S16       29.77F                  
RALLS 1SE        N/A     80  52  37 SW23      29.75F                  
REESE CENTER     N/A     80  52  37 SW23      29.74F                  
SEAGRAVES 1SW    N/A     80  49  33 SW23      29.76F                  
SEMINOLE 2NNE    N/A     80  48  33 SW23      29.77F                  
SLATON 2NE       N/A     78  52  39 SW24      29.75F                  
SNYDER 3E        N/A     80  55  41 S21       29.77S                  
SUNDOWN 8SW      N/A     79  50  36 S21       29.75F                  
TAHOKA 3NNE      N/A     80  54  40 S22       29.76F                  
WOLFFORTH 6SSW   N/A     78  53  41 SW21      29.76S                  
$$

TXZ031-032-036>038-042>044-231800-
TEXAS TECH WEST TEXAS MESONET/ROLLING PLAINS 
  
CITY           SKY/WX    TMP DP  RH WIND       PRES   REMARKS
ASPERMONT 3NE    N/A     85  55  36 S18       29.72F                  
FLUVANNA 3WNW    N/A     79  53  39 S25       29.77S                  
GRAHAM 5SSW      N/A     79  52  38 S18       29.75F                  
GUTHRIE 10WSW    N/A     83  52  34 SW23      29.71F                  
HASKELL 1NW      N/A     82  59  45 S17       29.73F                  
JAYTON 1SSE      N/A     82  54  38 S15       29.73S                  
KNOX CITY 3NW    N/A     82  58  43 S24       29.71R                  
LK A HENRY 1NW   N/A     81  56  41 SW13      29.75F                  
NORTHFIELD 1S    N/A     83  53  34 SW20      29.66F                  
ODELL 4ENE       N/A     86  57  36 S31       29.67F                  
PADUCAH 10SW     N/A     79  54  42 S23       29.71F                  
POST 1NE         N/A     81  53  37 S18       29.74F                  
RRING SPRGS 3N   N/A     84  52  32 SW25      29.70F                  
SEYMOUR 3NW      N/A     83  59  44 S24       29.70F                  
SPUR 1W          N/A     81  53  38 SW17      29.72S                  
WEINERT 2NNE     N/A     84  58  40 S31       29.72F                  
WHITE RVR 6NE    N/A     80  54  41 S17       29.73F                  
$$

TXZ052-054-060>062-072-078-127-140-154-169-231800-
TEXAS TECH WEST TEXAS MESONET/PERMIAN BASIN/
CONCHO VALLEY/BIG COUNTRY/EDWARDS PLATEAU
  
CITY           SKY/WX    TMP DP  RH WIND       PRES   REMARKS
COYANOSA 2N      N/A     83  52  33 SE12      29.78F                  
JUNCTION 1SSW    N/A     77  62  59 S21       29.89F                  
MERTZON 3NNE     N/A     76  60  57 S21       29.82F                  
SAN ANGELO 7NW   N/A     79  61  52 S15       29.82F                  
STRLNG CT 4WSW   N/A     78  58  50 S15       29.82S                  
ST LAWRNCE 5SW   N/A     76  59  56 S18       29.82F                  
SWEETWATR 11SW   N/A     76  58  52 S23       29.81S                  
WALL 1E          N/A     81  61  50 S15       29.83S                  
$$

TXZ055-058-074-075-080-082-231800-
TEXAS TECH WEST TEXAS MESONET/FAR WEST/SOUTHWEST MOUNTAINS/TRANS PECOS
  
CITY           SKY/WX    TMP DP  RH WIND       PRES   REMARKS
PRSMN GAP BBNP   N/A     83  43  24 SE9       29.86F                  
GUADLPE MTN NP   N/A     70  48  44 SW26G43   29.88S                  
$$
  
