ASUS44 KCRP 231710
RWRCRP

SOUTH TEXAS REGIONAL WEATHER ROUNDUP
NATIONAL WEATHER SERVICE CORPUS CHRISTI TX
1200 PM CDT SUN OCT 23 2022


TXZ229>244-231800-
...CORPUS CHRISTI AREA OBSERVATIONS...
  
CITY           SKY/WX    TMP DP  RH WIND       PRES   REMARKS
CORPUS CHRISTI PTSUNNY   84  70  62 S25G35    29.90F                  
NAS CORPUS CHR MOSUNNY   88  71  57 S25G32    29.91S HX  94           
ROCKPORT       PTSUNNY   86  70  58 S13G22    29.92R HX  90           
KINGSVILLE NAS MOSUNNY   84  67  56 S23       29.88F                  
ALICE          PTSUNNY   83  68  60 S15G31    29.88F                  
$$
 
...VICTORIA AREA OBSERVATIONS...
  
CITY           SKY/WX    TMP DP  RH WIND       PRES   REMARKS
PORT LAVACA    PTSUNNY   86  67  54 S16G24    29.94S                  
VICTORIA       PTSUNNY   84  69  60 SE18G28   29.93S                  
BEEVILLE       FAIR      84  62  47 S18G29    29.90S                  
PLEASANTON     PTSUNNY   83  65  53 S17G24    29.90F                  
SAN ANTONIO    PTSUNNY   81  62  52 S21G32    29.91F                  
$$
 
...LAREDO AREA OBSERVATIONS...
  
CITY           SKY/WX    TMP DP  RH WIND       PRES   REMARKS
LAREDO         PTSUNNY   83  66  56 S22G29    29.82F                  
COTULLA        PTSUNNY   81  65  58 SE16G24   29.86F                  
DEL RIO        CLOUDY    71  65  81 SE12      29.85S                  
MCALLEN        SUNNY     87  65  47 SE24G33   29.85F                  
HEBBRONVILLE   MOSUNNY   83  64  51 S21G28    29.87F                  
$$
 
...OTHER TEXAS OBSERVATIONS...
  
CITY           SKY/WX    TMP DP  RH WIND       PRES   REMARKS
BROWNSVILLE    MOSUNNY   88  69  53 S23G36    29.88F HX  92           
HOUSTON        PTSUNNY   84  59  42 S20G32    29.96F                  
COL. STATION   PTSUNNY   80  64  58 S17G36    29.93F                  
AUSTIN         PTSUNNY   82  64  54 S22G32    29.90F                  
TEMPLE         PTSUNNY   78  63  59 S25G33    29.90F                  
WACO           PTSUNNY   81  62  52 S23G38    29.88F                  
FORT WORTH     PTSUNNY   81  63  54 S29G37    29.82S                  
WICHITA FALLS  MOSUNNY   81  61  50 S24G35    29.72F                  
LUBBOCK        PTSUNNY   79  53  40 SW18      29.73F                  
EL PASO        PTSUNNY   75  51  43 W20       29.81F                  
$$

...MARINE OBSERVATIONS...
  
STATION/POSITION TIME  SKY/WX   TEMP    WIND        PRES    VSBY  WAVE   SWELL
                                AIR SEA DIR/SP/G                  HT/PER HT/PER
                 (UTC)          (F)     (DEG/KT/KT) (MB)    (MI)  (FT/S) (FT/S)
PORT ARANSAS     1600            79     150/ 19/ 23   N/A
ARANSAS PASS     1630                   130/ 17/ 20 1012.3R
BUOY 6 SE PORT A NOT AVBL
BUOY 90 E PORT A 1650            80                 1014.9R         5/ 6
BUOY 45 SE BAFFI 1650            80 79  150/ 21/ 25 1013.6R         7/ 7
BUOY 200 E PT IS 1650            80     150/ 12/ 16 1016.4F         3/ 5
BUOY 15 E GALVES NOT AVBL
$$
  
