ASUS44 KCRP 231910
RWRCRP

SOUTH TEXAS REGIONAL WEATHER ROUNDUP
NATIONAL WEATHER SERVICE CORPUS CHRISTI TX
200 PM CDT SUN OCT 23 2022


TXZ229>244-232000-
...CORPUS CHRISTI AREA OBSERVATIONS...
  
CITY           SKY/WX    TMP DP  RH WIND       PRES   REMARKS
CORPUS CHRISTI PTSUNNY   86  71  60 SE25G38   29.84F HX  91           
NAS CORPUS CHR CLOUDY    84  71  65 SE23G29   29.85F                  
ROCKPORT       MOSUNNY   86  71  60 SE16G24   29.87F HX  91           
KINGSVILLE NAS MOSUNNY   86  71  60 SE22G32   29.82F HX  91           
ALICE          MOSUNNY   87  67  51 SE21G26   29.81F HX  90           
$$
 
...VICTORIA AREA OBSERVATIONS...
  
CITY           SKY/WX    TMP DP  RH WIND       PRES   REMARKS
PORT LAVACA    PTSUNNY   87  67  50 SE22G30   29.89F                  
VICTORIA       PTSUNNY   86  66  51 S22G37    29.87F                  
BEEVILLE       PTSUNNY   84  65  52 SE20G26   29.83F                  
PLEASANTON     PTSUNNY   85  64  49 SE15G21   29.83F                  
SAN ANTONIO    CLOUDY    84  62  47 S21G29    29.85F                  
$$
 
...LAREDO AREA OBSERVATIONS...
  
CITY           SKY/WX    TMP DP  RH WIND       PRES   REMARKS
LAREDO         PTSUNNY   89  65  44 SE17      29.78F HX  91           
COTULLA        PTSUNNY   87  64  46 SE18G28   29.80F                  
DEL RIO        PTSUNNY   77  67  71 SE15      29.78F                  
MCALLEN        SUNNY     90  65  43 S22G32    29.80F HX  92           
HEBBRONVILLE   MOSUNNY   87  62  44 S21G26    29.81F                  
$$
 
...OTHER TEXAS OBSERVATIONS...
  
CITY           SKY/WX    TMP DP  RH WIND       PRES   REMARKS
BROWNSVILLE    MOSUNNY   90  68  48 SE24G36   29.83F HX  94           
HOUSTON        PTSUNNY   85  58  39 S18G29    29.91F                  
COL. STATION   PTSUNNY   85  62  46 SE20G28   29.87F                  
AUSTIN         PTSUNNY   85  64  49 S16G29    29.83F                  
TEMPLE         PTSUNNY   85  62  46 S25G32    29.83F                  
WACO           MOSUNNY   84  61  45 S25G36    29.82F                  
FORT WORTH     MOSUNNY   85  61  44 S26G44    29.77F                  
WICHITA FALLS  MOSUNNY   88  57  34 S26G33    29.66F                  
LUBBOCK        PTSUNNY   80  51  36 S22G29    29.69F                  
EL PASO        PTSUNNY   81  46  29 SW28G39   29.76F                  
$$

...MARINE OBSERVATIONS...
  
STATION/POSITION TIME  SKY/WX   TEMP    WIND        PRES    VSBY  WAVE   SWELL
                                AIR SEA DIR/SP/G                  HT/PER HT/PER
                 (UTC)          (F)     (DEG/KT/KT) (MB)    (MI)  (FT/S) (FT/S)
PORT ARANSAS     1800            79     140/ 21/ 23   N/A
ARANSAS PASS     1824                   120/ 17/ 20 1011.1
BUOY 6 SE PORT A NOT AVBL
BUOY 90 E PORT A 1850            80                 1013.5F         5/ 6
BUOY 45 SE BAFFI 1850            80 79  150/ 19/ 25 1011.7F         7/ 7
BUOY 200 E PT IS 1850            81     140/ 12/ 16 1014.8F         3/ 5
BUOY 15 E GALVES NOT AVBL
$$
  
