ASUS44 KCRP 232010
RWRCRP

SOUTH TEXAS REGIONAL WEATHER ROUNDUP
NATIONAL WEATHER SERVICE CORPUS CHRISTI TX
300 PM CDT SUN OCT 23 2022


TXZ229>244-232100-
...CORPUS CHRISTI AREA OBSERVATIONS...
  
CITY           SKY/WX    TMP DP  RH WIND       PRES   REMARKS
CORPUS CHRISTI PTSUNNY   85  71  63 SE26G39   29.82F HX  90           
NAS CORPUS CHR MOSUNNY   87  72  60 SE25G32   29.83F HX  93           
ROCKPORT       MOSUNNY   85  71  63 SE15G29   29.84F HX  90           
KINGSVILLE NAS PTSUNNY   88  71  57 SE22G36   29.79F HX  94           
ALICE          PTSUNNY   86  69  56 SE21G29   29.78F HX  90           
$$
 
...VICTORIA AREA OBSERVATIONS...
  
CITY           SKY/WX    TMP DP  RH WIND       PRES   REMARKS
PORT LAVACA    PTSUNNY   86  67  52 SE18G28   29.86F                  
VICTORIA       PTSUNNY   87  65  47 S22G33    29.84F                  
BEEVILLE       FAIR      84  65  52 SE24G30   29.80F                  
PLEASANTON     PTSUNNY   88  64  45 S12G22    29.80F                  
SAN ANTONIO    PTSUNNY   84  62  47 SE23G32   29.82F                  
$$
 
...LAREDO AREA OBSERVATIONS...
  
CITY           SKY/WX    TMP DP  RH WIND       PRES   REMARKS
LAREDO         PTSUNNY   91  63  39 SE18G29   29.74F HX  92           
COTULLA        PTSUNNY   88  65  46 SE15G26   29.76F HX  90           
DEL RIO        PTSUNNY   77  66  68 SE14G21   29.77F                  
MCALLEN        SUNNY     90  64  42 SE23G33   29.77F HX  91           
HEBBRONVILLE   SUNNY     89  63  41 S16G24    29.79F                  
$$
 
...OTHER TEXAS OBSERVATIONS...
  
CITY           SKY/WX    TMP DP  RH WIND       PRES   REMARKS
BROWNSVILLE    MOSUNNY   89  68  49 S25G41    29.81F HX  93           
HOUSTON        PTSUNNY   85  61  44 S22G29    29.89F                  
COL. STATION   PTSUNNY   87  61  41 S23G35    29.84F                  
AUSTIN         PTSUNNY   87  64  46 S20G29    29.79F                  
TEMPLE         PTSUNNY   86  63  45 SE23G32   29.81F                  
WACO           MOSUNNY   88  62  41 S21G36    29.79F                  
FORT WORTH     MOSUNNY   86  60  41 S30G44    29.73F                  
WICHITA FALLS  SUNNY     89  56  32 S24G35    29.64F                  
LUBBOCK        PTSUNNY   82  50  32 SW25G32   29.66F                  
EL PASO        PTSUNNY   79  44  28 W24G37    29.74F                  
$$

...MARINE OBSERVATIONS...
  
STATION/POSITION TIME  SKY/WX   TEMP    WIND        PRES    VSBY  WAVE   SWELL
                                AIR SEA DIR/SP/G                  HT/PER HT/PER
                 (UTC)          (F)     (DEG/KT/KT) (MB)    (MI)  (FT/S) (FT/S)
PORT ARANSAS     1900            79     140/ 19/ 22   N/A
ARANSAS PASS     1930                   120/ 20/ 21 1009.8
BUOY 6 SE PORT A NOT AVBL
BUOY 90 E PORT A 1950            80                 1012.4F         5/ 6
BUOY 45 SE BAFFI 1950            80 79  150/ 21/ 25 1010.8F         7/ 7
BUOY 200 E PT IS 1950            80     120/ 17/ 21 1013.8F         3/ 5
BUOY 15 E GALVES NOT AVBL
$$
  
