ASUS44 KMAF 232110
RWRMAF
MIDLAND AREA WEATHER ROUNDUP
NATIONAL WEATHER SERVICE MIDLAND TX
400 PM CDT SUN OCT 23 2022

...IN SOUTHWEST TEXAS AND SOUTHEAST NEW MEXICO...
  
CITY           SKY/WX    TMP DP  RH WIND       PRES   REMARKS
ALPINE         SUNNY     82  40  23 SW14G20   29.87F                  
ANDREWS        FAIR      84  52  33 S17G23    29.69F                  
ARTESIA        CLOUDY    77  50  38 SW16G29   29.68F                  
BIG SPRING     SUNNY     85  52  31 S24       29.69F                  
CARLSBAD       PTSUNNY   84  47  27 W18G26    29.64F                  
DRYDEN           N/A     67  61  81 E8        29.80F                  
FORT STOCKTON  MOSUNNY   88  45  22 S13G28    29.70F                  
GUAD PASS      PTSUNNY   71  46  40 SW38G53   29.77F                  
HOBBS          SUNNY     82  45  26 SW25G36   29.68F                  
LAMESA         NOT AVBL                                               
MARFA          SUNNY     80  42  25 S13G23    29.84F                  
MIDLAND AIRPK  SUNNY     83  55  37 S20G26    29.69F                  
MIDLAND INTL   SUNNY     84  54  35 S18G31    29.68F                  
ODESSA         SUNNY     84  53  34 S18G30    29.69F                  
PECOS          SUNNY     91  45  20 SW17      29.64F                  
PRESIDIO       FAIR      89  51  26 S9G18     29.74F                  
SEMINOLE       MOSUNNY   85  48  27 SW22G29   29.71F                  
SNYDER         SUNNY     86  51  29 S17G29    29.67F                  
WINK           SUNNY     90  44  20 SW22G32   29.64F                  
$$
...OTHER STATIONS IN TEXAS...
  
CITY           SKY/WX    TMP DP  RH WIND       PRES   REMARKS
ABILENE        SUNNY     88  57  34 S21G32    29.69F                  
AMARILLO       CLOUDY    76  49  38 SW29G45   29.59F                  
AUSTIN         PTSUNNY   86  64  47 S21G35    29.77F                  
BROWNSVILLE    CLOUDY    88  71  57 SE24G36   29.80F                  
CORPUS CHRISTI PTSUNNY   86  72  62 SE25G38   29.81F                  
DALLAS FTW     MOSUNNY   86  60  41 S30G44    29.72F                  
DEL RIO        LGT RAIN  77  67  71 SE14G21   29.74F                  
EL PASO        PTSUNNY   78  45  30 W20G33    29.73F                  
HOUSTON INT    PTSUNNY   85  61  44 S18G33    29.87F                  
LUBBOCK        PTSUNNY   85  50  29 SW25G37   29.64F                  
SAN ANGELO     CLOUDY    83  55  38 S15G28    29.72S                  
SAN ANTONIO    PTSUNNY   86  61  42 S15G26    29.80F                  
WACO           MOSUNNY   86  61  42 S23G35    29.78F                  
WICHITA FALLS  PTSUNNY   81  58  45 S33G48    29.49F BLWGDUST         
$$
...OTHER LOCATIONS IN NEW MEXICO...
  
CITY           SKY/WX    TMP DP  RH WIND       PRES   REMARKS
ALAMOGORDO     CLOUDY    73  43  33 SW21G29   29.73F                  
ALBUQUERQUE    PTSUNNY   65  39  38 W29G44    29.69R                  
CANNON AFB     CLOUDY    73  47  39 SW23G29   29.62F                  
CLOVIS         CLOUDY    73  49  42 SW30G38   29.62F                  
HOLLOMAN AFB   PTSUNNY   75  41  30 S18       29.75F                  
ROSWELL        CLOUDY    78  44  29 SW26G39   29.64S                  
RUIDOSO          N/A     63  36  36 SW43G56   29.74S                  
SANTA FE       CLOUDY    53  37  54 W22G33    29.72R                  
TRUTH OR CONSE PTSUNNY   68  31  25 SW26G41   29.72S                  
TUCUMCARI      PTSUNNY   75  35  23 SW33G47   29.53S                  
$$
  
