ASUS41 KBTV 220210
RWRBTV
VERMONT REGIONAL WEATHER ROUNDUP
NATIONAL WEATHER SERVICE BURLINGTON VT
1000 PM EDT FRI OCT 21 2022

NOTE: "FAIR" INDICATES FEW OR NO CLOUDS BELOW 12,000 FEET WITH NO 
SIGNIFICANT WEATHER AND/OR OBSTRUCTIONS TO VISIBILITY.

* THESE REPORTS ARE NOT UNDER NWS QUALITY CONTROL AND/OR DO NOT
  REPORT WEATHER SUCH AS PRECIPITATION AND FOG.

VTZ001>019-220300-
_____VERMONT_____

  
CITY           SKY/WX    TMP DP  RH WIND       PRES   REMARKS
BURLINGTON     CLEAR     51  28  41 S10       30.08R                  
MONTPELIER     CLEAR     40  29  64 CALM      30.15R                  
MORRISVILLE    CLEAR     35  30  82 CALM      30.10R                  
ST. JOHNSBURY*   N/A     39  32  76 MISG      30.10R                  
LYNDONVILLE*     N/A     45  29  53 SE7       30.12R                  
MIDDLEBURY*    FAIR      46  32  58 CALM      30.11R                  
RUTLAND*       CLEAR     42  30  62 SE12      30.13R                  
SPRINGFIELD    CLEAR     37  34  89 CALM      30.14R                  
HIGHGATE*      FAIR      54  28  35 S10G16    30.04R                  
NEWPORT*       FAIR      47  27  45 S3        30.09S                  
BENNINGTON     CLEAR     42  25  50 S6        30.13R                  
LAKE EDEN*       N/A     37 N/A N/A CALM        N/A                   

_____LAKE CHAMPLAIN_____

  
CITY           SKY/WX    TMP DP  RH WIND       PRES   REMARKS
BURTON ISLAND*   N/A     55  39  54 N21         N/A                   
COLCHESTER RF*   N/A     54  39  58 S26         N/A                   
DIAMOND ISL*     N/A     52  36  54 S9          N/A                   

$$

NYZ007-026>031-035-052-083-087-220300-
_____NORTHERN NEW YORK_____

  
CITY           SKY/WX    TMP DP  RH WIND       PRES   REMARKS
PLATTSBURGH    CLEAR     47  33  58 CALM      30.05R                  
SARANAC LAKE   PTCLDY    43  27  53 S5        30.03R                  
MASSENA        CLEAR     53  29  39 S9        29.98R                  
OGDENSBURG*    FAIR      54  30  40 S8G16     29.95R                  
POTSDAM*       CLOUDY    55  27  33 S15G23    29.98R                  
WATERTOWN      CLEAR     56  29  35 S10G26    29.99R                  
FT DRUM        CLEAR     54  28  36 S17       29.97R                  
ALBANY         CLEAR     48  32  53 S6        30.13R                  
GLENS FALLS    CLEAR     34  30  85 CALM      30.11R                  

$$
NHZ002-005-011-220300-
_____NEW HAMPSHIRE_____

  
CITY           SKY/WX    TMP DP  RH WIND       PRES   REMARKS
LEBANON        CLEAR     38  32  79 CALM      30.12R                  
KEENE          CLEAR     35  34  96 CALM      30.16R                  
MT WASHINGTON  PTCLDY    36   5  27 W35         N/A  WCI  22          
PLYMOUTH       FAIR      34  33  94 CALM      30.15R                  
WHITEFIELD     PTCLDY    31  28  89 CALM      30.12R                  

$$

_____REGIONAL QUEBEC LOCATIONS_____

  
CITY           SKY/WX    TMP DP  RH WIND       PRES   REMARKS
MONTREAL       PTCLDY    52  34  50 S14       29.98R                  
QUEBEC CITY    PTCLDY    37  34  87 VRB2      30.02R                  
SHERBROOKE     CLOUDY    46  32  57 SE6       30.05S                  

_____REGIONAL ONTARIO LOCATIONS_____

  
CITY           SKY/WX    TMP DP  RH WIND       PRES   REMARKS
OTTAWA         CLEAR     50  32  50 S13G18    29.93R                  

______KEY______
VSB  - VISIBILITY IN MILES
WCI  - WIND CHILL INDEX
HX   - HEAT INDEX
$$
NNNN
  
