ASUS43 KDMX 231806
RWRIA 

WEATHER ROUNDUP FOR IOWA
NATIONAL WEATHER SERVICE DES MOINES IA
100 PM CDT SUN OCT 23 2022

NOTE: "FAIR" INDICATES FEW OR NO CLOUDS BELOW 12,000 FEET WITH NO
SIGNIFICANT WEATHER AND/OR OBSTRUCTIONS TO VISIBILITY.

* - THESE STATIONS ARE NOT NWS STATIONS...THUS NOT UNDER NWS
QUALITY CONTROL.  THEY ALSO DO NOT REPORT WEATHER SUCH 
AS PRECIPITATION OR FOG.  

IAZ001>003-012>014-020>022-031>034-043>046-231900-
   NORTHWEST IOWA
  
CITY           SKY/WX    TMP DP  RH WIND       PRES   REMARKS
CARROLL *      SUNNY     77  57  50 S23G32    29.45F                  
CHEROKEE *     SUNNY     78  54  42 S20G28    29.40                   
DENISON *        N/A    N/A N/A N/A MISG        N/A                   
LE MARS *      SUNNY     79  55  44 S23G35    29.33                   
MAURICE *      FAIR      77  55  47 S29G37    29.33                   
SHELDON *      SUNNY     75  55  50 S28G37    29.37                   
SIOUX CITY     SUNNY     80  56  43 S25G32    29.34F HX  80           
6HR MIN TEMP:  56; 6HR MAX TEMP:  80;                                

SPENCER        SUNNY     77  53  43 S29G39    29.43F                  
6HR MIN TEMP:  59; 6HR MAX TEMP:  77;                                

STORM LAKE *   SUNNY     77  55  47 S31G39    29.42F                  
$$
 
IAZ055>058-069>071-079>083-090>094-231900-
   SOUTHWEST IOWA
  
CITY           SKY/WX    TMP DP  RH WIND       PRES   REMARKS
ATLANTIC *     MOSUNNY   81  59  47 S25G35    29.44F HX  81           
AUDUBON *        N/A     79  55  44 S21G28    29.47F                  
CLARINDA *     MOSUNNY   81  55  41 S25G41    29.50  HX  80           
COUNCIL BLFS * MOSUNNY   81  52  36 S24G36    29.40  HX  80           
CRESTON *      SUNNY     81  57  44 S26G33    29.50F HX  81           
HARLAN  *      SUNNY     79  59  50 S24G38    29.43  HX  80           
LAMONI         LGT RAIN  81  57  43 S24G39    29.56F HX  81           
6HR MIN TEMP:  63; 6HR MAX TEMP:  81; 6HR PCP: TRACE;                

RED OAK *      MOSUNNY   81  55  41 S26G33    29.46  HX  80           
SHENANDOAH *   MOSUNNY   81  55  41 S28G36    29.45  HX  80           
$$
 
IAZ047>049-059>061-072>074-084-231900-
   CENTRAL IOWA
  
CITY           SKY/WX    TMP DP  RH WIND       PRES   REMARKS
AMES           SUNNY     76  57  51 S20G33    29.54F                  
6HR MIN TEMP:  58; 6HR MAX TEMP:  76;                                

ANKENY *       MOSUNNY   77  57  50 S18G30    29.55F                  
BOONE *        MOSUNNY   75  57  53 S24G33    29.54F                  
CHARITON *     MOSUNNY   75  59  57 S22G31    29.57F                  
DES MOINES     PTSUNNY   76  56  49 S26G35    29.55F                  
6HR MIN TEMP:  61; 6HR MAX TEMP:  76;                                

GRINNELL*      SUNNY     79  58  48 SE25G31   29.62F HX  80           
KNOXVILLE *    SUNNY     77  55  47 S22G32    29.58F                  
MARSHALLTOWN   SUNNY     76  56  49 SE26G38   29.58F                  
6HR MIN TEMP:  59; 6HR MAX TEMP:  76;                                

NEWTON *       SUNNY     75  57  53 S24G32    29.57F                  
PELLA *        SUNNY     76  57  51 S17G28    29.60F                  
PERRY *        FAIR      81  55  41 S25G33    29.50F HX  80           
$$
 
IAZ004>006-015-016-023>025-035-036-231900-
   NORTH CENTRAL IOWA
  
CITY           SKY/WX    TMP DP  RH WIND       PRES   REMARKS
ALGONA *       SUNNY     75  57  53 S25G36    29.48F                  
CLARION *      SUNNY     77  59  53 S28G36    29.52F                  
ESTHERVILLE    SUNNY     74  55  51 S29G40    29.46F                  
6HR MIN TEMP:  57; 6HR MAX TEMP:  74;                                

FORT DODGE *   SUNNY     76  56  49 SE23G33   29.50F                  
MASON CITY     SUNNY     74  55  51 SE20G39   29.56F                  
6HR MIN TEMP:  56; 6HR MAX TEMP:  74;                                

FOREST CITY *  FAIR      73  55  53 SE24G36   29.53F                  
WEBSTER CITY * SUNNY     75  57  53 S28G36    29.50F                  
IOWA FALLS *   FAIR      76  58  52 SE26G33   29.56F                  
$$

IAZ007>011-017>019-026>030-037>042-050>054-066-231900-
   NORTHEAST IOWA
  
CITY           SKY/WX    TMP DP  RH WIND       PRES   REMARKS
CEDAR RAPIDS   MOSUNNY   75  55  49 SE24G33   29.67F                  
6HR MIN TEMP:  59; 6HR MAX TEMP:  75;                                

CHARLES CITY * SUNNY     73  55  53 SE24G30   29.60                   
CLINTON *      SUNNY     76  57  51 S21G29    29.77F                  
DECORAH *      SUNNY     73  55  53 SE15G24   29.64                   
DUBUQUE        SUNNY     74  56  53 S25G33    29.74F                  
6HR MIN TEMP:  58; 6HR MAX TEMP:  74;                                

OELWEIN *      SUNNY     73  55  53 SE26      29.65                   
WATERLOO       SUNNY     77  55  46 SE23G39   29.61F                  
6HR MIN TEMP:  61; 6HR MAX TEMP:  77;                                

$$
 
IAZ064-065-067-068-078-231900-
   EAST CENTRAL IOWA
  
CITY           SKY/WX    TMP DP  RH WIND       PRES   REMARKS
DAVENPORT      SUNNY     73  55  53 S16G26    29.77F                  
6HR MIN TEMP:  61; 6HR MAX TEMP:  76;                                

IOWA CITY      MOSUNNY   77  56  48 S23G36    29.70F                  
6HR MIN TEMP:  59; 6HR MAX TEMP:  77;                                

MT. PLEASANT * MOSUNNY   75  63  64 S21G32    29.71                   
MUSCATINE *    MOSUNNY   77  57  50 S22G29    29.71                   
QUAD CITIES    SUNNY     76  56  49 S20G29    29.75F                  
6HR MIN TEMP:  62; 6HR MAX TEMP:  76;                                

$$
 
IAZ062-063-075>077-085>089-095>099-231900-
   SOUTHEAST IOWA
  
CITY           SKY/WX    TMP DP  RH WIND       PRES   REMARKS
BURLINGTON     MOSUNNY   72  56  57 S22G31    29.74F                  
6HR MIN TEMP:  61; 6HR MAX TEMP:  74;                                

FAIRFIELD *    SUNNY     75  55  50 S21G29    29.67                   
FORT MADISON * CLOUDY    73  57  56 S17G25    29.73                   
OSKALOOSA *    FAIR      77  64  62 S28       29.63F                  
OTTUMWA        MOSUNNY   75  57  53 S26G36    29.64F                  
6HR MIN TEMP:  63; 6HR MAX TEMP:  76;                                

WASHINGTON *   MOSUNNY   77  59  53 S23G32    29.66                   
$$

ABBREVIATIONS USED IN REMARKS
   TC - TEMPERATURES IN CELSIUS
  WCI - WIND CHILL INDEX
   HX - HEAT INDEX
  VSB - VISIBILITY  
$$

  
