ASUS43 KDMX 232001
RWRIA 

WEATHER ROUNDUP FOR IOWA
NATIONAL WEATHER SERVICE DES MOINES IA
300 PM CDT SUN OCT 23 2022

NOTE: "FAIR" INDICATES FEW OR NO CLOUDS BELOW 12,000 FEET WITH NO
SIGNIFICANT WEATHER AND/OR OBSTRUCTIONS TO VISIBILITY.

* - THESE STATIONS ARE NOT NWS STATIONS...THUS NOT UNDER NWS
QUALITY CONTROL.  THEY ALSO DO NOT REPORT WEATHER SUCH 
AS PRECIPITATION OR FOG.  

IAZ001>003-012>014-020>022-031>034-043>046-232100-
   NORTHWEST IOWA
  
CITY           SKY/WX    TMP DP  RH WIND       PRES   REMARKS
CARROLL *      MOSUNNY   82  57  42 S30G40    29.40F HX  82           
CHEROKEE *     MOSUNNY   82  53  37 S25G33    29.36  HX  81           
DENISON *        N/A    N/A N/A N/A MISG        N/A                   
LE MARS *      MOSUNNY   82  54  36 S25G37    29.29  HX  81           
MAURICE *      FAIR      82  54  36 S32G38    29.29F HX  81           
SIOUX CITY     MOSUNNY   86  55  34 S30G40    29.29F HX  84           
$$
 
IAZ055>058-069>071-079>083-090>094-232100-
   SOUTHWEST IOWA
  
CITY           SKY/WX    TMP DP  RH WIND       PRES   REMARKS
ATLANTIC *     MOSUNNY   82  59  44 S23G36    29.40F HX  82           
AUDUBON *      CLOUDY    82  55  39 S17G29    29.43F HX  82           
CLARINDA *     MOSUNNY   84  57  39 S20G33    29.46  HX  83           
COUNCIL BLFS * SUNNY     86  50  28 S28G39    29.35F HX  84           
CRESTON *      PTSUNNY   82  57  42 S25G36    29.47F HX  82           
HARLAN  *      SUNNY     84  59  42 S28       29.38  HX  84           
LAMONI         LGT RAIN  82  57  42 S22G35    29.53F HX  82           
$$
 
IAZ047>049-059>061-072>074-084-232100-
   CENTRAL IOWA
  
CITY           SKY/WX    TMP DP  RH WIND       PRES   REMARKS
AMES           PTSUNNY   77  58  51 S17G35    29.52S                  
ANKENY *       MOSUNNY   79  57  47 SE16G25   29.51F HX  80           
BOONE *        MOSUNNY   77  59  53 SE23G30   29.51F                  
CHARITON *     MOSUNNY   81  59  47 S23G32    29.53F HX  81           
DES MOINES     PTSUNNY   81  57  43 S28G37    29.50F HX  81           
GRINNELL*      PTSUNNY   76  59  55 SE26G32   29.60S                  
KNOXVILLE *    MOSUNNY   81  57  44 S17G25    29.54F HX  81           
MARSHALLTOWN   CLOUDY    76  56  49 SE29G41   29.55F                  
NEWTON *       SUNNY     77  57  50 S22G32    29.55S                  
PELLA *        MOSUNNY   78  58  49 S15G28    29.57S                  
PERRY *        FAIR      82  56  40 S18G30    29.47F HX  81           
$$
 
IAZ004>006-015-016-023>025-035-036-232100-
   NORTH CENTRAL IOWA
  
CITY           SKY/WX    TMP DP  RH WIND       PRES   REMARKS
ALGONA *       SUNNY     79  59  50 SE29G38   29.44F HX  80           
CLARION *      SUNNY     79  59  50 SE29G40   29.48F HX  80           
ESTHERVILLE    SUNNY     78  55  44 SE33G44   29.41F                  
FORT DODGE *   MOSUNNY   78  56  46 S15G32    29.47S                  
MASON CITY     MOSUNNY   75  55  49 SE29G44   29.53F                  
IOWA FALLS *   FAIR      78  58  49 S24G37    29.55R                  
$$

IAZ007>011-017>019-026>030-037>042-050>054-066-232100-
   NORTHEAST IOWA
  
CITY           SKY/WX    TMP DP  RH WIND       PRES   REMARKS
CEDAR RAPIDS   MOSUNNY   75  56  51 S23G36    29.63F                  
CHARLES CITY * SUNNY     73  55  53 S22G33    29.57                   
CLINTON *      SUNNY     77  58  51 S24       29.72F                  
DECORAH *      SUNNY     75  55  50 SE20G31   29.60                   
DUBUQUE        SUNNY     76  57  51 S25G36    29.69F                  
OELWEIN *      SUNNY     73  55  53 S31       29.63                   
WATERLOO       MOSUNNY   76  56  49 SE21G35   29.57F                  
$$
 
IAZ064-065-067-068-078-232100-
   EAST CENTRAL IOWA
  
CITY           SKY/WX    TMP DP  RH WIND       PRES   REMARKS
DAVENPORT      SUNNY     77  57  50 SE23G35   29.72F                  
IOWA CITY      MOSUNNY   77  57  50 S24G37    29.67S                  
MUSCATINE *    MOSUNNY   75  57  53 S21G32    29.68                   
QUAD CITIES    SUNNY     77  57  50 SE21G31   29.69F                  
$$
 
IAZ062-063-075>077-085>089-095>099-232100-
   SOUTHEAST IOWA
  
CITY           SKY/WX    TMP DP  RH WIND       PRES   REMARKS
BURLINGTON     PTSUNNY   76  58  53 S20G32    29.69F                  
FAIRFIELD *    SUNNY     77  57  50 SE22G30   29.63                   
FORT MADISON * CLOUDY    79  59  50 S13G22    29.68F HX  80           
OSKALOOSA *    FAIR      81  65  59 SE22G29   29.60S HX  82           
OTTUMWA        PTSUNNY   79  58  48 SE22G33   29.59F HX  80           
WASHINGTON *   PTSUNNY   73  61  64 S24G31    29.63                   
$$

ABBREVIATIONS USED IN REMARKS
   TC - TEMPERATURES IN CELSIUS
  WCI - WIND CHILL INDEX
   HX - HEAT INDEX
  VSB - VISIBILITY  
$$

  
