ASCA42 TJSJ 212310
RWRPR 
PUERTO RICO/U.S. VIRGIN ISLANDS HOURLY WEATHER ROUNDUP
NATIONAL WEATHER SERVICE SAN JUAN PR
700 PM AST FRI OCT 21 2022

PRZ001>002-007>008-010-220000-
PUERTO RICO
  
CITY           SKY/WX    TMP DP  RH WIND       PRES   REMARKS
SAN JUAN LMM   PTCLDY    82  73  74 E9        29.90S                  
AGUADILLA      PTCLDY    79  73  83 SE3       29.91S                  
CEIBA          CLEAR     81  72  74 NE8       29.91S                  
$$

VIZ001>002-220000-
U.S. VIRGIN ISLANDS
  
CITY           SKY/WX    TMP DP  RH WIND       PRES   REMARKS
CHARLOTTE AMA  CLEAR     82  72  69 NE9       29.89R                  
CHRISTIANSTED  PTCLDY    82  73  74 NE7       29.89S                  
$$

HOURLY WEATHER ROUNDUP FOR THE NEWS MEDIA
  
CITY           SKY/WX    TMP DP  RH WIND       PRES   REMARKS
ORLANDO        CLEAR     70  49  47 NE10      30.02R                  
NEW YORK       PTCLDY    54  43  66 S7        30.15R                  
NEWARK         CLEAR     59  38  45 SE6       30.13R                  
CHICAGO        PTCLDY    73  37  27 S13       29.67R                  
HARTFORD       CLEAR     50  45  83 CALM      30.15R                  
DALLAS         CLEAR     88  45  22 S15G23    29.79F                  
PHILADELPHIA   CLEAR     57  36  45 S5        30.14R                  
LOS ANGELES    MOSUNNY   70  63  78 W12       29.85F                  
WASHINGTON DC  PTCLDY    56  32  40 SE6       30.11S                  
