ASPQ40 PGUM 220210
RWRPQ 
WEATHER ROUNDUP FOR THE MARIANAS AND MICRONESIA
NATIONAL WEATHER SERVICE TIYAN GU
1200 PM CHST SAT OCT 22 2022

GUZ001>004-220300-
MARIANA ISLANDS-
  
CITY           SKY/WX    TMP DP  RH WIND       PRES   REMARKS
GUAM AIRPORT   MOSUNNY   88  77  70 E15       29.86  HX 100           
ANDERSEN AFB   MOSUNNY   84  75  74 E13       29.86F HX  92           
ROTA AIRPORT   LGT RAIN  82  77  83 E16       29.83F HX  91           
TINIAN AP      MOSUNNY   86  77  74 E14         N/A  HX  97           
SAIPAN AP      MOSUNNY   86  79  79 E14       29.87F HX  99           

$$

PMZ161-220300-
REPUBLIC OF PALAU-
  
CITY           SKY/WX    TMP DP  RH WIND       PRES   REMARKS
KOROR AP       CLOUDY    84  77  79 NE8       29.82F HX  94           
KOROR WSO      NOT AVBL                                               

$$

PMZ171>174-220300-
FEDERATED STATES OF MICRONESIA-
  
CITY           SKY/WX    TMP DP  RH WIND       PRES   REMARKS
YAP AIRPORT    PTSUNNY   86  79  79 VRB3      29.81F HX  99           
CHUUK AP       MOSUNNY   82  77  83 NE10      29.79F HX  91           
POHNPEI AP     CLOUDY    86  79  79 NE12      29.78F HX  99           
POHNPEI WSO    CLOUDY    88  79  74 NE8       29.80F HX 102           
KOSRAE AP      PTSUNNY   88  75  66 NE12      29.75F HX  97           

$$

PMZ181-220300-
REPUBLIC OF THE MARSHALL ISLANDS-
  
CITY           SKY/WX    TMP DP  RH WIND       PRES   REMARKS
KWAJALEIN AP   MOSUNNY   88  75  66 NE13      29.74F HX  97           
MAJURO AP      NOT AVBL                                               
MAJURO WSO     PTSUNNY   81  73  78 SE9       29.75F                  

$$

  
