FTSR31 WSSS 212300 AAA
TAF AMD WSSS 220000Z 2200/2306 30007KT 9999 FEW015 BKN020
TEMPO 2206/2210 3000 TSRA FEW012CB BKN015=
TAF AMD WSAP 220000Z 2200/2306 30007KT 9999 FEW015 BKN020
TEMPO 2206/2210 3000 TSRA FEW012CB BKN015=
TAF AMD WSSL 220000Z 2200/2306 30007KT 9999 FEW015 BKN020
TEMPO 2206/2210 3000 TSRA FEW012CB BKN015=