FTPF21 NTAA 212300
TAF NTAA 212300Z 2200/2306 VRB05KT 9999 FEW020 SCT040 BKN070 PROB30
TEMPO 2200/2302 06015G25KT 3000 SHRA SCT016 BKN040 BECMG 2203/2205
FEW023 TEMPO 2222/2302 06015KT=