FTPA32 KWBC 220000
TAF
TAF NFTV 212306Z 2200/2224 08005KT 9999 -RA FEW008 SCT016 BKN040
      PROB40
      TEMPO 2200/2224 5000 TSRA BKN012 SCT018CB=
