FTPA32 KWBC 212306
TAF
TAF NVVV 212300Z 2200/2224 09014KT 9999 SCT020 BKN040 OVC120
      INTER 2200/2206 9000 -RA SCT020 BKN100=
