FTNV01 NVVV 212304
TAF NVSC 212300Z 2200/2224 10012KT 9999 SCT020 BKN040 OVC100INTER
2200/2206 5000 TSRA SCT005 BKN016 FEW018CB OVC090=
TAF NVSG 212300Z
2200/2224 17005KT 9999 SCT020 BKN040 OVC100
INTER 2200/2206 5000 TSRA
SCT005 BKN016 FEW018CB OVC090=
TAF NVSS 212300Z 2200/2224 17005KT
9999 SCT020 BKN040 OVC100
INTER 2200/2206 7000 RA SCT008 BKN018
OVC098=
TAF NVSP 212300Z 2200/2224 08006KT 9999 SCT020 BKN040 OVC100
INTER 2200/2206 8000 SHRA FEW008 BKN018=
TAF NVSL 212300Z 2200/2224
07006KT 9999 SCT020 BKN040 OVC100
INTER 2200/2206 8000 SHRA FEW008
BKN018=
TAF NVVV 212300Z 2200/2224 09014KT 9999 SCT020 BKN040 OVC120
INTER 2200/2206 9000 -RA SCT020 BKN100=
TAF NVVW 212300Z 2200/2224
13012KT 9999 SCT020 BKN040 OVC120
INTER 2200/2206 -RA SCT020 BKN100=
TAF NVVA 212300Z 2200/2224 09010KT 9999 SCT020 BKN040 OVC120
INTER
2200/2206 9000 -RA SCT020 BKN100=