FTSR31 WSSS 212300
TAF WSSS 212300Z 2200/2306 30007KT 9999 FEW015 BKN020
TEMPO 2200/2203 3000 TSRA FEW012CB BKN015=
TAF WSAP 212300Z 2200/2306 30007KT 9999 FEW015 BKN020
TEMPO 2200/2203 3000 TSRA FEW012CB BKN015=
TAF WSSL 212300Z 2200/2306 30007KT 9999 FEW015 BKN020
TEMPO 2200/2203 3000 TSRA FEW012CB BKN015=
TAF WAAA 212300Z 2200/2306 29006KT 9999 SCT019 
TEMPO 2206/2210 5000 TSRA FEW018CB 
BECMG 2210/2212 11003KT=
TAF WABB 212300Z 2200/2306 03005KT 9999 SCT018
TEMPO 2200/2204 5000 RA=
TAF WADD 212300Z 2200/2300 VRB05KT 9999 SCT016
TEMPO 2220/2300 -RA FEW015CB=
TAF WARR 212300Z 2200/2300 26005KT 5000 HZ FEW020
BECMG 2201/2203 07010KT 9999 NSW
PROB40 TEMPO 2208/2212 4000 TSRA SCT020CB
BECMG 2216/2218 25005KT 4000 HZ=
TAF WIHH 212300Z 2200/2300 15006KT 6000 SCT020
TEMPO 2208/2212 24010KT 3000 -TSRA FEW017CB BKN018
TEMPO 2214/2216 12005KT 4000 -RA SCT018=
TAF WIII 212300Z 2200/2306 24008KT 9000 SCT020
BECMG 2203/2205 33010KT
TEMPO 2208/2211 5000 -TSRA FEW018CB
BECMG 2214/2216 24005KT 5000 HZ=
TAF WIMM 212300Z 2200/2300 VRB05KT 5000 HZ SCT018
BECMG 2202/2204 05010KT 9999 
BECMG 2210/2212 VRB05KT 5000 HZ FEW016CB SCT017
TEMPO 2212/2216 -TSRA=