FTPQ31 PGUM 212331
TAFTPN
TAF
PTPN 212331Z 2200/2224 06011KT P6SM VCSH BKN018 BKN130
     FM220200 06011KT P6SM VCSH SCT018 BKN130 OVC300=
