FTPQ31 PGUM 212331
TAFGUM
TAF
PGUM 212331Z 2200/2306 09012KT P6SM VCSH SCT016 BKN100
     FM221200 12012KT P6SM -RA SCT016 BKN040 OVC120=
