FTPQ31 PGUM 212331
TAFGWT
TAF
PGWT 212331Z 2200/2224 10011KT P6SM VCSH SCT017 SCT050 BKN120=
