FTPQ31 PGUM 212331
TAFGRO
TAF
PGRO 212331Z 2200/2224 10011KT P6SM VCSH SCT018 BKN120=
