FTPA32 KWBC 220106
TAF
TAF AMD NFFN 220057Z 2201/2224 21010KT 9999 SCT028 SCT050
      TEMPO 2203/2206 5000 TSRA FEW018CB
      BECMG 2204/2206 12006KT=
