FTPQ31 PGUM 212331
TAFKWA
TAF
PKWA 212331Z 2200/2224 07011KT P6SM VCSH SCT020=
