SACA33 KWBC 220200 RRB
METAR
TFFF 220230Z AUTO 09006KT 9999 FEW027/// SCT068/// ///CB 26/24
     Q1012=
TFFR 220230Z AUTO 00000KT 9999 FEW024 24/23 Q1012=
