SAUS70 KWBC 212300
METAR
K1S5 212255Z AUTO 22007KT 10SM -RA SCT034 SCT044 OVC060 10/07
     A2971 RMK AO2 P0001 T01020070=
KADS 212247Z 17014G19KT 10SM SKC 31/04 A2980=
KBJC 212245Z 27023G29KT 10SM SCT150 24/M10 A2976=
KCHD 212247Z 26004KT 10SM CLR 31/10 A2982=
KCIC 212247Z 17012KT 10SM CLR 28/04 A2977=
KEMT 212245Z 20008KT 10SM FEW080 27/14 A2983=
KFWS 212249Z 17010G18KT 10SM CLR 31/05 A2982=
KHQZ 212250Z 17012G20KT 10SM CLR 29/06 A2982=
KJXI 212255Z AUTO 17006KT 10SM CLR 28/07 A2986 RMK AO2
     T02810073=
KMCJ 212255Z AUTO 19012G21KT 130V240 10SM CLR 26/14 A2993 RMK
     A01=
KRHV 212247Z 32006KT 10SM SKC 21/12 A2985=
KSEE 212247Z VRB06KT 10SM SKC 24/16 A2985=
KTOA 212247Z 00000KT 10SM FEW015 23/18 A2984=
KBCT 212253Z 35015G20KT 10SM FEW047 24/18 A2994=
KDAG 212250Z AUTO 14003KT 10SM CLR 30/M03 A2983 RMK AO2 SLP078
     T03001028=
KEVB 212247Z 02010G20KT 10SM CLR 20/11 A3003=
KHXD 212250Z 00000KT 10SM CLR 14/08 A3010=
KIFP 212250Z 22008KT 20SM FEW100 32/02 A2977=
KIWA 212250Z VRB04KT 10SM CLR 31/10 A2984=
KJWN 212250Z 17006KT 10SM CLR 22/04 A2995=
KMPV 212251Z AUTO 18006KT 10SM CLR 10/M04 A3010 RMK AO2 SLP201
     T01001039=
KOCF 212251Z 01003KT 10SM CLR 19/03 A3006 RMK AO2 SLP179 T01940028
     PNO $=
KOXC 212251Z 17004KT 10SM CLR 11/00 A3014 RMK AO2 SLP223
     T01060000=
KSLK 212251Z AUTO 00000KT 10SM CLR 04/M01 A3000 RMK AO2 SLP173
     T00441011=
KSQL 212247Z 28010KT 10SM FEW020 19/12 A2987=
KTPL 212251Z AUTO 18017KT 10SM CLR 29/08 A2987 RMK AO2 SLP107
     T02890083=
PAMD 212251Z AUTO 30017KT 10SM CLR 09/00 A2967 RMK AO2 SLP036
     T00940000 PNO $=
K2C8 212255Z AUTO 25010G16KT 10SM OVC100 14/00 A2950 RMK AO2=
KADM 212250Z 17012KT 10SM CLR 31/02 A2974=
KAEG 212250Z 27007G14KT 10SM CLR 22/00 A3001=
KCLK 212255Z AUTO 21021G30KT 10SM CLR 30/M03 A2969 RMK AO2=
KD50 212255Z AUTO 00000KT 5SM BR OVC039 06/04 A2956 RMK AO2=
KFRR 212255Z AUTO 00000KT 10SM CLR 13/M01 A3008 RMK AO1=
KLQK 212255Z AUTO 10SM CLR 15/01 A3009 RMK AO2 T01490008=
KSPA 212255Z AUTO 00000KT 10SM CLR 14/01 A3010 RMK AO2=
KY51 212255Z AUTO 25004KT 10SM CLR 19/04 A2962 RMK AO1
     T01860038=
PABA 212252Z AUTO 10015KT 10SM OVC016 M03/M06 A2991 RMK AO2 SLP134
     T10331056 FZRANO PNO $=
K2J9 212255Z AUTO 03003KT 10SM CLR 17/05 A3009 RMK AO2=
K4R5 212255Z AUTO 27003KT 10SM SCT110 15/05 A2955 RMK AO2
     T01450045=
K8W2 212255Z AUTO 00000KT 10SM CLR 11/00 A3009 RMK AO1
     T01110001=
KACT 212251Z AUTO 19013KT 10SM CLR 29/10 A2985 RMK AO2 SLP101
     T02940100=
KAHN 212251Z 00000KT 10SM CLR 14/00 A3009 RMK AO2 SLP193
     T01440000=
KARV 212255Z AUTO 31004KT 10SM CLR 15/02 A2958 RMK AO2
     T01480023=
KATW 212245Z 26006KT 10SM CLR 17/03 A2957=
KAVX 212251Z AUTO 24003KT 10SM CLR 22/14 A2989 RMK AO2 SLP097
     T02220139=
KBAZ 212251Z 21011KT 10SM CLR 29/09 A2990 RMK AO2 SLP118
     T02890094=
KBED 212251Z 00000KT 10SM CLR 11/03 A3011 RMK AO2 SLP211
     T01060028=
KBGD 212251Z AUTO 22013G20KT 10SM CLR 29/M07 A2971 RMK AO2 SLP020
     T02941072=
KBHK 212251Z AUTO 36015KT 10SM CLR 14/02 A2951 RMK AO2 PK WND
     33027/2200 SLP992 T01440017=
KCCA 212255Z AUTO VRB03KT 7SM CLR 25/08 A2984 RMK AO2=
KCDH 212255Z AUTO 17004KT 8SM CLR 26/12 A2987 RMK AO2=
KCLE 212251Z 18013KT 10SM CLR 17/00 A2990 RMK AO2 SLP139
     T01720000=
KCMH 212251Z 18007KT 10SM SCT250 18/00 A2996 RMK AO2 SLP144
     T01780000=
KCPK 212255Z AUTO 09003KT 13/08 A3013 RMK AO2 T01250075=
KCSG 212251Z 00000KT 10SM CLR 20/01 A3007 RMK AO2 SLP183
     T02000011=
KDAW 212251Z AUTO 17003KT 10SM CLR 11/04 A3012 RMK AO2 SLP198
     T01060039=
