SAUS70 KWBC 220140 RRB
METAR
KTNU 220135Z AUTO 11005KT 10SM CLR 14/02 A2963 RMK A01=
KVAF 220135Z AUTO 18015KT 10SM SCT044 24/13 A3004 RMK A01=
KWBF 220135Z AUTO 00000KT 10SM 23/14 A3009 RMK A01=
K0A0 220135Z AUTO 20009KT 10SM CLR 21/04 A2997 RMK AO2=
K4V0 220135Z AUTO 19008KT 10SM CLR 16/M06 A2982 RMK AO2
     T01581065=
KAEJ 220135Z AUTO 27007KT 10SM 12/M12 A2997 RMK AO2 T01221117=
KARM 220135Z AUTO 16005KT 10SM SCT042 20/14 A3001 RMK AO2
     T02000140 TSNO=
KBKD 220135Z AUTO 18009KT 7SM CLR 26/04 A2980 RMK AO2
     T02580040=
KC83 220135Z AUTO VRB05G15KT 10SM CLR 21/10 A2977 RMK AO2=
KDSF 220135Z AUTO 05007KT 10SM CLR 22/13 A3011 RMK A01=
KEKS 220130Z AUTO 28020G26KT 10SM FEW049 SCT060 OVC070 14/M00
     A2959 RMK AO2=
KF05 220135Z AUTO 21012KT 10SM CLR 26/03 A2973 RMK AO2
     T02570032=
KFLY 220135Z AUTO 31007KT 10SM CLR 11/M11 A2985 RMK AO2
     T01131114=
KFTN 220135Z AUTO 14007KT 10SM CLR 22/12 A2994 RMK A01=
KGOO 220135Z AUTO 00000KT 10SM CLR 19/03 A2987 RMK A01=
KGYI 220135Z AUTO 17014G19KT 10SM CLR 26/07 A2982 RMK AO2
     T02550070 TSNO=
KHHV 220135Z AUTO 17014G23KT 10SM SCT044 24/14 A3001 RMK A01=
KHRX 220135Z AUTO 23015KT 10SM CLR 22/00 A2979 RMK AO2
     T02160000=
KJTC 220130Z AUTO 00000KT 10SM CLR 12/00 A3013 RMK AO2=
KOAR 220135Z AUTO 30005KT 7SM OVC011 03/00 A2988 RMK AO2 PWINO=
KS33 220135Z AUTO 06006KT 10SM -RA SCT005 BKN031 OVC055 09/08
     A2966 RMK AO2 P0001=
KSWW 220135Z AUTO 21011KT 10SM CLR 23/03 A2987 RMK AO2
     T02300030=
KT89 220135Z AUTO 06005KT 10SM CLR 22/09 A2992 RMK A01=
KU68 220135Z AUTO 07010G14KT 10SM OVC110 15/00 A2949 RMK AO2=
K2G2 220135Z AUTO 00000KT 10SM FEW048 11/M01 A3003 RMK A01=
K3I2 220135Z AUTO 00000KT 10SM CLR 08/02 A3006 RMK AO2
     T00810015=
KANW 220135Z AUTO 16005KT 10SM CLR 12/M01 A2956 RMK AO2
     T01161015=
KBAX 220135Z AUTO 20013KT 10SM SCT120 15/04 A2974 RMK AO2
     T01500037=
KBNW 220135Z AUTO 00000KT 7SM CLR 15/M00 A2963 RMK AO2=
KC09 220135Z AUTO 19006KT 10SM CLR 17/05 A2973 RMK AO2
     T01670048=
KC35 220135Z AUTO 00000KT 10SM CLR 11/03 A2966 RMK AO2 T01060033
     PWINO=
KCCY 220135Z AUTO 03005KT 8SM CLR 13/01 A2964 RMK AO2=
KCQM 220136Z AUTO 20003KT 10SM CLR 09/01 A2957 RMK AO2=
KDSF 220135Z AUTO 05007KT 10SM CLR 22/13 A3011 RMK A01=
KEGV 220135Z AUTO 00000KT 10SM CLR 03/01 A2963 RMK AO2
     T00320007=
KGLX 220135Z AUTO 06007G13KT 040V110 10SM CLR 22/13 A3011 RMK
     A01=
KHCD 220135Z AUTO 00000KT 10SM CLR 09/01 A2964 RMK AO2
     T00890007=
KHSB 220135Z AUTO 00000KT 10SM CLR 14/07 A2990 RMK AO2
     T01420073=
KI74 220135Z AUTO 18006KT 10SM CLR 12/01 A2997 RMK AO2=
KIFA 220135Z AUTO 09004KT 10SM CLR 14/01 A2964 RMK AO2
     T01420012=
KIGQ 220135Z AUTO 20011G17KT 10SM CLR 18/04 A2976 RMK AO2
     T01770041=
KJPX 220135Z AUTO 00000KT 10SM CLR 09/07 A3018 RMK AO2
     T00900068=
KMOX 220135Z AUTO 14007KT 10SM CLR 11/M03 A2959 RMK AO2=
KSTE 220135Z AUTO 00000KT 10SM CLR 08/03 A2967 RMK AO2
     T00800025=
KUSE 220135Z AUTO 20010KT 10SM CLR 15/02 A2986 RMK AO2=
KY31 220135Z AUTO 20003KT 10SM CLR 14/04 A2970 RMK AO2
     T01400035=
KY49 220135Z AUTO 00000KT 10SM BKN110 09/00 A2958 RMK AO2
     T00861001=
K05U 220135Z AUTO 23006KT 10SM 14/M12 A2989 RMK A01=
K5T9 220135Z AUTO 13005KT 10SM CLR 20/12 A2990 RMK A01=
KAVQ 220135Z AUTO 27007KT 10SM CLR 28/05 A2984 RMK AO2
     T02780052=
KAXH 220135Z AUTO 00000KT 10SM CLR 20/15 A3001 RMK AO2
     T02000149=
KAZC 220135Z AUTO 10SM CLR 16/M01 A2997 RMK AO2=
KBDN 220135Z AUTO 22011G18KT 10SM SCT060 SCT070 15/07 A2965 RMK
     AO2=
KBPC 220135Z AUTO 22008KT 10SM CLR 19/M03 A2968 RMK AO2=
