SAUS70 KWBC 220140 RRD
METAR
K3F3 220135Z AUTO 16009G15KT 10SM CLR 23/13 A2997 RMK AO2
     T02260131=
K4A9 220135Z AUTO 00000KT 10SM CLR 08/04 A3010 RMK AO2
     T00760044=
K5SM 220135Z AUTO 24012G21KT 10SM CLR 02/M11 A3014 RMK AO2=
K7BM 220135Z AUTO 27003KT 10SM CLR 08/M12 A3004 RMK AO2=
K81R 220135Z AUTO 18007KT 10SM CLR 24/09 A2990 RMK AO2
     T02390086=
K9A5 220135Z AUTO 00000KT 10SM CLR 07/05 A3011 RMK AO2
     T00720054=
KADC 220137Z AUTO 00000KT 10SM CLR 09/01 A2957 RMK AO2 TSNO=
KAHQ 220135Z AUTO 00000KT 7SM CLR 12/02 A2959 RMK AO2
     T01220015=
KASL 220135Z AUTO 00000KT 10SM CLR 20/12 A2989 RMK AO2 T02040116
     TSNO $=
KAUH 220135Z AUTO 00000KT 5SM HZ CLR 12/M02 A2960 RMK AO2
     T01201016=
KBGE 220135Z AUTO 00000KT 10SM CLR 12/05 A3013 RMK AO2
     T01150045=
KBIE 220135Z AUTO 00000KT 7SM CLR 15/01 A2959 RMK AO2
     T01450009=
KBPG 220135Z AUTO 17010KT 10SM CLR 21/06 A2986 RMK AO2
     T02120064=
KBQP 220135Z AUTO 00000KT 10SM CLR 21/12 A2996 RMK AO2
     T02050117=
KBVN 220135Z AUTO 00000KT 7SM CLR 09/M01 A2960 RMK AO2
     T00931013=
KC07 220135Z AUTO 25006KT 10SM CLR 04/M08 A3007 RMK AO2=
KCDD 220135Z AUTO 18003KT 10SM CLR 05/01 A2958 RMK AO2=
KCFD 220135Z AUTO 17010G15KT 10SM CLR 24/12 A2995 RMK AO2
     T02400119=
KCFS 220135Z AUTO 19012G18KT 10SM CLR 18/02 A2975 RMK AO2
     T01810022=
KCKN 220135Z AUTO 22005KT 10SM SCT080 12/M01 A2955 RMK AO2=
KCQF 220135Z AUTO 00000KT 10SM CLR 11/09 A3011 RMK AO2=
KDUC 220135Z AUTO 17007KT 10SM CLR 21/04 A2975 RMK AO2
     T02130040=
KDZJ 220135Z AUTO 00000KT 10SM CLR 07/02 A3015 RMK AO2
     T00690015=
KE42 220135Z AUTO 20010KT 10SM CLR 19/M04 A2969 RMK AO2
     T01911042=
KPEZ 220135Z AUTO 16003KT 10SM CLR 22/11 A2995 RMK AO2
     T02210105=
KPHN 220135Z AUTO 20011G15KT 10SM CLR 15/02 A2982 RMK AO2=
KPMV 220135Z AUTO 11005KT 10SM CLR 19/M01 A2959 RMK AO2
     T01911008=
KPPO 220135Z AUTO 20006KT 10SM CLR 16/07 A2980 RMK AO2
     T01600065=
KPRG 220135Z AUTO 17009KT 10SM CLR 15/04 A2987 RMK AO2
     T01480038=
KPSO 220135Z AUTO 00000KT 10SM CLR 11/M05 A3007 RMK AO2
     T01131046=
KRAS 220135Z AUTO 15013KT 10SM CLR A2999 RMK AO2=
KRPJ 220135Z AUTO 16006KT 10SM CLR 09/05 A2972 RMK AO2 T00910048
     TSNO=
KRSV 220135Z AUTO 00000KT 10SM CLR 13/02 A2989 RMK AO2
     T01330017=
KRVJ 220135Z AUTO 00000KT 10SM CLR 08/03 A3013 RMK AO2
     T00810028=
KRWV 220135Z AUTO 17012G17KT 10SM CLR 23/13 A2994 RMK AO2
     T02320132=
KRYW 220135Z AUTO 18006KT 10SM CLR 24/09 A2994 RMK AO2
     T02350090=
KSAA 220135Z AUTO 21008KT 10SM CLR 11/M11 A2985 RMK AO2=
KSME 220135Z AUTO 19004KT 10SM CLR 14/01 A3003 RMK AO2=
KSTK 220135Z AUTO 20003KT 7SM CLR 14/M04 A2964 RMK AO2=
KSXK 220135Z AUTO 10008KT 8SM SCT022 13/01 A2958 RMK AO2=
KT41 220135Z AUTO 10SM CLR 22/15 A3001 RMK AO2 T02200151=
KT74 220135Z AUTO 17006KT 10SM CLR 21/10 A2992 RMK AO2
     T02100102=
KT82 220135Z AUTO 00000KT 10SM CLR 21/08 A2996 RMK AO2
     T02070079=
KTEX 220135Z AUTO 00000KT 10SM CLR 08/M10 A3013 RMK AO2=
KTYQ 220135Z AUTO 18008KT 10SM CLR 14/02 A2990 RMK AO2
     T01420020=
KVHN 220135Z AUTO 24005KT 10SM CLR 20/07 A3002 RMK AO2
     T02030073=
KVTP 220135Z AUTO 24014G22KT 10SM CLR 06/M09 A3006 RMK AO2=
KVVS 220135Z AUTO 07003KT 10SM CLR 07/00 A3007 RMK AO2
     T00740004=
KVYS 220135Z AUTO 17010KT 10SM CLR 17/04 A2972 RMK AO2
     T01690042=
KZPH 220135Z AUTO 01004KT 10SM CLR 12/06 A3009 RMK A02
     T01200064=
K06C 220135Z AUTO 20011G17KT 10SM CLR 20/08 A2973 RMK AO2
     T01960077=
K0CO 220135Z AUTO 32023G34KT 10SM CLR M01/M12 A3011 RMK AO2=
