SAUS80 KWBC 220216
METAR
KAID 220215Z AUTO 18007KT 10SM CLR 15/M02 A2993 RMK AO2
     T01451017=
KCLI 220215Z AUTO 27003KT 10SM CLR 09/04 A2967 RMK AO2
     T00920039=
KIKW 220215Z AUTO 18005KT 10SM CLR 15/05 A2974 RMK AO2
     T01520048=
KLYV 220215Z AUTO 00000KT 10SM CLR 10/01 A2960 RMK AO2=
KPOV 220215Z AUTO 17005KT 10SM CLR 12/M02 A2999 RMK AO2 T01151020
     PWINO=
KPZQ 220215Z AUTO 21004KT 10SM CLR 15/05 A2966 RMK AO2
     T01530054=
