SAUS80 KWBC 220000 RRB
METAR
KABQ 212352Z 27012KT 10SM FEW090 22/01 A2997 RMK AO2 SLP093
     T02220011 10239 20167 56012=
KALS 212352Z AUTO 24014KT 10SM CLR 16/M06 A2994 RMK AO2 SLP102
     T01611056 10200 20144 56016=
KSPS 212352Z 19015KT 10SM CLR 29/02 A2971 RMK AO2 PK WND
     21028/2305 SLP053 T02940022 10339 20294 56010=
KMBG 212352Z AUTO 16006KT 10SM CLR 14/02 A2948 RMK AO2 SLP985
     T01390017 10200 20139 57007=
KN60 212352Z AUTO 04003KT 09/05 A2952 RMK AO1 SLP007 60001
     T00940050 10117 20094 55007=
KSTC 212353Z 00000KT 10SM CLR 12/02 A2961 RMK AO2 SLP040 T01220022
     10183 20122 53009=
KTCS 212353Z AUTO 20005KT 10SM CLR 25/03 A2995 RMK AO2 SLP078
     T02500028 10261 20200 56015=
KTLH 212353Z AUTO 00000KT 10SM CLR 16/03 A3009 RMK AO2 SLP187
     T01560033 10233 20156 53007=
KTUS 212353Z 26009KT 10SM CLR 31/09 A2989 RMK AO2 SLP079 T03110089
     10328 20283 56009=
PABE 212353Z 23012KT 10SM CLR 05/02 A2991 RMK AO2 SLP129 T00500017
     10050 20006 51014=
PADQ 212353Z 28010KT 10SM FEW050 11/M01 A2995 RMK AO2 SLP142
     T01111006 10111 20050 51006=
PHNL 212353Z VRB06KT 10SM FEW025 SCT040 29/22 A2997 RMK AO2 SLP148
     60000 T02890222 10294 20250 58018=
KRQE 212353Z AUTO 22010G19KT 10SM CLR 18/02 A3005 RMK AO2 SLP115
     T01780017 10200 20178 58015=
KDRA 212353Z AUTO 24013G17KT 10SM CLR 27/M04 A2985 RMK AO2 SLP074
     T02671044 10272 20233 56021=
K6R6 212351Z AUTO 14007KT 24/11 A2991 RMK AO1 SLP105 T02390111
     10278 20239 56012=
KATT 212351Z AUTO 18005KT 10SM CLR 27/09 A2990 RMK AO2 SLP118
     T02670094 10311 20261 56007=
PABE 212353Z 23012KT 10SM CLR 05/02 A2991 RMK AO2 SLP129 T00500017
     10050 20006 51014=
PABT 212353Z 01004KT 10SM FEW010 FEW020 SCT060 BKN210 M02/M04
     A2982 RMK AO2 SLP113 4/006 T10171039 11017 21039 51010=
PACD 212353Z 25006KT 10SM CLR 08/04 A3011 RMK AO2 SLP197 60000
     T00780039 10078 20050 58010=
PADQ 212353Z 28010KT 10SM FEW050 11/M01 A2995 RMK AO2 SLP142
     T01111006 10111 20050 51006=
PAFA 212353Z 25007KT 4SM -SN BR BKN032 OVC045 02/M01 A2982 RMK AO2
     SLP108 P0000 60003 T00171006 10017 20011 53018=
PAHO 212353Z 26014G22KT 10SM CLR 08/01 A2987 RMK AO2 SLP115
     T00830006 10089 20061 51012=
PANC 212353Z 29004KT 10SM FEW005 FEW065 03/02 A2984 RMK AO2 SLP108
     T00280022 10028 20017 53012=
PANN 212353Z AUTO 00000KT 6SM -RA BR BKN003 OVC027 01/00 A2983 RMK
     AO2 UPB2259E17RAB38SNE2259B01E14 SLP112 P0001 60006 T00060000
     10006 21006 51014 TSNO=
PAOM 212353Z 20008KT 10SM FEW033 SCT041 BKN050 03/01 A2967 RMK AO2
     SLP046 60004 T00330011 10044 20017 51010=
PAOR 212353Z 31010G15KT 3SM -SN BR SCT008 OVC028 00/M01 A2967 RMK
     AO2 SLP077 4/006 P0000 60000 I6001 T00001011 10000 21022
     52017 $=
PAOT 212353Z 14009KT 10SM OVC004 00/00 A2969 RMK AO2 SLP053
     T00000000 10000 21006 51011=
PASN 212353Z AUTO 23011KT 10SM CLR 07/03 A2995 RMK AO2 SLP142
     T00720028 10072 20039 58006 TSNO=
PHNL 212353Z VRB06KT 10SM FEW025 SCT040 29/22 A2997 RMK AO2 SLP148
     60000 T02890222 10294 20250 58018=
PHTO 212353Z 12011KT 10SM FEW024 BKN060 OVC075 28/23 A2997 RMK AO2
     RAB33E44 SLP146 P0000 60000 T02830228 10294 20244 58023=
PHKO 212353Z 28011KT 10SM FEW060 31/21 A2994 RMK AO2 SLP137
     T03060211 10322 20278 58023=
PHLI 212353Z 17011KT 10SM CLR 29/23 A2998 RMK AO2 RAB2256E06
     SLP148 P0000 60000 T02890228 10294 20256 58015=
PHJR 212353Z 14007KT 10SM CLR 29/22 A2999 RMK AO2 SLP160 60000
     T02940217 10306 20239 58019=
KBDR 212352Z 19008KT 10SM CLR 13/07 A3015 RMK AO2 SLP209 T01330067
     10167 20117 53011=
