SAUS70 KWBC 220100 RRL
METAR
KEVW 220053Z AUTO 25013KT 10SM CLR 12/M09 A2988 RMK AO2 PK WND
     25027/0006 SLP068 T01221089=
KFUL 220053Z 21006KT 10SM CLR 22/17 A2982 RMK AO2 SLP096
     T02170167=
KGEY 220053Z AUTO 28003KT 10SM CLR 17/M03 A2947 RMK AO2 SLP967
     T01671033=
KL18 220055Z AUTO 22005KT 10SM CLR 19/17 A2986 RMK AO2=
KOMK 220053Z AUTO 36007KT 10SM OVC080 09/06 A2962 RMK AO2 SLP035
     T00940056=
KPAE 220053Z 02004KT 2SM -RA BR OVC006 08/07 A2972 RMK AO2 SLP065
     P0010 T00780067=
KTVL 220053Z AUTO VRB06G17KT 10SM CLR 16/M04 A3000 RMK AO2 SLP131
     T01561039=
KVEL 220053Z AUTO 26011KT 10SM CLR 19/M11 A2980 RMK AO2 SLP058
     T01941111=
KVGT 220053Z 18007KT 10SM CLR 29/M01 A2977 RMK AO2 SLP080
     T02891011=
KWRL 220053Z AUTO 12007KT 10SM CLR 13/M05 A2949 RMK AO2 SLP979
     T01331050=
K2DP 220055Z AUTO 01005KT 10SM CLR 10/10 A3012 RMK AO2 SLPNO
     T01010101 $=
KTTS 220055Z AUTO 34005KT 10SM CLR 17/13 A3003 RMK AO2 SLP173
     T01710134 $=
KTDR 220055Z AUTO 00000KT 10SM CLR 14/06 A3007 RMK AO2 SLP186
     T01410064 $=
KTOI 220053Z AUTO 00000KT 10SM CLR 11/07 A3012 RMK AO2 SLP198
     T01110072=
KTTS 220055Z AUTO 34005KT 10SM CLR 17/13 A3003 RMK AO2 SLP173
     T01710134 $=
K6L4 220055Z AUTO 17003KT 10SM CLR 13/00 A3006 RMK AO2=
KADG 220053Z AUTO 22011KT 10SM CLR 16/03 A2984 RMK AO2 SLP110
     T01610028=
KAMW 220053Z AUTO 00000KT 5SM HZ CLR 11/01 A2962 RMK AO2 SLP032
     T01060006=
KARB 220053Z AUTO 20007KT 10SM CLR 15/03 A2982 RMK AO2 SLP102
     T01500028=
KASX 220053Z AUTO 21004KT 10SM CLR 04/03 A2960 RMK AO2 SLP029
     T00440028=
KBDE 220053Z AUTO 18005KT 10SM FEW120 11/00 A2952 RMK AO2 SLP004
     T01060000=
KBGM 220053Z AUTO 20007KT 10SM CLR 09/M04 A3008 RMK AO2 SLP196
     T00891039=
KLSE 220053Z 00000KT 10SM CLR 11/04 A2963 RMK AO2 SLP035 T01110039
     $=
KMBS 220053Z 18011KT 10SM CLR 16/04 A2973 RMK AO2 SLP069
     T01610044=
KMIC 220053Z 00000KT 10SM CLR 10/02 A2962 RMK AO2 SLP032
     T01000022=
KMPO 220053Z AUTO 00000KT 10SM CLR 04/M01 A3013 RMK AO2 SLP216
     T00441011=
KPCZ 220055Z AUTO 00000KT 10SM CLR 13/03 A2963 RMK AO2
     T01250032=
KPIR 220053Z AUTO 12011KT 10SM CLR 15/02 A2948 RMK AO2 SLP980
     T01500017=
KSTP 220053Z 00000KT 10SM CLR 12/03 A2963 RMK AO2 SLP034
     T01170028=
KBLH 220052Z AUTO 15005KT 10SM CLR 31/08 A2974 RMK AO2 SLP066
     T03110083 TSNO=
KEPH 220053Z AUTO 34005KT 10SM CLR 11/06 A2961 RMK AO2 SLP025
     T01060061 $=
KFHR 220053Z AUTO 00000KT 6SM -RA BR OVC042 09/08 A2972 RMK AO2
     SLP064 P0004 T00890083=
KUAO 220053Z 10003KT 2SM -RA BR BKN003 OVC012 09/09 A2971 RMK AO2
     RAB04 SLP061 P0002 T00940089=
KVCB 220053Z AUTO 20010G18KT 9SM CLR 21/11 A2974 RMK AO2 SLP070
     T02060106=
KVUO 220053Z AUTO 13005KT 7SM -RA SCT007 BKN013 OVC042 10/08 A2972
     RMK AO2 RAE37B45 SLP063 P0004 T01000083=
KWVI 220053Z AUTO 22005KT 10SM OVC011 13/11 A2988 RMK AO2 SLP119
     T01330111=
KDYR 220056Z AUTO 16004KT 10SM CLR 20/11 A2992 RMK AO2 SLP138
     T02000106=
KEDJ 220055Z AUTO 18008KT 10SM CLR 14/01 A2995 RMK A01=
KEEN 220056Z AUTO 00000KT 10SM CLR 03/02 A3014 RMK AO2 SLP215
     T00330017 $=
KEFK 220055Z AUTO 00000KT 10SM CLR 09/M02 A3008 RMK AO2
     T00851024=
KEGE 220056Z 27006KT 10SM CLR 14/M10 A2992 RMK AO2 SLP051
     T01441100=
KEHR 220056Z AUTO 15006KT 10SM CLR 17/03 A2991 RMK AO2 SLP129
     T01670028=
KEKQ 220056Z AUTO 17007KT 10SM CLR 14/01 A3007 RMK AO2 SLP179
     T01390011=
KESC 220056Z AUTO 28003KT 10SM CLR 11/10 A2960 RMK AO2 SLP030
     T01060100 PNO $=
