SAUS70 KWBC 220100 RRI
METAR
K3D2 220055Z AUTO 00000KT 10SM CLR 11/07 A2960 RMK AO2
     T01050074=
K4S2 220055Z AUTO 00000KT 10SM -RA SCT023 OVC070 08/07 A2970 RMK
     AO2 P0005=
K6L4 220055Z AUTO 17003KT 10SM CLR 13/00 A3006 RMK AO2=
K6S2 220055Z AUTO 21012G23KT 4SM -RA BR BKN003 OVC009 12/12 A2977
     RMK AO2 P0003=
KABR 220053Z AUTO 15007KT 10SM CLR 07/M01 A2956 RMK AO2 SLP015
     T00721006=
KACV 220053Z AUTO 21004KT 10SM OVC023 15/10 A2992 RMK AO2 SLP138
     T01500100=
KADG 220053Z AUTO 22011KT 10SM CLR 16/03 A2984 RMK AO2 SLP110
     T01610028=
KAGC 220053Z AUTO 20004KT 10SM CLR 13/M02 A3004 RMK AO2 SLP179
     T01281017=
KAGS 220053Z 00000KT 10SM CLR 08/04 A3012 RMK AO2 SLP200
     T00830039=
KALW 220053Z 18012KT 10SM -RA HZ OVC055 08/06 A2968 RMK AO2 SLP051
     P0006 T00780061=
KAMW 220053Z AUTO 00000KT 5SM HZ CLR 11/01 A2962 RMK AO2 SLP032
     T01060006=
KANB 220053Z AUTO 00000KT 10SM CLR 11/07 A3010 RMK AO2 SLP198
     T01060067=
KAPF 220053Z AUTO 36004KT 10SM OVC060 22/16 A3000 RMK AO2 SLP158
     T02220161 PWINO $=
KARB 220053Z AUTO 20007KT 10SM CLR 15/03 A2982 RMK AO2 SLP102
     T01500028=
KASX 220053Z AUTO 21004KT 10SM CLR 04/03 A2960 RMK AO2 SLP029
     T00440028=
KATY 220053Z AUTO 00000KT 10SM CLR 11/00 A2958 RMK AO2 SLP022
     T01060000=
KAWM 220053Z AUTO 16004KT 10SM CLR 18/10 A2989 RMK AO2 SLP121
     T01780100=
KAXN 220053Z AUTO 15005KT 10SM CLR 10/01 A2961 RMK AO2 SLP032
     T01000011=
KBCE 220053Z AUTO 24010KT 10SM CLR 12/M06 A3004 RMK AO2 SLP113
     T01171056=
KBDE 220053Z AUTO 18005KT 10SM FEW120 11/00 A2952 RMK AO2 SLP004
     T01060000=
KBFI 220053Z 17005KT 4SM -RA BR FU BKN012 OVC019 09/07 A2972 RMK
     AO2 SLP063 P0003 T00890072=
KBGM 220053Z AUTO 20007KT 10SM CLR 09/M04 A3008 RMK AO2 SLP196
     T00891039=
KBHM 220053Z 15004KT 10SM CLR 17/05 A3010 RMK AO2 SLP189
     T01720050=
KBKE 220053Z AUTO 10008KT 10SM OVC055 09/05 A2963 RMK AO2 RAE16
     SLP042 P0000 T00940050=
KBKL 220053Z 16013KT 10SM CLR 16/01 A2992 RMK AO2 SLP132
     T01610011=
KBKV 220053Z 31007KT 10SM CLR 16/11 A3008 RMK AO2 SLP185
     T01560106=
KBLI 220053Z 18005KT 5SM -RA BR BKN009 OVC013 09/09 A2971 RMK AO2
     SLP066 P0002 T00940094=
KJFX 220055Z AUTO 00000KT 9SM CLR 12/11 A3005 RMK AO2=
KJSO 220055Z AUTO 20007KT 10SM CLR 24/11 A2994 RMK AO2 T02370109
     TSNO=
KL18 220055Z AUTO 22005KT 10SM CLR 19/17 A2986 RMK AO2=
KLEE 220053Z AUTO 04009KT 10SM CLR 18/09 A3009 RMK AO2 SLP187
     T01780094=
KLGB 220053Z 19006KT 10SM CLR 22/17 A2983 RMK AO2 SLP101
     T02170167=
KLLQ 220053Z AUTO 18003KT 10SM CLR 21/11 A2991 RMK AO2 SLP128
     T02060111=
KLMT 220053Z 28013KT 10SM BKN100 16/06 A2982 RMK AO2 SLP084
     T01560061=
KLNS 220053Z 17003KT 10SM CLR 11/01 A3014 RMK AO2 SLP207
     T01060006=
KLOL 220053Z AUTO 26013KT 10SM CLR 23/M05 A2977 RMK AO2 SLPNO
     T02331050 $=
KLPR 220053Z AUTO 19014KT 10SM CLR 15/02 A2993 RMK AO2 SLP136
     T01500017=
KLSE 220053Z 00000KT 10SM CLR 11/04 A2963 RMK AO2 SLP035 T01110039
     $=
KLVK 220053Z 29010KT 10SM CLR 18/11 A2981 RMK AO2 SLP092
     T01780111=
KLVM 220053Z AUTO 28014KT 10SM FEW060 OVC075 17/00 A2948 RMK AO2
     SLP949 T01670000=
KMAE 220053Z AUTO 00000KT 10SM SCT110 28/09 A2977 RMK AO2 SLP078
     T02830089=
KMBS 220053Z 18011KT 10SM CLR 16/04 A2973 RMK AO2 SLP069
     T01610044=
KMCE 220053Z AUTO 00000KT 10SM CLR 30/06 A2975 RMK AO2 SLP074
     T03000056=
KMCO 220053Z 36008KT 10SM CLR 18/09 A3007 RMK AO2 SLP179
     T01830094=
KMFR 220053Z 30008G17KT 10SM BKN060 OVC100 21/10 A2979 RMK AO2
     SLP082 T02060100=
