SAUS70 KWBC 212318 RRA
METAR
KFGN 212315Z AUTO 00000KT 10SM CLR 13/M02 A2949 RMK AO2=
KFGX 212315Z AUTO 20004KT 10SM CLR 16/00 A3000 RMK AO2
     T01560000=
KFKA 212315Z AUTO 32003KT 7SM CLR 18/02 A2964 RMK AO2
     T01750015=
KFKN 212315Z AUTO 00000KT 10SM CLR 10/06 A3014 RMK AO2
     T01000058=
KFKS 212315Z AUTO 20010G23KT 10SM CLR 16/05 A2960 RMK AO2
     T01580051=
KFPK 212315Z AUTO 19006KT 10SM CLR 16/04 A2974 RMK AO2
     T01570040=
KFSO 212315Z AUTO 18009G14KT 10SM CLR 13/M03 A3002 RMK AO2
     T01321033=
KFVX 212315Z AUTO 00000KT 10SM CLR 11/00 A3011 RMK AO2
     T01140004=
KFWB 212315Z AUTO VRB04KT 10SM CLR 25/01 A2979 RMK AO2=
KGLY 212315Z AUTO 18006KT 9SM CLR 26/03 A2968 RMK AO2=
KGWR 212315Z AUTO 16005KT 6SM HZ CLR 14/01 A2955 RMK A01=
KHAF 212315Z AUTO 15008KT 5SM BR OVC011 14/13 A2989 RMK AO2=
KHAI 212315Z AUTO 19008KT 10SM CLR 19/03 A2976 RMK AO2
     T01860033=
KHRJ 212315Z AUTO 02003KT 10SM CLR 12/06 A3013 RMK AO2
     T01210063=
KHWY 212315Z AUTO 13004KT 10SM CLR 09/01 A3016 RMK AO2
     T00870007=
KHYW 212315Z AUTO 00000KT 10SM CLR 11/09 A3011 RMK AO2=
KHZE 212315Z AUTO 09004KT 10SM SCT065 BKN095 12/04 A2951 RMK
     AO2=
KHZL 212315Z AUTO 00000KT 10SM CLR 08/M01 A3013 RMK AO2=
KI23 212315Z AUTO 17006KT 10SM CLR 13/M01 A2996 RMK AO1=
KI67 212315Z AUTO 00000KT 10SM CLR 18/00 A2994 RMK AO1=
KI68 212315Z AUTO 19007KT 10SM CLR 16/01 A2995 RMK AO1
     T01610009=
KIDI 212315Z AUTO 00000KT 10SM SCT055 10/02 A3006 RMK A01=
KINF 212315Z AUTO 00000KT 5SM HZ CLR 16/07 A3005 RMK AO2=
KIOB 212315Z AUTO 19006KT 10SM CLR 16/01 A3002 RMK AO2 PWINO=
KIRS 212315Z AUTO 21011KT 10SM CLR 18/01 A2977 RMK AO2
     T01800010=
KISQ 212315Z AUTO 21004KT 10SM CLR 09/07 A2957 RMK AO2
     T00850074=
KJFZ 212315Z AUTO 20004KT 10SM CLR 13/00 A3010 RMK AO2
     T01271001=
KJYM 212315Z AUTO 19006KT 10SM CLR 17/00 A2979 RMK AO2
     T01730002=
KJZI 212315Z AUTO 00000KT 10SM CLR 15/09 A3010 RMK AO2=
KKY8 212315Z AUTO 15004KT 10SM CLR 19/05 A2992 RMK A01=
KL08 212315Z AUTO 14007KT 10SM CLR 32/05 A2976 RMK AO2=
KL35 212315Z AUTO 03006KT 10SM CLR 17/M02 A3011 RMK AO2=
KL52 212315Z AUTO 28008KT 6SM HZ SCT013 17/14 A2990 RMK A01=
KLBO 212315Z AUTO 17006KT 10SM CLR 24/M04 A2978 RMK AO2=
KLKR 212315Z AUTO 00000KT 10SM CLR 12/04 A3011 RMK AO2=
KLKU 212315Z AUTO 00000KT 10SM CLR 06/05 A3013 RMK AO2
     T00630045=
KLNP 212315Z AUTO 18004KT 10SM CLR 10/00 A3010 RMK AO2=
KLRO 212315Z AUTO 00000KT 10SM CLR 14/10 A3010 RMK AO2=
KLRU 212315Z AUTO 25018G23KT 10SM CLR 26/04 A2999 RMK AO2
     T02570044=
KLRY 212315Z AUTO 19005KT 10SM CLR 27/02 A2969 RMK AO2=
KLUX 212315Z AUTO 00000KT 10SM CLR 11/02 A3011 RMK AO2=
KLVL 212315Z AUTO 00000KT 10SM CLR 12/06 A3014 RMK AO1
     T01200058=
KLWA 212315Z AUTO 19008KT 10SM SCT120 21/03 A2970 RMK AO2
     T02060025=
KLXL 212315Z AUTO 00000KT 10SM CLR 13/00 A2961 RMK AO2=
KM40 212315Z AUTO 14005KT 10SM CLR 22/12 A2999 RMK AO2=
KMAN 212315Z AUTO 28004KT 10SM CLR 20/03 A2968 RMK A01=
KMAO 212315Z AUTO 00000KT 10SM CLR 12/03 A3011 RMK AO2=
KMBO 212315Z AUTO 00000KT 10SM CLR 24/10 A2997 RMK AO2=
KMCD 212315Z AUTO 25008G16KT 220V280 10SM CLR 13/07 A2959 RMK AO2
     T01250065=
KMDS 212315Z AUTO 15003KT 10SM CLR 17/M00 A2961 RMK AO2=
KMEZ 212315Z AUTO 00000KT 10SM CLR 23/06 A2986 RMK AO2
     T02300061=
KMKJ 212315Z AUTO 00000KT 10SM CLR 09/00 A3014 RMK AO2
     T00941005=
KMTV 212315Z AUTO 00000KT 10SM CLR 09/02 A3014 RMK AO2
     T00900019=
KMWM 212315Z AUTO 00000KT 10SM CLR 15/02 A2962 RMK AO2=
KN38 212315Z AUTO 19010KT 10SM CLR 10/M03 A3003 RMK AO2=
KO22 212315Z AUTO 25007KT 10SM CLR 29/01 A2987 RMK A01=
