SAUS70 KWBC 212300 RRN
METAR
KVCB 212253Z AUTO 20009G17KT 10SM CLR 28/08 A2977 RMK AO2 SLP081
     T02780083=
KVDF 212255Z AUTO 00000KT 10SM CLR 20/07 A3004 RMK AO2=
KVGT 212253Z 13012G16KT 10SM CLR 30/00 A2981 RMK AO2 SLP093
     T03000000=
KVUO 212253Z AUTO 00000KT 2 1/2SM -RA BR FEW009 FEW016 OVC035
     09/08 A2980 RMK AO2 SLP090 P0008 T00940078=
KWVI 212253Z AUTO 23010KT 10SM BKN011 15/11 A2990 RMK AO2 SLP126
     T01500111=
KX60 212255Z AUTO 00000KT 10SM CLR 16/05 A3006 RMK AO2
     T01650052=
KXSA 212255Z AUTO 00000KT 10SM CLR 12/07 A3014 RMK AO2
     T01230066=
KYIP 212253Z 19009KT 10SM CLR 19/03 A2979 RMK AO2 SLP088
     T01890028=
KZZV 212253Z AUTO 17007KT 10SM CLR 14/00 A2999 RMK AO2 SLP156
     T01440000=
K10G 212255Z AUTO 18006KT 10SM CLR 16/M01 A2997 RMK AO2=
