SAUS80 KWBC 220018
METAR
KLYV 220015Z AUTO 00000KT 7SM CLR 12/00 A2963 RMK AO2=
KPOV 220015Z AUTO 00000KT 10SM CLR 11/M02 A2997 RMK AO2 T01091017
     PWINO=
KPZQ 220015Z AUTO 20006KT 10SM CLR 16/06 A2964 RMK AO2
     T01560055=
K40B 220016Z AUTO VRB04KT 06/00 A3003 RMK AO1 SLP178 T00600000
     10112 20040 51007=
KEKX 220015Z AUTO 16004KT 10SM CLR 14/00 A2999 RMK AO2
     T01420003=
KSMS 220015Z AUTO 00000KT 10SM CLR 09/05 A3013 RMK AO2=
KSNC 220015Z AUTO 21004KT 10SM CLR 11/07 A3015 RMK AO2=
KSOW 220015Z AUTO 23014KT 10SM CLR 17/01 A3009 RMK AO2=
KSYN 220015Z AUTO 20003KT 5SM HZ CLR 11/02 A2963 RMK AO2
     T01110019=
KY23 220015Z AUTO 00000KT 10SM CLR 10/05 A2962 RMK AO2
     T01000054=
KM21 220015Z AUTO 13003KT 10SM CLR 18/03 A2994 RMK AO2
     T01750026=
KIKW 220015Z AUTO 17006KT 10SM CLR 17/05 A2970 RMK AO2
     T01710045=
KCLI 220015Z AUTO 28003KT 10SM CLR 12/04 A2963 RMK AO2
     T01190039=
KLYV 220015Z AUTO 00000KT 7SM CLR 12/00 A2963 RMK AO2=
KPOV 220015Z AUTO 00000KT 10SM CLR 11/M02 A2997 RMK AO2 T01091017
     PWINO=
KPZQ 220015Z AUTO 20006KT 10SM CLR 16/06 A2964 RMK AO2
     T01560055=
KGNG 220015Z AUTO 26006G13KT 10SM CLR 18/02 A2970 RMK AO2=
K40U 220015Z AUTO 35003KT 10SM CLR 16/M09 A2982 RMK AO2
     T01641088=
K48A 220015Z AUTO 00000KT 10SM CLR 10/04 A3012 RMK AO2
     T01030038=
KRFI 220015Z AUTO 17003KT 10SM CLR 26/06 A2990 RMK AO2
     T02570063=
KRLD 220015Z AUTO 17006KT 7SM -RA SCT075 OVC085 10/08 A2969 RMK
     AO2 T01020076=
KS39 220015Z AUTO 26007G16KT 6SM HZ FEW028 BKN050 OVC075 15/08
     A2967 RMK AO2=
KSEP 220015Z AUTO 19006KT 10SM SCT120 27/04 A2985 RMK AO2
     T02650038=
KJNX 220015Z AUTO 00000KT 10SM CLR 08/06 A3014 RMK AO2=
K9MN 220015Z AUTO 00000KT 10SM CLR 17/03 A2965 RMK AO1
     T01700025=
KCIR 220015Z AUTO 21004KT 10SM CLR 21/09 A2988 RMK AO2
     T02060086=
KEDU 220020Z AUTO 18007KT 10SM CLR 23/11 A2976 RMK AO1=
KSNC 220015Z AUTO 21004KT 10SM CLR 11/07 A3015 RMK AO2=
KY23 220015Z AUTO 00000KT 10SM CLR 10/05 A2962 RMK AO2
     T01000054=
KMKN 220015Z AUTO 19009KT 10SM CLR 27/06 A2984 RMK AO2
     T02690060=
KPTS 220015Z AUTO 17005KT 10SM CLR 22/05 A2971 RMK AO2 T02220050
     PWINO=
KTKC 220015Z AUTO 00000KT 10SM 13/00 A2962 RMK AO2 T01291001=
KTKV 220015Z AUTO 00000KT 10SM CLR 08/03 A2963 RMK AO2 T00840029
     PWINO=
KVTI 220015Z AUTO 00000KT 7SM CLR 19/00 A2963 RMK AO2
     T01891002=
KSVE 220015Z AUTO 26015G19KT 10SM CLR M19/M51 A2983 RMK AO2=
KSYN 220015Z AUTO 20003KT 5SM HZ CLR 11/02 A2963 RMK AO2
     T01110019=
