SAUS70 KWBC 220100 RRK
METAR
KSJC 220053Z 33008KT 10SM FEW180 BKN250 18/12 A2984 RMK AO2 SLP102
     T01830117=
KSMF 220053Z 18015KT 10SM BKN240 22/12 A2973 RMK AO2 SLP066
     T02220117=
KSMQ 220053Z AUTO 00000KT 10SM CLR 06/03 A3014 RMK AO2 SLP206
     T00610028=
KSNA 220053Z 20009KT 10SM FEW012 FEW020 22/16 A2983 RMK AO2 SLP099
     T02170161=
KSNS 220053Z AUTO 31008KT 8SM OVC013 15/12 A2988 RMK AO2 SLP126
     T01500117 TSNO=
KSPB 220053Z AUTO 16004KT 2 1/2SM -RA BR OVC005 09/09 A2969 RMK
     AO2 CIG 003V008 SLP053 P0005 T00940089=
KSPG 220053Z AUTO 36009KT 10SM CLR 19/11 A3004 RMK AO2 SLP172
     T01890111=
KSRQ 220053Z 01007KT 10SM CLR 18/10 A3003 RMK AO2 SLP168
     T01830100=
KSRR 220055Z AUTO 16007KT 10SM 13/02 A3008 RMK AO2=
KSTP 220053Z 00000KT 10SM CLR 12/03 A2963 RMK AO2 SLP034
     T01170028=
KSTS 220053Z AUTO 18008KT 8SM CLR 14/11 A2984 RMK AO2 SLP097
     T01390106=
KTCL 220053Z 14007KT 10SM CLR 19/12 A3005 RMK AO2 SLP175
     T01940117=
KTDZ 220053Z AUTO 18011KT 10SM CLR 16/03 A2987 RMK AO2 SLP115
     T01610028=
KTHV 220053Z AUTO 00000KT 10SM CLR 04/01 A3013 RMK AO2 SLP209
     T00440011=
KTIW 220053Z 16003KT 5SM -RA BR SCT009 BKN014 OVC023 08/07 A2971
     RMK AO2 SLP060 P0006 T00830067=
KTMB 220053Z 36013KT 10SM OVC075 23/18 A2998 RMK AO2 SLP150
     T02330178=
KTOI 220053Z AUTO 00000KT 10SM CLR 11/07 A3012 RMK AO2 SLP198
     T01110072=
KTPA 220053Z 36008KT 10SM CLR 17/08 A3007 RMK AO2 SLP183
     T01720078=
KTTD 220053Z 11003KT 2 1/2SM BR BKN026 BKN036 OVC048 11/08 A2971
     RMK AO2 RAE48 SLP060 P0005 T01060083=
KTTN 220053Z 00000KT 10SM CLR 11/02 A3015 RMK AO2 SLP204
     T01060017=
KTVC 220053Z 20010G22KT 10SM FEW180 17/04 A2961 RMK AO2 SLP027
     T01720044=
KTVL 220053Z AUTO VRB06G17KT 10SM CLR 16/M04 A3000 RMK AO2 SLP131
     T01561039=
KTVR 220053Z AUTO 17005KT 10SM CLR 21/12 A2997 RMK AO2 SLP155
     T02060117=
KTVY 220055Z AUTO 16009KT 10SM CLR 16/M03 A2976 RMK AO2=
KTWF 220053Z 28004KT 10SM CLR 14/01 A2970 RMK AO2 SLP020
     T01440006=
KBNA 220053Z 16010KT 10SM FEW250 18/03 A3000 RMK AO2 SLP159
     T01830028 $=
KBOI 220053Z 36004KT 10SM BKN110 18/02 A2965 RMK AO2 SLP029
     T01780022=
KBPI 220053Z AUTO 28016KT 10SM CLR 11/M07 A2981 RMK AO2 PK WND
     29029/0010 SLP064 T01061072=
KBPK 220053Z AUTO 19004KT 10SM CLR 19/04 A2983 RMK AO2 SLP099
     T01890044 TSNO=
KBRD 220053Z AUTO 00000KT 8SM CLR 08/01 A2960 RMK AO2 SLP028
     T00830006=
KBUR 220053Z 17009KT 10SM CLR 24/16 A2983 RMK AO2 SLP090
     T02390156=
KBWG 220053Z AUTO 14003KT 10SM CLR 16/02 A2998 RMK AO2 SLP153
     T01560017=
KCCR 220053Z 24009KT 10SM CLR 17/11 A2981 RMK AO2 SLP080
     T01670106=
KCDC 220053Z AUTO 20013KT 10SM CLR 17/M04 A2995 RMK AO2 RAB28E47
     SLP100 P0000 T01721039=
KCDW 220053Z 30003KT 10SM CLR 09/02 A3015 RMK AO2 SLP217
     T00940022=
KCKB 220053Z 00000KT 10SM CLR 09/01 A3006 RMK AO2 SLP180
     T00940011=
KCKI 220055Z AUTO 00000KT 10SM CLR 07/04 A3014 RMK AO2=
KCLM 220053Z AUTO 30006KT 5SM -RA BR OVC008 09/07 A2973 RMK AO2
     SLP070 P0004 T00890072=
KCMX 220053Z AUTO 29005KT 10SM CLR 09/04 A2958 RMK AO2 SLP021
     T00940039=
KCNO 220053Z 24010KT 10SM CLR 24/15 A2983 RMK AO2 SLP099
     T02390150=
KD25 220055Z AUTO 00000KT 10SM CLR 04/02 A2962 RMK AO2
     T00440022=
KDCU 220053Z AUTO 14006KT 10SM CLR 17/08 A3004 RMK AO2 SLP171
     T01670083=
KDET 220053Z 18011KT 9SM CLR 17/03 A2983 RMK AO2 SLP101
     T01720033=
KDEW 220053Z AUTO 15006KT 10SM FEW003 OVC032 04/03 A2965 RMK AO2
     SLP048 T00390033=
KDFI 220053Z AUTO 19010KT 10SM CLR 17/03 A2986 RMK AO2 SLP112
     T01670028=
