SAUS80 KWBC 220102
METAR
KSFY 220102Z AUTO 16005KT 10SM CLR 14/03 A2966 RMK AO2=
K77S 220115Z AUTO 22009KT 10SM BKN015 OVC023 15/15 A2974 RMK
     A01=
KSFY 220102Z AUTO 16005KT 10SM CLR 14/03 A2966 RMK AO2=
