SAUS70 KWBC 212300 RRD
METAR
KRUT 212256Z AUTO 11009KT 10SM CLR 09/M02 A3008 RMK AO2 SLP187
     T00891017 $=
KS24 212255Z AUTO 19009KT 10SM CLR 18/02 A2987 RMK AO2=
KSFZ 212256Z AUTO VRB03KT 10SM CLR 12/06 A3014 RMK AO2 SLP209
     T01170056=
KSGH 212256Z AUTO 19005KT 10SM CLR 17/01 A2994 RMK AO2 SLP142
     T01670006=
KSLH 212255Z AUTO 25005KT 10SM CLR 17/06 A2957 RMK AO2=
KSLO 212255Z AUTO 16007KT 10SM CLR 23/03 A2983 RMK AO2
     T02270025=
KSUE 212256Z AUTO 16003KT 10SM CLR 17/05 A2958 RMK AO2 SLP016
     T01720050=
KTNU 212255Z AUTO 25004KT 10SM CLR 24/01 A2959 RMK A01=
KTTF 212255Z AUTO 19006KT 10SM CLR 18/02 A2980 RMK AO2
     T01750018=
KTVF 212256Z AUTO 25007KT 10SM CLR 14/00 A2955 RMK AO2 SLP011
     T01390000=
KULM 212255Z AUTO 00000KT 10SM CLR 17/00 A2962 RMK AO2=
KVLL 212255Z AUTO 18005KT 10SM CLR 18/01 A2980 RMK AO2
     T01800007=
KVWU 212255Z AUTO 23003KT 10SM CLR 13/03 A2954 RMK AO2=
KWVL 212256Z AUTO 19003KT 10SM CLR 09/02 A3010 RMK AO2 SLP221
     T00890017=
KWWD 212256Z AUTO 00000KT 10SM 12/08 A3016 RMK AO2 SLP213
     T01170083 $=
KY70 212255Z AUTO 18008KT 10SM CLR 17/03 A2970 RMK AO2
     T01730034=
KYKN 212256Z AUTO 07004KT 10SM CLR 20/02 A2959 RMK AO2 SLP030
     T02000017=
KLBT 212256Z AUTO 00000KT 10SM CLR 13/06 A3010 RMK AO2 SLP194
     T01280056 TSNO=
PAKN 212254Z COR 26015G20KT 10SM BKN024 08/03 A2996 RMK AO2 SLP147
     T00780033=
K0CO 212255Z AUTO 30028G35KT 10SM CLR 02/M15 A3012 RMK AO2=
K13K 212255Z AUTO 17011KT 10SM CLR 28/04 A2965 RMK AO2
     T02780035=
K18A 212255Z AUTO 00000KT 10SM CLR 14/00 A3010 RMK AO2
     T01410005=
K1F0 212255Z AUTO 18009KT 10SM CLR 31/04 A2976 RMK AO2
     T03060037=
K1H2 212255Z AUTO 17009KT 10SM CLR 21/03 A2984 RMK AO2
     T02140030=
K2J3 212255Z AUTO 00000KT 10SM CLR 15/03 A3010 RMK AO2
     T01530028=
K2R9 212255Z AUTO 19012G15KT 10SM CLR 29/11 A2993 RMK AO2
     T02850106=
K2V5 212255Z AUTO 26008KT 10SM CLR 27/M09 A2966 RMK AO2=
K3F3 212255Z AUTO 17013KT 10SM CLR 28/12 A2994 RMK AO2
     T02760115=
K4A9 212255Z AUTO 13005KT 10SM CLR 17/03 A3004 RMK AO2
     T01710030=
K57C 212255Z AUTO 21006KT 10SM CLR 21/04 A2963 RMK AO2
     T02100043=
K5M9 212255Z AUTO 16004KT 10SM CLR 21/05 A2989 RMK AO2
     T02060049=
K5SM 212255Z AUTO 25014G26KT 200V290 10SM CLR 07/M14 A3016 RMK
     AO2=
K7BM 212255Z AUTO 29013G27KT 10SM CLR 12/M15 A3006 RMK AO2=
K81R 212255Z AUTO 18007G18KT 10SM CLR 30/07 A2988 RMK AO2
     T02960071=
K9A5 212255Z AUTO 00000KT 10SM CLR 15/04 A3008 RMK AO2
     T01520039=
KAHQ 212255Z AUTO 13005KT 7SM CLR 22/01 A2958 RMK AO2
     T02240005=
KAND 212256Z AUTO 00000KT 10SM CLR 15/01 A3009 RMK AO2 SLP190
     T01500011=
KASL 212255Z AUTO 00000KT 10SM CLR 28/11 A2985 RMK AO2 T02790105
     TSNO $=
KAUH 212255Z AUTO 00000KT 7SM CLR 23/00 A2960 RMK AO2
     T02251002=
KBBB 212257Z AUTO 00000KT 10SM CLR 16/01 A2961 RMK AO2=
KBGE 212255Z AUTO 08003KT 10SM CLR 19/01 A3008 RMK AO2
     T01930009=
KBIE 212255Z AUTO 00000KT 10SM CLR 25/01 A2959 RMK AO2
     T02510005=
KBJJ 212256Z AUTO 19008KT 10SM CLR 14/02 A2996 RMK AO2 SLP148
     T01440017=
KBPG 212255Z AUTO 23013KT 10SM CLR 28/03 A2986 RMK AO2
     T02800031=
KBVN 212255Z AUTO 12004KT 10SM CLR 23/M01 A2960 RMK AO2
     T02301011=
KC07 212255Z AUTO 27009G22KT 230V300 10SM CLR 08/M09 A3007 RMK
     AO2=
KC35 212255Z AUTO 24003KT 10SM CLR 20/03 A2960 RMK AO2 T02020030
     PWINO=
KCEC 212256Z AUTO 31003KT 6SM HZ OVC024 15/07 A2995 RMK AO2 SLP144
     T01500072=
KHJH 212255Z AUTO 00000KT 10SM CLR 25/01 A2959 RMK AO2
     T02480008=
