SASA41 KWBC 220100 RRA
METAR
SEMT 220100Z 23006KT 9999 OVC013 22/18 Q1014 RMK A2995=
SKBG 220100Z 33004KT 3000 DZ BCFG BKN007 SCT015 21/20 Q1015 RMK
     A2999=
SKPE 220100Z VRB02KT 9999 FEW020 SCT080 20/18 Q1017 RMK A3005=
