SAUS70 KWBC 220118 RRG
METAR
KJYM 220115Z AUTO 18007KT 10SM CLR 15/01 A2983 RMK AO2
     T01500008=
KK70 220115Z AUTO VRB06KT 10SM OVC040 24/21 A2996 RMK AO2=
KLCG 220115Z AUTO 00000KT 7SM CLR 08/M03 A2960 RMK AO2
     T00811029=
KLNA 220115Z AUTO 33007KT 10SM CLR 22/19 A2999 RMK AO2 LTG DSNT N
     T02220189 PNO=
KLNC 220115Z AUTO 17007KT 10SM CLR 25/08 A2985 RMK AO2
     T02500080=
KLNQ 220115Z AUTO 13004KT 10SM CLR 18/13 A3011 RMK AO2
     T01780126=
KLUG 220115Z AUTO 00000KT 10SM CLR 12/07 A3001 RMK A01=
KLVN 220115Z AUTO 00000KT 10SM CLR 11/02 A2963 RMK AO2=
KLWA 220115Z AUTO 20011G20KT 10SM CLR 20/02 A2974 RMK AO2
     T01960022=
KLXL 220115Z AUTO 00000KT 10SM CLR 06/01 A2961 RMK AO2=
KLXY 220115Z AUTO 16005KT 10SM CLR 23/11 A2989 RMK AO2
     T02250105=
KLYO 220115Z AUTO 13004KT 10SM CLR 22/00 A2960 RMK AO2
     T02220005=
KM02 220115Z AUTO 17008KT 9SM 18/08 A2996 RMK A01=
KM04 220115Z AUTO 16003KT 10SM FEW055 20/10 A2991 RMK A01=
KM08 220115Z AUTO 15008KT 10SM FEW055 19/10 A2994 RMK A01=
KM30 220115Z AUTO 00000KT 10SM CLR 16/07 A2991 RMK AO2
     T01550071=
KM54 220110Z AUTO 14006KT 10SM CLR 17/02 A2999 RMK A01=
KPRS 220115Z AUTO 00000KT 10SM CLR 25/12 A2995 RMK AO2
     T02500115=
KPTD 220115Z AUTO 17012G18KT 10SM FEW036 BKN047 13/M03 A2996 RMK
     AO2=
KPUJ 220115Z AUTO 00000KT 7SM CLR 11/03 A3012 RMK AO2=
KPVJ 220115Z AUTO 16003KT 10SM CLR 24/04 A2974 RMK AO2
     T02360041=
KPYX 220115Z AUTO 20007KT 10SM CLR 15/M09 A2966 RMK AO2
     T01511086=
KPZZ 220115Z AUTO 12010G15KT 10SM CLR 23/14 A3008 RMK A01=
KRKR 220115Z AUTO 00000KT 10SM CLR 20/05 A2982 RMK AO2=
KRMY 220115Z AUTO 19009G14KT 10SM CLR 17/03 A2979 RMK AO2
     T01700030=
KRNC 220115Z AUTO 00000KT 10SM CLR 10/03 A3005 RMK A01=
KRNP 220115Z AUTO 19009KT 10SM CLR 17/03 A2976 RMK AO2
     T01710026=
KRRT 220115Z AUTO 24006KT 10SM BKN120 12/03 A2952 RMK AO2=
KRSN 220115Z AUTO 18005KT 10SM CLR 20/13 A2998 RMK AO2
     T02010125=
KRTS 220115Z AUTO 25018G25KT 10SM CLR 19/M06 A2990 RMK AO2=
KRZR 220115Z AUTO 00000KT 10SM CLR 07/04 A3008 RMK A01=
KSAR 220115Z AUTO 17008KT 10SM CLR 20/08 A2986 RMK AO2
     T01970077=
KSCD 220115Z AUTO 00000KT 10SM CLR 11/07 A3010 RMK AO2
     T01100065=
KSCX 220115Z AUTO 19003KT 10SM FEW033 BKN046 11/M00 A3007 RMK
     A01=
KSEM 220115Z AUTO 15004KT 10SM SCT038 BKN046 BKN055 13/10 A3008
     RMK AO2=
KSEZ 220115Z AUTO 21007KT 10SM 20/05 A2999 RMK AO2=
KSJX 220115Z AUTO 23006KT 10SM CLR 11/08 A2963 RMK AO2
     T01060078=
KSLO 220115Z AUTO 16005KT 10SM CLR 19/04 A2986 RMK AO2
     T01880035=
KSNH 220110Z AUTO 17004KT 10SM FEW050 17/11 A2997 RMK A01=
KSRB 220115Z AUTO 15007KT 10SM CLR 14/02 A3006 RMK A01=
KSRE 220115Z AUTO 10SM CLR 25/03 A2975 RMK AO2=
KSWW 220115Z AUTO 22011KT 10SM CLR 23/03 A2987 RMK AO2
     T02320032=
KSYF 220115Z AUTO 14009KT 7SM CLR 13/M05 A2966 RMK AO2 T01331049
     PWINO=
KSYI 220115Z AUTO 14006KT 10SM CLR 16/03 A3003 RMK A01=
KSZT 220115Z AUTO 20004KT 7SM -DZ SCT008 BKN016 OVC028 03/02 A2964
     RMK AO2=
KSZY 220115Z AUTO 17008G15KT 10SM CLR 20/10 A2996 RMK A01=
KT89 220115Z AUTO 11003KT 10SM CLR 24/08 A2992 RMK A01=
KTBX 220115Z AUTO 10SM CLR 13/M10 A2978 RMK AO2=
KC09 220115Z AUTO 18005KT 10SM CLR 17/05 A2973 RMK AO2
     T01720048=
KC83 220115Z AUTO 24012G18KT 10SM CLR 22/10 A2978 RMK AO2=
KCAD 220115Z AUTO 19006KT 10SM CLR 14/04 A2968 RMK AO2
     T01350041=
KCCY 220115Z AUTO 03005KT 7SM CLR 11/00 A2963 RMK AO2=
KCDD 220114Z AUTO 00000KT 10SM CLR 06/02 A2959 RMK AO2=
KCKC 220115Z AUTO 00000KT 10SM CLR 09/02 A2956 RMK AO2=
