SACA45 KWBC 220100
METAR
MGFL NIL=
MGGT 220100Z 02010KT 9999 FEW014 BKN016 19/16 Q1021 A3015=
MGHT NIL=
MHAM NIL=
MHCA NIL=
MHCH NIL=
MHLE NIL=
MHNJ NIL=
MHNO NIL=
MHPL NIL=
MHRO 220100Z 02010KT 9999 SCT020 BKN070 27/22 Q1013 A2992 RERA
     NOSIG=
MHSR NIL=
MHTE NIL=
MHYR NIL=
MNMG NIL=
MNPC NIL=
MPSA NIL=
MRCH NIL=
MSAC NIL=
