SAUS80 KWBC 220100 CCA
METAR
KP53 220056Z AUTO 19007KT 07/05 A2961 RMK AO1 SLP031 T00670050=
KP53 220056Z AUTO 19007KT 07/05 A2961 RMK AO1 SLP031 T00670050=
