SAUS70 KWBC 220100 RRK
METAR
K42J 220055Z AUTO 07004KT 10SM FEW027 BKN035 13/04 A3010 RMK
     A01=
K46D 220055Z AUTO 00000KT 10SM BKN075 OVC085 10/02 A2955 RMK
     AO2=
K4A6 220055Z AUTO 00000KT 10SM BKN043 12/05 A3008 RMK AO2=
K4M9 220055Z AUTO 16005KT 10SM CLR 17/10 A2987 RMK AO2 PWINO=
K5H4 220055Z AUTO 33005KT 10SM OVC065 09/05 A2956 RMK AO2=
K6B9 220055Z AUTO 17009G22KT 140V200 10SM 12/M03 A3002 RMK AO2=
K7L2 220055Z AUTO 10005KT 9SM CLR 12/M01 A2952 RMK AO2=
K7W4 220055Z AUTO 00000KT 10SM CLR 08/04 A3015 RMK AO1
     T00820040=
K82C 220055Z AUTO 00000KT 10SM CLR 10/04 A2964 RMK AO2
     T00980039=
K96D 220055Z AUTO 31010G15KT 9SM -DZ SCT028 OVC039 10/05 A2954 RMK
     AO2=
K9D7 220055Z AUTO 32005KT 9SM BKN044 OVC065 08/06 A2957 RMK AO2
     TSNO=
KACJ 220055Z AUTO 00000KT 10SM CLR 11/03 A3011 RMK AO2
     T01060031=
KAFP 220055Z AUTO 00000KT 10SM CLR 08/02 A3014 RMK AO2
     T00750023=
KAGO 220055Z AUTO 00000KT 10SM CLR 17/13 A2988 RMK A01=
KAIG 220055Z AUTO 25005KT 10SM CLR 09/03 A2965 RMK AO2
     T00910028=
KAIK 220055Z AUTO 00000KT 10SM CLR 10/02 A3013 RMK AO2
     T01000023=
KAKH 220054Z AUTO 00000KT 10SM CLR 08/02 A3013 RMK AO2 SLP207
     T00780022=
KALM 220055Z AUTO 15004KT 10SM CLR 18/06 A2995 RMK AO2=
KANQ 220055Z AUTO 18008KT 10SM FEW036 BKN044 BKN055 16/03 A2983
     RMK AO2=
KAQX 220055Z AUTO 00000KT 10SM CLR 10/02 A3012 RMK AO2=
KARW 220055Z AUTO 00000KT 10SM CLR 12/08 A3013 RMK AO2=
KASJ 220055Z AUTO 00000KT 10SM CLR 07/07 A3016 RMK AO2
     T00680068=
KATA 220055Z AUTO 00000KT 10SM CLR 17/13 A2987 RMK AO2 SLP014
     T01670127 $=
KATS 220055Z AUTO 25007KT 10SM CLR 23/09 A2989 RMK AO2=
KAVC 220055Z AUTO 00000KT 10SM CLR 08/07 A3020 RMK AO2
     T00750070=
K10G 220055Z AUTO 19005KT 10SM CLR 13/M01 A3001 RMK AO2=
K1P1 220055Z AUTO 00000KT 10SM CLR 02/00 A3013 RMK AO2
     T00170004=
K20U 220055Z AUTO 32007KT 10SM BKN060 OVC075 10/04 A2956 RMK
     AO2=
K3D2 220055Z AUTO 00000KT 10SM CLR 11/07 A2960 RMK AO2
     T01050074=
KAGC 220053Z AUTO 20004KT 10SM CLR 13/M02 A3004 RMK AO2 SLP179
     T01281017=
KAXN 220053Z AUTO 15005KT 10SM CLR 10/01 A2961 RMK AO2 SLP032
     T01000011=
KLNS 220053Z 17003KT 10SM CLR 11/01 A3014 RMK AO2 SLP207
     T01060006=
KLPR 220053Z AUTO 19014KT 10SM CLR 15/02 A2993 RMK AO2 SLP136
     T01500017=
KMHE 220053Z AUTO 16004KT 10SM CLR 16/01 A2957 RMK AO2 SLP016
     T01560011=
KMSP 220053Z 00000KT 10SM SCT160 BKN190 BKN250 14/02 A2963 RMK AO2
     SLP033 T01390017=
KPBG 220053Z AUTO 19006KT 10SM CLR 11/M01 A3004 RMK AO2 SLP173
     T01111006=
KPEO 220053Z AUTO 20008KT 10SM CLR 12/M02 A3002 RMK AO2 SLP171
     T01171022=
KTDZ 220053Z AUTO 18011KT 10SM CLR 16/03 A2987 RMK AO2 SLP115
     T01610028=
KTHV 220053Z AUTO 00000KT 10SM CLR 04/01 A3013 RMK AO2 SLP209
     T00440011=
KTTN 220053Z 00000KT 10SM CLR 11/02 A3015 RMK AO2 SLP204
     T01060017=
KTVC 220053Z 20010G22KT 10SM FEW180 17/04 A2961 RMK AO2 SLP027
     T01720044=
KBRO 220053Z 13007KT 10SM CLR 23/16 A2998 RMK AO2 SLP151
     T02280161=
KFLL 220053Z VRB06KT 10SM SCT032 BKN080 23/17 A2997 RMK AO2 SLP149
     T02330172 $=
KJFK 220051Z 20010KT 10SM CLR 14/07 A3016 RMK AO2 SLP214
     T01390067=
KMCO 220053Z 36008KT 10SM CLR 18/09 A3007 RMK AO2 SLP179
     T01830094=
KPBI 220053Z 34010KT 10SM FEW035 BKN045 BKN070 21/18 A2999 RMK AO2
     LTG DSNT NE SLP155 CB DSNT N AND S T02110183 $=
TIST 220053Z 08007KT 10SM CLR 28/23 A2992 RMK AO2 RAB14E25 SLP131
     P0000 T02780233=
KELN 220053Z AUTO 30014KT 10SM BKN110 09/01 A2963 RMK AO2 SLP036
     T00940011=
