SACA41 KWBC 220000 RRA
METAR
MUCL 212350Z AUTO VRB07KT 26/20 Q1014=
