SAUS70 KWBC 220238 RRI
METAR
KUVA 220235Z AUTO 00000KT 10SM CLR 19/11 A2996 RMK AO2
     T01920107=
KUXL 220235Z AUTO 18004KT 10SM CLR 18/15 A3005 RMK AO2
     T01760145=
KVAF 220235Z AUTO 18016KT 10SM SCT044 24/12 A3005 RMK A01=
KVCV 220235Z AUTO 16005KT 10SM CLR 21/09 A2993 RMK AO2=
KVOA 220240Z AUTO 12006KT 10SM SCT050 SCT055 21/10 A3012 RMK
     A01=
KWBF 220235Z AUTO VRB04G12KT 10SM 23/14 A3009 RMK A01=
KWDG 220235Z AUTO 16009KT 10SM CLR 20/02 A2965 RMK AO2=
KX07 220235Z AUTO 00000KT 10SM CLR 16/11 A3008 RMK A01=
KXLL 220235Z AUTO 00000KT 10SM CLR 07/02 A3019 RMK AO2=
KY31 220235Z AUTO 20006KT 10SM CLR 14/04 A2971 RMK AO2
     T01440040=
KY49 220235Z AUTO 00000KT 10SM BKN100 BKN120 09/00 A2958 RMK AO2
     T00910001=
PAAD 220235Z AUTO 10018G23KT 10SM -SN SCT012 BKN033 OVC041 M05/M06
     A2989 RMK AO2 T10471061=
PAUT 220235Z AUTO 17009KT 10SM SCT014 SCT030 OVC075 06/05 A3000
     RMK AO2=
KBTN 220235Z AUTO 17006KT 7SM FEW042 11/M00 A2954 RMK AO2=
KOAR 220235Z AUTO 27008KT 10SM OVC011 03/00 A2988 RMK AO2
     PWINO=
KJAU 220240Z AUTO 00000KT 10SM CLR 05/02 A3015 RMK A01=
KJPX 220235Z AUTO 00000KT 10SM CLR 07/07 A3020 RMK AO2
     T00690069=
KJTC 220235Z AUTO 13005KT 10SM CLR 11/03 A3012 RMK AO2=
KJWG 220235Z AUTO 19010KT 10SM CLR 24/02 A2970 RMK AO2
     T02370023=
KJWN 220235Z AUTO 15004KT 10SM 17/05 A2999 RMK A01=
KJWY 220235Z AUTO 17006KT 10SM CLR 22/09 A2988 RMK AO2
     T02230093=
KJYL 220235Z AUTO 00000KT 10SM CLR 07/05 A3016 RMK AO2
     T00700049=
KK70 220235Z AUTO 34006G15KT 10SM FEW024 SCT043 BKN050 23/20 A2998
     RMK AO2=
KLCG 220235Z AUTO 00000KT 7SM CLR 05/M03 A2958 RMK AO2
     T00541031=
KLNA 220235Z AUTO 33009KT 10SM CLR 22/19 A3001 RMK AO2 LTG DSNT N
     AND NE T02170191 PNO=
KLNC 220235Z AUTO 17008KT 10SM CLR 24/09 A2987 RMK AO2
     T02380089=
KLNQ 220235Z AUTO 14003KT 10SM CLR 17/13 A3012 RMK AO2
     T01710133=
KLUA 220235Z AUTO 00000KT 10SM CLR 05/01 A3016 RMK AO2=
KLUG 220235Z AUTO 16004KT 10SM FEW035 SCT043 SCT050 13/05 A3002
     RMK A01=
KLUX 220235Z AUTO 00000KT 10SM CLR 08/02 A3016 RMK AO2=
KLVN 220235Z AUTO 00000KT 10SM CLR 07/01 A2964 RMK AO2=
KLXY 220235Z AUTO 18012G19KT 10SM CLR 23/10 A2990 RMK AO2
     T02260103=
KLYO 220235Z AUTO 15009KT 10SM CLR 18/00 A2960 RMK AO2
     T01841005=
KM02 220235Z AUTO 19008KT 9SM 17/09 A2998 RMK A01=
KM04 220235Z AUTO 18006KT 10SM FEW050 FEW055 19/10 A2992 RMK
     A01=
KM08 220235Z AUTO 15009G14KT 10SM BKN055 19/11 A2995 RMK A01=
KM30 220235Z AUTO 16004KT 10SM CLR 18/08 A2992 RMK AO2
     T01800081=
KM54 220235Z AUTO 15008G15KT 10SM FEW037 SCT048 BKN055 17/03 A3000
     RMK A01=
KM75 220235Z AUTO 06007KT 8SM OVC025 07/05 A2952 RMK A01=
KM91 220230Z AUTO 16007KT 10SM FEW036 SCT045 SCT050 17/05 A2998
     RMK A01=
KMBT 220235Z AUTO 17007KT 10SM SCT033 BKN038 BKN044 16/03 A3001
     RMK A01=
KMEV 220235Z AUTO 23018KT 10SM FEW044 FEW050 18/M05 A2990 RMK
     AO2=
KMHV 220240Z AUTO 24009G14KT 10SM CLR 23/M01 A2988 RMK A01=
KMIO 220235Z AUTO 16013KT 10SM CLR 22/05 A2974 RMK AO2=
KMMI 220235Z AUTO 00000KT 10SM CLR 06/02 A3013 RMK A01=
KMNE 220235Z AUTO 16004KT 10SM CLR 22/14 A2994 RMK AO2
     T02190144=
KMNV 220235Z AUTO 00000KT 6SM HZ 08/02 A3012 RMK A01=
KMNZ 220235Z AUTO 18011KT 10SM CLR 23/07 A2989 RMK AO2
     T02300071=
KMOP 220235Z AUTO 19005KT 10SM CLR 15/05 A2973 RMK AO2
     T01490045=
KMOR 220235Z AUTO 00000KT 10SM FEW031 FEW038 SCT048 08/02 A3010
     RMK A01=
KMOX 220235Z AUTO 17003KT 10SM CLR 08/M03 A2959 RMK AO2=
KMRC 220235Z AUTO 19009G14KT 10SM CLR 18/09 A3000 RMK A01=
KMUT 220235Z AUTO 00000KT 10SM CLR 12/03 A2969 RMK AO2=
