SAPA32 KWBC 220000
METAR
NCRG 220000Z AUTO 05010KT 9999 SCT015/// SCT020/// BKN027/// 27/23
     Q1014=
NFFN 220000Z 18011KT 9999 -DZ SCT026TCU SCT300 29/21 Q1011
     NOSIG=
NFNA NIL=
NFTF 220000Z 13011KT 9999 FEW009 SCT016 BKN100 24/21 Q1014=
NFTV 220000Z 08003KT 9999 FEW018 BKN100 28/24 Q1012=
NGFU 220000Z 08009KT 9999 FEW018TCU SCT020 31/26 Q1008=
NSFA NIL=
NSTU 212352Z 11011KT 12SM SCT021 BKN100 BKN220 31/26 A2985 RMK
     SLP110 8/178 T03110258 10311 20273 57017=
NTAA NIL=
NWWW 220000Z AUTO 04011KT 360V080 CAVOK 29/15 Q1014 NOSIG=
