SAUS70 KWBC 212300
METAR
KFGN 212255Z AUTO 26003KT 10SM CLR 14/M02 A2949 RMK AO2=
KFSE 212255Z AUTO 21006KT 10SM CLR 12/M01 A2957 RMK AO2=
KFSO 212255Z AUTO 17008KT 10SM CLR 13/M03 A3001 RMK AO2
     T01311028=
KFXE 212253Z 35008KT 10SM BKN050 24/18 A2994 RMK AO2 SLP139
     T02440183 $=
KGCK 212254Z 13007KT 10SM CLR 28/M04 A2964 RMK AO2 SLP017
     T02831044=
KGCN 212254Z 22014G18KT 10SM CLR 18/M01 A3008 RMK AO2 SLP133
     T01831011=
KGED 212254Z AUTO 15004KT 10SM CLR 13/06 A3015 RMK AO2 SLP209
     T01280056=
KGHW 212255Z AUTO 00000KT 7SM CLR 15/00 A2960 RMK AO2=
KGYL 212255Z AUTO 00000KT 7SM CLR 16/02 A2961 RMK AO2
     T01620015=
KHCO 212255Z AUTO 26010KT 10SM BKN110 14/00 A2950 RMK AO2=
KHSA 212250Z 16007KT 10SM CLR 20/08 A3006=
KHZL 212255Z AUTO 00000KT 10SM CLR 10/M02 A3013 RMK AO2=
KI69 212255Z AUTO 19004KT 10SM CLR 19/00 A2997 RMK AO2
     T01871001=
KICT 212253Z 18010KT 10SM BKN240 29/01 A2962 RMK AO2 SLP022
     T02890006=
KILN 212254Z AUTO 20009KT 10SM CLR 16/M01 A2996 RMK AO2 SLP153
     T01611006=
KIML 212253Z AUTO 18012G17KT 10SM CLR 26/M06 A2962 RMK AO2 SLP010
     T02561061=
KIND 212254Z 19011KT 10SM FEW200 BKN250 19/01 A2986 RMK AO2 SLP112
     T01940011=
KIPT 212254Z 17013KT 10SM CLR 14/M02 A3005 RMK AO2 SLP180
     T01441017=
KISW 212254Z AUTO 23005KT 10SM CLR 18/03 A2961 RMK AO2 SLP028
     T01830028=
KJKJ 212255Z AUTO 00000KT 7SM CLR 16/M01 A2956 RMK AO2 TSNO=
KJMR 212255Z AUTO 00000KT 10SM CLR 15/02 A2963 RMK AO2=
KLAF 212254Z 20008G16KT 170V230 10SM CLR 21/02 A2980 RMK AO2
     SLP091 T02110017=
KLDM 212255Z AUTO 20019G27KT 10SM CLR 19/04 A2962 RMK AO2
     T01850041=
KLJF 212255Z AUTO 00000KT 10SM CLR 14/01 A2961 RMK AO2=
KLLJ 212255Z AUTO 25012G23KT 10SM BKN110 17/M05 A2963 RMK AO2
     SLP995 T01721050=
KLNK 212254Z 00000KT 10SM CLR 24/M01 A2959 RMK AO2 SLP014
     T02391006=
KLVS 212253Z AUTO 26015G21KT 10SM CLR 21/M03 A2996 RMK AO2 SLP056
     T02061033=
KLWM 212254Z 14003KT 10SM CLR 12/06 A3014 RMK AO2 SLP205
     T01170056=
KLXT 212253Z AUTO 18012KT 10SM CLR 27/03 A2966 RMK AO2 SLP035
     T02670033=
KROX 212255Z AUTO 23005KT 10SM CLR 14/01 A2949 RMK AO2=
KRST 212254Z 28003KT 10SM CLR 18/02 A2963 RMK AO2 SLP034
     T01780022=
KRZT 212255Z AUTO 19004KT 10SM CLR 17/M02 A2997 RMK AO2 PWINO=
KSAZ 212255Z AUTO 00000KT 10SM 13/M01 A2959 RMK AO2=
KSBY 212254Z 15004KT 10SM CLR 12/06 A3015 RMK AO2 SLP210
     T01220061=
KSET 212254Z AUTO 17010KT 6SM HZ CLR 24/03 A2974 RMK AO2 SLP070
     T02440033 $=
KSGS 212255Z AUTO 27003KT 10SM CLR 19/02 A2959 RMK AO2
     T01850015=
KSLC 212254Z 25009KT 10SM FEW140 SCT240 25/M06 A2978 RMK AO2
     SLP045 T02501061=
KSYM 212255Z AUTO 17003KT 10SM CLR 17/M01 A3002 RMK AO2=
KTAD 212254Z AUTO 15003KT 10SM CLR 24/M11 A2981 RMK AO2 SLP033
     T02441111=
KTEW 212255Z AUTO 15003KT 10SM CLR 19/03 A2975 RMK AO2
     T01900028=
KTQE 212254Z AUTO 36004KT 8SM FEW034 23/04 A2958 RMK AO2 SLP009
     T02330039=
KTRK 212250Z 24013G19KT 10SM CLR 19/M05 A3002=
KTWM 212255Z AUTO 27007KT 10SM CLR 14/02 A2956 RMK AO2=
KUIN 212254Z AUTO 19011KT 10SM CLR 24/02 A2969 RMK AO2 SLP049
     T02390022=
KUKT 212255Z AUTO 00000KT 10SM CLR 10/02 A3012 RMK A01=
KUNO 212253Z AUTO 18008KT 10SM CLR 25/06 A2983 RMK AO2 SLP094
     T02500056=
KVSF 212254Z AUTO 00000KT 10SM CLR 08/02 A3010 RMK AO2 SLP200
     T00780022=
KVTA 212254Z AUTO 18005KT 10SM CLR 17/01 A2996 RMK AO2 SLP148
     T01720006=
KVVV 212255Z 13003KT 10SM 16/02 A2959 RMK AO2=
KWLD 212254Z AUTO 17010KT 10SM CLR 29/02 A2965 RMK AO2 SLP030
     T02940022=
