SAUS70 KWBC 220300
METAR
KADS 220247Z 17011G17KT 10SM SKC 26/07 A2984=
KGAF 220255Z AUTO 31006KT 8SM FEW034 SCT047 11/02 A2957 RMK
     AO2=
KSWF 220245Z 00000KT 10SM SKC 05/02 A3017=
KW63 220255Z AUTO 00000KT 10SM CLR 06/06 A3018 RMK AO1=
