SAUS70 KWBC 212300 RRT
METAR
K4I3 212255Z AUTO 17005KT 10SM CLR 15/00 A2997 RMK AO2=
KALO 212254Z 00000KT 9SM OVC032 22/01 A2960 RMK AO2 SLP024
     T02170011=
KCBG 212255Z AUTO 00000KT 10SM CLR 16/04 A2959 RMK AO2=
KDEC 212254Z 19012G21KT 10SM CLR 22/04 A2978 RMK AO2 SLP083
     T02220039=
KDYL 212254Z AUTO 17004KT 10SM CLR 12/02 A3012 RMK AO2 SLP202
     T01170017=
KEVV 212254Z 18008KT 10SM CLR 21/02 A2989 RMK AO2 SLP120
     T02110022=
KIML 212253Z AUTO 18012G17KT 10SM CLR 26/M06 A2962 RMK AO2 SLP010
     T02561061=
KRST 212254Z 28003KT 10SM CLR 18/02 A2963 RMK AO2 SLP034
     T01780022=
KRZT 212255Z AUTO 19004KT 10SM CLR 17/M02 A2997 RMK AO2 PWINO=
KSAZ 212255Z AUTO 00000KT 10SM 13/M01 A2959 RMK AO2=
KSBY 212254Z 15004KT 10SM CLR 12/06 A3015 RMK AO2 SLP210
     T01220061=
KSGS 212255Z AUTO 27003KT 10SM CLR 19/02 A2959 RMK AO2
     T01850015=
KTQE 212254Z AUTO 36004KT 8SM FEW034 23/04 A2958 RMK AO2 SLP009
     T02330039=
KTWM 212255Z AUTO 27007KT 10SM CLR 14/02 A2956 RMK AO2=
KUKT 212255Z AUTO 00000KT 10SM CLR 10/02 A3012 RMK A01=
KVSF 212254Z AUTO 00000KT 10SM CLR 08/02 A3010 RMK AO2 SLP200
     T00780022=
KVTA 212254Z AUTO 18005KT 10SM CLR 17/01 A2996 RMK AO2 SLP148
     T01720006=
KVVV 212255Z 13003KT 10SM 16/02 A2959 RMK AO2=
KY63 212255Z AUTO 00000KT 10SM CLR 15/01 A2959 RMK AO2
     T01450005=
K21D 212255Z AUTO 32003KT 10SM CLR 17/01 A2961 RMK AO2=
KAMN 212255Z AUTO 17007KT 10SM CLR 17/03 A2970 RMK AO2
     T01700030=
KFSE 212255Z AUTO 21006KT 10SM CLR 12/M01 A2957 RMK AO2=
KGYL 212255Z AUTO 00000KT 7SM CLR 16/02 A2961 RMK AO2
     T01620015=
KILN 212254Z AUTO 20009KT 10SM CLR 16/M01 A2996 RMK AO2 SLP153
     T01611006=
KLUK 212253Z 19007KT 10SM CLR 16/01 A2996 RMK AO2 SLP145
     T01610011=
KMIV 212254Z AUTO 00000KT 10SM CLR 10/04 A3014 RMK AO2 SLP207
     T01000044=
KPHL 212254Z 18004KT 10SM CLR 14/02 A3014 RMK AO2 SLP204
     T01390022=
KPLN 212254Z AUTO 28007KT 10SM CLR 17/05 A2958 RMK AO2 SLP019
     T01670050=
KPNE 212254Z 00000KT 10SM CLR 13/00 A3014 RMK AO2 SLP208
     T01330000=
KPSF 212254Z AUTO 24003KT 10SM CLR 09/M02 A3009 RMK AO2 SLP193
     T00941022=
KPTW 212254Z AUTO 00000KT 10SM CLR 11/02 A3013 RMK AO2 SLP203
     T01060022=
KPWC 212255Z AUTO 00000KT 10SM CLR 14/02 A2962 RMK AO2=
KRDG 212254Z 18004KT 10SM R36/4500VP6000FT CLR 13/00 A3010 RMK AO2
     SLP199 T01330000=
KRGK 212255Z AUTO 00000KT 10SM CLR 17/02 A2959 RMK AO2=
KTTS 212255Z AUTO 01006KT 10SM SCT075 19/12 A2999 RMK AO2 SLP160
     T01930123 $=
K06D 212255Z AUTO 24007KT 10SM FEW022 BKN033 OVC042 09/03 A2953
     RMK AO2=
K5H4 212255Z AUTO 24007KT 10SM FEW060 BKN085 11/08 A2954 RMK
     AO2=
K6B0 212255Z AUTO 15003KT 10SM CLR 10/M02 A3006 RMK AO2
     T00991017=
K7L2 212255Z AUTO 14005KT 10SM BKN120 15/M01 A2952 RMK AO2=
KAKR 212254Z AUTO 18008KT 10SM CLR 16/M01 A2995 RMK AO2 SLP143
     T01611006=
KANQ 212255Z AUTO 20010KT 10SM CLR 19/02 A2979 RMK AO2=
KC29 212255Z AUTO 24006KT 10SM CLR 21/01 A2961 RMK AO1
     T02130012=
KCFJ 212255Z AUTO 19010KT 10SM CLR 18/M01 A2984 RMK AO2
     T01831006=
KD57 212255Z AUTO 09008KT 10SM FEW100 14/M01 A2948 RMK AO2=
KDSV 212254Z AUTO 16005KT 10SM CLR 14/M01 A2998 RMK AO2 SLP164
     T01391011=
KIDI 212255Z AUTO 00000KT 10SM CLR 11/02 A3006 RMK A01=
KJST 212254Z AUTO 16009KT CLR 11/M02 A3005 RMK AO2 SLP184
     T01111022 $=
KMDS 212255Z AUTO 00000KT 10SM CLR 17/00 A2960 RMK AO2=
KOEO 212255Z AUTO 26003KT 10SM CLR 16/05 A2961 RMK AO2
     T01620050=
KRZN 212255Z AUTO 33003KT 10SM CLR 15/01 A2960 RMK AO2
     T01490005=
