SAUS70 KWBC 220124
METAR
KTZR 220115Z AUTO 18005KT 10SM CLR 12/01 A2999 RMK AO2
     T01180005=
KULS 220115Z AUTO 21006KT 10SM CLR 17/M07 A2964 RMK AO2=
KW75 220135Z AUTO 15003KT 10SM CLR 09/06 A3017 RMK AO1
     T00900063=
KWWR 220110Z AUTO 17011KT 10SM CLR 23/M01 A2967 RMK AO2=
KX26 220115Z AUTO 32007KT 10SM SCT090 19/14 A3003 RMK AO2 LTG DSNT
     NE AND E T01930137=
K19S 220115Z AUTO 17006KT 7SM CLR 18/M03 A2966 RMK AO2
     T01811032=
K20V 220115Z AUTO 25014G19KT 10SM CLR 12/M08 A2994 RMK AO2=
K2J5 220115Z AUTO 00000KT 10SM CLR 08/03 A3014 RMK AO2
     T00830034=
KADH 220115Z AUTO 17009KT 10SM CLR 24/06 A2978 RMK AO2=
KADT 220115Z AUTO 18003KT 10SM CLR 17/M05 A2969 RMK AO2
     T01661049=
KANK 220110Z AUTO 25009KT 10SM CLR 14/M12 A3001 RMK AO1
     T01361116=
KBMC 220110Z AUTO 10SM CLR 16/M05 A2972 RMK AO1 T01641046=
KCHK 220110Z AUTO 16009KT 10SM CLR 23/04 A2969 RMK AO2
     T02320038=
KCPC 220115Z AUTO 00000KT 10SM CLR 10/06 A3015 RMK AO2
     T00990061=
KDCY 220115Z AUTO 17008KT 10SM CLR 14/02 A2990 RMK AO2
     T01430022=
KDWX 220110Z AUTO 18014G18KT 10SM CLR 06/M20 A2987 RMK AO2
     T00601198=
KEAN 220110Z AUTO 26009G15KT 10SM CLR 20/M12 A2962 RMK AO2
     T01991118=
KEBS 220115Z AUTO 09005KT 6SM HZ CLR 11/00 A2960 RMK AO2=
KEDC 220115Z AUTO 19006KT 10SM FEW049 23/08 A2991 RMK AO2=
KGLE 220115Z AUTO 17009KT 10SM CLR 23/06 A2981 RMK AO2
     T02290056=
KGNB 220115Z AUTO 25011G15KT 10SM CLR 11/M11 A2997 RMK AO2
     T01071112=
KGNC 220115Z AUTO 20006KT 10SM CLR 21/05 A2992 RMK AO2
     T02080050=
KHBV 220110Z AUTO 14011KT 5SM HZ CLR 23/13 A2996 RMK AO2
     T02290132=
KHEQ 220115Z AUTO 19010KT 10SM CLR 12/M06 A2965 RMK AO2=
KHHW 220114Z AUTO 17006KT 10SM CLR 22/08 A2983 RMK AO2=
KHSG 220110Z AUTO 22013G22KT 10SM CLR 18/M05 A2955 RMK AO2
     T01771053=
KMHP 220115Z AUTO 00000KT 10SM CLR 10/05 A3013 RMK AO2 LTG DSNT SE
     T01000050=
KMPZ 220110Z AUTO 00000KT 10SM CLR 18/07 A2967 RMK AO2=
KMYZ 220110Z AUTO 00000KT 10SM CLR 21/03 A2960 RMK AO2=
KOSA 220110Z AUTO 15005KT 10SM CLR 21/12 A2988 RMK AO2
     T02050118=
KOZA 220115Z AUTO 18009G14KT 10SM CLR 21/07 A2994 RMK AO2=
KPEQ 220115Z AUTO 23007KT 10SM CLR 22/09 A2988 RMK AO2
     T02220092=
KPVW 220110Z AUTO 23007KT 10SM CLR 18/01 A2980 RMK AO2
     T01840010=
KRBW 220115Z AUTO 00000KT 10SM CLR 08/07 A3014 RMK AO2=
KRGA 220119Z AUTO 00000KT 10SM CLR 15/02 A3004 RMK AO2=
KSLR 220110Z AUTO 17008KT 10SM CLR 25/10 A2987 RMK AO2
     T02460096=
KTOC 220115Z AUTO 00000KT 10SM CLR 09/03 A3014 RMK AO2
     T00890030=
KTXW 220110Z AUTO 14011KT 10SM CLR 24/17 A2998 RMK AO2
     T02440166=
KOAR 220115Z AUTO 28006KT 7SM OVC011 03/00 A2988 RMK AO2 PWINO=
KOSC 220115Z AUTO 19007KT 10SM CLR 15/05 A2969 RMK AO2
     T01500051=
KEVM 220121Z AUTO 00000KT 10SM CLR 06/02 A2959 RMK AO2=
KBYL 220115Z AUTO 14005KT 10SM CLR 13/00 A3007 RMK AO1=
KDLL 220135Z AUTO 00000KT 10SM CLR 10/03 A2965 RMK AO2
     T01000027=
KGAF 220135Z AUTO 27005KT 7SM BKN080 11/02 A2955 RMK AO2=
KUKF 220115Z AUTO 01004KT 10SM CLR 06/01 A3020 RMK AO2=
KUYF 220115Z AUTO 18008KT 10SM CLR 09/M01 A2998 RMK AO2=
KW13 220135Z AUTO 10SM CLR 07/00 A3014 RMK AO1 T00660000=
