SAUS70 KWBC 220200
METAR
KSWF 220145Z 00000KT 10SM SKC 08/01 A3015=
KW75 220155Z AUTO 00000KT 10SM CLR 09/07 A3018 RMK AO1
     T00910065=
KANE 220145Z VRB04KT 10SM SCT250 09/03 A2961=
KDLL 220155Z AUTO 00000KT 10SM CLR 09/03 A2965 RMK AO2
     T00940025=
KGAF 220155Z AUTO 23004KT 7SM SCT080 11/01 A2955 RMK AO2=
KGPH 220155Z AUTO 17005KT 10SM CLR 22/02 A2965 RMK AO2=
KMTN 220154Z 00000KT 10SM CLR 07/06 A3018 RMK LAST=
KRYN 220145Z 21004KT 10SM CLR 26/10 A2988=
KW13 220155Z AUTO 10SM CLR 06/00 A3015 RMK AO1 T00620002=
