SAKA31 PTYA 220000
METAR PTYA 212350Z VRB03KT 12SM FEW016 BKN300 30/26 A2982 RMK SLP100
8/101 T02960261 10296 20250 50010=
