SAKA31 PTYA 212300
METAR PTYA 212250Z VRB03KT 12SM FEW016 BKN300 29/26 A2983 RMK SLP101
T02900263=
