SAKA31 PTRO 212300
METAR PTRO 212250Z 07003KT 13SM SCT016CB BKN120 BKN300 26/25 A2981
RMK CB ALQDS=
