SAUS70 KWBC 220000 RRC
METAR
KFKS 212355Z AUTO 20010G22KT 170V230 10SM CLR 16/05 A2962 RMK AO2
     T01600054 10200 20153=
KFOD 212356Z AUTO 04005KT 9SM CLR 17/01 A2962 RMK AO2 SLP045
     T01670011 10239 20167 53006=
KFPK 212355Z AUTO 18006KT 10SM CLR 14/04 A2975 RMK AO2 T01420041
     10201 20141=
KHAI 212355Z AUTO 19009KT 10SM CLR 18/04 A2978 RMK AO2 T01770035
     10220 20177=
KHNB 212356Z AUTO 15006KT 10SM CLR 18/03 A2992 RMK AO2 SLP132
     T01830028 10239 20183 53001=
KSJX 212355Z AUTO 23010G15KT 10SM CLR 11/08 A2962 RMK AO2
     T01090077 10180 20106=
KSQI 212356Z AUTO 00000KT 10SM CLR 21/04 A2967 RMK AO2 SLP915
     6//// T02060044 10267 20200 53010=
KTOB 212355Z AUTO 00000KT 10SM 13/01 A2964 RMK AO2=
KUCP 212356Z AUTO VRB03KT 10SM CLR 13/00 A3002 RMK AO2 SLP185
     T01280000 10183 20128 53013=
KULM 212355Z AUTO 00000KT 10SM CLR 13/M01 A2962 RMK AO2=
KWWD 212356Z AUTO 00000KT 10SM 11/08 A3017 RMK AO2 SLP218
     T01060083 10189 20100 53008 $=
KYKN 212356Z AUTO 14003KT 1/2SM HZ CLR 18/02 A2959 RMK AO2 SLP031
     T01830017 10222 20183 55008=
K1MW 212355Z AUTO 23006KT 9SM M 19/M11 A2547 RMK AO2 PRESFR SLP553
     T01921109 10258 20192 58036 FZRANO $=
KBPC 212355Z AUTO 24007KT 10SM CLR 25/M06 A2968 RMK AO2=
KCWC 212355Z AUTO 19014G22KT 150V210 10SM CLR 30/01 A2974 RMK AO2
     T02990011 10335 20299=
KPRS 212355Z AUTO 00000KT 10SM CLR 28/11 A2994 RMK AO2 T02830114
     10292 20232=
KPYX 212355Z AUTO 20007KT 10SM CLR 24/M08 A2965 RMK AO2 T02351076
     10306 20235=
KTYL 212355Z AUTO 21013G16KT 10SM CLR 20/03 A3006 RMK AO2=
KUVA 212355Z AUTO 18005KT 10SM CLR 25/10 A2993 RMK AO2 T02500098
     10283 20243=
KWHP 212350Z 15006KT 10SM SKC 25/15 A2987 RMK OBSERVER HT=
KARM 212355Z AUTO 19009KT 10SM CLR 23/14 A2998 RMK AO2 T02310136
     10288 20231 TSNO=
KAWO 212356Z AUTO 04005KT 8SM -RA BKN025 OVC032 09/08 A2974 RMK
     AO2 SLP075 P0002 60036 T00890078 10094 20083 56017=
KBOK 212356Z AUTO 22004KT 10SM OVC018 15/09 A2993 RMK AO2 SLP133
     T01500094 10222 20150 58005 $=
KHYI 212356Z 18010KT 10SM CLR 27/08 A2992 RMK AO2 SLP125 T02700080
     10289 20261 56007 $=
KLGD 212356Z AUTO 14005KT 10SM -RA OVC045 09/08 A2969 RMK AO2
     SLP058 P0004 60008 T00890078 10156 20089 58023=
KOTH 212356Z 20007KT 2 1/2SM -RA BR OVC010 13/12 A2985 RMK AO2 CIG
     008V013 SLP108 P0000 60000 T01330122 10161 20133 56025=
KPRX 212356Z AUTO 16008KT 10SM CLR 24/09 A2983 RMK AO2 SLP099
     T02390089 10311 20239 55004=
KSEZ 212355Z AUTO 20005KT 10SM 22/05 A2999 RMK AO2=
KSWW 212355Z AUTO 23011KT 10SM CLR 27/05 A2986 RMK AO2 T02670045
     10301 20264=
KT89 212355Z AUTO 00000KT 10SM CLR 28/08 A2990 RMK A01=
KAUM 212357Z AUTO 00000KT 10SM CLR 15/03 A2963 RMK AO2=
KBAX 212355Z AUTO 19011KT 10SM CLR 14/04 A2973 RMK AO2 T01400040
     10188 20135=
KBTN 212355Z AUTO 15006KT 5SM HZ FEW025 12/M01 A2954 RMK AO2=
KC09 212355Z AUTO 19008G14KT 10SM CLR 20/05 A2971 RMK AO2
     T02040049 10249 20203=
KCSQ 212355Z AUTO 00000KT 8SM CLR 21/01 A2960 RMK AO2=
KONA 212355Z AUTO 00000KT 10SM CLR 13/05 A2963 RMK AO2=
KOSC 212355Z AUTO 21011G15KT 10SM CLR 16/05 A2967 RMK AO2
     T01620047 10175 20142=
KPTD 212355Z AUTO 18008KT 10SM SCT040 BKN046 OVC060 12/M02 A2996
     RMK AO2=
KPVB 212355Z AUTO 00000KT 10SM CLR 20/01 A2964 RMK AO1 T02040005
     10250 20202=
KRMY 212355Z AUTO 19007KT 10SM CLR 18/04 A2977 RMK AO2 T01780036
     10207 20174=
KRRT 212355Z AUTO 20003KT 10SM BKN110 12/03 A2951 RMK AO2=
KSLO 212355Z AUTO 16005KT 10SM CLR 21/03 A2985 RMK AO2 T02050032
     10263 20205=
KUSE 212355Z AUTO 21009KT 10SM CLR 17/02 A2983 RMK AO2=
