SAPA31 KWBC 220000 RRA
METAR
AGGH 220000Z 02009KT 9999 FEW020 FEW021CB SCT110 31/25 Q1009 RMKS
     CB ASSW SH TO NW=
AYPY 220000Z 32015KT 9999 SCT030 31/25 Q1010=
PTPN 212357Z 34006KT 15SM BKN018TCU BKN130 OVC300 29/26 A2982 RMK
     TCU N-E AND OHD=
PTSA 212350Z 11010KT 10SM BKN019 BKN130 BKN300 28/25 A2982=
