SAUS70 KWBC 220200 RRB
METAR
KJCT 220151Z AUTO 17007KT 10SM CLR 21/08 A2993 RMK AO2 SLP109
     T02110078=
KLGU 220151Z AUTO 17010KT 10SM CLR 17/M07 A2970 RMK AO2 SLP039
     T01721067=
KLHX 220153Z AUTO 18005KT 10SM CLR 17/M10 A2970 RMK AO2 SLP022
     T01721100=
KPHX 220151Z 32006KT 10SM FEW250 29/08 A2979 RMK AO2 SLP072
     T02940083=
KSQL 220147Z 29006KT 10SM SCT200 16/11 A2984=
KTPL 220151Z AUTO 17010KT 10SM CLR 23/09 A2991 RMK AO2 SLP120
     T02330094=
KAFN 220152Z AUTO 00000KT 10SM CLR 03/01 A3015 RMK AO2 SLP222
     T00280006=
KARR 220152Z 16007KT 10SM CLR 15/04 A2974 RMK AO2 SLP070
     T01500039=
KCMH 220151Z 16006KT 10SM FEW250 14/01 A2999 RMK AO2 SLP156
     T01390006=
KCMX 220153Z AUTO 00000KT 10SM CLR 09/04 A2959 RMK AO2 SLP024
     T00940039=
KDVP 220153Z AUTO 14006KT 7SM CLR 09/01 A2962 RMK AO2
     T00900006=
KERI 220151Z AUTO 18014G21KT 10SM CLR 14/M01 A2996 RMK AO2 SLP145
     T01441006=
KEST 220152Z AUTO 08006KT 8SM CLR 08/01 A2963 RMK AO2 SLP038
     T00830011=
KEWR 220151Z 17004KT 10SM CLR 13/04 A3017 RMK AO2 SLP214
     T01280044=
KHIE 220152Z AUTO 00000KT 10SM CLR M01/M02 A3012 RMK AO2 SLP211
     T10061022=
KJFK 220151Z 20014KT 10SM CLR 14/08 A3018 RMK AO2 SLP220
     T01390078=
KLDJ 220155Z AUTO 00000KT 10SM CLR 12/03 A3017 RMK AO2
     T01150029=
KLGA 220151Z 18005KT 10SM CLR 14/04 A3016 RMK AO2 SLP214
     T01390039=
KMDZ 220155Z AUTO 17004KT 10SM CLR 06/04 A2965 RMK AO2 T00570037
     PWINO=
KPIT 220151Z 00000KT 10SM FEW250 10/00 A3005 RMK AO2 SLP185
     T01000000=
KTAN 220152Z AUTO A3019 RMK AO2 SLPNO PWINO FZRANO TSNO $=
KXWA 220151Z AUTO 05007KT 10SM BKN030 BKN036 OVC043 05/04 A2955
     RMK AO2 SLP030 T00500039=
KBED 220151Z 21004KT 10SM CLR 09/05 A3016 RMK AO2 SLP225
     T00940050=
KBLF 220152Z AUTO 17006KT 10SM CLR 10/M02 A3013 RMK AO2 SLP195
     T01001022=
KCLE 220151Z 18012KT 10SM CLR 15/00 A2993 RMK AO2 SLP152
     T01500000=
KIOW 220152Z AUTO 00000KT 10SM CLR 15/03 A2966 RMK AO2 SLP046
     T01500033=
KMLI 220152Z 18007KT 10SM CLR 19/03 A2968 RMK AO2 SLP048
     T01940033=
KMPV 220151Z AUTO 00000KT 10SM CLR 04/M02 A3015 RMK AO2 SLP217
     T00441017=
KMSS 220153Z AUTO 19008KT 10SM CLR 12/M02 A2998 RMK AO2 SLP155
     T01171017=
KORB 220153Z AUTO 00000KT 10SM CLR 09/02 A2955 RMK AO2=
KORE 220152Z AUTO 00000KT 10SM CLR 03/01 A3017 RMK AO2 SLP221
     T00280006=
KOTM 220153Z AUTO 18008KT 10SM CLR 18/03 A2965 RMK AO2 SLP038
     T01830028=
KOWA 220153Z AUTO 15005KT 10SM CLR 10/04 A2964 RMK AO2=
KPWK 220152Z 19011KT 10SM CLR 21/04 A2974 RMK AO2 SLP069
     T02060039=
KPWM 220151Z 00000KT 10SM CLR 06/04 A3015 RMK AO2 SLP209
     T00610044=
KSLK 220151Z AUTO 20004KT 10SM CLR 06/M03 A3003 RMK AO2 SLP178
     T00611028=
KSPI 220152Z 18012G22KT 10SM CLR 19/04 A2977 RMK AO2 SLP079
     T01890039=
KSUX 220152Z 00000KT 5SM HZ CLR 11/00 A2958 RMK AO2 SLP021
     T01110000=
KAVX 220151Z AUTO 00000KT 7SM CLR 14/13 A2989 RMK AO2 SLP105
     T01440128=
KBGD 220151Z AUTO 17008G17KT 10SM CLR 24/M02 A2970 RMK AO2 SLP022
     T02391017=
KBHK 220151Z AUTO 32006KT 10SM OVC100 11/04 A2956 RMK AO2 SLP017
     T01060039=
KBLH 220152Z AUTO 15004KT 10SM CLR 29/10 A2975 RMK AO2 SLP067
     T02890100 TSNO=
KEMT 220145Z 24004KT 10SM CLR 22/17 A2984=
KGLS 220152Z AUTO 19011KT 10SM SCT043 23/15 A3003 RMK AO2 SLP167
     T02330150=
KHDO 220151Z AUTO 18005KT 10SM CLR 22/11 A2994 RMK AO2 SLP130
     T02170111=
KJAQ 220155Z AUTO 27004KT 10SM CLR 22/09 A2983 RMK AO1
     T02210091=
KSJT 220151Z AUTO 19009KT 10SM CLR 22/08 A2987 RMK AO2 SLP102
     T02220078=
