SAUS70 KWBC 212336
METAR
KDVP 212333Z AUTO 09003KT 10SM CLR 15/02 A2963 RMK AO2
     T01490017=
KORB 212333Z AUTO 00000KT 10SM CLR 11/01 A2954 RMK AO2=
K08D 212335Z AUTO 01008KT 10SM -RA 07/06 A2955 RMK AO2=
K0E0 212335Z AUTO 27013G21KT 10SM CLR 20/M04 A3002 RMK AO2
     T01951038 TSNO=
KAQP 212333Z AUTO 00000KT 7SM BKN090 14/00 A2960 RMK AO2=
KBEA 212335Z AUTO 14011G16KT 10SM CLR 25/13 A2993 RMK AO2
     T02450132=
KCQW 212335Z AUTO 00000KT 10SM CLR 12/01 A3011 RMK AO2 PWINO=
KD55 212335Z AUTO 26007KT 10SM SCT055 BKN070 BKN095 11/02 A2952
     RMK AO2=
KEHO 212335Z AUTO 00000KT 10SM CLR 15/M02 A3012 RMK AO2
     T01461020=
KETH 212333Z AUTO 00000KT 10SM 14/M01 A2960 RMK AO2=
KEYF 212335Z AUTO 00000KT 10SM CLR 13/04 A3012 RMK AO2
     T01320044=
KFOZ 212333Z AUTO 00000KT 10SM CLR 13/01 A2962 RMK AO2=
KLAL 212335Z AUTO 35005KT 10SM CLR 18/06 A3004 RMK AO2
     T01840058=
KLUM 212335Z AUTO 00000KT 10SM CLR 16/08 A2961 RMK AO2 T01570079
     PWINO=
KMAW 212335Z AUTO 18009KT 10SM CLR 22/08 A2988 RMK AO1=
KMRJ 212335Z AUTO 00000KT 10SM CLR 20/M01 A2963 RMK AO2=
KOWA 212333Z AUTO 30003KT 7SM CLR 11/02 A2963 RMK AO2=
KRCZ 212335Z AUTO 00000KT 10SM CLR 13/03 A3012 RMK AO2
     T01280028=
KRNV 212335Z AUTO 18013KT 10SM CLR A2991 RMK AO2 TSNO=
KRPD 212335Z AUTO 00000KT 7SM CLR 11/05 A2962 RMK AO2
     T01130050=
KSDC 212335Z AUTO 17005KT 10SM CLR 13/M01 A2997 RMK AO2=
KSNK 212335Z AUTO 23010KT 10SM CLR 27/01 A2983 RMK AO2
     T02730005=
KXVG 212333Z AUTO 00000KT 10SM CLR 08/02 A2958 RMK AO2=
K2C8 212335Z AUTO 26006KT 9SM FEW065 SCT080 OVC095 13/02 A2950 RMK
     AO2=
K4R5 212335Z AUTO 00000KT 10SM SCT120 09/05 A2956 RMK AO2
     T00910046=
KARV 212335Z AUTO 00000KT 10SM CLR 11/03 A2959 RMK AO2
     T01140030=
KD50 212335Z AUTO 00000KT 10SM OVC036 06/04 A2957 RMK AO2=
KETB 212335Z AUTO 21003KT 10SM CLR 18/02 A2962 RMK AO2=
KFRH 212335Z AUTO 17003KT 10SM CLR 18/00 A2992 RMK AO1=
KHFY 212335Z AUTO 19005KT 10SM CLR 18/03 A2989 RMK AO2
     T01840031=
KIUA 212335Z AUTO 17003KT 10SM CLR 12/00 A2998 RMK AO2
     T01171001=
KLDJ 212335Z AUTO 00000KT 10SM CLR 13/04 A3014 RMK AO2
     T01320041=
KMDZ 212335Z AUTO 24003KT 10SM CLR 12/03 A2961 RMK AO2 T01160033
     PWINO=
KOIC 212335Z AUTO 19003KT 10SM CLR 09/M02 A3009 RMK AO2
     T00871016=
KPBH 212335Z AUTO 00000KT 10SM CLR 10/02 A2959 RMK AO2
     T01040017=
KRRL 212335Z AUTO 23003KT 10SM CLR 13/04 A2960 RMK AO2 T01320035
     TSNO=
KUNU 212335Z AUTO 21003KT 10SM CLR 17/04 A2963 RMK AO2
     T01720043=
KVNW 212335Z AUTO 19008KT 10SM CLR 17/00 A2987 RMK AO2=
KY51 212335Z AUTO 23004KT 10SM CLR 18/04 A2963 RMK AO1
     T01760036=
KXSA 212335Z AUTO 00000KT 10SM CLR 11/07 A3015 RMK AO2
     T01140066=
KY63 212335Z AUTO 00000KT 10SM CLR 12/01 A2960 RMK AO2
     T01150009=
KJKJ 212335Z AUTO 00000KT 10SM BKN120 14/M01 A2956 RMK AO2
     TSNO=
KJMR 212335Z AUTO 00000KT 10SM CLR 12/03 A2964 RMK AO2=
KJSO 212335Z AUTO 20005KT 10SM CLR 26/10 A2991 RMK AO2 T02610101
     TSNO=
KL18 212335Z AUTO 21004KT 10SM CLR 23/16 A2985 RMK AO2=
KLDM 212335Z AUTO 21016G26KT 10SM CLR 19/04 A2963 RMK AO2
     T01890041=
KLJF 212335Z AUTO 00000KT 10SM CLR 13/01 A2962 RMK AO2=
KLNL 212335Z AUTO 00000KT 10SM CLR 08/03 A2961 RMK AO2
     T00800027=
KMGG 212335Z AUTO 00000KT 10SM CLR 11/02 A2963 RMK AO2 T01060019
     PWINO=
KMGN 212335Z AUTO 30003KT 10SM CLR 13/07 A2960 RMK AO2
     T01370070=
KMQJ 212335Z AUTO 18005KT 10SM CLR 17/02 A2989 RMK AO1=
KMVE 212335Z AUTO 00000KT 5SM HZ CLR 14/01 A2961 RMK AO2=
KOIN 212335Z AUTO 00000KT 10SM CLR 23/M02 A2968 RMK AO1
     T02331025=
