SAUS80 KWBC 212300 RRA
METAR
KCRQ 212253Z 22006KT 10SM CLR 21/17 A2985 RMK AO2 SLP104
     T02110167=
KCRP 212251Z 15016G24KT 10SM FEW034 26/16 A2995 RMK AO2 SLP142
     T02610161=
KIGM 212251Z AUTO 24014G21KT 10SM CLR 26/03 A2994 RMK AO2 SLP078
     T02610033=
KROW 212251Z 32008KT 10SM CLR 29/03 A2987 RMK AO2 SLP066
     T02890033=
KSVE 212255Z AUTO 25015G25KT 10SM CLR 23/M02 A2986 RMK AO2=
KVCT 212251Z 19014G22KT 10SM CLR 27/15 A2995 RMK AO2 SLP141
     T02670150=
KAAF 212253Z AUTO 20004KT 10SM CLR 18/07 A3007 RMK AO2 SLP183
     T01780072=
KBFF 212253Z AUTO 26015G27KT 10SM CLR 25/M09 A2960 RMK AO2 PK WND
     25028/2243 SLP993 T02501094=
KBIL 212253Z 06014G18KT 10SM SCT070 OVC090 14/03 A2953 RMK AO2
     SLP984 VIRGA N-E SHRA DSNT SW-E T01440028=
KABE 212251Z AUTO 19004KT CLR 12/M01 A3011 RMK AO2 SLP199
     T01221006=
KBDL 212251Z 19005KT 10SM FEW100 13/M02 A3012 RMK AO2 SLP200
     T01281017=
KBKW 212251Z AUTO 14005KT 10SM CLR 12/M01 A3008 RMK AO2 SLP196
     T01221011=
KCAK 212251Z 20010KT 10SM FEW250 16/00 A2996 RMK AO2 SLP150
     T01560000=
KCON 212251Z AUTO 00000KT 10SM CLR 08/01 A3011 RMK AO2 SLP201
     T00780006=
KEKN 212251Z AUTO 00000KT 10SM CLR 11/01 A3006 RMK AO2 SLP197
     T01060006=
KHTS 212251Z 14004KT 10SM CLR 17/M01 A3001 RMK AO2 SLP163
     T01721011=
KPVD 212251Z 18004KT 10SM CLR 12/07 A3015 RMK AO2 SLP210
     T01220067=
KYNG 212251Z 18007KT 10SM FEW200 15/M01 A2997 RMK AO2 SLP153
     T01501006=
KNUI 212253Z AUTO 00000KT CLR 12/08 A3013 RMK AO2 SLP201
     T01220078=
KJBR 212253Z AUTO 19007KT 10SM CLR 24/09 A2987 RMK AO2 SLP113
     T02390089 $=
KJLN 212253Z 20018G31KT 10SM CLR 27/02 A2973 RMK AO2 PK WND
     19031/2244 SLP059 T02720022 $=
KLAX 212253Z 26010KT 10SM SCT010 SCT080 21/17 A2985 RMK AO2 SLP107
     T02110172=
KLBB 212253Z 24012G23KT 10SM FEW250 28/01 A2981 RMK AO2 PK WND
     23027/2239 SLP057 T02780011=
KLIT 212253Z 19009KT 10SM FEW250 26/08 A2986 RMK AO2 SLP112
     T02560078=
KLWD 212253Z AUTO 20006KT 10SM CLR 24/03 A2960 RMK AO2 RAE16
     SLP022 P0000 T02440028=
KRIW 212253Z AUTO 27018G25KT 10SM CLR 22/M04 A2961 RMK AO2 PK WND
     28029/2243 SLP976 T02171044=
KRNM 212253Z VRB06KT 10SM CLR 26/14 A2987 RMK AO2 SLP101
     T02610144=
KRQE 212253Z AUTO 10SM FEW070 19/02 A3008 RMK AO2 SLP115
     T01940017=
KSDM 212253Z VRB06KT 10SM FEW014 22/16 A2986 RMK AO2 SLP108
     T02220156=
KTCS 212253Z AUTO 18009KT 10SM CLR 26/04 A2996 RMK AO2 SLP081
     T02560039=
KTLH 212253Z AUTO 36004KT 10SM CLR 21/03 A3007 RMK AO2 SLP181
     T02060028=
KTUP 212253Z 14006KT 10SM CLR 24/10 A2996 RMK AO2 SLP144
     T02390100=
KTUS 212253Z 26008G21KT 10SM CLR 32/09 A2990 RMK AO2 SLP083
     T03170089=
PABE 212253Z 23012KT 10SM CLR 05/02 A2990 RMK AO2 SLP127
     T00500022=
PADQ 212253Z 28011G21KT 10SM CLR 11/M01 A2995 RMK AO2 SLP140
     T01111006=
KLXV 212253Z AUTO 30011G21KT 10SM CLR 11/M11 A3007 RMK AO2 SLP072
     T01061106=
KMLU 212253Z 19010G17KT 10SM CLR 27/12 A2992 RMK AO2 SLP132
     T02720122=
KMSN 212253Z 23003KT 10SM FEW100 21/04 A2960 RMK AO2 SLP023
     T02060039=
KMSO 212253Z 00000KT 8SM -RA BKN030 OVC036 08/05 A2965 RMK AO2
     RAB04 SLP044 P0001 T00780050=
PHNL 212253Z 16007KT 10SM FEW025 SCT040 29/23 A2999 RMK AO2 SLP156
     T02940228=
KPGA 212253Z AUTO 00000KT 10SM CLR 25/M02 A2990 RMK AO2 SLP074
     T02501022=
KPOF 212253Z AUTO 19008KT 4SM HZ SCT025 22/09 A2985 RMK AO2 SLP108
     T02220089 $=
KABI 212252Z 20018G29KT 10SM CLR 31/02 A2982 RMK AO2 PK WND
     21031/2208 SLP074 T03060017=
KABQ 212252Z 29013G18KT 10SM FEW090 23/00 A2998 RMK AO2 SLP094
     T02330000=
