SAKA31 PTPN 220100
METAR PTPN 220055Z 07008KT 15SM BKN018TCU BKN130 OVC300 29/26 A2979
RMK TCU ALQDS
