SAUS80 KWBC 212332
METAR
KROS 212323Z AUTO 22003KT 10SM SCT100 14/04 A2960 RMK AO2=
