SAUS80 KWBC 220200 RRD
METAR
K9V9 220155Z AUTO 14010KT 10SM CLR 11/02 A2952 RMK AO2
     T01140016=
KCBE 220155Z AUTO 00000KT 10SM CLR 08/02 A3015 RMK AO2
     T00770017=
KCUL 220153Z AUTO 17006KT 10SM CLR 14/04 A2989 RMK AO2=
KNY0 220154Z AUTO 17003KT 10SM CLR 07/M02 A3011 RMK AO2=
KP58 220155Z AUTO 19007KT 17/04 A2972 RMK AO1 SLP064 T01670044=
