SAUS70 KWBC 212300
METAR
KAFN 212252Z AUTO 18003KT 10SM CLR 07/02 A3012 RMK AO2 SLP213
     T00670017=
KAQW 212252Z AUTO 09003KT 10SM CLR 08/01 A3010 RMK AO2 SLP199
     T00780006=
KARR 212252Z 18009KT 10SM CLR 22/04 A2967 RMK AO2 SLP049
     T02170039=
KASG 212248Z 19013KT 10SM CLR 25/07 A2982=
KBBG 212250Z 19005KT 10SM CLR 26/02 A2981=
KBLF 212252Z AUTO 21003KT 10SM CLR 13/M02 A3010 RMK AO2 SLP188
     T01281017=
KBML 212252Z AUTO 00000KT 10SM CLR 04/01 A3008 RMK AO2 SLP201
     T00440006=
KCFV 212252Z AUTO 17012KT 10SM CLR 28/06 A2968 RMK AO2 SLP045
     T02830056=
KCLT 212252Z 24003KT 10SM FEW250 16/M01 A3011 RMK SLP196
     T01561006=
KCQX 212252Z AUTO 19004KT 10SM CLR 14/07 A3017 RMK AO2 SLP219
     T01440072=
KCVG 212252Z 19009KT 10SM FEW250 BKN300 18/01 A2995 RMK AO2 SLP139
     T01780006=
KDCA 212252Z 15005KT 10SM SCT250 16/02 A3013 RMK AO2 SLP203
     T01610022 $=
KDDC 212252Z AUTO 13003KT 10SM CLR 27/M01 A2965 RMK AO2 SLP017
     T02671006=
KDPA 212252Z 19011KT 10SM CLR 21/04 A2967 RMK AO2 SLP047
     T02110044=
KDVN 212252Z AUTO 19009KT 10SM CLR 23/04 A2964 RMK AO2 SLP032
     T02330039=
KDVP 212253Z AUTO 11004KT 10SM CLR 16/03 A2962 RMK AO2
     T01620031=
KEFD 212254Z 17012G21KT 10SM CLR 25/15 A2995=
KFIN 212250Z 35005KT 10SM CLR 18/09 A3005=
KFIT 212252Z AUTO 00000KT 10SM CLR 08/01 A3012 RMK AO2 SLP204
     T00830006=
KGAG 212253Z AUTO 22017G24KT 10SM CLR 31/M04 A2964 RMK AO2 PK WND
     21026/2226 SLP014 T03111039=
KGLS 212252Z AUTO 18013KT 10SM CLR 24/16 A2999 RMK AO2 SLP155
     T02440161=
KHIE 212252Z AUTO 00000KT 10SM CLR 04/00 A3008 RMK AO2 SLP202
     T00390000=
KHRL 212252Z 12016G22KT 10SM FEW055 28/16 A2994 RMK AO2 PK WND
     13026/2235 SLP138 T02780161=
KIAD 212252Z 15005KT 10SM FEW200 13/00 A3011 RMK AO2 SLP199
     T01330000=
KIEN 212252Z AUTO 21006KT 10SM CLR 21/M06 A2952 RMK AO2 SLP990
     T02061056=
KIJD 212252Z AUTO 00000KT 10SM CLR 11/05 A3014 RMK AO2 SLP206
     T01110050=
KIOW 212252Z AUTO 20006KT 10SM CLR 25/02 A2962 RMK AO2 SLP029
     T02500017=
KLAA 212253Z AUTO 16005KT 10SM CLR 27/M08 A2968 RMK AO2 SLP015
     T02721083=
KLWC 212252Z AUTO 17008KT 10SM CLR 27/04 A2962 RMK AO1 SLP027
     T02720044=
KMAI 212253Z AUTO 12003KT 10SM CLR 20/02 A3007 RMK AO1 SLP181
     T02000022=
KMDH 212252Z 18009KT 10SM CLR 22/06 A2984 RMK AO2 SLP103
     T02220061=
KMEB 212252Z AUTO 06003KT 10SM CLR 15/03 A3011 RMK AO2 SLP196
     T01500033=
KMKE 212252Z 21011KT 10SM CLR 23/03 A2962 RMK AO2 SLP029
     T02330033=
KMLI 212252Z 21010KT 10SM CLR 25/03 A2962 RMK AO2 SLP029
     T02500033=
KOKB 212252Z AUTO 24008KT 8SM CLR 24/18 A2984 RMK AO2 SLP103
     T02390178=
KOKC 212252Z 18014KT 10SM FEW180 FEW250 29/03 A2972 RMK AO2 PK WND
     19026/2154 SLP052 T02940033=
KORB 212253Z AUTO 28006KT 10SM CLR 12/01 A2953 RMK AO2=
KORE 212252Z AUTO 00000KT 10SM CLR 07/02 A3012 RMK AO2 SLP206
     T00670017=
KPPF 212252Z AUTO 18009G17KT 10SM CLR 27/05 A2969 RMK AO2 SLP047
     T02720050 PWINO $=
KPWK 212252Z 20012G20KT 10SM CLR 23/03 A2968 RMK AO2 PK WND
     19026/2223 SLP049 T02280033=
KPYM 212252Z AUTO 18003KT 10SM CLR 13/06 A3015 RMK AO2 SLP212
     T01280061=
KRAP 212252Z 18009G18KT 10SM CLR 21/M03 A2948 RMK AO2 SLP970
     T02111033=
KRSL 212253Z AUTO 18007KT 10SM CLR 29/M01 A2958 RMK AO2 SLP006
     T02941011=
KSGF 212252Z 18012KT 10SM CLR 26/01 A2976 RMK AO2 SLP069 T02610011
     $=
KSPI 212252Z 18009KT 10SM CLR 23/03 A2975 RMK AO2 SLP074
     T02280028=
KSWO 212253Z 20015KT 10SM CLR 32/00 A2968 RMK AO2 SLP039
     T03170000=
KTAN 212252Z AUTO A3015 RMK AO2 SLPNO PWINO FZRANO TSNO $=
