SAUS70 KWBC 212322 RRB
METAR
KIJX 212315Z AUTO 17007KT 10SM CLR 22/03 A2973 RMK AO2
     T02160027=
KJAS 212315Z AUTO 20008KT 9SM CLR 25/12 A2993 RMK AO2=
KJES 212315Z AUTO 00000KT 10SM CLR 13/02 A3011 RMK AO2=
KJSV 212318Z AUTO RMK AO2 PWINO TSNO=
KJYR 212315Z AUTO 17005KT 9SM CLR 21/M01 A2959 RMK AO2=
KLLN 212315Z AUTO 26015G21KT 10SM CLR 26/M00 A2984 RMK AO2=
KLMO 212315Z AUTO 25012G20KT 7SM CLR 25/M09 A2971 RMK AO2
     T02501089=
KLOT 212315Z AUTO 18010KT 10SM CLR 21/04 A2971 RMK AO2=
KLUV 212315Z AUTO 25011KT 10SM CLR 27/M01 A2986 RMK AO2=
KMGC 212315Z AUTO 19009G14KT 10SM CLR 20/02 A2974 RMK AO2=
KMJD 212315Z AUTO 13005KT 10SM CLR 20/12 A3005 RMK AO2=
KMLE 212315Z AUTO 00000KT 10SM CLR 21/04 A2958 RMK AO2
     T02050035=
KMQB 212315Z AUTO 19009KT 10SM CLR 22/00 A2970 RMK AO2
     T02180001=
KMQW 212315Z AUTO 00000KT 10SM CLR 13/05 A3010 RMK AO2
     T01260049=
KNOW 212315Z AUTO 30010KT 5SM RA OVC020 09/09 A2975 RMK AO2 P0001
     T00930089=
KNRN 212315Z AUTO 00000KT 10SM CLR 23/M02 A2965 RMK AO2=
KOBE 212315Z AUTO 03006KT 10SM BKN075 OVC085 21/15 A2998 RMK
     AO2=
KORG 212315Z AUTO 19009KT 10SM CLR 25/16 A3000 RMK AO2
     T02500162=
KPPA 212315Z AUTO 24008G11KT 10SM CLR 28/01 A2973 RMK AO2
     T02800005=
KPTT 212315Z AUTO 18003KT 10SM CLR 27/M02 A2961 RMK AO2
     T02741018=
KPXE 212315Z AUTO 10003KT 10SM CLR 13/04 A3010 RMK AO2
     T01270042=
KRBO 212315Z AUTO 10SM CLR 26/16 A2995 RMK AO2 T02560155=
KRCR 212315Z AUTO 20007KT 10SM CLR 19/03 A2981 RMK AO2=
KRGA 212317Z AUTO 00000KT 10SM CLR 17/01 A3002 RMK AO2=
KSNL 212315Z AUTO 20010KT 10SM CLR 29/M03 A2973 RMK AO2
     T02851028=
KT20 212315Z AUTO 18011G15KT 10SM CLR 29/10 A2991 RMK AO2
     T02850102=
KTAZ 212315Z AUTO 18009KT 10SM CLR 21/03 A2979 RMK AO2
     T02080032=
KTBR 212315Z AUTO 00000KT 10SM CLR 13/05 A3010 RMK AO2
     T01250051=
K06C 212315Z AUTO 20005KT 10SM CLR 21/08 A2969 RMK AO2
     T02110081=
K2G9 212315Z AUTO 16006KT 10SM CLR 10/M02 A3006 RMK AO2=
KADU 212315Z AUTO 00000KT 10SM SCT007 SCT035 BKN075 17/M01 A2962
     RMK AO2 PWINO=
KAFK 212315Z AUTO 22003KT 10SM CLR 23/00 A2958 RMK AO2
     T02300000=
KAJG 212315Z AUTO 19007KT 10SM CLR 19/01 A2987 RMK AO2
     T01900014=
KAWG 212315Z AUTO 19007KT 10SM CLR 22/03 A2961 RMK AO2=
KAXA 212315Z AUTO 08004KT 5SM HZ CLR 19/03 A2961 RMK A01=
KBUU 212315Z AUTO 20005KT 10SM CLR 19/04 A2965 RMK AO2 T01920037
     PWINO=
KC75 212315Z AUTO 19009G14KT 10SM CLR 23/07 A2968 RMK AO2
     T02250070=
KCAV 212315Z AUTO 01006KT 2 1/2SM HZ CLR 17/02 A2962 RMK A01=
KCBF 212315Z AUTO 00000KT 5SM HZ CLR 22/M05 A2957 RMK AO2=
KCIN 212315Z AUTO 05005KT 7SM CLR 21/01 A2959 RMK AO2=
KCNC 212315Z AUTO 19006KT 4SM HZ CLR 23/03 A2959 RMK AO2=
KEOK 212315Z AUTO 19011G16KT 150V210 10SM CLR 24/05 A2965 RMK
     A01=
KFFL 212315Z AUTO 20006KT 9SM CLR 23/M00 A2962 RMK A01=
KGBG 212315Z AUTO 17006KT 10SM CLR 22/05 A2968 RMK AO2
     T02200047=
KGHG 212315Z AUTO 21004KT 10SM CLR 12/06 A3015 RMK AO2=
KHHG 212315Z AUTO 20006KT 10SM CLR A2983 RMK AO2=
KHMZ 212315Z AUTO 16006KT 10SM CLR 13/M02 A3007 RMK AO2
     T01311023=
KHPT 212315Z AUTO 36003KT 10SM CLR 19/00 A2962 RMK AO2=
KI63 212315Z AUTO 18010KT 10SM CLR 22/02 A2970 RMK AO2
     T02150021=
KI75 212315Z AUTO 18004KT 10SM CLR 23/03 A2960 RMK AO2
     T02250026=
KIBM 212315Z AUTO 28011KT 10SM CLR 20/M12 A2968 RMK AO2
     T02021118=
KICL 212315Z AUTO 00000KT 7SM CLR 23/03 A2959 RMK AO2=
KPPQ 212315Z AUTO 16006KT 10SM CLR 21/04 A2973 RMK AO2
     T02140035=
KUMP 212315Z AUTO 19008KT 10SM CLR 20/03 A2987 RMK AO2
     T01990027=
