SAUS70 KWBC 220100 RRA
METAR
KJCT 220051Z AUTO 19007KT 10SM CLR 23/08 A2992 RMK AO2 SLP108
     T02330078=
KJFK 220051Z 20010KT 10SM CLR 14/07 A3016 RMK AO2 SLP214
     T01390067=
KLGA 220051Z 18006KT 10SM CLR 14/04 A3015 RMK AO2 SLP209
     T01440044=
KLGU 220051Z AUTO 18009KT 10SM CLR 19/M07 A2972 RMK AO2 SLP040
     T01891067=
KMPV 220051Z AUTO 05003KT 10SM CLR 07/M02 A3012 RMK AO2 SLP209
     T00671022=
KORD 220051Z 20010G21KT 10SM CLR 21/03 A2971 RMK AO2 SLP061
     T02110033=
KPHX 220051Z 28008KT 10SM FEW150 FEW250 30/08 A2978 RMK AO2 SLP068
     T03000083=
KPIT 220051Z 17003KT 10SM FEW250 11/M01 A3003 RMK AO2 SLP182
     T01111006=
KPWM 220051Z 00000KT 10SM CLR 07/05 A3015 RMK AO2 SLP208
     T00670050=
KRDU 220051Z 00000KT 10SM CLR 11/03 A3015 RMK AO2 SLP209
     T01110033=
KSJT 220051Z 19010KT 10SM CLR 24/08 A2986 RMK AO2 SLP099
     T02390083=
KSMO 220051Z 23008KT 10SM BKN010 19/16 A2984 RMK AO2 SLP103
     T01890161=
KSTL 220051Z 17010KT 10SM SCT250 23/03 A2979 RMK AO2 SLP084
     T02280028 $=
KVNY 220051Z 14008KT 10SM CLR 25/14 A2982 RMK AO2 SLP089 T02500139
     $=
KXWA 220051Z AUTO 02008KT 10SM FEW022 BKN039 OVC045 05/04 A2957
     RMK AO2 SLP035 T00500039=
PABA 220052Z AUTO 09020G24KT 10SM OVC016 M04/M06 A2993 RMK AO2
     SLP140 T10391061 FZRANO PNO $=
K2J9 220055Z AUTO 00000KT 10SM BKN027 BKN035 11/07 A3012 RMK
     AO2=
K4R5 220055Z AUTO 00000KT 10SM CLR 05/04 A2958 RMK AO2
     T00540040=
K8W2 220055Z AUTO 00000KT 10SM CLR 05/01 A3012 RMK AO1
     T00520005=
KARV 220055Z AUTO 00000KT 10SM CLR 07/03 A2962 RMK AO2
     T00710027=
KCCA 220055Z AUTO 00000KT 10SM CLR 14/10 A2987 RMK AO2=
KCDH 220055Z AUTO 00000KT 10SM CLR 17/14 A2989 RMK AO2=
KCPK 220055Z AUTO 00000KT 08/06 A3016 RMK AO2 T00770059=
KDVP 220053Z AUTO 13004KT 7SM CLR 10/01 A2964 RMK AO2
     T00990006=
KFDW 220055Z AUTO 00000KT 10SM CLR 11/02 A3013 RMK AO1=
KHFY 220055Z AUTO 16007KT 10SM CLR 16/03 A2992 RMK AO2
     T01570032=
KIUA 220055Z AUTO 18006KT 160V220 10SM CLR 12/M01 A2998 RMK AO2
     T01151008=
KIXA 220055Z AUTO 00000KT 10SM CLR 06/06 A3016 RMK AO2=
KJAQ 220055Z AUTO 26005KT 10SM CLR 24/08 A2983 RMK AO1
     T02440075=
KJHN 220055Z AUTO 00000KT 10SM CLR 20/M06 A2967 RMK AO2
     T02041063=
KJVL 220045Z 19005KT 10SM CLR 17/01 A2966=
KLDJ 220055Z AUTO 00000KT 10SM CLR 13/03 A3015 RMK AO2
     T01250030=
KMDZ 220055Z AUTO 00000KT 10SM CLR 07/03 A2964 RMK AO2 T00700030
     PWINO=
KMHL 220055Z AUTO 17005KT 10SM CLR 21/02 A2970 RMK AO2=
KMRJ 220055Z AUTO 00000KT 10SM CLR 19/M01 A2966 RMK AO2=
KORB 220053Z AUTO 00000KT 10SM CLR 10/02 A2955 RMK AO2=
KOWA 220053Z AUTO 00000KT 5SM HZ CLR 09/03 A2965 RMK AO2=
KRAW 220055Z AUTO 18004KT 10SM CLR 21/01 A2973 RMK AO2=
KUNV 220053Z 27003KT 10SM CLR 10/M01 A3011=
KVER 220055Z AUTO 15008KT 10SM CLR 21/05 A2970 RMK AO2
     T02100046=
