SAUS70 KWBC 212318 RRG
METAR
KDZB 212315Z AUTO 20009G14KT 10SM CLR 29/06 A2990 RMK AO2
     T02860060=
KEBA 212315Z AUTO 00000KT 10SM CLR 13/01 A3010 RMK AO2
     T01340008=
KECS 212315Z AUTO 27007KT 10SM CLR 23/M10 A2951 RMK AO2=
KEDN 212315Z AUTO 00000KT 10SM CLR 17/07 A3007 RMK AO2
     T01670068=
KEIK 212315Z AUTO 25018G24KT 10SM CLR 24/M11 A2972 RMK AO2
     T02411113 PWINO=
KEKS 212315Z AUTO 17022G32KT 10SM FEW055 SCT065 OVC110 15/M04
     A2956 RMK AO2=
KERV 212315Z AUTO 19012KT 10SM CLR 26/09 A2994 RMK AO2
     T02610085=
KF05 212315Z AUTO 22018G23KT 10SM CLR 31/02 A2972 RMK AO2
     T03100015=
KF17 212315Z AUTO 10SM CLR 27/10 A2991 RMK AO2=
KF44 212315Z AUTO 20006KT 10SM CLR 28/10 A2984 RMK AO2=
KF46 212315Z AUTO 20012KT 10SM CLR 29/08 A2982 RMK AO2
     T02880077=
KFLY 212315Z AUTO 15006KT CLR 21/M09 A2985 RMK AO2 T02071089
     PWINO=
KFOT 212310Z AUTO 29008KT 10SM OVC024 16/09 A2995 RMK AO1=
KFTN 212315Z AUTO 16007G12KT 10SM CLR 28/10 A2993 RMK A01=
KFYE 212315Z AUTO 16005KT 10SM CLR 23/10 A2991 RMK A01=
KFYM 212320Z AUTO 15005KT 10SM CLR 17/04 A3004 RMK A01=
KGAO 212315Z AUTO 15004KT 10SM CLR 21/12 A3007 RMK AO2
     T02070121=
KGCY 212315Z AUTO 00000KT 10SM CLR 14/M00 A3007 RMK A01=
KGDJ 212315Z AUTO 20010G18KT 10SM CLR 31/03 A2981 RMK AO2
     T03090032=
KGGI 212315Z AUTO 24003KT 5SM HZ CLR 21/02 A2961 RMK AO2
     T02120018=
KGKT 212315Z AUTO 00000KT 10SM CLR 13/00 A3006 RMK A01=
KGOO 212315Z AUTO VRB03KT 10SM CLR 25/03 A2990 RMK A01=
KGYB 212315Z AUTO 21008KT 10SM CLR 28/09 A2992 RMK AO2
     T02770094=
KGZS 212315Z AUTO 00000KT 10SM CLR 19/08 A3000 RMK A01=
KH71 212315Z AUTO 17009G15KT 10SM CLR 28/03 A2971 RMK AO2=
KHFJ 212315Z AUTO 18010KT 10SM CLR 25/02 A2976 RMK AO2=
KHHF 212315Z AUTO 22009KT 10SM CLR 30/M03 A2965 RMK AO2
     T03001028=
KHHV 212315Z AUTO 15009G20KT 10SM SCT041 24/14 A2998 RMK A01=
KHLB 212315Z AUTO 18004KT 10SM CLR 16/00 A2993 RMK A01=
KHOE 212315Z AUTO 00000KT 10SM CLR 13/06 A3009 RMK AO2
     T01410060=
KHQG 212315Z AUTO 28005KT 10SM CLR 28/M09 A2967 RMK AO2
     T02831093=
KHRX 212315Z AUTO 24016G24KT 10SM CLR 28/M03 A2978 RMK AO2
     T02751032=
KHSB 212315Z AUTO 18006KT 10SM CLR 21/08 A2986 RMK AO2
     T02080084=
KHSD 212315Z AUTO 18013G21KT 10SM CLR 30/01 A2969 RMK A01=
KHYX 212315Z AUTO 18008KT 10SM CLR 16/04 A2972 RMK AO2
     T01570039=
KHZD 212315Z AUTO 16004KT 10SM CLR 21/10 A2991 RMK A01=
KI35 212315Z AUTO 00000KT 10SM CLR 15/00 A3007 RMK AO2
     T01521005=
KI74 212315Z AUTO 20005KT 10SM CLR 15/01 A2993 RMK AO2=
KIER 212315Z AUTO 19007KT 10SM CLR 26/13 A2993 RMK AO2
     T02630125=
KIFA 212315Z AUTO 35003KT 5SM HZ CLR 19/01 A2962 RMK AO2
     T01880012=
KIGQ 212315Z AUTO 20009KT 10SM CLR 20/05 A2972 RMK AO2
     T02000048=
KINJ 212315Z AUTO 18016G21KT 10SM CLR 30/09 A2983 RMK AO2
     T02970088=
KJAU 212315Z AUTO 00000KT 10SM CLR 13/01 A3010 RMK A01=
KJPX 212315Z AUTO 20005KT 10SM CLR 13/07 A3015 RMK AO2
     T01290073=
KJTC 212315Z AUTO 26013G19KT 10SM CLR 20/M02 A3012 RMK AO2=
KJWG 212315Z AUTO 18013G17KT 10SM CLR 29/02 A2970 RMK AO2
     T02940020=
KJWY 212315Z AUTO 18011G16KT 10SM CLR 30/09 A2984 RMK AO2
     T02950092=
KJYL 212315Z AUTO 00000KT 10SM CLR 13/04 A3010 RMK AO2
     T01260041=
KK70 212310Z AUTO 03007G14KT 10SM FEW039 OVC050 24/21 A2992 RMK
     AO2=
KLCG 212315Z AUTO 06005KT 10SM CLR 19/M01 A2959 RMK AO2
     T01881010=
KLNA 212315Z AUTO 34008KT 10SM SCT050 SCT120 23/19 A2995 RMK AO2
     T02310194 PNO=
KLNC 212315Z AUTO 17009KT 10SM CLR 29/07 A2982 RMK AO2
     T02940072=
