SAUS70 KWBC 220018 RRF
METAR
KGRY 220015Z AUTO 13006KT 10SM BKN042 22/13 A3008 RMK A01=
KGYB 220015Z AUTO 19005KT 10SM CLR 26/10 A2992 RMK AO2
     T02560095=
KGYI 220015Z AUTO 17010KT 10SM CLR 27/05 A2980 RMK AO2 T02650054
     TSNO=
KGZS 220015Z AUTO 00000KT 10SM SCT041 BKN049 BKN055 13/10 A3001
     RMK A01=
KH71 220015Z AUTO 15008KT 10SM CLR 25/04 A2972 RMK AO2=
KHCD 220015Z AUTO 00000KT 10SM CLR 11/01 A2963 RMK AO2
     T01110006=
KHFJ 220015Z AUTO 18009KT 10SM CLR 22/03 A2977 RMK AO2=
KHHF 220015Z AUTO 19006KT 10SM CLR 23/M01 A2965 RMK AO2
     T02341015=
KHHV 220015Z AUTO 17011G24KT 080V190 10SM BKN041 24/14 A2999 RMK
     A01=
KHLB 220015Z AUTO 18005KT 10SM CLR 14/00 A2994 RMK A01=
KHLX 220015Z AUTO 18005KT 10SM CLR 10/M07 A3014 RMK AO2
     T00971075=
KHOE 220015Z AUTO 00000KT 10SM CLR 11/05 A3010 RMK AO2
     T01090057=
KHQG 220015Z AUTO 28004KT 10SM CLR 23/M09 A2966 RMK AO2
     T02271086=
KHRX 220015Z AUTO 23012KT 10SM CLR 24/M01 A2978 RMK AO2
     T02421013=
KHSB 220015Z AUTO 00000KT 10SM CLR 16/06 A2988 RMK AO2
     T01550062=
KHSD 220015Z AUTO 16008KT 10SM CLR 26/02 A2969 RMK A01=
KHYW 220015Z AUTO 00000KT 10SM CLR 08/08 A3012 RMK AO2=
KHYX 220015Z AUTO 18008KT 10SM CLR 15/04 A2973 RMK AO2
     T01460040=
KHZD 220015Z AUTO 15004KT 10SM CLR 18/10 A2992 RMK A01=
KHZX 220015Z AUTO 00000KT 10SM CLR 07/01 A2960 RMK AO2=
KI35 220015Z AUTO 00000KT 10SM CLR 10/01 A3008 RMK AO2
     T01010008=
K05U 220015Z AUTO 24011KT 10SM 21/M13 A2992 RMK A01=
K0A0 220015Z AUTO 20009KT 10SM CLR 24/02 A2995 RMK AO2=
K0A9 220015Z AUTO 00000KT 10SM CLR 08/02 A3009 RMK A01=
K0F2 220015Z AUTO 18007KT 10SM CLR 26/03 A2977 RMK AO2
     T02640025=
K0R0 220015Z AUTO 17007KT 10SM CLR 22/11 A3006 RMK AO2=
K13K 220015Z AUTO 16010KT 10SM CLR 24/04 A2965 RMK AO2
     T02410038=
K18A 220015Z AUTO 09003KT 10SM CLR 10/00 A3012 RMK AO2
     T01030004=
K1A9 220015Z AUTO 00000KT 10SM CLR 13/09 A3008 RMK AO2
     T01280088=
K1F0 220015Z AUTO 15007KT 10SM CLR 24/10 A2976 RMK AO2
     T02440100=
K1H2 220015Z AUTO 14004KT 10SM CLR 18/03 A2987 RMK AO2
     T01800030=
K1K1 220015Z AUTO 15005KT 10SM CLR 24/M01 A2963 RMK AO2
     T02401011=
K1M5 220015Z AUTO 16006KT 10SM CLR 17/03 A2998 RMK A01=
K1V6 220015Z AUTO 27010KT 10SM CLR 22/M10 A2976 RMK AO2=
K2A0 220015Z AUTO 00000KT 10SM CLR 11/03 A3006 RMK A01=
K2G2 220015Z AUTO 19004KT 10SM CLR 13/M02 A3002 RMK A01=
K2J3 220015Z AUTO 00000KT 10SM CLR 11/05 A3012 RMK AO2
     T01150051=
K2M2 220015Z AUTO 14004KT 9SM FEW041 BKN055 17/09 A3000 RMK
     A01=
K2R9 220015Z AUTO 15010G16KT 10SM CLR 24/15 A2994 RMK AO2
     T02450146=
K2V5 220015Z AUTO 18005KT 10SM CLR 19/M08 A2965 RMK AO2=
K33N 220015Z AUTO 00000KT 10SM FEW031 FEW042 SCT049 08/06 A3014
     RMK A01=
K36K 220010Z AUTO 00000KT 10SM CLR 22/M05 A2968 RMK AO2=
K3F3 220015Z AUTO 16011KT 10SM CLR 24/13 A2995 RMK AO2
     T02380128=
K3I2 220015Z AUTO 00000KT 10SM CLR 11/01 A3004 RMK AO2
     T01060010=
K3J7 220015Z AUTO 00000KT 10SM CLR 12/03 A3011 RMK AO2=
K3LF 220015Z AUTO 15010KT 10SM CLR 19/03 A2982 RMK AO2
     T01850030=
K3S8 220015Z AUTO VRB05KT 10SM SCT047 BKN060 OVC070 20/11 A2986
     RMK AO2=
K46U 220015Z AUTO 30007G13KT 10SM OVC100 16/M07 A2974 RMK A01=
K4A9 220015Z AUTO 36003KT 10SM CLR 10/05 A3008 RMK AO2
     T01030048=
K4V0 220015Z AUTO 23013G17KT 10SM CLR 20/M09 A2981 RMK AO2
     T01981086=
K54A 220015Z AUTO 35005KT 10SM CLR 20/12 A3001 RMK AO2=
K5T9 220010Z AUTO 13005KT 10SM CLR 23/13 A2988 RMK A01=
KPZZ 220015Z AUTO 13009KT 10SM CLR 22/13 A3007 RMK A01=
KRKR 220015Z AUTO 17005KT 10SM CLR 23/04 A2980 RMK AO2=
