SAUS80 KWBC 220000
METAR
KESN 212345Z 00000KT 10SM CLR 11/06 A3018=
KCQT 212347Z AUTO 00000KT 10SM CLR 22/17 A2984 RMK AO2 SLP102
     T02220172 10256 20217 56010=
KGNT 212355Z AUTO 27011KT 10SM CLR 19/02 A3008 RMK AO2 T01850015
     10208 20183=
