SAUS80 KWBC 220100 RRB
METAR
K8D3 220056Z AUTO 17008KT 13/01 A2956 RMK AO1 SLP006 T01330011=
KCKP 220055Z AUTO 08003KT 7SM CLR 13/00 A2960 RMK AO2
     T01330000=
KDVL 220056Z AUTO 32010KT 10SM -RA OVC055 11/03 A2955 RMK AO2
     RAB27 SLP030 P0000 T01060033=
KP53 220056Z AUTO 19007KT 07/05 A2961 RMK AO1 SLP031 T00670050=
KAST 220055Z AUTO 08011KT 1 1/4SM +RA BR FEW005 BKN014 OVC019
     10/09 A2962 RMK AO2 SLP029 P0007 T01000089=
KGIC 220055Z AUTO 00000KT 7SM BKN035 OVC042 06/05 A2967 RMK AO1
     P0004=
KAAT 220055Z AUTO 27010KT 10SM CLR 17/M02 A2983 RMK AO2 PK WND
     25026/0021 SLP089 T01721017=
KCQC 220053Z AUTO 28010KT 10SM CLR 12/M01 A3004 RMK AO2 SLP133
     T01221006=
KEDU 220100Z AUTO 18008KT 10SM CLR 20/11 A2973 RMK AO1=
KGNG 220055Z AUTO 24007KT 10SM CLR 17/02 A2968 RMK AO2=
KGPI 220055Z 16009KT 10SM BKN033 OVC042 05/04 A2959 RMK AO2 RAE41
     SLP024 P0002 T00500039=
KS39 220055Z AUTO 00000KT 7SM FEW027 BKN035 OVC047 12/09 A2968 RMK
     AO2 P0001=
KSCK 220055Z 31005KT 10SM CLR 23/11 A2976 RMK AO2 SLP078
     T02330106=
KSPD 220056Z AUTO 14007KT 17/M09 A2972 RMK AO1 SLP019
     T01671089=
KWMC 220056Z AUTO 23012KT 10SM 22/M06 A2975 RMK AO2 SLP053
     T02221061 $=
KIZA 220055Z AUTO 27008KT 10SM CLR 18/13 A2987 RMK AO2=
KRNO 220055Z 28015G28KT 10SM SCT110 BKN200 22/M05 A2985 RMK AO2 PK
     WND 27028/0046 SLP075 ACSL ALQDS T02221050=
KSMP 220056Z AUTO VRB03KT 1/2SM -SN FG VV002 01/01 A2964 RMK AO2
     SNB55 SLP051 P0000 T00110006=
KSXT 220056Z AUTO 00000KT 10SM OVC004 12/09 A2989 RMK AO2 CIG
     003V007 SLP099 T01220094=
KCUL 220053Z AUTO 16006KT 10SM CLR 14/03 A2989 RMK AO2=
KDVK 220050Z AUTO 00000KT 10SM CLR 10/01 A3003 RMK AO2=
KNY0 220054Z AUTO 17003KT 10SM CLR 08/M02 A3009 RMK AO2=
KCBE 220055Z AUTO 00000KT 10SM CLR 09/01 A3013 RMK AO2
     T00910013=
KFSD 220056Z 10004KT 10SM FEW250 11/02 A2960 RMK AO2 SLP027
     T01060017=
KGNA 220056Z AUTO 31004KT 13/02 A2955 RMK AO1 SLP009 T01280022=
KGNR 220056Z AUTO 20008KT 08/M02 A3006 RMK AO1 SLP191
     T00831022=
KELY 220053Z AUTO 20009KT 10SM CLR 15/M11 A2991 RMK AO2 SLP089
     T01501106=
KMKN 220055Z AUTO 18007KT 10SM CLR 25/06 A2985 RMK AO2
     T02450062=
KRLD 220055Z AUTO 20005KT 7SM UP SCT075 OVC095 10/09 A2968 RMK AO2
     P0004 T00950085=
KSEP 220055Z AUTO 18004KT 10SM SCT120 25/04 A2987 RMK AO2
     T02510039=
K2WX 220056Z AUTO 36022G29KT 14/02 A2948 RMK AO1 PK WND 34031/0019
     WSHFT 2353 SLP983 T01440022=
KANJ 220055Z AUTO 24004KT 10SM CLR 09/06 A2961 RMK AO2 SLP029
     T00890061=
KCIR 220055Z AUTO 00000KT 10SM CLR 19/09 A2989 RMK AO2
     T01900085=
KDLH 220055Z 32004KT 10SM CLR 10/01 A2959 RMK AO2 SLP027
     T01000006=
KGPZ 220056Z AUTO 18003KT 10SM CLR 07/02 A2960 RMK AO2 SLP034
     T00670022=
KTKV 220055Z AUTO 00000KT 10SM CLR 07/02 A2965 RMK AO2 T00650023
     PWINO=
KVTI 220055Z AUTO 00000KT 7SM CLR 16/00 A2963 RMK AO2
     T01600003=
TJSJ 220056Z 10005KT 10SM FEW028 27/23 A2994 RMK AO2 SLP138
     T02720233=
K4BM 220055Z AUTO 18011G22KT 150V210 10SM CLR 05/M17 A3012 RMK
     AO2=
KBIH 220056Z AUTO 17008KT 10SM CLR 22/M06 A2985 RMK AO2 SLP080
     T02221056=
KBZN 220056Z 27013KT 10SM -RA BKN050 OVC070 11/04 A2954 RMK AO2
     RAE01B35 SLP995 P0000 T01060039=
KCAO 220055Z AUTO 21011KT 10SM CLR 19/M07 A2977 RMK AO2 SLP036
     T01891072 $=
K9MN 220055Z AUTO 00000KT 10SM CLR 16/03 A2965 RMK AO1
     T01560025=
K40U 220055Z AUTO 00000KT 10SM CLR 13/M09 A2983 RMK AO2
     T01301089=
K6R6 220051Z AUTO 12003KT 20/13 A2992 RMK AO1 SLP111 T02000128=
KALK 220056Z AUTO 25008KT 10SM CLR 21/11 A3005 RMK AO2 SLP096
     T02110106=
