SAUS70 KWBC 220000 RRE
METAR
KIYA 212355Z AUTO 17004KT 10SM CLR 20/11 A3003 RMK AO2 T01990105
     10282 20198=
KJCA 212355Z AUTO 00000KT 10SM CLR 13/01 A3011 RMK AO2 T01270011
     10203 20123 402030015=
KJDD 212355Z AUTO 17003KT 10SM CLR 24/11 A2985 RMK AO2=
KLCK 212355Z AUTO 16006KT 10SM CLR 13/01 A2997 RMK AO2 T01330006
     10210 20133=
KLHB 212355Z AUTO 17005KT 10SM CLR 26/10 A2990 RMK AO2 T02620102
     10308 20262=
KLHM 212355Z AUTO 18010KT 10SM CLR 28/07 A2975 RMK AO1=
KLNN 212355Z AUTO 19008G15KT 10SM CLR 16/M03 A2992 RMK AO1
     T01571026 10190 20157=
KLUD 212355Z AUTO 18008KT 10SM CLR 29/01 A2978 RMK AO2 T02890011
     10328 20289=
KLUL 212355Z AUTO 16005KT 10SM SCT075 22/11 A3003 RMK A02
     T02210106 10272 20220 402720049=
KMDD 212355Z AUTO 22005KT 10SM CLR 26/04 A2986 RMK AO2 T02630043
     10286 20250 402860102=
KMFV 220015Z AUTO 00000KT 10SM CLR 07/05 A3016 RMK AO2
     T00660051=
KMGR 212355Z AUTO 00000KT 10SM CLR 14/04 A3010 RMK AO2=
KMJQ 212355Z AUTO 07003KT 10SM CLR 12/01 A2964 RMK AO2=
KMKS 212355Z AUTO 00000KT 10SM CLR 10/07 A3011 RMK AO2=
KMNH 212355Z AUTO 27008KT 10SM CLR 17/M14 A2985 RMK AO2=
KMPR 212355Z AUTO 16007KT 10SM CLR 22/00 A2960 RMK AO2 T02231004
     10314 20222 403140078=
KMQI 212355Z AUTO 05005KT 10SM CLR 16/10 A3014 RMK AO2 T01560099
     10191 20155=
KMWK 212355Z AUTO 00000KT 7SM CLR 10/03 A3015 RMK AO2 T00980029
     10177 20095=
KMWO 212355Z AUTO 21003KT 10SM CLR 14/00 A2996 RMK AO2 T01391002
     10224 20136 402241015=
KMZZ 212355Z AUTO 20010KT 10SM CLR 16/03 A2988 RMK AO2 T01600028
     10329 21023=
KN03 212355Z AUTO 24003KT 10SM CLR 09/M02 A3006 RMK AO2=
KOLE 212355Z AUTO 20005KT 10SM CLR 10/M02 A3001 RMK AO2=
KOLM 212354Z 25003KT 8SM -RA BKN018 OVC024 08/07 A2973 RMK AO2
     SLP070 P0004 60028 T00780067 10094 20078 56016 $=
KOLY 212355Z AUTO 16006KT 10SM CLR 18/01 A2987 RMK AO2 T01820006
     10252 20182=
KONX 212355Z AUTO 00000KT 10SM CLR 12/08 A3014 RMK AO2 T01220078
     10324 20023=
KOQN 212355Z AUTO 00000KT 10SM CLR 11/01 A3014 RMK AO2=
KOXV 212355Z AUTO 14006KT 10SM CLR 23/01 A2961 RMK AO2=
KPCD 212355Z AUTO 16004KT 10SM CLR 19/09 A2984 RMK AO2 T01930088
     10267 20193=
KPEZ 212355Z AUTO 16004KT 10SM CLR 26/10 A2992 RMK AO2 T02630102
     10308 20263=
KPHN 212355Z AUTO 18007KT 10SM CLR 13/02 A2981 RMK AO2=
KPMV 212355Z AUTO 00000KT 10SM CLR 21/M01 A2959 RMK AO2 T02111010
     10251 20204 PWINO=
KPPO 212355Z AUTO 00000KT 10SM CLR 19/07 A2977 RMK AO2 T01870068
     10233 20187=
KPRG 212355Z AUTO 17008KT 10SM CLR 15/04 A2985 RMK AO2 T01490037
     10246 20147=
KPSO 212355Z AUTO 22009G17KT 10SM CLR 16/M05 A3005 RMK AO2
     T01551047 10175 20138=
KRAS 212355Z AUTO 15010KT 10SM CLR A2998 RMK AO2=
KRDM 212356Z 24009KT 8SM FU BKN049 OVC060 17/07 A2967 RMK AO2
     RAB08E31 SLP037 P0000 60000 T01720072 10178 20144 56036=
KRPJ 212355Z AUTO 17007KT 10SM CLR 15/07 A2969 RMK AO2 T01540066
     10238 20154 TSNO=
KRSV 212355Z AUTO 18005KT 10SM CLR 16/01 A2987 RMK AO2 T01550012
     10245 20155=
KRVJ 212355Z AUTO 00000KT 10SM CLR 12/04 A3010 RMK AO2 T01200036
     10224 20115 402240008=
KRWV 212355Z AUTO 19008KT 10SM CLR 26/09 A2991 RMK AO2 T02610093
     10301 20260 403010148=
KRYW 212355Z AUTO 19008KT 10SM CLR 26/08 A2992 RMK AO2 T02560082
     10295 20256=
KS33 212355Z AUTO 22011G20KT 10SM -RA SCT047 BKN060 OVC075 15/08
     A2968 RMK AO2=
KSAA 212355Z AUTO 23015G22KT 10SM CLR 15/M11 A2985 RMK AO2=
KSLE 212356Z 00000KT 1 1/2SM BR OVC002 11/10 A2974 RMK AO2 RAE10
     CIG 002V008 SLP071 P0000 60013 T01060100 10139 20106
     55021=
