SAUS70 KWBC 212300 RRX
METAR
KTFP 212255Z AUTO 18009KT 10SM CLR 25/16 A2995 RMK AO2
     T02510156=
