SAUS70 KWBC 220000 RRB
METAR
KCQW 212355Z AUTO 00000KT 10SM CLR 12/01 A3012 RMK AO2 PWINO=
KCQX 212352Z AUTO 20005KT 10SM CLR 14/08 A3018 RMK AO2 SLP222
     T01390083 10172 20133 53008=
KCVG 212352Z 19007KT 10SM FEW300 14/01 A2995 RMK AO2 SLP143
     T01390006 10217 20139 53005=
KD55 212355Z AUTO 27012KT 240V300 10SM BKN055 OVC070 11/02 A2952
     RMK AO2=
KDCA 212352Z 16003KT 10SM SCT250 14/04 A3014 RMK AO2 SLP207
     T01390044 10200 20139 53010 $=
KDDC 212352Z AUTO 00000KT 10SM CLR 23/M01 A2963 RMK AO2 SLP017
     T02331011 10306 20233 58011=
KDPA 212352Z 19010KT 10SM CLR 20/04 A2969 RMK AO2 SLP056 T02000044
     10244 20194 53012=
KAFN 212352Z AUTO 00000KT 10SM CLR 05/01 A3013 RMK AO2 SLP216
     T00500006 10156 20050 53012=
KBED 212351Z 18007KT 10SM CLR 12/05 A3013 RMK AO2 SLP217 T01170050
     10178 20100 53017=
KCLE 212351Z 18011KT 10SM CLR 16/00 A2991 RMK AO2 SLP145 T01610000
     10200 20161 53016=
KCMH 212351Z 17006KT 10SM SCT250 16/01 A2997 RMK AO2 SLP150
     T01560006 10206 20156 53008=
KDAW 212351Z AUTO 00000KT 10SM CLR 09/05 A3013 RMK AO2 SLP202
     T00940050 10167 20094 51014=
KERI 212351Z 17013G21KT 10SM CLR 14/00 A2994 RMK AO2 SLP140
     T01440000 10189 20144 53014=
KEST 212352Z AUTO 08005KT 8SM CLR 15/03 A2962 RMK AO2 SLP030
     T01500028 10217 20150 51001=
KEWR 212351Z 16004KT 10SM CLR 14/06 A3014 RMK AO2 SLP205 T01440056
     10194 20144 53010=
PASI 212353Z 10006KT 7SM FEW010 SCT025 BKN046 07/04 A2972 RMK
     P0002=
PATA 212352Z 10003KT 10SM -SN OVC012 01/M01 A2984 RMK AO2 SNB2254
     SLP111 P0001 60001 T00061011 10011 21011 51010=
KABR 212353Z AUTO 16005KT 10SM CLR 13/01 A2955 RMK AO2 SLP009
     T01280006 10194 20122 56013=
KABY 212353Z AUTO 00000KT 10SM CLR 14/04 A3011 RMK AO2 SLP197
     T01390039 10222 20133 53007=
KACK 212353Z 18007KT 10SM CLR 14/09 A3018 RMK AO2 SLP219 T01390094
     10183 20139 53007=
KAEX 212353Z 19010KT 10SM CLR 25/13 A2994 RMK AO2 SLP141 T02500133
     10306 20250 53001=
KAFW 212353Z 17013KT 10SM CLR 28/06 A2977 RMK AO2 SLP072 T02830056
     10328 20283 56010=
KAIA 212353Z AUTO 23010KT 10SM CLR 19/M08 A2957 RMK AO2 SLP001
     T01941078 10250 20194 56012=
KAKO 212353Z AUTO 15003KT 10SM CLR 22/M07 A2969 RMK AO2 SLP009
     T02171072 10250 20217 58015=
KALI 212353Z AUTO 14012KT 10SM CLR 24/16 A2993 RMK AO2 SLP135
     T02390161 10300 20239 53001=
KAMA 212353Z 23012KT 10SM CLR 24/M01 A2973 RMK AO2 SLP030
     T02441011 10289 20244 57008=
KAMG 212353Z AUTO 00000KT 10SM CLR 11/04 A3009 RMK AO2 SLP190
     T01110039 10228 20111 53007=
KAMW 212353Z AUTO 23004KT 3SM HZ CLR 14/01 A2961 RMK AO2 SLP027
     T01390011 10267 20139 53006=
KANE 212345Z 00000KT 10SM SCT250 13/02 A2962=
KAOO 212353Z AUTO 21006KT 10SM CLR 10/M01 A3008 RMK AO2 SLP195
     T01001011 10172 20094 53010=
KAPA 212353Z 00000KT 10SM FEW120 FEW200 21/M11 A2976 RMK AO2
     SLP027 T02111111 10239 20194 56008=
KAQP 212353Z AUTO 00000KT 7SM 11/00 A2960 RMK AO2=
KARA 212353Z 18006KT 10SM CLR 20/13 A3003 RMK AO2 SLP167 T02000128
     10278 20200 52002=
KASD 212353Z AUTO 15008KT 10SM CLR 20/10 A3006 RMK AO2 SLP178
     T02000100 10261 20200 53003=
KASE 212353Z 29004KT 10SM CLR 14/M08 A2996 RMK AO2 SLP075
     T01391078 10172 20139 56010=
KASX 212353Z AUTO 00000KT 10SM CLR 09/04 A2959 RMK AO2 SLP023
     T00890039 10194 20089 53018=
KATY 212353Z AUTO 12003KT 10SM CLR 14/00 A2958 RMK AO2 SLP020
     T01390000 10161 20133 58003=
KAUG 212353Z AUTO 19003KT 10SM CLR 08/03 A3014 RMK AO2 SLP209
     T00830028 10156 20083 51016=
KAUS 212353Z 19008KT 10SM CLR 26/09 A2989 RMK AO2 SLP116 T02610089
     10306 20261 55005=
