SAUS70 KWBC 220038 RRH
METAR
KAXS 220035Z AUTO 20012KT 10SM CLR 27/01 A2972 RMK AO2
     T02680014=
KAZC 220035Z AUTO 30005KT 10SM CLR 21/00 A2996 RMK AO2=
KBAM 220035Z AUTO 24011G19KT 10SM CLR 22/M07 A2980 RMK AO1=
KBAX 220035Z AUTO 19012G17KT 10SM CLR 14/04 A2973 RMK AO2
     T01420039=
KBBB 220036Z AUTO 19003KT 7SM CLR 09/01 A2961 RMK AO2=
KBCK 220035Z AUTO 00000KT 10SM CLR 06/02 A2964 RMK AO2
     T00560022=
KBDN 220035Z AUTO 22018G27KT 10SM FEW060 FEW070 16/07 A2967 RMK
     AO2=
KBDU 220035Z AUTO 23008KT 10SM CLR 21/M08 A2973 RMK AO2=
KBGF 220035Z AUTO 15004KT 10SM CLR 15/02 A3005 RMK A01=
KBKD 220035Z AUTO 18008KT 10SM CLR 28/03 A2979 RMK AO2
     T02810034=
KBNW 220035Z AUTO 00000KT 4SM HZ CLR 16/00 A2964 RMK AO2=
KBPC 220035Z AUTO 21009KT 10SM CLR 18/M05 A2967 RMK AO2 PNO=
KBQX 220035Z AUTO 17016KT 10SM 24/14 A3000 RMK A01=
KBTA 220035Z AUTO 00000KT 10SM CLR 19/01 A2959 RMK AO2
     T01930005=
KBTN 220035Z AUTO 16006KT 6SM HZ BKN024 OVC043 12/00 A2955 RMK
     AO2=
KBXA 220035Z AUTO 17006KT 10SM CLR 20/13 A3007 RMK AO2
     T01960125=
KC09 220035Z AUTO 19008KT 10SM CLR 19/05 A2972 RMK AO2
     T01920050=
KC83 220035Z AUTO 26013KT 10SM CLR 24/09 A2977 RMK AO2=
KCBK 220035Z AUTO 11006KT 10SM CLR 15/M07 A2967 RMK AO2
     T01491068=
KCCY 220035Z AUTO 05004KT 10SM CLR 14/00 A2963 RMK AO2=
KCKC 220036Z AUTO 00000KT 10SM CLR 08/02 A2956 RMK AO2=
KCKZ 220035Z AUTO 00000KT 10SM CLR 06/03 A3015 RMK AO2=
KCRX 220035Z AUTO 16006KT 10SM CLR 18/09 A2997 RMK AO2=
KCSQ 220035Z AUTO 11005G10KT 7SM CLR 15/02 A2961 RMK AO2=
KCVC 220035Z AUTO 00000KT 10SM CLR 10/03 A3012 RMK AO2=
KCWC 220035Z AUTO 18012G18KT 10SM CLR 28/02 A2975 RMK AO2
     T02800017=
KRZR 220035Z AUTO 00000KT 10SM CLR 09/04 A3006 RMK A01=
KSAR 220035Z AUTO 17006KT 10SM CLR 20/07 A2985 RMK AO2
     T02000072=
KSCD 220035Z AUTO 15003KT 10SM CLR 13/07 A3010 RMK AO2
     T01270065=
KSCX 220035Z AUTO 20004KT 10SM FEW026 SCT033 BKN045 12/M00 A3007
     RMK A01=
KSEM 220035Z AUTO 14004KT 10SM FEW039 BKN045 OVC050 14/11 A3007
     RMK AO2=
KSEZ 220035Z AUTO 20009KT 10SM 21/05 A2998 RMK AO2=
KSFQ 220035Z AUTO 00000KT 10SM CLR 11/08 A3017 RMK AO2
     T01060081=
KSIF 220035Z AUTO 00000KT 10SM CLR 06/03 A3014 RMK AO2
     T00570031=
KSLO 220035Z AUTO 16004KT 10SM CLR 20/03 A2985 RMK AO2
     T01960033=
KSNH 220035Z AUTO 16004KT 10SM FEW037 SCT045 SCT050 17/11 A2996
     RMK A01=
KSRB 220035Z AUTO 17003KT 10SM CLR 15/02 A3005 RMK A01=
KSRE 220035Z AUTO 10SM CLR 25/01 A2974 RMK AO2=
KSVC 220035Z AUTO 31007KT 10SM CLR 20/08 A3004 RMK AO2
     T01990078=
KSVH 220035Z AUTO 00000KT 10SM CLR 09/03 A3013 RMK AO2
     T00900033=
KSWW 220035Z AUTO 21008KT 10SM CLR 24/04 A2986 RMK AO2
     T02440043=
KSXU 220035Z AUTO 26013G19KT 10SM CLR 21/00 A2986 RMK AO2
     T02080001=
KSYF 220035Z AUTO 14011KT 7SM CLR 14/M04 A2966 RMK AO2 T01401040
     PWINO=
KSYI 220035Z AUTO 14006KT 10SM CLR 16/04 A3002 RMK A01=
KSZT 220035Z AUTO 23007KT 5SM -RA SCT010 BKN014 OVC021 03/02 A2965
     RMK AO2=
KSZY 220035Z AUTO 17006KT 10SM CLR 20/10 A2996 RMK A01=
KT89 220030Z AUTO 00000KT 10SM CLR 26/08 A2990 RMK A01=
KTBX 220035Z AUTO 10SM CLR 13/M08 A2977 RMK AO2=
KTDF 220035Z AUTO 00000KT 10SM CLR 07/03 A3017 RMK AO2=
KTHA 220035Z AUTO 16006KT 10SM FEW047 15/03 A3004 RMK A01=
KTNU 220035Z AUTO 03005KT 9SM CLR 20/01 A2962 RMK A01=
KTQH 220035Z AUTO 16005KT 10SM CLR 23/00 A2979 RMK AO2=
KTQV 220035Z AUTO 12003KT 10SM CLR 16/00 A3014 RMK A01=
KTYL 220035Z AUTO 20011G18KT 10SM CLR 18/03 A3005 RMK AO2=
KU68 220035Z AUTO 08010KT 10SM OVC120 18/M03 A2948 RMK AO2=
