SAUS70 KWBC 220200 RRX
METAR
KMVH 220155Z AUTO 00000KT 3SM BR 06/05 A2958 RMK AO2 P0012
     PWINO=
KMWK 220155Z AUTO 00000KT 10SM CLR 06/03 A3018 RMK AO2
     T00570025=
KO69 220155Z AUTO 30007G16KT 10SM OVC010 13/11 A2987 RMK A01=
KOEL 220155Z AUTO 08007KT 10SM CLR 15/M12 A2964 RMK AO1
     T01511116=
KOJA 220155Z AUTO 19011KT 10SM CLR 24/02 A2970 RMK AO2
     T02410022=
KONX 220155Z AUTO 00000KT 10SM SCT060 10/09 A3018 RMK AO2
     T01010088=
KOTH 220156Z 24013G20KT 4SM RA BR BKN009 OVC014 14/14 A2980 RMK
     AO2 CIG 005V011 SLP090 P0004 T01440139=
KOXI 220155Z AUTO 19014G18KT 10SM CLR 17/02 A2980 RMK AO1=
KP08 220155Z AUTO 4.75000005KT 10SM CLR 26/11 A2984 RMK AO2=
KPCD 220155Z AUTO 18006KT 10SM CLR 18/10 A2985 RMK AO2
     T01830101=
KPCW 220155Z AUTO 20010G16KT 10SM CLR 15/02 A2990 RMK AO2=
KPHT 220155Z AUTO 17007KT 10SM FEW050 17/10 A2994 RMK A01=
KPIB 220156Z AUTO 19005KT 10SM CLR 18/11 A3009 RMK AO2 SLP187
     T01780106 TSNO PNO $=
KPKV 220155Z AUTO 16006KT 10SM CLR 20/14 A3000 RMK AO2
     T02010141=
KPRO 220155Z AUTO 12003KT 5SM HZ CLR 15/00 A2960 RMK AO2
     T01470000=
KPRS 220155Z AUTO 36004KT 10SM CLR 22/12 A2996 RMK AO2
     T02150120=
KPTD 220155Z AUTO 18013G20KT 10SM SCT034 BKN040 OVC050 13/M03
     A2998 RMK AO2=
KSZT 220155Z AUTO 22003KT 10SM -RA OVC027 03/02 A2963 RMK AO2=
KSZY 220155Z AUTO 18009KT 10SM CLR 19/10 A2997 RMK A01=
KT89 220155Z AUTO 04006KT 10SM CLR 22/09 A2992 RMK A01=
KTBX 220155Z AUTO 10SM CLR 12/M10 A2977 RMK AO2=
KTDF 220155Z AUTO 00000KT 10SM CLR 03/02 A3019 RMK AO2=
KTHA 220155Z AUTO 15005KT 10SM CLR 14/03 A3005 RMK A01=
KTNU 220155Z AUTO 11004KT 9SM CLR 13/02 A2963 RMK A01=
KTQH 220155Z AUTO 16006KT 10SM CLR 22/01 A2980 RMK AO2=
KTQV 220155Z AUTO 10003KT 10SM CLR 14/02 A3016 RMK A01=
KTTA 220155Z AUTO 00000KT 10SM CLR 05/02 A3016 RMK AO2
     T00490023=
KTTS 220155Z AUTO 33006KT 10SM CLR 17/13 A3004 RMK AO2 SLP177
     T01660133 $=
KTYL 220155Z AUTO 21006KT 10SM CLR 13/02 A3007 RMK AO2=
KU68 220155Z AUTO 04012KT 10SM BKN110 14/00 A2949 RMK AO2=
KUCP 220156Z AUTO 14003KT 10SM CLR 09/00 A3003 RMK AO2 SLP190
     T00940000=
KUCY 220155Z AUTO 16007KT 10SM CLR 18/10 A2990 RMK A01=
KUSE 220155Z AUTO 20009KT 10SM CLR 15/02 A2987 RMK AO2=
KUVA 220155Z AUTO 13004KT 10SM CLR 19/11 A2996 RMK AO2
     T01920110=
KVCV 220155Z AUTO 19008KT 10SM CLR 22/08 A2991 RMK AO2=
KVIS 220156Z AUTO 00000KT 10SM CLR 24/11 A2977 RMK AO2 SLP087
     T02440106=
KXLL 220155Z AUTO 00000KT 10SM CLR 07/02 A3017 RMK AO2=
PAAD 220155Z AUTO 10020KT 10SM BKN010 BKN027 OVC055 M05/M06 A2988
     RMK AO2 T10481062=
PAUT 220155Z AUTO 16009KT 10SM BKN012 BKN026 OVC070 07/05 A3002
     RMK AO2=
KIER 220155Z AUTO 19007KT 10SM CLR 22/15 A2997 RMK AO2
     T02170148=
KIFA 220155Z AUTO 00000KT 10SM CLR 09/00 A2964 RMK AO2
     T00880002=
KIFP 220155Z AUTO 15008KT 10SM CLR 30/03 A2974 RMK AO2=
KIGQ 220155Z AUTO 20009G15KT 10SM CLR 17/04 A2977 RMK AO2
     T01720040=
KINJ 220155Z AUTO 17014G18KT 10SM CLR 25/09 A2987 RMK AO2
     T02530090=
KJAU 220155Z AUTO 00000KT 10SM CLR 05/02 A3014 RMK A01=
KJPX 220155Z AUTO 00000KT 10SM CLR 08/07 A3019 RMK AO2
     T00770072=
KJTC 220155Z AUTO 18006KT 10SM CLR 11/02 A3013 RMK AO2=
KJWG 220155Z AUTO 17009KT 10SM CLR 24/02 A2971 RMK AO2
     T02350020=
KJWN 220155Z AUTO 00000KT 10SM 17/05 A2997 RMK A01=
KJWY 220155Z AUTO 18009KT 10SM CLR 24/09 A2987 RMK AO2
     T02410092=
KJYL 220155Z AUTO 00000KT 10SM CLR 07/04 A3015 RMK AO2 LTG DSNT SE
     T00700044=
KK70 220155Z AUTO VRB05G10KT 10SM BKN028 BKN034 OVC040 24/21 A2997
     RMK AO2=
