SAUS70 KWBC 220100 RRB
METAR
KCLS 220055Z AUTO 00000KT 6SM -RA BKN015 OVC048 08/07 A2970 RMK
     AO2=
KCMR 220055Z AUTO 22006KT 10SM CLR 14/02 A3008 RMK AO2=
KCPT 220055Z AUTO 17012KT 10SM CLR 26/08 A2984 RMK A01=
KDNA 220055Z AUTO 00000KT 10SM CLR 24/08 A2997 RMK AO2=
KF70 220055Z AUTO 21006KT 10SM CLR 22/15 A2986 RMK AO2=
KGCN 220054Z 23005KT 10SM CLR 14/01 A3006 RMK AO2 SLP136
     T01390006=
KHOB 220055Z AUTO 20006KT 10SM CLR 20/07 A2988 RMK AO2=
KONM 220055Z AUTO 19006KT 10SM SCT100 20/04 A2995 RMK AO2
     T02000037=
KPAN 220055Z AUTO 00000KT 10SM CLR 18/04 A3004 RMK AO2 PWINO
     TSNO=
KPVF 220055Z AUTO 22004KT 10SM CLR 22/04 A2989 RMK AO1=
KRPH 220055Z AUTO VRB06KT 10SM CLR 27/02 A2976 RMK AO2 T02670020
     $=
KSLC 220054Z 20006KT 10SM FEW140 FEW230 21/M07 A2975 RMK AO2
     SLP037 T02061072=
KTME 220055Z AUTO 19010KT 10SM CLR 23/15 A2999 RMK AO2=
KRNH 220055Z AUTO 00000KT 10SM CLR 08/05 A2963 RMK AO2
     T00800051=
KBVU 220055Z AUTO 16011KT 10SM CLR 27/02 A2979 RMK AO2=
KEGE 220056Z 27006KT 10SM CLR 14/M10 A2992 RMK AO2 SLP051
     T01441100=
KEUG 220054Z 22009KT 10SM SCT023 BKN048 OVC100 14/12 A2974 RMK AO2
     RAB2359E15B38E47 SLP071 P0000 T01390122=
KFNL 220056Z 02003KT 10SM CLR 21/M09 A2970 RMK AO2 SLP020
     T02061094=
KGDV 220056Z AUTO 32007KT 10SM -RA OVC070 08/07 A2956 RMK AO2
     SLP019 P0001 T00830067=
KGGW 220053Z AUTO 07008KT 10SM -RA OVC028 08/06 A2955 RMK AO2
     RAB06 SLP018 P0001 T00780056=
KGTU 220056Z 17005KT 10SM CLR 25/09 A2992 RMK AO2 SLP129
     T02500094=
KGUC 220056Z AUTO 29006KT 10SM CLR 13/M09 A2999 RMK AO2 SLP142
     T01281089=
KGXY 220056Z 17004KT 10SM CLR 18/M05 A2969 RMK AO2 SLP045
     T01781050 $=
KHAF 220055Z AUTO 15007KT 5SM BR OVC011 14/13 A2988 RMK AO2=
KHDN 220056Z AUTO 27005KT 10SM CLR 13/M10 A2989 RMK AO2 SLP097
     T01281100=
KL08 220055Z AUTO 12004KT 10SM CLR 30/07 A2975 RMK AO2=
KL35 220055Z AUTO 26006KT 10SM CLR 13/03 A3009 RMK AO2=
KL52 220055Z AUTO 27004KT 6SM BR FEW011 15/14 A2990 RMK A01=
KOCH 220056Z AUTO 15003KT 10SM CLR 23/10 A2994 RMK AO2 SLP141
     T02330100=
KPRX 220056Z AUTO 15008KT 10SM CLR 21/10 A2985 RMK AO2 SLP105
     T02110100=
KPWG 220056Z AUTO 17011KT 10SM CLR 25/09 A2988 RMK AO2 SLP112
     T02500094=
KSDY 220056Z AUTO 01006KT 10SM OVC090 08/06 A2957 RMK AO2 SLP028
     T00780061 PNO $=
KSKX 220056Z AUTO 26009KT 10SM CLR 13/M06 A3004 RMK AO2 SLP157
     T01281056=
K06D 220055Z AUTO 33006KT 10SM -RA SCT021 BKN032 OVC038 06/05
     A2956 RMK AO2=
K6B9 220055Z AUTO 17009G22KT 140V200 10SM 12/M03 A3002 RMK AO2=
KBAC 220055Z AUTO 00000KT 10SM CLR 10/00 A2955 RMK AO2=
KMDS 220055Z AUTO 13008KT 10SM CLR 11/M01 A2959 RMK AO2=
KN38 220055Z AUTO 20007KT 10SM CLR 08/M02 A3007 RMK AO2=
KOEO 220055Z AUTO 00000KT 10SM CLR 08/04 A2966 RMK AO2
     T00790040=
KOLG 220055Z AUTO 00000KT 10SM CLR 07/00 A2960 RMK AO1=
KRUG 220055Z AUTO 34006KT 10SM FEW025 SCT048 OVC055 07/05 A2955
     RMK AO2=
KRYM 220055Z AUTO 00000KT 10SM SCT150 08/M00 A2959 RMK AO2 SLP028
     T00761001 $=
KRYV 220055Z AUTO 00000KT 10SM CLR 12/03 A2965 RMK AO2
     T01170029=
KRZL 220055Z AUTO 17007KT 10SM CLR 16/02 A2982 RMK AO2=
KS25 220055Z AUTO 36005KT 10SM OVC070 07/07 A2955 RMK AO2=
KS32 220055Z AUTO 00000KT 10SM SCT075 BKN100 OVC120 09/M01 A2955
     RMK AO2 TSNO=
KVGC 220055Z AUTO 15008KT 10SM CLR 06/M02 A3008 RMK AO2=
KXIF 220055Z AUTO 00000KT 10SM CLR 07/00 A3011 RMK AO2 SLP205
     T00740004 $=
KY19 220055Z AUTO 08007KT 10SM SCT120 11/02 A2951 RMK AO2=
K04W 220055Z AUTO 00000KT 10SM CLR 07/02 A2961 RMK AO2=
