SAUS70 KWBC 220200 RRF
METAR
KJKL 220153Z AUTO 19003KT 10SM CLR 14/01 A3006 RMK AO2 SLP175
     T01390006=
KLAA 220153Z AUTO 18006KT 10SM CLR 11/M09 A2965 RMK AO2 SLP024
     T01061094=
KFCM 220153Z 00000KT 10SM CLR 13/02 A2962 RMK AO2 SLP031
     T01330017=
KFFT 220153Z AUTO 17006KT 10SM CLR 14/01 A2999 RMK AO2 SLP154
     T01390006=
KFLD 220153Z AUTO 18007KT 10SM CLR 09/03 A2965 RMK AO2 SLP043
     T00940028=
KFLO 220153Z AUTO 00000KT 10SM CLR 08/04 A3015 RMK AO2 SLP208 LAST
     T00830044=
KFMY 220153Z AUTO 03007KT 10SM BKN070 22/12 A3004 RMK AO2 SLP174
     T02170122=
KFOE 220153Z 17010KT 10SM CLR 22/07 A2964 RMK AO2 SLP029 T02220072
     $=
KFPR 220153Z AUTO 32005KT 10SM SCT070 19/14 A3002 RMK AO2 LTG DSNT
     SE SLP166 T01940144=
KFSM 220153Z 00000KT 10SM CLR 19/08 A2982 RMK AO2 SLP095
     T01940078=
KFST 220153Z AUTO 18006KT 10SM CLR 21/11 A2992 RMK AO2 SLP094
     T02110106 $=
KFTW 220153Z 17016G29KT 10SM CLR 26/09 A2982 RMK AO2 PK WND
     16029/0150 SLP090 T02610094 $=
KFVE 220153Z AUTO 18008KT 10SM CLR 07/M01 A3004 RMK AO2 SLP175
     T00671006=
KFYV 220153Z AUTO VRB03KT 10SM CLR 16/07 A2983 RMK AO2 SLP099
     T01560067=
KGEZ 220153Z AUTO 16006KT 10SM CLR 15/01 A2992 RMK AO2 SLP132
     T01500011=
KGFK 220153Z 24004KT 6SM HZ FU OVC085 12/00 A2954 RMK AO2 SLP008
     T01220000=
KGFL 220153Z AUTO 00000KT 10SM CLR 01/M01 A3011 RMK AO2 SLP204
     T00111011=
KGGG 220153Z 19009KT 10SM CLR 21/12 A2990 RMK AO2 SLP123
     T02110117=
KGIF 220153Z AUTO 02006KT 10SM CLR A3008 RMK AO2 SLPNO=
KGJT 220153Z 12006KT 10SM CLR 13/ A2984 RMK AO2 SLP078 T0133 $=
KGKY 220153Z AUTO 16014G22KT 10SM CLR 26/08 A2984 RMK AO2 SLP097
     T02560083=
KGLD 220153Z AUTO 15009KT 10SM CLR 11/M07 A2966 RMK AO2 SLP023
     T01111072=
KGLH 220153Z AUTO 18010KT 10SM CLR 23/11 A2994 RMK AO2 SLP143
     T02330111=
KGLR 220153Z AUTO 21007KT 10SM CLR 14/04 A2966 RMK AO2 SLP047
     T01390039=
KGNV 220153Z 00000KT 10SM CLR 11/06 A3013 RMK AO2 SLP204
     T01060061=
KGOK 220153Z AUTO 17012KT 10SM CLR 24/04 A2969 RMK AO2 SLP047
     T02440039=
KGPT 220153Z 17005KT 10SM CLR 18/13 A3009 RMK AO2 SLP187
     T01830133=
KGRB 220153Z 33003KT 10SM CLR 11/04 A2965 RMK AO2 SLP043
     T01060044=
KGRI 220153Z AUTO 17004KT 9SM CLR 13/M01 A2960 RMK AO2 SLP026
     T01331006 $=
KGSH 220153Z AUTO 20013G23KT 10SM CLR 17/03 A2983 RMK AO2 SLP100
     T01670033=
KGUP 220153Z AUTO 00000KT 10SM CLR 11/03 A3005 RMK AO2 SLP135
     T01060028=
KGUY 220153Z AUTO 25003KT 10SM CLR 18/M06 A2966 RMK AO2 SLP017
     T01831061=
KPNC 220153Z AUTO 17011G18KT 10SM CLR 27/03 A2966 RMK AO2 SLP034
     T02670033=
KPNS 220153Z 00000KT 10SM CLR 17/08 A3011 RMK AO2 SLP198
     T01720078=
KPQL 220153Z AUTO 00000KT 10SM CLR 12/11 A3010 RMK AO2 SLP193
     T01170106=
KPSX 220153Z AUTO 16007KT 10SM CLR 22/16 A3000 RMK AO2 SLP157
     T02220161=
KPUB 220153Z AUTO 30006KT 10SM CLR 15/M12 A2972 RMK AO2 SLP026
     T01501122=
KPWA 220153Z 17013KT 10SM CLR 24/04 A2971 RMK AO2 SLP049
     T02390039=
KRAC 220153Z AUTO 22008KT 10SM CLR 18/04 A2971 RMK AO2 SLP059
     T01780044=
KRBD 220153Z AUTO 19011G23KT 10SM CLR 25/09 A2984 RMK AO2 SLP099
     T02500089=
KRHI 220153Z AUTO 00000KT 8SM CLR 06/02 A2965 RMK AO2 SLP047
     T00560017=
KRIL 220153Z AUTO 20007KT 10SM CLR 13/M07 A2988 RMK AO2 SLP099
     T01331072=
KRKP 220153Z AUTO 16007KT 10SM CLR 24/16 A2998 RMK AO2 SLP153
     T02390161=
KRME 220153Z 09005KT 10SM CLR 10/M02 A3008 RMK AO2 SLP185
     T01001022=
KRSL 220153Z AUTO 18006KT 10SM CLR 17/00 A2959 RMK AO2 SLP015
     T01720000=
