SAUS80 KWBC 220000
METAR
KM25 212355Z AUTO 17004KT 10SM CLR 20/07 A2991 RMK AO2 PWINO=
