SAUS70 KWBC 220014
METAR
K1S5 220015Z AUTO 00000KT 10SM -RA SCT060 09/08 A2968 RMK AO2
     P0001 T00920075=
KJXI 220015Z AUTO 15003KT 10SM CLR 25/09 A2986 RMK AO2
     T02450088=
KMCJ 220015Z AUTO 18018KT 10SM CLR 24/14 A2993 RMK A01=
K2C8 220015Z AUTO 26007KT 10SM FEW048 SCT060 OVC070 13/02 A2951
     RMK AO2=
KCLK 220015Z AUTO 19009KT 10SM CLR 25/00 A2969 RMK AO2=
KD50 220015Z AUTO 17003KT 10SM OVC036 05/04 A2957 RMK AO2=
KFRR 220015Z AUTO 00000KT 10SM CLR 11/00 A3011 RMK AO1=
KLQK 220015Z AUTO 10SM CLR 09/02 A3011 RMK AO2 T00920021=
KSPA 220015Z AUTO 00000KT 10SM CLR 10/02 A3012 RMK AO2=
KY51 220015Z AUTO 22003KT 10SM CLR 18/04 A2964 RMK AO1
     T01770035=
KTFP 212335Z AUTO 18008KT 10SM CLR 23/16 A2995 RMK AO2
     T02340161=
K2J9 220015Z AUTO 00000KT 10SM BKN026 OVC036 12/06 A3011 RMK
     AO2=
K4R5 220015Z AUTO 00000KT 10SM SCT120 07/05 A2957 RMK AO2
     T00650047=
K8W2 220015Z AUTO 00000KT 10SM CLR 06/00 A3012 RMK AO1
     T00610002=
KARV 220015Z AUTO 00000KT 10SM CLR 09/03 A2961 RMK AO2
     T00930029=
KCCA 220015Z AUTO 00000KT 10SM CLR 17/10 A2986 RMK AO2=
KCDH 220015Z AUTO 00000KT 10SM CLR 19/14 A2988 RMK AO2=
KCPK 220015Z AUTO 00000KT 09/07 A3016 RMK AO2 T00860068=
KEOE 220015Z AUTO 16003KT 10SM CLR 10/01 A3015 RMK AO2=
KFDW 220015Z AUTO 00000KT 10SM CLR 12/01 A3013 RMK AO1=
KHFY 220015Z AUTO 17005KT 10SM CLR 17/03 A2990 RMK AO2
     T01650030=
KIUA 220015Z AUTO 17006KT 10SM CLR 12/00 A2998 RMK AO2
     T01151001=
KIXA 220015Z AUTO 00000KT 10SM CLR 08/08 A3014 RMK AO2=
KJAQ 220015Z AUTO 25006KT 10SM CLR 26/07 A2984 RMK AO1
     T02620065=
KJHN 220015Z AUTO 00000KT 10SM CLR 25/M08 A2967 RMK AO2
     T02451083=
KLDJ 220015Z AUTO 00000KT 10SM CLR 13/03 A3015 RMK AO2
     T01270034=
KMDZ 220015Z AUTO 00000KT 10SM CLR 11/04 A2963 RMK AO2 T01140036
     PWINO=
KMHL 220015Z AUTO 17005KT 10SM CLR 20/02 A2969 RMK AO2=
KMRJ 220015Z AUTO 00000KT 10SM CLR 18/M01 A2965 RMK AO2=
KRAW 220015Z AUTO 18006KT 10SM CLR 22/01 A2972 RMK AO2=
KVER 220015Z AUTO 15008KT 10SM CLR 21/05 A2970 RMK AO2
     T02130045=
