SAUS70 KWBC 220000 RRK
METAR
KSVC 212355Z AUTO 30013G18KT 10SM CLR 23/07 A3004 RMK AO2
     T02290070 10255 20229=
KSXU 212355Z AUTO 27014G24KT 10SM CLR 22/M01 A2985 RMK AO2
     T02241007 10253 20224=
KT69 212355Z AUTO 17011KT 10SM CLR 24/16 A2995 RMK A01=
KTKX 212355Z AUTO 18006KT 8SM CLR 20/09 A2987 RMK AO2 TSNO=
KTME 212355Z AUTO 19011KT 10SM CLR 25/15 A2996 RMK AO2=
KTSP 212355Z AUTO 32012KT 10SM CLR 23/M04 A2996 RMK AO2=
K6S2 212355Z AUTO 20012G20KT 2SM UP BR OVC005 12/12 A2980 RMK AO2
     P0003=
KGGW 212353Z AUTO 07006KT 10SM SCT021 BKN030 OVC043 09/04 A2955
     RMK AO2 SLP015 60000 T00890044 10111 20083 53005=
KGTF 212353Z 24010KT 10SM BKN060 OVC075 09/03 A2953 RMK AO2 RAE08
     SLP996 P0000 60000 T00940028 10133 20083 56010=
KHIO 212353Z 14007KT 2SM -RA BR BKN006 BKN023 OVC036 09/08 A2974
     RMK AO2 SLP072 P0004 60029 T00890083 10111 20089 56040=
KLOL 212353Z AUTO 27013KT 10SM CLR 26/M07 A2978 RMK AO2 SLPNO
     60000 T02561072 10272 20172 56024 $=
KPUB 212353Z AUTO 26009KT 10SM CLR 24/M13 A2970 RMK AO2 SLP006
     T02441128 10283 20244 56016=
KPUW 212353Z AUTO 23007KT 5SM -RA BR BKN028 OVC034 06/04 A2971 RMK
     AO2 SLP065 P0003 60015 T00560044 10094 20056 58016=
KRDD 212353Z 16010KT 10SM CLR 28/06 A2972 RMK AO2 SLP061 T02780056
     10289 20222 56021=
KRNT 212353Z 16004KT 7SM -RA SCT025 BKN038 OVC045 10/07 A2973 RMK
     AO2 RAB05 SLP072 P0001 60003 T01000072 10122 20100 56029=
KSMF 212353Z 18014G21KT 10SM BKN220 27/06 A2975 RMK AO2 SLP074
     T02670061 10289 20200 58013=
KSPB 212353Z AUTO 18004KT 3SM RA BR SCT007 BKN035 OVC047 09/09
     A2974 RMK AO2 SLP069 P0009 60018 T00940089 10111 20089
     55025=
KTIW 212353Z 18003KT 5SM -RA BR SCT008 OVC025 08/07 A2972 RMK AO2
     SLP066 P0004 60017 T00830067 10111 20083 56032=
K4S2 212355Z AUTO 32003KT 7SM -RA SCT012 BKN019 OVC070 08/07 A2973
     RMK AO2 P0002=
KHHR 212353Z 25008KT 10SM CLR 22/17 A2984 RMK AO2 SLP103 T02170167
     10261 20217 56012 $=
KHLN 212353Z 26010KT 10SM FEW041 BKN050 OVC070 09/03 A2957 RMK AO2
     SLP023 T00940028 10172 20094 55004=
KHRI 212353Z AUTO 18008KT 5SM -RA BR OVC050 09/08 A2972 RMK AO2
     SLP061 P0004 60014 T00940083 10150 20094 58013=
KMMV 212353Z AUTO 12004KT 2SM -RA BR SCT005 OVC018 09/08 A2974 RMK
     AO2 RAE26B40 SLP072 P0002 60025 T00940083 10111 20089
     56023=
KMOD 212353Z 31009KT 10SM CLR 29/08 A2976 RMK AO2 SLP077 T02890078
     10306 20217 56010=
KRBD 212353Z 17010KT 10SM CLR 27/09 A2981 RMK AO2 PK WND
     18027/2302 SLP089 T02720089 10322 20272 55005=
KSGR 212353Z 20011KT 10SM CLR 24/14 A2996 RMK AO2 SLP146 T02440139
     10306 20244 53004=
KTVL 212353Z AUTO 20006KT 10SM CLR 17/M06 A3002 RMK AO2 SLP136
     T01721061 10206 20172 56006=
KTWF 212353Z 29004KT 10SM CLR 18/00 A2971 RMK AO2 SLP019 T01780000
     10211 20178 58023=
KWVI 212353Z AUTO 24007KT 10SM BKN011 14/11 A2990 RMK AO2 SLP124
     T01390111 10172 20133 57002=
KALW 212353Z 18014KT 7SM -RA HZ OVC055 08/06 A2971 RMK AO2 SLP063
     P0006 60018 T00830061 10139 20078 58021=
KBKE 212353Z AUTO 06006KT 10SM -RA BKN065 OVC085 09/06 A2969 RMK
     AO2 SLP059 P0000 60000 T00940061 10150 20094 58026=
KEVW 212353Z AUTO 25019G28KT 10SM CLR 15/M11 A2989 RMK AO2 PK WND
     24035/2307 SLP067 T01501106 10183 20150 56015=
KGEY 212353Z AUTO 14004KT 10SM CLR 20/M04 A2948 RMK AO2 SLP961
     T02001044 10233 20156 56012=
KHJO 212353Z AUTO 00000KT 9SM FEW120 31/10 A2977 RMK AO2 SLP082
     T03110100 10317 20244 56015=
KHQM 212353Z AUTO 07006KT 3SM -RA BR SCT029 BKN034 OVC055 11/09
     A2970 RMK AO2 SLP062 P0002 60039 T01110094 10117 20106
     56038=
