SAUS80 KWBC 220000 RRF
METAR
PAJN 212353Z VRB03KT 10SM -RA FEW006 BKN033 BKN065 BKN140 07/06
     A2967 RMK AO2 SLP047 P0000 60003 T00720056 10083 20067 55001
     $=
KLZZ 212355Z AUTO 19005KT 10SM CLR 26/07 A2984 RMK AO2 T02610070
     10312 20261=
KMEH 212356Z AUTO 29004KT 9SM -RA OVC005 04/04 A2970 RMK AO2
     SLP066 P0006 60015 T00440039 10111 20044 58020=
