SAUS70 KWBC 220100 RRJ
METAR
KAEG 220055Z 26008KT 10SM CLR 15/02 A3000=
KBJI 220055Z AUTO 00000KT 10SM SCT120 10/01 A2956 RMK AO2
     T00970006=
KIWA 220047Z 28005KT 10SM CLR 28/11 A2992=
KOWX 220055Z AUTO 19009KT 10SM CLR 16/M01 A2990 RMK AO1=
KJKA 220058Z 00000KT 10SM CLR 14/10 A3010=
KLMO 220055Z AUTO 25006KT 10SM CLR 22/M09 A2973 RMK AO2
     T02161087=
KLUV 220055Z AUTO 24008KT 10SM SCT120 20/04 A2986 RMK AO2=
KMEI 220058Z 00000KT 10SM CLR 16/13 A3003 RMK AO2 SLP169
     T01610133=
KMGC 220055Z AUTO 19011G17KT 10SM CLR 18/02 A2977 RMK AO2=
KMLE 220055Z AUTO 00000KT 10SM CLR 13/03 A2959 RMK AO2
     T01330030=
KMQB 220055Z AUTO 18010KT 10SM CLR 18/02 A2971 RMK AO2
     T01770020=
KMQW 220055Z AUTO 00000KT 10SM CLR 09/05 A3013 RMK AO2
     T00870047=
KMRH 220058Z AUTO 02004KT 10SM OVC075 16/12 A3012 RMK AO2 SLP201
     T01560117=
KNOW 220055Z AUTO 30010KT 10SM -RA OVC013 09/09 A2973 RMK AO2
     P0004 T00870086=
KNRN 220055Z AUTO 00000KT 10SM CLR 16/M03 A2966 RMK AO2=
KORG 220055Z AUTO 18005KT 10SM CLR 23/17 A3002 RMK AO2
     T02250168=
KPPA 220055Z AUTO 22009KT 10SM CLR 21/00 A2972 RMK AO2
     T02071001=
KPTT 220055Z AUTO 19008KT 10SM CLR 24/M03 A2962 RMK AO2
     T02421026=
KRBO 220055Z AUTO 10SM CLR 23/16 A2997 RMK AO2 T02300158=
KSBS 220055Z AUTO 26005KT 10SM CLR 12/M10 A2988 RMK AO1
     T01221099=
KSDA 220055Z AUTO 02003KT 10SM CLR 14/01 A2958 RMK AO2=
KSEF 220055Z AUTO 02005KT 10SM SCT060 18/12 A3006 RMK AO2
     T01820122=
KSHL 220055Z AUTO 07005KT 8SM CLR 10/M00 A2959 RMK AO2=
KSJS 220055Z AUTO 18004KT 10SM CLR 15/01 A3006 RMK AO2
     T01460012=
KSLB 220055Z AUTO 07008KT 10SM CLR 13/00 A2961 RMK AO2=
KSNL 220055Z AUTO 17009KT 10SM CLR 21/01 A2974 RMK AO2
     T02130010=
KSUT 220055Z AUTO 00000KT 10SM OVC040 16/10 A3013 RMK AO2
     T01590095=
KT20 220055Z AUTO 17010G16KT 10SM CLR 24/14 A2994 RMK AO2
     T02440140=
KT35 220055Z AUTO 16005KT 10SM CLR 24/10 A2990 RMK AO2
     T02420100=
KTAZ 220055Z AUTO 17010KT 10SM CLR 18/04 A2980 RMK AO2
     T01810040=
KTBR 220055Z AUTO 00000KT 10SM CLR 09/05 A3013 RMK AO2
     T00910051=
KTIF 220055Z AUTO 17010KT 10SM CLR 18/M02 A2959 RMK AO2
     T01751018=
KTIP 220055Z AUTO 19008KT 10SM CLR 17/03 A2981 RMK AO2
     T01710026=
KTMK 220055Z AUTO 16007KT 5SM +DZ SCT010 OVC014 12/11 A2966 RMK
     AO2 P0006=
KTQK 220055Z AUTO 24004KT 10SM CLR 19/M06 A2965 RMK AO2
     T01881055=
KTVI 220055Z AUTO 00000KT 10SM CLR 10/07 A3013 RMK AO2=
KUKL 220055Z AUTO 17009KT 10SM CLR A2967 RMK AO2=
KUNI 220055Z AUTO 00000KT 10SM CLR 08/01 A3002 RMK AO2
     T00760010=
KVDI 220055Z AUTO 00000KT 10SM CLR 11/04 A3012 RMK AO2=
KVES 220055Z AUTO 18004KT 10SM CLR 13/M02 A2993 RMK AO2=
KVKS 220055Z AUTO 16006KT 10SM SCT055 22/12 A2996 RMK A01=
KVPC 220055Z AUTO 00000KT 10SM FEW041 11/06 A3011 RMK AO2=
KVUJ 220055Z AUTO 00000KT 10SM CLR 06/03 A3019 RMK AO2
     T00600031=
KW22 220055Z AUTO 17006KT 9SM FEW050 09/00 A3007 RMK AO2=
KWDR 220055Z AUTO 00000KT 10SM CLR 10/01 A3015 RMK AO2=
KWHP 220050Z 12005KT 10SM SKC 23/15 A2987 RMK OBSERVER HT=
KXBP 220055Z AUTO 18006KT 10SM CLR 26/04 A2980 RMK AO2
     T02610040=
KZER 220055Z AUTO 16006KT 10SM CLR 08/M01 A3013 RMK AO2=
K04V 220055Z AUTO 30007KT 10SM 11/M09 A3000 RMK AO2=
K17J 220055Z AUTO 00000KT 10SM CLR 11/04 A3012 RMK AO2
     T01090037=
K1A6 220055Z AUTO 00000KT 10SM CLR 07/03 A3010 RMK AO2
     T00710031=
K2G9 220055Z AUTO 16008KT 10SM CLR 09/M02 A3008 RMK AO2=
K5C1 220055Z AUTO 21003KT 10SM CLR 20/08 A2995 RMK AO1=
K5R8 220055Z AUTO 15005KT 10SM CLR 20/15 A3001 RMK AO2
     T01960145=
