SAUS70 KWBC 220138 RRK
METAR
KRNC 220135Z AUTO 00000KT 10SM CLR 10/03 A3005 RMK A01=
KRRT 220135Z AUTO 24007KT 10SM BKN100 120 12/03 A2953 RMK AO2=
KRSN 220135Z AUTO 18006KT 10SM CLR 20/12 A2998 RMK AO2
     T01970123=
KRTS 220135Z AUTO 25018G25KT 10SM CLR 19/M06 A2990 RMK AO2=
KRZR 220135Z AUTO 00000KT 10SM CLR 07/04 A3008 RMK A01=
KJWG 220135Z AUTO 18008KT 10SM CLR 25/02 A2971 RMK AO2
     T02460017=
KJWY 220135Z AUTO 18009KT 10SM CLR 25/09 A2987 RMK AO2
     T02450090=
KJYL 220135Z AUTO 00000KT 10SM CLR 07/05 A3014 RMK AO2
     T00720049=
KK70 220135Z AUTO 02007G14KT 10SM SCT028 BKN043 OVC060 24/21 A2997
     RMK AO2 LTG DSNT SW=
KLCG 220135Z AUTO 00000KT 10SM CLR 08/M03 A2960 RMK AO2
     T00781031=
KLNA 220135Z AUTO 33009KT 10SM CLR 22/19 A3000 RMK AO2 T02210188
     PNO=
KLNC 220135Z AUTO 17007KT 10SM CLR 25/08 A2986 RMK AO2
     T02460082=
KLNQ 220135Z AUTO 13003KT 10SM CLR 18/13 A3011 RMK AO2
     T01780132=
KLUA 220135Z AUTO 00000KT 10SM CLR 07/01 A3014 RMK AO2=
KLUG 220135Z AUTO 00000KT 10SM FEW036 SCT045 11/06 A3001 RMK
     A01=
KLVN 220135Z AUTO 00000KT 7SM CLR 11/02 A2963 RMK AO2=
KLXY 220135Z AUTO 16006KT 10SM CLR 22/11 A2989 RMK AO2
     T02180105=
KLYO 220135Z AUTO 13006KT 10SM CLR 22/00 A2960 RMK AO2
     T02170005=
KM02 220135Z AUTO 18007KT 9SM 18/08 A2997 RMK A01=
KM04 220135Z AUTO VRB03KT 10SM FEW055 20/10 A2991 RMK A01=
KM08 220135Z AUTO 15010KT 10SM FEW055 19/10 A2995 RMK A01=
KM30 220135Z AUTO 00000KT 10SM CLR 16/07 A2991 RMK AO2
     T01580071=
KM54 220135Z AUTO 15006KT 10SM FEW048 17/02 A2999 RMK A01=
KM75 220135Z AUTO 08005KT 10SM OVC032 07/05 A2953 RMK A01=
KM91 220135Z AUTO VRB05G11KT 10SM FEW050 SCT060 18/04 A2996 RMK
     A01=
KMBT 220135Z AUTO 16007KT 10SM SCT037 SCT044 16/03 A3000 RMK
     A01=
KMEV 220135Z AUTO 24014KT 10SM CLR 19/M06 A2990 RMK AO2=
KMHV 220140Z AUTO 28008G13KT 10SM CLR 25/M04 A2987 RMK A01=
KMIO 220135Z AUTO 15013KT 10SM CLR 23/05 A2973 RMK AO2=
KMKS 220135Z AUTO 00000KT 10SM CLR 08/06 A3014 RMK AO2=
KMMI 220135Z AUTO 00000KT 10SM CLR 08/02 A3011 RMK A01=
KMNE 220135Z AUTO 15005KT 10SM CLR 22/14 A2993 RMK AO2
     T02200137=
KMNV 220135Z AUTO 00000KT 9SM 08/02 A3009 RMK A01=
KMNZ 220135Z AUTO 18009KT 10SM CLR 23/07 A2989 RMK AO2
     T02320066=
KMOP 220135Z AUTO 19006KT 10SM CLR 16/05 A2971 RMK AO2
     T01590045=
KMOR 220135Z AUTO 00000KT 10SM FEW047 10/01 A3008 RMK A01=
KMOX 220135Z AUTO 14007KT 10SM CLR 11/M03 A2959 RMK AO2=
KMRC 220135Z AUTO 16005KT 10SM CLR 18/08 A2998 RMK A01=
K04W 220135Z AUTO 00000KT 10SM CLR 05/01 A2962 RMK AO2=
K2D5 220135Z AUTO 15006KT 4SM HZ FEW022 FEW026 OVC050 10/M00 A2955
     RMK AO2=
K4I3 220135Z AUTO 16006KT 10SM CLR 11/01 A3000 RMK AO2=
K6B0 220135Z AUTO 14003KT 10SM CLR 08/00 A3010 RMK AO2
     T00820000=
K82C 220135Z AUTO 14003KT 10SM CLR 08/04 A2964 RMK AO2
     T00830041=
KAIG 220135Z AUTO 24004KT 10SM CLR 08/03 A2966 RMK AO2
     T00810028=
KC29 220135Z AUTO 00000KT 10SM CLR 09/05 A2967 RMK AO1
     T00940045=
KCAD 220135Z AUTO 19005KT 10SM CLR 13/04 A2967 RMK AO2
     T01310041=
KCFE 220135Z AUTO 00000KT 10SM SCT022 SCT029 OVC050 08/01 A2962
     RMK AO2=
KCKZ 220135Z AUTO 18003KT 10SM CLR 05/03 A3017 RMK AO2=
KCNB 220135Z AUTO 16004KT 10SM CLR 11/00 A2960 RMK AO2
     T01110000=
KCVX 220135Z AUTO 20004KT 10SM CLR 14/06 A2963 RMK AO2
     T01360056=
KD57 220135Z AUTO 00000KT 10SM BKN075 OVC085 10/M02 A2952 RMK
     AO2=
KFKA 220135Z AUTO 00000KT 7SM CLR 13/02 A2966 RMK AO2
     T01330020=
KFKS 220135Z AUTO 21005KT 10SM CLR 14/07 A2964 RMK AO2
     T01400067=
