SAUS70 KWBC 220020 RRH
METAR
KLAM 220015Z AUTO 00000KT 10SM CLR 16/M04 A3005 RMK AO2
     T01551040=
KLCQ 220015Z AUTO 00000KT 10SM CLR 11/05 A3009 RMK AO2=
KLGC 220015Z AUTO 00000KT 10SM CLR 10/04 A3011 RMK AO2
     T01000043=
KLLN 220015Z AUTO 24008KT 10SM CLR 22/02 A2984 RMK AO2=
KLOM 220015Z AUTO 00000KT 10SM CLR 06/05 A3015 RMK AO2
     T00570045=
KLOT 220015Z AUTO 18013KT 10SM CLR 20/04 A2974 RMK AO2=
KLRJ 220015Z AUTO 09003KT 10SM CLR 15/01 A2958 RMK AO2=
KLWB 220015Z AUTO 00000KT 10SM CLR 08/01 A3012 RMK AO2
     T00790009=
KLXN 220015Z AUTO 15006KT 10SM CLR 18/M01 A2961 RMK AO2
     T01811015=
KMDQ 220015Z AUTO 00000KT 10SM CLR 17/04 A3005 RMK A02
     T01740039=
KMGC 220015Z AUTO 19011G18KT 10SM CLR 19/02 A2976 RMK AO2=
KMJD 220015Z AUTO 14003KT 10SM CLR 17/11 A3006 RMK AO2=
KMLJ 220015Z AUTO 00000KT 10SM CLR 12/03 A3011 RMK AO2=
KMQI 220015Z AUTO 05007KT 10SM CLR 16/10 A3014 RMK AO2
     T01550102=
KMQS 220015Z AUTO 00000KT 10SM CLR 10/00 A3015 RMK AO2=
KOBE 220015Z AUTO 02006KT 10SM SCT080 20/15 A3001 RMK AO2=
KOGA 220015Z AUTO 24004KT 10SM CLR 22/M06 A2959 RMK AO2
     T02161057=
KOGS 220015Z AUTO 18007G12KT 10SM FEW050 12/M01 A2992 RMK AO2=
KOKM 220015Z AUTO 17009G16KT 10SM CLR 26/06 A2973 RMK AO2
     T02580064=
KOKZ 220015Z AUTO 00000KT 10SM CLR 10/05 A3012 RMK AO2
     T00970052=
KOLZ 220015Z AUTO 33005KT 2 1/2SM HZ CLR 16/01 A2964 RMK A01=
KONL 220015Z AUTO 12006KT 10SM CLR 16/00 A2960 RMK AO2
     T01600000=
KOOA 220015Z AUTO 19007KT 7SM CLR 19/07 A2963 RMK AO2
     T01900066=
KOPL 220015Z AUTO 20007KT 10SM CLR 21/13 A3001 RMK AO2
     T02100132=
KOPN 220015Z AUTO 00000KT 10SM CLR 13/04 A3013 RMK AO2=
KOWP 220015Z AUTO 18005KT 10SM CLR 28/01 A2973 RMK AO2
     T02810013=
KOWX 220015Z AUTO 19010G14KT 10SM CLR 17/M01 A2990 RMK AO1=
KPBX 220015Z AUTO 18003KT 10SM CLR 15/01 A3006 RMK AO2
     T01480005=
KPEA 220015Z AUTO 10003KT 10SM CLR 18/04 A2962 RMK AO2
     T01830035=
KPIM 220015Z AUTO 00000KT 10SM CLR 10/05 A3011 RMK AO2
     T01040045=
KPLU 220015Z AUTO 00000KT 5SM -DZ BKN027 OVC050 09/09 A2972 RMK
     AO2=
KPMU 220015Z AUTO 15005KT 10SM BKN070 22/09 A2993 RMK AO2=
KPNA 220015Z AUTO 28007KT 10SM CLR 12/M07 A2981 RMK AO2=
KPNT 220015Z AUTO 18012KT 10SM CLR 19/07 A2975 RMK AO2
     T01870069=
KPOY 220015Z AUTO 26010G18KT 10SM SCT110 17/M06 A2952 RMK AO2=
KPPQ 220015Z AUTO 16004KT 10SM CLR 19/03 A2974 RMK AO2
     T01900030=
KRCR 220015Z AUTO 19008KT 10SM CLR 18/03 A2982 RMK AO2=
