SAUS70 KWBC 220222 RRA
METAR
KAJG 220215Z AUTO 17004KT 10SM CLR 14/02 A2990 RMK AO2
     T01400022=
KAWG 220215Z AUTO 18009KT 10SM CLR 18/04 A2965 RMK AO2=
KAXA 220215Z AUTO 07006KT 7SM CLR 13/03 A2961 RMK A01=
KC35 220215Z AUTO 00000KT 10SM CLR 08/03 A2965 RMK AO2 T00840031
     PWINO=
KC65 220215Z AUTO 18010KT 10SM CLR 17/03 A2982 RMK A01=
KCBF 220215Z AUTO 13006KT 4SM HZ CLR 18/M05 A2956 RMK AO2=
KCIN 220215Z AUTO 00000KT 3SM HZ CLR 08/00 A2959 RMK AO2=
KCNC 220215Z AUTO 16007KT 10SM CLR 17/03 A2962 RMK AO2=
KDKB 220215Z AUTO 18009KT 10SM CLR 13/06 A2975 RMK AO2
     T01290056=
KDNV 220215Z AUTO 18009KT 10SM CLR 17/03 A2985 RMK AO2
     T01700025=
KEOK 220215Z AUTO 20011G19KT 10SM CLR 21/04 A2967 RMK A01=
KFFL 220215Z AUTO 16006KT 10SM CLR 17/01 A2966 RMK A01=
KGGP 220215Z AUTO 19011KT 10SM CLR 15/01 A2988 RMK AO2=
KHMZ 220215Z AUTO 34003KT 10SM CLR 04/M01 A3012 RMK AO2
     T00371009=
KHNR 220215Z AUTO 00000KT 10SM CLR 07/00 A2959 RMK A01=
KI75 220215Z AUTO 15005KT 10SM CLR 15/04 A2962 RMK AO2
     T01500040=
KIBM 220215Z AUTO 25008KT 10SM CLR 13/M10 A2968 RMK AO2
     T01261098=
KICL 220215Z AUTO 00000KT 6SM HZ CLR 09/03 A2962 RMK AO2=
KIKV 220215Z AUTO 00000KT 8SM CLR 09/03 A2962 RMK AO2=
KJYR 220215Z AUTO 00000KT 9SM CLR 12/M02 A2959 RMK AO2=
KLRJ 220215Z AUTO 00000KT 8SM CLR 08/M01 A2957 RMK AO2=
KMQS 220215Z AUTO 00000KT 10SM CLR 08/00 A3018 RMK AO2=
KONL 220215Z AUTO 14003KT 10SM CLR 14/00 A2957 RMK AO2
     T01351003=
KOOA 220215Z AUTO 17006KT 10SM CLR 16/07 A2965 RMK AO2
     T01640069=
KSDA 220215Z AUTO 00000KT 6SM HZ FEW003 12/02 A2959 RMK AO2=
K0CO 220215Z AUTO 32026G36KT 10SM CLR M01/M13 A3010 RMK AO2=
K33V 220215Z AUTO 20008KT 10SM CLR 06/M10 A2994 RMK AO1=
K74V 220215Z AUTO 26006KT 10SM 12/M08 A2984 RMK AO2=
KAQO 220215Z AUTO 15004KT 10SM CLR 21/07 A2991 RMK AO2=
KASL 220215Z AUTO 00000KT 10SM CLR 19/12 A2990 RMK AO2 T01930118
     TSNO $=
KAUN 220215Z AUTO 10005KT 10SM CLR 21/07 A2981 RMK A01=
KBDG 220215Z AUTO 29004KT 10SM 14/M03 A3004 RMK AO1 T01391035=
KBYY 220215Z AUTO 17004KT 10SM CLR 18/15 A3002 RMK AO2
     T01860147=
KCCU 220215Z AUTO 26010G19KT 10SM CLR 03/M10 A3016 RMK AO2=
KCOM 220215Z AUTO 20007KT 10SM CLR 23/04 A2987 RMK AO2
     T02300042=
KCPW 220215Z AUTO 22024G36KT 10SM CLR 00/M07 A3025 RMK AO2=
KDKB 220215Z AUTO 18009KT 10SM CLR 13/06 A2975 RMK AO2
     T01290056=
KDKR 220215Z AUTO 16008KT 10SM CLR 22/13 A2994 RMK AO2=
KDVO 220215Z AUTO 00000KT 10SM FEW018 15/12 A2984 RMK AO2=
KE41 220215Z AUTO 18010KT 10SM CLR 20/09 A2994 RMK AO2
     T02000094=
KECU 220215Z AUTO 16008KT 10SM CLR 18/08 A3001 RMK AO2=
KGCD 220215Z AUTO 28009KT 5SM RA SCT024 BKN043 OVC050 10/08 A2963
     RMK AO2 P0002 T01000078=
KGVT 220215Z AUTO 17011KT 10SM CLR 23/11 A2986 RMK AO2 TSNO
     T02290111=
KHII 220215Z AUTO 14003KT 10SM CLR 28/05 A2977 RMK AO2=
KLLN 220215Z AUTO 23011KT 10SM CLR 17/05 A2986 RMK AO2=
KPNA 220215Z AUTO 24012G16KT 10SM CLR 10/M08 A2980 RMK AO2=
KPOY 220215Z AUTO 27009KT 10SM SCT095 15/M05 A2952 RMK AO2=
KRCV 220215Z AUTO 26013G21KT 10SM CLR 11/M06 A3000 RMK AO2
     T01111056=
KHCR 220215Z AUTO 00000KT 10SM CLR 13/M11 A2982 RMK AO2=
KHZR 220215Z AUTO 20007KT 10SM CLR 19/14 A3005 RMK AO2
     T01860140=
KIIB 220215Z AUTO 00000KT 7SM CLR 08/02 A2965 RMK AO2
     T00830020=
KIJX 220215Z AUTO 16013G18KT CLR 19/03 A2975 RMK AO2 T01910034=
KLMO 220215Z AUTO 27011G15KT 7SM CLR 21/M09 A2972 RMK AO2
     T02131095=
KLUV 220215Z AUTO 20007KT 10SM CLR 16/06 A2987 RMK AO2=
KMGC 220215Z AUTO 19010G17KT 10SM CLR 17/02 A2979 RMK AO2=
KMLE 220215Z AUTO 00000KT 10SM CLR 11/03 A2959 RMK AO2
     T01070025=
