SAUS70 KWBC 220212
METAR
KBNL 220215Z AUTO 00000KT 10SM FEW045 SCT060 07/03 A3015 RMK AO2
     LTG DSNT SE=
KC62 220235Z AUTO 20011KT 10SM CLR 15/03 A2986 RMK AO2
     T01520040=
KETB 220215Z AUTO 00000KT 10SM CLR 10/03 A2968 RMK AO2=
KFRH 220215Z AUTO 17004KT 10SM CLR 16/00 A2994 RMK AO1=
KGWW 220215Z AUTO 00000KT 10SM SCT055 08/06 A3017 RMK AO2
     T00760060=
KIPJ 220215Z AUTO 00000KT 10SM CLR 05/04 A3015 RMK AO2
     T00510041=
KLHZ 220215Z AUTO 00000KT 10SM CLR 05/03 A3019 RMK AO2=
KOIC 220215Z AUTO 20003KT 10SM CLR 04/M01 A3013 RMK AO2
     T00441009=
KRRL 220215Z AUTO 00000KT 10SM CLR 06/03 A2964 RMK AO2 T00610029
     TSNO=
KTGI 220215Z AUTO 14005KT 10SM CLR 15/10 A3018 RMK AO1
     T01450101=
KDYA 220215Z AUTO 13004KT 10SM CLR 17/13 A3006 RMK AO2
     T01650125=
KFRR 220215Z AUTO 15003KT 10SM CLR 07/01 A3013 RMK AO1=
KJYO 220215Z AUTO 19004KT 10SM CLR 11/02 A3017 RMK AO2=
KLQK 220215Z AUTO 10SM CLR 05/03 A3015 RMK AO2 T00500027=
KMYJ 220215Z AUTO 17007KT 10SM CLR 17/02 A2974 RMK AO2=
KPBH 220215Z AUTO 00000KT 10SM CLR 04/01 A2964 RMK AO2
     T00440014=
KPTB 220215Z AUTO 00000KT 10SM CLR 05/04 A3018 RMK AO2
     T00540041=
KVNW 220215Z AUTO 19009KT 10SM CLR 15/00 A2992 RMK AO2=
