SAUS70 KWBC 220138 RRB
METAR
KPCZ 220135Z AUTO 00000KT 10SM CLR 11/04 A2965 RMK AO2
     T01120038=
KRCX 220135Z AUTO 00000KT 10SM CLR 06/05 A2965 RMK AO2
     T00640048=
KRPD 220135Z AUTO 00000KT 10SM CLR 06/05 A2965 RMK AO2
     T00620049=
KXVG 220133Z AUTO 00000KT 10SM CLR 06/01 A2958 RMK AO2=
K04W 220135Z AUTO 00000KT 10SM CLR 05/01 A2962 RMK AO2=
K06D 220135Z AUTO 00000KT 10SM FEW042 OVC060 05/05 A2956 RMK
     AO2=
K0S9 220135Z AUTO 00000KT 5SM -RA SCT011 BKN018 OVC042 09/08 A2970
     RMK AO2=
K0VG 220135Z AUTO 02004KT 10SM CLR 06/01 A3011 RMK AO2=
K15M 220135Z AUTO 17003KT 10SM CLR 18/10 A3001 RMK AO2 T01750104
     $=
K1R7 220135Z AUTO 16008KT 10SM CLR 20/17 A3004 RMK AO2 PWINO=
K24J 220135Z AUTO 00000KT 10SM 10/04 A3011 RMK A01=
K28J 220135Z AUTO 00000KT 10SM SCT038 08/07 A3011 RMK AO2 TSNO=
K2D5 220135Z AUTO 15006KT 4SM HZ FEW022 FEW026 OVC050 10/M00 A2955
     RMK AO2=
K2P2 220135Z AUTO 00000KT 10SM CLR 06/06 A2961 RMK AO2
     T00570057=
K3AU 220135Z AUTO 18012G17KT 10SM CLR 25/M06 A2965 RMK AO2=
K42J 220135Z AUTO 06004KT 10SM FEW034 FEW039 FEW055 12/05 A3010
     RMK A01=
K46D 220135Z AUTO 00000KT 6SM HZ FEW039 FEW047 OVC070 10/03 A2956
     RMK AO2=
K4A6 220135Z AUTO 00000KT 10SM BKN040 11/05 A3009 RMK AO2=
K4I3 220135Z AUTO 16006KT 10SM CLR 11/01 A3000 RMK AO2=
K4M9 220135Z AUTO 14006KT 9SM CLR 14/10 A2988 RMK AO2 PWINO=
K5H4 220135Z AUTO 00000KT 10SM OVC060 09/05 A2956 RMK AO2=
K6B0 220135Z AUTO 14003KT 10SM CLR 08/00 A3010 RMK AO2
     T00820000=
K6B9 220135Z AUTO VRB06G17KT 10SM CLR 12/M02 A3003 RMK AO2=
K7L2 220135Z AUTO 09006KT 10SM FEW120 13/M01 A2953 RMK AO2=
K7W4 220135Z AUTO 00000KT 10SM CLR 07/04 A3016 RMK AO1
     T00710039=
K7W6 220135Z AUTO 02004KT 10SM CLR 13/12 A3015 RMK AO2
     T01270121=
K82C 220135Z AUTO 14003KT 10SM CLR 08/04 A2964 RMK AO2
     T00830041=
K96D 220135Z AUTO 31006KT 10SM BKN026 BKN039 OVC070 09/08 A2956
     RMK AO2=
K9D7 220135Z AUTO 01006KT 7SM SCT029 BKN038 OVC065 07/06 A2958 RMK
     AO2 TSNO=
KACB 220135Z AUTO 00000KT 10SM CLR 09/07 A2964 RMK AO2
     T00870068=
KACJ 220135Z AUTO 00000KT 10SM CLR 09/04 A3012 RMK AO2
     T00930042=
KAEL 220135Z AUTO 00000KT 7SM CLR 09/03 A2965 RMK AO2=
KAFP 220135Z AUTO 00000KT 10SM CLR 06/02 A3015 RMK AO2
     T00620018=
KAGO 220135Z AUTO 00000KT 10SM CLR 16/13 A2989 RMK A01=
KAIG 220135Z AUTO 24004KT 10SM CLR 08/03 A2966 RMK AO2
     T00810028=
KAIK 220135Z AUTO 07003KT 10SM CLR 09/03 A3014 RMK AO2
     T00900025=
KALM 220135Z AUTO 15008KT 10SM CLR 18/06 A2996 RMK AO2=
KANQ 220135Z AUTO 18008KT 10SM FEW028 SCT037 BKN047 15/03 A2984
     RMK AO2=
KAQX 220135Z AUTO 00000KT 10SM CLR 09/04 A3013 RMK AO2=
KARW 220135Z AUTO 00000KT 10SM CLR 12/09 A3013 RMK AO2=
KASJ 220135Z AUTO 00000KT 10SM SCT065 07/07 A3017 RMK AO2
     T00720065=
KO32 220135Z AUTO 00000KT 5SM HZ CLR 25/13 A2976 RMK AO2 T02500130
     $=
KOCQ 220135Z AUTO 28003KT 10SM CLR 06/04 A2963 RMK AO1
     T00580041=
KOEB 220135Z AUTO 20008KT 10SM CLR 17/03 A2982 RMK AO2
     T01660027=
KOEO 220135Z AUTO 15004KT 10SM CLR 07/03 A2965 RMK AO2
     T00650033=
KOKV 220135Z AUTO 00000KT 10SM CLR 06/00 A3012 RMK AO2=
KOLG 220135Z AUTO 21003KT 10SM CLR 04/00 A2961 RMK AO1=
KOMH 220135Z AUTO 00000KT 10SM CLR 05/02 A3017 RMK AO2=
KONM 220135Z AUTO 22004KT 10SM OVC090 18/06 A2997 RMK AO2
     T01780061=
KONZ 220135Z AUTO 20010KT 10SM BKN100 OVC120 12/04 A2986 RMK AO2
     T01230041=
KORS 220135Z AUTO 00000KT 10SM SCT047 OVC060 09/ A2969 RMK AO2=
KOXD 220135Z AUTO 00000KT 10SM CLR 16/M02 A2996 RMK AO2
     T01551021=
KOZS 220135Z AUTO 16008KT 10SM CLR 21/00 A2977 RMK AO2=
