SACA35 KWBC 212300
METAR
MGGI NIL=
MGPB NIL=
MGSJ NIL=
MHLC 212300Z 14005KT 4000 RA FEW007 BKN020 OVC070 23/23 Q1012
     A2989 NOSIG=
MHLM 212300Z 09005KT 9999 SCT022 BKN070 24/22 Q1013 A2992
     NOSIG=
MHTG 212300Z 36010KT 9999 FEW022 BKN032 FEW034CB 23/19 Q1016 A3000
     NOSIG=
MNPC NIL=
MPBO NIL=
MPCH NIL=
MPDA 212300Z 24006KT 1500 TSRA SCT006 SCT012CB OVC080 25/24
     Q1009=
MPMG NIL=
MPSA NIL=
MPTO 212300Z 22007KT 9999 FEW005 SCT016 BKN080 25/23 Q1009
     NOSIG=
MRLB 212300Z 31005KT 9999 VCTS VCSH FEW010CB SCT030 BKN120 27/25
     A2980=
MRLM NIL=
MROC 212300Z 08003KT 8000 RA BCFG FEW005 SCT040 BKN100 21/20 A3001
     NOSIG=
MRPV 212300Z 04002KT 5000 -RA BCFG FEW005 SCT070 BKN100 20/20
     A2999 NOSIG=
MSLP 212250Z 24007KT 210V080 9999 BKN017 FEW037CB 29/25 Q1008
     A2979 NOSIG RMK CB N E=
MSSS NIL=
MZBZ 212300Z 36005KT 9999 SCT022 BKN046 27/22 A2992 Q1013
     NOSIG=
