SAUS70 KWBC 212300 RRX
METAR
PAHC 212256Z AUTO 20006KT 10SM OVC013 03/02 A2983 RMK AO2
     RAE09UPB09E22 SLP106 P0000 T00330017 $=
