SAUS70 KWBC 220100 RRI
METAR
KPIM 220055Z AUTO 12003KT 10SM CLR 09/05 A3012 RMK AO2
     T00890045=
KPLU 220055Z AUTO 00000KT 3SM -DZ BKN029 OVC036 08/08 A2971 RMK
     AO2=
KPMU 220055Z AUTO 15007KT 10SM CLR 21/10 A2993 RMK AO2=
KPNA 220055Z AUTO 26011G17KT 10SM CLR 11/M07 A2981 RMK AO2=
KPNT 220055Z AUTO 17012KT 10SM CLR 18/07 A2975 RMK AO2
     T01750067=
KPOC 220047Z 23008KT 10SM CLR A2985=
KPOY 220055Z AUTO 28013KT 10SM CLR 16/M06 A2951 RMK AO2=
KPPQ 220055Z AUTO 16006KT 10SM CLR 17/03 A2975 RMK AO2
     T01650032=
KRCR 220055Z AUTO 19010G15KT 10SM SCT055 18/03 A2983 RMK AO2=
KRCV 220055Z AUTO 25014G20KT 10SM CLR 13/M05 A2999 RMK AO2
     T01251051=
KRDK 220055Z AUTO 00000KT CLR 12/01 A2960 RMK AO2=
KREG 220055Z AUTO 18004KT 10SM CLR 20/14 A3005 RMK AO2
     T02010137=
KROG 220058Z 10SM CLR 19/04 A2982 RMK AO2 SLP093 T01890044 $=
KRQO 220055Z AUTO 17010KT CLR 21/04 A2972 RMK AO2 PWINO
     T02150037=
KSBO 220055Z AUTO 00000KT 10SM CLR 10/06 A3013 RMK AO2=
KSUN 220055Z 33005KT 10SM OVC110 15/M01 A2971=
