SAUS70 KWBC 220100
METAR
KDYA 220055Z AUTO 13004KT 10SM CLR 16/13 A3005 RMK AO2
     T01630130=
KFRH 220055Z AUTO 17004KT 10SM CLR 17/00 A2993 RMK AO1=
KGWW 220055Z AUTO 00000KT 10SM SCT055 09/06 A3015 RMK AO2
     T00920061=
KIPJ 220055Z AUTO 00000KT 10SM CLR 07/05 A3014 RMK AO2
     T00660045=
KJYO 220055Z AUTO 20004KT 10SM CLR 10/03 A3015 RMK AO2=
KMMU 220045Z 00000KT 10SM SKC 07/05 A3015=
KMRN 220055Z AUTO 00000KT 10SM CLR 06/04 A3018 RMK AO2
     T00600043=
KMYJ 220055Z AUTO 16006KT 10SM CLR 17/03 A2973 RMK AO2=
KOIC 220055Z AUTO 20004KT 10SM CLR 05/M01 A3012 RMK AO2
     T00481006=
KOLV 220050Z 16007KT 10SM CLR 21/09 A2992=
KPBH 220055Z AUTO 00000KT 10SM CLR 05/01 A2962 RMK AO2
     T00520013=
KPTB 220055Z AUTO 00000KT 10SM CLR 06/04 A3016 RMK AO2
     T00620041=
KTGI 220055Z AUTO 15007KT 10SM CLR 15/10 A3017 RMK AO1
     T01460096=
KVNW 220055Z AUTO 19009KT 10SM CLR 16/00 A2988 RMK AO2=
TJBQ 220050Z 11004KT 10SM CLR 25/22 A2995=
K1S5 220055Z AUTO 11003KT 10SM -RA SCT041 SCT047 OVC060 09/08
     A2967 RMK AO2 P0004 T00900075=
KADS 220047Z 16012G18KT 10SM SKC 27/07 A2981=
KCHD 220047Z 24008KT 10SM CLR 30/09 A2980=
KEMT 220045Z 23007KT 10SM CLR 24/17 A2982=
KGEU 220047Z 21004KT 10SM FEW250 29/10 A2978=
KIFP 220048Z 16010KT 20SM CLR 31/03 A2973=
KJXI 220055Z AUTO 00000KT 10SM CLR 23/10 A2988 RMK AO2
     T02280095=
KMCJ 220055Z AUTO 18012G20KT 10SM FEW042 FEW050 23/14 A2997 RMK
     A01=
KPAO 220047Z 34008KT 10SM HZ FEW200 17/12 A2985=
KRHV 220047Z 30005KT 10SM SKC 19/12 A2984=
KSQL 220047Z 25009KT 10SM SCT200 16/12 A2985=
KTRK 220045Z 20011G16KT 10SM CLR 17/M04 A2998=
KBCT 220053Z 36010G16KT 10SM SCT032 23/17 A2998=
KOQU 220050Z 23005KT 10SM SKC 13/06 A3018=
KRYY 220050Z 00000KT 10SM CLR 11/04 A3012 RMK AO2 SLP199 T01060044
     $=
