SAKA31 PTRO 220100
METAR PTRO 220050Z 04009KT 14SM SCT015 BKN120 BKN300 29/25 A2983=
