SAPA31 KWBC 220100 RRF
METAR
PMDY 220136Z AUTO 35009KT 10SM BKN010 OVC065 23/22 A2997 RMK AO2
     RAE05 CIG 007V013 P0000 TSNO=
