SAUS70 KWBC 212314
METAR
K1S5 212315Z AUTO 22006KT 10SM -RA SCT039 SCT048 OVC060 10/07
     A2970 RMK AO2 P0001 T01000070=
KJXI 212315Z AUTO 17006KT 10SM CLR 28/08 A2986 RMK AO2
     T02750077=
KMCJ 212315Z AUTO 20015G24KT 10SM FEW055 26/14 A2993 RMK A01=
K2C8 212315Z AUTO 26009KT 10SM OVC100 14/01 A2951 RMK AO2=
KCLK 212315Z AUTO 21017G25KT 10SM CLR 29/M03 A2969 RMK AO2=
KD50 212315Z AUTO 00000KT 9SM OVC037 06/04 A2957 RMK AO2=
KFRR 212315Z AUTO 00000KT 10SM CLR 11/00 A3009 RMK AO1=
KLQK 212315Z AUTO 10SM CLR 13/02 A3010 RMK AO2 T01260020=
KSPA 212315Z AUTO 00000KT 10SM CLR 12/01 A3011 RMK AO2=
KY51 212315Z AUTO 24003KT 10SM CLR 18/04 A2963 RMK AO1
     T01820037=
KTFP 212235Z AUTO 17009KT 10SM CLR 26/16 A2995 RMK AO2
     T02570158=
K2J9 212315Z AUTO 00000KT 10SM FEW040 15/06 A3009 RMK AO2=
K4R5 212315Z AUTO 00000KT 10SM SCT110 12/05 A2956 RMK AO2
     T01220045=
K8W2 212315Z AUTO 00000KT 10SM CLR 10/01 A3010 RMK AO1
     T00970005=
KARV 212315Z AUTO 00000KT 10SM CLR 13/03 A2959 RMK AO2
     T01300025=
KCCA 212315Z AUTO 16005KT 10SM CLR 24/09 A2984 RMK AO2=
KCDH 212315Z AUTO 14003KT 9SM CLR 25/12 A2987 RMK AO2=
KCPK 212315Z AUTO 00000KT 12/08 A3014 RMK AO2 T01210076=
KFDW 212315Z AUTO 00000KT 10SM CLR 12/05 A3011 RMK AO1=
KHFY 212315Z AUTO 20008KT 10SM CLR 19/03 A2989 RMK AO2
     T01900031=
KIUA 212315Z AUTO 17004KT 10SM CLR 13/00 A2998 RMK AO2
     T01300004=
KIXA 212315Z AUTO 00000KT 10SM CLR 09/08 A3013 RMK AO2=
KJAQ 212315Z AUTO 25007KT 10SM CLR 27/05 A2986 RMK AO1
     T02720052=
KJHN 212315Z AUTO 20005KT 10SM CLR 28/M10 A2967 RMK AO2
     T02761096=
KLDJ 212315Z AUTO 00000KT 10SM CLR 14/04 A3014 RMK AO2
     T01350040=
KMDZ 212315Z AUTO 27004KT 10SM CLR 15/03 A2961 RMK AO2 T01450031
     PWINO=
KMHL 212315Z AUTO 17007KT 10SM CLR 25/03 A2968 RMK AO2=
KMRJ 212315Z AUTO 00000KT 10SM CLR 20/M01 A2962 RMK AO2=
KRAW 212315Z AUTO 20006KT 10SM CLR 25/01 A2971 RMK AO2=
KVER 212315Z AUTO 17008KT 10SM CLR 26/05 A2969 RMK AO2
     T02610046=
