SAUS70 KWBC 220218 RRH
METAR
KHFJ 220215Z AUTO 16008KT 10SM CLR 20/04 A2979 RMK AO2=
KHHF 220215Z AUTO 26007KT 10SM CLR 15/M01 A2966 RMK AO2
     T01531011=
KHHV 220215Z AUTO 15014G22KT 10SM BKN042 BKN047 24/15 A3002 RMK
     A01=
KHLB 220215Z AUTO 18005KT 10SM FEW033 13/00 A2996 RMK A01=
KHLX 220215Z AUTO 18005KT 10SM CLR 09/M07 A3016 RMK AO2
     T00851070=
KHOE 220215Z AUTO 00000KT 10SM CLR 07/04 A3014 RMK AO2
     T00750047=
KHQG 220215Z AUTO 00000KT 7SM CLR 13/M05 A2966 RMK AO2
     T01301051=
KHQZ 220215Z AUTO 16008KT 10SM CLR 23/09 A2986 RMK AO1
     T02340085=
KHRX 220215Z AUTO 24016KT 10SM CLR 21/00 A2979 RMK AO2
     T02130000=
KHSB 220215Z AUTO 00000KT 10SM CLR 13/08 A2990 RMK AO2
     T01340076=
KWBF 220215Z AUTO 12007KT 10SM 23/13 A3009 RMK A01=
KWDG 220215Z AUTO 17009KT 10SM CLR 21/01 A2965 RMK AO2=
KXLL 220215Z AUTO 00000KT 10SM CLR 06/03 A3018 RMK AO2=
KY31 220215Z AUTO 20004KT 10SM CLR 14/04 A2970 RMK AO2
     T01360038=
KY49 220215Z AUTO 00000KT 10SM OVC100 09/00 A2958 RMK AO2
     T00940002=
PAAD 220215Z AUTO 10020KT 10SM SCT012 BKN043 OVC055 M05/M06 A2989
     RMK AO2 T10481063=
PAUT 220215Z AUTO 17008KT 10SM SCT012 BKN017 OVC075 07/05 A3001
     RMK AO2=
KHSD 220215Z AUTO 18010KT 10SM CLR 23/04 A2969 RMK A01=
KHYW 220215Z AUTO 00000KT 10SM CLR 07/06 A3015 RMK AO2=
KHYX 220215Z AUTO 20013KT 10SM CLR 17/04 A2976 RMK AO2
     T01660035=
KHZD 220215Z AUTO 17007KT 10SM FEW050 17/10 A2994 RMK A01=
KHZX 220215Z AUTO 00000KT 10SM CLR 06/01 A2960 RMK AO2=
KI35 220215Z AUTO 00000KT 10SM CLR 08/02 A3011 RMK AO2
     T00820017=
KI67 220215Z AUTO 00000KT 10SM CLR 10/01 A2997 RMK AO1=
KI68 220215Z AUTO 15005KT 10SM CLR 13/01 A2999 RMK AO1
     T01280012=
KI74 220215Z AUTO 18006KT 10SM CLR 12/01 A2997 RMK AO2=
KIER 220215Z AUTO 20007KT 10SM CLR 22/15 A2998 RMK AO2
     T02150151=
KIFA 220215Z AUTO 03004KT 5SM HZ CLR 08/01 A2963 RMK AO2
     T00810006=
KIFP 220215Z AUTO 22004KT 10SM CLR 29/04 A2975 RMK AO2=
KIGQ 220215Z AUTO 20010KT 10SM CLR 17/04 A2978 RMK AO2
     T01700040=
KIMS 220215Z AUTO 15003KT 10SM CLR 13/01 A2999 RMK AO2=
KINJ 220215Z AUTO 17013KT 10SM CLR 25/09 A2987 RMK AO2
     T02480090=
KIOB 220215Z AUTO 19005KT 10SM CLR 11/01 A3005 RMK AO2 PWINO=
KISO 220215Z AUTO 00000KT 10SM SCT050 OVC060 13/08 A3017 RMK AO2
     T01300081=
KJAU 220215Z AUTO 00000KT 10SM CLR 05/03 A3014 RMK A01=
KJPX 220215Z AUTO 00000KT 10SM CLR 07/07 A3019 RMK AO2
     T00720072=
KJTC 220215Z AUTO 13006KT 10SM CLR 11/03 A3012 RMK AO2=
KJWG 220215Z AUTO 18008KT 10SM CLR 23/02 A2971 RMK AO2
     T02340020=
KJWN 220215Z AUTO 00000KT 10SM 17/05 A2998 RMK A01=
KJWY 220215Z AUTO 17007KT 10SM CLR 23/09 A2988 RMK AO2
     T02330091=
KJYL 220215Z AUTO 00000KT 10SM CLR 06/04 A3015 RMK AO2
     T00640039=
KK70 220215Z AUTO 35008G17KT 320V030 8SM -RA SCT024 BKN029 OVC042
     24/20 A2997 RMK AO2=
KLCG 220215Z AUTO 23003KT 5SM HZ CLR 06/M03 A2959 RMK AO2
     T00601032=
KLNA 220215Z AUTO 34008KT 10SM CLR 22/19 A3001 RMK AO2 LTG DSNT N
     T02180193 PNO=
KLNC 220215Z AUTO 17010KT 10SM CLR 24/09 A2987 RMK AO2
     T02400087=
KLNP 220215Z AUTO 18004KT 10SM CLR 09/00 A3013 RMK AO2=
KLNQ 220215Z AUTO 13003KT 10SM CLR 18/14 A3012 RMK AO2
     T01750137=
KLUA 220215Z AUTO 00000KT 10SM CLR 06/01 A3015 RMK AO2=
KLUG 220215Z AUTO 15004KT 10SM FEW034 FEW044 FEW050 12/06 A3002
     RMK A01=
KLUX 220215Z AUTO 20003KT 10SM CLR 08/02 A3016 RMK AO2=
KLVL 220215Z AUTO 00000KT 10SM CLR 09/05 A3018 RMK AO1
     T00910050=
KLVN 220215Z AUTO 00000KT 7SM CLR 09/02 A2964 RMK AO2=
KLXY 220215Z AUTO 17009G15KT 10SM CLR 22/11 A2990 RMK AO2
     T02200106=
