SAUS70 KWBC 220002
METAR
KW75 220015Z AUTO 00000KT 10SM CLR 10/06 A3016 RMK AO1
     T01010060=
