SAKA31 PTKK 220000
METAR PTKK 212350Z VRB05KT 15SM FEW014 BKN280 30/26 A2983 RMK SLP105
8/101 T03000255 10300 20271 50003
