SAUS70 KWBC 212350
METAR
KDCY 212335Z AUTO 17008KT 10SM CLR 15/02 A2989 RMK AO2
     T01520017=
KEBS 212335Z AUTO 03003KT 4SM HZ CLR 16/00 A2960 RMK AO2=
KEVM 212341Z AUTO 00000KT 10SM CLR 11/02 A2959 RMK AO2=
KJVY 212335Z AUTO 18005KT 10SM CLR 17/01 A2995 RMK AO2 PWINO=
KANK 212330Z AUTO 26014G18KT 10SM CLR A3002 RMK AO1=
KBMC 212335Z AUTO 10SM CLR 22/M05 A2977 RMK AO1 T02161054=
KDUB 212334Z AUTO 28025G32KT 10SM CLR 13/M08 A2970 RMK AO2=
KDWX 212330Z AUTO 22010G17KT 190V250 10SM CLR 18/ A2987 RMK AO2
     T0180=
KEAN 212330Z AUTO 27011G26KT 10SM CLR 22/M13 A2962 RMK AO2
     T02241126=
KGNB 212335Z AUTO 25012G21KT 10SM CLR 13/M10 A2995 RMK AO2
     T01311103=
KGNC 212335Z AUTO 24007KT 10SM CLR 26/02 A2992 RMK AO2
     T02560024=
KHEQ 212335Z AUTO 23004KT 10SM CLR 23/M06 A2964 RMK AO2=
KHSG 212330Z AUTO 24020G28KT 10SM CLR 20/M04 A2955 RMK AO2
     T02041037=
KMMH 212334Z AUTO 26015G20KT 10SM CLR 18/M08 A3007 RMK AO2=
KOSA 212335Z AUTO 17006KT 10SM CLR 25/10 A2985 RMK AO2
     T02470105=
KOZA 212335Z AUTO 19011G19KT 10SM CLR 25/07 A2993 RMK AO2=
KPEQ 212335Z AUTO 23007KT 10SM CLR 29/07 A2986 RMK AO2
     T02860066=
KPVW 212330Z AUTO 24012KT 10SM CLR 25/M01 A2978 RMK AO2
     T02511014=
KSLR 212330Z AUTO 17006KT 10SM CLR 27/08 A2985 RMK AO2
     T02740079=
KTXW 212330Z AUTO 16010KT 10SM CLR 27/16 A2994 RMK AO2
     T02730158=
KOCW 212335Z AUTO 00000KT 10SM 13/07 A3014 RMK AO2 T01330067=
