SAUS70 KWBC 220040 RRA
METAR
K06C 220035Z AUTO 19005KT 10SM CLR 20/08 A2971 RMK AO2
     T01970078=
K0CO 220035Z AUTO 28022G33KT 10SM CLR 00/M13 A3012 RMK AO2=
K0R4 220035Z AUTO 15008KT 10SM CLR 23/12 A2998 RMK AO2
     T02260121=
K13K 220035Z AUTO 15008KT 10SM CLR 24/04 A2966 RMK AO2
     T02350040=
K18A 220035Z AUTO 00000KT 10SM CLR 10/01 A3013 RMK AO2
     T01000007=
K1F0 220035Z AUTO 15006KT 10SM CLR 24/10 A2976 RMK AO2
     T02370095=
K1H2 220035Z AUTO 14005KT 10SM CLR 16/03 A2987 RMK AO2
     T01640030=
K1R8 220035Z AUTO 16004KT 10SM SCT041 BKN047 17/08 A3009 RMK
     AO2=
K2J3 220035Z AUTO 00000KT 10SM CLR 11/05 A3013 RMK AO2
     T01100045=
K2R9 220035Z AUTO 15010KT 10SM CLR 24/15 A2995 RMK AO2
     T02360146=
K2V5 220035Z AUTO 18005KT 10SM CLR 18/M07 A2965 RMK AO2=
K33V 220035Z AUTO 24006KT 10SM CLR 10/M09 A2994 RMK AO1=
K3F3 220035Z AUTO 16011KT 10SM CLR 24/13 A2995 RMK AO2
     T02370130=
K3K3 220035Z AUTO 18003KT 10SM CLR 21/M06 A2967 RMK AO2=
K49A 220035Z AUTO 19003KT 10SM CLR 13/01 A3014 RMK AO2
     T01270013=
K4A9 220035Z AUTO 02003KT 10SM CLR 10/05 A3008 RMK AO2
     T01000047=
K4O4 220035Z AUTO 16008KT 10SM CLR 22/09 A2984 RMK AO2=
K57C 220035Z AUTO 21004KT 10SM CLR 19/04 A2966 RMK AO2
     T01860043=
K5M9 220035Z AUTO 17006KT 10SM CLR 19/07 A2991 RMK AO2
     T01880065=
K5SM 220035Z AUTO 24011G17KT 10SM CLR 03/M12 A3014 RMK AO2=
K66R 220035Z AUTO 17008KT 10SM CLR 23/15 A2997 RMK AO2
     T02300150=
K74V 220035Z AUTO 26008KT 10SM 18/M09 A2983 RMK AO2=
K7BM 220035Z AUTO 26012G27KT 240V350 10SM CLR 10/M13 A3005 RMK
     AO2=
K81R 220035Z AUTO 18009KT 10SM CLR 25/08 A2988 RMK AO2
     T02530076=
K9A5 220035Z AUTO 00000KT 10SM CLR 09/06 A3010 RMK AO2
     T00870056=
KAAA 220035Z AUTO 18011KT 10SM CLR 19/05 A2976 RMK AO2
     T01910050=
KADU 220035Z AUTO 00000KT 10SM SCT005 SCT018 SCT080 08/00 A2963
     RMK AO2=
KAFK 220035Z AUTO 02003KT 10SM CLR 20/00 A2959 RMK AO2
     T01950000=
KAHQ 220035Z AUTO 00000KT 10SM CLR 15/00 A2959 RMK AO2
     T01481002=
KAIO 220035Z AUTO 02004KT 2SM HZ CLR 11/01 A2959 RMK AO2=
KAJG 220035Z AUTO 17005KT 10SM CLR 18/02 A2988 RMK AO2
     T01810017=
KAJR 220035Z AUTO 00000KT 10SM CLR 11/02 A3012 RMK AO2
     T01120017=
KF00 220035Z AUTO 16007KT 10SM CLR 23/08 A2982 RMK AO2
     T02340082=
KFET 220035Z AUTO 00000KT 10SM CLR 15/02 A2960 RMK AO2
     T01490021=
KFHB 220035Z AUTO 04003KT 10SM CLR 14/05 A3010 RMK AO2=
KFOA 220035Z AUTO 16008KT 10SM CLR 13/02 A2987 RMK AO2=
KFSW 220035Z AUTO 17008KT 10SM OVC001 22/04 A2965 RMK AO2=
KFWC 220035Z AUTO 00000KT CLR 18/02 A2987 RMK AO1 T01760017
     PWINO=
KGOP 220035Z AUTO 10SM CLR 25/08 A2988 RMK AO2=
KGPC 220035Z AUTO 17008KT 10SM CLR 15/02 A2988 RMK AO2
     T01520020=
KGRN 220035Z AUTO 18006KT 10SM CLR 14/M08 A2952 RMK AO2
     T01391082=
KGWB 220035Z AUTO 20006KT 10SM CLR 17/03 A2985 RMK AO2=
KHJH 220035Z AUTO 00000KT 7SM CLR 16/01 A2959 RMK AO2
     T01620012=
KHMP 220035Z AUTO 00000KT 10SM CLR 08/06 A3016 RMK AO2
     T00770055=
KHQU 220035Z AUTO 00000KT 10SM CLR 09/04 A3013 RMK AO2
     T00910042=
KIDP 220035Z AUTO 16014G19KT 10SM CLR 25/06 A2968 RMK AO2
     T02520057=
KIIY 220035Z AUTO 13003KT 10SM CLR 10/03 A3013 RMK AO2
     T01030029=
KIYA 220035Z AUTO 15005KT 10SM CLR 18/12 A3004 RMK AO2 T01840117
     PWINO=
KJCA 220035Z AUTO 00000KT 10SM CLR 11/01 A3013 RMK AO2
     T01090014=
KJDD 220035Z AUTO 16003KT 10SM CLR 23/11 A2986 RMK AO2=
KLHB 220035Z AUTO 16006KT 10SM CLR 24/10 A2992 RMK AO2
     T02440103=
KLHM 220035Z AUTO 17007KT 10SM CLR 26/07 A2973 RMK AO1=
