SAUS80 KWBC 212306
METAR
KROS 212302Z AUTO 00000KT 10SM CLR 17/04 A2959 RMK AO2=
KSFY 212303Z AUTO 18004KT 10SM CLR 21/04 A2962 RMK AO2=
