SAUS80 KWBC 212300
METAR
KCQT 212247Z AUTO 26004KT 10SM CLR 23/18 A2985 RMK AO2 SLP104
     T02330178=
KGNT 212255Z AUTO 27014G20KT 10SM CLR 20/00 A3009 RMK AO2
     T02000000=
KJDN 212248Z AUTO 00000KT 09/07 A2955 RMK AO1 SLP018 P0002
     T00940072=
KSNT 212251Z AUTO 21005KT 13/M04 A2975 RMK AO1 SLP017
     T01331039=
KCDJ 212251Z AUTO 18007G16KT 27/03 A2963 RMK AO1 SLP028 T02720033
     $=
KABE 212251Z AUTO 19004KT CLR 12/M01 A3011 RMK AO2 SLP199
     T01221006=
KBDL 212251Z 19005KT 10SM FEW100 13/M02 A3012 RMK AO2 SLP200
     T01281017=
KBKW 212251Z AUTO 14005KT 10SM CLR 12/M01 A3008 RMK AO2 SLP196
     T01221011=
KCAK 212251Z 20010KT 10SM FEW250 16/00 A2996 RMK AO2 SLP150
     T01560000=
KCON 212251Z AUTO 00000KT 10SM CLR 08/01 A3011 RMK AO2 SLP201
     T00780006=
KCRP 212251Z 15016G24KT 10SM FEW034 26/16 A2995 RMK AO2 SLP142
     T02610161=
KEKN 212251Z AUTO 00000KT 10SM CLR 11/01 A3006 RMK AO2 SLP197
     T01060006=
KELP 212251Z 26011KT 10SM FEW250 28/06 A2996 RMK AO2 SLP087
     T02830061=
KHSE 212251Z AUTO VRB05KT 10SM FEW085 17/12 A3009 RMK AO2 SLP190
     T01720122=
KHTS 212251Z 14004KT 10SM CLR 17/M01 A3001 RMK AO2 SLP163
     T01721011=
KIGM 212251Z AUTO 24014G21KT 10SM CLR 26/03 A2994 RMK AO2 SLP078
     T02610033=
KMYL 212251Z AUTO 24005KT 10SM FEW065 OVC085 11/M01 A2973 RMK AO2
     RAB08E20 SLP060 P0000 T01061006=
KORF 212251Z 08003KT 10SM CLR 14/09 A3013 RMK AO2 SLP203
     T01440094=
KOXR 212251Z 23006KT 9SM SCT013 21/17 A2985 RMK AO2 SLP107
     T02060172=
KPVD 212251Z 18004KT 10SM CLR 12/07 A3015 RMK AO2 SLP210
     T01220067=
KROW 212251Z 32008KT 10SM CLR 29/03 A2987 RMK AO2 SLP066
     T02890033=
KSAD 212251Z AUTO 28005KT 10SM CLR 29/07 A2990 RMK AO2 SLP085
     T02890072=
KSAN 212251Z 23008KT 10SM BKN015 22/17 A2987 RMK AO2 SLP115
     T02220167=
KSAT 212251Z 18010G17KT 10SM FEW250 28/09 A2992 RMK AO2 SLP117
     T02830094=
KSMX 212251Z 33007KT 7SM CLR 18/13 A2989 RMK AO2 SLP121
     T01830133=
KSVE 212255Z AUTO 25015G25KT 10SM CLR 23/M02 A2986 RMK AO2=
KTEB 212251Z 20004KT 10SM CLR 13/01 A3012 RMK AO2 SLP200
     T01280011=
KVCT 212251Z 19014G22KT 10SM CLR 27/15 A2995 RMK AO2 SLP141
     T02670150=
KYNG 212251Z 18007KT 10SM FEW200 15/M01 A2997 RMK AO2 SLP153
     T01501006=
KREO 212252Z AUTO 29015G25KT 22/01 A2973 RMK AO1 PK WND 27026/2205
     SLP049 T02170006=
