SAUS80 KWBC 220124
METAR
KCUL 220113Z AUTO 17007KT 10SM CLR 14/04 A2989 RMK AO2=
KDVK 220110Z AUTO 00000KT 10SM CLR 08/01 A3003 RMK AO2=
KM25 220135Z AUTO 18005KT 10SM CLR 19/09 A2993 RMK AO2 PWINO=
KNY0 220114Z AUTO 16004KT 10SM CLR 08/M02 A3010 RMK AO2=
