SASA31 KWBC 220200 RRA
METAR
SKCL 220200Z 36007KT 9999 SCT020 BKN120 23/18 Q1016 NOSIG RMK
     A3001=
SVBC 220203Z AUTO 00000KT NCD ///// Q////=
SVMC 220203Z AUTO NIL=
SVMG 220203Z AUTO 00000KT NCD 28/// Q////=
SVMI 220203Z AUTO 09002KT NCD ///// Q1012=
SYCJ 220200Z 01006KT 9999 SCT017 26/25 Q1010 NOSIG=
