SAUS70 KWBC 220044 RRA
METAR
KGHG 220035Z AUTO 21004KT 10SM CLR 10/06 A3016 RMK AO2=
KHDE 220035Z AUTO 20005KT 10SM CLR 16/M02 A2962 RMK AO2
     T01551016=
KI63 220035Z AUTO 17008KT 10SM CLR 19/03 A2971 RMK AO2
     T01860026=
KOGA 220035Z AUTO 27005KT 10SM CLR 17/M05 A2959 RMK AO2
     T01731050=
KOLE 220035Z AUTO 21009KT 10SM CLR 10/M02 A3001 RMK AO2=
KPPQ 220035Z AUTO 00000KT 10SM CLR 18/03 A2974 RMK AO2
     T01790030=
KRCR 220035Z AUTO 19010KT 10SM SCT055 18/03 A2983 RMK AO2=
KSLB 220035Z AUTO 10009KT 9SM CLR 14/00 A2961 RMK AO2=
KTIP 220035Z AUTO 19011KT 10SM CLR 18/03 A2980 RMK AO2
     T01820028=
KTZR 220035Z AUTO 18006KT 10SM CLR 12/01 A2999 RMK AO2
     T01210005=
KUMP 220035Z AUTO 00000KT 10SM CLR 18/03 A2989 RMK AO2
     T01750028=
KUNI 220035Z AUTO 00000KT 7SM CLR 10/01 A3002 RMK AO2
     T00960005=
KVES 220035Z AUTO 17005KT 10SM CLR 14/M02 A2992 RMK AO2=
KZER 220035Z AUTO 16005KT 10SM CLR 08/M01 A3013 RMK AO2=
K04V 220035Z AUTO 30006KT 10SM 12/M09 A3000 RMK AO2=
K11R 220035Z AUTO 19012G15KT 10SM CLR 26/14 A2994 RMK AO2
     T02550135=
K5C1 220035Z AUTO 21004KT 10SM CLR 21/08 A2994 RMK AO1=
K6P9 220035Z AUTO 19005KT 10SM CLR 26/04 A2983 RMK AO2
     T02580040=
KAFO 220035Z AUTO 17008KT 10SM CLR 10/M10 A2979 RMK AO2=
KAXX 220035Z AUTO 25019G24KT 10SM CLR 11/M06 A3006 RMK AO2
     T01061061=
KBMT 220035Z AUTO 17005KT 10SM CLR 21/15 A3000 RMK AO2
     T02090145=
KCPW 220035Z AUTO 23021G33KT 10SM CLR 01/M07 A3025 RMK AO2=
KDKR 220035Z AUTO 16005KT 10SM CLR 24/09 A2991 RMK AO2=
KDUX 220035Z AUTO 20009KT 10SM CLR 20/M03 A2972 RMK AO2
     T02021029=
KE16 220035Z AUTO 13015KT 9SM CLR 18/10 A2987 RMK AO2 PWINO
     PNO=
KEDC 220035Z AUTO 19005KT 10SM CLR 24/08 A2990 RMK AO2=
KETN 220035Z AUTO 18006KT 10SM CLR 25/03 A2982 RMK AO2
     T02500033=
KGLE 220035Z AUTO 17008KT 10SM CLR 24/06 A2980 RMK AO2
     T02380059=
KGNB 220035Z AUTO 25007G18KT 10SM CLR 12/M12 A2995 RMK AO2
     T01171116=
KHCR 220035Z AUTO 21012G17KT 10SM CLR 17/M11 A2983 RMK AO2=
KHVE 220035Z AUTO 17007KT 10SM CLR 22/M05 A2983 RMK AO2=
KLMO 220035Z AUTO 24005G15KT 7SM CLR 23/M09 A2972 RMK AO2
     T02251086=
KORG 220035Z AUTO 19004KT 10SM CLR 23/17 A3002 RMK AO2
     T02300167=
KPNA 220035Z AUTO 27008KT 10SM CLR 11/M07 A2981 RMK AO2=
KPPA 220035Z AUTO 22008KT 10SM CLR 21/00 A2972 RMK AO2
     T02061005=
KRBO 220035Z AUTO 10SM CLR 24/16 A2996 RMK AO2 T02350158=
KSBS 220035Z AUTO 28008KT 10SM CLR 13/M10 A2988 RMK AO1
     T01311097=
KT20 220035Z AUTO 16009KT 10SM CLR 25/14 A2993 RMK AO2
     T02510136=
KTMK 220035Z AUTO 20006KT 3SM RA SCT010 OVC014 12/11 A2969 RMK AO2
     P0004=
KTXW 220030Z AUTO 15009KT 10SM CLR 25/17 A2996 RMK AO2
     T02530166=
KXBP 220035Z AUTO 19007KT 10SM CLR 26/04 A2979 RMK AO2
     T02630035=
