SAUS70 KWBC 212300 RRM
METAR
KLOL 212253Z AUTO 27016G19KT 10SM CLR 27/M08 A2981 RMK AO2 WSHFT
     2210 RAE23 SLPNO P0000 T02671083 $=
KLPR 212253Z AUTO 19012KT 10SM CLR 17/02 A2991 RMK AO2 SLP129
     T01720017=
KLVK 212253Z 30011KT 10SM CLR 23/11 A2983 RMK AO2 SLP097
     T02280111=
KPRB 212253Z AUTO 21017KT 10SM CLR 27/07 A2985 RMK AO2 SLP104
     T02670067=
KPSC 212253Z 21003KT 10SM -RA BKN070 OVC090 11/07 A2970 RMK AO2
     SLP059 P0003 T01060067=
KPSK 212255Z AUTO 00000KT 10SM CLR 13/01 A3010 RMK AO2
     T01310012=
KPTK 212253Z 18006KT 10SM FEW085 FEW230 17/02 A2978 RMK AO2 SLP087
     T01720022=
KPUW 212253Z AUTO 23006KT 7SM -RA BKN030 OVC042 06/03 A2973 RMK
     AO2 SLP072 P0002 T00560033=
KRBG 212253Z AUTO VRB03KT 10SM OVC036 19/12 A2983 RMK AO2 RAE13
     SLP101 P0000 T01890117=
KRCM 212255Z AUTO 17008KT 10SM CLR 26/01 A2967 RMK AO2=
KRCX 212255Z AUTO 25004KT 10SM CLR 16/05 A2961 RMK AO2
     T01610050=
KRDD 212253Z 17009KT 10SM CLR 28/05 A2974 RMK AO2 SLP065
     T02830050=
KRHI 212253Z AUTO 26004KT 10SM CLR 13/02 A2959 RMK AO2 SLP025
     T01330017=
KRHP 212255Z AUTO 00000KT 10SM CLR 11/01 A3008 RMK AO2
     T01120013=
KRNT 212253Z 15005KT 10SM BKN020 OVC026 10/07 A2975 RMK AO2 RAE47
     SLP080 P0000 T01000072=
KRWF 212253Z AUTO 00000KT 10SM CLR 17/01 A2962 RMK AO2 SLP030
     T01720011=
KRWI 212253Z AUTO 00000KT 10SM CLR 13/04 A3012 RMK AO2 SLP199
     T01280039=
KSAC 212253Z 20007KT 10SM CLR 26/09 A2979 RMK AO2 SLP086
     T02610094=
KSEG 212253Z AUTO 00000KT 10SM CLR 08/02 A3008 RMK AO2 SLP190
     T00780022=
KSFF 212253Z 00000KT 8SM -RA FEW013 OVC027 06/03 A2969 RMK AO2
     SLP056 P0007 T00560028=
KSHD 212255Z AUTO 15004KT 10SM CLR 12/M01 A3012 RMK AO2
     T01241007=
KSHN 212253Z AUTO 25003KT 9SM -RA BKN018 OVC025 09/08 A2972 RMK
     AO2 SLP065 P0006 T00940083=
KSIY 212253Z AUTO 01008KT 10SM CLR 23/07 A2984 RMK AO2 SLP101
     T02280067=
KSJC 212253Z 32013KT 10SM FEW250 21/12 A2985 RMK AO2 SLP108
     T02060117=
KSMF 212253Z 17012KT 10SM BKN250 28/05 A2976 RMK AO2 SLP077
     T02780050=
KSMQ 212253Z AUTO 00000KT 10SM CLR 09/03 A3011 RMK AO2 SLP197
     T00940033=
KSNS 212253Z AUTO 32011KT 8SM OVC012 16/12 A2989 RMK AO2 SLP132
     T01610117 TSNO=
KSPB 212253Z AUTO 15004KT 2 1/2SM -RA BR BKN044 OVC060 09/09 A2976
     RMK AO2 SLP079 P0004 T00940089=
KSPW 212253Z AUTO 10005KT 10SM CLR 21/02 A2961 RMK AO2 SLP027
     T02060017=
KSRR 212255Z AUTO 26011G19KT 250V310 10SM 18/00 A3010 RMK AO2=
KSTP 212253Z 27005KT 10SM CLR 18/02 A2960 RMK AO2 SLP023
     T01780017=
KSTS 212253Z AUTO 16013KT 8SM CLR 18/11 A2984 RMK AO2 SLP097
     T01780106=
KTCL 212253Z 18007KT 10SM CLR 22/12 A3003 RMK AO2 SLP167
     T02220117=
KTDZ 212253Z AUTO 20009KT 10SM CLR 19/03 A2984 RMK AO2 SLP104
     T01940028=
KTHV 212253Z AUTO 00000KT 10SM CLR 08/02 A3010 RMK AO2 SLP199
     T00780022=
KTIW 212253Z 20005KT 7SM -RA FEW009 BKN015 OVC025 08/07 A2976 RMK
     AO2 SLP076 P0002 T00830067=
KTOI 212253Z AUTO 00000KT 10SM CLR 17/07 A3008 RMK AO2 SLP185
     T01720067=
KTTD 212253Z 08003KT 2 1/2SM -RA BR FEW020 SCT026 OVC034 10/08
     A2979 RMK AO2 SLP088 P0008 T01000078=
KTTN 212253Z 21003KT 10SM CLR 13/M01 A3012 RMK AO2 SLP195
     T01331006=
KTVC 212253Z 20006G15KT 10SM FEW180 FEW240 19/04 A2958 RMK AO2
     SLP017 T01890044=
KTVL 212253Z AUTO 20012G20KT 180V240 10SM CLR 18/M05 A3003 RMK AO2
     SLP136 T01831050=
KTVY 212255Z AUTO 23007G16KT 10SM CLR 24/00 A2980 RMK AO2=
KUAO 212253Z 12004KT 1 3/4SM -RA BR BKN003 BKN018 OVC025 09/08
     A2978 RMK AO2 PRESFR SLP084 P0017 T00890083=
