SACA32 KWBC 220200 RRB
METAR
MDST 220200Z 00000KT 9999 FEW017CB FEW018 BKN300 26/23 Q1014
     CB/SW/NW=
