SAUS70 KWBC 220248
METAR
K6S8 220240Z AUTO 05010KT 10SM 10/05 A2955 RMK A01 Laurel=
KTFP 220215Z AUTO 18008KT 10SM CLR 23/17 A2997 RMK AO2
     T02280167=
