SAUS70 KWBC 212320 RRC
METAR
KORS 212315Z AUTO VRB03KT 5SM -RA HZ OVC040 10/M01 A2972 RMK
     AO2=
KPVF 212315Z AUTO 21006KT 10SM CLR 26/02 A2991 RMK AO1=
KSVC 212315Z AUTO 28012G17KT 10SM CLR 24/06 A3006 RMK AO2
     T02400062=
KSXU 212315Z AUTO 27022G27KT 10SM CLR 24/M01 A2985 RMK AO2
     T02351010=
KT69 212315Z AUTO 16010G17KT 10SM CLR 25/16 A2995 RMK A01=
KTME 212315Z AUTO 19015KT 10SM CLR 26/14 A2995 RMK AO2=
KU42 212315Z AUTO 21006KT 10SM CLR 23/02 A2982 RMK AO1
     T02270023=
K0CO 212315Z AUTO 29027G37KT 10SM CLR 01/M16 A3012 RMK AO2=
K13K 212315Z AUTO 18011KT 10SM CLR 27/04 A2965 RMK AO2
     T02710035=
K1F0 212315Z AUTO 15008KT 10SM CLR 29/05 A2975 RMK AO2
     T02940053=
K2J3 212315Z AUTO 00000KT 10SM CLR 14/04 A3010 RMK AO2
     T01380036=
K2R9 212315Z AUTO 16008KT 10SM CLR 28/10 A2993 RMK AO2
     T02810104=
K2V5 212315Z AUTO 17010KT 10SM CLR 25/M08 A2965 RMK AO2=
K3F3 212315Z AUTO 17012KT 10SM CLR 27/12 A2994 RMK AO2
     T02660115=
K57C 212315Z AUTO 21006KT 10SM CLR 20/04 A2964 RMK AO2
     T02030044=
K5M9 212315Z AUTO 15005KT 10SM CLR 20/05 A2989 RMK AO2
     T02010053=
K5SM 212315Z AUTO 24013G28KT 200V260 10SM CLR 06/M13 A3015 RMK
     AO2=
K7BM 212315Z AUTO 26014G28KT 230V300 10SM CLR 11/M16 A3006 RMK
     AO2=
K81R 212315Z AUTO 19010G16KT 10SM CLR 29/07 A2987 RMK AO2
     T02890071=
KASL 212315Z AUTO 00000KT 9SM CLR 27/11 A2985 RMK AO2 T02680108
     TSNO $=
KBCK 212315Z AUTO 00000KT 10SM CLR 11/04 A2960 RMK AO2
     T01080038=
KBPG 212315Z AUTO 22012KT 10SM CLR 28/04 A2985 RMK AO2
     T02770036=
KC07 212315Z AUTO 28009G18KT 230V320 10SM CLR 07/M09 A3007 RMK
     AO2=
KC35 212315Z AUTO 00000KT 10SM CLR 18/03 A2961 RMK AO2 T01780031
     PWINO=
KCBK 212315Z AUTO 00000KT 10SM CLR 24/M07 A2968 RMK AO2
     T02421068=
KCFD 212315Z AUTO 18008G15KT 10SM CLR 28/10 A2991 RMK AO2
     T02800101=
KCFS 212315Z AUTO 17008KT 10SM CLR 17/03 A2973 RMK AO2
     T01670030=
KCKN 212315Z AUTO 23006KT 10SM SCT120 13/M02 A2954 RMK AO2=
KCQM 212317Z AUTO 26003KT 10SM CLR 12/M01 A2956 RMK AO2=
KDCM 212315Z AUTO 00000KT 10SM CLR 11/01 A3012 RMK AO2=
KDZJ 212315Z AUTO 10003KT 10SM CLR 14/00 A3010 RMK AO2
     T01400005=
KE42 212315Z AUTO 22013KT 10SM CLR 28/M06 A2969 RMK AO2
     T02791062=
KEBG 212315Z AUTO 14008KT 10SM CLR 28/15 A2994 RMK AO2 T02810147
     PWINO=
KEGV 212315Z AUTO 00000KT 10SM CLR 11/03 A2958 RMK AO2
     T01050025=
KELA 212315Z AUTO 19012G19KT 10SM CLR 27/14 A2994 RMK AO2
     T02650143=
KEMM 212315Z AUTO 26025G36KT 10SM CLR 15/M13 A2987 RMK AO2=
KETC 212315Z AUTO 00000KT 10SM CLR 10/06 A3012 RMK AO2
     T01020060=
KEZZ 212315Z AUTO 19012KT 10SM CLR 27/03 A2963 RMK AO2
     T02670028=
KF00 212315Z AUTO 17009KT 10SM CLR 28/09 A2980 RMK AO2
     T02830088=
KFET 212315Z AUTO 10005KT 10SM CLR 23/02 A2959 RMK AO2
     T02260019=
KFHB 212315Z AUTO 04004KT 10SM CLR 16/05 A3008 RMK AO2=
KFOA 212315Z AUTO 18009KT 10SM CLR 19/03 A2985 RMK AO2=
KFSW 212315Z AUTO 18008KT 10SM OVC001 23/04 A2964 RMK AO2=
KFWC 212315Z AUTO 14003KT CLR 20/01 A2985 RMK AO1 T02000010
     PWINO=
KGDB 212315Z AUTO 00000KT 10SM CLR 16/02 A2964 RMK AO2
     T01560021=
KGPC 212315Z AUTO 17009KT 10SM CLR 18/02 A2987 RMK AO2
     T01800023=
KGRN 212315Z AUTO 22006KT 10SM CLR 21/M09 A2954 RMK AO2
     T02101087=
KGWB 212315Z AUTO 20006KT 10SM CLR 18/03 A2983 RMK AO2=
KHJH 212315Z AUTO 00000KT 10SM CLR 23/00 A2958 RMK AO2
     T02270003=
KHLX 212315Z AUTO 17005KT 10SM CLR 11/M08 A3011 RMK AO2
     T01081079=
KHMP 212315Z AUTO 00000KT 10SM CLR 11/06 A3013 RMK AO2
     T01090064=
