SAUS70 KWBC 220100 RRX
METAR
KWDG 220055Z 16013KT 10 SM SCT200 22/02 A2965=
