SAUS70 KWBC 220100 RRC
METAR
K6B0 220055Z AUTO 13003KT 10SM CLR 07/01 A3009 RMK AO2
     T00710005=
KACB 220055Z AUTO 00000KT 10SM CLR 10/07 A2963 RMK AO2
     T01020072=
KAFJ 220056Z AUTO 00000KT 10SM CLR 07/02 A3007 RMK AO2 SLP188
     T00720017=
KBHB 220056Z AUTO 20005KT 10SM CLR 09/06 A3017 RMK AO2 SLP217
     T00940056 PNO $=
KBLM 220056Z AUTO 16004KT 10SM CLR 11/07 A3017 RMK AO2 SLP219
     T01110072=
KCDD 220053Z AUTO 00000KT 10SM CLR 06/02 A2958 RMK AO2=
KCIU 220056Z AUTO 24004KT 10SM CLR 09/07 A2963 RMK AO2 SLP039
     T00890067=
KCVX 220055Z AUTO 20006KT 10SM CLR 15/06 A2962 RMK AO2
     T01450056=
KD95 220055Z AUTO 19008KT 10SM CLR 17/M01 A2978 RMK AO2
     T01661011=
KDUH 220055Z AUTO 19008KT 10SM CLR 18/00 A2985 RMK AO2
     T01800000=
KFKS 220055Z AUTO 21009G17KT 190V250 10SM CLR 16/06 A2963 RMK AO2
     T01550060=
KFPK 220055Z AUTO 19008KT 10SM CLR 15/04 A2976 RMK AO2
     T01470040=
KGAI 220056Z AUTO 12005KT 10SM CLR 09/01 A3015 RMK AO2 SLP227
     T00890011=
KHAI 220055Z AUTO 19008KT 10SM CLR 16/03 A2980 RMK AO2
     T01640032=
KHNB 220056Z AUTO 15007KT 10SM CLR 18/03 A2992 RMK AO2 SLP132
     T01780028=
KIWD 220056Z AUTO 00000KT 10SM CLR 04/03 A2961 RMK AO2 SLP033
     T00440033=
KSLH 220055Z AUTO 23004KT 10SM CLR 11/06 A2962 RMK AO2=
KTOB 220055Z AUTO 00000KT 10SM CLR 10/01 A2965 RMK AO2=
KUGN 220055Z 22015G24KT 10SM CLR 20/04 A2968 RMK AO2 SLP048 LAST
     T02000039=
KBID 220056Z AUTO 22008KT 10SM CLR 13/07 A3018 RMK AO2 SLP222
     T01330067=
KBMI 220056Z 18014KT 10SM CLR 16/04 A2978 RMK AO2 SLP084
     T01610039=
KCAD 220055Z AUTO 19006KT 10SM CLR 14/04 A2967 RMK AO2
     T01390040=
KCNB 220055Z AUTO 11003KT 10SM CLR 11/00 A2962 RMK AO2
     T01090000=
KDTL 220055Z AUTO 15004KT 10SM OVC055 10/01 A2956 RMK AO2=
KIRS 220055Z AUTO 20009KT 10SM CLR 16/01 A2980 RMK AO2
     T01620009=
KISQ 220055Z AUTO 00000KT 3SM BR CLR 07/06 A2961 RMK AO2
     T00650063=
KJHW 220056Z AUTO 19010KT 10SM CLR 11/M01 A3000 RMK AO2 SLP173
     T01061006=
KLCI 220056Z AUTO 00000KT 10SM CLR 04/02 A3013 RMK AO2 SLP209
     T00390017=
KLXL 220055Z AUTO 00000KT 10SM CLR 06/02 A2961 RMK AO2=
KMBL 220056Z AUTO 19006KT 10SM CLR 18/06 A2963 RMK AO2 SLP036
     T01780056=
KMNM 220056Z AUTO 32007KT 10SM CLR 10/05 A2961 RMK AO2 SLP028
     T01000050 PNO $=
KMSV 220056Z AUTO 00000KT 10SM CLR 08/M01 A3014 RMK AO2 SLP215
     T00831011=
KMVN 220056Z AUTO 17003KT 10SM CLR 18/05 A2987 RMK AO2 SLP119
     T01780050=
KSUE 220056Z AUTO 23003KT 10SM CLR 12/06 A2961 RMK AO2 SLP030
     T01170061=
KTTF 220055Z AUTO 19010G17KT 10SM CLR 15/03 A2984 RMK AO2
     T01510025=
KULM 220055Z AUTO 00000KT 10SM CLR 13/M01 A2962 RMK AO2=
KWVL 220056Z AUTO 19003KT 10SM CLR 07/03 A3011 RMK AO2 SLP227
     T00670028=
KY50 220056Z AUTO 00000KT 6SM HZ CLR 09/03 A2964 RMK AO2 SLP042
     T00940033 $=
KY70 220055Z AUTO 19010KT 10SM CLR 16/04 A2972 RMK AO2
     T01630035=
KCQF 220055Z AUTO 00000KT 10SM CLR 12/09 A3010 RMK AO2=
KDIK 220056Z AUTO 36004KT 10SM BKN100 OVC110 11/02 A2951 RMK AO2
     SLP003 T01060017=
KDUC 220055Z AUTO 18008KT 10SM CLR 23/04 A2975 RMK AO2
     T02250041=
KDZJ 220055Z AUTO 00000KT 10SM CLR 09/01 A3014 RMK AO2
     T00860014=
KE42 220055Z AUTO 19010KT 10SM CLR 20/M03 A2968 RMK AO2
     T02021033=
KEAU 220056Z 16003KT 7SM CLR 09/03 A2963 RMK AO2 SLP037
     T00890028=
KEBA 220055Z AUTO 00000KT 10SM CLR 10/01 A3013 RMK AO2
     T00970014=
KEBG 220055Z AUTO 14009KT 10SM CLR 24/17 A2996 RMK AO2 T02430167
     PWINO=
KEGV 220055Z AUTO 00000KT 10SM CLR 05/02 A2963 RMK AO2
     T00450015=
