SACA32 KWBC 220100 RRA
METAR
TAPA 220100Z 08007KT 040V120 9999 SCT018 27/23 Q1013 NOSIG=
