SATO31 NFTF 220000
METAR NFTV 220000Z 08003KT 9999 FEW018 BKN100 28/24 Q1012=

METAR NFTL 220000Z VRB02KT 9999 FEW009 SCT016TCU BKN290 26/21 Q1012=

METAR NFTF 220000Z 13011KT 9999 FEW009 SCT016 BKN100 24/21 Q1014=



