SAUS70 KWBC 220100 RRR
METAR
K74V 220055Z AUTO 27006KT 10SM 15/M08 A2983 RMK AO2=
KAJZ 220055Z AUTO 24003KT 10SM CLR 18/M04 A2987 RMK AO2 T01811040
     PWINO=
KBJC 220056Z 27017G20KT 10SM SCT120 19/M11 A2977=
KCEC 220056Z AUTO 13003KT 7SM OVC018 16/11 A2992 RMK AO2 SLP131
     T01560106=
KDSF 220050Z AUTO 05009KT 10SM CLR 22/13 A3010 RMK A01=
KEED 220056Z AUTO 21009KT 10SM CLR 31/05 A2976 RMK AO2 SLP050
     T03110050=
KENV 220056Z AUTO 25009KT 10SM CLR 22/M11 A2972 RMK AO2 SLP047
     T02221106=
KGLX 220055Z AUTO 05009KT 10SM CLR 21/13 A3010 RMK A01=
KHHV 220055Z AUTO 16010G23KT 10SM BKN042 24/14 A3000 RMK A01=
KPVU 220056Z 00000KT 10SM CLR 17/06 A2981 RMK AO2 SLP073
     T01670056=
KSEZ 220055Z AUTO 20008KT 10SM 21/05 A2998 RMK AO2=
KVIS 220056Z AUTO 06004KT 10SM CLR 29/10 A2977 RMK AO2 SLP085
     T02940100=
KIWA 220047Z 28005KT 10SM CLR 28/11 A2992=
KOAR 220055Z AUTO 28008KT 7SM OVC011 04/00 A2989 RMK AO2 PWINO=
KOSC 220055Z AUTO 20008KT 10SM CLR 16/05 A2969 RMK AO2
     T01560049=
KSGH 220056Z AUTO 19006KT 10SM CLR 14/01 A2997 RMK AO2 SLP152
     T01390006=
KAJG 220055Z AUTO 17006KT 10SM CLR 15/01 A2989 RMK AO2
     T01460013=
KART 220056Z AUTO 17007KT 10SM CLR 14/M02 A2997 RMK AO2 SLP148
     T01391017=
KASW 220055Z AUTO 21006KT 10SM CLR 17/02 A2984 RMK AO2
     T01740030=
KAUM 220057Z AUTO 00000KT 7SM CLR 11/03 A2965 RMK AO2=
KAWG 220055Z AUTO 18008KT 10SM CLR 20/03 A2964 RMK AO2=
KBAF 220053Z 00000KT 10SM CLR 04/02 A3014 RMK AO2 SLP212
     T00440017=
KBAX 220055Z AUTO 19012KT 10SM CLR 15/04 A2974 RMK AO2
     T01450039=
KC75 220055Z AUTO 19010G14KT 10SM CLR 21/07 A2970 RMK AO2
     T02100066=
KCAV 220055Z AUTO 07006KT 5SM HZ 11/01 A2962 RMK A01=
KCBF 220055Z AUTO 12004KT 4SM HZ CLR 19/M05 A2957 RMK AO2=
KCQM 220057Z AUTO 00000KT 10SM CLR 09/00 A2957 RMK AO2=
KCXY 220056Z 16005KT 10SM CLR 14/00 A3013 RMK AO2 SLP204
     T01390000=
KD39 220055Z AUTO 00000KT 10SM CLR 10/00 A2961 RMK AO2
     T01000003=
KDAY 220056Z 18008KT 10SM SCT250 16/00 A2996 RMK AO2 SLP145
     T01610000=
KDDH 220054Z AUTO 21004KT 10SM CLR 05/M04 A3011 RMK AO2 SLP201
     T00501039 $=
KDSF 220050Z AUTO 05009KT 10SM CLR 22/13 A3010 RMK A01=
KERY 220055Z AUTO 19003KT 4SM BR CLR 05/05 A2961 RMK AO2
     T00490047=
KGLX 220055Z AUTO 05009KT 10SM CLR 21/13 A3010 RMK A01=
KGON 220056Z 21010KT 10SM CLR 16/09 A3016 RMK AO2 SLP214
     T01560094=
KHCD 220055Z AUTO 00000KT 10SM CLR 11/00 A2963 RMK AO2
     T01140004=
KHHV 220055Z AUTO 16010G23KT 10SM BKN042 24/14 A3000 RMK A01=
KHVN 220053Z 21005KT 10SM CLR 15/08 A3016 RMK AO2 SLP213
     T01500078=
KHWV 220056Z AUTO 00000KT 10SM CLR 08/06 A3017 RMK AO2 SLP217
     T00830061=
KJMS 220056Z AUTO 03004KT 6SM HZ FEW120 09/M02 A2953 RMK AO2
     SLP009 T00941017=
K33V 220055Z AUTO 24011G14KT 10SM CLR 09/M09 A2994 RMK AO1=
K66R 220055Z AUTO 17009G14KT 10SM CLR 23/15 A2998 RMK AO2
     T02260150=
KAQO 220055Z AUTO 17005KT 10SM CLR 24/07 A2990 RMK AO2=
KAUN 220055Z AUTO 18005KT 9SM CLR 24/07 A2981 RMK A01=
KBDG 220055Z AUTO 00000KT 10SM 15/M03 A3003 RMK AO1 T01521031=
KBPG 220055Z AUTO 19009KT 10SM CLR 22/06 A2985 RMK AO2
     T02240062=
KBVS 220055Z AUTO 16003KT 10SM OVC018 09/09 A2972 RMK A01
     P0004=
KBYY 220055Z AUTO 18005KT 10SM BKN042 20/15 A3000 RMK AO2
     T02000147=
KCCU 220055Z AUTO 26013G22KT 10SM CLR 03/M11 A3016 RMK AO2=
KELA 220055Z AUTO 19008KT 10SM CLR 23/15 A2997 RMK AO2
     T02260145=
KGPM 220050Z 16011G16KT 10SM SKC 27/08 A2983=
KLUD 220055Z AUTO 17007KT 7SM CLR 26/02 A2980 RMK AO2
     T02610022=
KPEZ 220055Z AUTO 16004KT 10SM CLR 24/11 A2993 RMK AO2
     T02350105=
