SANZ31 NZKL 212330
METAR NZAA 212330Z AUTO 20007KT 160V230 9999 BKN050/// 17/08 Q1029
NOSIG=
METAR NZWN 212330Z AUTO 17007KT 140V200 9999 NCD 13/05 Q1031 NOSIG=
METAR NZCH 212330Z AUTO 05009KT 020V080 9999 NCD 14/04 Q1030 NOSIG=
