SAUS70 KWBC 220300
METAR
KDLL 220255Z AUTO 00000KT 10SM CLR 08/03 A2967 RMK AO2
     T00800027=
KW13 220255Z AUTO 10SM CLR 06/00 A3017 RMK AO1 T00550000=
KCNW 220255Z 17008KT 10SM SKC 23/09 A2989=
