SAUS80 KWBC 220038
METAR
KM21 220035Z AUTO 00000KT 10SM CLR 16/03 A2994 RMK AO2
     T01620027=
KCLI 220035Z AUTO 00000KT 10SM CLR 10/04 A2963 RMK AO2
     T01040040=
KEKX 220035Z AUTO 17005KT 10SM CLR 14/01 A2998 RMK AO2
     T01390005=
KPTS 220035Z AUTO 17007KT 10SM CLR 22/05 A2971 RMK AO2 T02160051
     PWINO=
KSMS 220035Z AUTO 00000KT 10SM CLR 08/05 A3014 RMK AO2=
KSNC 220035Z AUTO 00000KT 10SM CLR 11/07 A3016 RMK AO2=
KSOW 220035Z AUTO 23010KT 10SM CLR 16/01 A3009 RMK AO2=
KY23 220035Z AUTO 00000KT 10SM CLR 09/05 A2963 RMK AO2
     T00870049=
KIKW 220035Z AUTO 16003KT 10SM CLR 17/05 A2971 RMK AO2
     T01670045=
KPOV 220035Z AUTO 17003KT 10SM CLR 11/M02 A2997 RMK AO2 T01101016
     PWINO=
KPZQ 220035Z AUTO 20006KT 10SM CLR 16/05 A2964 RMK AO2
     T01580053=
KLYV 220035Z AUTO 00000KT 7SM CLR 11/01 A2962 RMK AO2=
KSVE 220035Z AUTO 28016G21KT 10SM CLR M20/M48 A2983 RMK AO2=
KSYN 220035Z AUTO 00000KT 7SM CLR 10/02 A2964 RMK AO2
     T00970021=
KSNC 220035Z AUTO 00000KT 10SM CLR 11/07 A3016 RMK AO2=
KY23 220035Z AUTO 00000KT 10SM CLR 09/05 A2963 RMK AO2
     T00870049=
K9MN 220035Z AUTO 00000KT 10SM CLR 17/03 A2965 RMK AO1
     T01650025=
KEDU 220040Z AUTO 19008KT 10SM CLR 22/12 A2975 RMK AO1=
KGNG 220035Z AUTO 23005KT 10SM CLR 17/02 A2969 RMK AO2=
KJNX 220035Z AUTO 00000KT 10SM CLR 07/06 A3014 RMK AO2=
KCIR 220035Z AUTO 21004KT 10SM CLR 20/09 A2988 RMK AO2
     T02000087=
KS39 220035Z AUTO 32007KT 290V350 3SM -RA SCT031 BKN037 OVC055
     14/09 A2968 RMK AO2=
KSEP 220035Z AUTO 18004KT 10SM SCT110 26/04 A2986 RMK AO2
     T02570039=
KTKC 220035Z AUTO 00000KT 10SM 11/00 A2962 RMK AO2 T01140001=
KTKV 220035Z AUTO 00000KT 10SM CLR 08/03 A2963 RMK AO2 T00770028
     PWINO=
KRFI 220035Z AUTO 16006KT 10SM CLR 26/07 A2991 RMK AO2
     T02570068=
KRLD 220035Z AUTO 20006KT 10SM -RA BKN075 OVC095 10/08 A2968 RMK
     AO2 P0002 T01000081=
KVTI 220035Z AUTO 00000KT 7SM CLR 17/00 A2963 RMK AO2
     T01701003=
KMKN 220035Z AUTO 18008KT 10SM CLR 26/06 A2984 RMK AO2
     T02550061=
