SAUS80 KWBC 212338
METAR
KM21 212335Z AUTO 14003KT 10SM CLR 19/02 A2993 RMK AO2
     T01850023=
KCLI 212335Z AUTO 00000KT 10SM CLR 13/04 A2961 RMK AO2
     T01270039=
KEKX 212335Z AUTO 17004KT 10SM CLR 15/00 A2998 RMK AO2
     T01510001=
KSMS 212335Z AUTO 00000KT 10SM CLR 10/05 A3012 RMK AO2=
KSNC 212335Z AUTO 19005KT 10SM CLR 11/06 A3015 RMK AO2=
KSOW 212335Z AUTO 23015G22KT 10SM CLR 19/M00 A3010 RMK AO2=
KY23 212335Z AUTO 00000KT 10SM CLR 12/05 A2960 RMK AO2
     T01230054=
KPZQ 212335Z AUTO 19006KT 10SM CLR 16/06 A2961 RMK AO2
     T01610056=
KPOV 212335Z AUTO 00000KT 10SM CLR 12/M02 A2996 RMK AO2 T01231019
     PWINO=
KSYN 212335Z AUTO 00000KT 7SM CLR 14/02 A2962 RMK AO2
     T01390015=
KIKW 212335Z AUTO 16006KT 10SM CLR 17/04 A2969 RMK AO2
     T01700042=
KCIR 212335Z AUTO 22005KT 10SM CLR 22/08 A2987 RMK AO2
     T02160084=
KMKN 212335Z AUTO 19011G17KT 10SM CLR 29/06 A2984 RMK AO2
     T02940059=
KEDU 212340Z AUTO 16006KT 10SM CLR 25/10 A2976 RMK AO1=
KGNG 212335Z AUTO 29010KT 10SM CLR 19/02 A2972 RMK AO2=
KPTS 212335Z AUTO 19007KT 10SM CLR 25/05 A2970 RMK AO2 T02460048
     PWINO=
KRFI 212335Z AUTO 18003KT 10SM CLR 27/06 A2989 RMK AO2
     T02740056=
KRLD 212335Z AUTO 15005KT 10SM UP SCT060 BKN070 OVC085 11/07 A2969
     RMK AO2 P0002 T01060074=
KS39 212335Z AUTO 25011G17KT 9SM SCT042 OVC055 16/07 A2969 RMK
     AO2=
KSEP 212335Z AUTO 19007KT 10SM CLR 29/03 A2985 RMK AO2
     T02920026=
KJNX 212335Z AUTO 00000KT 10SM CLR 09/07 A3012 RMK AO2=
KTKC 212335Z AUTO 00000KT 10SM 15/00 A2962 RMK AO2 T01461003=
KTKV 212335Z AUTO 00000KT 10SM CLR 13/03 A2960 RMK AO2 T01260030
     PWINO=
KVTI 212335Z AUTO 00000KT 7SM CLR 22/00 A2961 RMK AO2
     T02161004=
KLYV 212335Z AUTO 00000KT 5SM HZ CLR 14/01 A2961 RMK AO2=
KSNC 212335Z AUTO 19005KT 10SM CLR 11/06 A3015 RMK AO2=
KY23 212335Z AUTO 00000KT 10SM CLR 12/05 A2960 RMK AO2
     T01230054=
KSVE 212335Z AUTO 25017G25KT 10SM CLR 23/M02 A2985 RMK AO2=
KCLI 212335Z AUTO 00000KT 10SM CLR 13/04 A2961 RMK AO2
     T01270039=
KIKW 212335Z AUTO 16006KT 10SM CLR 17/04 A2969 RMK AO2
     T01700042=
