SAUS70 KWBC 212320
METAR
KATP 212315Z AUTO 07010G17KT 10SM FEW040 23/14 A3006 RMK A01=
KBAX 212315Z AUTO 17009KT 10SM CLR 14/05 A2972 RMK AO2
     T01360045=
KBQX 212315Z AUTO 17014KT 10SM CLR 24/14 A3000 RMK A01=
KCDD 212314Z AUTO 00000KT 10SM CLR 11/M01 A2957 RMK AO2=
KD39 212315Z AUTO 00000KT 10SM CLR 13/01 A2960 RMK AO2
     T01320008=
KERY 212315Z AUTO 20008KT 10SM SCT006 09/07 A2958 RMK AO2
     T00860065=
KGHB 212315Z AUTO 00000KT 9SM CLR 23/13 A3005 RMK A01=
KGLX 212315Z AUTO 06009KT 10SM CLR 22/12 A3008 RMK A01=
KGRY 212315Z AUTO VRB06G13KT 10SM CLR 22/12 A3007 RMK A01=
KHCD 212315Z AUTO 00000KT 10SM CLR 14/01 A2963 RMK AO2
     T01440005=
KHZX 212315Z AUTO 00000KT 7SM CLR 13/02 A2959 RMK AO2=
KIMS 212315Z AUTO 15004KT 10SM CLR 17/00 A2997 RMK AO2=
KLVN 212315Z AUTO 00000KT 7SM CLR 15/01 A2962 RMK AO2=
KMOP 212315Z AUTO 17008KT 10SM CLR 17/04 A2967 RMK AO2
     T01650044=
KMOX 212315Z AUTO 00000KT 10SM CLR 15/M03 A2961 RMK AO2=
KMZH 212315Z AUTO 00000KT 10SM CLR 14/01 A2959 RMK AO2=
KOSC 212315Z AUTO 19008G14KT 10SM CLR 16/04 A2965 RMK AO2
     T01600043=
KPMH 212315Z AUTO 00000KT 10SM CLR 14/00 A3000 RMK AO2
     T01401001=
KPZZ 212315Z AUTO 14008KT 9SM CLR 23/13 A3006 RMK A01=
KRRT 212315Z AUTO 21003KT 10SM CLR 13/04 A2950 RMK AO2=
KVAF 212315Z AUTO 17011KT 10SM CLR 24/12 A3001 RMK A01=
KVOA 212320Z AUTO 08007KT 10SM CLR 21/10 A3009 RMK A01=
KY31 212315Z AUTO 19006KT 10SM CLR 17/03 A2965 RMK AO2
     T01660027=
KY49 212315Z AUTO 00000KT 10SM CLR 12/00 A2957 RMK AO2
     T01211002=
K14Y 212315Z AUTO 00000KT 10SM CLR 13/00 A2961 RMK AO2=
K6B0 212315Z AUTO 16004KT 10SM CLR 10/M01 A3006 RMK AO2
     T00961011=
K7L2 212315Z AUTO 11004KT 9SM SCT120 15/M00 A2952 RMK AO2=
KAEL 212315Z AUTO 00000KT 7SM CLR 17/03 A2962 RMK AO2=
KBAC 212315Z AUTO 13003KT 9SM BKN100 BKN120 14/00 A2953 RMK
     AO2=
KCBG 212315Z AUTO 00000KT 10SM CLR 14/03 A2961 RMK AO2=
KCDI 212315Z AUTO 00000KT 10SM CLR 11/03 A3000 RMK AO2
     T01090026=
KCNB 212315Z AUTO 14005KT 7SM CLR 16/00 A2961 RMK AO2
     T01551005=
KD95 212315Z AUTO 18004KT 10SM CLR 16/M01 A2976 RMK AO2
     T01611012=
KDRM 212315Z AUTO 25003KT 10SM CLR 12/05 A2958 RMK AO2
     T01240052=
KDXX 212315Z AUTO 06004KT 5SM HZ CLR 15/01 A2961 RMK AO2=
KEDJ 212315Z AUTO 20008KT 10SM CLR 16/01 A2993 RMK A01=
KELO 212315Z AUTO 26004KT 10SM CLR 12/00 A2956 RMK AO2=
KFFM 212315Z AUTO 22004KT 10SM CLR 14/01 A2957 RMK AO2=
KFKA 212315Z AUTO 32003KT 7SM CLR 18/02 A2964 RMK AO2
     T01750015=
KFSE 212315Z AUTO 20005KT 10SM CLR 11/M01 A2957 RMK AO2=
KHZL 212315Z AUTO 00000KT 10SM CLR 08/M01 A3013 RMK AO2=
KI69 212315Z AUTO 18005KT 10SM CLR 18/00 A2998 RMK AO2
     T01770000=
KISQ 212315Z AUTO 21004KT 10SM CLR 09/07 A2957 RMK AO2
     T00850074=
KLJF 212315Z AUTO 00000KT 10SM CLR 14/01 A2962 RMK AO2=
KLXL 212315Z AUTO 00000KT 10SM CLR 13/00 A2961 RMK AO2=
KMCD 212315Z AUTO 25008G16KT 220V280 10SM CLR 13/07 A2959 RMK AO2
     T01250065=
KMDS 212315Z AUTO 15003KT 10SM CLR 17/M00 A2961 RMK AO2=
KN38 212315Z AUTO 19010KT 10SM CLR 10/M03 A3003 RMK AO2=
KOXD 212315Z AUTO 19007KT 10SM CLR 19/M05 A2993 RMK AO2
     T01901050=
KPWC 212315Z AUTO 00000KT 10SM CLR 12/02 A2962 RMK AO2=
KRNH 212315Z AUTO 22003KT 7SM CLR 15/06 A2961 RMK AO2
     T01450055=
KRNP 212315Z AUTO 17007KT 10SM CLR 18/02 A2974 RMK AO2
     T01800022=
K04W 212315Z AUTO 34003KT 10SM CLR 14/02 A2959 RMK AO2=
K06D 212315Z AUTO 27008KT 10SM SCT022 OVC032 08/05 A2954 RMK
     AO2=
K22N 212315Z AUTO 00000KT 10SM CLR 05/01 A3012 RMK AO2=
K82C 212315Z AUTO 00000KT 10SM CLR 14/04 A2961 RMK AO2
     T01390037=
