SACA42 KWBC 220200
METAR
TIST 220153Z AUTO 08010KT 10SM FEW085 28/23 A2993=
TISX 220153Z AUTO 06006KT 10SM CLR 28/23 A2993=
TJBQ 220150Z 11006KT 10SM SCT027 25/22 A2996=
TJMZ NIL=
TJNR 220153Z AUTO 06006KT 10SM FEW027 28/22 A2996=
TJPS NIL=
TJSJ 220156Z 14003KT 10SM SCT028 28/23 A2996=
