SAUS80 KWBC 220134
METAR
KSVE 220135Z AUTO 30009G16KT 10SM CLR M07/M22 A2984 RMK AO2=
