SAUS70 KWBC 220040 RRF
METAR
KAXH 220035Z AUTO 19004KT 10SM CLR 22/15 A3000 RMK AO2
     T02200145=
KAZC 220035Z AUTO 30005KT 10SM CLR 21/00 A2996 RMK AO2=
KBAM 220035Z AUTO 24011G19KT 10SM CLR 22/M07 A2980 RMK AO1=
KBDU 220035Z AUTO 23008KT 10SM CLR 21/M08 A2973 RMK AO2=
KOAR 220035Z AUTO 27009KT 7SM OVC011 04/00 A2990 RMK AO2 PWINO=
KSVC 220035Z AUTO 31007KT 10SM CLR 20/08 A3004 RMK AO2
     T01990078=
KSXU 220035Z AUTO 26013G19KT 10SM CLR 21/00 A2986 RMK AO2
     T02080001=
KSZT 220035Z AUTO 23007KT 5SM -RA SCT010 BKN014 OVC021 03/02 A2965
     RMK AO2=
KTBX 220035Z AUTO 10SM CLR 13/M08 A2977 RMK AO2=
KU68 220035Z AUTO 08010KT 10SM OVC120 18/M03 A2948 RMK AO2=
KADC 220037Z AUTO 00000KT 10SM CLR 11/00 A2959 RMK AO2 TSNO=
KCDD 220035Z AUTO 00000KT 10SM CLR 06/02 A2958 RMK AO2=
KCFS 220035Z AUTO 17011G18KT 10SM CLR 17/03 A2974 RMK AO2
     T01700026=
KCKN 220035Z AUTO 24004KT 10SM CLR 12/M02 A2955 RMK AO2=
KGDB 220035Z AUTO 05005KT 10SM CLR 11/02 A2963 RMK AO2
     T01090019=
KMJQ 220035Z AUTO 05004KT 7SM CLR 10/01 A2965 RMK AO2=
KPHN 220035Z AUTO 19006KT 10SM CLR 12/03 A2982 RMK AO2=
KLGC 220035Z AUTO 00000KT 10SM CLR 09/05 A3011 RMK AO2
     T00880050=
KLLN 220035Z AUTO 23008KT 10SM CLR 18/04 A2985 RMK AO2=
KLOM 220035Z AUTO 00000KT 10SM CLR 06/04 A3015 RMK AO2
     T00560045=
KLOT 220035Z AUTO 18013G18KT 10SM CLR 20/04 A2974 RMK AO2=
KLRJ 220035Z AUTO 00000KT 10SM CLR 12/00 A2958 RMK AO2=
KLUV 220035Z AUTO 23008KT 10SM SCT120 21/04 A2985 RMK AO2=
KLWB 220035Z AUTO 00000KT 10SM CLR 09/01 A3013 RMK AO2
     T00890010=
KLXN 220035Z AUTO 16008KT 10SM CLR 14/M01 A2961 RMK AO2
     T01381010=
KMDQ 220035Z AUTO 00000KT 10SM CLR 17/04 A3005 RMK A02
     T01710036=
KMGC 220035Z AUTO 19012G19KT 10SM CLR 19/02 A2977 RMK AO2=
KMJD 220035Z AUTO 14004KT 10SM CLR 17/11 A3007 RMK AO2=
KMLE 220035Z AUTO 00000KT 10SM CLR 14/03 A2959 RMK AO2
     T01410032=
KMLJ 220035Z AUTO 00000KT 10SM CLR 12/03 A3011 RMK AO2 LTG DSNT
     N=
KMQB 220035Z AUTO 18010KT 10SM CLR 18/02 A2971 RMK AO2
     T01810016=
KMQI 220035Z AUTO 05006KT 10SM BKN075 16/10 A3014 RMK AO2
     T01590103=
KMQS 220035Z AUTO 00000KT 10SM CLR 10/00 A3016 RMK AO2=
KNOW 220035Z AUTO 30011KT 10SM -RA BKN013 BKN024 OVC048 09/09
     A2973 RMK AO2 P0003 T00870086=
KOBE 220035Z AUTO 02007KT 10SM FEW085 20/15 A3001 RMK AO2=
KOGA 220035Z AUTO 27005KT 10SM CLR 17/M05 A2959 RMK AO2
     T01731050=
KOGS 220035Z AUTO 18007G13KT 10SM FEW050 11/M01 A2992 RMK AO2=
KOKM 220035Z AUTO 16006KT 10SM CLR 25/07 A2974 RMK AO2
     T02480065=
KOKZ 220035Z AUTO 00000KT 10SM CLR 09/05 A3012 RMK AO2
     T00920049=
KOLE 220035Z AUTO 21009KT 10SM CLR 10/M02 A3001 RMK AO2=
KOLZ 220035Z AUTO 01003KT 2SM HZ CLR 18/01 A2964 RMK A01=
KONL 220035Z AUTO 12007KT 10SM CLR 15/00 A2959 RMK AO2
     T01500000=
KOOA 220035Z AUTO 17007KT 7SM CLR 18/06 A2964 RMK AO2
     T01810064=
KOPL 220035Z AUTO 20007KT 10SM CLR 21/13 A3002 RMK AO2
     T02070132=
KOPN 220035Z AUTO 00000KT 10SM CLR 13/03 A3014 RMK AO2=
KOWP 220035Z AUTO 18004KT 10SM CLR 28/01 A2974 RMK AO2
     T02750012=
KOWX 220035Z AUTO 19009G15KT 10SM CLR 17/M01 A2990 RMK AO1=
KPBX 220035Z AUTO 00000KT 10SM CLR 14/01 A3006 RMK AO2
     T01430005=
KPEA 220035Z AUTO 10005KT 10SM CLR 18/04 A2963 RMK AO2
     T01770036=
KPIM 220035Z AUTO 12003KT 10SM CLR 09/05 A3012 RMK AO2
     T00930047=
KPLU 220035Z AUTO 00000KT 4SM -RA OVC027 09/09 A2972 RMK AO2=
KPMU 220035Z AUTO 14005KT 10SM SCT070 22/09 A2993 RMK AO2=
KPNA 220035Z AUTO 27008KT 10SM CLR 11/M07 A2981 RMK AO2=
KPNT 220035Z AUTO 17012KT 10SM CLR 17/07 A2975 RMK AO2
     T01720068=
