SAUS70 KWBC 212248
METAR
K6S8 212240Z AUTO 04009G15KT 10SM 17/M00 A2952 RMK A01 Laurel=
KTFP 212215Z AUTO 18010G16KT 10SM CLR 26/16 A2996 RMK AO2
     T02610156=
