SAUS80 KWBC 220100
METAR
K12N 220054Z AUTO 00000KT 07/02 A3014 RMK AO1 SLP212 T00720022=
KMTP 220054Z AUTO VRB03KT 14/09 A3018 RMK AO1 SLP221 T01390089=
KDMH 220054Z AUTO 14/01 A3015 RMK AO1 SLP210 T01390011=
KNAK 220054Z AUTO 00000KT 10SM CLR 11/07 A3015 RMK AO2 SLP211
     T01110072=
K1V4 220054Z AUTO 05/01 A3008 RMK AO1 SLP194 T00500006 PNO=
KACY 220054Z 00000KT 10SM CLR 08/05 A3017 RMK AO2 SLP217
     T00780050=
KAKQ 220054Z AUTO 00000KT 10SM CLR 07/05 A3017 RMK AO2 SLP216
     T00720050=
KAPN 220054Z AUTO 00000KT 10SM CLR 11/05 A2966 RMK AO2 SLP049
     T01110050=
KAVP 220054Z 00000KT 10SM CLR 08/M01 A3012 RMK AO2 SLP201
     T00781006=
KBTV 220054Z 18006KT 10SM CLR 10/M02 A3007 RMK AO2 SLP184
     T01001017=
KBUF 220054Z 19014KT 10SM FEW250 14/00 A2994 RMK AO2 SLP140
     T01440000=
KCAR 220054Z AUTO 21005KT 10SM CLR 07/M01 A3005 RMK AO2 SLP184
     T00671011=
KCOS 220054Z VRB05KT 10SM FEW230 18/M11 A2980 RMK AO2 SLP017
     T01831106=
KCOU 220054Z 16010KT 10SM CLR 21/01 A2973 RMK AO2 SLP064 T02110011
     $=
KCRW 220054Z 00000KT 10SM CLR 11/03 A3004 RMK AO2 SLP177
     T01060028=
KDSM 220054Z 00000KT 10SM FEW250 17/03 A2962 RMK AO2 SLP028
     T01720033=
KFWA 220054Z 20010KT 10SM CLR 15/03 A2986 RMK AO2 SLP114
     T01500028=
KGSO 220054Z 00000KT 10SM CLR 10/03 A3014 RMK AO2 SLP205
     T01000028=
KIKW 220055Z AUTO 16004KT 10SM CLR 16/05 A2971 RMK AO2
     T01600046=
KINL 220054Z AUTO 21003KT 10SM CLR 07/01 A2953 RMK AO2 SLP010
     T00720006=
KJAN 220054Z 16007KT 10SM CLR 18/11 A2999 RMK AO2 SLP155
     T01780106=
KPZQ 220055Z AUTO 20006KT 10SM CLR 16/05 A2965 RMK AO2
     T01590053=
KRFD 220054Z 18008KT 10SM CLR 18/04 A2969 RMK AO2 SLP055
     T01780044=
KRIC 220054Z 14006KT 10SM CLR 11/04 A3015 RMK AO2 SLP215
     T01060044=
KROA 220054Z 00000KT 10SM CLR 11/01 A3016 RMK AO2 SLP214
     T01110011=
KROC 220054Z 19007KT 10SM CLR 12/M01 A2996 RMK AO2 SLP152
     T01221006=
KSBN 220054Z 20011KT 10SM CLR 18/03 A2980 RMK AO2 SLP091
     T01830033=
KSUS 220054Z 17006KT 10SM CLR 22/02 A2977 RMK AO2 SLP079
     T02220022=
KSYR 220054Z 18012G21KT 10SM FEW200 FEW250 14/M03 A3002 RMK AO2
     SLP163 T01391033=
KWAL 220054Z AUTO 00000KT 10SM CLR 11/07 A3018 RMK AO2 SLP215
     T01060072=
KLEX 220054Z 15005KT 10SM CLR 15/01 A3001 RMK AO2 SLP162
     T01500006=
KLYH 220054Z 00000KT 10SM CLR 08/01 A3014 RMK AO2 SLP209
     T00830011=
KLYV 220055Z AUTO 07003KT 10SM CLR 11/01 A2962 RMK AO2=
KMVL 220054Z AUTO 00000KT 10SM CLR 03/M01 A3009 RMK AO2 SLP196
     T00281006=
KORH 220054Z 22007KT 10SM CLR 08/02 A3015 RMK AO2 SLP215
     T00780022=
KPIA 220054Z 19010KT 10SM CLR 20/03 A2972 RMK AO2 SLP065
     T02000033=
KPOV 220055Z AUTO 15003KT 10SM CLR 11/M02 A2998 RMK AO2 T01091016
     PWINO=
KDRT 220053Z AUTO 13008KT 10SM CLR 24/12 A2989 RMK AO2 SLP117
     T02390122=
KLBB 220053Z 23011KT 10SM CLR 23/02 A2981 RMK AO2 SLP062
     T02280022=
K6R6 220051Z AUTO 12003KT 20/13 A2992 RMK AO1 SLP111 T02000128=
KFNB 220053Z AUTO 19009KT 10SM CLR 24/04 A2958 RMK AO2 SLP011
     T02440044=
KGRR 220053Z 20012KT 10SM CLR 18/04 A2973 RMK AO2 SLP068
     T01780044=
KFMN 220053Z 26003KT 10SM CLR 17/M03 A2996 RMK AO2 SLP125
     T01671028=
KRQE 220053Z AUTO 19005KT 10SM CLR 14/02 A3005 RMK AO2 SLP120
     T01390022=
KTCS 220053Z AUTO 25011KT 10SM CLR 22/04 A2996 RMK AO2 SLP089
     T02220039=
KABI 220052Z 19008KT 10SM CLR 26/04 A2982 RMK AO2 SLP079
     T02610039=
KABQ 220052Z 25009KT 10SM FEW090 21/02 A2997 RMK AO2 SLP099
     T02060022=
KALS 220052Z AUTO 24009KT 10SM CLR 12/M05 A2995 RMK AO2 SLP120
     T01171050=
