SAUS70 KWBC 220000 RRX
METAR
KC09 212355Z AUTO 19008G14KT 10SM CLR 20/05 A2971 RMK AO2
     T02040049 10249 20203=
KC83 212355Z AUTO 26012G17KT 10SM CLR 26/08 A2979 RMK AO2=
KCBK 212355Z AUTO 12003KT 10SM CLR 19/M06 A2967 RMK AO2 T01941061
     10282 20193 402820049=
KCCY 212355Z AUTO 36005KT 10SM CLR 15/00 A2963 RMK AO2=
KCQM 212356Z AUTO 00000KT 10SM CLR 11/M01 A2956 RMK AO2=
KCRX 212355Z AUTO 16004KT 10SM CLR 20/09 A2996 RMK AO2=
KCSQ 212355Z AUTO 00000KT 8SM CLR 21/01 A2960 RMK AO2=
KCVC 212355Z AUTO 00000KT 10SM CLR 11/03 A3010 RMK AO2=
KCWC 212355Z AUTO 19014G22KT 150V210 10SM CLR 30/01 A2974 RMK AO2
     T02990011 10335 20299=
KCXP 212355Z AUTO 21011G20KT 10SM CLR 23/M05 A2992 RMK AO2=
KTYL 212355Z AUTO 21013G16KT 10SM CLR 20/03 A3006 RMK AO2=
KU68 212355Z AUTO 08004KT 10SM BKN120 20/M04 A2949 RMK AO2=
KUCY 212355Z AUTO 16005KT 10SM CLR 19/09 A2988 RMK A01=
KUSE 212355Z AUTO 21009KT 10SM CLR 17/02 A2983 RMK AO2=
KUVA 212355Z AUTO 18005KT 10SM CLR 25/10 A2993 RMK AO2 T02500098
     10283 20243=
KUXL 212355Z AUTO 18006KT 10SM CLR 21/14 A3001 RMK AO2 T02110143
     10277 20211=
KVAF 212355Z AUTO 16016KT 10SM FEW044 24/13 A3002 RMK A01=
KVCV 212355Z AUTO 00000KT 10SM CLR 28/M06 A2990 RMK AO2=
KWBF 212355Z AUTO 00000KT 10SM 23/13 A3007 RMK A01=
KWHP 212350Z 15006KT 10SM SKC 25/15 A2987 RMK OBSERVER HT=
KXLL 212355Z AUTO 00000KT 10SM CLR 10/02 A3014 RMK AO2=
KY31 212355Z AUTO 20005KT 10SM CLR 16/03 A2968 RMK AO2 T01600027
     10197 20160=
KY49 212355Z AUTO 00000KT 10SM CLR 11/00 A2958 RMK AO2 T01110000
     10151 20104=
PAAD 212355Z AUTO 10022G25KT 10SM OVC012 M04/M06 A2986 RMK AO2
     T10441058 11041 21048=
PAUT 212355Z AUTO 19007KT 10SM BKN011 OVC110 06/05 A3009 RMK
     AO2=
KCXU 212355Z AUTO 00000KT 10SM CLR 11/05 A3010 RMK AO1 T01130045
     10224 20113=
KCXW 212355Z AUTO 15005KT 6SM HZ CLR 20/08 A2984 RMK A01=
KCZL 212355Z AUTO 00000KT 10SM CLR 13/03 A3011 RMK AO2=
KD39 212355Z AUTO 23003KT 10SM CLR 11/01 A2961 RMK AO2 T01130009
     10166 20113=
KDCM 212355Z AUTO 00000KT 10SM CLR 10/02 A3014 RMK AO2=
KDEH 212355Z AUTO 00000KT 10SM BKN022 17/01 A2962 RMK AO2=
KDKX 212355Z AUTO 00000KT 10SM CLR 11/06 A3007 RMK A01=
KDSF 212355Z AUTO 04008KT 10SM CLR 22/13 A3008 RMK A01=
KDTA 212355Z AUTO 19012KT 10SM CLR 23/M10 A2983 RMK AO1=
KDUA 212355Z AUTO 16006KT 10SM CLR 27/05 A2980 RMK AO2=
KDZB 212355Z AUTO 18005KT 10SM CLR 27/06 A2990 RMK AO2 T02690062
     10320 20269=
KECS 212355Z AUTO 33010KT 10SM CLR 19/M10 A2952 RMK AO2=
KEDN 212355Z AUTO 00000KT 10SM CLR 14/08 A3008 RMK AO2 T01400077
     10216 20140=
KEGV 212355Z AUTO 00000KT 10SM CLR 08/02 A2960 RMK AO2 T00770024
     10177 20074=
KEIK 212355Z AUTO 24013G21KT 10SM CLR 23/M12 A2971 RMK AO2
     T02281116 10256 20228 PWINO=
KEKS 212350Z AUTO 17022G33KT 10SM FEW070 BKN085 OVC110 16/M03
     A2955 RMK AO2=
KEKY 212356Z AUTO 15004KT 10SM CLR 17/09 A3007 RMK AO2 SLP031
     T01670089 10233 20167 53003=
KERV 212355Z AUTO 18006KT 10SM CLR 24/08 A2994 RMK AO2 T02440082
     10281 20244=
KERY 212355Z AUTO 00000KT 10SM CLR 08/06 A2959 RMK AO2 T00820062
     10150 20080=
KF05 212355Z AUTO 21012KT 10SM CLR 29/02 A2972 RMK AO2 T02910018
     10335 20291=
KF17 212355Z AUTO 18008KT 10SM CLR 25/10 A2992 RMK AO2=
KF44 212355Z AUTO 20004KT 10SM CLR 26/11 A2986 RMK AO2=
KF46 212355Z AUTO 19007KT 10SM CLR 27/08 A2983 RMK AO2 T02670082
     10316 20265=
KFGX 212355Z AUTO 22004KT 10SM CLR 14/00 A3002 RMK AO2 T01410000
     10210 20141=
KFKN 212355Z AUTO 00000KT 10SM CLR 08/06 A3015 RMK AO2 T00830059
     10201 20083=
