SAUS80 KWBC 212300 RRB
METAR
PHJR 212253Z 14008KT 10SM CLR 30/22 A3001 RMK AO2 SLP168
     T03000217=
PHKO 212253Z 31008KT 10SM FEW060 31/21 A2997 RMK AO2 SLP147
     T03110206=
PHMK 212254Z 16008KT 10SM FEW046 30/20 A3001 RMK AO2 SLP164
     T03000200=
PHNL 212253Z 16007KT 10SM FEW025 SCT040 29/23 A2999 RMK AO2 SLP156
     T02940228=
PHNY 212256Z AUTO 28006KT 10SM CLR 27/19 A3007 RMK AO2 SLP160
     T02670189 $=
PHOG 212254Z 03016KT 10SM FEW045 34/21 A2998 RMK AO2 SLP155
     T03390206=
PHTO 212253Z 12010KT 10SM FEW060 OVC090 28/23 A2999 RMK AO2 SLP155
     T02830233=
K4BM 212255Z AUTO 24006KT 10SM CLR 09/M17 A3015 RMK AO2=
KSPD 212256Z AUTO 02003KT 27/M10 A2973 RMK AO1 SLP005
     T02721100=
KCAO 212255Z AUTO 23008KT 10SM CLR 25/M08 A2978 RMK AO2 SLP028
     T02501083 $=
KFLG 212257Z 25009KT 220V290 10SM CLR 17/02 A3012 RMK AO2 SLP135
     T01720017=
KSFO 212256Z COR 28017KT 10SM FEW009 FEW200 18/12 A2986 RMK AO2
     SLP110 T01780117=
KSOA 212255Z AUTO 10SM 27/05 RMK AO2=
KACY 212254Z 19003KT 10SM CLR 13/07 A3015 RMK AO2 SLP208
     T01330067=
KCHS 212256Z 34005KT 10SM CLR 16/06 A3009 RMK AO2 SLP189
     T01560056=
KSYR 212254Z 17005KT 10SM FEW200 SCT250 13/M03 A3001 RMK AO2
     SLP162 T01331028=
K8D3 212256Z AUTO 16007KT 17/01 A2957 RMK AO1 SLP006 T01670006=
KCKP 212255Z AUTO 08003KT 7SM CLR 21/01 A2960 RMK AO2
     T02110010=
K2WX 212256Z AUTO 16008KT 20/M01 A2944 RMK AO1 SLP962
     T02001006=
K9V9 212255Z AUTO 16007KT 10SM CLR 19/02 A2956 RMK AO2
     T01920017=
KAYS 212255Z AUTO 00000KT 10SM CLR 16/06 A3008 RMK AO2
     T01570055=
KD07 212256Z AUTO 16013G17KT 18/01 A2948 RMK AO1 SLP983
     T01780006=
KGIC 212255Z AUTO 22006KT 7SM OVC039 06/03 A2972 RMK AO1=
KIZA 212255Z AUTO 27014KT 10SM CLR 23/12 A2985 RMK AO2=
KPSN 212255Z AUTO 20010KT 10SM CLR 29/08 A2986 RMK AO2=
KMWN 212257Z 24027G33KT 70SM SCT040 01/M19 RMK=
KCBE 212255Z AUTO 00000KT 10SM CLR 15/M01 A3010 RMK AO2
     T01481005=
