SAPA32 KWBC 220200 RRA
METAR
NCRG 220230Z AUTO 05008KT 9999 BKN014/// 27/23 Q1014=
NWWW 220230Z AUTO 06010KT 020V100 CAVOK 30/13 Q1012 NOSIG=
