SAUS80 KWBC 220300
METAR
KM25 220255Z AUTO 19006KT 10SM CLR 18/09 A2994 RMK AO2 PWINO=
