SAUS70 KWBC 220040 RRH
METAR
KCMD 220035Z AUTO 17006KT 10SM CLR 17/07 A3007 RMK AO2=
KCNC 220035Z AUTO 17007KT 10SM CLR 19/03 A2962 RMK AO2=
KCNI 220035Z AUTO 12003KT 10SM CLR 14/00 A3012 RMK AO2
     T01370000=
KCOM 220035Z AUTO 20005KT CLR 25/02 A2985 RMK AO2 T02540015
     PWINO=
KCPW 220035Z AUTO 23021G33KT 10SM CLR 01/M07 A3025 RMK AO2=
KCQB 220035Z AUTO 16004KT 10SM CLR 24/03 A2972 RMK AO2
     T02440035=
KCUH 220035Z AUTO 00000KT 10SM CLR 24/03 A2970 RMK AO2
     T02370030=
KCWV 220035Z AUTO 00000KT 10SM CLR 09/06 A3012 RMK AO2
     T00940062=
KCZT 220035Z AUTO 17003KT 10SM CLR 20/11 A2990 RMK AO2=
KD73 220035Z AUTO 00000KT 10SM CLR 08/05 A3013 RMK AO2
     T00840047=
KDKB 220035Z AUTO 18007KT 10SM CLR 13/06 A2972 RMK AO2
     T01330055=
KDKR 220035Z AUTO 16005KT 10SM CLR 24/09 A2991 RMK AO2=
KDNS 220035Z AUTO RMK AO2 PNO PWINO=
KDNV 220035Z AUTO 18008KT 10SM CLR 19/03 A2983 RMK AO2
     T01860028=
KDQH 220035Z AUTO 00000KT 10SM CLR 13/04 A3013 RMK AO2
     T01250038=
KDVO 220035Z AUTO 22006KT 10SM CLR 18/11 A2983 RMK AO2=
KE16 220035Z AUTO 13015KT 9SM CLR 18/10 A2987 RMK AO2 PWINO
     PNO=
KE38 220035Z AUTO 25006KT 10SM CLR 20/06 A3007 RMK AO2
     T02040058=
KE41 220035Z AUTO 18008KT 10SM CLR 23/09 A2991 RMK AO2
     T02260095=
KECU 220035Z AUTO 17005KT 10SM CLR 20/09 A3000 RMK AO2=
KEGT 220035Z AUTO 18015G22KT 10SM CLR 28/01 A2964 RMK AO2
     T02770008=
KEOK 220035Z AUTO 19013KT 10SM FEW035 23/04 A2965 RMK A01=
KFEP 220035Z AUTO 19008KT 10SM CLR 17/06 A2968 RMK AO2
     T01670061=
KFFL 220035Z AUTO 18005KT 8SM CLR 20/00 A2965 RMK A01=
KPPQ 220035Z AUTO 00000KT 10SM CLR 18/03 A2974 RMK AO2
     T01790030=
KPTT 220035Z AUTO 19012KT 10SM CLR 26/M03 A2962 RMK AO2
     T02591027=
KRCR 220035Z AUTO 19010KT 10SM SCT055 18/03 A2983 RMK AO2=
KRCV 220035Z AUTO 26013KT 10SM CLR 13/M05 A2999 RMK AO2
     T01301052=
KRDK 220035Z AUTO 00000KT CLR 13/01 A2959 RMK AO2=
KREG 220035Z AUTO 21004KT 10SM CLR 21/14 A3004 RMK AO2
     T02060136=
KRQO 220035Z AUTO 17009KT CLR 21/03 A2971 RMK AO2 PWINO
     T02150034=
KSBO 220035Z AUTO 00000KT 10SM CLR 10/06 A3013 RMK AO2=
KSBS 220035Z AUTO 28008KT 10SM CLR 13/M10 A2988 RMK AO1
     T01311097=
KSDA 220035Z AUTO 00000KT 10SM CLR 15/01 A2957 RMK AO2=
KSEF 220035Z AUTO 02005KT 10SM CLR 19/12 A3005 RMK AO2
     T01860116=
KSHL 220035Z AUTO 06006KT 9SM CLR 11/M00 A2959 RMK AO2=
KSJS 220035Z AUTO 18004KT 10SM CLR 15/01 A3005 RMK AO2
     T01480011=
KSLB 220035Z AUTO 10009KT 9SM CLR 14/00 A2961 RMK AO2=
KSME 220035Z AUTO 19004KT 10SM CLR 14/01 A3003 RMK AO2=
KSUT 220035Z AUTO 00000KT 10SM OVC040 16/09 A3012 RMK AO2
     T01560093=
KT35 220035Z AUTO 17006KT 10SM CLR 25/10 A2990 RMK AO2
     T02480098=
KTAZ 220035Z AUTO 17012KT 10SM CLR 18/04 A2980 RMK AO2
     T01830036=
KTBR 220035Z AUTO 00000KT 10SM CLR 09/05 A3012 RMK AO2
     T00940049=
KTIF 220035Z AUTO 16010KT 10SM CLR 18/M02 A2959 RMK AO2
     T01761020=
KTIP 220035Z AUTO 19011KT 10SM CLR 18/03 A2980 RMK AO2
     T01820028=
KTVI 220035Z AUTO 00000KT 10SM CLR 11/07 A3012 RMK AO2=
KUNI 220035Z AUTO 00000KT 7SM CLR 10/01 A3002 RMK AO2
     T00960005=
KVDI 220035Z AUTO 00000KT 10SM CLR 12/05 A3012 RMK AO2=
KVPC 220035Z AUTO 00000KT 10SM CLR 12/06 A3010 RMK AO2=
KW22 220035Z AUTO 18003KT 10SM CLR 10/M00 A3007 RMK AO2=
KWDR 220035Z AUTO 00000KT 10SM CLR 10/02 A3014 RMK AO2=
KZER 220035Z AUTO 16005KT 10SM CLR 08/M01 A3013 RMK AO2=
