SACA33 KWBC 212300 RRC
METAR
TFFF 212330Z AUTO 05004KT 020V080 9999 FEW025 27/24 Q1011=
TFFR 212330Z AUTO VRB02KT CAVOK 25/24 Q1012=
