SAPA31 KWBC 220200 RRA
METAR
PGUM 220154Z 10013KT 10SM SCT024 31/25 A2986 RMK AO2 SLP102
     T03060250=
