SACA33 KWBC 212300 RRB
METAR
TDPD 212300Z 30003KT 9999 SCT017 25/25 Q1012=
