SAUS70 KWBC 220100 RRX
METAR
KGOV 220058Z AUTO 00000KT 10SM CLR 10/04 A2966 RMK AO2 SLP056
     T00980035 $=
KCGZ 220056Z AUTO 32005KT 10SM CLR 28/11 A2982 RMK AO2 SLP088
     T02780106 $=
KCVO 220056Z AUTO 22014KT 10SM FEW013 BKN050 OVC085 13/11 A2973
     RMK AO2 RAB23E55 SLP067 P0000 T01280106=
KDUB 220059Z AUTO 31015G20KT 10SM SCT085 11/M08 A2968 RMK AO2=
KEKS 220055Z AUTO 18018G31KT 10SM FEW044 SCT055 BKN065 16/M01
     A2957 RMK AO2=
KF05 220055Z AUTO 21007KT 10SM CLR 25/03 A2973 RMK AO2
     T02540027=
KF46 220055Z AUTO 18008KT 10SM CLR 25/09 A2983 RMK AO2
     T02520090=
KFWS 220055Z AUTO 16013KT 10SM CLR 26/08 A2984 RMK AO2
     T02620077=
KGYB 220055Z AUTO 18005KT 10SM CLR 24/12 A2994 RMK AO2
     T02440117=
KMHV 220100Z AUTO 22012KT 10SM CLR 25/03 A2987 RMK A01=
KMMH 220057Z AUTO 27008KT 10SM CLR 14/M06 A3007 RMK AO2=
KMNZ 220055Z AUTO 17008KT 10SM CLR 24/06 A2987 RMK AO2
     T02440055=
KMVH 220055Z AUTO 10004KT 7SM 07/05 A2957 RMK AO2 P0005 PWINO=
KO69 220055Z AUTO 30007KT 7SM CLR 13/11 A2985 RMK A01=
KP08 220055Z AUTO 34005KT 10SM CLR 28/11 A2982 RMK AO2=
KPKV 220055Z AUTO 17005KT 10SM CLR 22/15 A2999 RMK AO2
     T02220150=
KPRS 220055Z AUTO 05003KT 10SM CLR 26/12 A2995 RMK AO2
     T02620115=
KPTV 220056Z AUTO 33003KT 10SM CLR 29/08 A2978 RMK AO2 SLP081
     T02940083=
KPWT 220056Z AUTO 17004KT 7SM -RA OVC004 08/08 A2971 RMK AO2
     SLP066 P0005 T00830078=
KPYX 220055Z AUTO 20009KT 10SM CLR 17/M08 A2966 RMK AO2
     T01661081=
KRTS 220055Z AUTO 24020G25KT 10SM CLR 20/M06 A2990 RMK AO2=
KSBD 220058Z 28006KT 5SM HZ CLR 27/08 A2984=
KSWW 220055Z AUTO 22010KT 10SM CLR 23/04 A2987 RMK AO2
     T02340041=
KNSE 220056Z 00000KT 10SM CLR 13/08 A3011 RMK AO2 SLP183 T01330078
     PNO $=
