SAUS70 KWBC 220200 RRU
METAR
KDKX 220155Z AUTO 00000KT 10SM CLR 08/05 A3010 RMK A01=
KDTA 220155Z AUTO 18012KT 10SM CLR 15/M11 A2982 RMK AO1=
KDUA 220155Z AUTO 17007KT 10SM CLR 21/06 A2982 RMK AO2=
KDZB 220155Z AUTO 18006KT 10SM CLR 23/08 A2992 RMK AO2
     T02310075=
KEAT 220155Z AUTO 30007KT 4SM HZ FEW055 11/01 A2959 RMK AO2 SLP022
     T01060006=
KECS 220155Z AUTO 02006KT 10SM CLR 12/M09 A2952 RMK AO2=
KEDN 220155Z AUTO 00000KT 10SM CLR 11/07 A3011 RMK AO2
     T01050073=
KEGV 220155Z AUTO 00000KT 10SM CLR 03/00 A2963 RMK AO2
     T00251002=
KEIK 220155Z AUTO 26012G20KT 10SM CLR 21/M12 A2973 RMK AO2
     T02071117 PWINO=
KEKS 220145Z AUTO 28022G30KT 10SM SCT041 BKN047 OVC075 14/M01
     A2961 RMK AO2=
KEKY 220156Z AUTO 14005KT 10SM CLR 15/06 A3010 RMK AO2 SLP040
     T01500056=
KENV 220156Z AUTO 26008KT 10SM CLR 19/M10 A2971 RMK AO2 SLP047
     T01891100=
KERV 220155Z AUTO 14005KT 10SM CLR 19/09 A2996 RMK AO2
     T01940088=
KETC 220155Z AUTO 00000KT 10SM SCT055 06/06 A3017 RMK AO2
     T00640057=
KF05 220155Z AUTO 20013KT 10SM CLR 26/03 A2973 RMK AO2
     T02600031=
KF17 220155Z AUTO 17006KT 10SM CLR 22/12 A2996 RMK AO2=
KF44 220155Z AUTO 18004KT 10SM CLR 21/11 A2989 RMK AO2=
KF46 220155Z AUTO 20014KT 10SM CLR 25/10 A2985 RMK AO2
     T02450096=
KFIN 220155Z AUTO 33004KT 10SM CLR 14/10 A3009 RMK AO2
     T01400102=
KFKN 220155Z AUTO 00000KT 10SM CLR 07/06 A3019 RMK AO2
     T00690058=
KFLY 220155Z AUTO 30010G17KT 10SM CLR 12/M13 A2985 RMK AO2
     T01201126=
KFOT 220150Z AUTO 31003KT 10SM OVC024 14/08 A2992 RMK AO1=
K3N8 220155Z AUTO 16004KT 10SM SCT100 SCT120 10/00 A2956 RMK AO2
     T00970000=
K6B0 220155Z AUTO 00000KT 10SM CLR 08/00 A3011 RMK AO2
     T00780001=
KASH 220156Z AUTO 00000KT 10SM CLR 04/04 A3017 RMK AO2 SLP222
     T00390039 $=
KBHB 220156Z AUTO 00000KT 10SM CLR 07/05 A3018 RMK AO2 SLP222
     T00670050 PNO $=
KBKX 220156Z AUTO 13009KT 9SM CLR A2959 RMK AO2 SLPNO FZRANO $=
KBLM 220156Z AUTO 21003KT 10SM CLR 10/08 A3019 RMK AO2 SLP224
     T01000078=
KBTP 220156Z AUTO 17006KT 10SM CLR 11/M01 A3006 RMK AO2 SLP188
     T01111006 TSNO=
KCDD 220153Z AUTO 00000KT 10SM CLR 04/01 A2958 RMK AO2=
KCDI 220155Z AUTO 00000KT 10SM CLR 03/02 A3004 RMK AO2
     T00330024=
KCNB 220155Z AUTO 15004KT 10SM CLR 10/01 A2960 RMK AO2
     T01030005=
KDUH 220155Z AUTO 19008KT 10SM CLR 16/00 A2987 RMK AO2
     T01620001=
KFRM 220156Z AUTO 10003KT 8SM CLR 09/02 A2964 RMK AO2 SLP041
     T00940017=
KHNB 220156Z AUTO 16007KT 10SM CLR 17/03 A2993 RMK AO2 SLP135
     T01720028=
KIWD 220156Z AUTO 00000KT 2 1/2SM BR CLR 03/03 A2962 RMK AO2 VIS
     3/4V5 SLP039 T00330028=
KJST 220154Z AUTO 18007KT CLR 09/M02 A3009 RMK AO2 SLP197
     T00891017 $=
K46D 220155Z AUTO 34003KT 10SM FEW048 FEW055 BKN070 11/02 A2957
     RMK AO2=
K7L2 220155Z AUTO 08004KT 10SM FEW120 12/M01 A2952 RMK AO2=
KAIG 220155Z AUTO 00000KT 10SM CLR 06/02 A2967 RMK AO2
     T00570021=
KANQ 220155Z AUTO 19009KT 10SM FEW028 SCT039 BKN048 15/03 A2984
     RMK AO2=
KBAC 220155Z AUTO 16004KT 9SM FEW036 BKN100 BKN120 11/01 A2955 RMK
     AO2=
KBWP 220155Z AUTO 16006KT 10SM FEW030 FEW034 BKN050 12/M01 A2955
     RMK AO2=
KBWW 220155Z AUTO 01009KT 10SM OVC110 11/03 A2954 RMK AO2=
KDSV 220154Z AUTO 15008KT 10SM CLR 11/M01 A3002 RMK AO2 SLP176
     T01111011=
KHZE 220155Z AUTO 04005KT 10SM -RA FEW042 OVC050 09/04 A2955 RMK
     AO2=
KMDS 220155Z AUTO 15006KT 10SM CLR 11/M00 A2959 RMK AO2=
KOLG 220155Z AUTO 00000KT 10SM CLR 05/00 A2961 RMK AO1=
KPVB 220155Z AUTO 15004KT 10SM CLR 19/01 A2967 RMK AO1
     T01920006=
