SAUS70 KWBC 220116 RRA
METAR
K10G 220115Z AUTO 19007KT 10SM CLR 13/M01 A3001 RMK AO2=
K14Y 220115Z AUTO 00000KT 10SM CLR 07/00 A2961 RMK AO2=
K1P1 220115Z AUTO 00000KT 10SM CLR 02/01 A3014 RMK AO2
     T00200006=
K20U 220115Z AUTO 30007KT 10SM FEW035 SCT060 OVC075 09/06 A2957
     RMK AO2=
K24A 220115Z AUTO 13006KT 10SM CLR 10/M01 A3016 RMK AO2 LTG DSNT
     SE T00981015=
K27K 220115Z AUTO 17006KT 10SM CLR 12/00 A3001 RMK AO1=
K35A 220115Z AUTO 00000KT 10SM CLR 09/02 A3018 RMK A02 LTG DSNT S
     T00920023=
K3D2 220115Z AUTO 26003KT 10SM CLR 12/06 A2961 RMK AO2
     T01190062=
K4I3 220115Z AUTO 16005KT 10SM CLR 11/01 A3000 RMK AO2=
K4S2 220115Z AUTO 00000KT 5SM -RA BKN023 BKN030 OVC070 08/07 A2968
     RMK AO2=
K6L4 220115Z AUTO 16004KT 10SM CLR 13/00 A3006 RMK AO2=
K6S2 220115Z AUTO 20010G16KT 10SM BKN003 OVC008 13/13 A2976 RMK
     AO2=
KACQ 220115Z AUTO 00000KT 10SM CLR 07/01 A2966 RMK AO2=
KAIT 220115Z AUTO 00000KT 10SM CLR 06/02 A2959 RMK AO2=
KCKI 220115Z AUTO 00000KT 10SM CLR 07/05 A3014 RMK AO2=
KCQM 220115Z AUTO 22003KT 10SM CLR 09/00 A2957 RMK AO2=
KCVH 220115Z AUTO 25008KT 9SM CLR 14/11 A2987 RMK A01=
KD25 220115Z AUTO 00000KT 10SM CLR 04/02 A2962 RMK AO2
     T00380024=
KDLZ 220115Z AUTO 18008KT 10SM CLR 13/00 A2997 RMK AO2=
KDXX 220115Z AUTO 13007KT 10SM CLR 11/01 A2960 RMK AO2=
KDYT 220115Z AUTO 00000KT 10SM FEW036 FEW043 11/04 A2958 RMK
     AO2=
KEDE 220115Z AUTO 00000KT 10SM BKN060 12/11 A3017 RMK AO2
     T01200108=
KFBL 220115Z AUTO 00000KT 10SM CLR 09/03 A2963 RMK AO2=
KFFM 220115Z AUTO 13005KT 10SM CLR 12/01 A2955 RMK AO2=
KFSE 220115Z AUTO 17005KT 10SM BKN100 09/M01 A2956 RMK AO2=
KGGE 220115Z AUTO 00000KT 10SM CLR 08/07 A3013 RMK AO2=
KGHW 220115Z AUTO 13003KT 10SM CLR 11/01 A2960 RMK AO2=
KGYH 220115Z AUTO 00000KT 10SM CLR 13/00 A3014 RMK A02
     T01271003=
KGYL 220115Z AUTO 00000KT 5SM HZ CLR 12/02 A2962 RMK AO2
     T01200015=
KHAE 220115Z AUTO 16005KT 10SM CLR 21/00 A2971 RMK AO2=
KHBI 220115Z AUTO 20003KT 10SM CLR 08/03 A3017 RMK AO2
     T00760027=
KHCO 220115Z AUTO 24004KT 10SM SCT080 OVC090 12/01 A2953 RMK
     AO2=
KHSP 220115Z AUTO 18006KT 10SM CLR 09/M04 A3016 RMK AO2
     T00851036=
KJFX 220115Z AUTO 00000KT 9SM CLR 11/11 A3005 RMK AO2=
KJKJ 220115Z AUTO 17004KT 7SM CLR 12/M01 A2956 RMK AO2 TSNO=
KJMR 220115Z AUTO 00000KT 10SM CLR 07/02 A2965 RMK AO2=
KJSO 220115Z AUTO 20006KT 10SM CLR 23/11 A2994 RMK AO2 T02280110
     TSNO=
KL18 220115Z AUTO 22005KT 10SM SCT010 19/16 A2986 RMK AO2=
K10G 220115Z AUTO 19007KT 10SM CLR 13/M01 A3001 RMK AO2=
