SAUS70 KWBC 220100 RRX
METAR
KTFP 220055Z AUTO 18008KT 10SM CLR 23/17 A2997 RMK AO2
     T02260165=
