SACA31 KWBC 220200
METAR
MBJT NIL=
MBPV NIL=
MBSC NIL=
MKJP NIL=
MKJS 220200Z 16003KT 9999 FEW020 26/24 Q1013=
MUCM 220150Z 33005KT 9000 SCT020 23/22 Q1014=
MUCU 220150Z 36004KT 9000 FEW020 25/24 Q1013=
MUHA 220150Z VRB03KT 9000 FEW030 18/16 Q1016=
MUVR 220150Z 36005KT 9000 FEW030 23/18 Q1016=
MWCB NIL=
MWCR 220200Z 02006KT 9999 FEW015 SCT035 BKN100 26/24 Q1013=
MYAM NIL=
MYEG NIL=
MYEH NIL=
MYGF NIL=
MYNN NIL=
