SAUS80 KWBC 220000 RRC
METAR
KBIL 212353Z 07013KT 10SM -RA BKN075 OVC090 12/04 A2954 RMK AO2
     RAB36 SLP994 P0000 60000 T01220039 10194 20122 53007=
KMCN 212353Z AUTO 00000KT 10SM CLR 13/03 A3010 RMK AO2 SLP194
     T01280033 10228 20122 53009=
KMGM 212353Z AUTO 10004KT 10SM CLR 14/06 A3008 RMK AO2 SLP186
     T01440056 10228 20144 53004=
KMSO 212353Z 36004KT 10SM -RA SCT028 BKN036 OVC045 07/04 A2965 RMK
     AO2 SLP047 P0003 60004 T00720044 10144 20072 55003=
KFAT 212353Z 00000KT 10SM CLR 32/05 A2977 RMK AO2 SLP078 MTNS OBSC
     HZ DSNT N-E-SE T03170050 10322 20256 56014=
KFNT 212353Z 18009KT 10SM CLR 16/04 A2976 RMK AO2 SLP081 T01560044
     10217 20156 53008=
PATK 212353Z 00000KT 1/4SM FG VV002 01/00 A2984 RMK AO2 SLP111
     T00060000 10011 20000 51018=
PAYA 212353Z AUTO 03004KT 10SM FEW019 BKN050 OVC070 06/04 A2967
     RMK AO2 RAE27 SLP048 P0003 60005 T00610044 10078 20050 50005
     TSNO $=
PHJR 212353Z 14007KT 10SM CLR 29/22 A2999 RMK AO2 SLP160 60000
     T02940217 10306 20239 58019=
PHNL 212353Z VRB06KT 10SM FEW025 SCT040 29/22 A2997 RMK AO2 SLP148
     60000 T02890222 10294 20250 58018=
KBNO 212353Z AUTO 28009G20KT 9SM OVC110 16/02 A2974 RMK AO2 SLP056
     T01610017 10178 20156 56019=
KCHA 212353Z 20003KT 10SM FEW250 17/03 A3007 RMK AO2 SLP184
     T01670028 10222 20161 53005=
KCLI 212355Z AUTO 00000KT 10SM CLR 12/04 A2962 RMK AO2 T01190041
     10214 20115 402141018=
KCNY 212353Z AUTO 21009KT 10SM CLR 23/M07 A2981 RMK AO2 SLP063
     T02281067 10239 20183 56023=
KCRQ 212353Z 21007KT 10SM BKN014 21/17 A2984 RMK AO2 SLP102
     T02060167 10222 20200 56013=
KPOF 212353Z AUTO 17005KT 6SM HZ CLR 19/09 A2986 RMK AO2 SLP111
     T01940089 10256 20194 53001 $=
KRIW 212353Z AUTO 26016KT 10SM CLR 19/M04 A2962 RMK AO2 PK WND
     28032/2301 SLP985 T01891044 10228 20172 55004=
KRMG 212353Z AUTO 00000KT 10SM CLR 13/06 A3007 RMK AO2 SLP179
     T01330061 10222 20133 53002=
KRNM 212353Z AUTO 27009KT 10SM CLR 24/14 A2986 RMK AO2 SLP101
     T02440144 10278 20228 56010=
KGEG 212353Z 21007KT 10SM FEW008 SCT029 OVC045 06/04 A2966 RMK AO2
     RAE34 SLP048 P0002 60035 T00560039 10078 20039 58007=
KHLC 212353Z AUTO 35007KT 10SM CLR 19/M01 A2962 RMK AO2 SLP024
     T01891006 10311 20189 56006=
KSDM 212353Z AUTO VRB05KT 10SM CLR 21/16 A2986 RMK AO2 SLP106
     T02110156 10244 20211 56009=
KSEA 212353Z 17005KT 7SM -RA FEW010 OVC018 09/07 A2973 RMK AO2
     RAE2254B05 SLP074 P0000 60012 T00890072 10106 20083 56029=
KHSV 212353Z 15005KT 10SM CLR 17/08 A3003 RMK AO2 SLP168 T01670078
     10239 20167 53003=
KHVR 212353Z AUTO 29004KT -RA OVC045 07/07 A2956 RMK AO2 SLP017
     P0003 60010 T00720067 10094 20067 50004 $=
KJBR 212353Z AUTO 18005KT 10SM CLR 21/09 A2987 RMK AO2 SLP115
     T02110089 10261 20206 55003 $=
KJLN 212353Z 18011KT 10SM SCT150 25/03 A2973 RMK AO2 SLP060
     T02500028 10300 20239 56004 $=
KLAN 212353Z 17008KT 10SM CLR 17/04 A2975 RMK AO2 SLP078 T01670044
     10206 20167 53007 $=
KLAX 212353Z 26009KT 10SM BKN010 BKN070 19/17 A2984 RMK AO2 SLP104
     T01940172 10244 20194 56012=
KLIT 212353Z 18008KT 10SM FEW250 21/08 A2987 RMK AO2 SLP115
     T02060083 10278 20206 55002=
KLND 212353Z AUTO 05003KT 10SM CLR 19/M05 A2962 RMK AO2 SLP984
     T01941050 10239 20172 55003=
KTRI 212353Z 00000KT 10SM FEW250 09/02 A3009 RMK AO2 SLP184
     T00940017 10194 20094 55000=
KTUP 212353Z 16007KT 10SM CLR 22/10 A2997 RMK AO2 SLP148 T02220100
     10267 20222 55001=
KTYS 212353Z 00000KT 10SM SCT250 14/01 A3006 RMK AO2 SLP179
     T01440006 10200 20139 55000=
