SAUS70 KWBC 220000 RRR
METAR
KDKB 212355Z AUTO 18007KT 10SM CLR 14/06 A2970 RMK AO2 T01390055
     10236 20138=
KDNS 212355Z AUTO RMK AO2 PNO PWINO=
KEOK 212355Z AUTO 19009G14KT 10SM CLR 23/04 A2965 RMK A01=
KGHG 212355Z AUTO 21005KT 10SM CLR 11/06 A3016 RMK AO2=
KI75 212355Z AUTO 18004KT 7SM CLR 20/03 A2961 RMK AO2 T01960030
     10283 20187=
KIBM 212355Z AUTO 26006KT 10SM CLR 16/M10 A2968 RMK AO2 T01621099
     10250 20162=
KIKK 212355Z AUTO 19008KT 10SM CLR 19/03 A2977 RMK AO2 T01890025
     10245 20189=
KLXN 212355Z AUTO 16005KT 7SM CLR 18/M01 A2961 RMK AO2 T01771006
     10256 20174=
KMQS 212355Z AUTO 00000KT 10SM CLR 10/00 A3015 RMK AO2=
KONL 212355Z AUTO 12006KT 10SM CLR 16/00 A2960 RMK AO2 T01561001
     10219 20156=
KPNT 212355Z AUTO 19011KT 10SM CLR 19/07 A2975 RMK AO2 T01940071
     10250 20194=
KAIO 212355Z AUTO 01005KT 8SM CLR 14/01 A2959 RMK AO2=
KBUU 212355Z AUTO 20006KT 10SM CLR 18/05 A2967 RMK AO2 T01800045
     10245 20179 PWINO=
KCBF 212355Z AUTO 00000KT 4SM HZ CLR 20/M05 A2957 RMK AO2=
KCFS 212355Z AUTO 17007KT 10SM CLR 16/03 A2974 RMK AO2 T01600029
     10207 20160=
KCKC 212357Z AUTO 00000KT 10SM CLR 09/02 A2955 RMK AO2=
KCMY 212358Z AUTO 11003KT 7SM R29/5500FT CLR 10/03 A2963 RMK AO2
     SLP043 T01040032 10223 20104 52016 $=
KFSW 212355Z AUTO 18009KT 10SM OVC001 22/04 A2964 RMK AO2=
KGWB 212355Z AUTO 20006KT 10SM CLR 17/03 A2984 RMK AO2=
KHPN 212356Z 18005KT 10SM CLR 11/02 A3014 RMK AO2 SLP210 T01110022
     10167 20083 53013 $=
KHPT 212355Z AUTO 35003KT 10SM CLR 12/00 A2963 RMK AO2=
KISP 212356Z 00000KT 10SM CLR 12/07 A3015 RMK AO2 SLP210 T01170072
     10178 20117 52010=
KLCK 212355Z AUTO 16006KT 10SM CLR 13/01 A2997 RMK AO2 T01330006
     10210 20133=
KLNN 212355Z AUTO 19008G15KT 10SM CLR 16/M03 A2992 RMK AO1
     T01571026 10190 20157=
KMJQ 212355Z AUTO 07003KT 10SM CLR 12/01 A2964 RMK AO2=
KOLE 212355Z AUTO 20005KT 10SM CLR 10/M02 A3001 RMK AO2=
KOLY 212355Z AUTO 16006KT 10SM CLR 18/01 A2987 RMK AO2 T01820006
     10252 20182=
KPRG 212355Z AUTO 17008KT 10SM CLR 15/04 A2985 RMK AO2 T01490037
     10246 20147=
KSHL 212355Z AUTO 13005KT 9SM CLR 14/01 A2958 RMK AO2=
KVVS 212355Z AUTO 00000KT 10SM CLR 11/01 A3005 RMK AO2 T01070007
     10180 20099 401801004=
K06C 212355Z AUTO 20007KT 10SM CLR 21/08 A2970 RMK AO2 T02050080
     10241 20200=
KAAA 212355Z AUTO 19008KT 10SM CLR 20/05 A2975 RMK AO2 T02010050
     10264 20201=
KASW 212355Z AUTO 00000KT 10SM CLR 18/02 A2982 RMK AO2
     T01810029=
KGBG 212355Z AUTO 17007KT 10SM CLR 20/05 A2969 RMK AO2 T02040045
     10261 20204=
KHDE 212355Z AUTO 17005KT 10SM CLR 18/M02 A2961 RMK AO2 T01811017
     10236 20180=
KHHG 212355Z AUTO 19006KT 10SM CLR A2984 RMK AO2=
KHNR 212355Z AUTO 00000KT 10SM CLR 13/00 A2960 RMK A01=
KI63 212355Z AUTO 17007KT 10SM CLR 18/02 A2970 RMK AO2 T01830018
     10269 20183=
KIKV 212355Z AUTO 02003KT 10SM CLR 16/03 A2961 RMK AO2=
KJOT 212355Z AUTO 19007KT 10SM CLR 21/05 A2972 RMK AO2 T02110047
     10249 20211=
KLOM 212355Z AUTO 00000KT 10SM CLR 06/04 A3014 RMK AO2 T00650045
     10182 20064 401821005=
KLWB 212355Z AUTO 00000KT 10SM CLR 09/01 A3012 RMK AO2 T00900005
     10162 20088=
KMGC 212355Z AUTO 20010G17KT 10SM CLR 20/02 A2976 RMK AO2=
KOGS 212355Z AUTO 18008KT 10SM CLR 12/M01 A2993 RMK AO2=
KOLZ 212355Z AUTO 22003KT 9SM CLR 18/01 A2963 RMK A01=
KOWX 212355Z AUTO 18006KT 10SM CLR 17/M01 A2989 RMK AO1=
KPEA 212355Z AUTO 00000KT 10SM CLR 19/03 A2962 RMK AO2 T01950030
     10273 20191 402730053=
KPPQ 212355Z AUTO 17005KT 10SM CLR 20/03 A2973 RMK AO2 T01950032
     10274 20194=
KRDK 212355Z AUTO 35003KT CLR 16/00 A2959 RMK AO2=
