SAUS70 KWBC 212338 RRK
METAR
KIRS 212335Z AUTO 20010KT 10SM CLR 18/01 A2978 RMK AO2
     T01790005=
KISQ 212335Z AUTO 20004KT 7SM CLR 08/07 A2958 RMK AO2
     T00810072=
KJYM 212335Z AUTO 18007KT 10SM CLR 17/00 A2981 RMK AO2
     T01710002=
KMCD 212335Z AUTO 25009G16KT 10SM CLR 12/07 A2960 RMK AO2
     T01220065=
KMDS 212335Z AUTO 15004KT 10SM CLR 16/M00 A2960 RMK AO2=
KMWM 212335Z AUTO 01004KT 7SM CLR 12/02 A2962 RMK AO2=
KN38 212335Z AUTO 20010G16KT 10SM CLR 10/M03 A3004 RMK AO2=
KOEO 212335Z AUTO 00000KT 10SM CLR 13/04 A2964 RMK AO2
     T01270044=
KPEX 212335Z AUTO 20003KT 10SM CLR 12/01 A2962 RMK AO2=
KPNM 212335Z AUTO 00000KT 10SM CLR 12/03 A2961 RMK AO2 TSNO=
KRNP 212335Z AUTO 17006KT 10SM CLR 18/03 A2974 RMK AO2
     T01760026=
