SAUS70 KWBC 220100 RRD
METAR
KELA 220055Z AUTO 19008KT 10SM CLR 23/15 A2997 RMK AO2
     T02260145=
KELZ 220056Z AUTO 18009KT 10SM CLR 12/M02 A3004 RMK AO2 SLP180
     T01171022=
KEMM 220055Z AUTO 10SM CLR 11/M12 A2986 RMK AO2=
KETC 220055Z AUTO 00000KT 10SM CLR 07/06 A3015 RMK AO2
     T00680059=
KEZZ 220055Z AUTO 17009KT 10SM CLR 22/03 A2965 RMK AO2
     T02210034=
KF00 220055Z AUTO 16008KT 10SM CLR 23/08 A2982 RMK AO2
     T02310083=
KFET 220055Z AUTO 00000KT 10SM CLR 14/02 A2959 RMK AO2
     T01440023=
KFHB 220055Z AUTO 02004KT 10SM CLR 15/05 A3011 RMK AO2=
KFKN 220055Z AUTO 00000KT 10SM CLR 07/06 A3017 RMK AO2
     T00730060=
KFOA 220055Z AUTO 16007KT 10SM CLR 14/03 A2987 RMK AO2=
KFSW 220055Z AUTO 18007KT 10SM OVC001 21/04 A2966 RMK AO2=
KFWC 220055Z AUTO 16004KT CLR 17/02 A2987 RMK AO1 T01650022
     PWINO=
KGDB 220055Z AUTO 07004KT 10SM CLR 14/02 A2962 RMK AO2
     T01350015=
KGPC 220055Z AUTO 17008KT 10SM CLR 14/02 A2989 RMK AO2
     T01370015=
KGPM 220050Z 16011G16KT 10SM SKC 27/08 A2983=
KGRN 220055Z AUTO 18007KT 10SM CLR 14/M08 A2952 RMK AO2
     T01431080=
KGWB 220055Z AUTO 21004KT 10SM CLR 16/03 A2985 RMK AO2=
KHJH 220055Z AUTO 00000KT 10SM CLR 14/02 A2959 RMK AO2
     T01390018=
KHLX 220055Z AUTO 18005KT 10SM CLR 10/M07 A3014 RMK AO2
     T00951074=
KHMP 220055Z AUTO 07003KT 10SM CLR 08/05 A3015 RMK AO2
     T00750053=
KHQU 220055Z AUTO 00000KT 10SM CLR 08/04 A3013 RMK AO2
     T00840043=
KHSA 220050Z 00000KT 10SM BKN055 13/10 A3008=
K13K 220055Z AUTO 17014KT 10SM CLR 24/04 A2966 RMK AO2
     T02370045=
K18A 220055Z AUTO 10003KT 10SM CLR 09/01 A3013 RMK AO2
     T00940007=
K1F0 220055Z AUTO 16008KT 10SM CLR 23/10 A2976 RMK AO2
     T02320097=
K1H2 220055Z AUTO 14006KT 10SM CLR 17/03 A2987 RMK AO2
     T01710030=
K2J3 220055Z AUTO 03003KT 10SM CLR 09/05 A3013 RMK AO2
     T00900050=
K2R9 220055Z AUTO 15011KT 10SM CLR 23/15 A2996 RMK AO2
     T02310146=
K2V5 220055Z AUTO 18003KT 10SM CLR 18/M08 A2965 RMK AO2=
K3F3 220055Z AUTO 16011KT 10SM CLR 23/13 A2996 RMK AO2
     T02320130=
K4A9 220055Z AUTO 02003KT 10SM CLR 09/05 A3009 RMK AO2
     T00880046=
K57C 220055Z AUTO 21005KT 10SM CLR 19/04 A2967 RMK AO2
     T01850043=
K5SM 220055Z AUTO 23010G22KT 10SM CLR 02/M11 A3015 RMK AO2=
K7BM 220055Z AUTO 29009G27KT 260V330 10SM CLR 09/M12 A3005 RMK
     AO2=
K81R 220055Z AUTO 17008KT 10SM CLR 25/08 A2989 RMK AO2
     T02480077=
K9A5 220055Z AUTO 00000KT 10SM CLR 08/05 A3011 RMK AO2
     T00800054=
KAHQ 220055Z AUTO 00000KT 10SM CLR 17/00 A2959 RMK AO2
     T01701002=
KASL 220055Z AUTO 00000KT 10SM CLR 22/12 A2988 RMK AO2 T02160117
     TSNO $=
KAUH 220055Z AUTO 00000KT 7SM CLR 15/M01 A2960 RMK AO2
     T01471013=
KBBB 220057Z AUTO 18004KT 10SM CLR 08/01 A2961 RMK AO2=
KBCK 220055Z AUTO 00000KT 10SM CLR 05/02 A2963 RMK AO2
     T00500019=
KBGE 220055Z AUTO 00000KT 10SM CLR 12/04 A3012 RMK AO2
     T01180045=
KBIE 220055Z AUTO 00000KT 10SM CLR 16/02 A2959 RMK AO2
     T01610015=
KBJC 220056Z 27017G20KT 10SM SCT120 19/M11 A2977=
KBJJ 220056Z AUTO 19009KT 10SM CLR 11/01 A2998 RMK AO2 SLP157
     T01110011=
KBPG 220055Z AUTO 19009KT 10SM CLR 22/06 A2985 RMK AO2
     T02240062=
KBQP 220055Z AUTO 00000KT 10SM CLR 22/12 A2994 RMK AO2
     T02170118=
KBVN 220055Z AUTO 00000KT 10SM CLR 13/M01 A2961 RMK AO2
     T01321015=
KC07 220055Z AUTO 26006G18KT 10SM CLR 05/M08 A3007 RMK AO2=
KC35 220055Z AUTO 00000KT 10SM CLR 12/04 A2965 RMK AO2 T01180035
     PWINO=
KCBK 220055Z AUTO 13005KT 10SM CLR 15/M07 A2967 RMK AO2
     T01501067=
KCFD 220055Z AUTO 17006KT 10SM CLR 25/11 A2994 RMK AO2
     T02450107=
