SAUS70 KWBC 220020 RRB
METAR
KSAA 220015Z AUTO 22013G17KT 10SM CLR 13/M12 A2984 RMK AO2=
KSME 220015Z AUTO 00000KT 10SM CLR 15/01 A3002 RMK AO2=
KSTE 220015Z AUTO 00000KT 10SM CLR 11/03 A2964 RMK AO2
     T01120029=
KSTK 220015Z AUTO 17005KT 10SM CLR 20/M03 A2963 RMK AO2=
KSXK 220015Z AUTO 11007KT 7SM FEW024 FEW035 15/01 A2958 RMK
     AO2=
KT41 220015Z AUTO 10SM CLR 23/15 A2998 RMK AO2 T02290153=
KT74 220015Z AUTO 18006KT 10SM CLR 24/10 A2990 RMK AO2
     T02420099=
KT82 220015Z AUTO 18005KT 10SM CLR 23/08 A2994 RMK AO2
     T02340077=
K04W 220015Z AUTO 00000KT 10SM CLR 07/02 A2961 RMK AO2=
K2G2 220015Z AUTO 19004KT 10SM CLR 13/M02 A3002 RMK A01=
K6B0 220015Z AUTO 00000KT 10SM CLR 08/00 A3008 RMK AO2
     T00790004=
KACB 220015Z AUTO 00000KT 10SM CLR 13/07 A2963 RMK AO2
     T01260065=
KBAX 220015Z AUTO 18010G14KT 10SM CLR 14/04 A2974 RMK AO2
     T01380040=
KBCK 220015Z AUTO 00000KT 10SM CLR 07/03 A2962 RMK AO2
     T00670026=
KBVI 220015Z AUTO 16004KT 10SM CLR 13/M01 A3003 RMK AO2
     T01311012=
KCDA 220015Z AUTO 00000KT 10SM 08/M02 A3009 RMK AO2 T00821021=
KCDI 220015Z AUTO 00000KT 10SM CLR 06/04 A3002 RMK AO2
     T00580035=
KEDJ 220015Z AUTO 18007KT 10SM CLR 15/01 A2995 RMK A01=
KHCD 220015Z AUTO 00000KT 10SM CLR 11/01 A2963 RMK AO2
     T01110006=
KHCO 220015Z AUTO 24005KT 10SM SCT080 OVC100 12/01 A2951 RMK
     AO2=
KHHV 220015Z AUTO 17011G24KT 080V190 10SM BKN041 24/14 A2999 RMK
     A01=
KHLB 220015Z AUTO 18005KT 10SM CLR 14/00 A2994 RMK A01=
KHYX 220015Z AUTO 18008KT 10SM CLR 15/04 A2973 RMK AO2
     T01460040=
KISQ 220015Z AUTO 00000KT 7SM SCT120 08/07 A2959 RMK AO2
     T00760070=
KLXL 220015Z AUTO 00000KT 10SM CLR 08/01 A2961 RMK AO2=
KOXD 220015Z AUTO 00000KT 10SM CLR 17/M04 A2995 RMK AO2
     T01741037=
KPNM 220015Z AUTO 00000KT 10SM CLR 11/03 A2964 RMK AO2 TSNO=
KS24 220015Z AUTO 19010KT 10SM CLR 17/02 A2988 RMK AO2=
KSJX 220015Z AUTO 23008G15KT 10SM CLR 11/08 A2962 RMK AO2
     T01100077=
KTOB 220015Z AUTO 00000KT 10SM 12/01 A2965 RMK AO2=
KULM 220015Z AUTO 02003KT 10SM CLR 15/M01 A2963 RMK AO2=
KVWU 220015Z AUTO 00000KT 10SM CLR 11/02 A2955 RMK AO2=
KY70 220015Z AUTO 17008KT 10SM CLR 16/04 A2972 RMK AO2
     T01600038=
K05U 220015Z AUTO 24011KT 10SM 21/M13 A2992 RMK A01=
K0F2 220015Z AUTO 18007KT 10SM CLR 26/03 A2977 RMK AO2
     T02640025=
K1V6 220015Z AUTO 27010KT 10SM CLR 22/M10 A2976 RMK AO2=
K2V5 220015Z AUTO 18005KT 10SM CLR 19/M08 A2965 RMK AO2=
KAEJ 220015Z AUTO 23009KT 10SM 14/M14 A2996 RMK AO2 T01371136=
KATA 220015Z AUTO 00000KT 10SM CLR 19/13 A2986 RMK AO2 SLP009
     T01920132 $=
KAVQ 220015Z AUTO 26009KT 10SM CLR 32/05 A2983 RMK AO2
     T03170048=
KAXH 220015Z AUTO 18005KT 10SM CLR 23/15 A2998 RMK AO2
     T02260146=
KAZC 220015Z AUTO 30007KT 10SM CLR 22/00 A2997 RMK AO2=
KBDN 220015Z AUTO 22020G29KT 8SM FEW060 FEW065 16/08 A2968 RMK
     AO2=
KBDU 220015Z AUTO 23010KT 192V252 10SM CLR 21/M08 A2972 RMK
     AO2=
KFLY 220015Z AUTO 23004KT 10SM CLR 16/M10 A2984 RMK AO2
     T01641101=
KGDJ 220015Z AUTO 17007KT 10SM CLR 28/04 A2981 RMK AO2
     T02790040=
KGYB 220015Z AUTO 19005KT 10SM CLR 26/10 A2992 RMK AO2
     T02560095=
KGYI 220015Z AUTO 17010KT 10SM CLR 27/05 A2980 RMK AO2 T02650054
     TSNO=
KHHF 220015Z AUTO 19006KT 10SM CLR 23/M01 A2965 RMK AO2
     T02341015=
KHHV 220015Z AUTO 17011G24KT 080V190 10SM BKN041 24/14 A2999 RMK
     A01=
KHRX 220015Z AUTO 23012KT 10SM CLR 24/M01 A2978 RMK AO2
     T02421013=
K0A0 220015Z AUTO 20009KT 10SM CLR 24/02 A2995 RMK AO2=
K0S9 220015Z AUTO 00000KT 4SM -RA BKN028 BKN032 OVC043 09/08 A2972
     RMK AO2=
