SAUS70 KWBC 220220 RRB
METAR
KSVC 220215Z AUTO 35008KT 10SM CLR 14/09 A3006 RMK AO2
     T01400092=
KSZT 220215Z AUTO 21003KT 10SM BKN022 OVC028 03/02 A2962 RMK
     AO2=
KVCV 220215Z AUTO 18007KT 10SM CLR 21/08 A2991 RMK AO2=
K9D7 220215Z AUTO 02007KT 7SM OVC050 07/06 A2958 RMK AO2 TSNO=
KADC 220216Z AUTO 00000KT 10SM CLR 10/01 A2957 RMK AO2 TSNO=
KBWP 220215Z AUTO 15007KT 10SM SCT028 BKN034 OVC050 12/M01 A2955
     RMK AO2=
KCDD 220214Z AUTO 00000KT 10SM SCT120 04/01 A2959 RMK AO2=
KDSF 220215Z AUTO 06006KT 10SM CLR 22/13 A3011 RMK A01=
KHCD 220215Z AUTO 00000KT 10SM CLR 08/00 A2964 RMK AO2
     T00791001=
KHHV 220215Z AUTO 15014G22KT 10SM BKN042 BKN047 24/15 A3002 RMK
     A01=
KHYX 220215Z AUTO 20013KT 10SM CLR 17/04 A2976 RMK AO2
     T01660035=
KJPX 220215Z AUTO 00000KT 10SM CLR 07/07 A3019 RMK AO2
     T00720072=
KLVN 220215Z AUTO 00000KT 7SM CLR 09/02 A2964 RMK AO2=
KMOP 220215Z AUTO 19006KT 10SM CLR 15/05 A2973 RMK AO2
     T01530045=
KMZH 220215Z AUTO 00000KT 10SM CLR 06/01 A2961 RMK AO2=
KONA 220215Z AUTO 00000KT 10SM CLR 08/05 A2965 RMK AO2=
KOXV 220215Z AUTO 17006KT 10SM CLR 19/02 A2962 RMK AO2=
KPEX 220215Z AUTO 00000KT 10SM CLR 09/03 A2962 RMK AO2=
KPRO 220215Z AUTO 10003KT 5SM HZ CLR 12/00 A2960 RMK AO2
     T01200000=
KPTD 220215Z AUTO 17011G19KT 10SM SCT033 BKN043 OVC050 13/M02
     A2998 RMK AO2=
KRMY 220215Z AUTO 19006G15KT 10SM CLR 17/03 A2981 RMK AO2
     T01650030=
KRZN 220215Z AUTO 00000KT 10SM CLR 06/02 A2963 RMK AO2
     T00580017=
KSAR 220215Z AUTO 17007KT 10SM CLR 19/08 A2987 RMK AO2
     T01860082=
KSLO 220215Z AUTO 16006KT 10SM CLR 19/06 A2986 RMK AO2
     T01850055=
KTNU 220215Z AUTO 12007KT 9SM CLR 14/01 A2962 RMK A01=
KVAF 220215Z AUTO 16014G20KT 10SM FEW044 24/12 A3005 RMK A01=
KWBF 220215Z AUTO 12007KT 10SM 23/13 A3009 RMK A01=
K0A0 220215Z AUTO 22009KT 10SM CLR 21/04 A2998 RMK AO2=
K5T9 220210Z AUTO 14004KT 10SM CLR 20/12 A2991 RMK A01=
KAEJ 220215Z AUTO 26012KT 10SM 11/M11 A2996 RMK AO2 T01131109=
KAVQ 220215Z AUTO 00000KT 10SM CLR 27/05 A2986 RMK AO2
     T02650048=
KAZC 220215Z AUTO 10SM CLR 15/00 A2998 RMK AO2=
KBDU 220215Z AUTO 19004KT 10SM CLR 20/M08 A2972 RMK AO2=
KBPC 220215Z AUTO 21009KT 10SM CLR 18/M02 A2968 RMK AO2 PNO=
KCWC 220215Z AUTO 19014KT 10SM CLR 23/02 A2975 RMK AO2
     T02310023=
KDTA 220215Z AUTO 18012KT 10SM CLR 14/M08 A2982 RMK AO1=
KEKS 220210Z AUTO 28013G20KT 10SM 12/M00 A2963 RMK AO2=
KERV 220215Z AUTO 15004KT 10SM CLR 19/09 A2996 RMK AO2
     T01880088=
KF17 220215Z AUTO 18007KT 10SM CLR 22/12 A2996 RMK AO2=
KF46 220215Z AUTO 19012G16KT 10SM CLR 24/10 A2986 RMK AO2
     T02440096=
KGYB 220215Z AUTO 18008KT 10SM CLR 23/15 A2997 RMK AO2
     T02260145=
KHHF 220215Z AUTO 26007KT 10SM CLR 15/M01 A2966 RMK AO2
     T01531011=
KHRX 220215Z AUTO 24016KT 10SM CLR 21/00 A2979 RMK AO2
     T02130000=
KLNC 220215Z AUTO 17010KT 10SM CLR 24/09 A2987 RMK AO2
     T02400087=
KMHV 220220Z AUTO 29014KT 10SM CLR 24/M03 A2987 RMK A01=
KOAR 220215Z AUTO 26007KT 10SM OVC011 03/00 A2988 RMK AO2
     PWINO=
KPYX 220215Z AUTO 21007KT 10SM CLR 15/M07 A2965 RMK AO2
     T01491066=
KSWW 220215Z AUTO 21013KT 10SM CLR 22/04 A2987 RMK AO2
     T02210036=
KTYL 220215Z AUTO 23007KT 10SM CLR 12/03 A3007 RMK AO2=
K22N 220215Z AUTO 00000KT 10SM CLR 01/M01 A3018 RMK AO2=
KAEL 220215Z AUTO 00000KT 7SM CLR 08/03 A2964 RMK AO2=
KBCK 220215Z AUTO 00000KT 10SM CLR 03/01 A2965 RMK AO2
     T00290011=
KCDA 220215Z AUTO 12006KT 10SM 08/M02 A3013 RMK AO2 T00751020=
KCKC 220215Z AUTO 25003KT 10SM CLR 08/02 A2958 RMK AO2=
KCSQ 220215Z AUTO 11005KT 9SM CLR 16/02 A2961 RMK AO2=
