SAUS70 KWBC 212300 RRX
METAR
KJWG 212255Z AUTO 19017G27KT 10SM CLR 30/02 A2970 RMK AO2
     T02980019=
KJWY 212255Z AUTO 18011G16KT 10SM CLR 30/09 A2984 RMK AO2
     T03020094=
KJYL 212255Z AUTO 00000KT 10SM CLR 16/03 A3010 RMK AO2
     T01550026=
KK70 212255Z AUTO 02007KT 340V040 10SM FEW037 SCT044 BKN050 24/21
     A2992 RMK AO2=
KKLS 212256Z AUTO 14006KT 8SM -RA FEW011 SCT014 OVC050 10/08 A2977
     RMK AO2 SLP083 P0007 T01000083=
KLCG 212255Z AUTO 06005KT 10SM CLR 21/M01 A2959 RMK AO2
     T02121010=
KLGD 212256Z AUTO 10005KT 10SM -RA OVC037 09/07 A2974 RMK AO2
     SLP075 P0004 T00940072=
KLNA 212255Z AUTO 35013G16KT 10SM CLR 24/19 A2995 RMK AO2
     T02350192 PNO=
KLNC 212255Z AUTO 17012G16KT 10SM CLR 30/07 A2982 RMK AO2
     T03010071=
KLNQ 212255Z AUTO 00000KT 10SM CLR 23/10 A3009 RMK AO2
     T02280098=
KLUA 212255Z AUTO 20003KT 10SM CLR 12/00 A3009 RMK AO2=
KLUG 212255Z AUTO 17004KT 10SM CLR 19/06 A2999 RMK A01=
KLUX 212255Z AUTO 00000KT 10SM CLR 13/02 A3010 RMK AO2=
KLXY 212255Z AUTO 18010G22KT 10SM CLR 29/09 A2986 RMK AO2
     T02930091=
KLYO 212255Z AUTO 18011KT 10SM CLR 29/00 A2961 RMK AO2
     T02860003=
KLZU 212256Z 08003KT 10SM CLR 16/01 A3010 RMK AO2 SLP203
     T01610006=
KM02 212255Z AUTO 17004KT 9SM 22/07 A2994 RMK A01=
KM04 212255Z AUTO 19005G10KT 10SM CLR 24/09 A2989 RMK A01=
KM08 212255Z AUTO 15006KT 10SM CLR 23/10 A2992 RMK A01=
KM30 212255Z AUTO 17005KT 10SM CLR 24/06 A2987 RMK AO2
     T02350063=
KM54 212250Z AUTO 17006KT 10SM CLR 20/02 A2996 RMK A01=
KM75 212255Z AUTO 08006KT 10SM OVC029 08/04 A2953 RMK A01=
KM91 212255Z AUTO 15005KT 10SM CLR 20/03 A2995 RMK A01=
KMBT 212255Z AUTO 17008KT 10SM CLR 20/02 A2998 RMK A01=
KMEV 212255Z AUTO 25013G25KT 10SM CLR 24/M06 A2993 RMK AO2=
KMHV 212300Z AUTO 33007KT 10SM CLR 30/M03 A2987 RMK A01=
KMIO 212255Z AUTO 18008G15KT 10SM CLR 27/03 A2972 RMK AO2=
KMMI 212255Z AUTO 00000KT 10SM CLR 17/00 A3007 RMK A01=
KMNE 212255Z AUTO 16004KT 10SM CLR 27/14 A2990 RMK AO2
     T02730136=
KMNV 212255Z AUTO 00000KT 10SM 16/01 A3005 RMK A01=
KMNZ 212255Z AUTO 20012KT 10SM CLR 30/05 A2987 RMK AO2
     T03030048=
KMOR 212255Z AUTO 16003KT 10SM CLR 16/M00 A3005 RMK A01=
KMRC 212245Z AUTO 18003KT 10SM CLR 22/07 A2996 RMK A01=
KMUT 212255Z AUTO 21007KT 10SM CLR 25/03 A2962 RMK AO2=
KMVH 212255Z AUTO 26007KT 5SM HZ BKN028 BKN033 OVC038 08/05 A2958
     RMK AO2 P0002 PWINO=
KO69 212255Z AUTO 30006G12KT 9SM CLR 17/11 A2986 RMK A01=
KOEL 212255Z AUTO 02007KT 10SM CLR 27/M20 A2967 RMK AO1
     T02711199=
KOJA 212255Z AUTO 20020G28KT 10SM CLR 30/02 A2969 RMK AO2
     T03010022=
KOTH 212256Z 18009KT 10SM -RA OVC018 14/10 A2986 RMK AO2 RAB51
     SLP111 P0000 T01440100=
KOXI 212255Z AUTO 19011KT 10SM CLR 20/02 A2975 RMK AO1=
KOXV 212255Z AUTO 25005KT 10SM CLR 25/01 A2959 RMK AO2=
KP08 212255Z AUTO VRB03KT 10SM CLR 31/11 A2983 RMK AO2=
KPCW 212255Z AUTO 20009G15KT 10SM CLR 18/02 A2985 RMK AO2=
KPHT 212255Z AUTO 17007KT 10SM CLR 21/09 A2990 RMK A01=
KPIB 212256Z AUTO 19005KT 10SM SCT070 23/12 A3003 RMK AO2 SLP167
     T02330122 PNO $=
KPRO 212255Z AUTO 20005KT 10SM CLR 23/M01 A2960 RMK AO2
     T02261011=
KPRS 212255Z AUTO 18003KT 10SM CLR 29/11 A2996 RMK AO2
     T02880111=
KPTD 212255Z AUTO 17006KT 10SM FEW040 BKN047 BKN060 12/M02 A2996
     RMK AO2=
KPUJ 212255Z AUTO 00000KT 7SM CLR 15/02 A3008 RMK AO2=
KPVB 212255Z AUTO 00000KT 10SM CLR 21/01 A2962 RMK AO1
     T02140006=
KPVJ 212255Z AUTO 19009KT 10SM CLR 31/02 A2974 RMK AO2
     T03060018=
KPWT 212256Z AUTO 19005KT 10SM -RA FEW008 SCT019 BKN026 09/08
     A2974 RMK AO2 SLP076 P0001 T00890083=
