SASA41 KWBC 220000
METAR
SEMT NIL=
SEPA NIL=
SKBG NIL=
SKMD NIL=
SKPE 220000Z 14004KT 9999 FEW020 SCT080 22/18 Q1016 RMK A3001=
SKSM NIL=
SKVG NIL=
SMJP 220000Z 06003KT 9999 FEW008 FEW012CB 27/25 Q1010 NOSIG=
