SAUS70 KWBC 212338 RRD
METAR
KAUM 212336Z AUTO 00000KT 10SM CLR 16/03 A2963 RMK AO2=
KBDH 212335Z AUTO 00000KT 10SM CLR 14/02 A2964 RMK AO2=
KBVI 212335Z AUTO 16004KT 10SM CLR 14/M01 A3001 RMK AO2
     T01381012=
KCAD 212335Z AUTO 21009KT 10SM CLR 15/04 A2965 RMK AO2
     T01510038=
KCDI 212335Z AUTO 00000KT 10SM CLR 09/03 A3001 RMK AO2
     T00930030=
KCFE 212335Z AUTO 00000KT 6SM HZ CLR 13/02 A2961 RMK AO2=
KCNB 212335Z AUTO 14005KT 10SM CLR 14/00 A2961 RMK AO2
     T01421002=
KCQM 212335Z AUTO 00000KT 10SM CLR 11/M01 A2956 RMK AO2=
KCVX 212335Z AUTO 24005KT 10SM CLR 15/06 A2960 RMK AO2
     T01530057=
KD95 212335Z AUTO 17004KT 10SM CLR 16/M01 A2977 RMK AO2
     T01571009=
KDTL 212335Z AUTO 16003KT 10SM CLR 12/M00 A2957 RMK AO2=
KDUH 212335Z AUTO 18003KT 10SM CLR 19/00 A2982 RMK AO2
     T01850004=
KEDJ 212335Z AUTO 19008KT 10SM CLR 16/01 A2994 RMK A01=
KEFK 212335Z AUTO 15008KT 10SM CLR 09/M01 A3006 RMK AO2
     T00871015=
KFFX 212335Z AUTO 21008KT 10SM CLR 19/04 A2966 RMK AO2
     T01850037=
KFGN 212335Z AUTO 24004KT 10SM SCT120 13/M03 A2950 RMK AO2=
KFKA 212335Z AUTO 31003KT 7SM CLR 16/02 A2964 RMK AO2
     T01640015=
KFKS 212335Z AUTO 20012G22KT 170V230 10SM CLR 16/05 A2961 RMK AO2
     T01600052=
KFPK 212335Z AUTO 18005KT 10SM CLR 15/04 A2974 RMK AO2
     T01450039=
KHAF 212335Z AUTO 17004KT 5SM BR OVC011 14/13 A2990 RMK AO2=
KHAI 212335Z AUTO 19009KT 10SM CLR 18/04 A2977 RMK AO2
     T01840035=
KI23 212335Z AUTO 16006KT 10SM CLR 12/M01 A2998 RMK AO1=
KIRS 212335Z AUTO 20010KT 10SM CLR 18/01 A2978 RMK AO2
     T01790005=
KISQ 212335Z AUTO 20004KT 7SM CLR 08/07 A2958 RMK AO2
     T00810072=
KJYG 212335Z AUTO 00000KT 7SM CLR 14/02 A2962 RMK AO2=
KJYM 212335Z AUTO 18007KT 10SM CLR 17/00 A2981 RMK AO2
     T01710002=
KLWA 212335Z AUTO 19009KT 10SM SCT120 21/02 A2971 RMK AO2
     T02050023=
KLXL 212335Z AUTO 00000KT 10SM CLR 11/00 A2960 RMK AO2=
KMCD 212335Z AUTO 25009G16KT 10SM CLR 12/07 A2960 RMK AO2
     T01220065=
KMWM 212335Z AUTO 01004KT 7SM CLR 12/02 A2962 RMK AO2=
KOEB 212335Z AUTO 20008KT 10SM CLR 19/03 A2979 RMK AO2
     T01870026=
KONZ 212335Z AUTO 18006KT 10SM OVC100 12/07 A2981 RMK AO2
     T01160066=
KS24 212335Z AUTO 18007G13KT 10SM CLR 17/02 A2988 RMK AO2=
PAAD 212335Z AUTO 10021KT 10SM OVC012 M04/M06 A2986 RMK AO2
     T10431058=
PAUT 212335Z AUTO 19010KT 10SM BKN009 OVC120 06/05 A3010 RMK
     AO2=
KANW 212335Z AUTO 14006KT 10SM CLR 17/00 A2957 RMK AO2
     T01651005=
KARM 212335Z AUTO 19012G18KT 10SM SCT047 24/14 A2997 RMK AO2
     T02420135 TSNO=
KASN 212335Z AUTO 00000KT 10SM CLR 16/06 A3007 RMK AO2
     T01620057=
KATA 212335Z AUTO 18003KT 10SM CLR 21/14 A2985 RMK AO2 SLP007
     T02130136 $=
KAVK 212335Z AUTO 19018G23KT 10SM CLR 30/M02 A2961 RMK AO2
     PWINO=
KAVQ 212335Z AUTO 25010KT 10SM CLR 33/05 A2984 RMK AO2
     T03250048=
KAXH 212335Z AUTO 18006KT 10SM CLR 24/15 A2998 RMK AO2
     T02430146=
KAXS 212335Z AUTO 21017G22KT 10SM CLR 30/00 A2971 RMK AO2
     T02970000=
KAZC 212335Z AUTO 32006KT 10SM CLR 23/M01 A2998 RMK AO2=
KBAM 212335Z AUTO 25016G23KT 10SM CLR 24/M07 A2983 RMK AO1=
KBAX 212335Z AUTO 19009KT 10SM CLR 14/04 A2973 RMK AO2
     T01380043=
KBBB 212336Z AUTO 20003KT 10SM CLR 13/01 A2961 RMK AO2=
KBCK 212335Z AUTO 00000KT 10SM CLR 09/03 A2961 RMK AO2
     T00910034=
KBDN 212335Z AUTO 22021G27KT 5SM HZ FEW070 16/07 A2970 RMK AO2=
KBDU 212335Z AUTO 23014G18KT 10SM CLR 22/M08 A2972 RMK AO2=
KBGF 212335Z AUTO 17006KT 10SM CLR 17/02 A3004 RMK A01=
KBKD 212335Z AUTO 20013G22KT 5SM HZ CLR 31/03 A2979 RMK AO2
     T03110028=
