SAUS80 KWBC 220232
METAR
KGNT 220235Z AUTO 00000KT 10SM CLR 09/04 A3007 RMK AO2
     T00900036=
KAID 220235Z AUTO 18007KT 10SM CLR 14/M02 A2993 RMK AO2
     T01421016=
