SAPA31 KWBC 220000 RRF
METAR
PGSN 220049Z 11011KT 8SM -RA FEW019 SCT038 BKN048 28/25 A2990 RMK
     AO2 RAB01E24B43 VCSH S N-SE CB N-SE MOV W P0002=
