SAUS70 KWBC 220000 RRO
METAR
KGBG 212355Z AUTO 17007KT 10SM CLR 20/05 A2969 RMK AO2 T02040045
     10261 20204=
KGCD 212355Z AUTO 21012G17KT 10SM OVC110 14/03 A2968 RMK AO2
     T01400031 10153 20133=
KGCM 212355Z AUTO 17006KT 7SM CLR 25/02 A2973 RMK AO2=
KGEV 212355Z AUTO 00000KT 10SM CLR 09/M01 A3015 RMK AO2 T00871015
     10139 20087=
KGGP 212355Z AUTO 19009KT 10SM CLR 16/02 A2984 RMK AO2=
KGHG 212355Z AUTO 21005KT 10SM CLR 11/06 A3016 RMK AO2=
KGMJ 212355Z AUTO 17008KT 10SM CLR 18/M05 A2974 RMK AO2=
KGOP 212355Z AUTO 10SM CLR 27/07 A2987 RMK AO2=
