SAUS70 KWBC 220106
METAR
KW99 220102Z AUTO 00000KT 10SM CLR 06/02 A3012 RMK AO2=
KDLL 220115Z AUTO 00000KT 10SM CLR 10/03 A2965 RMK AO2
     T01010026=
KEVM 220101Z AUTO 00000KT 10SM CLR 08/02 A2959 RMK AO2=
KGAF 220115Z AUTO 25006KT 8SM BKN080 11/02 A2954 RMK AO2=
KEZS 220115Z AUTO 25003KT 10SM CLR 11/06 A2963 RMK AO2
     T01140056=
KW63 220115Z AUTO 00000KT 4SM CLR 07/07 A3015 RMK AO1=
