SAUS70 KWBC 220000 RRX
METAR
PAGS 212356Z AUTO 23012G18KT 10SM OVC047 09/03 A2967 RMK AO2
     SLP047 T00890033 10100 20078 53002=
PAHL 212356Z AUTO 17005KT 10SM OVC006 02/01 A2979 RMK AO2 SLP092
     60000 T00220006 10022 20000 51004 FZRANO=
PAHY 212356Z AUTO 22003KT 10SM -RA BKN065 09/06 A2976 RMK AO2
     RAB54 SLP073 P0000 60002 T00890056 10094 20078 58008 $=
PAIG 212356Z AUTO 21010KT 10SM BKN028 OVC034 07/02 A2996 RMK AO2
     SLP154 T00720022 10078 20011 58001 $=
PAIK 212356Z AUTO 11006KT 10SM BKN005 BKN019 OVC037 01/01 A2975
     RMK AO2 SLP078 60000 T00110006 10011 20006 51008 FZRANO=
PAIN 212356Z AUTO 36005KT 8SM -SN FEW005 BKN018 OVC032 01/M01
     A2979 RMK AO2 SLP120 P0001 60008 T00061006 10011 21011 51013
     FZRANO $=
PAJZ 212356Z AUTO 25009KT 8SM FEW024 07/01 A2998 RMK AO2 SLP158
     T00720011 10072 21017 51006 $=
PAKI 212356Z AUTO 22013KT 9SM -RA FEW025 BKN037 BKN043 06/02 A2990
     RMK AO2 RAB56 SLP128 6//// T00560022 10061 20033 51004 PNO
     $=
KBTN 212355Z AUTO 15006KT 5SM HZ FEW025 12/M01 A2954 RMK AO2=
KOAR 212355Z AUTO 29007G10KT 10SM OVC011 05/00 A2990 RMK AO2
     PWINO=
