SAUS70 KWBC 220200 RRM
METAR
KSRQ 220153Z 02007KT 10SM CLR 18/09 A3005 RMK AO2 SLP173
     T01830094=
KSRR 220155Z AUTO 14006KT 10SM 14/02 A3009 RMK AO2=
KSTS 220153Z AUTO 15005KT 9SM CLR 12/11 A2985 RMK AO2 SLP100
     T01220106=
KSUA 220155Z AUTO 00000KT 10SM SCT033 SCT047 21/14 A3004 RMK AO2
     T02100143=
KTCL 220153Z 13006KT 10SM CLR 19/11 A3006 RMK AO2 SLP177
     T01890111=
KTDZ 220153Z AUTO 19010KT 10SM CLR 15/02 A2989 RMK AO2 SLP122
     T01500022=
KTHV 220153Z AUTO 00000KT 10SM CLR 04/01 A3015 RMK AO2 SLP214
     T00390006=
KTIW 220153Z 00000KT 7SM -RA BKN009 BKN020 OVC025 08/07 A2969 RMK
     AO2 SLP054 P0006 T00780067=
KTMB 220153Z 01008KT 10SM BKN070 23/18 A2999 RMK AO2 SLP155
     T02280178=
KTOI 220153Z AUTO 00000KT 10SM CLR 10/07 A3013 RMK AO2 SLP200
     T01000067=
KTPA 220153Z 36007KT 10SM CLR 17/09 A3008 RMK AO2 SLP185
     T01670089=
KTTD 220153Z 08004KT 2 1/2SM BR OVC019 11/08 A2965 RMK AO2
     RAB0054E26 SLP041 P0002 T01060083=
KTTN 220153Z 00000KT 10SM CLR 09/02 A3017 RMK AO2 SLP211
     T00890022=
KTVL 220153Z AUTO 20007KT 170V230 10SM CLR 14/M03 A3000 RMK AO2
     SLP132 T01441028=
KTVY 220155Z AUTO 16008KT 10SM CLR 13/M04 A2974 RMK AO2=
KTWF 220153Z 27006KT 10SM CLR 15/00 A2968 RMK AO2 SLP013
     T01500000=
KUAO 220153Z 18005KT 2SM BR SCT003 OVC012 09/09 A2965 RMK AO2
     RAE0056B04E29 SLP041 P0002 T00940089=
KVCB 220153Z AUTO 21010G18KT 10SM CLR 19/11 A2975 RMK AO2 SLP072
     T01890106=
KVDF 220155Z AUTO 00000KT 10SM CLR 15/11 A3009 RMK AO2=
KVEL 220153Z AUTO 25009G18KT 10SM CLR 18/M10 A2981 RMK AO2 SLP063
     T01831100=
KVGT 220153Z 21004KT 10SM CLR 28/M02 A2978 RMK AO2 SLP083
     T02781022=
KVRB 220153Z AUTO 32009KT 10SM BKN070 19/15 A3003 RMK AO2 SLP169
     T01940150=
KVUO 220153Z AUTO 14007KT 10SM -RA FEW008 OVC020 10/08 A2966 RMK
     AO2 RAE02B46 SLP043 P0000 T01000083=
KWRL 220153Z AUTO 17009KT 10SM CLR 14/M04 A2948 RMK AO2 SLP975
     T01441044=
KWVI 220153Z AUTO 00000KT 10SM OVC009 13/11 A2988 RMK AO2 SLP118
     T01330111=
KX60 220155Z AUTO 00000KT 10SM CLR 10/06 A3011 RMK AO2
     T01000056=
KXSA 220155Z AUTO 00000KT 10SM CLR 10/06 A3018 RMK AO2
     T01010061=
KYIP 220153Z 20015KT 10SM CLR 19/02 A2985 RMK AO2 SLP105
     T01890022=
KZZV 220153Z AUTO 13004KT 10SM CLR 11/00 A3002 RMK AO2 SLP167
     T01110000=
K10G 220155Z AUTO 20007KT 10SM CLR 13/M01 A3001 RMK AO2=
K4R5 220155Z AUTO 00000KT 10SM CLR 04/03 A2958 RMK AO2
     T00380029=
KAQW 220152Z AUTO 14005KT 10SM CLR 06/ A3014 RMK AO2 SLP212 T0061
     $=
KARV 220155Z AUTO 00000KT 10SM CLR 06/02 A2963 RMK AO2
     T00570020=
KBIS 220152Z 07006KT 10SM BKN110 11/01 A2951 RMK AO2 SLP002
     T01110006=
KBML 220152Z AUTO 00000KT 10SM CLR 01/M01 A3011 RMK AO2 SLP209
     T00061011=
KCQX 220152Z AUTO 21003KT 10SM CLR 13/09 A3022 RMK AO2 SLP233
     T01330094=
KDAW 220151Z AUTO 30003KT 10SM CLR 06/04 A3014 RMK AO2 SLP206
     T00610039=
KDPA 220152Z 19010KT 10SM CLR 18/04 A2974 RMK AO2 SLP069
     T01780044=
KDVN 220152Z AUTO 18008KT 10SM CLR 18/04 A2970 RMK AO2 SLP052
     T01830039=
KFIT 220152Z AUTO 00000KT 10SM CLR 04/01 A3017 RMK AO2 SLP220
     T00390011=
KHFY 220155Z AUTO 16005KT 10SM CLR 15/03 A2992 RMK AO2
     T01500031=
KILG 220151Z 17005KT 10SM CLR 12/06 A3018 RMK AO2 SLP219
     T01170061=
KIUA 220155Z AUTO 18005KT 10SM CLR 12/M01 A3000 RMK AO2
     T01151013=
KLNL 220155Z AUTO 00000KT 10SM CLR 03/02 A2965 RMK AO2
     T00270018=
KLUM 220155Z AUTO 36003KT 10SM CLR 10/07 A2963 RMK AO2
     T00970073=
KMRJ 220155Z AUTO 18003KT 10SM CLR 17/00 A2966 RMK AO2=
