SAUS70 KWBC 220000 RRO
METAR
KSMN 212356Z AUTO 25014G24KT 200V280 10SM FEW060 OVC085 16/M02
     A2961 RMK AO2 PK WND 25037/2310 SLP734 T01611022 10206 20139
     53011=
KSOP 212356Z AUTO 00000KT 10SM CLR 09/03 A3014 RMK AO2 SLP214
     T00940033 10206 20089 53011 TSNO=
KSQI 212356Z AUTO 00000KT 10SM CLR 21/04 A2967 RMK AO2 SLP915
     6//// T02060044 10267 20200 53010=
KENV 212356Z AUTO 24015KT 10SM CLR 25/M11 A2974 RMK AO2 SLP048
     T02501106 10261 20161 56025=
KESC 212356Z AUTO 00000KT 10SM CLR 11/10 A2958 RMK AO2 SLP021
     6//// T01110100 10189 20111 52027 PNO $=
KEWK 212356Z AUTO 16009KT 10SM CLR 24/01 A2963 RMK AO2 SLP024
     T02390011 10311 20239 56009=
KFAM 212356Z AUTO 16006KT 10SM CLR 21/07 A2985 RMK AO2 SLP114
     T02060067 10267 20206 53007=
KFCI 212356Z AUTO 20006KT 10SM CLR 09/04 A3014 RMK AO2 SLP220
     6//// T00940044 10200 20094=
KFFX 212355Z AUTO 21006KT 10SM CLR 18/04 A2968 RMK AO2 T01830037
     10210 20183=
KFKA 212355Z AUTO 30003KT 7SM CLR 16/02 A2965 RMK AO2 T01610016
     10216 20161=
KFKL 212356Z AUTO 18009KT 10SM CLR 11/M01 A3002 RMK AO2 SLP176
     6//// T01111006 10161 20111 53012=
KFKS 212355Z AUTO 20010G22KT 170V230 10SM CLR 16/05 A2962 RMK AO2
     T01600054 10200 20153=
KFLP 212356Z AUTO VRB04KT 10SM CLR 23/04 A2983 RMK AO2 SLP097
     T02280044 10289 20228 53005=
KFNL 212356Z 32008KT 10SM CLR 22/M09 A2969 RMK AO2 SLP015
     T02171094 10261 20217 56008=
KFOD 212356Z AUTO 04005KT 9SM CLR 17/01 A2962 RMK AO2 SLP045
     T01670011 10239 20167 53006=
KFPK 212355Z AUTO 18006KT 10SM CLR 14/04 A2975 RMK AO2 T01420041
     10201 20141=
KFRM 212356Z AUTO 00000KT 6SM HZ CLR 13/01 A2964 RMK AO2 SLP040
     T01280011 10211 20128 53005=
KGAI 212356Z AUTO 13003KT 10SM CLR 09/01 A3014 RMK AO2 SLP224
     T00940011 10194 20094 53007=
KGBD 212356Z AUTO 17005KT 9SM CLR 24/03 A2961 RMK AO2 SLP017
     T02440033 10317 20244 58007=
KGDV 212356Z AUTO 36005KT 10SM -RA OVC065 08/07 A2954 RMK AO2
     RAB2259 SLP014 P0000 60000 T00830067 10133 20083 53006=
KGTU 212356Z 18010KT 10SM CLR 27/09 A2991 RMK AO2 SLP123 T02720089
     10300 20272 55004=
KGUC 212356Z AUTO 29010KT 10SM CLR 16/M09 A2999 RMK AO2 SLP131
     T01561094 10178 20094 58009=
KGVQ 212356Z AUTO 18004KT 10SM CLR 13/01 A2995 RMK AO2 SLP145
     T01280006 10183 20128 53010=
KGXY 212356Z 13005KT 10SM CLR 21/M07 A2968 RMK AO2 SLP036
     T02111072 10261 20211 56013 $=
KHAF 212355Z AUTO VRB06KT 5SM BR OVC011 14/13 A2989 RMK AO2=
KHAI 212355Z AUTO 19009KT 10SM CLR 18/04 A2978 RMK AO2 T01770035
     10220 20177=
KHDN 212356Z AUTO 28011KT 10SM CLR 16/M09 A2988 RMK AO2 PK WND
     27028/2258 SLP081 T01561094 10189 20156 55010=
KHEF 212356Z 00000KT 10SM CLR 08/03 A3013 RMK AO2 SLP210 T00830033
     10194 20083 53006=
KHNB 212356Z AUTO 15006KT 10SM CLR 18/03 A2992 RMK AO2 SLP132
     T01830028 10239 20183 53001=
KHND 212356Z 20003KT 10SM CLR 29/00 A2983 RMK AO2 SLP097 T02890000
     10300 20244 56022=
KHYI 212356Z 18010KT 10SM CLR 27/08 A2992 RMK AO2 SLP125 T02700080
     10289 20261 56007 $=
KHYS 212356Z AUTO 17009KT 10SM CLR 22/M01 A2960 RMK AO2 SLP019
     6//// T02171011 10311 20217 56007 $=
KI23 212355Z AUTO 16007KT 10SM CLR 12/M01 A2998 RMK AO1=
KILE 212356Z AUTO 17011KT 10SM CLR 26/09 A2988 RMK AO2 SLP108
     T02610089 10317 20261 55004=
KIRS 212355Z AUTO 20010KT 10SM CLR 17/01 A2979 RMK AO2 T01710009
     10213 20170=
KISO 212356Z 00000KT 10SM BKN050 OVC065 13/07 A3013=
KISQ 212355Z AUTO 19003KT 7SM SCT120 08/07 A2958 RMK AO2 T00800072
     10111 20080=
KITH 212356Z 17007KT 10SM CLR 11/M03 A3006 RMK AO2 SLP185
     T01061028 10161 20106 53018=
