SAUS70 KWBC 212302
METAR
KW75 212315Z AUTO 00000KT 10SM CLR 11/07 A3014 RMK AO1
     T01100068=
