SAUS70 KWBC 220100 RRO
METAR
KI23 220055Z AUTO 17007KT 10SM CLR 11/M00 A2999 RMK AO1=
KILE 220056Z AUTO 17009KT 10SM CLR 24/09 A2990 RMK AO2 SLP116
     T02440089=
KIRS 220055Z AUTO 20009KT 10SM CLR 16/01 A2980 RMK AO2
     T01620009=
KISQ 220055Z AUTO 00000KT 3SM BR CLR 07/06 A2961 RMK AO2
     T00650063=
KITH 220056Z 17007KT 10SM CLR 09/M02 A3007 RMK AO2 SLP187
     T00941022=
KIWD 220056Z AUTO 00000KT 10SM CLR 04/03 A2961 RMK AO2 SLP033
     T00440033=
KJAC 220056Z 20012G20KT 10SM CLR 13/M07 A2971 RMK AO2 PK WND
     22027/2358 SLP038 T01281067 PNO $=
KJHW 220056Z AUTO 19010KT 10SM CLR 11/M01 A3000 RMK AO2 SLP173
     T01061006=
KJRB 220056Z AUTO 21005KT 10SM CLR A3017 RMK AO2 SLPNO FZRANO
     $=
KJYM 220055Z AUTO 18008KT 10SM CLR 16/01 A2983 RMK AO2
     T01560006=
KLBL 220056Z AUTO 12005KT 10SM CLR 24/M02 A2966 RMK AO2 SLP029
     T02391022=
KLCI 220056Z AUTO 00000KT 10SM CLR 04/02 A3013 RMK AO2 SLP209
     T00390017=
KLEW 220056Z AUTO 14003KT 10SM CLR 05/03 A3014 RMK AO2 SLP216
     T00500028=
KLRD 220056Z 18005KT 10SM CLR 23/11 A2992 RMK AO2 SLP131
     T02330111=
KLWA 220055Z AUTO 19009KT 10SM CLR 20/02 A2973 RMK AO2
     T01970024=
KLXL 220055Z AUTO 00000KT 10SM CLR 06/02 A2961 RMK AO2=
KM19 220056Z AUTO 21005KT 10SM CLR 18/10 A2988 RMK AO2 SLP118
     T01780100 PNO $=
KMBL 220056Z AUTO 19006KT 10SM CLR 18/06 A2963 RMK AO2 SLP036
     T01780056=
KMCD 220055Z AUTO 26006KT 10SM CLR 10/07 A2962 RMK AO2
     T01040066=
KMNM 220056Z AUTO 32007KT 10SM CLR 10/05 A2961 RMK AO2 SLP028
     T01000050 PNO $=
KMQY 220056Z 16003KT 10SM CLR 17/04 A3002 RMK AO2 SLP174
     T01670044=
KMRF 220056Z AUTO 22006KT 10SM CLR 17/08 A3006 RMK AO2 SLP144
     T01720078=
KMSV 220056Z AUTO 00000KT 10SM CLR 08/M01 A3014 RMK AO2 SLP215
     T00831011=
KMTW 220056Z AUTO 00000KT 10SM CLR 11/08 A2963 RMK AO2 SLP038
     T01110083=
KMVN 220056Z AUTO 17003KT 10SM CLR 18/05 A2987 RMK AO2 SLP119
     T01780050=
KMWM 220055Z AUTO 00000KT 10SM CLR 08/01 A2963 RMK AO2=
K04W 220055Z AUTO 00000KT 10SM CLR 07/02 A2961 RMK AO2=
K1M4 220056Z AUTO 17007KT 10SM CLR 18/11 A3006 RMK AO2 SLP171
     T01780111=
K22N 220055Z AUTO 00000KT 10SM CLR 02/00 A3015 RMK AO2=
K6B0 220055Z AUTO 13003KT 10SM CLR 07/01 A3009 RMK AO2
     T00710005=
K7N0 220056Z AUTO 18008KT 10SM CLR 21/11 A3009 RMK AO2 SLP191
     T02060111 PNO $=
KAAO 220054Z AUTO 17009KT 10SM CLR 25/01 A2964 RMK AO2 SLP028
     T02500011=
KACB 220055Z AUTO 00000KT 10SM CLR 10/07 A2963 RMK AO2
     T01020072=
KADC 220055Z AUTO 00000KT 10SM CLR 09/01 A2959 RMK AO2 TSNO=
KADF 220056Z AUTO 00000KT 10SM CLR 16/10 A2989 RMK AO2 SLP121
     T01560100=
KAEL 220055Z AUTO 00000KT 10SM CLR 11/03 A2964 RMK AO2=
KAFJ 220056Z AUTO 00000KT 10SM CLR 07/02 A3007 RMK AO2 SLP188
     T00720017=
KAIZ 220056Z AUTO 17005KT 10SM CLR 23/01 RMK AO2 SLPNO T02280006
     $=
KARG 220056Z AUTO 17007KT 10SM CLR 17/08 A2987 RMK AO2 SLP118
     T01670083=
KASH 220056Z 00000KT 10SM CLR 06/04 A3015 RMK AO2 SLP217 T00560039
     $=
KBDH 220055Z AUTO 00000KT 10SM CLR 09/01 A2965 RMK AO2=
KBHB 220056Z AUTO 20005KT 10SM CLR 09/06 A3017 RMK AO2 SLP217
     T00940056 PNO $=
KBID 220056Z AUTO 22008KT 10SM CLR 13/07 A3018 RMK AO2 SLP222
     T01330067=
KBLM 220056Z AUTO 16004KT 10SM CLR 11/07 A3017 RMK AO2 SLP219
     T01110072=
KBMI 220056Z 18014KT 10SM CLR 16/04 A2978 RMK AO2 SLP084
     T01610039=
KBTP 220056Z AUTO 15005KT 10SM CLR 11/M01 A3005 RMK AO2 SLP186
     T01111006 TSNO=
KBVX 220056Z AUTO 17004KT 10SM CLR 21/09 A2988 RMK AO2 SLP117
     T02110089=
