SAUS80 KWBC 220036
METAR
KAID 220035Z AUTO 18004KT 10SM CLR 16/M01 A2991 RMK AO2
     T01561015=
KIKW 220035Z AUTO 16003KT 10SM CLR 17/05 A2971 RMK AO2
     T01670045=
KLYV 220035Z AUTO 00000KT 7SM CLR 11/01 A2962 RMK AO2=
KPOV 220035Z AUTO 17003KT 10SM CLR 11/M02 A2997 RMK AO2 T01101016
     PWINO=
KPZQ 220035Z AUTO 20006KT 10SM CLR 16/05 A2964 RMK AO2
     T01580053=
