SAUS70 KWBC 212300 RRX
METAR
KANE 212245Z VRB05KT 10SM SCT250 17/01 A2960=
KJKA 212259Z 19003KT 10SM CLR 19/08 A3007=
