SAUS70 KWBC 220136
METAR
KDVP 220133Z AUTO 13005KT 7SM CLR 10/01 A2963 RMK AO2
     T00960006=
KORB 220133Z AUTO 00000KT 10SM CLR 10/02 A2955 RMK AO2=
K08D 220135Z AUTO 03009KT 10SM 05/05 A2957 RMK AO2=
K0E0 220135Z AUTO 30004KT 10SM CLR 13/00 A3002 RMK AO2 T01270003
     TSNO=
KAQP 220133Z AUTO 17005KT 10SM 12/00 A2958 RMK AO2=
KBEA 220135Z AUTO 15006KT 10SM CLR 20/14 A2996 RMK AO2 T02010137
     PWINO=
KCQW 220135Z AUTO 10SM CLR 07/02 A3014 RMK AO2 PWINO=
KD55 220135Z AUTO 31007KT 6SM -DZ FEW023 OVC034 07/07 A2957 RMK
     AO2=
KEHO 220135Z AUTO 00000KT 10SM CLR 08/02 A3014 RMK AO2
     T00800021=
KETH 220133Z AUTO 15009KT 10SM 13/01 A2957 RMK AO=
KEYF 220135Z AUTO 00000KT 10SM CLR 10/05 A3015 RMK AO2
     T01000054=
KFOZ 220133Z AUTO 00000KT 10SM CLR 09/01 A2962 RMK AO2=
KLAL 220135Z AUTO 36007KT 10SM CLR 16/06 A3007 RMK AO2
     T01600057=
KLNL 220135Z AUTO 00000KT 10SM CLR 03/02 A2964 RMK AO2
     T00280017=
KLUM 220135Z AUTO 00000KT 10SM CLR 09/07 A2963 RMK AO2
     T00860071=
KMAW 220135Z AUTO 17006KT 7SM CLR 17/08 A2990 RMK AO1=
KOWA 220133Z AUTO 14004KT 10SM CLR 10/04 A2964 RMK AO2=
KRCZ 220135Z AUTO 00000KT 10SM CLR 12/01 A3015 RMK AO2
     T01230010=
KRNV 220135Z AUTO 17011KT 10SM CLR A2994 RMK AO2 TSNO=
KRPD 220135Z AUTO 00000KT 10SM CLR 06/05 A2965 RMK AO2
     T00620049=
KSNK 220135Z AUTO 20010KT 10SM CLR 23/03 A2984 RMK AO2
     T02250032=
KXVG 220133Z AUTO 00000KT 10SM CLR 06/01 A2958 RMK AO2=
K6S8 220125Z AUTO 07010KT 10SM 11/04 A2955 RMK A01 LAUREL=
KJAQ 220135Z AUTO 26004KT 10SM CLR 23/08 A2983 RMK AO1
     T02280081=
K10G 220135Z AUTO 19006KT 10SM CLR 13/M01 A3001 RMK AO2=
K1P1 220135Z AUTO 00000KT 10SM CLR 02/01 A3014 RMK AO2
     T00160005=
K20U 220135Z AUTO 31004KT 10SM FEW044 BKN055 OVC075 08/07 A2956
     RMK AO2=
K24A 220135Z AUTO 14006KT 10SM CLR 10/M01 A3017 RMK AO2 LTG DSNT
     SE T00981015=
K27K 220135Z AUTO 17006KT 10SM CLR 13/00 A3001 RMK AO1=
K35A 220135Z AUTO 00000KT 10SM CLR 09/03 A3018 RMK A02
     T00880028=
K3D2 220135Z AUTO 27004KT 10SM CLR 14/05 A2962 RMK AO2
     T01440050=
K4S2 220135Z AUTO 00000KT 5SM RA BKN005 BKN013 OVC023 08/07 A2966
     RMK AO2 P0002=
K6L4 220135Z AUTO VRB04KT 10SM CLR 12/01 A3006 RMK AO2=
K6S2 220135Z AUTO 20010G15KT 6SM -RA BR OVC003 13/13 A2975 RMK
     AO2=
KCKI 220135Z AUTO 00000KT 10SM CLR 06/04 A3014 RMK AO2=
KD25 220135Z AUTO 00000KT 10SM CLR 04/02 A2963 RMK AO2
     T00380023=
KEDE 220135Z AUTO 00000KT 10SM SCT060 SCT070 12/11 A3017 RMK AO2
     T01210110=
KGGE 220135Z AUTO 00000KT 10SM CLR 08/07 A3014 RMK AO2=
KGYH 220135Z AUTO 00000KT 10SM CLR 13/M01 A3014 RMK A02
     T01281007=
KHAE 220135Z AUTO 16006KT 10SM CLR 20/00 A2971 RMK AO2=
KHBI 220135Z AUTO 00000KT 10SM CLR 07/03 A3017 RMK AO2
     T00690025=
KHSP 220135Z AUTO 18006KT 10SM CLR 09/M04 A3016 RMK AO2
     T00861039=
KJFX 220135Z AUTO 00000KT 8SM CLR 11/10 A3005 RMK AO2=
KJSO 220135Z AUTO 20006KT 10SM CLR 23/11 A2994 RMK AO2 T02250110
     TSNO=
KL18 220135Z AUTO 23004KT 10SM BKN010 18/16 A2987 RMK AO2=
KOIN 220135Z AUTO 00000KT 10SM CLR 15/M04 A2967 RMK AO1
     T01491040=
KPCZ 220135Z AUTO 00000KT 10SM CLR 11/04 A2965 RMK AO2
     T01120038=
KPSK 220135Z AUTO 00000KT 10SM CLR 07/01 A3015 RMK AO2
     T00660011=
KRCM 220135Z AUTO 16005KT 10SM CLR 20/02 A2969 RMK AO2=
KRCX 220135Z AUTO 00000KT 10SM CLR 06/05 A2965 RMK AO2
     T00640048=
KRHP 220135Z AUTO 00000KT 10SM CLR 04/02 A3014 RMK AO2
     T00430016=
KSHD 220135Z AUTO 00000KT 10SM CLR 04/00 A3016 RMK AO2
     T00401001=
KSRR 220135Z AUTO 13004KT 10SM 14/02 A3008 RMK AO2=
