SAUS70 KWBC 220118 RRA
METAR
KFFM 220115Z AUTO 13005KT 10SM CLR 12/01 A2955 RMK AO2=
KFSE 220115Z AUTO 17005KT 10SM BKN100 09/M01 A2956 RMK AO2=
KGHW 220115Z AUTO 13003KT 10SM CLR 11/01 A2960 RMK AO2=
KHCO 220115Z AUTO 24004KT 10SM SCT080 OVC090 12/01 A2953 RMK
     AO2=
KJKJ 220115Z AUTO 17004KT 7SM CLR 12/M01 A2956 RMK AO2 TSNO=
KJMR 220115Z AUTO 00000KT 10SM CLR 07/02 A2965 RMK AO2=
KMCX 220135Z AUTO 18007G14KT 10SM CLR 18/01 A2984 RMK AO2
     T01780014=
KMVE 220115Z AUTO 11004KT 4SM HZ CLR 11/01 A2960 RMK AO2=
KOVL 220115Z AUTO 00000KT 7SM CLR 11/01 A2962 RMK AO2=
KPWC 220115Z AUTO 00000KT 10SM CLR 07/02 A2963 RMK AO2=
KRCX 220115Z AUTO 00000KT 10SM CLR 07/04 A2965 RMK AO2
     T00650042=
KTEW 220115Z AUTO 17006KT 10SM CLR 17/03 A2978 RMK AO2
     T01700031=
KUKT 220115Z AUTO 00000KT 10SM CLR 05/03 A3015 RMK A01=
KY63 220115Z AUTO 13005KT 10SM CLR 12/01 A2957 RMK AO2
     T01190005=
KEKM 220115Z AUTO 20008KT 10SM CLR 18/03 A2981 RMK AO2
     T01750033=
KELK 220115Z AUTO 19011KT 10SM CLR 23/02 A2970 RMK AO2 SLP348
     T02290024 $=
KEVU 220115Z AUTO 18009KT 10SM CLR 21/05 A2960 RMK AO2
     T02150051=
KEXX 220115Z AUTO 00000KT 10SM CLR 07/04 A3014 RMK AO2
     T00670036=
KEZF 220115Z AUTO 00000KT 10SM CLR 08/05 A3014 RMK AO2
     T00810047=
KEZM 220115Z AUTO 00000KT 10SM CLR 07/04 A3013 RMK AO2=
KF70 220115Z AUTO 21005KT 10SM CLR 21/15 A2986 RMK AO2=
KFGN 220115Z AUTO 00000KT 10SM BKN100 11/01 A2950 RMK AO2=
KFGX 220115Z AUTO 19004KT 10SM CLR 13/00 A3003 RMK AO2
     T01300003=
KFSO 220115Z AUTO 18011G19KT 10SM CLR 13/M03 A3003 RMK AO2
     T01301027=
KFVX 220115Z AUTO 00000KT 10SM CLR 07/03 A3014 RMK AO2
     T00680025=
KFWB 220115Z AUTO VRB05KT 10SM CLR 21/03 A2982 RMK AO2=
KGLY 220115Z AUTO 18005KT 10SM CLR 21/03 A2971 RMK AO2=
KGWR 220115Z AUTO 17006KT 8SM FEW021 BKN025 BKN034 11/01 A2956 RMK
     A01=
KHAF 220115Z AUTO 15008KT 5SM BR OVC011 14/13 A2987 RMK AO2=
KHOB 220115Z AUTO 22008KT 10SM CLR 18/08 A2989 RMK AO2=
KHRJ 220115Z AUTO 00000KT 10SM CLR 08/06 A3016 RMK AO2
     T00800060=
KHVS 220115Z AUTO 00000KT 10SM FEW037 SCT042 BKN048 08/00 A3014
     RMK AO2=
KHWY 220115Z AUTO 00000KT 10SM CLR 03/01 A3019 RMK AO2
     T00300013=
KHYW 220115Z AUTO 00000KT 10SM CLR 07/07 A3014 RMK AO2=
KHZE 220115Z AUTO 05005KT 10SM FEW046 FEW050 OVC070 10/04 A2954
     RMK AO2=
KHZL 220115Z AUTO 00000KT 10SM CLR 09/M01 A3016 RMK AO2=
KI67 220115Z AUTO 00000KT 10SM CLR 13/00 A2996 RMK AO1=
KI68 220115Z AUTO 16007KT 10SM CLR 14/01 A2998 RMK AO1
     T01370012=
KIDI 220115Z AUTO 00000KT 10SM OVC050 07/02 A3010 RMK A01=
KINF 220115Z AUTO 00000KT 10SM CLR 12/07 A3009 RMK AO2=
KIOB 220115Z AUTO 19006KT 10SM CLR 11/01 A3004 RMK AO2 PWINO=
KJFZ 220115Z AUTO 15004KT 10SM CLR 11/00 A3012 RMK AO2
     T01070000=
KJVW 220115Z AUTO 00000KT 10SM FEW055 18/15 A2999 RMK AO2=
KJZI 220115Z AUTO 30003KT 10SM CLR 11/08 A3013 RMK AO2=
KKY8 220115Z AUTO 14005KT 10SM FEW037 17/05 A2993 RMK A01=
KL08 220115Z AUTO 00000KT 10SM CLR 28/08 A2975 RMK AO2=
KL35 220115Z AUTO 23004KT 10SM CLR 12/03 A3010 RMK AO2=
KL52 220115Z AUTO 26004KT 6SM BR BKN011 15/14 A2990 RMK A01=
KLBO 220115Z AUTO 17008KT 10SM CLR 20/00 A2980 RMK AO2=
KLKR 220115Z AUTO 00000KT 10SM FEW046 BKN060 07/03 A3014 RMK
     AO2=
K06D 220115Z AUTO 34004KT 10SM SCT033 BKN039 OVC060 05/05 A2956
     RMK AO2=
K0S9 220115Z AUTO 29003KT 5SM -RA BKN039 OVC044 09/08 A2971 RMK
     AO2=
K0VG 220115Z AUTO 00000KT 10SM CLR 06/01 A3011 RMK AO2=
K15M 220115Z AUTO 18005KT 10SM CLR 18/10 A3001 RMK AO2 T01780104
     $=
K1R7 220115Z AUTO 16008KT 10SM CLR 20/17 A3004 RMK AO2 PWINO=
