SAUS80 KWBC 220200 RRJ
METAR
KJQF 220159Z 00000KT 10SM CLR 09/03 A3016=
