SAUS70 KWBC 220240 RRA
METAR
KRAS 220235Z AUTO 16013KT 10SM CLR A3000 RMK AO2=
KRPJ 220235Z AUTO 16006KT 10SM CLR 11/06 A2973 RMK AO2 T01070055
     TSNO=
KRSV 220235Z AUTO 18008KT 10SM CLR 13/02 A2990 RMK AO2
     T01320023=
KRVJ 220235Z AUTO 36003KT 10SM CLR 06/05 A3014 RMK AO2
     T00590045=
KRWV 220235Z AUTO 17013G18KT 10SM CLR 22/14 A2996 RMK AO2
     T02230142=
KRYW 220235Z AUTO 18008G15KT 10SM CLR 22/09 A2995 RMK AO2
     T02210090=
KS33 220235Z AUTO 02003KT 10SM -RA SCT044 OVC060 09/08 A2964 RMK
     AO2 P0001=
KSAA 220235Z AUTO 21006KT 10SM CLR 07/M10 A2984 RMK AO2=
KSME 220235Z AUTO 18003KT 10SM CLR 13/02 A3004 RMK AO2=
KSTE 220235Z AUTO 00000KT 10SM CLR 07/02 A2967 RMK AO2
     T00710016=
KSTK 220235Z AUTO 22004KT 10SM CLR 13/M05 A2964 RMK AO2=
KSXK 220235Z AUTO 07008KT 10SM FEW019 SCT024 BKN036 11/00 A2958
     RMK AO2=
KT41 220235Z AUTO 10SM SCT041 22/15 A3002 RMK AO2 T02160146=
KT74 220235Z AUTO 17010KT 10SM CLR 21/11 A2993 RMK AO2
     T02140112=
KT82 220235Z AUTO 00000KT 10SM CLR 17/08 A2995 RMK AO2
     T01670078=
KTEX 220235Z AUTO 00000KT 10SM CLR 07/M09 A3013 RMK AO2=
KTTA 220235Z AUTO 00000KT 10SM CLR 04/03 A3017 RMK AO2
     T00380034=
KTYQ 220235Z AUTO 17008KT 10SM CLR 13/02 A2992 RMK AO2
     T01300019=
KUES 220235Z AUTO 18004KT 10SM CLR 15/03 A2971 RMK AO2=
KVHN 220235Z AUTO 22006KT 10SM CLR 17/08 A3003 RMK AO2
     T01700083=
KVTP 220235Z AUTO 24017G27KT 10SM CLR 05/M07 A3004 RMK AO2=
KVVS 220235Z AUTO 08004KT 10SM CLR 07/00 A3009 RMK AO2
     T00740003=
KVYS 220235Z AUTO 17006KT 10SM CLR 13/04 A2975 RMK AO2
     T01340039=
KZPH 220235Z AUTO 02003KT 10SM CLR 13/08 A3010 RMK A02
     T01310076=
K13K 220235Z AUTO 18011KT 10SM CLR 22/04 A2967 RMK AO2
     T02210039=
K18A 220235Z AUTO 00000KT 10SM CLR 08/01 A3016 RMK AO2
     T00840006=
K1F0 220235Z AUTO 17009KT 10SM CLR 24/08 A2977 RMK AO2
     T02350080=
K1H2 220235Z AUTO 13005KT 10SM CLR 16/03 A2989 RMK AO2
     T01590033=
K2J3 220235Z AUTO 00000KT 10SM CLR 08/05 A3015 RMK AO2
     T00790050=
K2R9 220235Z AUTO 15009KT 10SM CLR 21/15 A2998 RMK AO2
     T02090148=
K2V5 220235Z AUTO 00000KT 10SM CLR 15/M07 A2965 RMK AO2=
K3F3 220235Z AUTO 18010G16KT 10SM CLR 22/14 A2999 RMK AO2
     T02200140=
K4A9 220235Z AUTO 02003KT 10SM CLR 06/04 A3010 RMK AO2
     T00620041=
K57C 220235Z AUTO 19004KT 10SM CLR 17/04 A2970 RMK AO2
     T01660044=
K5M9 220235Z AUTO 19006KT 10SM CLR 18/08 A2993 RMK AO2
     T01760080=
K5SM 220235Z AUTO 24011G20KT 220V300 10SM CLR 01/M10 A3014 RMK
     AO2=
K7BM 220235Z AUTO 35004KT 10SM CLR 07/M10 A3004 RMK AO2=
K81R 220235Z AUTO 19007KT 10SM CLR 23/09 A2990 RMK AO2
     T02280085=
K9A5 220235Z AUTO 00000KT 10SM CLR 06/05 A3013 RMK AO2
     T00620051=
KAAA 220235Z AUTO 18011KT 10SM CLR 17/06 A2977 RMK AO2
     T01710055=
KAHQ 220235Z AUTO 00000KT 7SM CLR 08/M01 A2959 RMK AO2
     T00831007=
KASL 220235Z AUTO 00000KT 10SM CLR 20/12 A2990 RMK AO2 T01950116
     TSNO $=
KAUH 220235Z AUTO 17005KT 7SM CLR 13/00 A2959 RMK AO2
     T01261003=
KBGE 220235Z AUTO 00000KT 10SM CLR 10/05 A3014 RMK AO2
     T00970052=
KBIE 220235Z AUTO 00000KT 7SM CLR 11/01 A2959 RMK AO2
     T01140011=
KBPG 220235Z AUTO 17013KT 10SM CLR 21/06 A2987 RMK AO2
     T02060059=
KBQP 220235Z AUTO 18004KT 10SM CLR 21/12 A2997 RMK AO2
     T02060116=
KBVN 220235Z AUTO 00000KT 5SM HZ CLR 07/M02 A2958 RMK AO2
     T00681016=
KC07 220235Z AUTO 26009G21KT 220V300 10SM CLR 03/M09 A3005 RMK
     AO2=
KC35 220235Z AUTO 00000KT 10SM CLR 08/03 A2966 RMK AO2 T00750030
     PWINO=
KCFD 220235Z AUTO 17012KT 10SM CLR 23/14 A2997 RMK AO2
     T02280140=
