SAUS70 KWBC 220000 RRE
METAR
KCRG 212353Z 00000KT 10SM CLR 14/09 A3009 RMK AO2 SLP187 T01390094
     10222 20139 53005=
KCRS 212353Z AUTO 18010KT 10SM CLR 28/08 A2987 RMK AO2 SLP109
     T02780078 10317 20272 55002=
KMHT 212353Z 11003KT 10SM CLR 08/02 A3011 RMK AO2 SLP214 T00780017
     10178 20078 53014=
KMIE 212353Z 20010KT 10SM CLR 19/00 A2988 RMK AO2 SLP114 T01890000
     10233 20189 53009=
KMIW 212353Z AUTO 00000KT 10SM CLR 19/01 A2962 RMK AO2 SLP028
     T01940006 10256 20194 53009=
KMKO 212353Z AUTO 17006KT 10SM CLR 26/05 A2976 RMK AO2 SLP074
     T02560050 10311 20256 55006=
KMLB 212353Z 35010KT 10SM CLR 20/13 A3002 RMK AO2 SLP165 T02000128
     10244 20200 53003=
KMLC 212353Z AUTO 17006KT 10SM CLR 27/05 A2976 RMK AO2 SLP073
     T02670050 10306 20267 56006=
KMLT 212353Z AUTO 11003KT 10SM CLR 05/02 A3011 RMK AO2 SLP205
     T00500022 10144 20050 53015=
KMMK 212353Z AUTO 00000KT 10SM CLR 07/03 A3015 RMK AO2 SLP210
     T00720033 10178 20072 53014=
KMNN 212353Z AUTO 19010KT 9SM CLR 16/01 A2994 RMK AO2 SLP143
     T01560011 10211 20150 53015=
KMOT 212354Z 34013KT 10SM -RA OVC048 09/05 A2954 RMK AO2 RAB43
     SLP014 P0000 60000 T00890050 10117 20089 53001=
KMRB 212353Z 00000KT 10SM CLR 11/M01 A3010 RMK AO2 SLP194
     T01061006 10178 20106 53006 $=
KMSP 212353Z 34004KT 10SM FEW160 FEW190 BKN250 14/01 A2961 RMK AO2
     SLP028 T01440011 10200 20144 53011=
KMSY 212353Z 15009G17KT 10SM FEW050 21/13 A3006 RMK AO2 SLP182
     T02060133 10261 20206 53003=
KMTJ 212353Z AUTO 23009KT 10SM CLR 19/M06 A2991 RMK AO2 SLP080
     T01941056 10217 20172 56013=
KMVY 212353Z 19005KT 10SM CLR 12/07 A3017 RMK AO2 SLP217 T01170072
     10178 20117 53009=
KMWL 212353Z AUTO 18009KT 10SM CLR 29/04 A2977 RMK AO2 SLP073
     T02940039 10344 20294 56009=
KNEW 212353Z 17012KT 10SM CLR 21/12 A3007 RMK AO2 SLP175 T02060117
     10256 20206 53006=
KODO 212353Z AUTO 21006KT 10SM CLR 26/07 A2987 RMK AO2 SLP082
     T02560072 10289 20250 58011=
KOGB 212353Z AUTO 00000KT 10SM CLR 12/06 A3011 RMK AO2 SLP198
     T01170056 10211 20117 53007=
KOSH 212353Z 00000KT 10SM CLR 18/04 A2961 RMK AO2 SLP026 T01780039
     10239 20172 53025=
KOSU 212353Z 17006KT 10SM CLR 16/00 A2996 RMK AO2 SLP147 60000
     T01610000 10217 20161 53008=
KOVS 212353Z AUTO 00000KT 10SM CLR 13/04 A2963 RMK AO2 SLP038
     T01330039 10256 20133 $=
KOWA 212353Z AUTO 00000KT 5SM HZ CLR 11/03 A2964 RMK AO2=
KOWD 212353Z 18004KT 10SM CLR 11/07 A3016 RMK AO2 SLP211 T01110067
     10194 20111 53018 $=
KPIL 212353Z AUTO 14011KT 10SM CLR 24/16 A2997 RMK AO2 SLP147
     T02390161 10278 20239 53001=
KGRB 212353Z 00000KT 10SM CLR 16/04 A2960 RMK AO2 SLP026 T01560039
     10244 20156 51026=
KGRI 212353Z 14005KT 10SM CLR 19/M02 A2960 RMK AO2 SLP026
     T01891017 10267 20189 56006=
KGSH 212353Z AUTO 19011KT 10SM CLR 17/03 A2979 RMK AO2 SLP090
     T01720033 10228 20172 53010=
KGUP 212353Z AUTO 24012G21KT 10SM CLR 18/03 A3005 RMK AO2 SLP101
     T01830028 10206 20172 58013=
KGUY 212353Z AUTO 23005KT 10SM CLR 27/M08 A2965 RMK AO2 SLP007
     T02671078 10311 20261 56006=
KGZH 212353Z AUTO 00000KT 10SM CLR 14/10 A3007 RMK AO2 SLP184
     T01440100 10244 20144 53005=
KHAO 212353Z AUTO 00000KT 10SM CLR 14/01 A2996 RMK AO2 SLP147
     T01440006 10228 20144 53006=
KHBG 212353Z AUTO 19010KT 10SM CLR 22/11 A3005 RMK AO2 SLP173
     T02220111 10272 20222 53007=
KHBR 212353Z AUTO 21021G29KT 10SM CLR 27/01 A2969 RMK AO2 PK WND
     21034/2309 SLP043 T02720011 10322 20272 57006=
KHEI 212353Z AUTO 17006KT 10SM CLR 17/00 A2947 RMK AO2 SLP976
     T01670000 10206 20150 56009=
