SAUS70 KWBC 220120 RRA
METAR
KHZL 220115Z AUTO 00000KT 10SM CLR 09/M01 A3016 RMK AO2=
KI67 220115Z AUTO 00000KT 10SM CLR 13/00 A2996 RMK AO1=
KOEO 220115Z AUTO 11003KT 10SM CLR 07/03 A2966 RMK AO2
     T00680032=
KOLG 220115Z AUTO 20003KT 10SM CLR 05/00 A2961 RMK AO1=
KPVB 220115Z AUTO 16004KT 10SM CLR 19/01 A2966 RMK AO1
     T01930007=
KRNH 220115Z AUTO 00000KT 10SM CLR 07/04 A2964 RMK AO2
     T00660041=
KRZN 220115Z AUTO 00000KT 10SM CLR 08/02 A2962 RMK AO2
     T00780021=
KRZT 220115Z AUTO 17003KT 10SM CLR 06/00 A3000 RMK AO2 PWINO=
KS24 220115Z AUTO 20012G18KT 10SM CLR 16/02 A2990 RMK AO2=
KS32 220115Z AUTO 00000KT 10SM SCT080 OVC100 09/M01 A2955 RMK AO2
     TSNO=
KSLH 220115Z AUTO 24004KT 10SM CLR 11/06 A2962 RMK AO2=
KTOB 220115Z AUTO 00000KT 5SM HZ CLR 08/01 A2965 RMK AO2=
KVGC 220115Z AUTO 14007KT 10SM CLR 06/M02 A3008 RMK AO2=
K2D5 220115Z AUTO 15006KT 4SM HZ SCT020 OVC050 10/00 A2956 RMK
     AO2=
K2G2 220110Z AUTO 00000KT 10SM FEW049 12/M01 A3003 RMK A01=
K3LF 220115Z AUTO 16013KT 10SM CLR 18/04 A2982 RMK AO2
     T01770035=
K3N8 220115Z AUTO 18004KT 10SM OVC100 09/00 A2956 RMK AO2
     T00900000=
K5H4 220115Z AUTO 34004KT 10SM OVC065 09/05 A2956 RMK AO2=
K6B9 220115Z AUTO 18008G19KT 150V220 10SM 12/M02 A3003 RMK AO2=
K7L2 220115Z AUTO 02007KT 10SM CLR 12/M01 A2953 RMK AO2=
K82C 220115Z AUTO 00000KT 10SM CLR 09/04 A2964 RMK AO2
     T00870040=
K96D 220115Z AUTO 32010G15KT 9SM -RA SCT026 BKN030 OVC039 09/07
     A2955 RMK AO2=
KACB 220115Z AUTO 00000KT 10SM CLR 09/07 A2964 RMK AO2
     T00920072=
KANQ 220115Z AUTO 18008KT 10SM SCT037 SCT046 BKN055 15/03 A2983
     RMK AO2=
KBBB 220115Z AUTO 17005KT 10SM CLR 11/02 A2960 RMK AO2=
KBNW 220115Z AUTO 00000KT 6SM HZ CLR 14/01 A2963 RMK AO2=
KCDD 220114Z AUTO 00000KT 10SM CLR 06/02 A2959 RMK AO2=
KCFJ 220115Z AUTO 16007KT 10SM CLR 13/M01 A2988 RMK AO2
     T01341013=
KCSQ 220115Z AUTO 08005KT 8SM CLR 16/02 A2961 RMK AO2=
KD39 220115Z AUTO 00000KT 10SM CLR 09/00 A2960 RMK AO2
     T00910003=
KD57 220115Z AUTO 03007KT 10SM FEW060 BKN070 OVC090 10/M02 A2951
     RMK AO2=
KDUH 220115Z AUTO 19008KT 10SM CLR 18/00 A2986 RMK AO2
     T01750000=
KEFK 220115Z AUTO 00000KT 10SM CLR 08/M03 A3009 RMK AO2
     T00821027=
KI23 220115Z AUTO 16005KT 10SM CLR 11/M00 A2999 RMK AO1=
KIRS 220115Z AUTO 20009G17KT 10SM CLR 16/01 A2981 RMK AO2
     T01610009=
KLCG 220115Z AUTO 00000KT 7SM CLR 08/M03 A2960 RMK AO2
     T00811029=
KRMY 220115Z AUTO 19009G14KT 10SM CLR 17/03 A2979 RMK AO2
     T01700030=
KRNP 220115Z AUTO 19009KT 10SM CLR 17/03 A2976 RMK AO2
     T01710026=
KRQB 220115Z AUTO 17006KT 10SM CLR 16/05 A2970 RMK AO2
     T01620051=
K06D 220115Z AUTO 34004KT 10SM SCT033 BKN039 OVC060 05/05 A2956
     RMK AO2=
KBVI 220115Z AUTO 16005KT 10SM CLR 13/M01 A3003 RMK AO2
     T01251008=
KBWP 220115Z AUTO 14005KT 10SM OVC050 13/M01 A2954 RMK AO2=
KBWW 220115Z AUTO 01012G17KT 10SM BKN120 12/03 A2953 RMK AO2=
KC29 220115Z AUTO 00000KT 10SM CLR 09/04 A2967 RMK AO1
     T00870036=
KCDI 220115Z AUTO 00000KT 10SM CLR 05/03 A3003 RMK AO2
     T00450030=
KCFE 220115Z AUTO 00000KT 10SM SCT020 OVC055 08/01 A2961 RMK
     AO2=
KD95 220115Z AUTO 19008G14KT 10SM CLR 17/M01 A2979 RMK AO2
     T01671012=
KEDJ 220115Z AUTO 18009KT 10SM CLR 14/01 A2995 RMK A01=
KEKM 220115Z AUTO 20008KT 10SM CLR 18/03 A2981 RMK AO2
     T01750033=
KFSO 220115Z AUTO 18011G19KT 10SM CLR 13/M03 A3003 RMK AO2
     T01301027=
KHZE 220115Z AUTO 05005KT 10SM FEW046 FEW050 OVC070 10/04 A2954
     RMK AO2=
KI68 220115Z AUTO 16007KT 10SM CLR 14/01 A2998 RMK AO1
     T01370012=
