SAUS80 KWBC 220048
METAR
KLZZ 220035Z AUTO 19004KT 10SM CLR 24/08 A2986 RMK AO2
     T02400075=
