SAUS70 KWBC 220246
METAR
KBYL 220235Z AUTO 14005KT 10SM CLR 10/00 A3008 RMK AO1=
KJVY 220235Z AUTO 00000KT 10SM CLR 08/02 A2997 RMK AO2 PWINO=
KTNB 220230Z AUTO 00000KT 10SM CLR 01/M01 A3019 RMK AO2
     T00121014=
KUKF 220235Z AUTO 00000KT 10SM CLR 05/01 A3023 RMK AO2=
