SAUS80 KWBC 220200 RRC
METAR
KPDX 220153Z 12008KT 10SM SCT009 OVC017 11/08 A2965 RMK AO2 RAE14
     SLP040 P0000 T01060083=
KPGA 220153Z AUTO 23003KT 10SM CLR 22/M02 A2988 RMK AO2 SLP075
     T02171017=
KLAN 220153Z 20011KT 10SM CLR 17/03 A2978 RMK AO2 SLP086 T01720033
     $=
KLAX 220153Z 25010KT 9SM OVC008 18/17 A2986 RMK AO2 SLP108
     T01830167=
KLND 220153Z AUTO 23011G17KT 10SM CLR 17/M07 A2962 RMK AO2 SLP989
     T01671072 $=
KMCN 220153Z AUTO 00000KT 10SM CLR 08/04 A3013 RMK AO2 SLP202
     T00780039=
KMGM 220153Z 10005KT 10SM CLR 11/07 A3011 RMK AO2 SLP194
     T01110067=
KMSO 220153Z AUTO 35008KT 10SM -RA OVC039 06/03 A2963 RMK AO2
     SLP037 P0000 T00610028=
KRIW 220153Z AUTO 10SM CLR 16/M06 A2961 RMK AO2 SLP986 T01561061
     $=
KRMG 220153Z AUTO 00000KT 10SM CLR 10/06 A3010 RMK AO2 SLP191
     T01000061=
KRNM 220153Z 28005KT 10SM CLR 18/16 A2988 RMK AO2 SLP111
     T01780156=
KSDM 220153Z 28004KT 10SM CLR 18/15 A2988 RMK AO2 SLP114
     T01830150=
KSEA 220153Z 00000KT 4SM -RA BR BKN008 OVC017 08/07 A2970 RMK AO2
     SLP064 P0005 T00830072=
KTRI 220153Z 00000KT 10SM CLR 06/02 A3012 RMK AO2 SLP194
     T00560017=
KTYS 220153Z 00000KT 10SM FEW250 11/02 A3009 RMK AO2 SLP189
     T01110017=
KUIL 220153Z AUTO 00000KT 10SM FEW008 OVC043 08/08 A2971 RMK AO2
     RAE33 SLP061 P0000 T00830083=
KYKM 220153Z AUTO 00000KT 10SM -RA OVC065 09/06 A2963 RMK AO2
     RAB0057 SLP036 P0000 T00940061=
KCID 220152Z 17006KT 9SM CLR 14/02 A2964 RMK AO2 SLP038
     T01440022=
KEKN 220151Z AUTO 00000KT 10SM CLR 03/M01 A3011 RMK AO2 SLP213
     T00281006=
KTOL 220152Z 19007KT 10SM CLR 17/02 A2988 RMK AO2 SLP116
     T01670022=
KVTN 220152Z AUTO 14003KT 10SM CLR 14/M02 A2953 RMK AO2 SLP003
     T01441017=
KYNG 220151Z 17010KT 10SM CLR 12/M01 A3001 RMK AO2 SLP164
     T01221006=
KABI 220152Z 18008KT 10SM CLR 24/06 A2983 RMK AO2 SLP082
     T02390056=
KBIL 220153Z 06008KT 10SM OVC070 11/04 A2957 RMK AO2 SLP006
     T01060039=
KBLU 220152Z AUTO 17005KT 10SM CLR 14/01 A2999 RMK AO2 SLP093
     T01440006=
KMLF 220152Z AUTO 20014KT 10SM CLR 17/M03 A2989 RMK AO2 SLP093
     T01721028 $=
KMFD 220152Z AUTO 17010KT 10SM CLR 13/01 A2997 RMK AO2 SLP150
     T01280011=
KCQC 220153Z AUTO 30013KT 10SM CLR 12/01 A3005 RMK AO2 SLP128
     T01170011=
K12N 220154Z AUTO 00000KT 06/02 A3016 RMK AO1 SLP217 T00560022=
