SAUS80 KWBC 220016
METAR
KAID 220015Z AUTO 18005KT 10SM CLR 16/M01 A2990 RMK AO2
     T01601015=
KCLI 220015Z AUTO 28003KT 10SM CLR 12/04 A2963 RMK AO2
     T01190039=
