SAUS80 KWBC 220002
METAR
KSFY 220002Z AUTO 16005KT 10SM CLR 16/03 A2964 RMK AO2=
K77S 220015Z AUTO 23010KT 10SM OVC015 16/15 A2977 RMK A01=
KSFY 220002Z AUTO 16005KT 10SM CLR 16/03 A2964 RMK AO2=
K77S 220015Z AUTO 23010KT 10SM OVC015 16/15 A2977 RMK A01=
