SAUS70 KWBC 212244 RRA
METAR
KW99 212240Z AUTO 00000KT 1/4SM HZ VV002 15/01 A3006 RMK AO2=
KWWR 212230Z AUTO 20016G23KT 10SM CLR 31/00 A2967 RMK AO2=
KX26 212235Z AUTO 35011KT 10SM CLR 21/14 A2999 RMK AO2
     T02140145=
K11R 212235Z AUTO 21012G18KT 10SM CLR 29/11 A2992 RMK AO2
     T02940107=
K5C1 212235Z AUTO 20008G14KT 10SM CLR 26/07 A2994 RMK AO1=
KAFO 212235Z AUTO 24008G17KT 10SM CLR 16/M11 A2982 RMK AO2=
KAQO 212235Z AUTO 19013G19KT 10SM CLR 30/05 A2988 RMK AO2=
KAXX 212235Z AUTO 27021G27KT 10SM CLR 15/M06 A3006 RMK AO2
     T01451058=
KBMT 212235Z AUTO 19012G15KT 10SM CLR 26/15 A2997 RMK AO2
     T02550147=
KCZT 212235Z AUTO 19006KT 10SM CLR 28/08 A2991 RMK AO2=
KDUX 212235Z AUTO 23011KT 10SM CLR 28/M06 A2973 RMK AO2
     T02801060=
KEDC 212235Z AUTO 20011KT 10SM CLR 29/08 A2989 RMK AO2=
KETN 212235Z AUTO 20015G22KT 10SM CLR 30/02 A2982 RMK AO2
     T03020020=
KFMM 212235Z AUTO VRB04KT 10SM CLR 25/M10 A2969 RMK AO2 LTG DSNT
     S=
KFWZ 212235Z AUTO 24018G31KT 10SM CLR 12/M08 A2980 RMK AO2=
KGLE 212235Z AUTO 18013G18KT 10SM CLR 31/02 A2980 RMK AO2
     T03100024 PWINO=
KHCR 212235Z AUTO 21011G18KT 10SM CLR 21/M08 A2986 RMK AO2=
KHVE 212235Z AUTO 17006KT 10SM CLR 25/M05 A2987 RMK AO2=
KJAS 212235Z AUTO 20010G16KT 9SM CLR 27/11 A2993 RMK AO2=
KLUV 212235Z AUTO 27014KT 10SM CLR 28/00 A2986 RMK AO2=
KNOW 212235Z AUTO 30008KT 7SM -RA BKN024 OVC030 10/09 A2975 RMK
     AO2 T00950088=
KPPA 212235Z AUTO 24016G23KT 10SM CLR 30/00 A2973 RMK AO2
     T02960003=
KRBO 212235Z AUTO 10SM CLR 27/15 A2995 RMK AO2 T02700153=
KT20 212235Z AUTO 19009G14KT 10SM CLR 30/10 A2991 RMK AO2
     T02960100=
KTMK 212235Z AUTO 13003KT 7SM SCT016 OVC024 11/10 A2977 RMK AO2
     P0001=
KCPC 212235Z AUTO 00000KT 10SM CLR 15/07 A3011 RMK AO2
     T01500065=
KEVM 212241Z AUTO 25005KT 10SM CLR 13/02 A2957 RMK AO2=
KJSV 212241Z AUTO RMK AO2 PWINO TSNO=
KUYF 212235Z AUTO 19008KT 10SM CLR 15/M02 A2994 RMK AO2=
