SAUS70 KWBC 212244
METAR
K04V 212235Z AUTO 29011G18KT 10SM CLR 18/M09 A3001 RMK AO2=
K33V 212235Z AUTO 24014G22KT 10SM CLR 12/M11 A2994 RMK AO1=
K6P9 212235Z AUTO 19008G19KT 10SM CLR 30/04 A2983 RMK AO2
     T03030039=
KAJZ 212235Z AUTO 20005KT 10SM CLR 24/M07 A2990 RMK AO2 T02371075
     PWINO=
KAUN 212235Z AUTO 26005KT 9SM CLR 27/07 A2985 RMK A01=
KBVS 212235Z AUTO 16005KT 10SM BKN023 OVC044 10/08 A2975 RMK
     A01=
KCPW 212235Z AUTO 21014G31KT 10SM CLR 05/M06 A3030 RMK AO2=
KDKB 212235Z AUTO 20009KT 10SM CLR 21/07 A2968 RMK AO2
     T02050065=
KDKR 212235Z AUTO 19008G15KT 10SM CLR 29/09 A2990 RMK AO2=
KE16 212235Z AUTO 18010KT 10SM CLR 23/08 A2985 RMK AO2 PWINO
     PNO=
KE38 212235Z AUTO 27012G16KT 10SM CLR 26/04 A3007 RMK AO2
     T02640042=
KE41 212235Z AUTO 19011G15KT 10SM CLR 27/08 A2991 RMK AO2
     T02740084=
KGCD 212235Z AUTO 27004KT 10SM -DZ OVC070 14/04 A2974 RMK AO2
     T01400040=
KGOP 212235Z AUTO 10SM CLR 31/07 A2987 RMK AO2=
KLAM 212235Z AUTO 27016KT 10SM CLR 18/M06 A3007 RMK AO2
     T01751062=
KLLN 212235Z AUTO 25012G23KT 10SM CLR 27/M02 A2985 RMK AO2=
KLMO 212235Z AUTO 26013G19KT 5SM HZ CLR 26/M09 A2972 RMK AO2
     T02601089=
KORG 212235Z AUTO 20009G17KT 10SM CLR 26/16 A3001 RMK AO2
     T02630157=
KPLU 212235Z AUTO 00000KT 10SM -DZ CLR 09/08 A2976 RMK AO2=
KPOY 212235Z AUTO 27019G28KT 10SM CLR 19/M07 A2953 RMK AO2=
KSBS 212235Z AUTO 26016G22KT 10SM CLR 18/M09 A2988 RMK AO1
     T01771091=
KXBP 212235Z AUTO 20012G17KT 10SM CLR 32/03 A2979 RMK AO2
     T03200030=
K19S 212235Z AUTO 18007KT 10SM CLR 29/M06 A2967 RMK AO2
     T02881055=
K20V 212235Z AUTO 25014G31KT 10SM CLR 17/M08 A2993 RMK AO2=
K2J5 212235Z AUTO 00000KT 10SM CLR 17/01 A3010 RMK AO2
     T01710013=
KADH 212235Z AUTO 20014G17KT 10SM CLR 30/03 A2977 RMK AO2=
KADT 212235Z AUTO 22004KT 10SM CLR 26/M06 A2971 RMK AO2
     T02601057=
KANK 212230Z AUTO 24014G23KT 10SM CLR A3003 RMK AO1=
KBMC 212230Z AUTO 10SM CLR 23/M09 A2979 RMK AO1 T02251090=
KDCY 212235Z AUTO 18008KT 10SM CLR 20/02 A2988 RMK AO2
     T02040016=
KDUB 212234Z AUTO 30017G26KT 10SM SCT075 14/M07 A2971 RMK AO2=
KDWX 212230Z AUTO 21011G19KT 10SM CLR A2989 RMK AO2=
KEAN 212230Z AUTO 27014G32KT 10SM CLR 24/M13 A2962 RMK AO2
     T02351128=
KEBS 212235Z AUTO 35006KT 7SM CLR 22/01 A2959 RMK AO2=
KGNB 212235Z AUTO 24015G22KT 10SM CLR 16/M10 A2995 RMK AO2
     T01561104=
KGNC 212235Z AUTO 28012KT 10SM CLR 27/02 A2992 RMK AO2
     T02710017=
KHBV 212230Z AUTO 19005KT 4SM HZ CLR 29/09 A2994 RMK AO2
     T02890093=
KHEQ 212235Z AUTO 25012G16KT 10SM CLR 27/M08 A2966 RMK AO2=
KHHW 212234Z AUTO 17007G14KT 10SM CLR 29/07 A2981 RMK AO2=
KHSG 212230Z AUTO 25023G28KT 10SM CLR 20/M04 A2954 RMK AO2
     T02041036=
KMHP 212235Z AUTO 00000KT 10SM CLR 16/01 A3009 RMK AO2
     T01620010=
KMMH 212234Z AUTO 29016G22KT 10SM CLR 20/M08 A3007 RMK AO2=
KMPZ 212230Z AUTO 20009G16KT 10SM CLR 27/10 A2962 RMK AO2=
KMYZ 212230Z AUTO 00000KT 10SM CLR 28/01 A2958 RMK AO2=
KOSA 212230Z AUTO 20008KT 10SM CLR 29/09 A2985 RMK AO2
     T02870093=
KOZA 212235Z AUTO 19012G25KT 10SM CLR 27/07 A2994 RMK AO2=
KPEQ 212235Z AUTO 25012G20KT 10SM CLR 30/06 A2987 RMK AO2
     T02980055=
KPEZ 212230Z AUTO 19011KT 10SM CLR 30/09 A2993 RMK AO2
     T03000094=
KPVW 212230Z AUTO 26017G21KT 10SM CLR 27/M01 A2980 RMK AO2
     T02721010=
KSLR 212230Z AUTO 19009G15KT 10SM CLR 30/05 A2985 RMK AO2
     T02970049=
KTOC 212235Z AUTO 12003KT 10SM CLR 16/01 A3010 RMK AO2
     T01620007=
KTXW 212230Z AUTO 15011KT 10SM CLR 29/14 A2994 RMK AO2
     T02910142=
KULS 212235Z AUTO 19004KT 10SM CLR 28/M09 A2965 RMK AO2=
