SAUS80 KWBC 220100 RRC
METAR
KPSN 220055Z AUTO 16006KT 10SM CLR 24/10 A2990 RMK AO2=
KJQF 220055Z 00000KT 10SM CLR 09/02 A3016=
