SAUS80 KWBC 220200
METAR
KCQT 220147Z AUTO 26004KT 10SM OVC009 19/17 A2986 RMK AO2 SLP109
     T01890167=
KGNT 220155Z AUTO 28003KT 10SM CLR 10/04 A3007 RMK AO2
     T01030037=
KJDN 220148Z AUTO 27004KT 08/07 A2955 RMK AO1 SLP016 P0001
     T00780067=
KNYC 220151Z AUTO 00000KT 10SM CLR 13/03 A3019 RMK AO2 SLP215
     T01280028 $=
KSNT 220151Z AUTO VRB03KT 06/02 A2976 RMK AO1 SLP043 P0001
     T00610017=
KABE 220151Z 32003KT CLR 07/01 A3016 RMK AO2 SLP215 T00720006=
KALB 220151Z 18005KT 10SM CLR 09/00 A3013 RMK AO2 SLP203
     T00890000=
KBDL 220151Z 00000KT 10SM CLR 07/02 A3017 RMK AO2 SLP215
     T00720017=
KBKW 220151Z AUTO 16007KT 10SM CLR 10/M01 A3011 RMK AO2 SLP196
     T01001011=
KCAK 220151Z 19012KT 10SM CLR 13/00 A3000 RMK AO2 SLP161
     T01330000=
KCON 220151Z AUTO 10SM CLR 03/01 A3015 RMK AO2 SLP213
     T00280006=
KCRP 220151Z 16009KT 10SM CLR 22/16 A2998 RMK AO2 SLP151
     T02170161=
KEKN 220151Z AUTO 00000KT 10SM CLR 03/M01 A3011 RMK AO2 SLP213
     T00281006=
KELP 220151Z 23004KT 10SM CLR 23/08 A2996 RMK AO2 SLP094
     T02330083=
KHSE 220151Z AUTO 03006KT 10SM CLR 17/14 A3013 RMK AO2 SLP202
     T01670139=
KHTS 220151Z 00000KT 10SM CLR 12/01 A3003 RMK AO2 SLP171
     T01170006=
KIGM 220151Z AUTO 19007KT 10SM CLR 18/04 A2992 RMK AO2 SLP081
     T01830039=
KMYL 220151Z AUTO 00000KT 10SM -RA BKN026 BKN035 OVC044 06/02
     A2966 RMK AO2 SLP045 P0004 T00610022=
KORF 220151Z 00000KT 10SM CLR 12/11 A3017 RMK AO2 SLP216
     T01220106=
KOXR 220151Z 27010KT 8SM OVC006 17/16 A2986 RMK AO2 SLP109
     T01720161=
KPVD 220151Z 00000KT 10SM CLR 09/07 A3019 RMK AO2 SLP224
     T00890072=
KROW 220151Z 27007KT 10SM CLR 20/08 A2988 RMK AO2 SLP079
     T02000083=
KSAD 220151Z AUTO 35005KT 10SM CLR 22/08 A2989 RMK AO2 SLP091
     T02170078=
KSAN 220151Z 19004KT 10SM BKN018 21/16 A2988 RMK AO2 SLP119
     T02110161=
KSAT 220151Z 17006KT 10SM FEW250 24/09 A2995 RMK AO2 SLP128
     T02440094=
KSMX 220151Z 34005KT 8SM OVC011 14/13 A2989 RMK AO2 SLP125
     T01440128=
KSVE 220155Z AUTO 28014G18KT 10SM CLR M03/M20 A2983 RMK AO2=
KTEB 220151Z 00000KT 10SM CLR 09/04 A3016 RMK AO2 SLP212
     T00940039=
KVCT 220151Z 15008KT 10SM CLR 21/16 A2999 RMK AO2 SLP152
     T02060156=
KYNG 220151Z 17010KT 10SM CLR 12/M01 A3001 RMK AO2 SLP164
     T01221006=
KCDJ 220151Z AUTO 18007KT 24/03 A2965 RMK AO1 SLP034 T02440033
     $=
KGDP 220151Z AUTO 24022KT 10SM CLR 18/06 A3004 RMK AO2 PK WND
     24028/0110 SLP120 T01830061=
KREO 220152Z AUTO 26010KT 20/01 A2965 RMK AO1 PK WND 25029/0106
     SLP027 T02000006=
KATT 220151Z AUTO VRB03KT 10SM CLR 23/09 A2994 RMK AO2 SLP131
     T02330089=
