SACA33 KWBC 220100
METAR
TBPB 220100Z 08009KT 9999 SCT018 27/24 Q1011 NOSIG=
TDPD NIL=
TDPR NIL=
TFFF 220100Z AUTO VRB02KT 9999 ///CB 27/24 Q1012=
TFFG NIL=
TFFJ NIL=
TFFR 220100Z AUTO VRB02KT CAVOK 24/23 Q1012=
TGPY NIL=
TGPZ NIL=
TLPC NIL=
TLPL NIL=
TNCA 220100Z 07010KT 9999 FEW018 29/24 Q1010 NOSIG=
TNCB 220055Z 07008KT 040V100 9999 FEW017 28/25 Q1010=
TNCC 220100Z 08010KT 9999 FEW017 28/24 Q1010 NOSIG=
TNCE 220055Z AUTO 06012KT 030V090 //// // ///////// 27/24 Q1013
     RE//=
TNCM 220100Z 05010KT 9999 FEW018 28/23 Q1014 NOSIG=
TTCP NIL=
TTPP NIL=
TVSM NIL=
TVSU NIL=
TVSV NIL=
