SAUS70 KWBC 220238 RRB
METAR
KTME 220235Z AUTO 18007KT 10SM CLR 20/15 A3001 RMK AO2=
KTOB 220235Z AUTO 00000KT 10SM CLR 09/01 A2964 RMK AO2=
KTSP 220235Z AUTO 00000KT 10SM CLR 16/M00 A2998 RMK AO2=
KTWT 220235Z AUTO 13004KT 10SM CLR 16/07 A2992 RMK AO2=
KU42 220235Z AUTO 21005KT 10SM CLR 15/M02 A2976 RMK AO1
     T01481018=
KUOX 220235Z AUTO 15008G13KT 10SM CLR 19/10 A2999 RMK AO2
     PWINO=
KUTA 220235Z AUTO 18007KT 10SM CLR 19/10 A2993 RMK AO2 T01930101
     $=
KVGC 220235Z AUTO 15008KT 10SM CLR 07/M02 A3009 RMK AO2=
KVJI 220235Z AUTO 00000KT 10SM CLR 05/M01 A3014 RMK AO2
     T00521014=
KW78 220235Z AUTO 00000KT 10SM CLR 05/04 A3018 RMK AO1
     T00450035=
KW81 220235Z AUTO 00000KT 10SM CLR 04/03 A3017 RMK AO1
     T00390026=
KXNX 220235Z AUTO 00000KT FEW040 BKN048 BKN055 13/03 A3004 RMK
     A01=
KY19 220235Z AUTO 05006KT 10SM BKN039 BKN120 10/02 A2952 RMK
     AO2=
KY70 220235Z AUTO 20010G16KT 10SM CLR 17/02 A2977 RMK AO2
     T01710023=
KBRY 220235Z AUTO 13003KT 10SM CLR 12/01 A2997 RMK AO2
     T01230008=
KBVU 220235Z AUTO 00000KT 10SM CLR 26/02 A2981 RMK AO2=
KBWP 220235Z AUTO 14005KT 10SM BKN028 BKN033 OVC055 11/M01 A2956
     RMK AO2=
KBWW 220235Z AUTO 01010KT 10SM FEW075 BKN100 OVC120 11/03 A2954
     RMK AO2=
KBXK 220235Z AUTO 00000KT 10SM CLR 23/14 A2981 RMK A01=
KC29 220235Z AUTO 00000KT 10SM CLR 08/04 A2968 RMK AO1
     T00800043=
KCDN 220235Z AUTO 00000KT 10SM CLR 07/02 A3016 RMK AO2=
KCEY 220235Z AUTO VRB06G11KT 10SM CLR 19/09 A2995 RMK A01=
KCFJ 220235Z AUTO 17007KT 10SM CLR 12/M01 A2989 RMK AO2
     T01161015=
KCGC 220235Z AUTO 00000KT 10SM CLR 10/06 A3011 RMK AO2=
KCJR 220235Z AUTO 00000KT 10SM CLR 04/02 A3018 RMK AO2
     T00440021=
KCKM 220235Z AUTO 16008KT 10SM FEW044 BKN055 BKN060 21/11 A2995
     RMK A01=
KCKZ 220235Z AUTO 00000KT 10SM CLR 05/03 A3019 RMK AO2=
KCLS 220235Z AUTO 00000KT 10SM -RA SCT018 BKN033 OVC044 07/07
     A2967 RMK AO2=
KCLW 220235Z AUTO 00000KT 10SM CLR 16/09 A3008 RMK AO2=
KCMR 220235Z AUTO 16006KT 10SM CLR 08/02 A3009 RMK AO2=
KCPT 220235Z AUTO 17011KT 10SM CLR 24/08 A2986 RMK A01=
KCTZ 220235Z AUTO 00000KT 10SM SCT050 10/08 A3017 RMK AO2
     T00950076=
KD57 220235Z AUTO 07004KT 10SM 10/M01 A2951 RMK AO2=
KD60 220235Z AUTO 00000KT 10SM OVC031 04/04 A2957 RMK AO2=
KDNA 220235Z AUTO 00000KT 10SM CLR 21/09 A2999 RMK AO2=
KDNN 220235Z AUTO 00000KT 10SM CLR 07/04 A3014 RMK AO2
     T00660037=
KDRI 220235Z AUTO 18007KT 10SM CLR 20/15 A3004 RMK AO2 T02000154
     $=
KDYB 220235Z AUTO 00000KT 10SM CLR 08/08 A3014 RMK AO2=
KEKM 220235Z AUTO 19008KT 10SM CLR 17/04 A2983 RMK AO2
     T01650035=
KELK 220235Z AUTO 19010KT 10SM CLR 20/03 A2970 RMK AO2 SLP347
     T02020034 $=
KEVU 220235Z AUTO 19008KT 10SM CLR 20/05 A2961 RMK AO2
     T02010055=
KEXX 220235Z AUTO 00000KT 10SM CLR 06/03 A3016 RMK AO2
     T00570034=
KEZF 220235Z AUTO 00000KT 10SM CLR 07/04 A3017 RMK AO2
     T00660044=
KEZM 220235Z AUTO 00000KT 10SM CLR 05/03 A3016 RMK AO2=
KFVX 220235Z AUTO 00000KT 10SM CLR 04/03 A3017 RMK AO2
     T00440025=
KFWB 220235Z AUTO 16005KT 10SM CLR 20/04 A2982 RMK AO2=
KGLY 220235Z AUTO 18010KT 10SM CLR 22/03 A2971 RMK AO2=
KGWR 220235Z AUTO 00000KT 8SM BKN022 OVC029 09/00 A2956 RMK
     A01=
KHOB 220235Z AUTO 24010KT 10SM CLR 18/06 A2990 RMK AO2=
KHRJ 220235Z AUTO 00000KT 10SM CLR 08/06 A3018 RMK AO2
     T00760059=
K10G 220235Z AUTO 20007KT 10SM CLR 12/M01 A3002 RMK AO2=
K1P1 220235Z AUTO 00000KT 10SM CLR 00/00 A3016 RMK AO2
     T00031001=
K20U 220235Z AUTO 34003KT 10SM FEW049 OVC065 07/07 A2955 RMK
     AO2=
K21D 220235Z AUTO 00000KT 10SM CLR 06/01 A2964 RMK AO2=
