SAUS70 KWBC 212300 RRC
METAR
KELK 212255Z AUTO 20017G22KT 2 1/2SM HZ CLR 29/01 A2969 RMK AO2
     SLP345 T02880005 $=
K06D 212255Z AUTO 24007KT 10SM FEW022 BKN033 OVC042 09/03 A2953
     RMK AO2=
K0S9 212255Z AUTO 00000KT 8SM -RA SCT029 OVC035 10/09 A2974 RMK
     AO2=
K0VG 212255Z AUTO 14003KT 10SM CLR 14/M00 A3007 RMK AO2=
K15M 212255Z AUTO 18005KT 9SM CLR 22/09 A2997 RMK AO2 T02190093
     $=
K1P1 212255Z AUTO 00000KT 10SM CLR 05/01 A3011 RMK AO2
     T00480012=
K1R7 212255Z AUTO 18005KT 10SM CLR 25/12 A3001 RMK AO2 PWINO=
K24J 212255Z AUTO 00000KT 10SM 18/01 A3006 RMK A01=
K28J 212255Z AUTO 05006KT 10SM CLR 16/06 A3007 RMK AO2 TSNO=
K2D5 212255Z AUTO 15007KT 6SM HZ CLR 15/01 A2955 RMK AO2=
K2P2 212255Z AUTO 17004KT 10SM CLR 10/10 A2956 RMK AO2
     T01010101=
K3AU 212255Z AUTO 16008KT 10SM CLR 27/M07 A2964 RMK AO2=
K42J 212255Z AUTO 06004KT 10SM CLR 17/M00 A3006 RMK A01=
K46D 212255Z AUTO 21005KT 10SM FEW080 BKN090 12/02 A2956 RMK
     AO2=
K4A6 212255Z AUTO 18003KT 10SM CLR 19/05 A3005 RMK AO2=
K4M9 212255Z AUTO 20007KT 10SM CLR 23/12 A2986 RMK AO2 PWINO=
K5H4 212255Z AUTO 24007KT 10SM FEW060 BKN085 11/08 A2954 RMK
     AO2=
K6B0 212255Z AUTO 15003KT 10SM CLR 10/M02 A3006 RMK AO2
     T00991017=
K6B9 212255Z AUTO VRB06KT 10SM CLR 13/M03 A3001 RMK AO2=
K7L2 212255Z AUTO 14005KT 10SM BKN120 15/M01 A2952 RMK AO2=
K82C 212255Z AUTO 27003KT 10SM CLR 18/03 A2960 RMK AO2
     T01800032=
K96D 212255Z AUTO 25008G14KT 10SM SCT095 13/01 A2950 RMK AO2=
K9D7 212255Z AUTO 31006KT 10SM OVC070 11/02 A2953 RMK AO2 TSNO=
KACJ 212255Z AUTO 00000KT 10SM CLR 17/04 A3008 RMK AO2
     T01650038=
KADC 212255Z AUTO 00000KT 10SM CLR 13/M02 A2959 RMK A=
KAGO 212255Z AUTO 16005KT 10SM CLR 26/12 A2987 RMK A01=
KAIG 212255Z AUTO 22005KT 10SM CLR 13/04 A2959 RMK AO2
     T01320035=
KAIK 212255Z AUTO 00000KT 10SM CLR 15/02 A3010 RMK AO2
     T01500018=
KAKH 212254Z AUTO 00000KT 10SM CLR 12/03 A3011 RMK AO2 SLP198
     T01170028=
KAKR 212254Z AUTO 18008KT 10SM CLR 16/M01 A2995 RMK AO2 SLP143
     T01611006=
KALM 212255Z AUTO 08005KT 10SM CLR 25/04 A2997 RMK AO2=
KANQ 212255Z AUTO 20010KT 10SM CLR 19/02 A2979 RMK AO2=
KAPC 212254Z 20014KT 9SM CLR 20/13 A2983 RMK AO2 SLP094
     T02000128=
KAQX 212255Z AUTO 00000KT 10SM CLR 17/01 A3008 RMK AO2=
KARW 212255Z AUTO 00000KT 10SM CLR 16/05 A3009 RMK AO2=
KASJ 212255Z AUTO 00000KT 10SM CLR 11/06 A3013 RMK AO2
     T01120059=
KATS 212255Z AUTO 08005KT 10SM CLR 28/07 A2988 RMK AO2=
KAVC 212255Z AUTO 00000KT 10SM CLR 11/07 A3018 RMK AO2
     T01050074=
KEUG 212254Z 24009KT 10SM SCT024 BKN055 OVC085 15/12 A2980 RMK AO2
     RAB13E24 SLP090 P0000 T01500117=
KEVU 212255Z AUTO 20009KT 10SM CLR 27/05 A2959 RMK AO2
     T02740052=
KEWN 212254Z 00000KT 10SM SCT050 BKN070 14/09 A3012 RMK AO2 SLP197
     T01390089=
KEXX 212255Z AUTO 00000KT 10SM CLR 13/04 A3011 RMK AO2
     T01270043=
KEZF 212255Z AUTO 00000KT 10SM CLR 12/04 A3011 RMK AO2
     T01170042=
KEZM 212255Z AUTO 00000KT 10SM CLR 17/00 A3009 RMK AO2=
KF70 212255Z AUTO 20007KT 10SM CLR 26/14 A2985 RMK AO2=
KFIG 212254Z AUTO VRB03KT 10SM CLR 13/M02 A3004 RMK AO2 SLP180
     T01281017=
KFVX 212255Z AUTO 00000KT 10SM CLR 11/00 A3011 RMK AO2
     T01140002=
KFWB 212255Z AUTO 21004KT 10SM CLR 27/00 A2979 RMK AO2=
KGLY 212255Z AUTO 18007KT 8SM CLR 28/02 A2968 RMK AO2=
KGWR 212255Z AUTO 16005KT 1 3/4SM HZ SCT110 15/01 A2955 RMK
     A01=
KHBI 212255Z AUTO 00000KT 10SM CLR 12/03 A3014 RMK AO2
     T01210025=
KHRJ 212255Z AUTO 00000KT 10SM CLR 14/05 A3012 RMK AO2
     T01410048=
KHVS 212255Z AUTO 00000KT 10SM CLR 12/02 A3011 RMK AO2=
