SANZ31 NZKL 220100
METAR NZAA 220100Z AUTO 23007KT 190V260 9999 NCD 18/09 Q1029 NOSIG=
METAR NZWN 220100Z AUTO 20007KT 9999 NCD 14/03 Q1030 NOSIG=
METAR NZCH 220100Z AUTO 05010KT 010V100 9999 NCD 14/05 Q1029 NOSIG=
