SAUS70 KWBC 220100
METAR
KMCX 220055Z AUTO 18007KT 10SM CLR 19/01 A2982 RMK AO2
     T01850014=
KRID 220055Z AUTO 18008KT 10SM CLR 11/02 A2995 RMK AO2=
KRYN 220045Z 23006KT 10SM CLR 29/09 A2986=
KFMH 220045Z 00000KT 10SM CLR 08/07 A3018=
KW75 220055Z AUTO 17003KT 10SM CLR 09/06 A3016 RMK AO1
     T00890062=
