SAKA31 PTRO 220200
METAR PTRO 220150Z 05007KT 14SM SCT015 BKN120 OVC300 29/25 A2982=
