SAUS70 KWBC 220218 RRI
METAR
K05U 220215Z AUTO 26006KT 10SM 12/M11 A2989 RMK A01=
K0A0 220215Z AUTO 22009KT 10SM CLR 21/04 A2998 RMK AO2=
K0A9 220215Z AUTO 00000KT 7SM CLR 06/02 A3013 RMK A01=
K0F2 220215Z AUTO 16006KT 10SM CLR 23/04 A2979 RMK AO2
     T02260040=
K0R0 220215Z AUTO 16006G14KT 10SM CLR 18/11 A3009 RMK AO2=
K1A9 220215Z AUTO 00000KT 10SM CLR 10/07 A3011 RMK AO2
     T00960071=
K1K1 220215Z AUTO 19015G18KT 10SM CLR 26/M01 A2964 RMK AO2
     T02571011=
K1M5 220215Z AUTO 17009KT 10SM FEW034 FEW039 BKN049 17/03 A2999
     RMK A01=
K1V6 220215Z AUTO 28008KT 10SM CLR 16/M11 A2977 RMK AO2=
K2A0 220215Z AUTO 00000KT 10SM CLR 07/03 A3010 RMK A01=
K2G2 220210Z AUTO 17004KT 10SM FEW049 11/M01 A3004 RMK A01=
K2M2 220215Z AUTO VRB06KT 10SM FEW050 FEW055 17/10 A3002 RMK
     A01=
K33N 220215Z AUTO 19004KT 10SM FEW033 FEW070 09/06 A3018 RMK
     A01=
K36K 220210Z AUTO 00000KT 10SM CLR 12/M07 A2968 RMK AO2=
K3AU 220215Z AUTO 17014G20KT 10SM CLR 26/M05 A2965 RMK AO2=
K3I2 220215Z AUTO 00000KT 10SM CLR 06/01 A3006 RMK AO2
     T00640014=
K3J7 220215Z AUTO 00000KT 10SM CLR 11/01 A3014 RMK AO2=
K3LF 220215Z AUTO 17011KT 10SM CLR 17/05 A2983 RMK AO2
     T01660045=
K3S8 220215Z AUTO VRB03KT 10SM FEW040 SCT050 BKN060 17/12 A2982
     RMK AO2=
K46U 220215Z AUTO 00000KT 10SM SCT110 13/M04 A2973 RMK A01=
K4V0 220215Z AUTO 19007KT 10SM CLR 15/M07 A2982 RMK AO2
     T01531068=
K54A 220215Z AUTO 35003KT 10SM CLR 18/11 A3004 RMK AO2=
K57C 220215Z AUTO 18005KT 10SM CLR 16/04 A2969 RMK AO2
     T01630042=
K5T9 220210Z AUTO 14004KT 10SM CLR 20/12 A2991 RMK A01=
K65S 220215Z AUTO 21008KT 180V250 10SM SCT041 BKN049 OVC055 03/02
     A2958 RMK AO2=
K6A2 220215Z AUTO 00000KT 10SM CLR 07/03 A3014 RMK AO2=
K7W4 220215Z AUTO 00000KT 10SM CLR 08/04 A3017 RMK AO1
     T00800036=
K82V 220215Z AUTO 24009KT 10SM CLR 13/M12 A2970 RMK AO2=
K8A3 220215Z AUTO 21007KT 170V230 10SM CLR 14/01 A3005 RMK A01=
K9D7 220215Z AUTO 02007KT 7SM OVC050 07/06 A2958 RMK AO2 TSNO=
KAAS 220215Z AUTO 15007KT 10SM CLR 12/01 A3007 RMK AO1=
KCDD 220214Z AUTO 00000KT 10SM SCT120 04/01 A2959 RMK AO2=
KCJR 220215Z AUTO 00000KT 10SM CLR 05/02 A3017 RMK AO2
     T00470022=
KCKZ 220215Z AUTO 00000KT 10SM CLR 04/04 A3018 RMK AO2=
KCRX 220215Z AUTO 16008KT 10SM CLR 17/10 A2999 RMK AO2=
KCSQ 220215Z AUTO 11005KT 9SM CLR 16/02 A2961 RMK AO2=
KCVC 220215Z AUTO 00000KT 10SM CLR 08/03 A3013 RMK AO2=
KCWC 220215Z AUTO 19014KT 10SM CLR 23/02 A2975 RMK AO2
     T02310023=
KCXE 220215Z AUTO 00000KT 10SM CLR 07/02 A3017 RMK AO1
     T00650024=
KCXP 220215Z AUTO 19012KT 10SM CLR 19/M05 A2990 RMK AO2=
KCXU 220215Z AUTO 00000KT 10SM CLR 09/04 A3014 RMK AO1
     T00870042=
KCXW 220210Z AUTO 00000KT 10SM FEW026 BKN033 OVC055 19/09 A2987
     RMK A01=
KCZL 220215Z AUTO 19003KT 10SM CLR 08/04 A3014 RMK AO2=
KD39 220215Z AUTO 14003KT 10SM CLR 08/01 A2959 RMK AO2
     T00780006=
KDCM 220215Z AUTO 00000KT 10SM CLR 07/01 A3017 RMK AO2 LTG DSNT
     SE=
KDEH 220215Z AUTO 00000KT 10SM BKN020 OVC045 13/01 A2964 RMK
     AO2=
KDKX 220215Z AUTO 00000KT 10SM CLR 07/05 A3011 RMK A01=
KDSF 220215Z AUTO 06006KT 10SM CLR 22/13 A3011 RMK A01=
KDTA 220215Z AUTO 18012KT 10SM CLR 14/M08 A2982 RMK AO1=
KDUA 220215Z AUTO 17007KT 10SM CLR 20/06 A2983 RMK AO2=
KDZB 220215Z AUTO 18005KT 10SM CLR 23/08 A2993 RMK AO2
     T02250078=
KECS 220215Z AUTO 03006KT 10SM CLR 13/M09 A2951 RMK AO2=
KEDN 220215Z AUTO 00000KT 10SM CLR 10/07 A3012 RMK AO2
     T01020069=
KEGV 220215Z AUTO 00000KT 10SM CLR 03/00 A2964 RMK AO2
     T00270002=
KEIK 220215Z AUTO 25014G22KT 10SM CLR 21/M12 A2972 RMK AO2
     T02081117 PWINO=
