SAUS70 KWBC 220220 RRD
METAR
KOLG 220215Z AUTO 00000KT 10SM CLR 05/00 A2963 RMK AO1=
KOXI 220215Z AUTO 19011KT 10SM CLR 16/02 A2981 RMK AO1=
KPMH 220215Z AUTO 00000KT 10SM CLR 08/01 A3004 RMK AO2
     T00800007=
KRNH 220215Z AUTO 14003KT 10SM CLR 07/05 A2964 RMK AO2
     T00650050=
KRZL 220215Z AUTO 17011G15KT 10SM CLR 16/02 A2983 RMK AO2=
KSTE 220215Z AUTO 00000KT 10SM CLR 07/02 A2967 RMK AO2
     T00720023=
KUSE 220215Z AUTO 20011KT 10SM CLR 15/02 A2988 RMK AO2=
KY31 220215Z AUTO 20004KT 10SM CLR 14/04 A2970 RMK AO2
     T01360038=
KEBA 220215Z AUTO 00000KT 10SM CLR 08/01 A3015 RMK AO2
     T00750009=
KEBG 220215Z AUTO 15009KT 10SM CLR 23/17 A2999 RMK AO2 T02270170
     PWINO=
KELA 220215Z AUTO 17007KT 10SM CLR 21/15 A2999 RMK AO2
     T02070145=
KEMM 220215Z AUTO 23011KT 10SM CLR 10/M12 A2983 RMK AO2=
KEZZ 220215Z AUTO 18009KT 10SM CLR 21/04 A2965 RMK AO2
     T02130038=
KF00 220215Z AUTO 18011KT 10SM CLR 23/09 A2984 RMK AO2
     T02280087=
KFET 220215Z AUTO 00000KT 7SM CLR 10/01 A2959 RMK AO2
     T01000008=
KFHB 220215Z AUTO 02004KT 10SM CLR 13/06 A3012 RMK AO2 LTG DSNT
     E=
KFOA 220215Z AUTO 16010KT 10SM CLR 12/04 A2988 RMK AO2=
KFSW 220215Z AUTO 00000KT 10SM OVC001 19/03 A2968 RMK AO2=
KFWC 220215Z AUTO 00000KT CLR 16/04 A2988 RMK AO1 T01590035
     PWINO=
KGDB 220215Z AUTO 13004KT 10SM CLR 09/00 A2961 RMK AO2
     T00930002=
KGOP 220215Z AUTO 10SM CLR 24/09 A2990 RMK AO2=
KGPC 220215Z AUTO 17008KT 10SM CLR 12/01 A2990 RMK AO2
     T01200009=
KGRN 220215Z AUTO 25004KT 10SM CLR 12/M08 A2952 RMK AO2
     T01211083=
KGWB 220215Z AUTO 20007KT 10SM CLR 15/03 A2987 RMK AO2=
KHJH 220215Z AUTO 00000KT 10SM CLR 11/01 A2959 RMK AO2
     T01120005=
KHMP 220215Z AUTO 00000KT 10SM CLR 06/05 A3017 RMK AO2
     T00620051=
KHQU 220215Z AUTO 00000KT 10SM CLR 07/04 A3015 RMK AO2
     T00660042=
KIDP 220215Z AUTO 17003G16KT 10SM CLR 23/05 A2970 RMK AO2
     T02330053=
KIIY 220215Z AUTO 00000KT 10SM CLR 09/02 A3015 RMK AO2
     T00850024=
KIYA 220215Z AUTO 16004KT CLR 17/14 A3006 RMK AO2 T01670137
     PWINO=
KJCA 220215Z AUTO 00000KT 10SM CLR 09/02 A3015 RMK AO2
     T00870023=
KJDD 220215Z AUTO 17004KT 10SM CLR 22/11 A2988 RMK AO2=
KJYG 220217Z AUTO 00000KT 7SM CLR 07/01 A2962 RMK AO2=
KLHB 220215Z AUTO 17010G17KT 10SM CLR 23/13 A2995 RMK AO2
     T02310134=
KLHM 220215Z AUTO 17010KT 10SM CLR 22/05 A2973 RMK AO1=
KLNN 220215Z AUTO 19009G16KT 10SM CLR 14/M03 A2994 RMK AO1
     T01431030=
KLUD 220215Z AUTO 17012KT 7SM CLR 25/07 A2981 RMK AO2
     T02460066=
KLUL 220215Z AUTO 19008KT 10SM CLR 19/10 A3007 RMK A02
     T01870105=
KMDD 220215Z AUTO 19008KT 10SM CLR 22/07 A2988 RMK AO2
     T02170072=
KMGR 220215Z AUTO 00000KT 10SM CLR 10/05 A3014 RMK AO2=
KMJQ 220215Z AUTO 12006KT 10SM CLR 08/01 A2963 RMK AO2=
KMNH 220215Z AUTO 24007KT 10SM CLR 08/M15 A2987 RMK AO2=
KMPR 220215Z AUTO 15009KT 10SM CLR 20/01 A2960 RMK AO2
     T02010007=
KMWA 220215Z AUTO 18003KT 10SM CLR 15/08 A2989 RMK AO2
     T01540075=
KMWO 220215Z AUTO 00000KT 10SM CLR 06/01 A2999 RMK AO2
     T00630014=
K13K 220215Z AUTO 17011KT 10SM CLR 22/04 A2967 RMK AO2
     T02220043=
K18A 220215Z AUTO 09003KT 10SM CLR 09/00 A3015 RMK AO2
     T00880002=
K1F0 220215Z AUTO 17009KT 10SM CLR 24/08 A2978 RMK AO2
     T02370076=
K1H2 220215Z AUTO 13005KT 10SM CLR 16/03 A2988 RMK AO2
     T01590033=
K2J3 220215Z AUTO 00000KT 10SM CLR 09/04 A3015 RMK AO2
     T00880044=
K2R9 220215Z AUTO 15011KT 10SM CLR 21/15 A2998 RMK AO2
     T02140147=
K2V5 220215Z AUTO 16005KT 10SM CLR 16/M07 A2965 RMK AO2=
