SAUS70 KWBC 212300 RRK
METAR
KBPI 212253Z AUTO 28019G36KT 10SM FEW090 16/M08 A2983 RMK AO2 PK
     WND 29036/2249 SLP056 T01611083=
KCDC 212253Z AUTO 21014G23KT 10SM -RA CLR 21/M03 A2997 RMK AO2
     SLP105 P0000 T02061028=
KDGW 212253Z AUTO 26026G42KT 10SM CLR 22/M09 A2959 RMK AO2 PK WND
     27042/2251 SLP985 T02221089=
KFUL 212253Z 21007KT 10SM CLR 24/16 A2983 RMK AO2 SLP099
     T02440156=
KGJT 212253Z 00000KT 10SM CLR 21/M02 A2987 RMK AO2 SLP071
     T02111022=
KMLS 212253Z AUTO 36017KT 10SM OVC095 14/04 A2954 RMK AO2 PK WND
     36026/2226 SLP000 T01390044=
KMYF 212253Z 23007KT 10SM CLR 23/16 A2986 RMK AO2 SLP107
     T02280161=
KOLF 212253Z AUTO 09004KT 10SM FEW019 BKN024 OVC039 09/05 A2956
     RMK AO2 SLP017 T00890050=
KPRC 212253Z 23010KT 10SM CLR 22/03 A3003 RMK AO2 SLP108
     T02170033=
KRKP 212253Z AUTO 17008KT 10SM CLR 26/16 A2996 RMK AO2 SLP148
     T02610161=
KSSF 212253Z 18008G17KT 10SM CLR 29/09 A2989 RMK AO2 SLP116
     T02940089 $=
KTRL 212253Z AUTO 18011KT 10SM CLR 29/07 A2983 RMK AO2 SLP095
     T02940072=
KTWF 212253Z 30008KT 10SM CLR 20/00 A2975 RMK AO2 SLP029
     T02000000=
KTYR 212253Z 19008KT 10SM CLR 29/10 A2986 RMK AO2 SLP105 T02890100
     $=
KTDR 212255Z AUTO 00000KT 10SM CLR 21/08 A3003 RMK AO2 SLP173
     T02070077 $=
KBFI 212253Z 16008G17KT 4SM -RA BR FU BKN011 BKN019 OVC026 09/08
     A2975 RMK AO2 RAB04 SLP075 P0001 T00890078=
KDLS 212253Z AUTO 28012KT 10SM -RA BKN075 OVC090 12/06 A2975 RMK
     AO2 RAB2157E10B45 SLP075 P0000 T01170061=
KLWT 212254Z AUTO 29005KT 10SM -RA BKN046 OVC060 09/04 A2957 RMK
     AO2 RAB07 SLP003 P0001 T00890044=
KMCE 212253Z AUTO 00000KT 10SM CLR 32/04 A2976 RMK AO2 SLP078
     T03170044=
KMMV 212253Z AUTO 11004KT 6SM -RA BR BKN005 OVC037 09/08 A2977 RMK
     AO2 SLP080 P0005 T00940083=
KOMK 212253Z AUTO 01005KT 10SM OVC075 11/07 A2965 RMK AO2 SLP044
     T01060067=
KSHN 212253Z AUTO 25003KT 9SM -RA BKN018 OVC025 09/08 A2972 RMK
     AO2 SLP065 P0006 T00940083=
KSIY 212253Z AUTO 01008KT 10SM CLR 23/07 A2984 RMK AO2 SLP101
     T02280067=
KSNS 212253Z AUTO 32011KT 8SM OVC012 16/12 A2989 RMK AO2 SLP132
     T01610117 TSNO=
KSRR 212255Z AUTO 26011G19KT 250V310 10SM 18/00 A3010 RMK AO2=
KTVY 212255Z AUTO 23007G16KT 10SM CLR 24/00 A2980 RMK AO2=
KUAO 212253Z 12004KT 1 3/4SM -RA BR BKN003 BKN018 OVC025 09/08
     A2978 RMK AO2 PRESFR SLP084 P0017 T00890083=
KVCB 212253Z AUTO 20009G17KT 10SM CLR 28/08 A2977 RMK AO2 SLP081
     T02780083=
KVUO 212253Z AUTO 00000KT 2 1/2SM -RA BR FEW009 FEW016 OVC035
     09/08 A2980 RMK AO2 SLP090 P0008 T00940078=
KCYS 212253Z 26018G30KT 10SM CLR 19/M11 A2975 RMK AO2 PK WND
     24034/2231 SLP001 T01941111=
KDLN 212253Z AUTO 23016G26KT 10SM OVC100 16/M04 A2952 RMK AO2 PK
     WND 23026/2246 SLP962 T01611039=
KDTO 212253Z 17015G20KT 10SM CLR 32/05 A2978 RMK AO2 SLP079
     T03170050=
KDWH 212253Z AUTO 20012KT 10SM CLR 28/13 A2993 RMK AO2 SLP132
     T02780128=
KEEO 212253Z AUTO 22015G27KT 10SM CLR 18/M07 A2989 RMK AO2 PK WND
     22027/2209 SLP080 T01781067=
KMAF 212253Z 26011KT 10SM CLR 28/04 A2987 RMK AO2 SLP079
     T02780044=
KMTJ 212253Z AUTO 25008KT 10SM CLR 21/M06 A2992 RMK AO2 SLP079
     T02111061=
KMWL 212253Z AUTO 20015G24KT 10SM CLR 32/04 A2978 RMK AO2 SLP076
     T03170039=
KPIH 212253Z 25022KT 10SM OVC100 20/M05 A2973 RMK AO2 PK WND
     26027/2201 SLP038 T02001050=
KPMD 212253Z 25013KT 10SM CLR 29/02 A2987 RMK AO2 SLP091
     T02890022=
KTCC 212253Z AUTO 26018G23KT 10SM CLR 26/M02 A2976 RMK AO2 PK WND
     25026/2201 SLP031 T02611022=
KTKI 212253Z 18013KT 10SM CLR 30/07 A2979 RMK AO2 SLP089
     T03000067=
