SAUS80 KWBC 212300
METAR
KESN 212245Z 00000KT 10SM CLR 13/05 A3017=
