SAUS70 KWBC 220220 RRE
METAR
K3F3 220215Z AUTO 17009KT 10SM CLR 22/14 A2998 RMK AO2
     T02200137=
K4A9 220215Z AUTO 00000KT 10SM CLR 07/04 A3010 RMK AO2
     T00710043=
K5SM 220215Z AUTO 23013G22KT 10SM CLR 02/M11 A3014 RMK AO2=
K7BM 220215Z AUTO 30008G18KT 280V340 10SM CLR 08/M10 A3004 RMK
     AO2=
K81R 220215Z AUTO 19008KT 10SM CLR 23/09 A2990 RMK AO2
     T02320086=
K9A5 220215Z AUTO 00000KT 10SM CLR 07/05 A3013 RMK AO2
     T00670054=
KAAA 220215Z AUTO 18011KT 10SM CLR 18/05 A2977 RMK AO2
     T01750053=
KAGI 220215Z AUTO 12015G18KT 10SM CLR 23/13 A3007 RMK AO2
     T02350129=
KAHQ 220215Z AUTO 00000KT 7SM CLR 10/01 A2958 RMK AO2
     T00980005=
KAUH 220215Z AUTO 17004KT 7SM CLR 10/M02 A2959 RMK AO2
     T01031016=
KBGE 220215Z AUTO 00000KT 10SM CLR 10/04 A3014 RMK AO2
     T01030036=
KBIE 220215Z AUTO 00000KT 7SM CLR 11/01 A2959 RMK AO2
     T01080011=
KBPG 220215Z AUTO 17010KT 10SM CLR 20/06 A2986 RMK AO2
     T02040060=
KBQP 220215Z AUTO 17003KT 10SM CLR 21/12 A2996 RMK AO2
     T02070115=
KBVN 220215Z AUTO 00000KT 7SM CLR 08/M02 A2958 RMK AO2
     T00811017=
KC07 220215Z AUTO 27009G17KT 220V290 10SM CLR 03/M09 A3007 RMK
     AO2=
KCFD 220215Z AUTO 17010G17KT 10SM CLR 23/13 A2997 RMK AO2
     T02340134=
KCFS 220215Z AUTO 19011G16KT 10SM CLR 17/02 A2977 RMK AO2
     T01720024=
KCKN 220215Z AUTO 00000KT 10SM SCT080 12/M01 A2956 RMK AO2=
KCQF 220215Z AUTO 00000KT 10SM CLR 11/09 A3011 RMK AO2=
KDUC 220215Z AUTO 17009KT 10SM CLR 21/04 A2975 RMK AO2
     T02090044=
KDZJ 220215Z AUTO 00000KT 10SM CLR 05/02 A3016 RMK AO2
     T00510019=
KE42 220215Z AUTO 20010KT 10SM CLR 18/M04 A2968 RMK AO2
     T01811040=
KMZZ 220215Z AUTO 18007KT 10SM CLR 13/02 A2991 RMK AO2
     T01260020=
KOLY 220215Z AUTO 17007KT 10SM CLR 16/02 A2989 RMK AO2
     T01620024=
KPEZ 220215Z AUTO 15005KT 10SM CLR 22/13 A2996 RMK AO2
     T02180126=
KPHN 220215Z AUTO 19011G17KT 10SM CLR 16/02 A2983 RMK AO2=
KPMV 220215Z AUTO 13006KT 10SM CLR 18/00 A2959 RMK AO2
     T01791005=
KPPO 220215Z AUTO 19008KT 10SM CLR 16/06 A2981 RMK AO2
     T01550063=
KPRG 220215Z AUTO 16009KT 10SM CLR 14/04 A2988 RMK AO2
     T01370037=
KPSO 220215Z AUTO 00000KT 10SM CLR 08/M04 A3007 RMK AO2
     T00801041=
KRAS 220215Z AUTO 16013G19KT 10SM CLR A3000 RMK AO2=
KRPJ 220215Z AUTO 16006KT 10SM CLR 09/05 A2972 RMK AO2 T00850049
     TSNO=
KRSV 220215Z AUTO 17007KT 10SM CLR 13/02 A2990 RMK AO2
     T01310022=
KRVJ 220215Z AUTO 00000KT 10SM CLR 07/05 A3014 RMK AO2
     T00690050=
KRWV 220215Z AUTO 17013G17KT 10SM CLR 23/14 A2996 RMK AO2
     T02270141=
KRYW 220215Z AUTO 18009KT 10SM CLR 23/09 A2995 RMK AO2
     T02250089=
KSAA 220215Z AUTO 21008KT 10SM CLR 07/M11 A2984 RMK AO2=
KSME 220215Z AUTO 19004KT 10SM CLR 13/02 A3004 RMK AO2=
KSTK 220215Z AUTO 22003KT 10SM CLR 11/M05 A2964 RMK AO2=
KSXK 220215Z AUTO 09009KT 10SM SCT023 SCT028 13/01 A2957 RMK
     AO2=
KT41 220215Z AUTO 10SM SCT041 22/15 A3002 RMK AO2 T02170145=
KT74 220215Z AUTO 16009KT 10SM CLR 21/10 A2993 RMK AO2
     T02080103=
KT82 220215Z AUTO 00000KT 10SM CLR 19/08 A2996 RMK AO2
     T01910080=
KTEX 220215Z AUTO 00000KT 10SM CLR 07/M09 A3013 RMK AO2=
KTYQ 220215Z AUTO 17007KT 10SM CLR 13/02 A2991 RMK AO2
     T01310020=
KVHN 220215Z AUTO 21006KT 10SM CLR 18/08 A3003 RMK AO2
     T01790083=
KVTP 220215Z AUTO 24015G26KT 10SM CLR 05/M07 A3005 RMK AO2=
KVVS 220215Z AUTO 08004KT 10SM CLR 08/00 A3008 RMK AO2
     T00770005=
KVYS 220215Z AUTO 18009KT 10SM CLR 15/04 A2973 RMK AO2
     T01500042=
KZPH 220215Z AUTO 02004KT 10SM CLR 13/06 A3010 RMK A02
     T01340062=
