SAUS80 KWBC 220200 RRB
METAR
KSOA 220155Z AUTO 00000KT 10SM 22/09 A2997 RMK AO2=
K9V9 220155Z AUTO 14010KT 10SM CLR 11/02 A2952 RMK AO2
     T01140016=
KAYS 220155Z AUTO 00000KT 10SM CLR 10/09 A3014 RMK AO2
     T00960089=
KD07 220156Z AUTO 13013KT 14/01 A2945 RMK AO1 SLP979 T01390011=
KGIC 220155Z AUTO 06003KT 3SM SCT001 SCT033 OVC039 05/05 A2964 RMK
     AO1 P0003=
KCBE 220155Z AUTO 00000KT 10SM CLR 08/02 A3015 RMK AO2
     T00770017=
K4BM 220155Z AUTO 18013G23KT 10SM CLR 03/M15 A3012 RMK AO2=
KBZN 220156Z 32007KT 10SM -RA OVC055 09/05 A2959 RMK AO2 SLP010
     P0000 T00940050=
KFLG 220157Z AUTO 24004KT 10SM CLR 12/03 A3010 RMK AO2 SLP138
     T01170033=
KIZA 220155Z AUTO 25006G11KT 10SM CLR 15/13 A2989 RMK AO2=
KPSN 220155Z AUTO 17005KT 10SM CLR 23/10 A2990 RMK AO2=
KCKP 220155Z AUTO 00000KT 7SM CLR 11/00 A2960 RMK AO2
     T01140001=
KD07 220156Z AUTO 13013KT 14/01 A2945 RMK AO1 SLP979 T01390011=
KGNA 220156Z AUTO 31004KT 13/02 A2957 RMK AO1 SLP013 T01330022=
KGNR 220156Z AUTO 16004KT 07/M02 A3008 RMK AO1 SLP195
     T00721017=
KMWN 220155Z 26030KT 70SM SCT040 02/M15 RMK=
KALK 220156Z AUTO 23008KT 10SM CLR 19/11 A3006 RMK AO2 SLP107
     T01940106=
KGIC 220155Z AUTO 06003KT 3SM SCT001 SCT033 OVC039 05/05 A2964 RMK
     AO1 P0003=
KSMP 220156Z AUTO VRB04KT 1/2SM -SN FG VV002 01/00 A2963 RMK AO2
     SLP047 P0002 T00110000=
KSOA 220155Z AUTO 00000KT 10SM 22/09 A2997 RMK AO2=
