SAUS70 KWBC 220000 RRV
METAR
TISX 212353Z 06006KT 10SM FEW026 28/23 A2991 RMK AO2 SLP125
     T02780233 10311 20278 53009 $=
KNSE 212356Z 20003KT 10SM CLR 15/07 A3009 RMK AO2 SLP176 6////
     T01500072 10244 20150 53010 PNO $=
KPVW 212350Z AUTO 23009KT 10SM CLR 24/M01 A2978 RMK AO2 T02351007
     10282 20235=
KSLR 212350Z AUTO 16006KT 10SM CLR 26/09 A2985 RMK AO2 T02630090
     10305 20263=
KSZT 212350Z AUTO 23004KT 7SM -RA OVC012 03/03 A2966 RMK AO2=
KTOC 212355Z AUTO 00000KT 10SM CLR 11/03 A3011 RMK AO2 T01070034
     10200 20105 402000006=
KTXW 212350Z AUTO 15010KT 10SM CLR 27/16 A2995 RMK AO2 T02660161
     10302 20265 403020153=
KTZR 212355Z AUTO 18006KT 10SM CLR 13/00 A2998 RMK AO2 T01310003
     10212 20131=
KULS 212355Z AUTO 25004KT 10SM CLR 23/M06 A2964 RMK AO2=
KWWR 212350Z AUTO 18008KT 10SM CLR 26/M01 A2967 RMK AO2=
KX26 212355Z AUTO 32007KT 7SM SCT085 20/14 A3002 RMK AO2 T01980144
     10246 20197 402460173=
K19S 212355Z AUTO 16004KT 7SM CLR 22/M04 A2965 RMK AO2 T02231044
     10304 20222 403040018=
K20V 212355Z AUTO 24010G20KT 10SM CLR 15/M08 A2992 RMK AO2=
K2J5 212355Z AUTO 00000KT 10SM CLR 11/04 A3012 RMK AO2 T01120040
     10218 20108 402181003=
KADH 212355Z AUTO 17011KT 10SM CLR 26/06 A2977 RMK AO2=
KADT 212355Z AUTO 19004KT 10SM CLR 22/M05 A2970 RMK AO2 T02181054
     10266 20218=
KANK 212350Z AUTO 26013G19KT 10SM CLR A3001 RMK AO1=
KBMC 212350Z AUTO 10SM CLR 21/M04 A2976 RMK AO1 T02111039=
KCHK 212350Z AUTO 17009KT 10SM CLR 26/03 A2968 RMK AO2 T02640033
     10320 20263 403200056=
KCQB 212350Z AUTO 17005KT 10SM CLR 27/03 A2972 RMK AO2 T02690033
     10328 20267 403280088=
KDCY 212355Z AUTO 17008KT 10SM CLR 15/02 A2989 RMK AO2 T01510017
     10239 20149=
KDUB 212354Z AUTO 29021G31KT 10SM CLR 12/M08 A2970 RMK AO2=
KDWX 212350Z AUTO 22011G17KT 190V260 10SM CLR 12/M18 A2987 RMK AO2
     T01161178=
KEAN 212350Z AUTO 27011G21KT 10SM CLR 22/M12 A2962 RMK AO2
     T02161124 10244 20211=
KEBS 212355Z AUTO 03004KT 4SM HZ CLR 15/00 A2961 RMK AO2=
KGNB 212355Z AUTO 24013G21KT 10SM CLR 13/M11 A2995 RMK AO2
     T01301114 10166 20130=
KGNC 212355Z AUTO 24005KT 10SM CLR 24/04 A2991 RMK AO2 T02400036
     10277 20237=
KHBV 212350Z AUTO 16004KT 4SM HZ CLR 25/12 A2994 RMK AO2
     T02520116=
KHEQ 212355Z AUTO 22006KT 10SM CLR 20/M07 A2964 RMK AO2=
KHHW 212354Z AUTO 17006KT 10SM CLR 24/07 A2981 RMK AO2=
KHSG 212350Z AUTO 24015KT 10SM CLR 19/M04 A2955 RMK AO2 T01941039
     10236 20194=
KMHP 212355Z AUTO 00000KT 10SM CLR 12/04 A3011 RMK AO2 T01220035
     10217 20121 402170015=
KMMH 212354Z AUTO 27017G22KT 10SM CLR 17/M07 A3007 RMK AO2=
KMPZ 212350Z AUTO 19006KT 10SM CLR 22/08 A2965 RMK AO2=
KMYZ 212350Z AUTO 00000KT 10SM CLR 21/02 A2959 RMK AO2=
KOSA 212350Z AUTO 16005KT 10SM CLR 24/10 A2985 RMK AO2 T02370105
     10299 20234 402990060=
KOZA 212355Z AUTO 19011G17KT 10SM CLR 24/07 A2993 RMK AO2=
KPEQ 212355Z AUTO 22008KT 10SM CLR 27/08 A2985 RMK AO2 T02740076
     10304 20274=
K04V 212355Z AUTO 30014G18KT 10SM CLR 16/M10 A2999 RMK AO2=
K11R 212355Z AUTO 19008KT 10SM CLR 27/12 A2992 RMK AO2 T02650122
     10305 20265=
K6P9 212355Z AUTO 19006KT 10SM CLR 27/03 A2982 RMK AO2 T02730030
     10314 20273=
KAQO 212355Z AUTO 18009G15KT 10SM CLR 27/06 A2988 RMK AO2=
KAUN 212355Z AUTO 19007KT 9SM CLR 26/06 A2983 RMK A01=
KAXX 212355Z AUTO 26018G25KT 10SM CLR 12/M06 A3004 RMK AO2
     T01181064 10151 20118=
KEDC 212355Z AUTO 20005KT 10SM CLR 25/08 A2989 RMK AO2=
KGLE 212355Z AUTO 17008KT 10SM CLR 25/06 A2979 RMK AO2 T02530055
     10327 20253=
KHVE 212355Z AUTO 00000KT 10SM CLR 23/M05 A2983 RMK AO2=
