SAUS70 KWBC 212300 RRX
METAR
K2M2 212255Z AUTO 16005G11KT 10SM CLR 20/09 A2999 RMK A01=
K33N 212255Z AUTO 00000KT 10SM CLR 12/04 A3013 RMK A01=
K36K 212250Z AUTO 15006G11KT 10SM CLR 29/M08 A2969 RMK AO2=
K3I2 212255Z AUTO 00000KT 10SM CLR 15/01 A3003 RMK AO2
     T01480006=
K3J7 212255Z AUTO 00000KT 10SM CLR 17/00 A3009 RMK AO2=
K3LF 212255Z AUTO 16011KT 10SM CLR 21/03 A2980 RMK AO2
     T02110032=
K3S8 212255Z AUTO VRB04KT 10SM OVC050 21/10 A2987 RMK AO2=
K46U 212255Z AUTO 28012G19KT 10SM OVC100 18/M07 A2977 RMK A01=
K4V0 212255Z AUTO 26014G20KT 10SM CLR 22/M08 A2983 RMK AO2
     T02211080=
K54A 212255Z AUTO 34004KT 10SM CLR 23/12 A2998 RMK AO2=
K5T9 212255Z AUTO VRB05G10KT 10SM CLR 28/12 A2989 RMK A01=
K65S 212255Z AUTO VRB06KT 5SM UP BR FEW022 SCT030 BKN034 06/05
     A2961 RMK AO2 P0001=
K6A2 212255Z AUTO 00000KT 10SM CLR 13/05 A3009 RMK AO2=
K7W4 212255Z AUTO 00000KT 10SM CLR 12/04 A3012 RMK AO1
     T01160039=
K82V 212255Z AUTO 28009KT 10SM CLR 20/M11 A2970 RMK AO2=
K8A3 212255Z AUTO 21003KT 10SM CLR 17/00 A3001 RMK A01=
KAAS 212255Z AUTO 19005KT 10SM CLR 17/01 A3004 RMK AO1=
KACP 212255Z AUTO 20009KT 10SM CLR 26/13 A2998 RMK AO2=
KAEJ 212255Z AUTO 23016G23KT 7SM 17/M13 A2997 RMK AO2
     T01701135=
KAFP 212255Z AUTO 00000KT 10SM CLR 14/00 A3011 RMK AO2
     T01440004=
KAGI 212255Z AUTO 12009KT 10SM CLR 25/12 A3003 RMK AO2
     T02540121=
KALX 212255Z AUTO 00000KT 10SM CLR 17/07 A3008 RMK AO2
     T01680071=
KSBA 212253Z 25010KT 6SM HZ SCT005 19/15 A2987 RMK FG BNK WEST OF
     AIRFIELD=
KSCD 212255Z AUTO 17003KT 10SM CLR 19/05 A3007 RMK AO2
     T01930050=
KSCX 212255Z AUTO 21007KT 10SM CLR 15/M01 A3004 RMK A01=
KSEM 212255Z AUTO 14004KT 10SM CLR 20/10 A3005 RMK AO2=
KSEZ 212255Z AUTO 24003KT 10SM 23/05 A3001 RMK AO2=
KSFQ 212255Z AUTO 09004KT 10SM CLR 15/08 A3014 RMK AO2
     T01450079=
KSLO 212255Z AUTO 16007KT 10SM CLR 23/03 A2983 RMK AO2
     T02270025=
KSNH 212250Z AUTO 18006KT 10SM CLR 23/10 A2994 RMK A01=
KSRB 212255Z AUTO 17005KT 10SM CLR 18/01 A3002 RMK A01=
KSRE 212255Z AUTO 10SM CLR 30/M01 A2973 RMK AO2=
KSVC 212255Z AUTO 26013G22KT 10SM CLR 25/06 A3006 RMK AO2
     T02450059=
KSVH 212255Z AUTO 00000KT 10SM CLR 13/00 A3011 RMK AO2
     T01340002=
KSWW 212255Z AUTO 23014KT 10SM CLR 29/02 A2987 RMK AO2
     T02900019=
KSXU 212255Z AUTO 27025G30KT 10SM CLR 24/M01 A2986 RMK AO2
     T02381010=
KSYF 212255Z AUTO 16006KT 10SM CLR 25/M07 A2967 RMK AO2 T02491073
     PWINO=
KSYI 212255Z AUTO 15005KT 10SM CLR 19/03 A3000 RMK A01=
KSZT 212255Z AUTO 19010G15KT 7SM -RA BKN010 OVC015 05/03 A2966 RMK
     AO2=
KSZY 212255Z AUTO 18006KT 10SM CLR 22/10 A2994 RMK A01=
KT89 212255Z AUTO 00000KT 10SM CLR 30/07 A2992 RMK A01=
KTBX 212255Z AUTO 10SM CLR 14/M08 A2978 RMK AO2=
KTDF 212255Z AUTO 00000KT 10SM CLR 11/05 A3014 RMK AO2=
KTHA 212255Z AUTO 16005KT 10SM CLR 19/02 A3002 RMK A01=
KTNU 212255Z AUTO 25004KT 10SM CLR 24/01 A2959 RMK A01=
KTQH 212255Z AUTO 17007KT 10SM CLR 28/M01 A2978 RMK AO2=
KTQV 212255Z AUTO 08005KT 10SM CLR 17/M02 A3012 RMK A01=
KTYL 212255Z AUTO 22008KT 200V260 10SM CLR 22/02 A3007 RMK AO2=
KU68 212255Z AUTO 21003KT 10SM OVC120 21/M06 A2950 RMK AO2=
KUBE 212255Z AUTO 28003KT 10SM CLR 15/06 A2959 RMK AO2=
KUCP 212256Z AUTO VRB03KT 10SM CLR 14/M01 A3000 RMK AO2 SLP177
     T01441006=
KUCY 212255Z AUTO 16006KT 10SM CLR 22/09 A2987 RMK A01=
KUSE 212255Z AUTO 21010KT 10SM CLR 19/02 A2981 RMK AO2=
KUVA 212255Z AUTO 00000KT 10SM CLR 28/09 A2994 RMK AO2
     T02760085=
KUXL 212255Z AUTO 19008KT 10SM CLR 24/15 A3001 RMK AO2
     T02420148=
KJTC 212255Z AUTO 27014G23KT 10SM CLR 20/M00 A3012 RMK AO2=
