SAKA31 PTPN 212300
METAR PTPN 212251Z 04007KT 15SM BKN018TCU BKN130 OVC300 29/26 A2983
RMK TCU NE AND SE-S
