SAUS70 KWBC 220008
METAR
KEZS 220015Z AUTO 00000KT 10SM CLR 14/06 A2961 RMK AO2
     T01360055=
K1S5 220015Z AUTO 00000KT 10SM -RA SCT060 09/08 A2968 RMK AO2
     P0001 T00920075=
KCPF 220015Z AUTO 16003KT 10SM CLR 15/00 A3006 RMK AO2=
KEMV 220015Z AUTO 00000KT 10SM CLR 07/05 A3016 RMK AO2
     T00660050=
KFFA 220015Z AUTO 05004KT 10SM SCT070 16/10 A3013 RMK AO2
     T01620096=
KMCJ 220015Z AUTO 18018KT 10SM CLR 24/14 A2993 RMK A01=
KSUW 220015Z AUTO 00000KT 10SM CLR 08/02 A2958 RMK AO2
     T00750022=
KTFP 212335Z AUTO 18008KT 10SM CLR 23/16 A2995 RMK AO2
     T02340161=
