SAUS70 KWBC 220100 RRS
METAR
PAGL 220056Z AUTO 23004KT 10SM SCT015 BKN020 OVC036 03/02 A2973
     RMK AO2 SLP062 T00330017 PWINO $=
PAGN 220056Z AUTO 00000KT 10SM CLR 06/05 A2973 RMK AO2 SLP055
     T00560050=
PAGS 220056Z AUTO 24008KT 10SM OVC055 09/03 A2968 RMK AO2 SLP049
     T00890033=
PAHL 220056Z AUTO 17004KT 8SM -RA OVC010 02/01 A2980 RMK AO2 RAB25
     CIG 008V013 SLP094 P0000 T00170006 FZRANO=
PAHY 220056Z AUTO 01003KT 10SM OVC041 08/04 A2974 RMK AO2 RAE51
     SLP069 P0000 T00780044 $=
PAIG 220056Z AUTO 22008KT 10SM BKN028 BKN033 07/02 A2996 RMK AO2
     SLP155 T00670022 $=
PAIK 220056Z AUTO 10004KT 10SM FEW013 BKN023 OVC029 01/01 A2976
     RMK AO2 SLP081 T00110006 FZRANO=
PAIN 220056Z AUTO 36005KT 10SM SCT034 OVC070 01/M01 A2980 RMK AO2
     RAB18E28SNE18 SLP124 P0000 T00061006 FZRANO $=
PAJZ 220056Z AUTO 25010KT 8SM FEW030 07/01 A2998 RMK AO2 SLP160
     T00670006 $=
PAKI 220056Z AUTO 22015KT 10SM FEW047 06/02 A2990 RMK AO2 RAE07
     SLP129 T00560017 PNO $=
PAKP 220056Z AUTO 20007KT 10SM CLR M08/M10 A2975 RMK AO2 SLP125
     T10831100 FZRANO=
PALG 220056Z AUTO 24006KT 10SM BKN018 05/01 A2988 RMK AO2 SLP120
     T00500011=
PAMB 220056Z AUTO 28007KT 9SM -RA FEW019 BKN026 BKN031 05/03 A2998
     RMK AO2 RAB40 SLP157 P0000 T00500028 $=
PAMH 220056Z AUTO 20003KT 10SM OVC009 01/00 A2986 RMK AO2 RAB27E52
     CIG 008V013 SLP115 P0000 T00110000 FZRANO=
PAMK 220056Z AUTO 22013KT 10SM OVC014 03/01 A2977 RMK AO2 SLP084
     T00280011=
PANI 220056Z AUTO 24005KT 10SM SCT016 SCT022 OVC040 04/02 A2992
     RMK AO2 RAE10 SLP125 P0000 T00440017 $=
PANV 220056Z AUTO 25005KT 10SM BKN007 OVC015 02/02 A2981 RMK AO2
     RAE49 CIG 003V011 SLP184 P0002 T00220017 FZRANO TSNO=
PANW 220056Z AUTO 25010KT 10SM CLR 07/02 A2996 RMK AO2 SLP152
     T00670022=
PAOH 220056Z AUTO 00000KT 10SM SCT036 OVC045 07/04 A2968 RMK AO2
     SLP050 T00670044 PNO $=
PAOO 220056Z AUTO 22014KT SCT017 BKN029 OVC090 04/02 A2988 RMK AO2
     SLP124 T00440022 PWINO TSNO $=
PAOU 220056Z AUTO 22010KT 10SM FEW041 06/04 A3010 RMK AO2 RAE05
     SLP192 T00610039 PNO $=
PAPG 220056Z 27003KT 10SM SCT060 06/05 A2973 RMK AO2 RAE29 SLP070
     P0000 T00560050=
PAPH 220056Z AUTO 25011KT 6SM -RA BKN023 BKN028 OVC035 06/03 A3009
     RMK AO2 RAB06E22B46 SLP191 P0000 T00610033=
PAPM 220056Z AUTO 21004KT 10SM FEW034 05/02 A2998 RMK AO2 RAB02E47
     SLP152 P0001 T00500022=
PARC 220056Z AUTO 00000KT 10SM CLR M09/M11 A2975 RMK AO2 SLP138
     T10891111 FZRANO=
PARS 220056Z AUTO 24008G14KT 10SM CLR A2985 RMK AO2 SLPNO FZRANO
     $=
PARY 220056Z AUTO 07003KT 10SM -RA OVC010 01/00 A2980 RMK AO2 CIG
     008V012 SLP106 P0000 T00060000 FZRANO=
PASA 220056Z AUTO 22012KT 10SM CLR 03/01 A2965 RMK AO2 SLP039
     T00330006=
PASD 220056Z 20005KT 10SM FEW030 SCT038 OVC100 08/02 A3013 RMK AO2
     SLP206 T00830022 PNO $=
PASH 220056Z AUTO 14006KT 10SM OVC055 01/01 A2966 RMK AO2 SLP043
     T00110006 FZRANO PNO $=
PASK 220056Z AUTO 12005KT 10SM OVC050 02/01 A2975 RMK AO2 RAE17
     SLP072 P0000 T00170011 FZRANO=
PASM 220056Z AUTO 21010KT 10SM SCT025 OVC035 03/02 A2985 RMK AO2
     RAB24E38UPB40E54 SLP116 P0000 T00280017=
PASX 220056Z AUTO 27005KT 10SM CLR 08/M02 A2987 RMK AO2 SLP122
     T00781017=
PATE 220056Z AUTO 16008KT 10SM FEW017 OVC038 02/01 A2965 RMK AO2
     RAB16E25SNE16 SLP046 P0000 T00220011 FZRANO=
PATG 220056Z AUTO 23007KT 10SM FEW090 06/02 A2999 RMK AO2 SLP154
     T00610022=
PATQ 220056Z AUTO 10018KT 10SM BKN012 OVC075 M04/M05 A2979 RMK AO2
     SLP092 T10391050 FZRANO TSNO=
