SAUS70 KWBC 220050
METAR
K20V 220035Z AUTO 24009G17KT 10SM CLR 13/M08 A2993 RMK AO2=
K6S8 220040Z AUTO 06012KT 10SM 11/04 A2954 RMK A01 LAUREL=
KANK 220030Z AUTO 25007KT 10SM CLR A3001 RMK AO1=
KBMC 220030Z AUTO 10SM CLR 19/M03 A2974 RMK AO1 T01901034=
KC99 220031Z AUTO 26010G18KT 210V340 10SM CLR 04/M15 A3004 RMK
     AO2=
KDUB 220038Z AUTO 30013G23KT 10SM SCT085 11/M08 A2970 RMK AO2=
KDWX 220030Z AUTO 21010G16KT 180V250 10SM CLR 12/M15 A2986 RMK AO2
     T01161151=
KE11 220040Z AUTO 20005KT 10SM CLR 23/04 A2987 RMK AO2
     T02270042=
KEAN 220030Z AUTO 27014G19KT 10SM CLR 21/M12 A2962 RMK AO2
     T02071120=
KGNC 220035Z AUTO 21004KT 10SM CLR 22/05 A2991 RMK AO2
     T02150051=
KHBV 220030Z AUTO 15004KT 4SM HZ CLR 23/12 A2995 RMK AO2
     T02310120=
KHEQ 220035Z AUTO 22005KT 10SM CLR 17/M07 A2965 RMK AO2=
KHSG 220030Z AUTO 25016G19KT 10SM CLR 18/M05 A2955 RMK AO2
     T01811047=
KMMH 220036Z AUTO 29012G21KT 10SM CLR 16/M06 A3007 RMK AO2=
KOSA 220030Z AUTO 15005KT 10SM CLR 22/11 A2986 RMK AO2
     T02200112=
KOZA 220035Z AUTO 19007KT 10SM CLR 22/07 A2993 RMK AO2=
KPEQ 220035Z AUTO 18006KT 10SM CLR 24/09 A2986 RMK AO2
     T02420087=
KPVW 220030Z AUTO 24007KT 10SM CLR 20/00 A2979 RMK AO2
     T01950000=
KSLR 220030Z AUTO 16007KT 10SM CLR 25/09 A2986 RMK AO2
     T02500088=
KDCY 220035Z AUTO 17008KT 10SM CLR 15/02 A2990 RMK AO2
     T01460020=
KEBS 220035Z AUTO 09005KT 7SM CLR 13/00 A2961 RMK AO2=
KEVM 220041Z AUTO 00000KT 10SM CLR 08/02 A2960 RMK AO2=
KJVY 220035Z AUTO 19006KT 10SM CLR 16/01 A2995 RMK AO2 PWINO=
KMPZ 220030Z AUTO 19005KT 10SM CLR 20/07 A2966 RMK AO2=
KMZZ 220030Z AUTO 20010KT 10SM CLR 16/02 A2988 RMK AO2
     T01600024=
KUYF 220035Z AUTO 19007KT 10SM CLR 10/M01 A2997 RMK AO2=
KC62 220115Z AUTO 20008KT 10SM CLR 16/03 A2984 RMK AO2
     T01630037=
KOCW 220035Z AUTO 00000KT 10SM 13/05 A3015 RMK AO2 T01340051=
