SAUS70 KWBC 220000 RRD
METAR
KXLL 212355Z AUTO 00000KT 10SM CLR 10/02 A3014 RMK AO2=
KY31 212355Z AUTO 20005KT 10SM CLR 16/03 A2968 RMK AO2 T01600027
     10197 20160=
KAZC 212355Z AUTO 31006KT 10SM CLR 23/00 A2998 RMK AO2=
KGUR 212355Z AUTO 28014KT 9SM CLR 22/M10 A2958 RMK AO2 PK WND
     28029/2258 SLP997 T02211098 10251 20201 55002=
KILE 212356Z AUTO 17011KT 10SM CLR 26/09 A2988 RMK AO2 SLP108
     T02610089 10317 20261 55004=
KKLS 212356Z AUTO 15005KT 9SM -RA OVC017 10/08 A2974 RMK AO2
     SLP073 P0002 60020 T01000083 10106 20100 56040=
KLPC 212356Z AUTO 27008KT 10SM SCT012 16/13 A2989 RMK AO2 SLP123
     T01610133 10206 20150 55000=
KMRF 212356Z AUTO 24007KT 10SM CLR 22/06 A3005 RMK AO2 SLP137
     T02170061 10261 20217 56007=
KP08 212355Z AUTO 34006KT 10SM CLR 30/11 A2982 RMK AO2=
KRTS 212355Z AUTO 25020KT 10SM CLR 21/M07 A2992 RMK AO2=
KTBX 212355Z AUTO 10SM CLR 13/M08 A2977 RMK AO2=
KACB 212355Z AUTO 00000KT 10SM CLR 16/06 A2962 RMK AO2 T01640056
     10210 20164=
KADC 212355Z AUTO 16003KT 10SM CLR 11/00 A2959 RMK AO2 TSNO=
KART 212356Z AUTO 17007KT 10SM CLR 13/M01 A2995 RMK AO2 SLP145
     T01331011 10167 20133 51003=
KBID 212356Z AUTO 21007KT 10SM CLR 13/07 A3017 RMK AO2 SLP218
     T01330067 10167 20133 53009=
KBLM 212356Z AUTO 00000KT 10SM CLR 11/07 A3016 RMK AO2 SLP215
     T01110067 10172 20111 53009=
KBVI 212355Z AUTO 16005KT 10SM CLR 13/M01 A3002 RMK AO2
     T01341011=
KCQM 212356Z AUTO 00000KT 10SM CLR 11/M01 A2956 RMK AO2=
KITH 212356Z 17007KT 10SM CLR 11/M03 A3006 RMK AO2 SLP185
     T01061028 10161 20106 53018=
KJYM 212355Z AUTO 19008KT 10SM CLR 17/00 A2981 RMK AO2 T01650003
     10202 20165=
KLWA 212355Z AUTO 19007KT 10SM SCT120 20/03 A2972 RMK AO2
     T02000025 10230 20200=
KMBL 212356Z AUTO 19009G17KT 10SM CLR 18/06 A2962 RMK AO2 SLP034
     T01780056 10206 20172 51021=
KOXD 212355Z AUTO 19007KT 10SM CLR 18/M04 A2995 RMK AO2 T01781043
     10241 20175=
KOXI 212355Z AUTO 19010KT 10SM CLR 18/02 A2978 RMK AO1=
K22N 212355Z AUTO 00000KT 10SM CLR 03/00 A3014 RMK AO2=
KANW 212355Z AUTO 14008KT 10SM CLR 15/00 A2956 RMK AO2 T01451005
     10225 20145=
KBCK 212355Z AUTO 00000KT 10SM CLR 08/03 A2962 RMK AO2 T00760030
     10222 20076=
KBHB 212356Z AUTO 22005KT 10SM CLR 10/05 A3016 RMK AO2 SLP214
     6//// T01000050 10139 20089 53016 PNO $=
KBTP 212356Z AUTO 15003KT 10SM CLR 13/M01 A3004 RMK AO2 SLP182
     T01281006 10172 20128 53009 TSNO=
KI23 212355Z AUTO 16007KT 10SM CLR 12/M01 A2998 RMK AO1=
KISQ 212355Z AUTO 19003KT 7SM SCT120 08/07 A2958 RMK AO2 T00800072
     10111 20080=
KJRB 212356Z AUTO 00000KT 10SM CLR A3016 RMK AO2 SLPNO 60001 53010
     FZRANO $=
KMOX 212355Z AUTO 16003KT 10SM CLR 14/M04 A2961 RMK AO2=
KMUT 212355Z AUTO 16006KT 10SM CLR 21/03 A2964 RMK AO2=
KMVN 212356Z AUTO 00000KT 10SM CLR 17/03 A2986 RMK AO2 SLP117
     T01720033 10256 20150 53005=
KOTG 212356Z AUTO 07004KT 10SM CLR 13/02 A2964 RMK AO2 SLP042
     T01280017 10194 20128 53001=
KPEX 212355Z AUTO 00000KT 10SM CLR 11/01 A2962 RMK AO2=
KPQI 212356Z AUTO 19005KT 10SM CLR 06/01 A3007 RMK AO2 SLP212
     T00610011 10133 20056 51014=
KSTE 212355Z AUTO 00000KT 10SM CLR 13/03 A2963 RMK AO2 T01300028
     10216 20130=
KWBF 212355Z AUTO 00000KT 10SM 23/13 A3007 RMK A01=
KGUR 212355Z AUTO 28014KT 9SM CLR 22/M10 A2958 RMK AO2 PK WND
     28029/2258 SLP997 T02211098 10251 20201 55002=
KIDP 212355Z AUTO 00000KT 10SM CLR 25/06 A2968 RMK AO2 T02520058
     10307 20251 403070059=
KIIY 212355Z AUTO 00000KT 10SM CLR 12/02 A3012 RMK AO2 T01210019
     10210 20113 402100023=
