SAUS70 KWBC 212320 RRE
METAR
KVTP 212315Z AUTO 26008G19KT 10SM CLR 10/M11 A3008 RMK AO2=
KVVS 212315Z AUTO 00000KT 10SM CLR 11/01 A3004 RMK AO2
     T01120007=
KVYS 212315Z AUTO 17008KT 10SM CLR 19/04 A2968 RMK AO2
     T01930039=
KZPH 212315Z AUTO 36003KT 10SM CLR 18/05 A3005 RMK A02
     T01760053=
K05U 212315Z AUTO 27013G18KT 10SM 22/M14 A2993 RMK A01=
K0A0 212315Z AUTO 24013KT 10SM CLR 27/02 A2995 RMK AO2=
K0F2 212315Z AUTO 18010G41KT 130V200 10SM CLR 30/02 A2976 RMK AO2
     T03040018=
K1V6 212315Z AUTO 27017G22KT 10SM CLR 25/M10 A2976 RMK AO2=
K3S8 212315Z AUTO VRB04KT 10SM OVC050 21/10 A2986 RMK AO2=
K46U 212315Z AUTO 27007G13KT 10SM SCT100 17/M07 A2976 RMK A01=
K4V0 212315Z AUTO 25009KT 10SM CLR 22/M08 A2982 RMK AO2
     T02171081=
K5T9 212310Z AUTO VRB06KT 10SM CLR 27/13 A2989 RMK A01=
K82V 212315Z AUTO 25008KT 10SM CLR 20/M11 A2970 RMK AO2=
KAEJ 212315Z AUTO 24010G22KT 7SM 17/M14 A2997 RMK AO2
     T01651141=
KAVQ 212315Z AUTO 27009G17KT 10SM CLR 33/05 A2984 RMK AO2
     T03270048=
KBAM 212315Z AUTO 24019G23KT 10SM CLR 25/M07 A2983 RMK AO1=
KBDN 212315Z AUTO 23018G25KT 6SM HZ SCT065 SCT100 17/06 A2972 RMK
     AO2=
KBDU 212315Z AUTO 24013G18KT 10SM CLR 23/M07 A2973 RMK AO2=
KBKD 212315Z AUTO 20018G21KT 5SM HZ CLR 32/03 A2979 RMK AO2
     T03170026=
KBPC 212315Z AUTO 25008KT 10SM CLR 29/M04 A2968 RMK AO2=
KC83 212315Z AUTO 25010KT 9SM CLR 28/09 A2979 RMK AO2=
KCWC 212315Z AUTO 20013G24KT 10SM CLR 32/01 A2974 RMK AO2
     T03200006=
KCXP 212315Z AUTO 21013G18KT 10SM CLR 24/M05 A2993 RMK AO2=
KDSF 212315Z AUTO 05008KT 10SM CLR 22/13 A3008 RMK A01=
KDTA 212315Z AUTO 22009G19KT 10SM CLR 23/M10 A2985 RMK AO1=
KDZB 212315Z AUTO 20009G14KT 10SM CLR 29/06 A2990 RMK AO2
     T02860060=
KRPH 212315Z AUTO 18008G17KT 130V210 9SM CLR 31/02 A2975 RMK AO2
     T03120017 $=
KSEZ 212315Z AUTO 23004KT 10SM 23/05 A3000 RMK AO2=
KEIK 212315Z AUTO 25018G24KT 10SM CLR 24/M11 A2972 RMK AO2
     T02411113 PWINO=
KF17 212315Z AUTO 10SM CLR 27/10 A2991 RMK AO2=
KFTN 212315Z AUTO 16007G12KT 10SM CLR 28/10 A2993 RMK A01=
KGOO 212315Z AUTO VRB03KT 10SM CLR 25/03 A2990 RMK A01=
KHHF 212315Z AUTO 22009KT 10SM CLR 30/M03 A2965 RMK AO2
     T03001028=
KHRX 212315Z AUTO 24016G24KT 10SM CLR 28/M03 A2978 RMK AO2
     T02751032=
KJTC 212315Z AUTO 26013G19KT 10SM CLR 20/M02 A3012 RMK AO2=
KLXY 212315Z AUTO 18010G21KT 10SM CLR 29/10 A2986 RMK AO2
     T02850100=
KMNZ 212315Z AUTO 20014G18KT 10SM CLR 30/05 A2986 RMK AO2
     T02960050=
KMVH 212315Z AUTO 32005KT 6SM BR BKN026 OVC038 08/06 A2959 RMK AO2
     PWINO=
KO69 212315Z AUTO 31007G12KT 8SM CLR 16/11 A2986 RMK A01=
KPYX 212315Z AUTO 22010KT 10SM CLR 28/M07 A2966 RMK AO2
     T02761068=
KTBX 212315Z AUTO 10SM CLR 14/M08 A2977 RMK AO2=
KU68 212315Z AUTO 25008KT 10SM BKN120 21/M03 A2950 RMK AO2=
KVCV 212315Z AUTO VRB06KT 180V260 10SM CLR 28/M04 A2991 RMK
     AO2=
K65S 212315Z AUTO 19006KT 6SM BR SCT022 OVC032 06/05 A2960 RMK
     AO2=
KARM 212315Z AUTO 19013G19KT 10SM SCT047 25/14 A2997 RMK AO2
     T02500136 TSNO=
KAXH 212315Z AUTO 19006G14KT 10SM CLR 25/15 A2997 RMK AO2
     T02530145=
KAZC 212315Z AUTO 31007KT 10SM CLR 23/00 A2999 RMK AO2=
KEKS 212315Z AUTO 17022G32KT 10SM FEW055 SCT065 OVC110 15/M04
     A2956 RMK AO2=
KERV 212315Z AUTO 19012KT 10SM CLR 26/09 A2994 RMK AO2
     T02610085=
KFLY 212315Z AUTO 15006KT CLR 21/M09 A2985 RMK AO2 T02071089
     PWINO=
KGYB 212315Z AUTO 21008KT 10SM CLR 28/09 A2992 RMK AO2
     T02770094=
KHHV 212315Z AUTO 15009G20KT 10SM SCT041 24/14 A2998 RMK A01=
KLNC 212315Z AUTO 17009KT 10SM CLR 29/07 A2982 RMK AO2
     T02940072=
