SAUS70 KWBC 212338
METAR
KHWY 212335Z AUTO 13003KT 10SM CLR 09/01 A3016 RMK AO2
     T00910007=
KHZE 212335Z AUTO 06004KT 10SM BKN070 OVC090 12/04 A2952 RMK
     AO2=
KI68 212335Z AUTO 19006KT 10SM CLR 16/01 A2996 RMK AO1
     T01570008=
KIDI 212335Z AUTO 00000KT 10SM BKN055 BKN065 09/02 A3007 RMK
     A01=
KINF 212335Z AUTO 00000KT 7SM CLR 15/07 A3006 RMK AO2=
KJFZ 212335Z AUTO 17003KT 10SM CLR 13/00 A3010 RMK AO2
     T01251002=
KJVW 212335Z AUTO 00000KT 10SM CLR 24/10 A2997 RMK AO2=
KJZI 212335Z AUTO 00000KT 10SM CLR 14/08 A3010 RMK AO2=
KKY8 212335Z AUTO 14004KT 10SM CLR 18/05 A2992 RMK A01=
KL08 212335Z AUTO 12006KT 10SM CLR 32/05 A2976 RMK AO2=
KL35 212335Z AUTO 00000KT 10SM CLR 16/M02 A3010 RMK AO2=
KL52 212335Z AUTO 25007KT 7SM SCT010 16/15 A2989 RMK A01=
KLBO 212335Z AUTO 17005KT 10SM CLR 22/M03 A2979 RMK AO2=
KLKR 212335Z AUTO 00000KT 10SM FEW049 FEW065 11/03 A3012 RMK
     AO2=
KLKU 212335Z AUTO 00000KT 10SM CLR 06/04 A3013 RMK AO2
     T00630037=
KLRO 212335Z AUTO 00000KT 10SM CLR 13/10 A3010 RMK AO2=
KLRU 212335Z AUTO 26017G24KT 10SM CLR 26/04 A2999 RMK AO2
     T02550042=
KLRY 212335Z AUTO 19006KT 10SM CLR 26/02 A2969 RMK AO2=
KLVL 212335Z AUTO 00000KT 10SM CLR 12/06 A3014 RMK AO1
     T01160055=
KM40 212335Z AUTO 14005KT 10SM CLR 21/12 A3000 RMK AO2=
KMAN 212335Z AUTO 00000KT 10SM CLR 20/03 A2967 RMK A01=
KMAO 212335Z AUTO 00000KT 10SM CLR 11/03 A3012 RMK AO2=
KMBO 212335Z AUTO 00000KT 10SM CLR 22/11 A2997 RMK AO2=
KMBY 212335Z AUTO 16008KT 10SM CLR 22/00 A2969 RMK AO2=
KMDS 212335Z AUTO 15004KT 10SM CLR 16/M00 A2960 RMK AO2=
KMEZ 212335Z AUTO 00000KT 10SM CLR 21/06 A2986 RMK AO2
     T02140062=
KMKJ 212335Z AUTO 00000KT 10SM CLR 08/00 A3014 RMK AO2
     T00810000=
KMNI 212335Z AUTO 00000KT 10SM CLR 10/05 A3011 RMK AO2=
KMTV 212335Z AUTO 00000KT 10SM CLR 09/02 A3015 RMK AO2
     T00870016=
KN38 212335Z AUTO 20010G16KT 10SM CLR 10/M03 A3004 RMK AO2=
KO22 212335Z AUTO 22005KT 10SM CLR 28/01 A2987 RMK A01=
KO32 212335Z AUTO 00000KT 9SM CLR 31/07 A2977 RMK AO2 T03060073
     $=
KOCQ 212335Z AUTO RMK AO1=
KOEO 212335Z AUTO 00000KT 10SM CLR 13/04 A2964 RMK AO2
     T01270044=
KOKV 212335Z AUTO 15004KT 10SM CLR 10/00 A3009 RMK AO2=
KOMH 212335Z AUTO 00000KT 10SM CLR 07/03 A3014 RMK AO2=
KONM 212335Z AUTO 16009KT 10SM CLR 24/03 A2995 RMK AO2
     T02380032=
KORS 212335Z AUTO 20005KT 5SM -RA HZ OVC043 10/ A2972 RMK AO2=
K06D 212335Z AUTO 30005KT 10SM -RA BKN022 OVC031 08/04 A2954 RMK
     AO2=
K0S9 212335Z AUTO 00000KT 4SM -RA BKN024 OVC033 09/08 A2973 RMK
     AO2=
K0VG 212335Z AUTO 00000KT 10SM CLR 11/00 A3008 RMK AO2=
K15M 212335Z AUTO 18003KT 10SM CLR 20/10 A2998 RMK AO2 T01990097
     $=
K1P1 212335Z AUTO 00000KT 10SM CLR 03/01 A3012 RMK AO2
     T00320010=
K1R7 212335Z AUTO 00000KT 10SM CLR 22/14 A3001 RMK AO2 PWINO=
K24J 212335Z AUTO 00000KT 10SM 14/03 A3007 RMK A01=
K28J 212335Z AUTO 05005KT 10SM FEW038 15/07 A3008 RMK AO2 TSNO=
K2D5 212335Z AUTO 15006KT 5SM HZ CLR 13/01 A2955 RMK AO2=
K2P2 212335Z AUTO 18003KT 10SM CLR 10/10 A2957 RMK AO2
     T01000100=
K3AU 212335Z AUTO 16006KT 10SM CLR 26/M05 A2964 RMK AO2=
K3D2 212335Z AUTO 20004KT 10SM CLR 11/08 A2958 RMK AO2
     T01090077=
K42J 212335Z AUTO 06004KT 10SM SCT033 BKN042 14/03 A3007 RMK
     A01=
K46D 212335Z AUTO 22003KT 10SM SCT110 11/02 A2956 RMK AO2=
K4A6 212335Z AUTO 17004KT 10SM FEW042 16/05 A3006 RMK AO2=
K4M9 212335Z AUTO 18008KT 10SM CLR 21/11 A2986 RMK AO2 PWINO=
K5H4 212335Z AUTO 26004KT 10SM FEW055 OVC070 10/07 A2955 RMK
     AO2=
K6B9 212335Z AUTO 17007G13KT 130V210 10SM CLR 12/M02 A3002 RMK
     AO2=
