SAUS70 KWBC 220116
METAR
K08D 220115Z AUTO 02006KT 10SM 05/05 A2956 RMK AO2=
K0E0 220115Z AUTO 28005KT 10SM CLR 14/00 A3002 RMK AO2 T01400000
     TSNO=
KBEA 220115Z AUTO 15008KT 10SM CLR 21/14 A2996 RMK AO2 T02090135
     PWINO=
KCQW 220115Z AUTO 00000KT 10SM CLR 09/03 A3013 RMK AO2 PWINO=
KD55 220115Z AUTO 30007G15KT 5SM -DZ FEW024 BKN033 OVC039 08/08
     A2956 RMK AO2=
KEHO 220115Z AUTO 00000KT 10SM CLR 09/02 A3014 RMK AO2
     T00920020=
KEYF 220115Z AUTO 00000KT 10SM CLR 10/06 A3014 RMK AO2
     T01010058=
KLAL 220115Z AUTO 36005KT 10SM CLR 16/06 A3007 RMK AO2
     T01640058=
KLNL 220115Z AUTO 00000KT 10SM CLR 04/02 A2964 RMK AO2
     T00370015=
KLUM 220115Z AUTO 00000KT 10SM CLR 10/07 A2963 RMK AO2
     T01020069=
KMAW 220115Z AUTO 17006KT 10SM CLR 18/08 A2990 RMK AO1=
KRCZ 220115Z AUTO 13003KT 10SM CLR 11/02 A3014 RMK AO2
     T01120015=
KRID 220135Z AUTO 17009KT 10SM CLR 11/02 A2996 RMK AO2=
KRNV 220115Z AUTO 17009KT 10SM CLR A2993 RMK AO2 TSNO=
KRPD 220115Z AUTO 00000KT 7SM CLR 08/05 A2964 RMK AO2
     T00770050=
KSNK 220115Z AUTO 20009KT 10SM CLR 23/03 A2984 RMK AO2
     T02250027=
K2C8 220115Z AUTO 29012KT 10SM FEW015 BKN055 OVC075 12/02 A2954
     RMK AO2=
KD50 220115Z AUTO 23004KT 10SM FEW042 SCT060 SCT120 04/04 A2958
     RMK AO2=
KETB 220115Z AUTO 00000KT 10SM CLR 12/03 A2966 RMK AO2=
KFRH 220115Z AUTO 17004KT 10SM CLR 17/00 A2993 RMK AO1=
KOIC 220115Z AUTO 19004KT 10SM CLR 05/M01 A3012 RMK AO2
     T00491007=
KPBH 220115Z AUTO 00000KT 10SM CLR 05/01 A2962 RMK AO2
     T00490013=
KRRL 220115Z AUTO 00000KT 10SM CLR 08/03 A2964 RMK AO2 T00780028
     TSNO=
KUNU 220115Z AUTO 00000KT 10SM CLR 15/04 A2967 RMK AO2
     T01480043=
KVNW 220115Z AUTO 19009G14KT 10SM CLR 15/00 A2989 RMK AO2=
KY51 220115Z AUTO 21004KT 7SM CLR 18/04 A2965 RMK AO1
     T01750035=
KAQP 220113Z AUTO 19006KT 10SM 12/00 A2958 RMK AO2=
KETH 220113Z AUTO 14007KT 10SM 12/01 A2957 RMK AO=
KFOZ 220113Z AUTO 00000KT 10SM CLR 09/01 A2963 RMK AO2=
KOWA 220113Z AUTO 00000KT 10SM CLR 08/03 A2965 RMK AO2=
KXVG 220113Z AUTO 00000KT 10SM CLR 06/01 A2958 RMK AO2=
KMCX 220135Z AUTO 18007G14KT 10SM CLR 18/01 A2984 RMK AO2
     T01780014=
KMVE 220115Z AUTO 11004KT 4SM HZ CLR 11/01 A2960 RMK AO2=
KOIN 220115Z AUTO 00000KT 10SM CLR 16/M04 A2967 RMK AO1
     T01551039=
KOVL 220115Z AUTO 00000KT 7SM CLR 11/01 A2962 RMK AO2=
KPCZ 220115Z AUTO 00000KT 10SM CLR 13/03 A2964 RMK AO2
     T01250032=
KPSK 220115Z AUTO 00000KT 10SM CLR 07/01 A3014 RMK AO2
     T00700008=
KPWC 220115Z AUTO 00000KT 10SM CLR 07/02 A2963 RMK AO2=
KRCM 220115Z AUTO 16005KT 10SM CLR 20/02 A2969 RMK AO2=
KRCX 220115Z AUTO 00000KT 10SM CLR 07/04 A2965 RMK AO2
     T00650042=
KRGK 220115Z AUTO 00000KT 10SM CLR 10/03 A2962 RMK AO2=
KRHP 220115Z AUTO 00000KT 10SM CLR 04/01 A3014 RMK AO2
     T00410011=
KSGS 220115Z AUTO 00000KT 7SM CLR 12/04 A2962 RMK AO2
     T01240035=
KSHD 220115Z AUTO 00000KT 10SM CLR 05/00 A3016 RMK AO2
     T00460000=
KSRR 220115Z AUTO 14004KT 10SM 14/02 A3008 RMK AO2=
KSYM 220115Z AUTO 18006KT 10SM CLR 14/M01 A3004 RMK AO2=
KTEW 220115Z AUTO 17006KT 10SM CLR 17/03 A2978 RMK AO2
     T01700031=
KTVY 220115Z AUTO 16009KT 10SM CLR 13/M03 A2976 RMK AO2=
KUKT 220115Z AUTO 00000KT 10SM CLR 05/03 A3015 RMK A01=
KVDF 220115Z AUTO 34003KT 10SM CLR 16/10 A3008 RMK AO2=
KVVV 220115Z 14005KT 10SM 10/02 A2958 RMK AO2=
KX60 220115Z AUTO 00000KT 10SM CLR 10/06 A3010 RMK AO2 LTG DSNT E
     T01040056=
KXSA 220115Z AUTO 00000KT 10SM CLR 11/06 A3017 RMK AO2
     T01110055=
KY63 220115Z AUTO 13005KT 10SM CLR 12/01 A2957 RMK AO2
     T01190005=
