SAUS80 KWBC 212340
METAR
K9MN 212335Z AUTO 00000KT 10SM CLR 18/02 A2963 RMK AO1
     T01820022=
KCTY 212335Z AUTO 00000KT 10SM CLR 14/05 A3007 RMK AO2
     T01400046=
KEHA 212335Z AUTO 00000KT 10SM CLR 27/M08 A2972 RMK AO2
     T02751084=
K40U 212335Z AUTO 25004KT 10SM CLR 20/M09 A2982 RMK AO2
     T01961088=
K48A 212335Z AUTO 00000KT 10SM CLR 13/03 A3010 RMK AO2
     T01280029=
K4BM 212335Z AUTO 21005KT 10SM CLR 08/M16 A3014 RMK AO2=
KSOW 212335Z AUTO 23015G22KT 10SM CLR 19/M00 A3010 RMK AO2=
KSYN 212335Z AUTO 00000KT 7SM CLR 14/02 A2962 RMK AO2
     T01390015=
KTKC 212335Z AUTO 00000KT 10SM 15/00 A2962 RMK AO2 T01461003=
KTKV 212335Z AUTO 00000KT 10SM CLR 13/03 A2960 RMK AO2 T01260030
     PWINO=
KVTI 212335Z AUTO 00000KT 7SM CLR 22/00 A2961 RMK AO2
     T02161004=
KRFI 212335Z AUTO 18003KT 10SM CLR 27/06 A2989 RMK AO2
     T02740056=
KRLD 212335Z AUTO 15005KT 10SM UP SCT060 BKN070 OVC085 11/07 A2969
     RMK AO2 P0002 T01060074=
KS39 212335Z AUTO 25011G17KT 9SM SCT042 OVC055 16/07 A2969 RMK
     AO2=
KSEP 212335Z AUTO 19007KT 10SM CLR 29/03 A2985 RMK AO2
     T02920026=
KCIR 212335Z AUTO 22005KT 10SM CLR 22/08 A2987 RMK AO2
     T02160084=
KEDU 212340Z AUTO 16006KT 10SM CLR 25/10 A2976 RMK AO1=
K9MN 212335Z AUTO 00000KT 10SM CLR 18/02 A2963 RMK AO1
     T01820022=
K40U 212335Z AUTO 25004KT 10SM CLR 20/M09 A2982 RMK AO2
     T01961088=
K4BM 212335Z AUTO 21005KT 10SM CLR 08/M16 A3014 RMK AO2=
KGNG 212335Z AUTO 29010KT 10SM CLR 19/02 A2972 RMK AO2=
KMKN 212335Z AUTO 19011G17KT 10SM CLR 29/06 A2984 RMK AO2
     T02940059=
KAYS 212335Z AUTO 00000KT 10SM CLR 13/07 A3009 RMK AO2
     T01330070=
KCKP 212335Z AUTO 10006KT 10SM CLR 16/00 A2960 RMK AO2
     T01600002=
KDBN 212335Z AUTO 00000KT 10SM CLR 10/07 A3012 RMK AO2=
KIZA 212335Z AUTO 27010KT 10SM CLR 22/12 A2986 RMK AO2=
KPSN 212335Z AUTO 18006KT 10SM CLR 27/09 A2986 RMK AO2=
KSOA 212335Z AUTO 10SM 26/06 A2995 RMK AO2=
