SAUS70 KWBC 212336 RRB
METAR
KHAE 212335Z AUTO 16006KT 10SM CLR 23/00 A2970 RMK AO2=
KHCO 212335Z AUTO 25007KT 10SM OVC110 14/00 A2950 RMK AO2=
KHSP 212335Z AUTO 17006KT 10SM CLR 09/M03 A3014 RMK AO2
     T00901026=
KHZL 212335Z AUTO 00000KT 10SM CLR 07/M01 A3014 RMK AO2=
KI69 212335Z AUTO 17004KT 10SM CLR 17/00 A2998 RMK AO2
     T01710001=
KJFX 212335Z AUTO 00000KT 10SM CLR 15/13 A3003 RMK AO2=
K10G 212335Z AUTO 17005KT 10SM CLR 15/M02 A2998 RMK AO2=
