SAUS80 KWBC 212314
METAR
KGNT 212315Z AUTO 26014G18KT 10SM CLR 20/01 A3009 RMK AO2
     T01950005=
KSVE 212315Z AUTO 25014G22KT 10SM CLR 23/M02 A2986 RMK AO2=
