SAUS70 KWBC 220144 RRA
METAR
KRGA 220138Z AUTO 00000KT 10SM CLR 14/02 A3004 RMK AO2=
KSLR 220130Z AUTO 18009KT 10SM CLR 24/10 A2988 RMK AO2
     T02410097=
KTOC 220135Z AUTO 00000KT 10SM CLR 08/03 A3014 RMK AO2
     T00800032=
KTXW 220130Z AUTO 14010KT 10SM CLR 24/17 A2998 RMK AO2
     T02410166=
KTZR 220135Z AUTO 17006KT 10SM CLR 11/01 A2999 RMK AO2
     T01080005=
KULS 220135Z AUTO 23004KT 10SM CLR 18/M08 A2964 RMK AO2=
KW99 220140Z AUTO 00000KT 10SM CLR 05/02 A3013 RMK AO2=
KWWR 220130Z AUTO 17013G18KT 10SM CLR 23/M01 A2967 RMK AO2=
KOAR 220135Z AUTO 30005KT 7SM OVC011 03/00 A2988 RMK AO2 PWINO=
KOSC 220135Z AUTO 21009KT 10SM CLR 15/05 A2970 RMK AO2
     T01490050=
K2W6 220139Z AUTO 00000KT 10SM CLR 08/06 A3018 RMK AO1=
KBUU 220135Z AUTO 20005KT 10SM CLR 15/05 A2969 RMK AO2 T01540045
     PWINO=
KCGE 220135Z AUTO 00000KT 10SM CLR 08/06 A3017 RMK A01=
KDCY 220135Z AUTO 17008KT 10SM CLR 14/02 A2991 RMK AO2
     T01430024=
KDMW 220135Z AUTO 17006KT 10SM CLR 12/01 A3015 RMK AO2=
KEBS 220135Z AUTO 07005KT 7SM CLR 10/M00 A2961 RMK AO2=
KFME 220139Z AUTO 00000KT 10SM CLR 04/03 A3019 RMK AO1=
KFXY 220135Z AUTO 00000KT 10SM CLR 05/01 A2964 RMK AO2=
KIIB 220135Z AUTO 12005KT 2 1/2SM HZ CLR 09/02 A2965 RMK AO2
     T00880015=
KIJX 220135Z AUTO 16011G15KT CLR 19/03 A2975 RMK AO2 T01940027=
KLOT 220135Z AUTO 18011G17KT 10SM CLR 19/04 A2976 RMK AO2=
KMLE 220135Z AUTO 00000KT 10SM CLR 12/03 A2958 RMK AO2
     T01190028=
KMQB 220135Z AUTO 18013KT 10SM CLR 18/02 A2970 RMK AO2
     T01780015=
KSDA 220135Z AUTO 00000KT 8SM CLR 12/02 A2958 RMK AO2=
KSHL 220135Z AUTO 07007KT 9SM CLR 10/00 A2959 RMK AO2=
KSLB 220135Z AUTO 08007KT 9SM CLR 13/00 A2961 RMK AO2=
KTAZ 220135Z AUTO 17011G15KT 10SM CLR 18/04 A2980 RMK AO2
     T01750040=
KTIF 220135Z AUTO 17011KT 10SM CLR 18/M02 A2958 RMK AO2
     T01751020=
KTIP 220135Z AUTO 19008KT 10SM CLR 16/03 A2982 RMK AO2
     T01630027=
KTZR 220135Z AUTO 17006KT 10SM CLR 11/01 A2999 RMK AO2
     T01080005=
KUMP 220135Z AUTO 17006KT 10SM CLR 16/03 A2991 RMK AO2
     T01610030=
KVES 220135Z AUTO 19006KT 10SM CLR 13/M02 A2994 RMK AO2=
KW22 220135Z AUTO 00000KT 10SM BKN049 07/M00 A3007 RMK AO2=
KW99 220140Z AUTO 00000KT 10SM CLR 05/02 A3013 RMK AO2=
KBYL 220135Z AUTO 14005KT 10SM CLR 12/00 A3007 RMK AO1=
KUKF 220135Z AUTO 00000KT 10SM CLR 06/01 A3020 RMK AO2=
KUYF 220135Z AUTO 19009KT 10SM CLR 09/M01 A2998 RMK AO2=
