SAUS70 KWBC 220000 RRT
METAR
KTTS 212355Z AUTO 35005KT 10SM FEW070 18/13 A3001 RMK AO2 SLP167
     T01810127 10242 20181 53003 $=
K46D 212355Z AUTO 24003KT 10SM FEW110 11/02 A2956 RMK AO2=
K96D 212355Z AUTO VRB05KT 10SM FEW060 BKN070 OVC080 12/02 A2951
     RMK AO2=
KAIG 212355Z AUTO 22006KT 10SM CLR 10/03 A2962 RMK AO2 T00980030
     10181 20095=
KANQ 212355Z AUTO 19008KT 10SM SCT040 BKN048 BKN060 17/03 A2981
     RMK AO2=
KD60 212355Z AUTO 05005KT 10SM FEW008 OVC044 05/05 A2956 RMK
     AO2=
KHZL 212355Z AUTO 00000KT 10SM CLR 08/M01 A3014 RMK AO2=
KLJF 212355Z AUTO 00000KT 10SM CLR 12/01 A2962 RMK AO2=
KMFI 212354Z AUTO 27004KT 10SM CLR 12/03 A2962 RMK AO2 SLP037
     T01220028 10206 20111 53019=
KMGN 212355Z AUTO 00000KT 10SM CLR 13/07 A2961 RMK AO2
     T01410070=
KPHL 212354Z 19007KT 10SM CLR 14/03 A3015 RMK AO2 SLP208 T01390028
     10183 20139 53010=
KPSF 212354Z AUTO 00000KT 10SM CLR 06/M01 A3010 RMK AO2 SLP197
     T00611006 10139 20056 51010=
KRDG 212354Z 19004KT 10SM CLR 12/01 A3012 RMK AO2 SLP206 T01220006
     10178 20122 53008=
KRYV 212355Z AUTO 19003KT 10SM CLR 17/02 A2963 RMK AO2 T01710020
     10245 20170=
KRZL 212355Z AUTO 18008KT 10SM CLR 18/02 A2980 RMK AO2=
KVAY 212354Z AUTO VRB03KT 10SM CLR 11/03 A3015 RMK AO2 SLP209
     T01060028 10189 20100 53012=
K4I3 212355Z AUTO 16006KT 10SM CLR 13/01 A2998 RMK AO2=
KAIT 212355Z AUTO 00000KT 10SM CLR 06/01 A2958 RMK AO2=
KAKR 212354Z AUTO 18008KT 10SM CLR 15/M01 A2997 RMK AO2 SLP149
     T01501011 10200 20144 53014=
KAMN 212355Z AUTO 17008KT 10SM CLR 16/04 A2971 RMK AO2 T01570035
     10207 20156=
KAUW 212354Z AUTO 24005KT 10SM CLR 15/03 A2960 RMK AO2 SLP032
     T01500028 10200 20144 53020 $=
KBAC 212355Z AUTO 00000KT 9SM FEW095 12/01 A2955 RMK AO2=
KDEC 212354Z 18012KT 10SM CLR 20/04 A2979 RMK AO2 SLP088 T02000039
     10256 20200 53004=
KDRM 212355Z AUTO 00000KT 10SM CLR 09/05 A2961 RMK AO2 T00940053
     10138 20094=
KDYT 212355Z AUTO 28006KT 10SM FEW043 FEW050 13/04 A2957 RMK
     AO2=
KPTW 212354Z AUTO 00000KT 10SM CLR 08/02 A3015 RMK AO2 SLP207
     T00780022 10167 20078 53008=
KRNH 212355Z AUTO 00000KT 10SM CLR 11/05 A2963 RMK AO2 T01110051
     10196 20105=
KRZN 212355Z AUTO 00000KT 10SM CLR 10/02 A2961 RMK AO2 T01020015
     10187 20101=
KSPF 212355Z AUTO 21004KT 10SM CLR 15/M03 A2952 RMK AO2=
KTME 212355Z AUTO 19011KT 10SM CLR 25/15 A2996 RMK AO2=
KXIF 212355Z AUTO 00000KT 10SM CLR 09/00 A3010 RMK AO2 SLP202
     T00850000 10173 20083 52008 $=
KY19 212355Z AUTO 05006KT 10SM FEW110 11/03 A2951 RMK AO2=
KBLH 212352Z AUTO 15005KT 10SM CLR 32/08 A2975 RMK AO2 SLP069
     T03220078 10328 20267 56019 TSNO=
KMYV 212353Z AUTO 17012KT 10SM CLR 28/07 A2975 RMK AO2 SLP076
     T02780072 10300 20233 56018=
KTAD 212354Z AUTO 14003KT 10SM CLR 22/M11 A2979 RMK AO2 SLP029
     T02221106 10256 20211 58015=
K7L2 212355Z AUTO 13006KT 8SM FEW120 14/M00 A2951 RMK AO2=
K9D7 212355Z AUTO 30007KT 10SM OVC070 10/02 A2956 RMK AO2 TSNO=
KBWP 212355Z AUTO 16004KT 9SM CLR 13/M01 A2955 RMK AO2=
KBWW 212355Z AUTO 35017KT 10SM CLR 14/01 A2951 RMK AO2=
KCKZ 212355Z AUTO 00000KT 10SM CLR 07/02 A3014 RMK AO2=
KGHW 212355Z AUTO 00000KT 10SM CLR 13/00 A2961 RMK AO2=
KILN 212354Z AUTO 18006KT 10SM CLR 14/00 A2997 RMK AO2 SLP158
     T01440000 10217 20144 53010=
KISW 212354Z AUTO 24003KT 10SM CLR 14/03 A2963 RMK AO2 SLP038
     T01390033 10217 20128 53018=
KLDM 212355Z AUTO 20016G29KT 10SM CLR 18/04 A2964 RMK AO2
     T01830044 10192 20175=
KLNK 212354Z 00000KT 10SM CLR 17/01 A2959 RMK AO2 SLP018 T01670011
     10261 20167 55004=
