SAUS70 KWBC 220042 RRD
METAR
KPLU 220035Z AUTO 00000KT 4SM -RA OVC027 09/09 A2972 RMK AO2=
KPOY 220035Z AUTO 26012KT 10SM CLR 17/M06 A2951 RMK AO2=
KRCV 220035Z AUTO 26013KT 10SM CLR 13/M05 A2999 RMK AO2
     T01301052=
KT35 220035Z AUTO 17006KT 10SM CLR 25/10 A2990 RMK AO2
     T02480098=
KT74 220035Z AUTO 18006KT 10SM CLR 23/10 A2990 RMK AO2
     T02310099=
KVHN 220035Z AUTO 26007KT 10SM CLR 23/07 A3000 RMK AO2
     T02310066=
KVTP 220035Z AUTO 24014G23KT 10SM CLR 07/M11 A3006 RMK AO2=
K2W6 220039Z AUTO 00000KT 10SM CLR 09/07 A3017 RMK AO1=
KCGE 220035Z AUTO 00000KT 10SM CLR 07/06 A3016 RMK A01=
KDMW 220035Z AUTO 15005KT 10SM CLR 13/00 A3013 RMK AO2=
KFME 220039Z AUTO 00000KT 10SM CLR 05/04 A3017 RMK AO1=
KEDC 220035Z AUTO 19005KT 10SM CLR 24/08 A2990 RMK AO2=
KGLE 220035Z AUTO 17008KT 10SM CLR 24/06 A2980 RMK AO2
     T02380059=
KK62 220035Z AUTO 18006KT 10SM CLR 14/00 A2998 RMK AO2=
