SAUS70 KWBC 220100 RRL
METAR
KDKK 220053Z AUTO 19014G29KT 10SM CLR 15/M01 A2994 RMK AO2 PK WND
     17029/0048 SLP140 T01501011=
KDLN 220053Z AUTO 29022G32KT 10SM OVC100 12/M01 A2956 RMK AO2 PK
     WND 28036/0034 SLP984 T01221006=
KDLS 220053Z AUTO 20003KT 8SM -RA SCT055 OVC070 11/07 A2969 RMK
     AO2 SLP055 P0005 T01060072=
KDNL 220053Z AUTO 00000KT 10SM CLR 15/M01 A3013 RMK AO2 SLP200
     T01501006=
KDTW 220053Z 17009KT 10SM FEW250 14/03 A2984 RMK AO2 SLP106
     T01440028=
KDVT 220053Z 22006KT 10SM CLR 28/08 A2981 RMK AO2 SLP075
     T02780078=
KEDE 220055Z AUTO 00000KT 10SM BKN060 12/11 A3017 RMK AO2
     T01240107=
KEET 220053Z AUTO 15004KT 10SM CLR 16/06 A3008 RMK AO2 SLP185
     T01560056=
KELM 220053Z 31004KT 10SM CLR 04/M01 A3006 RMK AO2 SLP189
     T00391011=
KPKD 220053Z AUTO 18004KT 10SM CLR 11/00 A2957 RMK AO2 SLP023
     T01060000=
KPMD 220053Z 22014KT 10SM CLR 24/08 A2986 RMK AO2 SLP092
     T02440083=
KPMP 220053Z 34010KT 10SM FEW085 23/17 A2997 RMK AO2 SLP149
     T02330172=
KPOU 220053Z AUTO 00000KT 10SM CLR 05/02 A3013 RMK AO2 SLP202
     T00500017=
KPRB 220053Z AUTO 19017KT 10SM CLR 20/09 A2986 RMK AO2 SLP107
     T02000094=
KPRC 220053Z 23008KT 10SM CLR 17/04 A3000 RMK AO2 SLP109
     T01720044=
KPSC 220053Z 21007KT 8SM RA OVC060 10/08 A2968 RMK AO2 SLP050
     P0005 T01000078=
KPSK 220055Z AUTO 00000KT 10SM CLR 08/01 A3014 RMK AO2
     T00830011=
KPSP 220053Z 11006KT 10SM CLR 32/07 A2976 RMK AO2 SLP073
     T03170067=
KPTK 220053Z 18006KT 10SM FEW230 16/03 A2981 RMK AO2 SLP098
     T01560028=
KPUC 220053Z AUTO 08004KT 10SM CLR 16/M05 A2987 RMK AO2 SLP093
     T01611050=
KPUW 220053Z AUTO 18004KT 4SM RA BR SCT018 BKN024 OVC030 06/05
     A2969 RMK AO2 SLP057 P0006 T00560050=
KRAL 220053Z 26007KT 10SM CLR 24/13 A2983 RMK AO2 SLP086
     T02440133=
KRBG 220053Z AUTO 19004KT 10SM FEW029 SCT041 OVC100 17/12 A2978
     RMK AO2 PRESFR SLP084 T01720122=
KRCM 220055Z AUTO 16005KT 10SM CLR 21/02 A2968 RMK AO2=
KRCX 220055Z AUTO 00000KT 10SM CLR 07/04 A2964 RMK AO2
     T00710043=
KRDD 220053Z 16005KT 10SM CLR 26/06 A2972 RMK AO2 SLP060
     T02610061=
KRHI 220053Z AUTO 26003KT 10SM CLR 06/01 A2965 RMK AO2 SLP048
     T00560011=
KRHP 220055Z AUTO 00000KT 10SM CLR 04/01 A3013 RMK AO2
     T00430010=
KRNT 220053Z 13003KT 7SM -RA FEW012 BKN023 OVC038 10/08 A2971 RMK
     AO2 SLP066 P0002 T01000078=
KRSW 220053Z AUTO 01007KT 10SM FU SCT070 22/12 A3002 RMK AO2
     SLP162 T02170122=
KRUE 220053Z AUTO 11003KT 10SM CLR 18/08 A2984 RMK AO2 SLP099
     T01830078=
KRWF 220053Z AUTO 00000KT 10SM CLR 13/01 A2961 RMK AO2 SLP030
     T01330011=
KRWI 220053Z AUTO 00000KT 10SM CLR 08/04 A3015 RMK AO2 SLP210
     T00830039=
KRXE 220053Z AUTO 21018G25KT 10SM CLR 17/M03 A2962 RMK AO2 PK WND
     21039/0022 SLP001 T01721033=
KSAC 220053Z 18007KT 10SM CLR 21/12 A2976 RMK AO2 SLP076
     T02060117=
KSEG 220053Z AUTO 00000KT 10SM CLR 03/01 A3012 RMK AO2 SLP202
     T00280011=
KSFF 220053Z VRB03KT 10SM FEW047 OVC055 06/04 A2966 RMK AO2 SLP045
     T00560039=
KMSP 220053Z 00000KT 10SM SCT160 BKN190 BKN250 14/02 A2963 RMK AO2
     SLP033 T01390017=
KMTH 220053Z AUTO 35008KT 10SM FEW040 24/19 A2997 RMK AO2 SLP147
     T02440189=
KMYF 220053Z 21007KT 10SM CLR 20/16 A2986 RMK AO2 SLP106
     T02000161=
KMYV 220053Z AUTO 16009KT 10SM CLR 26/04 A2972 RMK AO2 SLP068
     T02560044 $=
KOAK 220053Z 28013KT 10SM FEW010 FEW140 BKN180 BKN240 16/12 A2985
     RMK AO2 PK WND 30028/0039 SLP109 T01560117=
KOGD 220053Z 18007KT 10SM CLR 19/M07 A2975 RMK AO2 SLP038
     T01891067=
