SAUS70 KWBC 220134
METAR
K2C8 220135Z AUTO 29008G15KT 10SM SCT030 BKN046 OVC060 12/04 A2955
     RMK AO2=
KCLK 220135Z AUTO 19010KT 10SM CLR 23/00 A2970 RMK AO2=
KD50 220135Z AUTO 21004KT 10SM FEW050 FEW120 04/03 A2958 RMK
     AO2=
KFRR 220135Z AUTO 00000KT 10SM CLR 07/01 A3012 RMK AO1=
KLQK 220135Z AUTO 10SM CLR 06/03 A3014 RMK AO2 T00570025=
KSPA 220135Z AUTO 00000KT 10SM CLR 07/01 A3013 RMK AO2=
KY51 220135Z AUTO 19004KT 10SM CLR 18/04 A2965 RMK AO1
     T01770035=
K2J9 220135Z AUTO 00000KT 10SM FEW028 BKN034 BKN065 09/07 A3013
     RMK AO2=
K4R5 220135Z AUTO 00000KT 10SM CLR 04/03 A2958 RMK AO2
     T00380029=
K8W2 220135Z AUTO 00000KT 10SM CLR 05/00 A3014 RMK AO1
     T00460002=
KARV 220135Z AUTO 00000KT 10SM CLR 06/02 A2962 RMK AO2
     T00550020=
KCCA 220135Z AUTO 00000KT 10SM CLR 13/10 A2988 RMK AO2=
KCDH 220135Z AUTO 00000KT 10SM CLR 16/14 A2989 RMK AO2=
KCPK 220135Z AUTO 00000KT 07/06 A3017 RMK AO2 T00670055=
KFDW 220135Z AUTO 00000KT 10SM CLR 10/02 A3014 RMK AO1=
KHFY 220135Z AUTO 16006KT 10SM CLR 15/03 A2992 RMK AO2
     T01540032=
KIUA 220135Z AUTO 18007KT 10SM CLR 12/M01 A2999 RMK AO2
     T01171013=
KIXA 220135Z AUTO 00000KT 10SM CLR 05/05 A3016 RMK AO2=
KJAQ 220135Z AUTO 26004KT 10SM CLR 23/08 A2983 RMK AO1
     T02280081=
KJHN 220135Z AUTO 00000KT 10SM CLR 20/M08 A2967 RMK AO2
     T02001078=
KLDJ 220135Z AUTO 00000KT 10SM CLR 12/03 A3017 RMK AO2
     T01180026=
KMDZ 220135Z AUTO 17003KT 10SM CLR 07/04 A2965 RMK AO2 T00650039
     PWINO=
KMHL 220135Z AUTO 16006KT 10SM CLR 18/02 A2970 RMK AO2=
KMRJ 220135Z AUTO 16003KT 10SM CLR 17/00 A2966 RMK AO2=
KRAW 220135Z AUTO 18005KT 10SM CLR 20/01 A2974 RMK AO2=
KVER 220135Z AUTO 15006KT 10SM CLR 19/05 A2972 RMK AO2
     T01880045=
