SAUS70 KWBC 212318 RRH
METAR
KLNQ 212315Z AUTO 00000KT 10SM CLR 22/10 A3009 RMK AO2
     T02160103=
KLUG 212315Z AUTO 16004KT 10SM CLR 18/06 A2999 RMK A01=
KLXY 212315Z AUTO 18010G21KT 10SM CLR 29/10 A2986 RMK AO2
     T02850100=
KLYO 212315Z AUTO 18009KT 10SM CLR 27/00 A2961 RMK AO2
     T02681003=
KM02 212315Z AUTO 17005KT 9SM 21/07 A2994 RMK A01=
KM04 212315Z AUTO 18005KT 10SM CLR 23/09 A2989 RMK A01=
KM08 212315Z AUTO 15006KT 10SM CLR 21/10 A2992 RMK A01=
KM30 212315Z AUTO 17004KT 10SM CLR 23/07 A2988 RMK AO2
     T02260065=
KM54 212310Z AUTO 16004KT 10SM CLR 19/01 A2997 RMK A01=
KM75 212315Z AUTO 08005KT 10SM OVC029 08/04 A2954 RMK A01=
KM91 212315Z AUTO 15005KT 10SM CLR 19/04 A2995 RMK A01=
KMBT 212315Z AUTO 17006KT 10SM CLR 19/02 A2998 RMK A01=
KMEV 212315Z AUTO 26011G22KT 10SM CLR 23/M06 A2992 RMK AO2=
KMHV 212320Z AUTO 28011KT 10SM CLR 29/M02 A2987 RMK A01=
KMIO 212315Z AUTO 17010KT 10SM CLR 26/04 A2971 RMK AO2=
KMMI 212315Z AUTO 00000KT 10SM CLR 14/01 A3008 RMK A01=
KMNE 212315Z AUTO 17004KT 10SM CLR 27/14 A2990 RMK AO2
     T02650137=
KMNV 212315Z AUTO 00000KT 10SM 14/01 A3005 RMK A01=
KMNZ 212315Z AUTO 20014G18KT 10SM CLR 30/05 A2986 RMK AO2
     T02960050=
KMOR 212315Z AUTO 00000KT 10SM CLR 15/M00 A3005 RMK A01=
KMRC 212310Z AUTO 15004KT 10SM CLR 20/07 A2996 RMK A01=
KMUT 212315Z AUTO 19006KT 10SM CLR 22/02 A2963 RMK AO2=
KMVH 212315Z AUTO 32005KT 6SM BR BKN026 OVC038 08/06 A2959 RMK AO2
     PWINO=
KO69 212315Z AUTO 31007G12KT 8SM CLR 16/11 A2986 RMK A01=
KOJA 212315Z AUTO 19014G19KT 10SM CLR 29/02 A2969 RMK AO2
     T02940025=
KONA 212315Z AUTO 00000KT 10SM CLR 15/03 A2961 RMK AO2=
KOXI 212315Z AUTO 19011KT 10SM CLR 18/02 A2976 RMK AO1=
KOXV 212315Z AUTO 24004KT 8SM CLR 25/01 A2959 RMK AO2=
KP08 212315Z AUTO 34007KT 10SM CLR 31/11 A2982 RMK AO2=
KPCW 212315Z AUTO 20010KT 10SM CLR 18/02 A2985 RMK AO2=
KPEX 212315Z AUTO 00000KT 10SM CLR 13/01 A2962 RMK AO2=
KPHT 212315Z AUTO 17006KT 10SM CLR 20/09 A2991 RMK A01=
KPKV 212315Z AUTO 18011G16KT 10SM SCT045 26/15 A2997 RMK AO2
     T02630150=
KPRO 212315Z AUTO 20006KT 10SM CLR 20/M01 A2960 RMK AO2
     T01981010=
KPRS 212315Z AUTO 00000KT 10SM CLR 29/11 A2996 RMK AO2
     T02890111=
KPTD 212315Z AUTO 17008KT 10SM FEW032 BKN042 OVC048 12/M02 A2996
     RMK AO2=
KPUJ 212315Z AUTO 00000KT 7SM CLR 14/02 A3009 RMK AO2=
KPVJ 212315Z AUTO 18005KT 10SM CLR 30/02 A2973 RMK AO2
     T02970024=
KPYX 212315Z AUTO 22010KT 10SM CLR 28/M07 A2966 RMK AO2
     T02761068=
KRKR 212315Z AUTO 17008KT 10SM CLR 27/03 A2979 RMK AO2=
KRMY 212315Z AUTO 17005KT 10SM CLR 18/04 A2976 RMK AO2
     T01770038=
KRNC 212315Z AUTO 00000KT 10SM CLR 17/01 A3002 RMK A01=
KRSN 212315Z AUTO 19006KT 10SM CLR 26/11 A2995 RMK AO2
     T02580108=
KRTS 212315Z AUTO 24016G23KT 10SM CLR 23/M07 A2991 RMK AO2=
KRZR 212315Z AUTO 00000KT 10SM CLR 13/02 A3005 RMK A01=
KSAR 212315Z AUTO 17006KT 10SM CLR 22/06 A2983 RMK AO2
     T02160056=
KSCD 212315Z AUTO 16003KT 10SM CLR 18/06 A3007 RMK AO2
     T01820056=
KSCX 212315Z AUTO 21005G10KT 10SM CLR 14/M01 A3005 RMK A01=
KSEM 212315Z AUTO 14004KT 10SM CLR 17/11 A3005 RMK AO2=
KSEZ 212315Z AUTO 23004KT 10SM 23/05 A3000 RMK AO2=
KSLO 212315Z AUTO 17006KT 10SM CLR 22/03 A2984 RMK AO2
     T02170028=
KSNH 212310Z AUTO 18005KT 10SM CLR 22/10 A2994 RMK A01=
KSRB 212315Z AUTO 17004KT 10SM CLR 17/01 A3002 RMK A01=
KSRE 212315Z AUTO 10SM CLR 30/M00 A2974 RMK AO2=
KSWW 212315Z AUTO 23009G20KT 10SM CLR 29/02 A2986 RMK AO2
     T02850022=
KSYF 212315Z AUTO 16006KT 10SM CLR 23/M06 A2967 RMK AO2 T02271056
     PWINO=
KSYI 212315Z AUTO 15005KT 10SM CLR 18/03 A3001 RMK A01=
