SAUS80 KWBC 220200 RRD
METAR
KP60 220156Z AUTO 27009G23KT 180V320 08/M05 A2967 RMK AO1 PK WND
     22035/0058 PRESFR SLP004 T00831050=
KSPD 220156Z AUTO 00000KT 12/M09 A2972 RMK AO1 SLP023
     T01221089=
K2WX 220156Z AUTO 02014KT 13/03 A2950 RMK AO1 PK WND 36030/0110
     SLP991 T01330033=
