SAZS31 NSTU 220003
MTRPPG
METAR NSTU 212352Z 11011KT 12SM SCT021 BKN100 BKN220 31/26 A2985 RMK
 SLP110 8/178 T03110258 10311 20273 57017=