SAUS70 KWBC 220100 RRT
METAR
K11R 220055Z AUTO 18007KT 10SM CLR 25/14 A2995 RMK AO2 LTG DSNT SE
     T02490138=
K20V 220055Z AUTO 25012G18KT 10SM CLR 12/M08 A2993 RMK AO2=
K6S8 220055Z AUTO 09014KT 10SM 11/04 A2954 RMK A01 LAUREL=
KC07 220055Z AUTO 26006G18KT 10SM CLR 05/M08 A3007 RMK AO2=
KCFD 220055Z AUTO 17006KT 10SM CLR 25/11 A2994 RMK AO2
     T02450107=
KE42 220055Z AUTO 19010KT 10SM CLR 20/M03 A2968 RMK AO2
     T02021033=
KEBG 220055Z AUTO 14009KT 10SM CLR 24/17 A2996 RMK AO2 T02430167
     PWINO=
KF00 220055Z AUTO 16008KT 10SM CLR 23/08 A2982 RMK AO2
     T02310083=
KGNB 220055Z AUTO 25010G17KT 10SM CLR 11/M11 A2997 RMK AO2
     T01121114=
KGNC 220055Z AUTO 21005KT 10SM CLR 22/04 A2991 RMK AO2
     T02160044=
KHEQ 220055Z AUTO 20003KT 10SM CLR 13/M06 A2964 RMK AO2=
KHVE 220055Z AUTO 20007KT 10SM CLR 21/M05 A2983 RMK AO2=
KJDD 220055Z AUTO 17005KT 10SM CLR 23/11 A2987 RMK AO2=
KLHB 220055Z AUTO 16005KT 10SM CLR 24/10 A2992 RMK AO2
     T02400103=
KLHM 220055Z AUTO 16007KT 10SM CLR 25/07 A2972 RMK AO1=
KMDD 220055Z AUTO 18007KT 10SM CLR 22/07 A2987 RMK AO2
     T02240075=
KMNH 220055Z AUTO 32004KT 10SM CLR 11/M13 A2986 RMK AO2=
KOZA 220055Z AUTO 19007KT 10SM CLR 22/06 A2994 RMK AO2=
KRKS 220054Z AUTO 28016G26KT 10SM CLR 13/M09 A2982 RMK AO2 PK WND
     27034/0008 SLP056 T01331094=
KBCK 220055Z AUTO 00000KT 10SM CLR 05/02 A2963 RMK AO2
     T00500019=
KBJJ 220056Z AUTO 19009KT 10SM CLR 11/01 A2998 RMK AO2 SLP157
     T01110011=
KBVN 220055Z AUTO 00000KT 10SM CLR 13/M01 A2961 RMK AO2
     T01321015=
KC35 220055Z AUTO 00000KT 10SM CLR 12/04 A2965 RMK AO2 T01180035
     PWINO=
KCFS 220055Z AUTO 19010G15KT 10SM CLR 17/03 A2974 RMK AO2
     T01740025=
KDCY 220055Z AUTO 17008KT 10SM CLR 14/02 A2990 RMK AO2
     T01440021=
KEBS 220055Z AUTO 10006KT 6SM HZ CLR 13/01 A2961 RMK AO2=
KELZ 220056Z AUTO 18009KT 10SM CLR 12/M02 A3004 RMK AO2 SLP180
     T01171022=
KFET 220055Z AUTO 00000KT 10SM CLR 14/02 A2959 RMK AO2
     T01440023=
KFOA 220055Z AUTO 16007KT 10SM CLR 14/03 A2987 RMK AO2=
KFSW 220055Z AUTO 18007KT 10SM OVC001 21/04 A2966 RMK AO2=
KFWC 220055Z AUTO 16004KT CLR 17/02 A2987 RMK AO1 T01650022
     PWINO=
KGDB 220055Z AUTO 07004KT 10SM CLR 14/02 A2962 RMK AO2
     T01350015=
KGPC 220055Z AUTO 17008KT 10SM CLR 14/02 A2989 RMK AO2
     T01370015=
KGRN 220055Z AUTO 18007KT 10SM CLR 14/M08 A2952 RMK AO2
     T01431080=
KGWB 220055Z AUTO 21004KT 10SM CLR 16/03 A2985 RMK AO2=
KHJH 220055Z AUTO 00000KT 10SM CLR 14/02 A2959 RMK AO2
     T01390018=
KMJQ 220055Z AUTO 09004KT 7SM CLR 10/01 A2965 RMK AO2=
KMZZ 220055Z AUTO 19009KT 10SM CLR 16/02 A2989 RMK AO2
     T01560022=
KPHN 220055Z AUTO 19005KT 10SM CLR 11/03 A2982 RMK AO2=
KTVF 220056Z AUTO 24005KT 10SM BKN085 11/00 A2955 RMK AO2 SLP014
     T01110000=
KTZR 220055Z AUTO 18005KT 10SM CLR 12/01 A2999 RMK AO2
     T01170005=
K2G2 220055Z AUTO 17004KT 10SM CLR 12/M02 A3002 RMK A01=
K33N 220055Z AUTO 00000KT 10SM FEW030 FEW044 08/06 A3015 RMK
     A01=
K3I2 220055Z AUTO 00000KT 10SM CLR 10/01 A3005 RMK AO2
     T01010013=
K3LF 220055Z AUTO 16011KT 10SM CLR 18/03 A2982 RMK AO2
     T01770031=
KANW 220055Z AUTO 15004KT 10SM CLR 13/M01 A2956 RMK AO2
     T01341012=
KBKX 220056Z AUTO 11006KT 10SM CLR RMK AO2 SLPNO FZRANO $=
KBNW 220055Z AUTO 00000KT 7SM CLR 17/00 A2964 RMK AO2=
KBTA 220055Z AUTO 10003KT 10SM CLR 20/01 A2959 RMK AO2
     T01950006=
KC29 220055Z AUTO 00000KT 10SM CLR 10/05 A2966 RMK AO1
     T00980047=
KCCY 220055Z AUTO 03004KT 8SM CLR 13/00 A2964 RMK AO2=
KDEH 220100Z AUTO 00000KT 10SM BKN018 BKN042 17/01 A2963 RMK
     AO2=
