SAUS70 KWBC 212300 RRB
METAR
KPVG 212255Z 10003KT 10SM CLR 09/07 A3014 RMK AO2 SLP301 PWINO PNO
     FZRANO RVRNO=
KPWC 212255Z AUTO 00000KT 10SM CLR 14/02 A2962 RMK AO2=
KRDG 212254Z 18004KT 10SM R36/4500VP6000FT CLR 13/00 A3010 RMK AO2
     SLP199 T01330000=
KRGK 212255Z AUTO 00000KT 10SM CLR 17/02 A2959 RMK AO2=
KRKS 212254Z AUTO 27023G38KT 10SM CLR 17/M10 A2983 RMK AO2 PK WND
     26043/2238 SLP045 T01721100=
K0E0 212255Z AUTO 26018G25KT 10SM CLR 20/M04 A3003 RMK AO2
     T02021038 TSNO=
KAQP 212253Z AUTO 00000KT 10SM SCT090 16/M01 A2960 RMK AO2=
KBEA 212255Z AUTO 14012G17KT 10SM CLR 26/13 A2993 RMK AO2
     T02620129=
KGLS 212252Z AUTO 18013KT 10SM CLR 24/16 A2999 RMK AO2 SLP155
     T02440161=
KGPM 212250Z 17012G17KT 10SM SKC 31/06 A2981=
KLAA 212253Z AUTO 16005KT 10SM CLR 27/M08 A2968 RMK AO2 SLP015
     T02721083=
KLKV 212253Z AUTO 23013G18KT 10SM CLR 18/03 A2985 RMK AO2 PK WND
     24026/2224 SLP104 T01780033=
KMWH 212252Z 21011KT 10SM FEW110 13/03 A2965 RMK AO2 SLP043
     T01280033=
KOKB 212252Z AUTO 24008KT 8SM CLR 24/18 A2984 RMK AO2 SLP103
     T02390178=
KSNK 212255Z AUTO 21014KT 10SM CLR 28/01 A2984 RMK AO2
     T02810008=
KTRM 212252Z AUTO 13007KT 10SM CLR 33/06 A2973 RMK AO2 SLP078
     T03330061=
KAVL 212254Z 00000KT 10SM CLR 13/M02 A3012 RMK AO2 SLP199
     T01331017=
KBAC 212255Z AUTO 00000KT 9SM OVC100 14/M00 A2954 RMK AO2=
KBCB 212255Z AUTO 12004KT 10SM CLR 12/00 A3014 RMK AO2
     T01190000=
KBKS 212255Z AUTO 12009KT 10SM FEW070 28/16 A2991 RMK AO2 SLP090
     T02800159 $=
KBKT 212255Z AUTO 00000KT 10SM CLR 13/04 A3012 RMK AO1
     T01290038=
KBRG 212255Z AUTO 29015G19KT 10SM CLR 24/00 A2998 RMK AO2
     T02411004=
KBRY 212255Z AUTO 18005KT 10SM FEW310 19/M00 A2995 RMK AO2
     T01941000=
KBVU 212255Z AUTO VRB06KT 10SM CLR 29/01 A2983 RMK AO2=
KBWP 212255Z AUTO 22004KT 10SM CLR 16/M00 A2956 RMK AO2=
KBWW 212255Z AUTO 23007KT 10SM BKN100 19/M00 A2948 RMK AO2=
KBXK 212255Z AUTO 00000KT 10SM CLR 30/10 A2982 RMK A01=
KC29 212255Z AUTO 24006KT 10SM CLR 21/01 A2961 RMK AO1
     T02130012=
KCDD 212253Z AUTO 00000KT 10SM CLR 12/M02 A2955 RMK AO2=
KCDN 212255Z AUTO 00000KT 10SM CLR 16/M00 A3011 RMK AO2=
KCEU 212254Z AUTO 00000KT 10SM CLR 16/00 A3010 RMK AO2 SLP192
     T01560000=
KCEY 212255Z AUTO 15007KT 10SM CLR 23/08 A2991 RMK A01=
KCFJ 212255Z AUTO 19010KT 10SM CLR 18/M01 A2984 RMK AO2
     T01831006=
KCGC 212255Z AUTO 00000KT 10SM CLR 20/02 A3005 RMK AO2=
KCJR 212255Z AUTO 00000KT 10SM CLR 11/02 A3012 RMK AO2
     T01070020=
KCKM 212255Z AUTO 17011G18KT 10SM CLR 27/10 A2990 RMK A01=
KCLS 212255Z AUTO 18006KT 9SM -RA SCT018 08/07 A2975 RMK AO2=
KCLW 212255Z AUTO 36005KT 10SM CLR 18/05 A3004 RMK AO2=
KCMR 212255Z AUTO 26008G15KT 10SM CLR 18/03 A3010 RMK AO2=
KCPT 212255Z AUTO 17012G19KT 10SM CLR 31/06 A2982 RMK A01=
KCTZ 212255Z AUTO 00000KT 10SM CLR 15/05 A3011 RMK AO2
     T01460048=
KCWF 212254Z 20013G18KT 10SM FEW030 24/14 A3000=
KD57 212255Z AUTO 09008KT 10SM FEW100 14/M01 A2948 RMK AO2=
KD60 212255Z AUTO 02008KT 10SM OVC040 06/06 A2956 RMK AO2=
KDNA 212255Z AUTO 26007G13KT 10SM CLR 27/07 A2999 RMK AO2=
KDNN 212255Z AUTO 00000KT 10SM CLR 16/02 A3007 RMK AO2
     T01560023=
KDRI 212255Z AUTO 19014KT 9SM CLR 25/16 A2997 RMK AO2 T02540156
     $=
KDSV 212254Z AUTO 16005KT 10SM CLR 14/M01 A2998 RMK AO2 SLP164
     T01391011=
KDUH 212255Z AUTO 18004KT 10SM CLR 20/00 A2982 RMK AO2
     T01960001=
KDYB 212255Z AUTO 00000KT 10SM CLR 14/07 A3009 RMK AO2=
KEKM 212255Z AUTO 20008KT 6SM HZ CLR 20/04 A2976 RMK AO2
     T02030035=
