SAUS80 KWBC 220234
METAR
KSVE 220235Z AUTO 26012G21KT 10SM CLR M01/M17 A2980 RMK AO2=
