SAUS70 KWBC 220042
METAR
K2G2 220035Z AUTO 18005KT 10SM FEW048 13/M02 A3002 RMK A01=
K33N 220035Z AUTO 25003KT 10SM FEW031 FEW044 08/06 A3015 RMK
     A01=
K3I2 220035Z AUTO 00000KT 10SM CLR 11/01 A3004 RMK AO2
     T01130007=
K3LF 220035Z AUTO 16012KT 10SM CLR 18/03 A2982 RMK AO2
     T01830030=
KANW 220035Z AUTO 14009KT 10SM CLR 15/M01 A2955 RMK AO2
     T01491006=
KAXA 220035Z AUTO 08004KT 8SM CLR 16/03 A2962 RMK A01=
KBAX 220035Z AUTO 19012G17KT 10SM CLR 14/04 A2973 RMK AO2
     T01420039=
KBBB 220036Z AUTO 19003KT 7SM CLR 09/01 A2961 RMK AO2=
KBCK 220035Z AUTO 00000KT 10SM CLR 06/02 A2964 RMK AO2
     T00560022=
KBIE 220035Z AUTO 00000KT 10SM CLR 16/01 A2958 RMK AO2
     T01550014=
KBNW 220035Z AUTO 00000KT 4SM HZ CLR 16/00 A2964 RMK AO2=
KBTA 220035Z AUTO 00000KT 10SM CLR 19/01 A2959 RMK AO2
     T01930005=
KBTN 220035Z AUTO 16006KT 6SM HZ BKN024 OVC043 12/00 A2955 RMK
     AO2=
KBVN 220035Z AUTO 00000KT 10SM CLR 14/M01 A2961 RMK AO2
     T01371015=
KC09 220035Z AUTO 19008KT 10SM CLR 19/05 A2972 RMK AO2
     T01920050=
KC65 220035Z AUTO 20009G14KT 10SM CLR 18/03 A2980 RMK A01=
KFET 220035Z AUTO 00000KT 10SM CLR 15/02 A2960 RMK AO2
     T01490021=
KFOA 220035Z AUTO 16008KT 10SM CLR 13/02 A2987 RMK AO2=
KFSW 220035Z AUTO 17008KT 10SM OVC001 22/04 A2965 RMK AO2=
KFWC 220035Z AUTO 00000KT CLR 18/02 A2987 RMK AO1 T01760017
     PWINO=
KGRN 220035Z AUTO 18006KT 10SM CLR 14/M08 A2952 RMK AO2
     T01391082=
KN03 220035Z AUTO 22003KT 10SM CLR 09/M02 A3007 RMK AO2=
KOLY 220035Z AUTO 15005KT 10SM CLR 16/01 A2988 RMK AO2
     T01620010=
KSAR 220035Z AUTO 17006KT 10SM CLR 20/07 A2985 RMK AO2
     T02000072=
KSLO 220035Z AUTO 16004KT 10SM CLR 20/03 A2985 RMK AO2
     T01960033=
KTNU 220035Z AUTO 03005KT 9SM CLR 20/01 A2962 RMK A01=
KUSE 220035Z AUTO 20009KT 10SM CLR 16/02 A2984 RMK AO2=
K0CO 220035Z AUTO 28022G33KT 10SM CLR 00/M13 A3012 RMK AO2=
K2R9 220035Z AUTO 15010KT 10SM CLR 24/15 A2995 RMK AO2
     T02360146=
K2V5 220035Z AUTO 18005KT 10SM CLR 18/M07 A2965 RMK AO2=
K33V 220035Z AUTO 24006KT 10SM CLR 10/M09 A2994 RMK AO1=
K5SM 220035Z AUTO 24011G17KT 10SM CLR 03/M12 A3014 RMK AO2=
K66R 220035Z AUTO 17008KT 10SM CLR 23/15 A2997 RMK AO2
     T02300150=
K74V 220035Z AUTO 26008KT 10SM 18/M09 A2983 RMK AO2=
K7BM 220035Z AUTO 26012G27KT 240V350 10SM CLR 10/M13 A3005 RMK
     AO2=
K81R 220035Z AUTO 18009KT 10SM CLR 25/08 A2988 RMK AO2
     T02530076=
KEBG 220035Z AUTO 14008G14KT 10SM CLR 25/16 A2995 RMK AO2
     T02490164 PWINO=
KPSO 220035Z AUTO 22007KT 10SM CLR 14/M05 A3005 RMK AO2
     T01411050=
KRAS 220035Z AUTO 16012G18KT 10SM CLR A2998 RMK AO2=
KRWV 220035Z AUTO 18006KT 10SM CLR 24/10 A2992 RMK AO2
     T02430098=
KRYW 220035Z AUTO 19009KT 10SM CLR 25/08 A2993 RMK AO2
     T02480083=
KS33 220035Z AUTO 02012KT 10SM RA SCT034 BKN041 OVC060 10/08 A2969
     RMK AO2=
KSAA 220035Z AUTO 22010G16KT 10SM CLR 12/M11 A2984 RMK AO2=
KSTK 220035Z AUTO 00000KT 10SM CLR 17/M05 A2964 RMK AO2=
KT41 220035Z AUTO 10SM CLR 23/15 A2999 RMK AO2 T02270154=
KT82 220035Z AUTO 17004KT 10SM CLR 23/08 A2994 RMK AO2
     T02260077=
KTEX 220035Z AUTO 30003KT 10SM CLR 10/M10 A3012 RMK AO2=
K65S 220035Z AUTO 21008G14KT 170V250 10SM FEW043 OVC050 04/03
     A2960 RMK AO2=
KAJZ 220035Z AUTO 22003KT 10SM CLR 20/M06 A2987 RMK AO2 T02011058
     PWINO=
KAQO 220035Z AUTO 18007KT 10SM CLR 25/07 A2989 RMK AO2=
KASL 220035Z AUTO 00000KT 10SM CLR 22/12 A2987 RMK AO2 T02170116
     TSNO $=
KAUN 220035Z AUTO 19006KT 9SM CLR 25/06 A2982 RMK A01=
KBBD 220035Z AUTO 20010KT 10SM CLR 25/04 A2988 RMK AO2=
