SAUS70 KWBC 220020 RRE
METAR
KT89 220015Z AUTO 12004KT 10SM CLR 27/08 A2990 RMK A01=
KWBF 220015Z AUTO VRB04KT 10SM 23/13 A3008 RMK A01=
K4V0 220015Z AUTO 23013G17KT 10SM CLR 20/M09 A2981 RMK AO2
     T01981086=
KCXP 220015Z AUTO 21010G18KT 10SM CLR 22/M06 A2991 RMK AO2=
KDSF 220015Z AUTO 04010KT 10SM CLR 22/13 A3009 RMK A01=
KECS 220015Z AUTO 36008KT 10SM CLR 17/M10 A2952 RMK AO2=
KERV 220015Z AUTO 16005KT 10SM CLR 22/09 A2994 RMK AO2
     T02210085=
KF05 220015Z AUTO 21011KT 10SM CLR 28/02 A2972 RMK AO2
     T02790022=
KF44 220015Z AUTO 19004KT 10SM CLR 25/11 A2986 RMK AO2=
KINJ 220015Z AUTO 17014G17KT 10SM CLR 27/09 A2984 RMK AO2
     T02720086=
KM75 220015Z AUTO 07005KT 9SM BKN033 BKN047 OVC055 07/05 A2954 RMK
     A01=
KMEV 220015Z AUTO 24018KT 10SM CLR 22/M07 A2991 RMK AO2=
KO69 220015Z AUTO VRB06G12KT 280V340 9SM CLR 15/11 A2986 RMK
     A01=
KP08 220015Z AUTO 33004KT 10SM CLR 30/11 A2982 RMK AO2=
KPKV 220015Z AUTO 18006KT 10SM CLR 24/15 A2998 RMK AO2
     T02420146=
KPRS 220015Z AUTO 00000KT 10SM CLR 28/11 A2994 RMK AO2
     T02770111=
KRTS 220015Z AUTO 27016G23KT 10SM CLR 20/M07 A2991 RMK AO2=
KSVC 220015Z AUTO 30009KT 10SM CLR 22/08 A3005 RMK AO2
     T02180075=
KSZT 220015Z AUTO 22004KT 10SM -RA OVC008 03/02 A2966 RMK AO2=
KTYL 220015Z AUTO 21012KT 10SM CLR 19/03 A3005 RMK AO2=
KVCV 220010Z AUTO RMK AO2 PNO PWINO TSNO=
KCFS 220015Z AUTO 18008KT 10SM CLR 16/03 A2974 RMK AO2
     T01630028=
KCKN 220015Z AUTO 22004KT 10SM CLR 11/M02 A2954 RMK AO2=
KGDB 220015Z AUTO 00000KT 10SM CLR 11/03 A2963 RMK AO2
     T01120025=
KJYG 220017Z AUTO 00000KT 7SM CLR 12/02 A2963 RMK AO2=
KMJQ 220015Z AUTO 07004KT 10SM CLR 10/01 A2965 RMK AO2=
KPHN 220015Z AUTO 19006KT 10SM CLR 13/02 A2981 RMK AO2=
K3LF 220015Z AUTO 15010KT 10SM CLR 19/03 A2982 RMK AO2
     T01850030=
KASW 220015Z AUTO 19005KT 10SM CLR 17/02 A2982 RMK AO2
     T01800029=
KBVN 220015Z AUTO 00000KT 10SM CLR 16/M01 A2960 RMK AO2
     T01641015=
KFET 220015Z AUTO 00000KT 10SM CLR 17/03 A2960 RMK AO2
     T01650026=
KFOA 220015Z AUTO 17007KT 10SM CLR 13/02 A2987 RMK AO2=
KFSW 220015Z AUTO 18009KT 10SM OVC001 22/04 A2965 RMK AO2=
KFWC 220015Z AUTO 16003KT CLR 18/02 A2986 RMK AO1 T01790015
     PWINO=
KGPC 220015Z AUTO 16006KT 10SM CLR 14/01 A2988 RMK AO2
     T01400014=
KGRN 220015Z AUTO 18005KT 10SM CLR 13/M08 A2952 RMK AO2
     T01311078=
KGWB 220015Z AUTO 20006KT 10SM CLR 17/03 A2984 RMK AO2=
KHJH 220015Z AUTO 00000KT 10SM CLR 16/02 A2959 RMK AO2
     T01600023=
KLNN 220015Z AUTO 20008KT 10SM CLR 15/M02 A2992 RMK AO1
     T01521023=
KMUT 220015Z AUTO 16004KT 10SM CLR 20/03 A2965 RMK AO2=
KMWA 220015Z AUTO 18003KT 10SM CLR 17/07 A2988 RMK AO2
     T01740068=
KMWO 220015Z AUTO 23003KT 10SM CLR 13/01 A2996 RMK AO2
     T01280006=
KN03 220015Z AUTO 22004KT 10SM CLR 08/M02 A3006 RMK AO2=
KOLE 220015Z AUTO 20008KT 10SM CLR 10/M02 A3001 RMK AO2=
KOLY 220015Z AUTO 16006KT 10SM CLR 17/01 A2987 RMK AO2
     T01730010=
KONA 220015Z AUTO 00000KT 10SM CLR 12/05 A2964 RMK AO2=
KPEX 220015Z AUTO 00000KT 10SM CLR 10/01 A2962 RMK AO2=
KPMV 220015Z AUTO 00000KT 10SM CLR 20/M01 A2959 RMK AO2 T01991008
     PWINO=
KPVB 220015Z AUTO 00000KT 10SM CLR 19/01 A2965 RMK AO1
     T01850005=
KRMY 220015Z AUTO 18008KT 10SM CLR 17/04 A2978 RMK AO2
     T01740035=
KSTE 220015Z AUTO 00000KT 10SM CLR 11/03 A2964 RMK AO2
     T01120029=
K6S8 220010Z AUTO 05016KT 10SM 12/04 A2952 RMK A01 LAUREL=
K74V 220015Z AUTO 27010KT 10SM 20/M10 A2982 RMK AO2=
K7BM 220015Z AUTO 26018G28KT 230V290 10SM CLR 10/M13 A3005 RMK
     AO2=
