SAUS70 KWBC 212320 RRA
METAR
KAIG 212315Z AUTO 24005KT 10SM CLR 12/03 A2960 RMK AO2
     T01150034=
KBVI 212315Z AUTO 18004KT 10SM CLR 14/M01 A3001 RMK AO2
     T01421015=
KBWW 212315Z AUTO 34018G25KT 10SM OVC095 17/01 A2949 RMK AO2=
KC29 212315Z AUTO 00000KT 10SM CLR 18/02 A2963 RMK AO1
     T01830019=
KCKC 212315Z AUTO 00000KT 10SM CLR 10/02 A2954 RMK AO2=
KCKZ 212315Z AUTO 00000KT 10SM CLR 08/02 A3014 RMK AO2=
KCVX 212315Z AUTO 23007KT 10SM CLR 16/06 A2959 RMK AO2
     T01580057=
KD60 212315Z AUTO 03009KT 10SM OVC041 05/05 A2956 RMK AO2=
KEKM 212315Z AUTO 19008KT 7SM CLR 20/03 A2977 RMK AO2
     T01960033=
KFFX 212315Z AUTO 21008KT 10SM CLR 19/03 A2965 RMK AO2
     T01930033=
KFSO 212315Z AUTO 18009G14KT 10SM CLR 13/M03 A3002 RMK AO2
     T01321033=
KGWR 212315Z AUTO 16005KT 6SM HZ CLR 14/01 A2955 RMK A01=
KI23 212315Z AUTO 17006KT 10SM CLR 13/M01 A2996 RMK AO1=
KMWM 212315Z AUTO 00000KT 10SM CLR 15/02 A2962 RMK AO2=
KOCQ 212315Z AUTO 00000KT 10SM CLR 14/04 A2957 RMK AO1
     T01410040=
KOEO 212315Z AUTO 24003KT 10SM CLR 15/05 A2963 RMK AO2
     T01530046=
KRVL 212315Z AUTO 00000KT 10SM CLR 11/M00 A3007 RMK AO2=
KTTF 212315Z AUTO 19006KT 10SM CLR 17/02 A2981 RMK AO2
     T01660019=
KVWU 212315Z AUTO 23004KT 10SM CLR 13/02 A2955 RMK AO2=
KY19 212315Z AUTO 01007KT 10SM BKN090 12/03 A2953 RMK AO2=
K2D5 212315Z AUTO 14007KT 6SM HZ CLR 14/01 A2954 RMK AO2=
K3N8 212315Z AUTO 19003KT 10SM CLR 12/00 A2956 RMK AO2
     T01221003=
K5H4 212315Z AUTO 27005KT 10SM BKN055 BKN075 OVC085 11/07 A2956
     RMK AO2=
K96D 212315Z AUTO 25008KT 10SM OVC095 13/01 A2950 RMK AO2=
KACB 212315Z AUTO 23004KT 10SM CLR 17/06 A2960 RMK AO2
     T01730056=
KBBB 212315Z AUTO 00000KT 10SM CLR 13/01 A2961 RMK AO2=
KBDH 212315Z AUTO 22003KT 10SM CLR 14/02 A2965 RMK AO2=
KBWP 212315Z AUTO 21004KT 9SM CLR 15/M00 A2956 RMK AO2=
KCAD 212315Z AUTO 21009KT 10SM CLR 15/04 A2965 RMK AO2
     T01540037=
KCDA 212315Z AUTO 13003KT 10SM 09/M03 A3008 RMK AO2 T00911027=
KCFJ 212315Z AUTO 17008KT 10SM CLR 16/M01 A2985 RMK AO2
     T01631010=
KD57 212315Z AUTO 07007KT 10SM CLR 13/M01 A2948 RMK AO2=
KDTL 212315Z AUTO 00000KT 10SM CLR 12/M00 A2957 RMK AO2=
KFKS 212315Z AUTO 20010G23KT 10SM CLR 16/05 A2960 RMK AO2
     T01580051=
KHZE 212315Z AUTO 09004KT 10SM SCT065 BKN095 12/04 A2951 RMK
     AO2=
KI67 212315Z AUTO 00000KT 10SM CLR 18/00 A2994 RMK AO1=
KIRS 212315Z AUTO 21011KT 10SM CLR 18/01 A2977 RMK AO2
     T01800010=
KJYM 212315Z AUTO 19006KT 10SM CLR 17/00 A2979 RMK AO2
     T01730002=
KLWA 212315Z AUTO 19008KT 10SM SCT120 21/03 A2970 RMK AO2
     T02060025=
KOEB 212315Z AUTO 19006KT 10SM CLR 19/03 A2978 RMK AO2
     T01860030=
KOLG 212315Z AUTO 29003KT 10SM CLR 14/00 A2957 RMK AO1=
KONZ 212315Z AUTO 19007KT 10SM BKN100 OVC120 12/06 A2981 RMK AO2
     T01190063=
KPNM 212315Z AUTO 00000KT 10SM CLR 14/03 A2962 RMK AO2 TS=
KRUG 212315Z AUTO 28007KT 10SM FEW055 BKN065 11/02 A2952 RMK
     AO2=
KRYV 212315Z AUTO 21005KT 10SM CLR 18/02 A2961 RMK AO2
     T01840021=
KTME 212315Z AUTO 19015KT 10SM CLR 26/14 A2995 RMK AO2=
K0E0 212315Z AUTO 27018G22KT 10SM CLR 20/M04 A3002 RMK AO2
     T02001037 TSNO=
K4S2 212315Z AUTO 31004KT 7SM -RA SCT014 BKN028 OVC070 08/07 A2975
     RMK AO2=
K6S2 212315Z AUTO 18007G12KT 1 1/2SM -RA BR SCT007 BKN013 12/12
     A2981 RMK AO2 VIS 1V3=
KAQP 212313Z AUTO 00000KT 7SM SCT090 16/M01 A2960 RMK AO2=
KBEA 212315Z AUTO 14014G18KT 10SM CLR 25/13 A2993 RMK AO2
     T02540131=
KBVU 212315Z AUTO 16007KT 140V200 10SM CLR 29/01 A2982 RMK AO2=
KBXK 212315Z AUTO 00000KT 10SM CLR 30/10 A2981 RMK A01=
