SAUS70 KWBC 220200 RRC
METAR
KAAO 220154Z AUTO 18013G21KT 10SM CLR 26/01 A2964 RMK AO2 SLP026
     T02610011=
KABR 220153Z AUTO 16008KT 10SM CLR 06/M01 A2954 RMK AO2 SLP009
     T00611006=
KABY 220153Z AUTO 00000KT 10SM CLR 11/05 A3014 RMK AO2 SLP206
     T01060050=
KACK 220153Z 22006KT 10SM CLR 13/08 A3021 RMK AO2 SLP230
     T01280078=
KAEX 220153Z 19009KT 10SM CLR 23/14 A2999 RMK AO2 SLP158
     T02280144=
KAFW 220153Z 17018KT 10SM CLR 26/09 A2980 RMK AO2 SLP082
     T02610089=
KAIA 220153Z AUTO 22009KT 10SM CLR 11/M07 A2958 RMK AO2 SLP011
     T01061072=
KAKO 220153Z AUTO 28003KT 10SM CLR 16/M09 A2969 RMK AO2 SLP020
     T01561089=
KALI 220153Z AUTO 15008KT 10SM CLR 21/16 A2996 RMK AO2 SLP145
     T02060161=
KAMA 220153Z 22009KT 10SM CLR 17/01 A2974 RMK AO2 SLP040
     T01720006=
KAMG 220153Z AUTO 00000KT 10SM CLR 08/04 A3013 RMK AO2 SLP201
     T00780044=
KAMW 220153Z AUTO 00000KT 5SM HZ CLR 09/01 A2961 RMK AO2 SLP027
     T00890011=
KAOO 220153Z AUTO 19007KT 10SM CLR 11/M01 A3011 RMK AO2 SLP201
     T01061011=
KAPA 220153Z 25005KT 10SM FEW140 FEW200 16/M12 A2977 RMK AO2
     SLP036 T01561122=
KAPF 220153Z AUTO 02007KT 10SM OVC070 22/16 A3003 RMK AO2 SLP166
     T02220156 PWINO $=
KAQP 220153Z AUTO 17005KT 10SM 11/M01 A2958 RMK AO2=
KARA 220153Z AUTO 16004KT 10SM CLR 17/13 A3006 RMK AO2 SLP177
     T01670133=
KASD 220153Z AUTO 15004KT 10SM CLR 17/11 A3008 RMK AO2 SLP187
     T01720111=
KASE 220153Z AUTO VRB03KT 10SM CLR 04/M08 A2998 RMK AO2 SLP110
     T00441083=
KASX 220153Z AUTO 21004KT 10SM CLR 04/02 A2961 RMK AO2 SLP032
     T00390022=
KATY 220153Z AUTO 14006KT 10SM CLR 11/01 A2956 RMK AO2 SLP016
     T01060006=
KAUG 220153Z AUTO 20003KT 10SM CLR 07/03 A3015 RMK AO2 SLP212
     T00670033=
KAUS 220153Z 18007KT 10SM CLR 22/09 A2993 RMK AO2 SLP128
     T02170094=
KAWM 220153Z AUTO 17007KT 10SM CLR 18/11 A2990 RMK AO2 SLP122
     T01780106=
KAXN 220153Z AUTO 14006KT 10SM CLR 10/01 A2959 RMK AO2 SLP025
     T01000006=
KAZO 220153Z 19011KT 10SM CLR 17/04 A2979 RMK AO2 SLP089
     T01670039=
KBBW 220153Z AUTO 34003KT 10SM CLR 07/M03 A2959 RMK AO2 SLP021
     T00671028=
KBDE 220153Z AUTO 21005KT 10SM FEW120 09/01 A2953 RMK AO2 SLP005
     T00890006=
KBEH 220153Z AUTO 19010G18KT 10SM CLR 19/04 A2976 RMK AO2 SLP078
     T01890039=
KBFD 220153Z AUTO 15005KT 10SM CLR 08/M01 A3005 RMK AO2 SLP182
     T00781011=
KBFM 220153Z 18003KT 10SM CLR 14/11 A3012 RMK AO2 SLP198
     T01440106=
KBGR 220153Z 19004KT 10SM CLR 07/02 A3015 RMK AO2 SLP210
     T00720022=
TISX 220153Z AUTO 06006KT 10SM CLR 28/23 A2993 RMK AO2 SLP135
     T02780228 TSNO $=
KCXO 220153Z AUTO 18012KT 10SM CLR 23/14 A2998 RMK AO2 SLP150
     T02280144=
KCYS 220153Z 25014KT 10SM CLR 15/M12 A2974 RMK AO2 SLP012
     T01501122=
KDAN 220153Z AUTO 00000KT 10SM CLR 06/02 A3016 RMK AO2 SLP210
     T00560017=
KDCA 220152Z COR 22004KT 10SM FEW250 13/05 A3017 RMK AO2 SLP217
     T01280050 $=
KDCU 220153Z AUTO 13005KT 10SM CLR 16/08 A3005 RMK AO2 SLP174
     T01560078=
KDEN 220153Z 27009KT 10SM FEW200 17/M11 A2972 RMK AO2 SLP008
     T01721106=
KDEQ 220153Z AUTO 00000KT 10SM CLR 15/11 A2986 RMK AO2 SLP108
     T01500106 $=
KDFW 220153Z 18014G23KT 10SM CLR 26/09 A2981 RMK AO2 SLP088
     T02610089=
KDGW 220153Z AUTO 26018G26KT 10SM CLR 18/M08 A2959 RMK AO2 PK WND
     28026/0149 SLP993 T01831078=
KDHN 220153Z AUTO 00000KT 10SM CLR 10/05 A3015 RMK AO2 SLP209
     T01000050=
KDHT 220153Z AUTO 24008KT 10SM CLR 12/M01 A2973 RMK AO2 SLP046
     T01221011=
KDMO 220153Z AUTO 18011KT 10SM CLR 19/02 A2972 RMK AO2 SLP059
     T01940022=
