SAUS70 KWBC 220142 RRB
METAR
KEOK 220135Z AUTO 20013G19KT 10SM CLR 22/04 A2966 RMK A01=
KFET 220135Z AUTO 00000KT 10SM CLR 12/02 A2959 RMK AO2
     T01240022=
KFOA 220135Z AUTO 17008KT 10SM CLR 14/04 A2988 RMK AO2=
KFSW 220135Z AUTO 17005KT 10SM OVC001 19/04 A2966 RMK AO2=
KFWC 220135Z AUTO 00000KT CLR 17/03 A2987 RMK AO1 T01650030
     PWINO=
KGBG 220135Z AUTO 15004KT 10SM CLR 17/05 A2971 RMK AO2
     T01660049=
KGDB 220135Z AUTO 10005KT 10SM CLR 12/02 A2962 RMK AO2
     T01240015=
KGHG 220135Z AUTO 22004KT 10SM CLR 10/06 A3018 RMK AO2=
KGPC 220135Z AUTO 17007KT 10SM CLR 13/02 A2990 RMK AO2
     T01300020=
KGRN 220135Z AUTO 00000KT 10SM CLR 11/M09 A2952 RMK AO2
     T01121086=
KGWB 220135Z AUTO 20006KT 10SM CLR 16/03 A2987 RMK AO2=
KHJH 220135Z AUTO 00000KT 10SM CLR 14/01 A2960 RMK AO2
     T01400008=
KLNN 220135Z AUTO 19008G16KT 10SM CLR 15/M03 A2993 RMK AO1
     T01471026=
KMJQ 220135Z AUTO 10006KT 10SM CLR 08/01 A2964 RMK AO2=
KMWA 220135Z AUTO 19003KT 10SM CLR 16/07 A2989 RMK AO2
     T01620073=
KMWO 220135Z AUTO 26003KT 10SM CLR 08/01 A2997 RMK AO2
     T00770013=
KMZZ 220135Z AUTO 18011KT 10SM CLR 14/02 A2990 RMK AO2
     T01440021=
KOLY 220135Z AUTO 16006KT 10SM CLR 16/02 A2989 RMK AO2
     T01550015=
KONL 220135Z AUTO 12007KT 10SM CLR 14/00 A2957 RMK AO2
     T01401001=
KOOA 220135Z AUTO 20010KT 10SM CLR 18/07 A2965 RMK AO2
     T01840074=
KPEA 220135Z AUTO 17004KT 10SM CLR 20/03 A2963 RMK AO2
     T01970029=
KPPQ 220135Z AUTO 16006KT 10SM CLR 18/03 A2975 RMK AO2
     T01830030=
KRSV 220135Z AUTO 00000KT 10SM CLR 13/02 A2989 RMK AO2
     T01330017=
KTYQ 220135Z AUTO 18008KT 10SM CLR 14/02 A2990 RMK AO2
     T01420020=
KVVS 220135Z AUTO 07003KT 10SM CLR 07/00 A3007 RMK AO2
     T00740004=
K06C 220135Z AUTO 20011G17KT 10SM CLR 20/08 A2973 RMK AO2
     T01960077=
KAAA 220135Z AUTO 18011KT 10SM CLR 18/05 A2977 RMK AO2
     T01780050=
KADU 220135Z AUTO 00000KT 10SM SCT005 SCT019 SCT080 07/00 A2961
     RMK AO2=
KAFK 220135Z AUTO 00000KT 10SM CLR 20/00 A2960 RMK AO2
     T01971001=
KAIO 220135Z AUTO 01003KT 4SM HZ CLR 08/01 A2959 RMK AO2=
KAJG 220135Z AUTO 18008KT 10SM CLR 17/02 A2989 RMK AO2
     T01700021=
KASW 220135Z AUTO 20006KT 10SM CLR 17/02 A2984 RMK AO2
     T01750030=
KAWG 220135Z AUTO 18008KT CLR 18/03 A2964 RMK AO2=
KAXA 220135Z AUTO 08004KT 8SM CLR 14/03 A2962 RMK A01=
KCNC 220135Z AUTO 15006KT 10SM CLR 18/03 A2962 RMK AO2=
KDNS 220135Z AUTO RMK AO2 PNO PWINO=
KDNV 220135Z AUTO 19011G15KT 10SM CLR 18/03 A2985 RMK AO2
     T01840025=
KFEP 220135Z AUTO 20010KT 10SM CLR 17/06 A2969 RMK AO2
     T01730062=
KFFL 220135Z AUTO 16006KT 10SM CLR 19/01 A2966 RMK A01=
KFKR 220135Z AUTO 18009KT 10SM SCT027 SCT036 SCT042 15/02 A2987
     RMK AO2=
KGGF 220135Z AUTO 19011KT 10SM CLR 14/M05 A2961 RMK AO2=
KGGP 220135Z AUTO 19009KT 10SM CLR 15/02 A2987 RMK AO2=
KHHG 220135Z AUTO 20005KT 10SM CLR A2988 RMK AO2=
KIKV 220135Z AUTO 00000KT 10SM CLR 11/03 A2963 RMK AO2=
KJOT 220135Z AUTO 20010G16KT 10SM CLR 20/04 A2975 RMK AO2
     T02020041=
KMQS 220135Z AUTO 00000KT 10SM CLR 09/00 A3017 RMK AO2=
KOLE 220135Z AUTO 18007KT 10SM CLR 09/M02 A3002 RMK AO2=
KOLZ 220135Z AUTO 03005KT 3SM HZ CLR 14/01 A2964 RMK A01=
KOQN 220135Z AUTO 00000KT 10SM CLR 10/02 A3017 RMK AO2=
KPNT 220135Z AUTO 18014G19KT 10SM CLR 17/07 A2976 RMK AO2
     T01740065=
KRCR 220135Z AUTO 19010G16KT 10SM BKN050 17/03 A2984 RMK AO2=
KRDK 220135Z AUTO 00000KT CLR 10/01 A2960 RMK AO2=
K0CO 220135Z AUTO 32023G34KT 10SM CLR M01/M12 A3011 RMK AO2=
K33V 220135Z AUTO 22008KT 10SM CLR 08/M10 A2993 RMK AO1=
