SAPA32 KWBC 212300 RRB
METAR
NWWW 212330Z AUTO 05009KT 010V090 9999 SCT056 29/15 Q1014
     NOSIG=
