SACA42 KWBC 220100
METAR
TIST 220053Z 08007KT 10SM CLR 28/23 A2992=
TJBQ 220050Z 11004KT 10SM CLR 25/22 A2995=
TJMZ NIL=
TJNR 220053Z AUTO 06006KT 10SM SCT026 28/22 A2994=
TJPS NIL=
TJSJ 220056Z 10005KT 10SM FEW028 27/23 A2994=
