SAUS80 KWBC 220000 RRB
METAR
KBUF 212354Z 18009KT 10SM FEW250 14/00 A2993 RMK AO2 SLP138
     T01390000 10189 20139 53010=
KEKX 212355Z AUTO 16003KT 10SM CLR 15/00 A2998 RMK AO2 T01490003
     10226 20146=
KFAR 212353Z AUTO 13005KT 10SM BKN110 13/M03 A2953 RMK AO2 SLP005
     T01331028 10172 20133 58010 TSNO=
KPTS 212355Z AUTO 18006KT 10SM CLR 24/05 A2970 RMK AO2 T02380051
     10297 20238 PWINO=
KROC 212354Z 18007KT 10SM CLR 14/M01 A2996 RMK AO2 SLP150
     T01391006 10183 20139 53009=
KSMS 212355Z AUTO 00000KT 10SM CLR 09/05 A3012 RMK AO2=
KSNC 212355Z AUTO 20005KT 10SM CLR 12/07 A3015 RMK AO2=
KSOW 212355Z AUTO 23013G20KT 10SM CLR 18/M00 A3010 RMK AO2=
KLAX 212353Z 26009KT 10SM BKN010 BKN070 19/17 A2984 RMK AO2 SLP104
     T01940172 10244 20194 56012=
KRQE 212353Z AUTO 22010G19KT 10SM CLR 18/02 A3005 RMK AO2 SLP115
     T01780017 10200 20178 58015=
KUIL 212353Z AUTO 32003KT 7SM -RA FEW021 BKN050 OVC060 09/09 A2975
     RMK AO2 SLP074 P0005 60018 T00940089 10111 20083 56017=
KBIL 212353Z 07013KT 10SM -RA BKN075 OVC090 12/04 A2954 RMK AO2
     RAB36 SLP994 P0000 60000 T01220039 10194 20122 53007=
KMSO 212353Z 36004KT 10SM -RA SCT028 BKN036 OVC045 07/04 A2965 RMK
     AO2 SLP047 P0003 60004 T00720044 10144 20072 55003=
KFAT 212353Z 00000KT 10SM CLR 32/05 A2977 RMK AO2 SLP078 MTNS OBSC
     HZ DSNT N-E-SE T03170050 10322 20256 56014=
KYKM 212353Z AUTO 24004KT 10SM OVC090 11/05 A2966 RMK AO2 RAE14
     SLP046 P0000 60001 T01060050 10144 20100 56022=
KATT 212351Z AUTO 18005KT 10SM CLR 27/09 A2990 RMK AO2 SLP118
     T02670094 10311 20261 56007=
KBDR 212352Z 19008KT 10SM CLR 13/07 A3015 RMK AO2 SLP209 T01330067
     10167 20117 53011=
KFNT 212353Z 18009KT 10SM CLR 16/04 A2976 RMK AO2 SLP081 T01560044
     10217 20156 53008=
KLAN 212353Z 17008KT 10SM CLR 17/04 A2975 RMK AO2 SLP078 T01670044
     10206 20167 53007 $=
PHJR 212353Z 14007KT 10SM CLR 29/22 A2999 RMK AO2 SLP160 60000
     T02940217 10306 20239 58019=
KGEG 212353Z 21007KT 10SM FEW008 SCT029 OVC045 06/04 A2966 RMK AO2
     RAE34 SLP048 P0002 60035 T00560039 10078 20039 58007=
KCQC 212353Z AUTO 27017G25KT 10SM CLR 16/M01 A3004 RMK AO2 PK WND
     27030/2329 SLP116 T01561011 10183 20156 58004=
KRNO 212355Z 26014G25KT 10SM FEW100 BKN220 23/M05 A2987 RMK AO2 PK
     WND 24026/2257 SLP076 T02331050 10272 20161 56011=
KSCK 212355Z 30009KT 10SM CLR 27/12 A2978 RMK AO2 SLP082 T02670117
     10306 20228 56009=
KGPI 212355Z 16007KT 7SM -RA BKN026 OVC030 06/05 A2960 RMK AO2
     SLP025 P0007 60017 T00610050 10106 20061 55006=
KGPZ 212356Z AUTO 00000KT 10SM CLR 09/02 A2960 RMK AO2 SLP030
     T00890022 10144 20083 53006=
KHON 212355Z AUTO 16004KT 10SM CLR 16/01 A2955 RMK AO2 SLP009
     T01610011 10194 20161 58010=
KIKW 212355Z AUTO 17005KT 10SM CLR 17/04 A2970 RMK AO2 T01710044
     10206 20169=
KIRK 212355Z AUTO 19009KT 10SM CLR 22/03 A2966 RMK AO2 SLP045
     T02170028 10278 20217 55000 $=
KISM 212356Z 03004KT 10SM CLR 21/10 A3005 RMK AO2 SLP177 6////
     T02060100 10250 20206 53011 PNO $=
KLIC 212355Z AUTO 00000KT 10SM CLR 19/M12 A2974 RMK AO2 SLP030
     T01891122 10256 20189 58011=
KCNK 212355Z AUTO 00000KT 10SM CLR 25/M01 A2958 RMK AO2 SLP007
     T02501006 10300 20239 56005=
KDLH 212355Z 30004KT 10SM CLR 12/00 A2958 RMK AO2 SLP025 T01170000
     10172 20117 51015=
KDVL 212356Z AUTO 23004KT 10SM OVC060 11/03 A2954 RMK AO2 RAB11E23
     SLP024 P0000 60000 T01110028 10139 20111 55002=
KDWU 212356Z AUTO 00000KT 10SM CLR 12/06 A3002 RMK AO2 SLP169
     T01170056 10211 20117 53002=
KEAR 212356Z AUTO 10SM CLR 18/M01 A2961 RMK AO2 SLP021 T01831011
     10250 20183 56006=
