SAUS70 KWBC 220000 RRR
METAR
KMCD 212355Z AUTO 26006KT 10SM CLR 11/07 A2961 RMK AO2 T01120065
     10184 20112=
KMKT 212356Z AUTO 00000KT 10SM CLR 15/02 A2963 RMK AO2 SLP038
     T01500022 10200 20150 53006=
KMML 212356Z AUTO 11006KT 10SM CLR 15/01 A2961 RMK AO2 SLP030
     T01500011 10183 20150 58001=
KMNM 212356Z AUTO 32006KT 10SM CLR 12/06 A2959 RMK AO2 SLP021
     6//// T01220056 10206 20122 51028 PNO $=
KMQY 212356Z 15006KT 10SM CLR 18/04 A3001 RMK AO2 SLP171 T01780039
     10239 20178 53005=
KMRF 212356Z AUTO 24007KT 10SM CLR 22/06 A3005 RMK AO2 SLP137
     T02170061 10261 20217 56007=
KMSV 212356Z AUTO 17003KT 10SM CLR 09/M01 A3012 RMK AO2 SLP211
     T00941011 10150 20089 53014=
KMTW 212356Z AUTO 00000KT 10SM CLR 12/09 A2962 RMK AO2 SLP031
     T01170089 10239 20117 53029=
KMVN 212356Z AUTO 00000KT 10SM CLR 17/03 A2986 RMK AO2 SLP117
     T01720033 10256 20150 53005=
KMWM 212355Z AUTO 00000KT 10SM CLR 11/01 A2963 RMK AO2=
KMYR 212356Z 00000KT 10SM CLR 13/09 A3012 RMK AO2 SLP198 T01330094
     10200 20133 53010=
KOAJ 212356Z 00000KT 10SM BKN043 OVC060 14/11 A3013 RMK AO2 SLP205
     T01440111 10211 20139 53010=
KOCH 212356Z AUTO 17006KT 10SM CLR 24/10 A2992 RMK AO2 SLP134
     T02440100 10300 20244 55001=
KOEB 212355Z AUTO 19006KT 10SM CLR 18/03 A2980 RMK AO2 T01810027
     10214 20181=
KOKK 212356Z AUTO 19011KT 10SM CLR 18/03 A2986 RMK AO2 SLP113
     6//// T01780028 10233 20178 53011 PNO $=
KOLU 212356Z AUTO 00000KT 5SM HZ CLR 17/M01 A2960 RMK AO2 SLP029
     T01671006 10261 20167 55002=
KONZ 212355Z AUTO 19006KT 10SM OVC100 11/08 A2982 RMK AO2
     T01060077 10165 20106=
KOTG 212356Z AUTO 07004KT 10SM CLR 13/02 A2964 RMK AO2 SLP042
     T01280017 10194 20128 53001=
KOTH 212356Z 20007KT 2 1/2SM -RA BR OVC010 13/12 A2985 RMK AO2 CIG
     008V013 SLP108 P0000 60000 T01330122 10161 20133 56025=
KOWB 212356Z 14008KT 10SM CLR 17/03 A2992 RMK AO2 SLP133 T01720028
     10250 20172 53002=
KOXD 212355Z AUTO 19007KT 10SM CLR 18/M04 A2995 RMK AO2 T01781043
     10241 20175=
KPNM 212355Z AUTO 00000KT 10SM CLR 09/03 A2962 RMK AO2 TSNO=
KPQI 212356Z AUTO 19005KT 10SM CLR 06/01 A3007 RMK AO2 SLP212
     T00610011 10133 20056 51014=
KPRX 212356Z AUTO 16008KT 10SM CLR 24/09 A2983 RMK AO2 SLP099
     T02390089 10311 20239 55004=
KSRC 212356Z AUTO 18004KT 10SM CLR 19/10 A2987 RMK AO2 SLP113
     T01940100 10272 20194 55003=
KSUE 212356Z AUTO 21004KT 10SM CLR 12/08 A2960 RMK AO2 SLP024
     6//// T01220078 10206 20122 52027=
KTOB 212355Z AUTO 00000KT 10SM 13/01 A2964 RMK AO2=
KTTF 212355Z AUTO 18005KT 10SM CLR 16/02 A2982 RMK AO2 T01570022
     10220 20155=
KTVF 212356Z AUTO 23006KT 10SM BKN090 12/M01 A2955 RMK AO2 SLP013
     6//// T01171006 10167 20117 53002=
KUCP 212356Z AUTO VRB03KT 10SM CLR 13/00 A3002 RMK AO2 SLP185
     T01280000 10183 20128 53013=
KUDG 212356Z AUTO 00000KT 10SM CLR 10/03 A3013 RMK AO2 SLP204
     T01000033 10217 20094 53008=
KUGN 212355Z 21012KT 10SM CLR 20/04 A2966 RMK AO2 SLP043 T02000039
     10239 20200 53016=
KULM 212355Z AUTO 00000KT 10SM CLR 13/M01 A2962 RMK AO2=
KVBT 212356Z AUTO 17006KT 10SM CLR 22/04 A2981 RMK AO2 SLP093
     T02220044 10283 20222 55002=
KVIS 212356Z AUTO 26003KT 10SM CLR 31/08 A2978 RMK AO2 SLP089
     T03110083 10317 20250 56015=
KVLL 212355Z AUTO 17003KT 10SM CLR 15/02 A2982 RMK AO2 T01520020
     10205 20152=
KVWU 212355Z AUTO 00000KT 10SM CLR 12/02 A2955 RMK AO2=
KWVL 212356Z AUTO 20004KT 10SM CLR 08/02 A3011 RMK AO2 SLP226
     T00830022 10144 20083 52017=
KWWD 212356Z AUTO 00000KT 10SM 11/08 A3017 RMK AO2 SLP218
     T01060083 10189 20100 53008 $=
