SAUS80 KWBC 220100 CCB
METAR
KP28 220056Z AUTO 17008KT 24/M01 A2960 RMK AO1 SLP017 T02441006
     $=
KP53 220056Z AUTO 19007KT 07/05 A2961 RMK AO1 SLP031 T00670050=
KP58 220055Z AUTO 18008G16KT 16/05 A2971 RMK AO1 SLP061
     T01560050=
KMEH 220056Z AUTO 00000KT 8SM -RA OVC003 03/03 A2969 RMK AO2
     SLP057 P0003 T00330028=
KP53 220056Z AUTO 19007KT 07/05 A2961 RMK AO1 SLP031 T00670050=
