SAUS80 KWBC 220000 RRA
METAR
KSMX 212351Z 32008KT 7SM CLR 17/13 A2989 RMK AO2 SLP124 T01670133
     10222 20150 55000=
KVCT 212351Z 16010KT 10SM CLR 24/16 A2996 RMK AO2 SLP144 T02440156
     10306 20244 53003=
KREO 212352Z AUTO 25017G25KT 22/M01 A2970 RMK AO1 PK WND
     29028/2258 SLP039 T02171006 10239 20194 56024=
KSVE 212355Z AUTO 27016G21KT 10SM CLR M23/M36 A2984 RMK AO2=
KN60 212352Z AUTO 04003KT 09/05 A2952 RMK AO1 SLP007 60001
     T00940050 10117 20094 55007=
