SAUS70 KWBC 220200 RRE
METAR
KWST 220153Z AUTO 21006KT 10SM CLR 14/08 A3019 RMK AO2 SLP222
     T01390083=
PABA 220152Z AUTO 09020KT 10SM OVC016 M04/M06 A2994 RMK AO2 SLP144
     T10391061 FZRANO PNO $=
KTSP 220155Z AUTO 30003KT 9SM CLR 18/M01 A2997 RMK AO2=
KTWT 220155Z AUTO 16004KT 10SM CLR 15/06 A2992 RMK AO2=
KU42 220155Z AUTO 21006KT 10SM CLR 14/M02 A2978 RMK AO1
     T01421021=
KUOX 220155Z AUTO 15007KT 10SM CLR 19/10 A2998 RMK AO2 PWINO=
KUTA 220155Z AUTO 16009KT 10SM CLR 20/10 A2992 RMK AO2 T01950100
     $=
KUXL 220155Z AUTO 16005KT 10SM CLR 18/15 A3004 RMK AO2
     T01780148=
KUZA 220154Z AUTO 00000KT 10SM CLR 06/02 A3015 RMK AO2 SLP211
     T00610017=
KVGC 220155Z AUTO 14007KT 10SM CLR 07/M03 A3008 RMK AO2=
KVJI 220155Z AUTO 00000KT 10SM CLR 07/M01 A3012 RMK AO2
     T00651010=
KW78 220155Z AUTO 00000KT 10SM CLR 06/04 A3017 RMK AO1
     T00570041=
KW81 220155Z AUTO 00000KT 10SM CLR 05/03 A3016 RMK AO1
     T00460033=
KX07 220155Z AUTO 00000KT 10SM CLR 17/11 A3007 RMK A01=
KXNX 220155Z AUTO 00000KT 10SM FEW041 BKN050 BKN055 15/02 A3003
     RMK A01=
KY19 220155Z AUTO 09009KT 10SM FEW041 BKN110 11/02 A2951 RMK
     AO2=
KAVL 220154Z 00000KT 10SM CLR 06/01 A3017 RMK AO2 SLP218
     T00610006=
KBAC 220155Z AUTO 16004KT 9SM FEW036 BKN100 BKN120 11/01 A2955 RMK
     AO2=
KBCB 220155Z AUTO 00000KT 10SM CLR 06/00 A3019 RMK AO2
     T00640000=
KBFL 220154Z 01006KT 9SM CLR 26/04 A2976 RMK AO2 SLP073
     T02610044=
KBKS 220155Z AUTO 13008KT 10SM CLR 22/17 A2996 RMK AO2 SLP106
     T02190165 $=
KBKT 220155Z AUTO 00000KT 10SM CLR 09/04 A3017 RMK AO1
     T00900036=
KBOW 220155Z AUTO 02005KT 10SM CLR 18/08 A3008 RMK AO2=
KBRG 220155Z AUTO 20009KT 10SM CLR 16/03 A2998 RMK AO2
     T01550030=
KBRY 220155Z AUTO 13003KT 10SM CLR 13/01 A2997 RMK AO2
     T01290006=
KBVU 220155Z AUTO 16011KT 10SM CLR 26/02 A2980 RMK AO2=
KBWP 220155Z AUTO 16006KT 10SM FEW030 FEW034 BKN050 12/M01 A2955
     RMK AO2=
KBWW 220155Z AUTO 01009KT 10SM OVC110 11/03 A2954 RMK AO2=
KBXK 220155Z AUTO 00000KT 10SM CLR 25/12 A2980 RMK A01=
KC29 220155Z AUTO 00000KT 10SM CLR 10/05 A2967 RMK AO1
     T00980046=
KCDN 220155Z AUTO 00000KT 10SM CLR 07/02 A3015 RMK AO2=
KCEU 220154Z AUTO 00000KT 10SM CLR 09/03 A3015 RMK AO2 SLP208
     T00940033=
KCEY 220155Z AUTO 16007KT 10SM CLR 19/09 A2994 RMK A01=
KCFJ 220155Z AUTO 16008KT 10SM CLR 12/M01 A2988 RMK AO2
     T01201014=
KCGC 220155Z AUTO 00000KT 10SM CLR 10/06 A3010 RMK AO2=
KCJR 220155Z AUTO 00000KT 10SM CLR 05/02 A3017 RMK AO2
     T00450018=
KCKM 220155Z AUTO 16010KT 10SM FEW040 SCT049 OVC060 22/11 A2993
     RMK A01=
KCKZ 220155Z AUTO 00000KT 10SM CLR 04/03 A3017 RMK AO2=
KCLS 220155Z AUTO 00000KT 5SM -RA BKN017 OVC036 08/07 A2968 RMK
     AO2=
KCLW 220155Z AUTO 36003KT 10SM CLR 16/09 A3008 RMK AO2=
KCMR 220155Z AUTO 18004KT 10SM CLR 10/03 A3009 RMK AO2=
KCPT 220155Z AUTO 17015G22KT 10SM CLR 25/08 A2986 RMK A01=
KCTZ 220155Z AUTO 00000KT 10SM SCT050 09/06 A3016 RMK AO2
     T00930060=
KCXE 220155Z AUTO 00000KT 10SM CLR 07/03 A3017 RMK AO1
     T00660025=
KD57 220155Z AUTO 00000KT 10SM FEW040 SCT050 OVC070 10/M02 A2952
     RMK AO2=
KD60 220155Z AUTO 00000KT 10SM SCT028 OVC035 05/05 A2958 RMK
     AO2=
KDNA 220155Z AUTO 00000KT 10SM CLR 22/08 A2999 RMK AO2=
KDNN 220155Z AUTO 00000KT 10SM CLR 08/04 A3013 RMK AO2
     T00770037=
KDRI 220155Z AUTO 18008KT 10SM CLR 21/16 A3003 RMK AO2 T02080156
     $=
KDSV 220154Z AUTO 15008KT 10SM CLR 11/M01 A3002 RMK AO2 SLP176
     T01111011=
KDYB 220155Z AUTO 00000KT 10SM CLR 08/07 A3014 RMK AO2=
