SAUS70 KWBC 212300 RRL
METAR
KAJG 212255Z AUTO 20009KT 10SM CLR 21/01 A2987 RMK AO2
     T02140012=
KAJR 212255Z AUTO 14003KT 7SM CLR 16/00 A3010 RMK AO2
     T01560000=
KAJZ 212255Z AUTO 21003KT 10SM CLR 24/M07 A2990 RMK AO2 T02371073
     PWINO=
KASW 212255Z AUTO 20004KT 10SM CLR 20/02 A2980 RMK AO2
     T01980027=
KAWG 212255Z AUTO 21009KT 10SM CLR 24/04 A2960 RMK AO2=
KAXA 212255Z AUTO 00000KT 6SM HZ CLR 19/03 A2961 RMK A01=
KAZE 212255Z AUTO 00000KT 10SM CLR 16/03 A3008 RMK AO2
     T01630027=
KBBD 212255Z AUTO 19013KT 10SM CLR 29/01 A2987 RMK AO2=
KBBP 212255Z AUTO 00000KT 10SM CLR 13/04 A3011 RMK AO2=
KBDG 212255Z AUTO 20011G18KT 10SM 19/M03 A3006 RMK AO1
     T01941032=
KBEC 212255Z AUTO 17008KT 10SM CLR 28/01 A2964 RMK AO2
     T02760009=
KBQK 212255Z AUTO 06005KT 10SM CLR 15/03 A3008 RMK AO2
     T01480034=
KBUU 212255Z AUTO 21005KT 10SM CLR 21/04 A2964 RMK AO2 T02100035
     PWINO=
KBVS 212255Z AUTO 17005KT 10SM OVC022 10/09 A2975 RMK A01=
KBYY 212255Z AUTO 19013KT 10SM CLR 25/14 A2998 RMK AO2
     T02490147=
KC65 212255Z AUTO 19010G16KT 170V230 10SM CLR 21/02 A2976 RMK
     A01=
KC75 212255Z AUTO 19007KT 10SM CLR 23/07 A2968 RMK AO2
     T02310073=
KGOP 212255Z AUTO 10SM CLR 30/07 A2987 RMK AO2=
KGVT 212255Z AUTO 17009KT 10SM CLR 29/09 A2982 RMK AO2 TSNO
     T02930086=
KGZL 212255Z AUTO 21011G16KT 10SM CLR 29/03 A2976 RMK AO2=
KHDE 212255Z AUTO 00000KT 10SM CLR 23/M01 A2962 RMK AO2
     T02261015=
KHHG 212255Z AUTO 20006KT 10SM CLR A2983 RMK AO2=
KHII 212255Z AUTO 21006KT 10SM CLR 33/04 A2978 RMK AO2=
KHMZ 212255Z AUTO 16006KT 10SM CLR 13/M02 A3006 RMK AO2
     T01341024=
KHNR 212255Z AUTO 17004KT 9SM CLR 21/01 A2960 RMK A01=
KHPN 212256Z 00000KT 10SM CLR 09/04 A3013 RMK AO2 SLP206
     T00940044=
KHPT 212255Z AUTO 35004KT 10SM CLR 20/00 A2962 RMK AO2=
KI63 212255Z AUTO 18009KT 10SM CLR 23/03 A2970 RMK AO2
     T02250025=
KI75 212255Z AUTO 19005KT 10SM CLR 24/03 A2960 RMK AO2
     T02360033=
KIBM 212255Z AUTO 29012KT 10SM CLR 20/M10 A2968 RMK AO2
     T02011098=
KICL 212255Z AUTO 00000KT 9SM CLR 25/02 A2959 RMK AO2=
KIKK 212255Z AUTO 20008KT 10SM CLR 22/03 A2975 RMK AO2
     T02160025=
KIKV 212255Z AUTO 00000KT 10SM CLR 24/01 A2960 RMK AO2=
KISP 212256Z 19004KT 10SM CLR 13/07 A3014 RMK AO2 SLP208
     T01280072=
KJOT 212255Z AUTO 20008KT 10SM CLR 22/05 A2970 RMK AO2
     T02210045=
KK88 212255Z AUTO 17011KT 10SM CLR 27/04 A2969 RMK AO1
     T02710037=
KLAM 212255Z AUTO 29009KT 10SM CLR 17/M06 A3006 RMK AO2
     T01701060=
KLCQ 212255Z AUTO 00000KT 10SM CLR 16/03 A3006 RMK AO2=
KLGC 212255Z AUTO 00000KT 10SM CLR 14/04 A3009 RMK AO2
     T01360044=
KLOM 212255Z AUTO 00000KT 10SM CLR 08/04 A3013 RMK AO2
     T00840040=
KLRJ 212255Z AUTO 10004KT 10SM CLR 22/01 A2958 RMK AO2=
KLXN 212255Z AUTO 16004KT 10SM CLR 24/M02 A2962 RMK AO2
     T02411020=
KMDQ 212255Z AUTO 00000KT 10SM CLR 21/04 A3003 RMK A02
     T02070040=
KMGC 212255Z AUTO 19008KT 10SM CLR 21/02 A2973 RMK AO2=
KMLJ 212255Z AUTO 00000KT 10SM CLR 17/03 A3008 RMK AO2=
KMQI 212255Z AUTO 05005KT 10SM CLR 16/09 A3013 RMK AO2
     T01560094=
KMQS 212255Z AUTO 00000KT 10SM CLR 12/M00 A3014 RMK AO2=
KOGA 212255Z AUTO 15005KT 10SM CLR 26/M03 A2960 RMK AO2
     T02621031=
KOGS 212255Z AUTO 17006KT 10SM CLR 12/M01 A2992 RMK AO2=
KOKM 212255Z AUTO 18013G20KT 10SM CLR 31/05 A2972 RMK AO2
     T03050052=
KOKZ 212255Z AUTO 00000KT 10SM CLR 14/06 A3010 RMK AO2
     T01380056=
KOLZ 212255Z AUTO 00000KT 2 1/2SM HZ CLR 20/01 A2962 RMK A01=
KONL 212255Z AUTO 10004KT 10SM CLR 20/00 A2961 RMK AO2
     T01990000=
