SAUS70 KWBC 212340 RRG
METAR
KRPJ 212335Z AUTO 16008KT 10SM CLR 16/07 A2968 RMK AO2 T01570067
     TSNO=
KRSV 212335Z AUTO 18007KT 10SM CLR 18/02 A2987 RMK AO2
     T01760015=
KSTE 212335Z AUTO 00000KT 10SM CLR 14/02 A2962 RMK AO2
     T01350020=
KSXK 212335Z AUTO 10006KT 7SM CLR 17/01 A2958 RMK AO2=
KTYQ 212335Z AUTO 19009KT 10SM CLR 17/02 A2988 RMK AO2
     T01720021=
KVVS 212335Z AUTO 00000KT 10SM CLR 10/01 A3004 RMK AO2
     T01010006=
K81R 212335Z AUTO 19009KT 10SM CLR 28/07 A2987 RMK AO2
     T02810071=
KAJZ 212335Z AUTO 24005KT 10SM CLR 23/M07 A2988 RMK AO2 T02311075
     PWINO=
KAQO 212335Z AUTO 18010KT 10SM CLR 28/06 A2988 RMK AO2=
KAUN 212335Z AUTO VRB05KT 9SM CLR 26/06 A2983 RMK A01=
KBVS 212335Z AUTO 00000KT 10SM BKN020 OVC026 09/09 A2974 RMK
     A01=
KC07 212335Z AUTO 28009G17KT 240V310 10SM CLR 06/M09 A3007 RMK
     AO2=
KCCU 212335Z AUTO 24013G24KT 170V270 10SM CLR 07/M12 A3017 RMK
     AO2=
KCFD 212335Z AUTO 17010KT 10SM CLR 27/10 A2992 RMK AO2
     T02720101=
KGOP 212335Z AUTO 10SM CLR 28/06 A2987 RMK AO2=
KJDD 212335Z AUTO 16003KT 10SM CLR 26/11 A2984 RMK AO2=
KLUD 212335Z AUTO 19009KT 7SM CLR 30/01 A2978 RMK AO2
     T02990007=
KMNH 212335Z AUTO 26008KT 10SM CLR 19/M14 A2985 RMK AO2=
KPEZ 212335Z AUTO 16004KT 10SM CLR 28/10 A2992 RMK AO2
     T02800102=
KPSO 212335Z AUTO 22012G16KT 10SM CLR 16/M05 A3005 RMK AO2
     T01551048=
KRAS 212335Z AUTO 16012KT 10SM CLR A2997 RMK AO2=
KRYW 212335Z AUTO 19009KT 10SM CLR 27/08 A2992 RMK AO2
     T02650079=
KS33 212335Z AUTO 23016G21KT 10SM SCT049 BKN070 OVC075 16/07 A2968
     RMK AO2=
KSAA 212335Z AUTO 23016G27KT 10SM CLR 16/M12 A2984 RMK AO2=
KSTK 212335Z AUTO 19006KT 10SM CLR 22/M03 A2963 RMK AO2=
KT74 212335Z AUTO 18009KT 10SM CLR 27/10 A2990 RMK AO2
     T02700096=
KT82 212335Z AUTO 21007KT 10SM CLR 25/07 A2993 RMK AO2
     T02540074=
KTEX 212335Z AUTO 28010G15KT 10SM CLR 12/M12 A3012 RMK AO2=
KVHN 212335Z AUTO 27009KT 10SM CLR 26/06 A3000 RMK AO2
     T02620059=
KLOM 212335Z AUTO 00000KT 10SM CLR 07/04 A3014 RMK AO2
     T00680043=
KLOT 212335Z AUTO 18011KT 10SM CLR 21/04 A2972 RMK AO2=
KLRJ 212335Z AUTO 10005KT 10SM CLR 20/01 A2958 RMK AO2=
KLUV 212335Z AUTO 24009KT 10SM CLR 26/01 A2985 RMK AO2=
KLWB 212335Z AUTO 00000KT 10SM CLR 10/01 A3011 RMK AO2
     T00980006=
KLXN 212335Z AUTO 16006KT 10SM CLR 20/M01 A2961 RMK AO2
     T01971013=
KMDQ 212335Z AUTO 00000KT 10SM CLR 19/04 A3004 RMK A02
     T01870036=
KMGC 212335Z AUTO 19008KT 160V220 10SM CLR 20/02 A2974 RMK AO2=
KMJD 212335Z AUTO 14005KT 10SM CLR 18/12 A3005 RMK AO2=
KMLE 212335Z AUTO 00000KT 10SM CLR 18/03 A2958 RMK AO2
     T01830032=
KMLJ 212335Z AUTO 00000KT 10SM CLR 14/03 A3009 RMK AO2=
KMQB 212335Z AUTO 18010KT 10SM CLR 20/00 A2970 RMK AO2
     T02020004=
KMQI 212335Z AUTO 05006KT 10SM CLR 16/10 A3013 RMK AO2
     T01570098=
KMQS 212335Z AUTO 00000KT 10SM CLR 12/M00 A3014 RMK AO2=
KNOW 212335Z AUTO 30012KT 7SM -RA SCT020 BKN043 OVC050 09/09 A2974
     RMK AO2 P0003 T00900086=
KOBE 212335Z AUTO 02007KT 10SM BKN075 21/15 A2999 RMK AO2=
KOGA 212335Z AUTO 24004KT 10SM CLR 25/M05 A2959 RMK AO2
     T02521047=
KOGS 212335Z AUTO 18007G16KT 10SM CLR 11/M01 A2993 RMK AO2=
KOKM 212335Z AUTO 19016G20KT 10SM CLR 29/05 A2972 RMK AO2
     T02850051=
KOKZ 212335Z AUTO 00000KT 10SM CLR 11/06 A3010 RMK AO2
     T01140056=
KOLE 212335Z AUTO 20007KT 10SM CLR 10/M02 A3001 RMK AO2=
KOLZ 212335Z AUTO 22003KT 4SM HZ CLR 17/01 A2963 RMK A01=
KONL 212335Z AUTO 11004KT 10SM CLR 17/00 A2961 RMK AO2
     T01680000=
KOOA 212335Z AUTO 20008KT 7SM CLR 20/07 A2962 RMK AO2
     T02030070=
