SAUS70 KWBC 220240
METAR
KDZJ 220235Z AUTO 00000KT 10SM CLR 05/02 A3017 RMK AO2
     T00470021=
KE42 220235Z AUTO 21010KT 10SM CLR 17/M04 A2968 RMK AO2
     T01671038=
KEBA 220235Z AUTO 00000KT 10SM CLR 07/01 A3015 RMK AO2
     T00740012=
KEBG 220235Z AUTO 15009KT 10SM CLR 23/17 A2999 RMK AO2 T02250170
     PWINO=
KELA 220235Z AUTO 18006KT 10SM CLR 20/15 A2999 RMK AO2
     T02010145=
KEMM 220235Z AUTO 23012G16KT 10SM CLR 10/M12 A2982 RMK AO2=
KEQA 220235Z AUTO 18014G20KT 10SM CLR 25/M01 A2965 RMK AO2=
KETC 220235Z AUTO 00000KT 10SM SCT055 06/05 A3018 RMK AO2
     T00580050=
KEZZ 220235Z AUTO 18010KT 10SM CLR 21/04 A2965 RMK AO2
     T02130040=
KF00 220235Z AUTO 18012G16KT 10SM CLR 23/09 A2984 RMK AO2
     T02310088=
KFET 220235Z AUTO 00000KT 10SM CLR 10/03 A2958 RMK AO2
     T01030027=
KFHB 220235Z AUTO 02004KT 10SM CLR 14/06 A3013 RMK AO2=
KFIN 220235Z AUTO 33004KT 10SM CLR 14/10 A3010 RMK AO2
     T01390102=
KFOA 220235Z AUTO 16008KT 10SM CLR 12/04 A2989 RMK AO2=
KFSW 220235Z AUTO 00000KT 10SM OVC001 16/04 A2969 RMK AO2=
KFWC 220235Z AUTO 00000KT CLR 16/04 A2989 RMK AO1 T01560038
     PWINO=
KGPC 220235Z AUTO 17007KT 10SM CLR 11/02 A2991 RMK AO2
     T01150016=
KGRN 220235Z AUTO 25007KT 10SM CLR 13/M08 A2952 RMK AO2
     T01311083=
KGWB 220235Z AUTO 20006KT 165V235 10SM CLR 15/03 A2988 RMK AO2=
KHJH 220235Z AUTO 00000KT 10SM CLR 09/01 A2960 RMK AO2
     T00920008=
KHMP 220235Z AUTO 00000KT 10SM CLR 06/05 A3017 RMK AO2
     T00580047=
KHQU 220235Z AUTO 00000KT 10SM CLR 06/04 A3016 RMK AO2
     T00640041=
KIDP 220235Z AUTO 17010G18KT 10SM CLR 23/06 A2970 RMK AO2
     T02340055=
KIIY 220235Z AUTO 00000KT 10SM CLR 09/02 A3016 RMK AO2
     T00870017=
KIYA 220235Z AUTO 16004KT CLR 17/14 A3007 RMK AO2 T01670139
     PWINO=
KJCA 220235Z AUTO 12007KT 10SM CLR 08/02 A3016 RMK AO2
     T00800025=
KJDD 220235Z AUTO 18003KT 10SM CLR 22/11 A2988 RMK AO2=
KLHB 220235Z AUTO 16012G15KT 10SM CLR 23/14 A2995 RMK AO2
     T02310141=
KLHM 220235Z AUTO 17008KT 10SM CLR 22/05 A2973 RMK AO1=
KLNN 220235Z AUTO 20009G18KT 10SM CLR 14/M03 A2995 RMK AO1
     T01421029=
KLUD 220235Z AUTO 17013KT 10SM CLR 25/08 A2981 RMK AO2
     T02450075=
KLUL 220235Z AUTO 19008KT 10SM CLR 18/10 A3008 RMK A02
     T01850098=
KMDD 220235Z AUTO 19009KT 10SM CLR 21/07 A2988 RMK AO2
     T02150074=
KMGR 220235Z AUTO 00000KT 10SM CLR 09/05 A3015 RMK AO2=
KMKS 220235Z AUTO 00000KT 10SM CLR 07/06 A3015 RMK AO2=
KMNH 220235Z AUTO 27006KT 10SM CLR 11/M15 A2987 RMK AO2=
KMPR 220235Z AUTO 16011KT 10SM CLR 20/00 A2960 RMK AO2
     T02020002=
KMWA 220235Z AUTO 19003KT 10SM CLR 14/07 A2990 RMK AO2
     T01420074=
KMWK 220235Z AUTO 00000KT 10SM CLR 06/01 A3019 RMK AO2
     T00610014=
KMWO 220235Z AUTO 00000KT 10SM CLR 07/02 A2999 RMK AO2
     T00660019=
KMZZ 220235Z AUTO 18008KT 10SM CLR 13/02 A2992 RMK AO2
     T01250020=
KN03 220235Z AUTO 21004KT 10SM CLR 09/M02 A3009 RMK AO2=
KOLE 220235Z AUTO 20006KT 10SM CLR 08/M01 A3004 RMK AO2=
KOLY 220235Z AUTO 17007KT 10SM CLR 16/03 A2989 RMK AO2
     T01590026=
KONX 220235Z AUTO 00000KT 10SM CLR 10/09 A3018 RMK AO2
     T00970093=
KOQN 220235Z AUTO 00000KT 10SM CLR 09/04 A3018 RMK AO2=
KPCD 220235Z AUTO 14004KT 10SM CLR 13/08 A2986 RMK AO2
     T01290077=
KPEZ 220235Z AUTO 15005KT 10SM CLR 21/13 A2996 RMK AO2
     T02100131=
KPMV 220235Z AUTO 14005KT 10SM CLR 17/00 A2959 RMK AO2
     T01691003=
KPPO 220235Z AUTO 20006KT 10SM CLR 16/07 A2981 RMK AO2
     T01550065=
KPRG 220235Z AUTO 16008KT 10SM CLR 13/04 A2988 RMK AO2
     T01250035=
KPSO 220235Z AUTO 00000KT 10SM CLR 07/M04 A3007 RMK AO2
     T00651037=
