SAUS70 KWBC 220100
METAR
KC62 220055Z AUTO 20011G16KT 10SM CLR 16/03 A2984 RMK AO2
     T01660036=
