SAUS80 KWBC 220244
METAR
KSOA 220235Z AUTO 17006KT 10SM 21/10 A2997 RMK AO2=
KCUL 220233Z AUTO 17006KT 10SM CLR 13/05 A2990 RMK AO2=
KDVK 220230Z AUTO 00000KT 10SM CLR 09/01 A3004 RMK AO2=
KNY0 220234Z AUTO 16004KT 10SM CLR 07/M02 A3012 RMK AO2=
KROS 220242Z AUTO 00000KT 10SM CLR 09/05 A2963 RMK AO2=
K9V9 220235Z AUTO 14010KT 10SM CLR 11/02 A2951 RMK AO2
     T01060017=
KCBE 220235Z AUTO 00000KT 10SM CLR 06/02 A3017 RMK AO2
     T00600016=
KROS 220242Z AUTO 00000KT 10SM CLR 09/05 A2963 RMK AO2=
KSFY 220243Z AUTO 16008KT 10SM CLR 15/03 A2968 RMK AO2=
KGIC 220235Z AUTO 07004KT 1 1/4SM OVC003 05/05 A2962 RMK AO1
     P0002=
