SAUS70 KWBC 220200 RRA
METAR
KHWV 220156Z AUTO 00000KT 10SM CLR 08/06 A3019 RMK AO2 SLP222
     T00830056=
K13K 220155Z AUTO 17012KT 10SM CLR 23/04 A2967 RMK AO2
     T02340045=
K18A 220155Z AUTO 00000KT 10SM CLR 09/M01 A3015 RMK AO2
     T00931008=
K1F0 220155Z AUTO 17008KT 10SM CLR 23/07 A2978 RMK AO2
     T02340072=
K1H2 220155Z AUTO 13006KT 10SM CLR 16/03 A2988 RMK AO2
     T01600032=
K2J3 220155Z AUTO 00000KT 10SM CLR 09/05 A3014 RMK AO2
     T00890049=
K2R9 220155Z AUTO 15013KT 10SM CLR 22/15 A2997 RMK AO2
     T02170146=
K2V5 220155Z AUTO 17009KT 10SM CLR 17/M07 A2965 RMK AO2=
K3F3 220155Z AUTO 17007KT 10SM CLR 22/13 A2998 RMK AO2
     T02210132=
K4A9 220155Z AUTO 00000KT 10SM CLR 08/04 A3010 RMK AO2
     T00770044=
K5SM 220155Z AUTO 24014G21KT 10SM CLR 02/M11 A3014 RMK AO2=
K7BM 220155Z AUTO 30009G18KT 220V350 10SM CLR 08/M11 A3004 RMK
     AO2=
K81R 220155Z AUTO 18008KT 10SM CLR 24/09 A2990 RMK AO2
     T02350086=
K9A5 220155Z AUTO 00000KT 10SM CLR 07/05 A3012 RMK AO2
     T00650050=
KAHQ 220155Z AUTO 00000KT 5SM HZ CLR 10/00 A2958 RMK AO2
     T01041001=
KAND 220156Z AUTO 00000KT 10SM CLR 08/02 A3014 RMK AO2 SLP205
     T00830022=
KASL 220155Z AUTO 00000KT 10SM CLR 20/12 A2990 RMK AO2 T02000116
     TSNO $=
KAUH 220155Z AUTO 16004KT 7SM CLR 09/M02 A2960 RMK AO2
     T00851024=
KBBB 220157Z AUTO 17004KT 10SM CLR 10/01 A2959 RMK AO2=
KBGE 220155Z AUTO 00000KT 10SM CLR 11/03 A3013 RMK AO2
     T01110029=
KBIE 220155Z AUTO 00000KT 7SM CLR 13/02 A2960 RMK AO2
     T01250015=
KBJJ 220156Z AUTO 19009KT 10SM CLR 12/01 A2999 RMK AO2 SLP160
     T01170006=
KBPG 220155Z AUTO 18009KT 10SM CLR 21/06 A2986 RMK AO2
     T02100060=
KBQP 220155Z AUTO 18004KT 10SM CLR 21/12 A2996 RMK AO2
     T02080115=
KBVN 220155Z AUTO 00000KT 7SM CLR 09/M01 A2959 RMK AO2
     T00861014=
KC07 220155Z AUTO 26009KT 240V300 10SM CLR 03/M08 A3007 RMK
     AO2=
KCEC 220156Z AUTO 16007KT 6SM HZ OVC016 14/11 A2989 RMK AO2
     RAB03E41 SLP122 P0002 T01390111=
KCFD 220155Z AUTO 17007KT 10SM CLR 23/12 A2996 RMK AO2
     T02340121=
KCFS 220155Z AUTO 19011G15KT 10SM CLR 18/02 A2976 RMK AO2
     T01750024=
KCKC 220157Z AUTO 00000KT 10SM CLR 08/02 A2958 RMK AO2=
KCKN 220155Z AUTO 22004KT 10SM SCT080 12/M01 A2956 RMK AO2=
KSLE 220156Z 18006KT 10SM OVC008 12/11 A2965 RMK AO2 CIG 006V011
     SLP040 T01170106=
KSME 220155Z AUTO 19003KT 10SM CLR 14/01 A3004 RMK AO2=
KSTK 220155Z AUTO 21005KT 10SM CLR 13/M05 A2964 RMK AO2=
KSXK 220155Z AUTO 10009KT 10SM SCT025 SCT031 13/01 A2958 RMK
     AO2=
KT41 220155Z AUTO 10SM CLR 22/15 A3002 RMK AO2 T02160149=
KT74 220155Z AUTO 17006KT 10SM CLR 20/10 A2993 RMK AO2
     T02050102=
KT82 220155Z AUTO 00000KT 10SM CLR 19/08 A2996 RMK AO2
     T01940077=
KTEX 220155Z AUTO 00000KT 10SM CLR 08/M10 A3012 RMK AO2=
KTPH 220156Z AUTO 23009KT 10SM CLR 17/M07 A2991 RMK AO2 SLP098
     T01671072=
KTYQ 220155Z AUTO 18008KT 10SM CLR 14/02 A2991 RMK AO2
     T01390018=
KUKI 220156Z AUTO 36006KT 10SM CLR 21/08 A2981 RMK AO2 PK WND
     32026/0105 SLP091 T02060083=
KVHN 220155Z AUTO 22005KT 10SM CLR 19/08 A3003 RMK AO2
     T01930078=
KVTP 220155Z AUTO 24015G24KT 10SM CLR 05/M08 A3006 RMK AO2=
KVVS 220155Z AUTO 06003KT 10SM CLR 08/00 A3007 RMK AO2
     T00840004=
KVYS 220155Z AUTO 17009KT 10SM CLR 15/04 A2973 RMK AO2
     T01510042=
KZPH 220155Z AUTO 01004KT 10SM CLR 13/06 A3009 RMK A02
     T01340060=
KCQF 220155Z AUTO 00000KT 10SM CLR 11/09 A3011 RMK AO2=
KCQM 220157Z AUTO 00000KT 10SM CLR 09/01 A2957 RMK AO2=
KDUC 220155Z AUTO 16008KT 10SM CLR 21/04 A2975 RMK AO2
     T02060038=
