SASA41 KWBC 212300 RRA
METAR
SKMD 212300Z 15003KT 9999 -DZ FEW033 SCT090 20/17 Q1017 RERA RMK
     A3006=
SKSM 212300Z 18006KT 9999 TS SCT015CB BKN070 27/23 Q1009 RETSRA
     RMK CB/SE A2983=
