SAUS80 KWBC 220000 RRD
METAR
KSYR 212354Z 14007KT 10SM FEW200 SCT250 12/M02 A3002 RMK AO2
     SLP163 T01221022 10172 20117 51012=
KAPN 212354Z AUTO 15006KT 10SM CLR 12/04 A2964 RMK AO2 SLP042
     T01220044 10189 20122 53017=
KCAR 212354Z AUTO 19006KT 10SM CLR 08/M01 A3004 RMK AO2 SLP182
     T00781011 10128 20072 51013=
KATT 212351Z AUTO 18005KT 10SM CLR 27/09 A2990 RMK AO2 SLP118
     T02670094 10311 20261 56007=
KCOS 212354Z 16006KT 10SM FEW230 22/M11 A2979 RMK AO2 SLP003
     T02171111 10244 20217 56013=
KACY 212354Z 00000KT 10SM CLR 09/06 A3016 RMK AO2 SLP214 T00940056
     10189 20089 53010=
KSYR 212354Z 14007KT 10SM FEW200 SCT250 12/M02 A3002 RMK AO2
     SLP163 T01221022 10172 20117 51012=
PHNY 212356Z AUTO 27009KT 10SM CLR 27/19 A3004 RMK AO2 SLP151
     T02720189 10278 20228 58019 $=
PAQT 212353Z AUTO 09013KT 10SM OVC012 M03/M05 A2986 RMK AO2 SLP113
     60000 T10281050 11028 21033 53006 TSNO=
KJNX 212355Z AUTO 00000KT 10SM CLR 08/06 A3013 RMK AO2=
KMKN 212355Z AUTO 19010KT 10SM CLR 28/06 A2983 RMK AO2 T02840060
     10326 20284=
K9MN 212355Z AUTO 00000KT 10SM CLR 18/03 A2964 RMK AO1 T01770025
     10206 20175=
KCIR 212355Z AUTO 21005KT 10SM CLR 21/09 A2987 RMK AO2 T02080085
     10260 20208=
KVTI 212355Z AUTO 00000KT 7SM CLR 21/01 A2962 RMK AO2 60003
     T02130008 10272 20213=
KEDU 220000Z AUTO 18008KT 10SM CLR 24/11 A2976 RMK AO1=
KSNC 212355Z AUTO 20005KT 10SM CLR 12/07 A3015 RMK AO2=
KRFI 212355Z AUTO 16003KT 10SM CLR 27/06 A2989 RMK AO2 T02650057
     10313 20265=
KRLD 212355Z AUTO 15004KT 10SM -RA BKN075 OVC090 11/07 A2969 RMK
     AO2 P0003 60006 T01050073 10145 20102=
KS39 212355Z AUTO 24008KT 10SM BKN055 BKN060 OVC075 16/07 A2967
     RMK AO2=
KSEP 212355Z AUTO 19005KT 10SM SCT120 28/03 A2985 RMK AO2
     T02810028 10322 20281=
KSYN 212355Z AUTO 00000KT 10SM CLR 12/02 A2963 RMK AO2 T01160018
     10206 20115=
KTKC 212355Z AUTO 00000KT 10SM 12/00 A2962 RMK AO2 T01210001 10186
     20121=
KTKV 212355Z AUTO 00000KT 10SM CLR 10/03 A2961 RMK AO2 T01020030
     10192 20102 PWINO=
K6R6 212351Z AUTO 14007KT 24/11 A2991 RMK AO1 SLP105 T02390111
     10278 20239 56012=
KGNG 212355Z AUTO 28010G16KT 10SM CLR 19/01 A2971 RMK AO2=
PADK 212356Z AUTO 00000KT BKN018 OVC023 06/05 A2996 RMK AO2 SLP145
     P0003 60012 T00610050 10067 20039 58014 PWINO $=
KALK 212356Z AUTO 25013KT 10SM CLR 24/10 A3004 RMK AO2 SLP092
     T02440100 10272 20244 57004=
KGNR 212356Z AUTO 19004KT 08/M02 A3007 RMK AO1 SLP193 T00781017
     10128 20072 53013=
KMHS 212356Z AUTO 00000KT 10SM CLR 19/03 A2984 RMK AO2 SLP105
     T01940033 10233 20194 56016=
