SAUS70 KWBC 220000
METAR
KLJF 212355Z AUTO 00000KT 10SM CLR 12/01 A2962 RMK AO2=
KLNK 212354Z 00000KT 10SM CLR 17/01 A2959 RMK AO2 SLP018 T01670011
     10261 20167 55004=
KLVS 212353Z AUTO 23010KT 10SM CLR 18/M03 A2997 RMK AO2 SLP067
     T01781033 10233 20178 53002=
KLWM 212354Z VRB03KT 10SM CLR 12/06 A3015 RMK AO2 SLP210 T01220061
     10172 20117 51015=
KMEM 212354Z 16007KT 10SM CLR 23/10 A2990 RMK AO2 SLP124 T02280100
     10267 20228 53001=
KMFI 212354Z AUTO 27004KT 10SM CLR 12/03 A2962 RMK AO2 SLP037
     T01220028 10206 20111 53019=
KMGG 212355Z AUTO 00000KT 10SM CLR 13/01 A2963 RMK AO2 T01250010
     10187 20104 PWINO=
KMGN 212355Z AUTO 00000KT 10SM CLR 13/07 A2961 RMK AO2
     T01410070=
KMKC 212354Z 20005KT 10SM CLR 24/04 A2963 RMK AO2 SLP029 T02390039
     10306 20233 55002=
KMQJ 212355Z AUTO 16005KT 10SM CLR 16/02 A2990 RMK AO1=
KMTN 212354Z 00000KT 10SM CLR 09/06 A3015=
KMVE 212355Z AUTO 00000KT 5SM HZ CLR 13/01 A2961 RMK AO2=
KOFP 212354Z AUTO 00000KT 10SM CLR 10/06 A3015 RMK AO2 SLP208
     T01000056 10206 20100 53009=
KOLS 212354Z AUTO 23011KT 10SM FEW070 SCT085 27/11 A2998 RMK AO2
     SLP098 T02720111 10294 20267 58005=
KOVL 212355Z AUTO 00000KT 5SM HZ CLR 14/00 A2962 RMK AO2=
KOZW 212355Z AUTO 16006KT 10SM CLR 16/04 A2978 RMK AO2 T01600041
     10209 20160=
KPHF 212354Z 07003KT 10SM CLR 08/07 A3016 RMK AO2 SLP211 60000
     T00830067 10194 20078 53009=
KPSF 212354Z AUTO 00000KT 10SM CLR 06/M01 A3010 RMK AO2 SLP197
     T00611006 10139 20056 51010=
KPVG 212355Z 00000KT 10SM CLR 07/06 A3016 RMK AO2 SLP302 10210
     20070 52010 PWINO PNO FZRANO RVRNO=
KPWC 212355Z AUTO 00000KT 10SM CLR 09/02 A2963 RMK AO2=
KRGK 212355Z AUTO 00000KT 10SM CLR 12/03 A2962 RMK AO2=
KELO 212355Z AUTO 25003KT 10SM CLR 10/00 A2957 RMK AO2=
KEVV 212354Z 15004KT 10SM CLR 19/02 A2990 RMK AO2 SLP124 T01940022
     10250 20189 53001=
KFBL 212355Z AUTO 00000KT 7SM CLR 11/03 A2963 RMK AO2=
KFFM 212355Z AUTO 20005KT 10SM CLR 13/01 A2957 RMK AO2=
KFGN 212355Z AUTO 22003KT 10SM OVC110 11/01 A2950 RMK AO2=
KFSE 212355Z AUTO 18005KT 10SM CLR 09/M01 A2956 RMK AO2=
KFSO 212355Z AUTO 18009G15KT 10SM CLR 13/M03 A3003 RMK AO2
     T01301031 10150 20129=
KFXE 212353Z 33007KT 10SM OVC080 24/18 A2995 RMK AO2 SLP145
     T02390183 10278 20239 53010 $=
KGCK 212354Z 10004KT 8SM CLR 23/M03 A2964 RMK AO2 SLP020 T02281028
     10300 20228 56009=
KGCN 212354Z 23010KT 10SM CLR 17/01 A3007 RMK AO2 SLP131 T01720006
     10183 20150 56015=
KGHW 212355Z AUTO 00000KT 10SM CLR 13/00 A2961 RMK AO2=
KGYL 212355Z AUTO 00000KT 7SM CLR 15/01 A2963 RMK AO2 T01460010
     10189 20135=
KHCO 212355Z AUTO 24006KT 10SM OVC100 13/01 A2950 RMK AO2=
KHZL 212355Z AUTO 00000KT 10SM CLR 08/M01 A3014 RMK AO2=
KI69 212355Z AUTO 18005KT 10SM CLR 17/00 A2998 RMK AO2 T01650002
     10221 20164=
KICT 212353Z 15009KT 10SM SCT150 BKN250 26/01 A2961 RMK AO2 SLP020
     T02610011 10311 20261 56010=
KILN 212354Z AUTO 18006KT 10SM CLR 14/00 A2997 RMK AO2 SLP158
     T01440000 10217 20144 53010=
KIML 212353Z AUTO 17008KT 10SM CLR 21/M05 A2962 RMK AO2 SLP014
     T02061050 10267 20206 56016=
KIMT 212354Z AUTO 01003KT 10SM CLR 09/03 A2958 RMK AO2 SLP026
     T00890028 10194 20078 53028=
KIND 212354Z 18009KT 10SM FEW200 SCT250 17/02 A2988 RMK AO2 SLP118
     T01720017 10239 20167 53009=
KISW 212354Z AUTO 24003KT 10SM CLR 14/03 A2963 RMK AO2 SLP038
     T01390033 10217 20128 53018=
KIZG 212354Z AUTO 00000KT 10SM CLR 02/01 A3013 RMK AO2 SLP207
     T00220006 10144 20022 53013=
KJKJ 212355Z AUTO 13004KT 10SM SCT120 14/M01 A2955 RMK AO2
     TSNO=
KJMR 212355Z AUTO 00000KT 10SM CLR 11/03 A2965 RMK AO2=
