SAUS80 KWBC 212300 RRC
METAR
KNUI 212253Z AUTO 00000KT CLR 12/08 A3013 RMK AO2 SLP201
     T01220078=
KSBN 212254Z 20011G22KT 10SM CLR 21/03 A2975 RMK AO2 SLP074
     T02060033=
KCQC 212253Z AUTO 27019G30KT 10SM CLR 17/M01 A3005 RMK AO2 PK WND
     27033/2154 SLP118 T01721011=
KATT 212251Z AUTO 20007KT 160V220 10SM CLR 28/09 A2991 RMK AO2
     SLP118 T02830089=
KCOS 212254Z VRB05KT 10SM FEW230 23/M11 A2980 RMK AO2 SLP001
     T02331111=
KDRA 212253Z AUTO 23013G19KT 10SM CLR 27/M03 A2987 RMK AO2 SLP079
     T02721033=
KGDP 212251Z AUTO 25029G38KT 9SM CLR 23/04 A3002 RMK AO2 PK WND
     25041/2209 SLP104 T02280044=
KP68 212253Z AUTO 28012G20KT 22/M13 A2990 RMK AO1 SLP069
     T02171133=
KP69 212252Z AUTO 00000KT 09/07 A2977 RMK AO1 SLP083 P0006
     T00890067=
KCLI 212255Z AUTO 25004KT 10SM CLR 18/04 A2959 RMK AO2
     T01820037=
KY23 212255Z AUTO 00000KT 10SM CLR 16/06 A2959 RMK AO2
     T01630060=
KACY 212254Z 19003KT 10SM CLR 13/07 A3015 RMK AO2 SLP208
     T01330067=
KAVP 212254Z 00000KT 10SM CLR 13/M02 A3008 RMK AO2 SLP189
     T01281022=
KBTV 212254Z 18010KT 10SM CLR 12/M03 A3003 RMK AO2 SLP172
     T01221028=
KCRW 212254Z 17003KT 10SM FEW250 14/02 A3004 RMK AO2 SLP174
     T01390017=
KINL 212254Z AUTO 25003KT 10SM CLR 13/M01 A2952 RMK AO2 SLP003
     T01281011=
KP59 212251Z AUTO VRB05KT 13/04 A2952 RMK AO1 SLP998 T01330044=
KSYR 212254Z 17005KT 10SM FEW200 SCT250 13/M03 A3001 RMK AO2
     SLP162 T01331028=
K12N 212254Z AUTO 00000KT 10/04 A3012 RMK AO1 SLP204 T01000044=
KFWA 212254Z 20010KT 10SM FEW250 18/02 A2983 RMK AO2 SLP103
     T01780022=
KMTP 212254Z AUTO VRB03KT 14/09 A3016 RMK AO1 SLP214 T01440089=
KMVL 212254Z AUTO 00000KT 10SM CLR 06/01 A3005 RMK AO2 SLP186
     T00610011=
KPOV 212255Z AUTO 00000KT 10SM CLR 14/M02 A2995 RMK AO2 T01421025
     PWINO=
KPZQ 212255Z AUTO 19007KT 10SM CLR 18/06 A2960 RMK AO2
     T01750055=
KRFD 212254Z 19007KT 10SM CLR 21/05 A2966 RMK AO2 SLP045
     T02060050=
KSNC 212255Z AUTO 19004KT 10SM CLR 10/04 A3014 RMK AO2=
PHJR 212253Z 14008KT 10SM CLR 30/22 A3001 RMK AO2 SLP168
     T03000217=
KSOW 212255Z AUTO 23016KT 10SM CLR 20/M01 A3010 RMK AO2=
KGNG 212255Z AUTO 29014G19KT 10SM CLR 20/01 A2972 RMK AO2=
KJNX 212255Z AUTO 00000KT 10SM CLR 11/07 A3011 RMK AO2=
KAST 212255Z AUTO 12006KT 3SM -RA BR SCT006 BKN011 OVC038 11/10
     A2970 RMK AO2 CIG 006 RWY 08 SLP058 P0008 T01110100=
KCIR 212255Z AUTO 22005KT 10SM CLR 24/08 A2986 RMK AO2
     T02350084=
KEDU 212300Z AUTO 19010KT 10SM CLR 25/08 A2978 RMK AO1=
PHNY 212256Z AUTO 28006KT 10SM CLR 27/19 A3007 RMK AO2 SLP160
     T02670189 $=
KSCK 212255Z 32007KT 10SM CLR 30/11 A2979 RMK AO2 SLP085
     T03000106=
KSEP 212255Z AUTO 20011G17KT 10SM CLR 31/02 A2986 RMK AO2
     T03050016=
KTKV 212255Z AUTO 00000KT 10SM CLR 15/03 A2959 RMK AO2 T01500030
     PWINO=
KMKN 212255Z AUTO 19015KT 10SM CLR 31/05 A2985 RMK AO2
     T03070054=
KRFI 212255Z AUTO 19005KT 10SM CLR 29/04 A2989 RMK AO2
     T02930041=
KRLD 212255Z AUTO 19005KT 10SM -RA SCT050 BKN065 OVC090 10/08
     A2970 RMK AO2 P0002 T01030080=
KRNO 212255Z 25019G24KT 10SM FEW100 SCT220 25/M05 A2988 RMK AO2
     SLP079 T02501050=
KS39 212255Z AUTO 23013G22KT 10SM OVC055 17/06 A2971 RMK AO2=
KVTI 212255Z AUTO 28003KT 10SM CLR 25/00 A2961 RMK AO2
     T02450000=
KSXT 212256Z AUTO VRB04KT 10SM SCT024 BKN031 OVC047 13/08 A2991
     RMK AO2 SLP107 T01330078=
KMHS 212256Z AUTO 00000KT 10SM CLR 22/03 A2985 RMK AO2 SLP105
     T02220028=
KP60 212256Z AUTO 09/M03 A2978 RMK AO1 PK WND 30027/2203 SLP032
     T00891033=
