SAUS70 KWBC 220200 RRO
METAR
KAJZ 220155Z AUTO 23006KT 10SM CLR 18/M04 A2989 RMK AO2 T01761040
     PWINO=
KAQO 220155Z AUTO 16005KT 10SM CLR 22/07 A2991 RMK AO2=
KAUN 220155Z AUTO 13004KT 10SM CLR 22/07 A2981 RMK A01=
KCFD 220155Z AUTO 17007KT 10SM CLR 23/12 A2996 RMK AO2
     T02340121=
KCTB 220156Z AUTO 14005KT 10SM OVC005 03/03 A2953 RMK AO2 CIG
     004V008 SLP011 T00330033=
KELA 220155Z AUTO 18008KT 10SM CLR 21/14 A2999 RMK AO2
     T02130143=
KF00 220155Z AUTO 17009KT 10SM CLR 22/09 A2984 RMK AO2
     T02230086=
KFFZ 220154Z 30005KT 10SM CLR 28/09 A2982 RMK AO2 SLP075
     T02830094=
KGVT 220155Z AUTO 17012KT 10SM CLR 23/11 A2986 RMK AO2 TSNO
     T02300110=
KIWA 220158Z 27006KT 10SM CLR 27/11 A2983=
KJAS 220155Z AUTO 19010KT 9SM FEW047 21/17 A2999 RMK AO2=
KSBP 220156Z 32006KT 9SM SCT016 15/12 A2989 RMK AO2 SLP121
     T01500117=
KT82 220155Z AUTO 00000KT 10SM CLR 19/08 A2996 RMK AO2
     T01940077=
KVTP 220155Z AUTO 24015G24KT 10SM CLR 05/M08 A3006 RMK AO2=
KWHP 220150Z 00000KT 10SM SKC 22/15 A2989 RMK OBSERVER HT=
KBDG 220155Z AUTO 00000KT 10SM 15/M03 A3003 RMK AO1 T01461034=
KBVS 220155Z AUTO 00000KT 10SM BKN010 BKN015 OVC024 09/09 A2970
     RMK A01 P0003=
KBYY 220155Z AUTO 16005KT 10SM SCT042 18/14 A3001 RMK AO2
     T01880146=
KCCU 220155Z AUTO 26013KT 10SM CLR 03/M10 A3016 RMK AO2=
KCOM 220155Z AUTO 20007KT 10SM CLR 23/04 A2987 RMK AO2
     T02330040=
KCPW 220155Z AUTO 22025G34KT 10SM CLR 00/M07 A3025 RMK AO2=
KDKB 220155Z AUTO 18009KT 10SM CLR 12/05 A2974 RMK AO2
     T01170053=
KDKR 220155Z AUTO 15009KT 10SM CLR 23/10 A2994 RMK AO2=
KDVO 220155Z AUTO 00000KT 10SM FEW018 15/12 A2984 RMK AO2=
KE11 220155Z AUTO 21007KT 10SM CLR 21/06 A2989 RMK AO2
     T02050063=
KE16 220155Z AUTO 14012KT 10SM CLR 14/10 A2987 RMK AO2 PWINO
     PNO=
KE41 220155Z AUTO 18008KT 10SM CLR 20/09 A2993 RMK AO2
     T02010090=
KECU 220155Z AUTO 16010KT 10SM CLR 19/08 A3001 RMK AO2=
KFMM 220155Z AUTO 00000KT 10SM CLR 19/M09 A2967 RMK AO2=
KGCD 220155Z AUTO 30009KT 10SM RA OVC050 12/06 A2963 RMK AO2
     T01150063=
KGOP 220155Z AUTO 10SM CLR 24/09 A2990 RMK AO2=
KHII 220155Z AUTO 15006KT 10SM CLR 29/05 A2976 RMK AO2=
KLAM 220155Z AUTO 20006KT 10SM CLR 13/M03 A3006 RMK AO2
     T01301031=
KLLN 220155Z AUTO 24012KT 10SM CLR 18/04 A2986 RMK AO2=
KPLU 220155Z AUTO 00000KT 6SM -RA SCT029 OVC038 08/08 A2968 RMK
     AO2=
KPNA 220155Z AUTO 30003KT 10SM CLR 10/M08 A2980 RMK AO2=
KPOY 220155Z AUTO 29007KT 10SM SCT095 SCT120 15/M05 A2951 RMK
     AO2=
KRCV 220155Z AUTO 25015G20KT 10SM CLR 12/M06 A3000 RMK AO2
     T01211057=
KCNC 220155Z AUTO 16007KT 10SM CLR 18/03 A2962 RMK AO2=
KDNS 220155Z AUTO RMK AO2 PWINO=
KDNV 220155Z AUTO 19008KT 10SM CLR 18/03 A2985 RMK AO2
     T01760025=
KEOK 220155Z AUTO 20011G19KT 10SM CLR 22/04 A2966 RMK A01=
KFEP 220155Z AUTO 19010KT 10SM CLR 17/06 A2970 RMK AO2
     T01660064=
KFFL 220155Z AUTO 16006KT 10SM CLR 18/01 A2966 RMK A01=
KFKR 220155Z AUTO 17007KT 10SM FEW024 SCT028 BKN041 13/02 A2987
     RMK AO2=
KGBG 220155Z AUTO 14003KT 10SM CLR 17/05 A2972 RMK AO2
     T01660049=
KGGP 220155Z AUTO 19009KT 10SM CLR 15/02 A2988 RMK AO2=
KGHG 220155Z AUTO 22005KT 10SM CLR 10/06 A3019 RMK AO2=
KHDE 220155Z AUTO 19003KT 10SM CLR 13/M02 A2961 RMK AO2
     T01321018=
KHNR 220155Z AUTO 06004KT 9SM CLR 08/00 A2959 RMK A01=
KIKK 220155Z AUTO 19009KT 10SM CLR 17/03 A2979 RMK AO2
     T01660026=
KJOT 220155Z AUTO 20008KT 10SM CLR 20/04 A2976 RMK AO2
     T01980040=
KJYR 220155Z AUTO 00000KT 9SM CLR 12/M01 A2960 RMK AO2=
KLOM 220155Z AUTO 00000KT 10SM CLR 05/03 A3018 RMK AO2
     T00480033=
