SAUS80 KWBC 212350
METAR
KNY0 212334Z AUTO 15004KT 10SM CLR 08/M02 A3007 RMK AO2=
KROS 212343Z AUTO 00000KT 10SM BKN110 14/04 A2961 RMK AO2=
