SAUS70 KWBC 220000 RRK
METAR
KSLE 212356Z 00000KT 1 1/2SM BR OVC002 11/10 A2974 RMK AO2 RAE10
     CIG 002V008 SLP071 P0000 60013 T01060100 10139 20106
     55021=
KT82 212355Z AUTO 19006KT 10SM CLR 25/08 A2993 RMK AO2 T02450078
     10286 20245=
KVHN 212355Z AUTO 28007KT 10SM CLR 26/06 A3000 RMK AO2 T02570061
     10280 20237 402800088=
K1H2 212355Z AUTO 15005KT 10SM CLR 19/03 A2986 RMK AO2 T01850027
     10249 20185=
K57C 212355Z AUTO 20005KT 10SM CLR 19/05 A2965 RMK AO2 T01900045
     10240 20190=
KAHQ 212355Z AUTO 15004KT 7SM CLR 18/00 A2958 RMK AO2 T01750000
     10265 20175=
KAUH 212355Z AUTO 00000KT 10SM CLR 18/M01 A2960 RMK AO2 T01841006
     10255 20184=
KBBB 212357Z AUTO 00000KT 10SM CLR 12/01 A2961 RMK AO2=
KC35 212355Z AUTO 00000KT 10SM CLR 16/03 A2962 RMK AO2 T01630033
     10238 20163 PWINO=
KCKN 212355Z AUTO 22005KT 10SM CLR 12/M02 A2954 RMK AO2=
KFET 212355Z AUTO 15003KT 10SM CLR 20/03 A2959 RMK AO2 T01980026
     10266 20198=
KFWC 212355Z AUTO 16003KT CLR 19/01 A2986 RMK AO1 T01850013 10250
     20185 PWINO=
KGDB 212355Z AUTO 13003KT 10SM CLR 15/02 A2962 RMK AO2 T01480016
     10191 20141=
KGPC 212355Z AUTO 17008KT 10SM CLR 15/02 A2987 RMK AO2 T01520018
     10234 20149 402340068=
KMWO 212355Z AUTO 21003KT 10SM CLR 14/00 A2996 RMK AO2 T01391002
     10224 20136 402241015=
KOQN 212355Z AUTO 00000KT 10SM CLR 11/01 A3014 RMK AO2=
KPHN 212355Z AUTO 18007KT 10SM CLR 13/02 A2981 RMK AO2=
KPMV 212355Z AUTO 00000KT 10SM CLR 21/M01 A2959 RMK AO2 T02111010
     10251 20204 PWINO=
KRPJ 212355Z AUTO 17007KT 10SM CLR 15/07 A2969 RMK AO2 T01540066
     10238 20154 TSNO=
KRSV 212355Z AUTO 18005KT 10SM CLR 16/01 A2987 RMK AO2 T01550012
     10245 20155=
KBIE 212355Z AUTO 00000KT 10SM CLR 19/01 A2958 RMK AO2 T01850010
     10275 20185=
KBVN 212355Z AUTO 00000KT 7SM CLR 17/M01 A2960 RMK AO2 T01701014
     10245 20170=
KDIK 212356Z AUTO 02007KT 10SM OVC100 12/02 A2949 RMK AO2 SLP994
     T01170022 10172 20117 52012=
KELZ 212356Z AUTO 19008KT 10SM CLR 12/M03 A3003 RMK AO2 SLP177
     T01221028 10161 20122 51012=
KFOA 212355Z AUTO 17007KT 10SM CLR 15/02 A2986 RMK AO2=
KGLX 212355Z AUTO 05009KT 10SM CLR 21/12 A3008 RMK A01=
KGRN 212355Z AUTO 19003KT 10SM CLR 17/M08 A2953 RMK AO2 T01651082
     10236 20165=
KHJH 212355Z AUTO 00000KT 7SM CLR 20/00 A2958 RMK AO2 T01961004
     10270 20196=
KMZZ 212355Z AUTO 20010KT 10SM CLR 16/03 A2988 RMK AO2 T01600028
     10329 21023=
KN03 212355Z AUTO 24003KT 10SM CLR 09/M02 A3006 RMK AO2=
KOXV 212355Z AUTO 14006KT 10SM CLR 23/01 A2961 RMK AO2=
KPPO 212355Z AUTO 00000KT 10SM CLR 19/07 A2977 RMK AO2 T01870068
     10233 20187=
KSXK 212355Z AUTO 11006KT 9SM CLR 17/01 A2958 RMK AO2=
KTYQ 212355Z AUTO 19008KT 10SM CLR 16/02 A2988 RMK AO2 T01610020
     10226 20161=
KVYS 212355Z AUTO 17010KT 10SM CLR 18/04 A2969 RMK AO2
     T01840043=
KOSC 212355Z AUTO 21011G15KT 10SM CLR 16/05 A2967 RMK AO2
     T01620047 10175 20142=
KSGH 212356Z AUTO 18004KT 10SM CLR 15/01 A2996 RMK AO2 SLP148
     T01500006 10211 20150 53012=
KADS 212347Z 16010G15KT 10SM SKC 28/06 A2980=
KASL 212355Z AUTO 00000KT 9SM CLR 24/11 A2986 RMK AO2 T02400112
     TSNO $=
KBQX 212355Z AUTO 17015KT 10SM 24/14 A3000 RMK A01=
KEED 212356Z AUTO 00000KT 10SM CLR 32/04 A2977 RMK AO2 SLP052
     T03220039 10328 20278 56020=
KEKO 212356Z AUTO 26020KT 10SM -RA CLR 22/M10 A2981 RMK AO2 PK WND
     24028/2305 SLP068 P0000 60000 T02171100 10244 20161 56016=
KIWA 212357Z 20004KT 10SM CLR 30/11 A2982=
KTEX 212355Z AUTO 29007KT 10SM CLR 12/M11 A3012 RMK AO2=
