SAUS70 KWBC 212300
METAR
KCHD 212247Z 26004KT 10SM CLR 31/10 A2982=
KJVL 212245Z 22008KT 10SM CLR 22/M03 A2962=
KOMN 212250Z 34004KT 7SM CLR 19/10 A3005 RMK LAST=
KTOA 212247Z 00000KT 10SM FEW015 23/18 A2984=
KWDG 212250Z 18022G31KT 10 SM SCT200 31/01 A2965=
KBJC 212245Z 27023G29KT 10SM SCT150 24/M10 A2976=
KSEE 212247Z VRB06KT 10SM SKC 24/16 A2985=
KDYA 212255Z AUTO 00000KT 10SM CLR 21/14 A3003 RMK AO2
     T02110141=
KFRH 212255Z AUTO 19004KT 10SM CLR 20/M01 A2991 RMK AO1=
KGWW 212255Z AUTO 00000KT 10SM CLR 13/06 A3011 RMK AO2
     T01300055=
KHOB 212250Z 24011KT 10SM SKC 26/02 A2990=
KJYO 212255Z AUTO 16005KT 10SM CLR 16/01 A3012 RMK AO2=
KMRN 212255Z AUTO 00000KT 10SM CLR 11/07 A3015 RMK AO2
     T01090068=
KMYJ 212255Z AUTO 17005KT 10SM CLR 23/03 A2972 RMK AO2=
KOIC 212255Z AUTO 17003KT 10SM CLR 10/M01 A3007 RMK AO2
     T00971015=
KOQU 212250Z 23010KT 10SM SKC 14/06 A3016=
KPBH 212255Z AUTO 30003KT 10SM CLR 15/02 A2958 RMK AO2
     T01540021=
KPOC 212247Z 24011KT 10SM CLR A2986=
KPTB 212255Z AUTO 00000KT 10SM CLR 09/05 A3013 RMK AO2
     T00920049=
KRYY 212250Z 00000KT 10SM CLR 17/02 A3009 RMK AO2 SLP187 T01720022
     $=
KSCH 212250Z 00000KT 15SM CLR 12/M02 A3007=
KTGI 212255Z AUTO 13005KT 10SM CLR 15/07 A3014 RMK AO1
     T01460071=
KUNV 212253Z 20004KT 10SM CLR 12/M02 A3006=
KVNW 212255Z AUTO 20010G20KT 10SM CLR 19/00 A2986 RMK AO2=
