SAUS70 KWBC 220038 RRG
METAR
KFOT 220030Z AUTO 29007KT 9SM OVC026 14/09 A2994 RMK AO1=
KFTN 220035Z AUTO 15006KT 10SM CLR 23/11 A2993 RMK A01=
KFYE 220035Z AUTO 14003KT 10SM CLR 20/10 A2992 RMK A01=
KFYM 220040Z AUTO 16006KT 10SM SCT038 15/04 A3005 RMK A01=
KGAO 220035Z AUTO 14003KT 10SM CLR 15/12 A3009 RMK AO2
     T01460118=
KGCY 220035Z AUTO 00000KT 10SM CLR 11/01 A3008 RMK A01=
KGDJ 220035Z AUTO 17008KT 10SM CLR 27/04 A2982 RMK AO2
     T02720040=
KGGI 220035Z AUTO 00000KT 10SM CLR 18/02 A2964 RMK AO2
     T01790021=
KGHB 220040Z AUTO 00000G10KT 8SM BKN044 23/14 A3006 RMK A01=
KGKT 220035Z AUTO 00000KT 10SM CLR 10/02 A3009 RMK A01=
KGLX 220035Z AUTO 05010KT 10SM CLR 21/13 A3010 RMK A01=
KGOO 220035Z AUTO VRB04KT 10SM CLR 21/04 A2987 RMK A01=
KGRY 220035Z AUTO 11007KT 10SM FEW033 BKN042 22/13 A3009 RMK
     A01=
KGYB 220035Z AUTO 18005KT 10SM CLR 24/10 A2993 RMK AO2
     T02420103=
KGYI 220035Z AUTO 15009KT 10SM CLR 26/05 A2980 RMK AO2 T02610052
     TSNO=
KGZN 220020Z AUTO 18007KT 10SM CLR 26/02 A2981 RMK AO2=
KGZS 220035Z AUTO 00000KT 10SM FEW039 SCT049 BKN055 13/09 A3001
     RMK A01=
KH71 220035Z AUTO 15009KT 10SM CLR 25/04 A2972 RMK AO2=
KHCD 220035Z AUTO 00000KT 10SM CLR 11/01 A2964 RMK AO2
     T01140006=
KHFJ 220035Z AUTO 17008KT 10SM CLR 22/03 A2978 RMK AO2=
KHHF 220035Z AUTO 22004KT 10SM CLR 20/M02 A2965 RMK AO2
     T01981017=
KHHV 220035Z AUTO 17017G25KT 10SM BKN042 24/14 A2999 RMK A01=
KHLB 220035Z AUTO VRB03KT 10SM CLR 14/00 A2994 RMK A01=
KHLX 220035Z AUTO 18004KT 10SM CLR 10/M08 A3014 RMK AO2
     T00961076=
KHOE 220035Z AUTO 00000KT 10SM CLR 09/06 A3011 RMK AO2
     T00960066=
KHQG 220035Z AUTO 00000KT 10SM CLR 22/M08 A2966 RMK AO2
     T02151083=
KHRX 220035Z AUTO 23013KT 10SM CLR 24/M01 A2979 RMK AO2
     T02381011=
KHSB 220035Z AUTO 00000KT 10SM CLR 16/07 A2989 RMK AO2
     T01610071=
KHSD 220035Z AUTO 16009KT 10SM CLR 26/02 A2969 RMK A01=
KHYW 220035Z AUTO 00000KT 10SM CLR 08/07 A3013 RMK AO2=
KHYX 220035Z AUTO 18010KT 10SM CLR 15/04 A2973 RMK AO2
     T01470042=
KHZD 220035Z AUTO 16005KT 10SM CLR 17/10 A2993 RMK A01=
KHZX 220035Z AUTO 00000KT 7SM CLR 08/02 A2960 RMK AO2=
KI35 220035Z AUTO 00000KT 10SM CLR 11/01 A3009 RMK AO2
     T01080011=
KI67 220035Z AUTO 00000KT 10SM CLR 15/00 A2996 RMK AO1=
KI74 220035Z AUTO 18005KT 10SM CLR 12/01 A2996 RMK AO2=
KIER 220035Z AUTO 19003KT 10SM CLR 21/13 A2994 RMK AO2
     T02120131=
KIFA 220035Z AUTO 00000KT 7SM CLR 14/02 A2965 RMK AO2
     T01360016=
KIGQ 220035Z AUTO 20011KT 10SM CLR 19/05 A2975 RMK AO2
     T01860045=
KIMS 220035Z AUTO 13003KT 10SM CLR 15/01 A2998 RMK AO2=
KINJ 220035Z AUTO 17012KT 10SM CLR 27/09 A2984 RMK AO2
     T02660085=
KIOB 220035Z AUTO 19005KT 10SM CLR 12/01 A3003 RMK AO2 PWINO=
KJAU 220040Z AUTO 00000KT 10SM CLR 09/03 A3012 RMK A01=
KJPX 220035Z AUTO 21003KT 10SM CLR 10/07 A3016 RMK AO2
     T00990069=
KAGI 220035Z AUTO 12016KT 10SM CLR 23/13 A3004 RMK AO2
     T02350131=
KALX 220035Z AUTO 00000KT 10SM CLR 11/08 A3010 RMK AO2
     T01110080=
KANW 220035Z AUTO 14009KT 10SM CLR 15/M01 A2955 RMK AO2
     T01491006=
KARM 220035Z AUTO 18007KT 10SM CLR 22/14 A2999 RMK AO2 T02160139
     TSNO=
KASN 220035Z AUTO 00000KT 10SM CLR 13/06 A3009 RMK AO2
     T01340061=
KATA 220035Z AUTO 00000KT 10SM CLR 18/13 A2986 RMK AO2 SLP011
     T01770130 $=
KATP 220035Z AUTO 11011KT 10SM BKN042 23/14 A3008 RMK A01=
KAVK 220035Z AUTO 18014KT 10SM CLR 27/M05 A2962 RMK AO2 PWINO=
KAVQ 220035Z AUTO 25006KT 10SM CLR 31/06 A2983 RMK AO2
     T03080056=
KAXH 220035Z AUTO 19004KT 10SM CLR 22/15 A3000 RMK AO2
     T02200145=
