SAUS70 KWBC 220004
METAR
PAFS 220001Z AUTO 00000KT 10SM 02/02 A2987 RMK AO2 SLPNO 6////
     T00220022 FZRANO=
KEVM 220001Z AUTO 23003KT 10SM CLR 09/02 A2959 RMK AO2=
KEVM 220001Z AUTO 23003KT 10SM CLR 09/02 A2959 RMK AO2=
KDLL 220015Z AUTO 00000KT 10SM CLR 13/02 A2963 RMK AO2
     T01280023=
KW13 220015Z AUTO 10SM CLR 08/00 A3013 RMK AO1 T00840000=
PAHX 220002Z AUTO 25008KT 10SM BKN013 OVC020 03/03 A2983 RMK AO2
     RAE23222358UPB23222313E23222317 SLP103 P0000 60008 T00330028
     10033 20006 53008=
