SAUS70 KWBC 212300 RRH
METAR
KCKZ 212255Z AUTO 00000KT 10SM CLR 09/02 A3013 RMK AO2=
KCSQ 212255Z AUTO 22004KT 9SM CLR 23/02 A2960 RMK AO2=
KD39 212255Z AUTO 26003KT 10SM CLR 15/01 A2960 RMK AO2
     T01450008=
KDEH 212255Z AUTO 00000KT 10SM CLR 21/01 A2961 RMK AO2=
KEGV 212255Z AUTO 00000KT 10SM CLR 13/02 A2957 RMK AO2
     T01340021=
KLCG 212255Z AUTO 06005KT 10SM CLR 21/M01 A2959 RMK AO2
     T02121010=
KM30 212255Z AUTO 17005KT 10SM CLR 24/06 A2987 RMK AO2
     T02350063=
KUBE 212255Z AUTO 28003KT 10SM CLR 15/06 A2959 RMK AO2=
KUCP 212256Z AUTO VRB03KT 10SM CLR 14/M01 A3000 RMK AO2 SLP177
     T01441006=
KUSE 212255Z AUTO 21010KT 10SM CLR 19/02 A2981 RMK AO2=
KXLL 212255Z AUTO 19003KT 10SM CLR 13/01 A3013 RMK AO2=
K3S8 212255Z AUTO VRB04KT 10SM OVC050 21/10 A2987 RMK AO2=
K65S 212255Z AUTO VRB06KT 5SM UP BR FEW022 SCT030 BKN034 06/05
     A2961 RMK AO2 P0001=
K82V 212255Z AUTO 28009KT 10SM CLR 20/M11 A2970 RMK AO2=
KAEJ 212255Z AUTO 23016G23KT 7SM 17/M13 A2997 RMK AO2
     T01701135=
KAVQ 212255Z AUTO 28009G15KT 10SM CLR 33/05 A2984 RMK AO2
     T03280049=
KAZC 212255Z AUTO 31007G14KT 10SM CLR 23/00 A3000 RMK AO2=
KCWC 212255Z AUTO 21009G19KT 190V250 10SM CLR 33/00 A2975 RMK AO2
     T03261003=
KCXP 212255Z AUTO 28007G23KT 230V310 10SM CLR 24/M05 A2994 RMK
     AO2=
KDTA 212255Z AUTO 19006KT 10SM CLR 23/M09 A2986 RMK AO1=
KECS 212255Z AUTO 26013KT 10SM CLR 23/M10 A2952 RMK AO2=
KEIK 212255Z AUTO 25009G19KT 10SM CLR 25/M11 A2972 RMK AO2
     T02461112 PWINO=
KEKS 212250Z AUTO 17024G31KT 10SM FEW041 SCT055 BKN070 16/M05
     A2959 RMK AO2=
KERV 212255Z AUTO 17010G17KT 10SM CLR 27/09 A2994 RMK AO2
     T02650085=
KF05 212255Z AUTO 22020G25KT 10SM CLR 32/01 A2973 RMK AO2
     T03170014=
KF17 212255Z AUTO 17011G16KT 10SM CLR 27/10 A2992 RMK AO2=
KF44 212255Z AUTO 20004KT 10SM CLR 28/10 A2984 RMK AO2=
KFLY 212255Z AUTO 12007KT CLR 22/M09 A2985 RMK AO2 T02151088
     PWINO=
KFOT 212250Z AUTO 30009KT 10SM OVC026 17/09 A2994 RMK AO1=
KFTN 212255Z AUTO 14008KT 10SM CLR 29/10 A2993 RMK A01=
KOAR 212255Z AUTO 28012KT 10SM OVC009 05/01 A2990 RMK AO2
     PWINO=
KVCV 212255Z AUTO 00000KT 10SM CLR 28/M03 A2991 RMK AO2=
KDDH 212254Z AUTO 00000KT 10SM CLR 09/M04 A3009 RMK AO2 SLP194
     T00891044 $=
KEAU 212256Z 27005KT 10SM CLR 17/04 A2959 RMK AO2 SLP022
     T01670039=
KGGI 212255Z AUTO 25004KT 5SM HZ CLR 23/02 A2961 RMK AO2
     T02310020=
KGON 212256Z 21012KT 10SM CLR 16/09 A3014 RMK AO2 SLP206
     T01560089=
KGVQ 212256Z AUTO 18003KT 10SM CLR 13/02 A2994 RMK AO2 SLP141
     T01330017=
KHLB 212255Z AUTO 18007KT 10SM CLR 17/00 A2992 RMK A01=
KHSB 212255Z AUTO 18008KT 10SM CLR 22/08 A2986 RMK AO2
     T02210081=
KHVN 212253Z 00000KT 10SM CLR 09/04 A3014 RMK AO2 SLP206
     T00940039=
KHWV 212256Z AUTO 00000KT 10SM CLR 11/07 A3015 RMK AO2 SLP210
     T01060067=
KI67 212255Z AUTO 21006KT 10SM CLR 19/00 A2993 RMK AO1=
KI68 212255Z AUTO 19005KT 10SM CLR 18/01 A2995 RMK AO1
     T01840008=
KI74 212255Z AUTO 20005KT 10SM CLR 16/01 A2993 RMK AO2=
KIFA 212255Z AUTO 34003KT 7SM CLR 20/01 A2962 RMK AO2
     T02010014=
KIGQ 212255Z AUTO 20011KT 10SM CLR 21/05 A2972 RMK AO2
     T02140050=
KJPX 212255Z AUTO 20004KT 10SM CLR 13/07 A3014 RMK AO2
     T01300072=
KOXI 212255Z AUTO 19011KT 10SM CLR 20/02 A2975 RMK AO1=
KOXV 212255Z AUTO 25005KT 10SM CLR 25/01 A2959 RMK AO2=
KPCW 212255Z AUTO 20009G15KT 10SM CLR 18/02 A2985 RMK AO2=
KPRO 212255Z AUTO 20005KT 10SM CLR 23/M01 A2960 RMK AO2
     T02261011=
KPTD 212255Z AUTO 17006KT 10SM FEW040 BKN047 BKN060 12/M02 A2996
     RMK AO2=
