SAUS70 KWBC 220100 RRX
METAR
KGYR 220047Z COR 18003KT 10SM FEW200 27/12 A2979=
KGZN 220100Z AUTO 17008KT 10SM CLR 22/02 A2982 RMK AO2=
