SAUS70 KWBC 220000
METAR
K1S5 212355Z AUTO 00000KT 10SM -RA OVC060 10/07 A2969 RMK AO2
     P0002 60003 T00970070 10122 20097=
KAEG 212347Z 25012KT 10SM CLR 21/00 A3000=
KBJC 212345Z 26023G29KT 10SM SCT120 22/M11 A2975=
KEFD 212354Z 17012KT 10SM CLR 23/15 A2996=
KEMT 212345Z 19011KT 10SM CLR 27/15 A2982=
KHQZ 212350Z 15005KT 10SM CLR 26/07 A2983=
KIFP 212348Z 16008KT 20SM CLR 32/02 A2975=
KJXI 212355Z AUTO 00000KT 10SM CLR 26/08 A2986 RMK AO2 T02550082
     10291 20255=
KMCJ 212355Z AUTO 17015G24KT 10SM CLR 25/14 A2994 RMK A01=
KPAO 212347Z 35007KT 10SM HZ FEW200 17/13 A2985=
KPOC 212347Z 23009KT 10SM CLR A2985=
KSEE 212347Z 22008KT 10SM SKC 23/16 A2985=
KSUN 212349Z 21005KT 10SM SCT100 16/01 A2974=
KTRK 212345Z 10SM CLR 18/M04 A3000=
PAMD 212351Z AUTO 30017KT 10SM CLR 09/M01 A2969 RMK AO2 SLP043
     6//// T00891006 10094 20078 53019 PNO $=
K2C8 212355Z AUTO 26009KT 10SM FEW060 BKN070 OVC075 13/02 A2951
     RMK AO2=
KALN 212350Z 15009KT 10SM CLR 18/02 A2979=
KCLK 212355Z AUTO 19010KT 10SM CLR 26/M02 A2969 RMK AO2=
KCWF 212350Z 19008KT 10SM CLR 22/14 A3000=
KD50 212355Z AUTO 00000KT 10SM OVC035 06/03 A2956 RMK AO2=
KDAG 212350Z AUTO 00000KT 10SM CLR 31/M04 A2981 RMK AO2 SLP073
     T03061039 10317 20256 56021=
KFRR 212355Z AUTO 00000KT 10SM CLR 11/00 A3010 RMK AO1=
KLGU 212351Z AUTO 19010KT 10SM CLR 21/M06 A2975 RMK AO2 SLP049
     T02111061 10222 20167 58020=
KLQK 212355Z AUTO 10SM CLR 09/02 A3011 RMK AO2 T00910024 10204
     20091=
KOCF 212351Z 36003KT 10SM CLR 17/03 A3008 RMK AO2 SLP185 6////
     T01670033 10233 20167 402330061 53011 PNO $=
KOXC 212351Z 17005KT 10SM CLR 09/01 A3015 RMK AO2 SLP228 T00890011
     10161 20089 53014=
KSPA 212355Z AUTO 00000KT 10SM CLR 10/02 A3012 RMK AO2=
KTPL 212351Z AUTO 17012KT 10SM CLR 27/08 A2988 RMK AO2 SLP110
     6//// T02670083 10322 20267 55002=
KY51 212355Z AUTO 22003KT 10SM CLR 18/04 A2964 RMK AO1 T01750036
     10219 20172=
KATW 212345Z 26004KT 10SM CLR 16/02 A2960=
KCGF 212345Z 19011KT 10SM CLR 15/02 A2993=
KEFT 212355Z AUTO 22012KT 10SM CLR 19/03 A2963 RMK AO2 T01920025
     10248 20192=
KETB 212355Z AUTO 20003KT 10SM CLR 17/03 A2963 RMK AO2=
KEZS 212355Z AUTO 00000KT 10SM CLR 16/05 A2960 RMK AO2 T01570048
     10226 20157=
KFDK 212347Z 00000KT 10SM CLR 12/03 A3012=
KFMH 212356Z 00000KT 10SM CLR 10/07 A3017=
KFRH 212355Z AUTO 17003KT 10SM CLR 18/00 A2992 RMK AO1=
KJVL 212345Z 19008KT 10SM CLR 19/M01 A2964=
KLBE 212347Z 00000KT 20SM CLR 10/01 A3004=
KMWA 212345Z 17010KT 20SM CLR 20/08 A2986=
KOIC 212355Z AUTO 00000KT 10SM CLR 09/M02 A3010 RMK AO2 T00891020
     10150 20087=
KPDC 212355Z AUTO 00000KT 10SM CLR 17/03 A2961 RMK AO2 6////
     T01690027=
KRRL 212355Z AUTO 00000KT 10SM CLR 12/03 A2960 RMK AO2 T01170032
     10190 20112 TSNO=
KSAW 212347Z 00000KT 10SM CLR 09/04 A2959=
KSUW 212355Z AUTO 00000KT 10SM CLR 09/02 A2958 RMK AO2 T00900019
     10195 20090=
KSWF 212345Z 00000KT 10SM SKC 10/02 A3012=
KUNU 212355Z AUTO 20003KT 10SM CLR 18/04 A2964 RMK AO2 T01750040
     10236 20161=
KUNV 212353Z 20005KT 10SM CLR 11/M01 A3007=
KVNW 212355Z AUTO 19009KT 10SM CLR 16/00 A2987 RMK AO2=
KVNY 212351Z 16009KT 10SM CLR 27/14 A2982 RMK AO2 SLP090 T02670144
     10289 20239 56014 $=
KXWA 212351Z AUTO 03008KT 10SM FEW007 OVC040 06/04 A2954 RMK AO2
     SLP026 60004 T00560039 10089 20056 50007=
KACT 212351Z 18013KT 10SM CLR 27/11 A2985 RMK AO2 SLP103 T02670111
     10333 20267 55003=
KAFN 212352Z AUTO 00000KT 10SM CLR 05/01 A3013 RMK AO2 SLP216
     T00500006 10156 20050 53012=
KAHN 212351Z AUTO 00000KT 10SM CLR 12/01 A3010 RMK AO2 SLP198
     T01170011 10211 20117 53007=
