SAUS70 KWBC 212300 RRO
METAR
PASK 212256Z AUTO 12005KT 10SM SCT048 02/01 A2975 RMK AO2 UPE02
     SLP070 P0000 T00170011 FZRANO=
PASM 212256Z AUTO 22010KT 10SM FEW010 SCT027 BKN039 03/01 A2983
     RMK AO2 SLP108 T00330011=
PASX 212256Z AUTO 25004KT 10SM CLR 08/M01 A2986 RMK AO2 SLP116
     T00831006=
PATE 212256Z AUTO 20005KT 8SM -RA FEW009 BKN014 OVC036 01/00 A2963
     RMK AO2 UPB37E42RAB42SNB46E56 SLP040 P0001 T00110000
     FZRANO=
PATG 212256Z AUTO 22007KT 10SM FEW029 SCT046 BKN060 06/04 A2999
     RMK AO2 RAB14E37 SLP155 P0000 T00560039=
PATQ 212256Z AUTO 11018KT 10SM FEW015 OVC070 M04/M05 A2978 RMK AO2
     SLP089 T10391050 FZRANO TSNO=
PAUN 212256Z AUTO 20013KT 10SM -RA OVC016 03/01 A2977 RMK AO2
     RAE20B53UPB30E42 SLP083 P0000 T00330006=
PAVD 212256Z 00000KT 10SM FEW027 SCT080 BKN120 07/04 A2975 RMK AO2
     SLP072 T00670039 PNO $=
PAWG 212256Z 00000KT 10SM FEW012 BKN028 BKN060 09/07 A2973 RMK AO2
     RAB18E54 SLPNO T00850071 $=
PAWN 212256Z AUTO 15005KT 10SM OVC012 02/01 A2971 RMK AO2 SLP071
     T00170006 FZRANO=
PAWS 212256Z AUTO 00000KT 10SM OVC003 02/02 A2984 RMK AO2 SLP112
     T00220017 FZRANO=
PAZK 212256Z AUTO 22009KT 10SM FEW030 SCT035 SCT110 M01/M04 A2965
     RMK AO2 UPB03E07SNE03 SLP090 P0000 T10111039 FZRANO=
PFCL 212256Z AUTO 29006KT 9SM -RA FEW022 BKN029 BKN039 06/04 A2999
     RMK AO2 RAB47 SLPNO P0000 T00560039 TSNO=
PFKW 212256Z AUTO 23011KT 10SM FEW014 BKN040 05/02 A2989 RMK AO2
     SLP122 T00500017=
PFYU 212256Z 00000KT 10SM OVC008 M02/M04 A2984 RMK AO2 SLP120
     T10171039=
PPIZ 212256Z AUTO 08004KT 10SM SCT043 OVC090 M02/M04 A2969 RMK AO2
     SLP059 T10171039 FZRANO=
PAAK 212256Z AUTO 15006KT 10SM UP OVC046 A3000 RMK AO2
     RAB21E32UPB32 SLPNO P0000 FZRANO $=
PABL 212256Z AUTO 14012KT 10SM -RA FEW010 BKN031 02/01 A2971 RMK
     AO2 SLP063 P0000 T00220011 FZRANO $=
PABV 212256Z AUTO 25005KT 10SM OVC005 03/03 A2985 RMK AO2 SLP114
     T00330028=
PADL 212256Z 23010KT 10SM SCT020 07/03 A2998 RMK AO2 SLP154
     T00670028=
PADM 212256Z AUTO 17011KT 10SM BKN013 BKN033 OVC045 04/02 A2988
     RMK AO2 SLP123 T00440022=
PADU 212256Z 17005KT 10SM OVC200 08/01 A3010 RMK AO2 SLPNO
     T00780006=
PAEL 212250Z VRB06KT 20SM SCT024 SCT070 08/05 A2965 RMK SPB
     E23015KT SEA 1 SWELL 2 SW MAX 7.9 70079 NOSPECI=
PAFE 212256Z AUTO 00000KT 10SM FEW110 09/03 A2974 RMK AO2 SLP083
     T00890033=
PAFM 212256Z AUTO 11007KT 2SM -SN BR OVC004 00/00 A2979 RMK AO2
     SLP095 P0004 T00000000 FZRANO=
PAGA 212256Z AUTO 10SM BKN020 OVC026 03/01 A2980 RMK AO2 SLP093
     T00280011 $=
PAGL 212256Z AUTO 26003KT 10SM BKN015 OVC030 04/02 A2971 RMK AO2
     SLP056 T00390017 PWINO $=
PAGN 212256Z AUTO 00000KT 10SM FEW045 BKN060 BKN075 07/06 A2973
     RMK AO2 SLP055 P0001 T00720056=
PAGS 212256Z AUTO 22006KT 10SM OVC050 09/03 A2967 RMK AO2 SLP046
     T00890028=
PAHL 212256Z AUTO 17003KT 10SM SCT006 OVC023 02/01 A2978 RMK AO2
     RAE50 SLP090 P0000 T00170006 FZRANO=
PAHY 212256Z AUTO 23005KT 10SM FEW040 BKN060 OVC075 09/05 A2976
     RMK AO2 RAB18E32 SLP076 P0000 T00940050 $=
PAIG 212256Z AUTO 22012G17KT 10SM SCT024 SCT030 07/02 A2996 RMK
     AO2 SLP155 T00670022 $=
PAIK 212256Z AUTO 10006KT 10SM OVC011 01/01 A2975 RMK AO2 SLP076
     T00110006 FZRANO=
PAIN 212256Z AUTO 36005KT 3/4SM -SN BR OVC015 01/M01 A2978 RMK AO2
     SLP115 P0001 T00061011 FZRANO $=
PAJZ 212256Z AUTO 23013KT 8SM FEW022 07/02 A2997 RMK AO2 SLP156
     T00670017 $=
PAKI 212256Z AUTO 22014KT 10SM FEW035 BKN045 06/02 A2990 RMK AO2
     SLP128 T00610022 PNO $=
