SAUS70 KWBC 220138 RRJ
METAR
KSEZ 220135Z AUTO 20009KT 10SM 20/05 A2999 RMK AO2=
KSLO 220135Z AUTO 16006KT 10SM CLR 19/04 A2986 RMK AO2
     T01860038=
KSNH 220135Z AUTO 16005KT 10SM FEW050 17/10 A2997 RMK A01=
KSRB 220135Z AUTO 16006KT 10SM CLR 14/02 A3005 RMK A01=
KSRE 220135Z AUTO 10SM CLR 24/04 A2975 RMK AO2=
KSTE 220135Z AUTO 00000KT 10SM CLR 08/03 A2967 RMK AO2
     T00800025=
KSWW 220135Z AUTO 21011KT 10SM CLR 23/03 A2987 RMK AO2
     T02300030=
KSYF 220135Z AUTO 14010KT 10SM CLR 14/M05 A2965 RMK AO2 T01351055
     PWINO=
KSYI 220135Z AUTO 15007KT 10SM CLR 16/03 A3002 RMK A01=
KSZT 220135Z AUTO 23004KT 7SM -RA SCT014 BKN020 OVC031 03/02 A2964
     RMK AO2=
KSZY 220135Z AUTO 17008G13KT 10SM CLR 20/10 A2997 RMK A01=
KT89 220135Z AUTO 06005KT 10SM CLR 22/09 A2992 RMK A01=
KTBX 220135Z AUTO 10SM CLR 13/M10 A2976 RMK AO2=
KTDF 220135Z AUTO 00000KT 10SM CLR 05/03 A3018 RMK AO2=
KTHA 220135Z AUTO 16007KT 10SM FEW038 FEW047 14/03 A3004 RMK
     A01=
KTNU 220135Z AUTO 11005KT 10SM CLR 14/02 A2963 RMK A01=
KTQH 220135Z AUTO 17005KT 10SM CLR 22/01 A2980 RMK AO2=
KTQV 220135Z AUTO 00000KT 10SM CLR 14/02 A3015 RMK A01=
KTTA 220135Z AUTO 00000KT 10SM CLR 05/02 A3015 RMK AO2
     T00510021=
KTYL 220135Z AUTO 20007KT 10SM CLR 13/03 A3006 RMK AO2=
KU68 220135Z AUTO 07010G14KT 10SM OVC110 15/00 A2949 RMK AO2=
KUCY 220135Z AUTO 16008KT 10SM CLR 18/10 A2990 RMK A01=
KUSE 220135Z AUTO 20010KT 10SM CLR 15/02 A2986 RMK AO2=
KUVA 220135Z AUTO 13003KT 10SM CLR 19/11 A2996 RMK AO2
     T01930108=
KVAF 220135Z AUTO 18015KT 10SM SCT044 24/13 A3004 RMK A01=
KVBW 220135Z AUTO 00000KT 10SM CLR 06/01 A3014 RMK AO1
     T00550013=
KVCV 220135Z AUTO 20011KT 10SM CLR 23/08 A2990 RMK AO2=
KMUT 220135Z AUTO 00000KT 10SM CLR 16/03 A2967 RMK AO2=
KMVH 220135Z AUTO 12003KT 4SM BR FEW006 BKN013 OVC020 06/05 A2958
     RMK AO2 PWINO=
KMWK 220135Z AUTO 00000KT 10SM CLR 06/02 A3018 RMK AO2
     T00620022=
KMZH 220135Z AUTO 00000KT 10SM CLR 07/01 A2961 RMK AO2=
KO69 220135Z AUTO 30006G14KT 9SM OVC011 13/11 A2986 RMK A01=
KOEL 220135Z AUTO 07006KT 10SM CLR 16/M11 A2966 RMK AO1
     T01581115=
KOJA 220135Z AUTO 20010KT 10SM CLR 25/02 A2970 RMK AO2
     T02450017=
KONA 220135Z AUTO 00000KT 10SM CLR 09/05 A2966 RMK AO2=
KONX 220135Z AUTO 00000KT 10SM CLR 10/09 A3017 RMK AO2
     T01040085=
KOSC 220135Z AUTO 21009KT 10SM CLR 15/05 A2970 RMK AO2
     T01490050=
KOXI 220135Z AUTO 19010G16KT 10SM CLR 16/02 A2980 RMK AO1=
KOXV 220135Z AUTO 17005KT 10SM CLR 20/02 A2962 RMK AO2=
KP08 220135Z AUTO 31006KT 10SM CLR 27/11 A2983 RMK AO2=
KPCD 220135Z AUTO 19007KT 180V240 10SM CLR 18/10 A2985 RMK AO2
     T01830099=
KPCW 220135Z AUTO 20011KT 10SM CLR 15/02 A2989 RMK AO2=
KPEX 220135Z AUTO 00000KT 10SM CLR 08/01 A2962 RMK AO2=
KPHT 220135Z AUTO 16007KT 10SM FEW029 FEW036 SCT050 17/10 A2994
     RMK A01=
KPKV 220135Z AUTO 16005KT 10SM CLR 21/14 A2999 RMK AO2
     T02090144=
KPMH 220135Z AUTO 00000KT 10SM CLR 09/01 A3003 RMK AO2
     T00930005=
KPRO 220135Z AUTO 13003KT 4SM HZ CLR 15/00 A2960 RMK AO2
     T01460000=
KPRS 220135Z AUTO 02005KT 10SM CLR 22/13 A2996 RMK AO2
     T02220125=
KPTD 220135Z AUTO 17013KT 10SM SCT034 SCT041 BKN048 13/M03 A2997
     RMK AO2=
KPUJ 220135Z AUTO 00000KT 7SM CLR 13/01 A3012 RMK AO2=
KPVJ 220135Z AUTO 17004KT 10SM CLR 23/05 A2975 RMK AO2
     T02260051=
KPYX 220135Z AUTO 20006KT 7SM CLR 14/M08 A2966 RMK AO2
     T01401085=
KPZZ 220135Z AUTO 12013KT 10SM CLR 23/13 A3008 RMK A01=
KRKR 220135Z AUTO 20003KT 10SM CLR 19/05 A2982 RMK AO2=
KRMY 220135Z AUTO 19007KT 10SM CLR 17/03 A2980 RMK AO2
     T01700030=
