SAUS70 KWBC 220200 RRK
METAR
KMNM 220156Z AUTO 31007KT 10SM CLR 12/04 A2964 RMK AO2 SLP038
     T01170044 PNO $=
KMQY 220156Z 15003KT 10SM CLR 14/04 A3003 RMK AO2 SLP175
     T01440044=
KMRF 220156Z AUTO 00000KT 10SM CLR 14/08 A3008 RMK AO2 SLP150
     T01440078=
KMSV 220156Z AUTO 00000KT 10SM CLR 06/M01 A3015 RMK AO2 SLP219
     T00611006=
KMTW 220156Z AUTO 00000KT 10SM CLR 09/08 A2965 RMK AO2 SLP043
     T00940078=
KMVN 220156Z AUTO 00000KT 10SM CLR 12/06 A2988 RMK AO2 SLP122
     T01170056=
KMWM 220155Z AUTO 12003KT 10SM CLR 08/01 A2962 RMK AO2=
KMYR 220156Z 32003KT 10SM CLR 12/09 A3014 RMK AO2 SLP207
     T01170089=
KOAJ 220156Z AUTO 02003KT 10SM OVC044 14/11 A3016 RMK AO2 SLP214
     T01440106=
KOCH 220156Z AUTO 17007KT 10SM CLR 22/13 A2996 RMK AO2 SLP146
     T02220128=
KOEB 220155Z AUTO 20007KT 160V220 10SM CLR 17/03 A2983 RMK AO2
     T01670027=
KOKK 220156Z AUTO 19011KT 10SM CLR 16/02 A2989 RMK AO2 SLP123
     T01560022 PNO $=
KOLU 220156Z AUTO 00000KT 6SM HZ CLR 09/M01 A2960 RMK AO2 SLP029
     T00941011=
KONZ 220155Z AUTO 19009KT 10SM SCT075 BKN100 OVC120 12/05 A2986
     RMK AO2 T01190047=
KOTG 220156Z AUTO 11005KT 10SM CLR 09/02 A2963 RMK AO2 SLP040
     T00890017=
KOWB 220156Z 16007KT 10SM CLR 16/03 A2993 RMK AO2 SLP136
     T01610033=
KOXD 220155Z AUTO 17006KT 10SM CLR 15/M02 A2997 RMK AO2
     T01451016=
KPNM 220155Z AUTO 00000KT 10SM CLR 07/03 A2962 RMK AO2 TSNO=
KPQI 220156Z AUTO 18004KT 10SM CLR 06/00 A3008 RMK AO2 SLP215
     T00560000=
KPRX 220156Z AUTO 16008KT 10SM CLR 20/11 A2986 RMK AO2 SLP108
     T02000106=
KPTN 220156Z AUTO 15006KT 10SM CLR 18/16 A3008 RMK AO2 SLP187
     T01780156 $=
KPVC 220156Z AUTO 20008KT 10SM CLR 13/09 A3021 RMK AO2 SLP228
     T01330094=
KPVG 220156Z AUTO 00000KT 10SM CLR 04/04 A3019 RMK AO2 SLP224
     T00390039 PNO $=
KPWG 220156Z AUTO 17012KT 10SM CLR 24/10 A2989 RMK AO2 SLP117
     T02440100=
KRKD 220156Z AUTO 00000KT 10SM CLR 04/04 A3017 RMK AO2 SLP215
     T00440039=
KRNP 220155Z AUTO 19008G16KT 10SM CLR 17/03 A2977 RMK AO2
     T01680025=
KRQB 220155Z AUTO 20004KT 10SM CLR 16/05 A2971 RMK AO2
     T01580052=
KRUT 220156Z AUTO 13010KT 10SM CLR 06/M01 A3013 RMK AO2 SLP202
     T00561011 $=
KSDY 220156Z AUTO 02006KT 10SM OVC055 07/05 A2957 RMK AO2 SLP029
     T00670050 PNO $=
KSFM 220156Z AUTO 00000KT 10SM CLR 02/01 A3016 RMK AO2 SLP217
     T00170011 FZRANO=
KSFZ 220156Z AUTO 00000KT 10SM CLR 09/07 A3018 RMK AO2 SLP222
     T00890067=
KSGH 220156Z AUTO 18005KT 10SM CLR 13/01 A2998 RMK AO2 SLP156
     T01280006=
KSGJ 220156Z AUTO 31006KT 10SM CLR 15/09 A3012 RMK AO2 SLP197
     T01500089=
KSGT 220156Z AUTO 18007KT 10SM CLR 20/09 A2991 RMK AO2 SLP128
     T02000089=
KSJX 220155Z AUTO 24004KT 10SM CLR 11/08 A2965 RMK AO2
     T01070077=
KSKX 220156Z AUTO 23008KT 10SM CLR 12/M06 A3005 RMK AO2 SLP161
     T01221056=
KSLG 220156Z AUTO 16010KT 10SM CLR 21/06 A2981 RMK AO2 SLP088
     T02060061=
KSLH 220155Z AUTO 00000KT 10SM CLR 10/06 A2964 RMK AO2=
KSOP 220156Z AUTO 00000KT 10SM CLR 06/03 A3017 RMK AO2 SLP221
     T00610033 TSNO=
KSQI 220156Z AUTO VRB03KT 10SM CLR 16/04 A2971 RMK AO2 SLP928
     T01610039=
KSRC 220156Z AUTO 21004KT 10SM CLR 15/10 A2990 RMK AO2 SLP123
     T01500100=
KSUE 220156Z AUTO 27004KT 10SM CLR 14/05 A2964 RMK AO2 SLP038
     T01390050=
KTOB 220155Z AUTO 00000KT 5SM HZ CLR 08/01 A2965 RMK AO2=
KTTF 220155Z AUTO 19009G17KT 10SM CLR 15/02 A2986 RMK AO2
     T01480021=
KTVF 220156Z AUTO 23005KT 10SM OVC080 10/00 A2956 RMK AO2 SLP018
     T01000000=
KUDG 220156Z AUTO 00000KT 10SM CLR 07/04 A3015 RMK AO2 SLP212
     T00720044=
