SACA31 KWBC 220200 RRA
METAR
MKJP 220200Z 02004KT 9999 FEW020 28/23 Q1013=
