SAUS70 KWBC 220054
METAR
KTFP 220015Z AUTO 18007KT 10SM CLR 23/16 A2996 RMK AO2
     T02270163=
