SAUS80 KWBC 220100
METAR
KINW 220056Z AUTO 26009KT 10SM CLR 20/03 A2997 RMK AO2 SLP107
     T02000033=
KJAX 220056Z 00000KT 10SM CLR 12/07 A3010 RMK AO2 SLP193
     T01170072=
KMOB 220056Z 18005KT 10SM CLR 16/08 A3010 RMK AO2 SLP191 T01610083
     $=
KOFK 220056Z AUTO 09003KT 10SM CLR 17/M01 A2959 RMK AO2 SLP024
     T01671011=
KSFO 220056Z 29008KT 10SM FEW009 SCT180 BKN200 16/11 A2984 RMK AO2
     SLP105 T01610111=
KTKC 220055Z AUTO 16006KT 10SM 12/00 A2961 RMK AO2 T01210000=
TJSJ 220056Z 10005KT 10SM FEW028 27/23 A2994 RMK AO2 SLP138
     T02720233=
K9MN 220055Z AUTO 00000KT 10SM CLR 16/03 A2965 RMK AO1
     T01560025=
KBIH 220056Z AUTO 17008KT 10SM CLR 22/M06 A2985 RMK AO2 SLP080
     T02221056=
KBZN 220056Z 27013KT 10SM -RA BKN050 OVC070 11/04 A2954 RMK AO2
     RAE01B35 SLP995 P0000 T01060039=
KCAE 220056Z 26003KT 10SM CLR 10/04 A3013 RMK AO2 SLP201
     T01000039=
KCHS 220056Z 00000KT 10SM CLR 12/07 A3013 RMK AO2 SLP201
     T01170072=
KMHS 220056Z AUTO 00000KT 10SM CLR 18/04 A2982 RMK AO2 SLP100
     T01780044=
KALK 220056Z AUTO 25008KT 10SM CLR 21/11 A3005 RMK AO2 SLP096
     T02110106=
KGNA 220056Z AUTO 31004KT 13/02 A2955 RMK AO1 SLP009 T01280022=
KEAR 220056Z AUTO 18005KT 9SM CLR 15/M01 A2962 RMK AO2 SLP025
     T01501011=
KHON 220055Z AUTO 15006KT 10SM CLR 13/01 A2955 RMK AO2 SLP011
     T01280006=
KPHP 220055Z AUTO 09006KT 10SM CLR 14/00 A2945 RMK AO2 SLP971
     T01440000=
KGNR 220056Z AUTO 20008KT 08/M02 A3006 RMK AO1 SLP191
     T00831022=
KRFI 220055Z AUTO 16004KT 10SM CLR 25/07 A2992 RMK AO2
     T02490072=
KSNC 220055Z AUTO 21003KT 10SM CLR A3016 RMK AO2=
KY23 220055Z AUTO 00000KT 10SM CLR 09/05 A2963 RMK AO2
     T00870051=
KSYN 220055Z AUTO 19003KT 5SM HZ CLR 10/02 A2964 RMK AO2
     T01020020=
KCTY 220055Z AUTO 00000KT 10SM CLR 10/04 A3010 RMK AO2
     T01010044=
KFSD 220056Z 10004KT 10SM FEW250 11/02 A2960 RMK AO2 SLP027
     T01060017=
K2WX 220056Z AUTO 36022G29KT 14/02 A2948 RMK AO1 PK WND 34031/0019
     WSHFT 2353 SLP983 T01440022=
K40U 220055Z AUTO 00000KT 10SM CLR 13/M09 A2983 RMK AO2
     T01301089=
K48A 220055Z AUTO 29003KT 10SM CLR 09/04 A3013 RMK AO2
     T00910039=
KTKV 220055Z AUTO 00000KT 10SM CLR 07/02 A2965 RMK AO2 T00650023
     PWINO=
KJNX 220055Z AUTO 00000KT 10SM CLR 07/06 A3015 RMK AO2=
KLWS 220056Z 06009KT 10SM -RA OVC050 08/06 A2967 RMK AO2 SLP052
     P0003 T00780056=
KCLI 220055Z AUTO 00000KT 10SM CLR 10/04 A2964 RMK AO2
     T01020040=
PHJR 220053Z 15006KT 10SM CLR 29/22 A2997 RMK AO2 SLP156
     T02890217=
PHKO 220053Z 25006KT 10SM CLR 29/22 A2994 RMK AO2 SLP136
     T02940217=
PHNL 220053Z 17005KT 10SM FEW025 FEW040 29/22 A2996 RMK AO2 SLP144
     T02890222=
PHTO 220053Z 14010KT 10SM FEW025 OVC055 28/23 A2996 RMK AO2 SLP144
     T02830228=
KD07 220056Z AUTO 13014KT 14/01 A2947 RMK AO1 SLP984 T01440011=
K4BM 220055Z AUTO 18011G22KT 150V210 10SM CLR 05/M17 A3012 RMK
     AO2=
KCAO 220055Z AUTO 21011KT 10SM CLR 19/M07 A2977 RMK AO2 SLP036
     T01891072 $=
KCKP 220055Z AUTO 08003KT 7SM CLR 13/00 A2960 RMK AO2
     T01330000=
KDBN 220055Z AUTO 00000KT 10SM CLR 08/06 A3015 RMK AO2=
KEHA 220055Z AUTO 00000KT 7SM CLR 21/M06 A2971 RMK AO2
     T02051059=
KFLG 220057Z 23007KT 10SM CLR 14/03 A3009 RMK AO2 SLP129
     T01390033=
KIZA 220055Z AUTO 27008KT 10SM CLR 18/13 A2987 RMK AO2=
KPSN 220055Z AUTO 16006KT 10SM CLR 24/10 A2990 RMK AO2=
