SAPA32 KWBC 220100 RRC
METAR
NWWW 220130Z AUTO 05009KT 360V120 CAVOK 30/14 Q1012 NOSIG=
