SAUS80 KWBC 220230
METAR
KLZZ 220215Z AUTO 19003KT 10SM CLR 21/08 A2988 RMK AO2
     T02060083=
KCUL 220213Z AUTO 17006KT 10SM CLR 14/05 A2990 RMK AO2=
KNY0 220214Z AUTO 16005KT 10SM CLR 07/M02 A3011 RMK AO2=
KROS 220223Z AUTO 00000KT 10SM CLR 09/04 A2962 RMK AO2=
