SACA31 KWBC 220000 RRA
METAR
MKJP 220000Z 02013KT 9999 FEW020 FEW022CB 29/24 Q1012=
MKJS 220000Z VRB02KT 9999 FEW020 BKN022CB 25/23 Q1011 RETS=
