SAUS70 KWBC 220000
METAR
KFMH 212356Z 00000KT 10SM CLR 10/07 A3017=
TJBQ 212350Z 13003KT 10SM SCT024 26/23 A2992=
KBLH 212352Z AUTO 15005KT 10SM CLR 32/08 A2975 RMK AO2 SLP069
     T03220078 10328 20267 56019 TSNO=
KILG 212351Z 18006KT 10SM CLR 12/03 A3015 RMK AO2 SLP210 T01220033
     10183 20122 53010=
KJFK 212351Z 18008KT 10SM CLR 13/06 A3016 RMK AO2 SLP212 T01330061
     10178 20122 53009=
KLGA 212351Z 17006KT 10SM CLR 14/04 A3014 RMK AO2 SLP207 T01390044
     10178 20139 53011=
KMPV 212351Z AUTO 16004KT 10SM CLR 08/M02 A3011 RMK AO2 SLP205
     T00781022 10144 20078 53010=
KORD 212351Z 20011KT 10SM FEW300 22/03 A2969 RMK AO2 SLP053
     T02170028 10244 20206 53012=
KPBH 212355Z AUTO 00000KT 10SM CLR 08/02 A2961 RMK AO2 T00810016
     10183 20080=
KPIT 212351Z 16004KT 10SM CLR 13/M01 A3002 RMK AO2 SLP177
     T01281006 10172 20122 53008=
KPWM 212351Z 00000KT 10SM CLR 09/06 A3014 RMK AO2 SLP207 T00890056
     10144 20083 51015=
KSLK 212351Z AUTO 00000KT 10SM CLR 03/M02 A3002 RMK AO2 SLP182
     T00281017 10139 20028 53014=
KSPI 212352Z 18010KT 10SM CLR 21/03 A2976 RMK AO2 SLP075 T02110033
     10261 20211 51005=
KXWA 212351Z AUTO 03008KT 10SM FEW007 OVC040 06/04 A2954 RMK AO2
     SLP026 60004 T00560039 10089 20056 50007=
KMIC 212353Z 00000KT 10SM CLR 13/02 A2961 RMK AO2 SLP028 T01280022
     10200 20128 53014=
KMKE 212352Z 22011KT 10SM CLR 21/04 A2965 RMK AO2 SLP039 T02110039
     10250 20211 53021=
KMLI 212352Z 21008KT 10SM CLR 23/03 A2964 RMK AO2 SLP037 T02330033
     10272 20228 53010=
KMSS 212353Z AUTO 17007KT 10SM CLR 11/M02 A2996 RMK AO2 SLP151
     T01061017 10161 20100 53004=
KMWH 212352Z 18011KT 10SM CLR 12/03 A2963 RMK AO2 SLP037 60002
     T01170033 10133 20089 56023=
KOKB 212352Z AUTO 24006KT 10SM FEW016 22/17 A2983 RMK AO2 SLP102
     T02220172 10244 20217 56013=
KOKC 212352Z 16009KT 10SM FEW150 FEW200 24/03 A2971 RMK AO2 SLP052
     T02390033 10317 20239 57008=
KOMA 212352Z 00000KT 10SM SCT250 18/02 A2959 RMK AO2 SLP018
     T01780017 10250 20178 55003=
KORE 212352Z AUTO 00000KT 10SM CLR 05/01 A3014 RMK AO2 SLP211
     T00500011 10156 20050 53013=
KPIR 212353Z AUTO 15010KT 10SM CLR 16/02 A2950 RMK AO2 SLP986
     T01610017 10206 20144 56018=
KPPF 212352Z AUTO 17006KT 10SM CLR 26/05 A2969 RMK AO2 SLP047
     T02560050 10300 20256 56008 PWINO $=
KPUC 212353Z AUTO 10004KT 10SM CLR 18/M06 A2988 RMK AO2 SLP085
     T01831056 10206 20156 56021=
KPWK 212352Z 20010KT 10SM CLR 22/03 A2970 RMK AO2 SLP058 T02170033
     10244 20206 53013=
KPYM 212352Z AUTO 17003KT 10SM CLR 11/07 A3016 RMK AO2 SLP216
     T01060067 10183 20106 53015=
KRAP 212352Z 13004KT 10SM CLR 18/M03 A2947 RMK AO2 SLP971
     T01781028 10233 20178 56009=
KRCZ 212355Z AUTO 00000KT 10SM CLR 14/02 A3013 RMK AO2 T01390016
     10204 20126=
KRNV 212355Z AUTO 18011G16KT 10SM CLR A2991 RMK AO2 TSNO=
KRPD 212355Z AUTO 00000KT 7SM CLR 10/05 A2963 RMK AO2 T00990048
     10192 20099=
KRSL 212353Z AUTO 18007KT 10SM CLR 22/01 A2958 RMK AO2 SLP012
     T02220006 10317 20222 55007=
KSDC 212355Z AUTO 16007KT 130V200 10SM CLR 13/M02 A2997 RMK
     AO2=
KSGF 212352Z 17008KT 10SM CLR 22/01 A2976 RMK AO2 SLP072 T02220011
     10289 20222 55002 $=
KDVN 212352Z AUTO 18006KT 10SM CLR 21/04 A2966 RMK AO2 SLP041
     T02060039 10267 20206 53008=
KEDE 212355Z AUTO 00000KT 10SM SCT060 13/12 A3015 RMK AO2
     T01310115 10206 20131=
KEHO 212355Z AUTO 00000KT 10SM CLR 12/00 A3012 RMK AO2 T01200000
     10192 20120=
KEYF 212355Z AUTO 00000KT 10SM CLR 12/06 A3012 RMK AO2 T01240057
     10218 20123 402180090=
