SAUS70 KWBC 220000 RRX
METAR
KGOV 212358Z AUTO 21005KT 10SM CLR 15/04 A2964 RMK AO2 LTG DSNT S
     SLP047 T01500037 10190 20150 52020 $=
KSLE 212356Z COR 00000KT 1 1/4SM BR OVC002 11/10 A2974 RMK AO2
     RAE10 CIG 002V008 SLP071 P0000 60013 T01060100 10139 20106
     55021=
KBMC 212350Z AUTO 10SM CLR 21/M04 A2976 RMK AO1 T02111039=
KCIC 212347Z 14006KT 10SM CLR 27/07 A2975=
KDUB 212354Z AUTO 29021G31KT 10SM CLR 12/M08 A2970 RMK AO2=
KEAN 212350Z AUTO 27011G21KT 10SM CLR 22/M12 A2962 RMK AO2
     T02161124 10244 20211=
KGNB 212355Z AUTO 24013G21KT 10SM CLR 13/M11 A2995 RMK AO2
     T01301114 10166 20130=
KHBV 212350Z AUTO 16004KT 4SM HZ CLR 25/12 A2994 RMK AO2
     T02520116=
KHEQ 212355Z AUTO 22006KT 10SM CLR 20/M07 A2964 RMK AO2=
KHSG 212350Z AUTO 24015KT 10SM CLR 19/M04 A2955 RMK AO2 T01941039
     10236 20194=
KMMH 212354Z AUTO 27017G22KT 10SM CLR 17/M07 A3007 RMK AO2=
KOSA 212350Z AUTO 16005KT 10SM CLR 24/10 A2985 RMK AO2 T02370105
     10299 20234 402990060=
KOZA 212355Z AUTO 19011G17KT 10SM CLR 24/07 A2993 RMK AO2=
KPEQ 212355Z AUTO 22008KT 10SM CLR 27/08 A2985 RMK AO2 T02740076
     10304 20274=
KSLE 212356Z COR 00000KT 1 1/4SM BR OVC002 11/10 A2974 RMK AO2
     RAE10 CIG 002V008 SLP071 P0000 60013 T01060100 10139 20106
     55021=
