SAUS80 KWBC 220000 RRC
METAR
K40U 212355Z AUTO 09004KT 10SM CLR 19/M09 A2982 RMK AO2 T01881089
     10212 20181 402121052=
KFLG 212357Z 24012KT 10SM CLR 16/02 A3010 RMK AO2 SLP129 T01610022
     10183 20161 58011=
KGIC 212355Z AUTO 00000KT 7SM OVC036 06/05 A2971 RMK AO1 P0005=
KIZA 212355Z AUTO 26009KT 10SM CLR 21/13 A2986 RMK AO2=
KPSN 212355Z AUTO 18006KT 10SM CLR 26/10 A2987 RMK AO2=
KSOA 212355Z AUTO 19010KT 10SM 25/07 A2995 RMK AO2=
K2WX 212356Z AUTO 28012KT 17/M01 A2945 RMK AO1 SLP968 T01721006
     10217 20156 55005=
K9V9 212355Z AUTO 13005KT 10SM CLR 14/02 A2955 RMK AO2 T01430017
     10207 20143=
KAYS 212355Z AUTO 00000KT 10SM CLR 13/07 A3010 RMK AO2 T01260073
     10219 20126=
KD07 212356Z AUTO 15010KT 16/01 A2948 RMK AO1 SLP984 T01560006
     10194 20150 56008=
KCAO 212355Z AUTO 23005KT 10SM CLR 22/M11 A2977 RMK AO2 SLP027
     T02171106 10272 20217 58011 $=
KCBE 212355Z AUTO 00000KT 10SM CLR 13/00 A3012 RMK AO2 T01271002
     10196 20121 401961023=
K4BM 212355Z AUTO 17013G21KT 10SM CLR 08/M16 A3013 RMK AO2=
KSXT 212356Z AUTO VRB03KT 10SM BKN017 OVC024 12/09 A2989 RMK AO2
     SLP101 60000 T01220094 10167 20122 58019=
K2WX 212356Z AUTO 28012KT 17/M01 A2945 RMK AO1 SLP968 T01721006
     10217 20156 55005=
K8D3 212356Z AUTO 17008KT 15/01 A2956 RMK AO1 SLP006 T01500011
     10200 20150 58007=
KCKP 212355Z AUTO 09004KT 10SM CLR 15/00 A2960 RMK AO2 T01480000
     10238 20148=
KD07 212356Z AUTO 15010KT 16/01 A2948 RMK AO1 SLP984 T01560006
     10194 20150 56008=
KGNA 212356Z AUTO 24003KT 09/07 A2955 RMK AO1 SLP008 T00940067
     10194 20094 51023=
KP53 212356Z AUTO 19004KT 08/06 A2959 RMK AO1 SLP024 T00780056
     10183 20078 51035=
K9V9 212355Z AUTO 13005KT 10SM CLR 14/02 A2955 RMK AO2 T01430017
     10207 20143=
KIZA 212355Z AUTO 26009KT 10SM CLR 21/13 A2986 RMK AO2=
KPSN 212355Z AUTO 18006KT 10SM CLR 26/10 A2987 RMK AO2=
KSPD 212356Z AUTO 12004KT 22/M09 A2971 RMK AO1 SLP009 T02171094
     10283 20217 56013=
