SAUS70 KWBC 220000 RRM
METAR
KLRJ 212355Z AUTO 04004KT 9SM CLR 16/01 A2958 RMK AO2=
KLWB 212355Z AUTO 00000KT 10SM CLR 09/01 A3012 RMK AO2 T00900005
     10162 20088=
KLXN 212355Z AUTO 16005KT 7SM CLR 18/M01 A2961 RMK AO2 T01771006
     10256 20174=
KMDQ 212355Z AUTO 00000KT 10SM CLR 18/04 A3004 RMK A02 T01810037
     10234 20181 402340003=
KMGC 212355Z AUTO 20010G17KT 10SM CLR 20/02 A2976 RMK AO2=
KMLJ 212355Z AUTO 00000KT 10SM CLR 13/03 A3010 RMK AO2=
KMQS 212355Z AUTO 00000KT 10SM CLR 10/00 A3015 RMK AO2=
KOGA 212355Z AUTO 23005KT 10SM CLR 24/M05 A2959 RMK AO2 T02361052
     10268 20207=
KOGS 212355Z AUTO 18008KT 10SM CLR 12/M01 A2993 RMK AO2=
KOKM 212355Z AUTO 15007KT 10SM CLR 27/05 A2973 RMK AO2 T02670054
     10320 20267=
K06C 212355Z AUTO 20007KT 10SM CLR 21/08 A2970 RMK AO2 T02050080
     10241 20200=
K0R4 212355Z AUTO 15007KT 10SM CLR 23/12 A2996 RMK AO2 T02340116
     10295 20234=
K33V 212355Z AUTO 24010G19KT 10SM CLR 12/M10 A2993 RMK AO1=
K3K3 212355Z AUTO 00000KT 10SM CLR 23/M06 A2967 RMK AO2=
K49A 212355Z AUTO 00000KT 10SM CLR 11/03 A3013 RMK AO2 T01090027
     10205 20109=
K4O4 212355Z AUTO 16007KT 9SM CLR 23/09 A2983 RMK AO2=
K66R 212355Z AUTO 17010G14KT 10SM CLR 24/15 A2995 RMK AO2
     T02430146 10299 20243=
K74V 212355Z AUTO 27010G15KT 10SM 21/M10 A2982 RMK AO2=
KAAA 212355Z AUTO 19008KT 10SM CLR 20/05 A2975 RMK AO2 T02010050
     10264 20201=
KADU 212355Z AUTO 00000KT 10SM SCT005 SCT075 11/00 A2963 RMK
     AO2=
KAFK 212355Z AUTO 26003KT 10SM CLR 22/00 A2958 RMK AO2 T02180000
     10275 20218=
KAIO 212355Z AUTO 01005KT 8SM CLR 14/01 A2959 RMK AO2=
KAJG 212355Z AUTO 17006KT 10SM CLR 17/01 A2987 RMK AO2 T01730011
     10257 20173=
KAJR 212355Z AUTO 00000KT 10SM CLR 14/00 A3011 RMK AO2 T01380001
     10197 20138 TSNO=
KAJZ 212355Z AUTO 19003KT 10SM CLR 23/M07 A2988 RMK AO2 T02251072
     10241 20173 PWINO=
KASW 212355Z AUTO 00000KT 10SM CLR 18/02 A2982 RMK AO2
     T01810029=
KAWG 212355Z AUTO 20006KT 10SM CLR 22/03 A2962 RMK AO2=
KAXA 212355Z AUTO 11003KT 6SM HZ CLR 15/03 A2961 RMK A01=
KAZE 212355Z AUTO 00000KT 10SM CLR 13/05 A3010 RMK AO2 T01260048
     10214 20123=
KBBD 212355Z AUTO 19011G17KT 10SM CLR 27/03 A2987 RMK AO2=
KBBP 212355Z AUTO 00000KT 10SM CLR 08/04 A3012 RMK AO2=
KBDG 212355Z AUTO 17010G18KT 10SM 18/M03 A3004 RMK AO1 T01841035
     10237 20042=
KBEC 212355Z AUTO 15007KT 10SM CLR 25/01 A2963 RMK AO2 T02480008
     10309 20246=
KBJI 212355Z AUTO 00000KT 10SM CLR 11/01 A2957 RMK AO2 T01110006
     10153 20111=
KBQK 212355Z AUTO 00000KT 10SM CLR 10/06 A3010 RMK AO2 T00990060
     10223 20094 402230022=
KBQP 212355Z AUTO 00000KT 10SM CLR 22/12 A2993 RMK AO2 T02240121
     10287 20224=
KBUU 212355Z AUTO 20006KT 10SM CLR 18/05 A2967 RMK AO2 T01800045
     10245 20179 PWINO=
KBVS 212355Z AUTO 00000KT 10SM OVC019 09/09 A2973 RMK A01
     P0002=
KBYY 212355Z AUTO 19006KT 10SM CLR 22/14 A2999 RMK AO2
     T02250145=
KC65 212355Z AUTO VRB06KT 10SM CLR 18/03 A2979 RMK A01=
KC75 212355Z AUTO 19009G16KT 10SM CLR 22/07 A2969 RMK AO2
     T02190070 10255 20211=
KCAV 212355Z AUTO 05004KT 1 3/4SM HZ 14/01 A2962 RMK A01=
KCBF 212355Z AUTO 00000KT 4SM HZ CLR 20/M05 A2957 RMK AO2=
KOKZ 212355Z AUTO 00000KT 10SM CLR 10/05 A3011 RMK AO2 T01000054
     10213 20099 402130010=
KOLZ 212355Z AUTO 22003KT 9SM CLR 18/01 A2963 RMK A01=
KONL 212355Z AUTO 12006KT 10SM CLR 16/00 A2960 RMK AO2 T01561001
     10219 20156=
KOOA 212355Z AUTO 19008KT 10SM CLR 20/07 A2962 RMK AO2 T02000069
     10302 20196=
KOPL 212355Z AUTO 20007KT 10SM CLR 22/13 A3001 RMK AO2 T02190131
     10280 20219=
