SAUS70 KWBC 220200 RRJ
METAR
KWBF 220155Z AUTO 00000G11KT 10SM 23/14 A3009 RMK A01=
KY49 220155Z AUTO 00000KT 10SM OVC100 10/00 A2957 RMK AO2
     T00970003=
K06C 220155Z AUTO 20011G16KT 10SM CLR 20/08 A2973 RMK AO2
     T01950076=
K0CO 220155Z AUTO 31022G29KT 10SM CLR M01/M13 A3012 RMK AO2=
K0R4 220155Z AUTO 17009KT 10SM CLR 21/14 A3001 RMK AO2
     T02130136=
K1R8 220155Z AUTO 14004KT 10SM FEW040 BKN045 BKN050 13/09 A3010
     RMK AO2=
K33V 220155Z AUTO 16006KT 10SM CLR 07/M11 A2993 RMK AO1=
K3K3 220155Z AUTO 00000KT 10SM CLR 12/M07 A2967 RMK AO2=
K49A 220155Z AUTO 00000KT 10SM CLR 09/02 A3016 RMK AO2
     T00850020=
K4O4 220155Z AUTO 15007KT 10SM FEW050 22/10 A2986 RMK AO2=
K5M9 220155Z AUTO 17003KT 10SM CLR 17/07 A2993 RMK AO2
     T01650070=
K66R 220155Z AUTO 17009KT 10SM CLR 22/15 A2999 RMK AO2
     T02150145=
K74V 220155Z AUTO 27007KT 10SM 12/M07 A2984 RMK AO2=
KAAA 220155Z AUTO 18010G14KT 10SM CLR 18/05 A2977 RMK AO2
     T01760052=
KADU 220155Z AUTO 00000KT 10SM SCT011 SCT070 06/00 A2961 RMK
     AO2=
KAFK 220155Z AUTO 17004KT 10SM CLR 16/00 A2960 RMK AO2
     T01610000=
KAIO 220155Z AUTO 00000KT 4SM HZ CLR 08/01 A2959 RMK AO2=
KAJG 220155Z AUTO 17006KT 10SM CLR 16/02 A2989 RMK AO2
     T01590021=
KAJR 220155Z AUTO 00000KT 7SM CLR 09/02 A3014 RMK AO2
     T00910020=
KAJZ 220155Z AUTO 23006KT 10SM CLR 18/M04 A2989 RMK AO2 T01761040
     PWINO=
KAQO 220155Z AUTO 16005KT 10SM CLR 22/07 A2991 RMK AO2=
KASW 220155Z AUTO 21006KT 10SM CLR 17/02 A2985 RMK AO2
     T01720029=
KAUN 220155Z AUTO 13004KT 10SM CLR 22/07 A2981 RMK A01=
KAWG 220155Z AUTO 19008KT 10SM CLR 18/04 A2965 RMK AO2=
KAXA 220155Z AUTO 08006KT 6SM HZ CLR 13/03 A2962 RMK A01=
KAZE 220155Z AUTO 00000KT 10SM CLR 11/04 A3013 RMK AO2
     T01070037=
KBBP 220155Z AUTO 00000KT 10SM CLR 05/03 A3015 RMK AO2=
KBDG 220155Z AUTO 00000KT 10SM 15/M03 A3003 RMK AO1 T01461034=
KBEC 220155Z AUTO 17014G18KT 10SM CLR 26/01 A2964 RMK AO2
     T02550010=
KBJI 220155Z AUTO 00000KT 10SM SCT100 BKN120 10/00 A2956 RMK AO2
     T01010004=
KBQK 220155Z AUTO 00000KT 10SM CLR 08/06 A3013 RMK AO2
     T00770065=
KBVS 220155Z AUTO 00000KT 10SM BKN010 BKN015 OVC024 09/09 A2970
     RMK A01 P0003=
KBYY 220155Z AUTO 16005KT 10SM SCT042 18/14 A3001 RMK AO2
     T01880146=
KC65 220155Z AUTO 20011G16KT 10SM CLR 18/03 A2982 RMK A01=
KC75 220155Z AUTO 19010G17KT 10SM CLR 19/07 A2971 RMK AO2
     T01920065=
KCAV 220155Z AUTO 08008KT 6SM HZ SCT027 BKN031 BKN040 08/01 A2963
     RMK A01=
KCBF 220155Z AUTO 13006KT 4SM HZ CLR 16/M04 A2957 RMK AO2=
KCCU 220155Z AUTO 26013KT 10SM CLR 03/M10 A3016 RMK AO2=
KCIN 220155Z AUTO 23004KT 4SM HZ CLR 10/00 A2959 RMK AO2=
KGVT 220155Z AUTO 17012KT 10SM CLR 23/11 A2986 RMK AO2 TSNO
     T02300110=
KGZL 220155Z AUTO 16007KT 10SM CLR 23/07 A2978 RMK AO2=
KHDE 220155Z AUTO 19003KT 10SM CLR 13/M02 A2961 RMK AO2
     T01321018=
KHDL 220155Z AUTO 00000KT 10SM FEW027 SCT032 BKN039 11/08 A3012
     RMK AO2=
KHHG 220155Z AUTO 19004KT 10SM CLR A2989 RMK AO2=
KHII 220155Z AUTO 15006KT 10SM CLR 29/05 A2976 RMK AO2=
KHMZ 220155Z AUTO 30003KT 10SM CLR 04/M01 A3011 RMK AO2
     T00421006=
KHNR 220155Z AUTO 06004KT 9SM CLR 08/00 A2959 RMK A01=
KHPT 220155Z AUTO 00000KT 7SM CLR 08/M01 A2963 RMK AO2=
KHUM 220155Z AUTO 13003KT 15/13 A3009 RMK AO2 T01500130 PWINO=
KI63 220155Z AUTO 17010KT 10SM CLR 19/02 A2971 RMK AO2
     T01860020=
KI75 220155Z AUTO 15005KT 10SM CLR 17/04 A2962 RMK AO2
     T01670036=
KIBM 220155Z AUTO 23008KT 10SM CLR 12/M09 A2968 RMK AO2
     T01171095=
KICL 220155Z AUTO 00000KT 9SM CLR 10/05 A2961 RMK AO2=
