SAUS70 KWBC 212318 RRE
METAR
KOZW 212315Z AUTO 17006KT 10SM CLR 17/04 A2977 RMK AO2
     T01690038=
KRGK 212315Z AUTO 00000KT 10SM CLR 14/03 A2960 RMK AO2=
KSAZ 212315Z AUTO 00000KT 10SM CLR 13/M01 A2959 RMK AO2=
KSGS 212315Z AUTO 00000KT 10SM CLR 18/02 A2960 RMK AO2
     T01760015=
KTEW 212315Z AUTO 15004KT 10SM CLR 18/03 A2975 RMK AO2
     T01760030=
KUKT 212315Z AUTO 00000KT 10SM CLR 09/03 A3013 RMK A01=
KVVV 212315Z 00000KT 10SM 14/02 A2960 RMK AO2=
KY63 212315Z AUTO 00000KT 10SM CLR 14/00 A2959 RMK AO2
     T01380004=
K08D 212315Z AUTO 36008KT 10SM -RA 07/06 A2954 RMK AO2=
K10G 212315Z AUTO 18005KT 10SM CLR 16/M02 A2998 RMK AO2=
K1P1 212315Z AUTO 00000KT 10SM CLR 04/01 A3012 RMK AO2
     T00430011=
K20U 212315Z AUTO 00000KT 10SM CLR 11/02 A2954 RMK AO2=
K2P2 212315Z AUTO 17003KT 10SM CLR 10/10 A2957 RMK AO2
     T01000100=
K3D2 212315Z AUTO 00000KT 10SM CLR 11/08 A2957 RMK AO2
     T01140080=
K6L4 212315Z AUTO 00000KT 10SM CLR 16/M00 A3005 RMK AO2=
KAQP 212313Z AUTO 00000KT 7SM SCT090 16/M01 A2960 RMK AO2=
KD25 212315Z AUTO 00000KT 10SM CLR 11/02 A2958 RMK AO2
     T01090024=
KD55 212315Z AUTO 26008KT 10SM FEW065 FEW075 BKN090 11/02 A2952
     RMK AO2=
KETH 212313Z AUTO 00000KT 10SM 15/M01 A2960 RMK AO2=
KFOZ 212313Z AUTO 28004KT 10SM CLR 13/01 A2961 RMK AO2=
KHCO 212315Z AUTO 25009KT 10SM BKN110 14/00 A2950 RMK AO2=
KLNL 212315Z AUTO 00000KT 10SM CLR 09/03 A2960 RMK AO2
     T00940031=
KLUM 212315Z AUTO 27003KT 10SM CLR 18/08 A2960 RMK AO2 T01800081
     PWINO=
KMCX 212335Z AUTO 18008KT 10SM CLR 20/01 A2980 RMK AO2
     T01980010=
KMGG 212315Z AUTO 00000KT 10SM CLR 14/01 A2961 RMK AO2
     T01440011=
KMVE 212315Z AUTO 00000KT 10SM CLR 15/01 A2961 RMK AO2=
KOVL 212315Z AUTO 00000KT 7SM CLR 14/01 A2962 RMK AO2=
KPCZ 212315Z AUTO 26003KT 10SM CLR 19/02 A2960 RMK AO2
     T01860016=
KRCX 212315Z AUTO 24003KT 10SM CLR 15/05 A2961 RMK AO2
     T01530045=
KRID 212335Z AUTO 19006KT 10SM CLR 14/03 A2993 RMK AO2=
KROX 212315Z AUTO 22004KT 10SM SCT110 14/01 A2950 RMK AO2=
KRPD 212315Z AUTO 00000KT 10SM CLR 15/05 A2961 RMK AO2
     T01450052=
KTWM 212315Z AUTO 26005KT 10SM CLR 12/02 A2956 RMK AO2=
KXVG 212313Z AUTO 00000KT 10SM CLR 09/02 A2958 RMK AO2=
K05U 212315Z AUTO 27013G18KT 10SM 22/M14 A2993 RMK A01=
K0A0 212315Z AUTO 24013KT 10SM CLR 27/02 A2995 RMK AO2=
K0A9 212315Z AUTO 00000KT 10SM CLR 09/03 A3008 RMK A01=
K0F2 212315Z AUTO 18010G41KT 130V200 10SM CLR 30/02 A2976 RMK AO2
     T03040018=
K0R0 212315Z AUTO 17006G11KT 10SM SCT070 23/11 A3004 RMK AO2=
K18A 212315Z AUTO 00000KT 10SM CLR 12/00 A3011 RMK AO2
     T01251003=
K1A9 212315Z AUTO 00000KT 10SM CLR 16/08 A3006 RMK AO2
     T01620078=
K1H2 212315Z AUTO 16006KT 10SM CLR 21/03 A2985 RMK AO2
     T02060027=
K1K1 212315Z AUTO 17006KT 10SM CLR 27/M02 A2964 RMK AO2
     T02721020=
K1M5 212315Z AUTO 17005KT 10SM CLR 18/02 A2997 RMK A01=
K1V6 212315Z AUTO 27017G22KT 10SM CLR 25/M10 A2976 RMK AO2=
K2A0 212315Z AUTO 00000KT 10SM CLR 14/03 A3005 RMK A01=
K2G2 212310Z AUTO 20006KT 10SM CLR 14/M02 A3000 RMK A01=
K2M2 212315Z AUTO 15006KT 8SM CLR 19/09 A2999 RMK A01=
K33N 212315Z AUTO 00000KT 10SM CLR 10/05 A3014 RMK A01=
K36K 212315Z AUTO 13004KT 10SM CLR 27/M06 A2968 RMK AO2=
K3J7 212315Z AUTO 00000KT 10SM CLR 15/00 A3010 RMK AO2=
K3LF 212315Z AUTO 16011KT 10SM CLR 20/03 A2980 RMK AO2
     T02040030=
K3S8 212315Z AUTO VRB04KT 10SM OVC050 21/10 A2986 RMK AO2=
K46U 212315Z AUTO 27007G13KT 10SM SCT100 17/M07 A2976 RMK A01=
K4A9 212315Z AUTO 00000KT 10SM CLR 14/05 A3006 RMK AO2
     T01420045=
K4V0 212315Z AUTO 25009KT 10SM CLR 22/M08 A2982 RMK AO2
     T02171081=
