SAUS70 KWBC 220100
METAR
K14Y 220055Z AUTO 00000KT 5SM HZ CLR 07/00 A2962 RMK AO2=
K21D 220055Z AUTO 00000KT 10SM CLR 07/01 A2964 RMK AO2=
K3N8 220055Z AUTO 16005KT 10SM SCT100 10/00 A2955 RMK AO2
     T00971002=
K4I3 220055Z AUTO 17004KT 10SM CLR 12/01 A3000 RMK AO2=
KACQ 220055Z AUTO 00000KT 10SM CLR 08/01 A2966 RMK AO2=
KAIT 220055Z AUTO 00000KT 10SM CLR 05/02 A2960 RMK AO2=
KAKR 220054Z AUTO 17009KT 10SM CLR 14/M01 A2998 RMK AO2 SLP152
     T01441011=
KALO 220054Z AUTO 02003KT 7SM BKN031 12/01 A2963 RMK AO2 SLP034
     T01170011=
KAMN 220055Z AUTO 17008KT 10SM CLR 15/04 A2972 RMK AO2
     T01500035=
KAPC 220054Z 27006KT 8SM CLR 18/12 A2981 RMK AO2 SLP085
     T01780122=
KAQP 220053Z AUTO 18005KT 10SM 12/00 A2959 RMK AO2=
KAUW 220054Z AUTO 00000KT 9SM CLR 11/03 A2963 RMK AO2 SLP043
     T01110033 $=
KAXV 220055Z AUTO 18009KT 10SM CLR 15/00 A2991 RMK AO2=
KBUY 220054Z AUTO 00000KT 10SM CLR 08/04 A3014 RMK AO2 SLP207
     T00780039=
KBVI 220055Z AUTO 16005KT 10SM CLR 13/M01 A3003 RMK AO2
     T01261011=
KBWI 220054Z 00000KT 10SM FEW250 09/03 A3014 RMK AO2 SLP208
     T00890028 $=
KCBG 220055Z AUTO 00000KT 10SM CLR 10/01 A2962 RMK AO2=
KCDA 220055Z AUTO 00000KT 10SM 08/M02 A3010 RMK AO2 T00801019=
KCDI 220055Z AUTO 00000KT 10SM CLR 05/03 A3003 RMK AO2
     T00500033=
KCOQ 220055Z AUTO 00000KT 10SM CLR 07/01 A2959 RMK AO2 TSNO=
KCVH 220055Z AUTO 26008G14KT 8SM CLR 15/11 A2988 RMK A01=
KDEC 220054Z 18010KT 10SM CLR 17/04 A2981 RMK AO2 SLP094
     T01720044=
KDLZ 220055Z AUTO 18007KT 10SM CLR 13/00 A2997 RMK AO2=
KDRM 220055Z AUTO 00000KT 10SM CLR 07/06 A2963 RMK AO2
     T00660056=
KDSV 220054Z AUTO 15005KT 10SM CLR 11/M01 A3001 RMK AO2 SLP174
     T01061006=
KDXR 220053Z 00000KT 10SM CLR 08/03 A3016 RMK AO2 SLP214
     T00780028=
KDXX 220055Z AUTO 12007KT 10SM CLR 12/01 A2960 RMK AO2=
KDYL 220054Z AUTO 00000KT 10SM CLR 09/02 A3014 RMK AO2 SLP211
     T00890017=
KDYT 220055Z AUTO 28004KT 10SM FEW044 11/03 A2958 RMK AO2=
KECG 220054Z 06004KT 10SM CLR 13/09 A3016 RMK AO2 SLP211
     T01330089=
KELO 220055Z AUTO 24003KT 10SM CLR 07/01 A2958 RMK AO2=
KEVV 220054Z 15003KT 10SM CLR 18/03 A2991 RMK AO2 SLP129
     T01780028=
KFBL 220055Z AUTO 00000KT 10SM CLR 09/03 A2965 RMK AO2=
KFFM 220055Z AUTO 15005KT 10SM CLR 12/01 A2956 RMK AO2=
KFGN 220055Z AUTO 24005KT 10SM BKN100 11/M01 A2949 RMK AO2=
KFIG 220054Z AUTO 00000KT 10SM CLR 08/00 A3008 RMK AO2 SLP195
     T00830000=
KFSE 220055Z AUTO 17005KT 10SM BKN110 09/M01 A2956 RMK AO2=
KFSO 220055Z AUTO 18012G19KT 10SM CLR 13/M03 A3003 RMK AO2
     T01281030=
KFXE 220053Z 34009G18KT 10SM BKN080 23/17 A2997 RMK AO2 SLP152
     T02330172 $=
KGCK 220054Z 17005KT 10SM CLR 20/M04 A2964 RMK AO2 SLP024
     T02001039=
KGED 220054Z AUTO 00000KT 10SM CLR 09/06 A3017 RMK AO2 SLP217
     T00890061=
KGHW 220055Z AUTO 18003KT 10SM CLR 11/01 A2962 RMK AO2=
KGYL 220055Z AUTO 00000KT 7SM CLR 12/01 A2962 RMK AO2
     T01180012=
KHCO 220055Z AUTO 22008KT 10SM OVC090 12/01 A2952 RMK AO2=
KHWD 220054Z 31009KT 9SM CLR 16/12 A2985 RMK AO2 SLP117
     T01560117=
KHZL 220055Z AUTO 00000KT 10SM CLR 08/M01 A3015 RMK AO2=
KI69 220055Z AUTO 00000KT 10SM CLR 15/01 A2999 RMK AO2
     T01500005=
KICT 220053Z 18011KT 10SM BKN240 26/M02 A2963 RMK AO2 SLP025
     T02561022=
KILN 220054Z AUTO 19006KT 10SM CLR 13/00 A2998 RMK AO2 SLP161
     T01280000=
KIML 220053Z AUTO 18007KT 10SM CLR 17/M05 A2963 RMK AO2 SLP022
     T01671050=
KIMT 220054Z AUTO 00000KT 10SM CLR 07/02 A2960 RMK AO2 SLP033
     T00670022=
KIND 220054Z 17008KT 10SM FEW250 16/02 A2989 RMK AO2 SLP121
     T01610017=
