SAUS70 KWBC 220100 RRF
METAR
KSLN 220053Z 15006KT 10SM CLR 17/02 A2959 RMK AO2 SLP018
     T01720017=
KSNY 220053Z AUTO 25008KT 10SM CLR 13/M07 A2964 RMK AO2 SLP015
     T01281072=
KSSF 220053Z 17004KT 10SM CLR 24/09 A2991 RMK AO2 SLP122 T02390094
     $=
KSSI 220053Z AUTO 04005KT 10SM CLR 16/06 A3011 RMK AO2 SLP198
     T01610056=
KSTJ 220053Z AUTO 18008KT 10SM CLR 18/04 A2961 RMK AO2 SLP025
     T01830039 $=
KSWO 220053Z 17009KT 10SM CLR 24/03 A2969 RMK AO2 SLP046
     T02440033=
KTCC 220053Z AUTO 25012KT 10SM CLR 21/00 A2976 RMK AO2 SLP038
     T02060000=
KTKI 220053Z 17013KT 10SM CLR 26/08 A2981 RMK AO2 SLP098
     T02560078=
KTOP 220053Z AUTO 16005KT 10SM CLR 23/04 A2961 RMK AO2 SLP022
     T02330044 $=
KTRL 220053Z AUTO 15008KT 10SM CLR 23/08 A2985 RMK AO2 SLP104
     T02330078=
KTUL 220053Z 16013KT 10SM SCT150 27/06 A2971 RMK AO2 SLP055
     T02670061=
KTXK 220053Z 17006KT 10SM CLR 24/09 A2987 RMK AO2 SLP112
     T02440094=
KTYR 220053Z 18008KT 10SM CLR 22/12 A2988 RMK AO2 SLP114 T02220117
     $=
KUNO 220053Z AUTO 15005KT 10SM CLR 18/08 A2986 RMK AO2 SLP109
     T01830078=
KUTS 220053Z AUTO 18007KT 10SM CLR 24/13 A2994 RMK AO2 SLP134
     T02440128=
KUUU 220053Z AUTO 19005KT 10SM CLR 12/07 A3017 RMK AO2 SLP215
     T01220072=
KVIH 220053Z AUTO 16009KT 10SM CLR 21/M01 A2979 RMK AO2 SLP082
     T02111011 $=
KVLD 220053Z AUTO 00000KT 10SM CLR 10/05 A3011 RMK AO2 SLP206
     T01000050=
KWST 220053Z AUTO 21007KT 10SM CLR 14/08 A3017 RMK AO2 SLP215
     T01440083=
KXVG 220053Z AUTO 00000KT 10SM CLR 06/01 A2958 RMK AO2=
PAAQ 220053Z AUTO 23003KT 10SM BKN010 03/01 A2985 RMK AO2 SLP112
     T00330006 TSNO=
PAKW 220053Z AUTO 17005KT 10SM FEW038 BKN050 OVC100 08/05 A2973
     RMK AO2 SLP066 T00830050 TSNO $=
PAPB 220053Z AUTO 20007KT 6SM HZ CLR 08/ A2996 RMK AO2 SLP134
     T0078 TSNO $=
PAAQ 220053Z AUTO 23003KT 10SM BKN010 03/01 A2985 RMK AO2 SLP112
     T00330006 TSNO=
PABR 220053Z 11020G31KT 10SM BKN055 OVC080 M03/M05 A2985 RMK AO2
     PK WND 11031/0049 SNE44 SLP109 P0000 T10331050=
PACV 220053Z 00000KT 10SM FEW016 FEW080 07/04 A2969 RMK AO2 SLP053
     T00670044=
PAEN 220053Z 22004KT 10SM CLR 07/01 A2985 RMK AO2 SLP112
     T00720006=
PAGK 220053Z AUTO 28004KT 4SM -SN BR OVC022 01/00 A2973 RMK AO2
     SLP091 P0001 T00060000 TSNO=
PAGY 220053Z AUTO 21015KT 10SM BKN050 OVC065 08/04 A2961 RMK AO2
     RAB31E41 SLP028 P0000 T00830044 TSNO=
PAIL 220053Z 30004KT 10SM SCT013 BKN028 04/02 A2996 RMK AO2 SLP149
     T00440022=
PAKT 220053Z 29003KT 10SM SCT050 09/04 A2973 RMK AO2 SLP068 HARBOR
     WND 28008KT T00890039=
PAKV 220053Z AUTO VRB04KT 10SM BKN008 BKN014 OVC020 02/01 A2981
     RMK AO2 SLP098 T00170011 TSNO=
PAKW 220053Z AUTO 17005KT 10SM FEW038 BKN050 OVC100 08/05 A2973
     RMK AO2 SLP066 T00830050 TSNO $=
PAMR 220053Z 31003KT 10SM CLR 05/01 A2985 RMK AO2 SLP110
     T00500006=
PAPB 220053Z AUTO 20007KT 6SM HZ CLR 08/ A2996 RMK AO2 SLP134
     T0078 TSNO $=
PASC 220053Z 09019KT 6SM BLSN OVC011 M03/M05 A2986 RMK AO2 PK WND
     09026/0040 SLP112 T10331050=
PASO 220053Z AUTO VRB06KT 10SM CLR 08/02 A2991 RMK AO2 SLP127
     T00780022 TSNO=
PATO 220053Z AUTO 27008G16KT 230V290 10SM CLR 05/M02 A2980 RMK AO2
     SLP091 T00501017 TSNO=
PAWD 220053Z AUTO 34008KT 10SM CLR 09/M03 A2980 RMK AO2 SLP091
     T00891033 TSNO=
PAWI 220053Z AUTO 08012KT 10SM FEW055 M05/M07 A2974 RMK AO2 SLP073
     T10501067 TSNO $=
K4R5 220055Z AUTO 00000KT 10SM CLR 05/04 A2958 RMK AO2
     T00540040=
KARR 220052Z 17007KT 10SM CLR 16/04 A2972 RMK AO2 SLP065
     T01610044=
