SAUS70 KWBC 212318 RRB
METAR
KO32 212315Z AUTO 00000KT 8SM CLR 31/08 A2978 RMK AO2 T03060079
     $=
KOCQ 212315Z AUTO 00000KT 10SM CLR 14/04 A2957 RMK AO1
     T01410040=
KOEB 212315Z AUTO 19006KT 10SM CLR 19/03 A2978 RMK AO2
     T01860030=
KOEO 212315Z AUTO 24003KT 10SM CLR 15/05 A2963 RMK AO2
     T01530046=
KOKV 212315Z AUTO 15003KT 10SM CLR 10/00 A3008 RMK AO2=
KOLG 212315Z AUTO 29003KT 10SM CLR 14/00 A2957 RMK AO1=
KONM 212315Z AUTO 13009KT 10SM CLR 24/03 A2996 RMK AO2
     T02420026=
K04W 212315Z AUTO 34003KT 10SM CLR 14/02 A2959 RMK AO2=
K06D 212315Z AUTO 27008KT 10SM SCT022 OVC032 08/05 A2954 RMK
     AO2=
K0S9 212315Z AUTO 00000KT 4SM -RA FEW019 BKN025 BKN032 10/08 A2974
     RMK AO2=
K0VG 212315Z AUTO 00000KT 10SM CLR 13/M00 A3008 RMK AO2=
K15M 212315Z AUTO 18003KT 10SM CLR 21/10 A2998 RMK AO2 T02080096
     $=
K1R7 212315Z AUTO 18003KT 10SM CLR 23/13 A3001 RMK AO2 PWINO=
K22N 212315Z AUTO 00000KT 10SM CLR 05/01 A3012 RMK AO2=
K24J 212315Z AUTO 00000KT 9SM 16/03 A3007 RMK A01=
K28J 212315Z AUTO 05006KT 10SM CLR 15/07 A3007 RMK AO2 TSNO=
K2D5 212315Z AUTO 14007KT 6SM HZ CLR 14/01 A2954 RMK AO2=
K3AU 212315Z AUTO 17007KT 10SM CLR 26/M06 A2964 RMK AO2=
K3N8 212315Z AUTO 19003KT 10SM CLR 12/00 A2956 RMK AO2
     T01221003=
K42J 212315Z AUTO 05004KT 10SM CLR 15/03 A3006 RMK A01=
K46D 212315Z AUTO 20005KT 10SM FEW100 FEW120 12/02 A2955 RMK
     AO2=
K4A6 212315Z AUTO 17004KT 10SM CLR 17/05 A3005 RMK AO2=
K4M9 212315Z AUTO 19008KT 10SM CLR 21/11 A2986 RMK AO2 PWINO=
K5H4 212315Z AUTO 27005KT 10SM BKN055 BKN075 OVC085 11/07 A2956
     RMK AO2=
K6B0 212315Z AUTO 16004KT 10SM CLR 10/M01 A3006 RMK AO2
     T00961011=
K6B9 212315Z AUTO VRB05G10KT 10SM CLR 13/M02 A3001 RMK AO2=
K7L2 212315Z AUTO 11004KT 9SM SCT120 15/M00 A2952 RMK AO2=
K7W4 212315Z AUTO 00000KT 10SM CLR 11/05 A3012 RMK AO1
     T01060049=
K82C 212315Z AUTO 00000KT 10SM CLR 14/04 A2961 RMK AO2
     T01390037=
K96D 212315Z AUTO 25008KT 10SM OVC095 13/01 A2950 RMK AO2=
K9D7 212315Z AUTO 31006KT 10SM OVC070 11/02 A2954 RMK AO2 TSNO=
KACB 212315Z AUTO 23004KT 10SM CLR 17/06 A2960 RMK AO2
     T01730056=
KACJ 212315Z AUTO 00000KT 10SM CLR 15/04 A3008 RMK AO2
     T01480040=
KAEL 212315Z AUTO 00000KT 7SM CLR 17/03 A2962 RMK AO2=
KAFP 212315Z AUTO 00000KT 10SM CLR 12/01 A3012 RMK AO2
     T01190005=
KAGO 212315Z AUTO 16004KT 10SM CLR 25/12 A2986 RMK A01=
KAIG 212315Z AUTO 24005KT 10SM CLR 12/03 A2960 RMK AO2
     T01150034=
KAIK 212315Z AUTO 05004KT 10SM CLR 14/02 A3011 RMK AO2
     T01400015=
KALM 212315Z AUTO 10003KT 10SM CLR 25/04 A2997 RMK AO2=
KANQ 212315Z AUTO 19009KT 10SM CLR 18/03 A2980 RMK AO2=
KAQX 212315Z AUTO 00000KT 10SM CLR 15/03 A3009 RMK AO2=
KARW 212315Z AUTO 00000KT 10SM CLR 14/06 A3009 RMK AO2=
KASJ 212315Z AUTO 00000KT 10SM CLR 10/06 A3014 RMK AO2
     T00980062=
KATA 212315Z AUTO 21003KT 10SM CLR 26/11 A2984 RMK AO2 SLP005
     T02610111 $=
KATS 212315Z AUTO 00000KT 10SM CLR 28/06 A2988 RMK AO2=
KAVC 212315Z AUTO 00000KT 10SM CLR 10/07 A3018 RMK AO2
     T01010071=
KBAC 212315Z AUTO 13003KT 9SM BKN100 BKN120 14/00 A2953 RMK
     AO2=
KBBB 212315Z AUTO 00000KT 10SM CLR 13/01 A2961 RMK AO2=
KBCB 212315Z AUTO 12005KT 10SM CLR 10/00 A3014 RMK AO2
     T01030001=
KBDH 212315Z AUTO 22003KT 10SM CLR 14/02 A2965 RMK AO2=
KBKS 212315Z AUTO 13011KT 9SM CLR 27/16 A2992 RMK AO2 SLP092
     T02700161 $=
KBKT 212315Z AUTO 00000KT 10SM CLR 12/03 A3013 RMK AO1
     T01240032=
KBRG 212315Z AUTO 27011G20KT 10SM CLR 24/00 A2998 RMK AO2
     T02371005=
KBRY 212315Z AUTO 18004KT 10SM CLR 18/00 A2996 RMK AO2
     T01840000=
