SAUS70 KWBC 220100 RRA
METAR
KDVN 220052Z AUTO 18007KT 10SM CLR 19/04 A2968 RMK AO2 SLP047
     T01940039=
KEHO 220055Z AUTO 07003KT 10SM CLR 10/02 A3014 RMK AO2
     T00990020=
KEOE 220055Z AUTO 00000KT 10SM CLR 09/02 A3016 RMK AO2=
KEST 220052Z AUTO 05006KT 8SM CLR 10/02 A2964 RMK AO2 SLP039
     T01000017=
KEYF 220055Z AUTO 00000KT 10SM CLR 11/06 A3014 RMK AO2
     T01100059=
KORE 220052Z AUTO 00000KT 10SM CLR 04/01 A3015 RMK AO2 SLP215
     T00390006=
KPPF 220052Z AUTO 17007KT 10SM CLR 25/04 A2970 RMK AO2 SLP049
     T02500044 PWINO $=
KPWK 220052Z 19012KT 10SM CLR 21/04 A2972 RMK AO2 SLP064
     T02060039=
KPYM 220052Z AUTO 00000KT 10SM CLR 08/06 A3017 RMK AO2 SLP220
     T00830061=
KRAP 220052Z VRB04KT 10SM CLR 10/M03 A2946 RMK AO2 SLP980
     T01001033=
KRCZ 220055Z AUTO 00000KT 10SM CLR 11/02 A3014 RMK AO2
     T01110024=
KRNV 220055Z AUTO 17008KT 10SM CLR A2993 RMK AO2 TSNO=
KRPD 220055Z AUTO 00000KT 7SM CLR 08/05 A2964 RMK AO2
     T00820050=
KSDC 220055Z AUTO 17006KT 10SM CLR 12/M02 A2998 RMK AO2=
KSGF 220052Z 17009KT 10SM CLR 22/02 A2977 RMK AO2 SLP077 T02170022
     $=
KSNK 220055Z AUTO 19007KT 10SM CLR 23/02 A2983 RMK AO2
     T02250022=
KSPI 220052Z 17012G24KT 10SM CLR 20/04 A2976 RMK AO2 SLP077
     T02000039=
KSPW 220053Z AUTO 05007KT 10SM CLR 10/M01 A2962 RMK AO2 SLP038
     T01001006=
KSUX 220052Z 00000KT 5SM HZ CLR 12/01 A2959 RMK AO2 SLP024
     T01220006=
KTAN 220052Z AUTO A3017 RMK AO2 SLPNO PWINO FZRANO TSNO $=
KTRM 220052Z AUTO 13006KT 10SM CLR 28/11 A2971 RMK AO2 SLP062
     T02830111=
KUES 220045Z 19007KT 10SM CLR 17/03 A2968=
PATA 220052Z 08003KT 1SM -SN BR OVC009 01/M01 A2985 RMK AO2 SLP114
     P0002 T00061006=
KFIT 220052Z AUTO 00000KT 10SM CLR 04/01 A3016 RMK AO2 SLP215
     T00440011=
KGAG 220053Z AUTO 17011KT 7SM CLR 22/M02 A2964 RMK AO2 SLP022
     T02171022=
KGLS 220052Z AUTO 19012KT 10SM BKN041 23/15 A3001 RMK AO2 SLP163
     T02330150=
KHIE 220052Z AUTO 00000KT 10SM CLR 00/M02 A3009 RMK AO2 SLP204
     T00001022=
KHRL 220052Z 13011KT 10SM CLR 23/16 A2997 RMK AO2 SLP147
     T02330161=
KHUT 220052Z 14010KT 10SM CLR 23/01 A2960 RMK AO2 SLP011
     T02280011=
KIAD 220052Z 16005KT 10SM CLR 12/00 A3014 RMK AO2 SLP206
     T01170000=
KIEN 220052Z AUTO 00000KT 10SM CLR 13/M06 A2950 RMK AO2 SLP997
     T01281061=
KIJD 220052Z AUTO 00000KT 10SM CLR 06/05 A3016 RMK AO2 SLP215
     T00610050=
KIOW 220052Z AUTO 00000KT 10SM CLR 17/03 A2965 RMK AO2 SLP043
     T01720033=
KLAA 220053Z AUTO 16009KT 10SM CLR 21/M09 A2966 RMK AO2 SLP021
     T02061089=
KLAL 220055Z AUTO 36005KT 10SM CLR 17/06 A3006 RMK AO2
     T01650059=
KLKV 220053Z AUTO 26014KT 10SM BKN120 15/02 A2982 RMK AO2 SLP098
     T01500022=
KLNL 220055Z AUTO 00000KT 10SM CLR 04/02 A2964 RMK AO2
     T00430016=
KLUM 220055Z AUTO 00000KT 10SM CLR 11/07 A2963 RMK AO2 T01100072
     PWINO=
KLWC 220052Z AUTO 16008KT 10SM CLR 23/05 A2963 RMK AO1 SLP031
     T02330050=
KMAI 220053Z AUTO 00000KT 10SM CLR 13/06 A3011 RMK AO1 SLP195
     T01330061=
KMAW 220055Z AUTO 18006KT 10SM CLR 18/08 A2990 RMK AO1=
KMDH 220052Z 17004KT 10SM CLR 16/07 A2988 RMK AO2 SLP117
     T01560067=
KMEB 220052Z AUTO 00000KT 10SM CLR 10/04 A3014 RMK AO2 SLP206
     T01000044=
KMKE 220052Z 21007KT 10SM CLR 19/04 A2966 RMK AO2 SLP044
     T01890044=
KMLI 220052Z 20008KT 10SM CLR 21/03 A2966 RMK AO2 SLP043
     T02110033=
KMWH 220052Z 17009KT 10SM FEW120 10/03 A2962 RMK AO2 SLP033
     T01000028=
KOKB 220052Z AUTO 24006KT 10SM BKN016 21/17 A2984 RMK AO2 SLP103
     T02110167=
