SAUS80 KWBC 220202
METAR
KSFY 220202Z AUTO 16008KT 10SM CLR 16/03 A2967 RMK AO2=
K77S 220215Z AUTO 22006G12KT 10SM FEW009 BKN014 OVC019 15/15 A2971
     RMK A01=
KSFY 220202Z AUTO 16008KT 10SM CLR 16/03 A2967 RMK AO2=
K77S 220215Z AUTO 22006G12KT 10SM FEW009 BKN014 OVC019 15/15 A2971
     RMK A01=
