SAUS70 KWBC 220036
METAR
KDVP 220033Z AUTO 13005KT 10SM CLR 09/00 A2963 RMK AO2
     T00900003=
KORB 220033Z AUTO 00000KT 10SM CLR 10/02 A2955 RMK AO2=
K08D 220035Z AUTO 03007KT 10SM 05/05 A2955 RMK AO2=
K0E0 220035Z AUTO 27009KT 10SM CLR 16/00 A3001 RMK AO2 T01621005
     TSNO=
KAQP 220033Z AUTO 19004KT 10SM 12/00 A2960 RMK AO2=
KBEA 220035Z AUTO 14008KT 10SM CLR 22/13 A2995 RMK AO2
     T02200133=
KCQW 220035Z AUTO 00000KT 10SM CLR 09/03 A3013 RMK AO2 PWINO=
KD55 220035Z AUTO 28008KT 10SM SCT060 OVC070 11/02 A2954 RMK
     AO2=
KEHO 220035Z AUTO 00000KT 10SM CLR 12/00 A3014 RMK AO2
     T01201001=
KETH 220033Z AUTO 12006KT 10SM 11/M01 A2958 RMK AO2=
KEYF 220035Z AUTO 00000KT 10SM CLR 11/06 A3013 RMK AO2
     T01140057=
KFOZ 220033Z AUTO 00000KT 10SM CLR 10/01 A2963 RMK AO2=
KLAL 220035Z AUTO 35006KT 10SM CLR 17/06 A3006 RMK AO2
     T01720060=
KLNL 220035Z AUTO 00000KT 10SM CLR 05/02 A2964 RMK AO2
     T00470020=
KLUM 220035Z AUTO 00000KT 10SM CLR 12/07 A2964 RMK AO2 T01210072
     PWINO=
KMAW 220035Z AUTO 18006KT 10SM CLR 20/08 A2989 RMK AO1=
KOWA 220033Z AUTO 00000KT 7SM CLR 09/03 A2965 RMK AO2=
KRCZ 220035Z AUTO 00000KT 10SM CLR 11/03 A3014 RMK AO2
     T01060030=
KRNV 220035Z AUTO 17009KT 10SM CLR A2992 RMK AO2 TSNO=
KRPD 220035Z AUTO 00000KT 7SM CLR 08/05 A2964 RMK AO2
     T00840049=
KSNK 220035Z AUTO 20005KT 10SM CLR 23/02 A2983 RMK AO2
     T02330018=
KXVG 220033Z AUTO 00000KT 10SM CLR 07/02 A2959 RMK AO2=
K2C8 220035Z AUTO 23006G11KT 10SM SCT050 BKN065 OVC075 12/02 A2951
     RMK AO2=
K4R5 220035Z AUTO 00000KT 10SM SCT110 06/04 A2958 RMK AO2
     T00610044=
KARV 220035Z AUTO 00000KT 10SM CLR 08/03 A2962 RMK AO2
     T00820030=
KD50 220035Z AUTO 19003KT 10SM BKN038 OVC047 05/04 A2957 RMK
     AO2=
KDVP 220033Z AUTO 13005KT 10SM CLR 09/00 A2963 RMK AO2
     T00900003=
KEFT 220035Z AUTO 22012KT 10SM CLR 18/03 A2964 RMK AO2
     T01770026=
KETB 220035Z AUTO 19003KT 10SM CLR 15/03 A2965 RMK AO2=
KFRH 220035Z AUTO 17004KT 10SM CLR 17/00 A2993 RMK AO1=
KHFY 220035Z AUTO 17006KT 10SM CLR 16/04 A2990 RMK AO2
     T01550035=
KIUA 220035Z AUTO 17006KT 10SM CLR 12/00 A2998 RMK AO2
     T01151002=
KLDJ 220035Z AUTO 00000KT 10SM CLR 13/03 A3015 RMK AO2
     T01270032=
KMDZ 220035Z AUTO 00000KT 10SM CLR 07/03 A2964 RMK AO2 T00710028
     PWINO=
KMRJ 220035Z AUTO 00000KT 10SM CLR 19/M01 A2965 RMK AO2=
KOIC 220035Z AUTO 18004KT 10SM CLR 06/M01 A3011 RMK AO2
     T00641012=
KORB 220033Z AUTO 00000KT 10SM CLR 10/02 A2955 RMK AO2=
KPBH 220035Z AUTO 00000KT 10SM CLR 06/02 A2962 RMK AO2
     T00560017=
KPDC 220035Z AUTO 00000KT 10SM CLR 14/03 A2963 RMK AO2
     T01420033=
KRRL 220035Z AUTO 25003KT 10SM CLR 11/04 A2963 RMK AO2 T01120036
     TSNO=
KUNU 220035Z AUTO 19003KT 10SM CLR 16/04 A2966 RMK AO2
     T01570040=
KVNW 220035Z AUTO 19009KT 10SM CLR 16/00 A2988 RMK AO2=
KY51 220035Z AUTO 21003KT 10SM CLR 17/04 A2965 RMK AO1
     T01710036=
K10G 220035Z AUTO 18005KT 10SM CLR 14/M01 A3000 RMK AO2=
K14Y 220035Z AUTO 00000KT 7SM CLR 07/00 A2962 RMK AO2=
K1P1 220035Z AUTO 00000KT 10SM CLR 01/00 A3013 RMK AO2
     T00120001=
K20U 220035Z AUTO 32005KT 10SM SCT060 OVC070 09/03 A2955 RMK
     AO2=
K21D 220035Z AUTO 00000KT 10SM CLR 09/01 A2963 RMK AO2=
K24A 220035Z AUTO 12007KT 10SM CLR 11/M02 A3014 RMK AO2
     T01091015=
K27K 220035Z AUTO 17004KT 10SM CLR 12/00 A3001 RMK AO1=
K35A 220035Z AUTO 00000KT 10SM CLR 10/02 A3017 RMK A02
     T01000024=
K3D2 220035Z AUTO 00000KT 10SM CLR 10/08 A2960 RMK AO2
     T01040076=
K4I3 220035Z AUTO 17004KT 10SM CLR 12/01 A2999 RMK AO2=
