SAPA32 KWBC 211600 RRD
METAR
NGFU 211600Z 08004KT 9999 FEW018TCU 27/26 Q1008=
