SASA31 KWBC 212300 RRA
METAR
SVBC 212303Z AUTO 02007KT NCD 29/25 Q1008=
SVMC 212303Z AUTO NIL=
SVMG 212303Z AUTO 09012KT NCD 33/24 Q1009=
SVMI 212303Z AUTO 08006KT NCD ///// Q1009=
SYCJ 212300Z 01006KT 9999 SCT017 SCT039 BKN090 27/25 Q1009
     NOSIG=
