SAUS80 KWBC 212300 RRB
METAR
KTCS 212253Z AUTO 18009KT 10SM CLR 26/04 A2996 RMK AO2 SLP081
     T02560039=
KTUS 212253Z 26008G21KT 10SM CLR 32/09 A2990 RMK AO2 SLP083
     T03170089=
KBDR 212252Z 15003KT 10SM CLR 12/05 A3014 RMK AO2 SLP205
     T01170050=
KHTL 212253Z AUTO 19007KT 10SM CLR 16/04 A2964 RMK AO2 SLP042
     T01560039=
KCUT 212253Z AUTO 23006KT 10SM CLR 18/M08 A2959 RMK AO2 SLP971
     T01831083=
KUIL 212253Z AUTO 31003KT 4SM -RA BR FEW019 BKN045 OVC049 09/09
     A2975 RMK AO2 SLP077 P0007 T00940089=
KYKM 212253Z AUTO 19005KT 10SM -RA OVC065 11/06 A2968 RMK AO2
     RAE02B39 SLP050 P0000 T01110061=
KBNO 212253Z AUTO 26016KT 10SM OVC110 17/01 A2976 RMK AO2 SLP063
     T01670011=
KDMN 212253Z AUTO 27014G20KT 10SM CLR 27/07 A2999 RMK AO2 SLP100
     T02670067=
KFAT 212253Z 30005KT 10SM CLR 32/07 A2979 RMK AO2 SLP084 MTNS OBSC
     HZ DSNT N-E-SE T03170067=
KGEG 212253Z 22008KT 10SM -RA FEW007 BKN025 OVC040 06/03 A2967 RMK
     AO2 SLP053 P0004 T00560033=
KDBQ 212253Z 21005KT 10SM CLR 21/04 A2961 RMK AO2 SLP029
     T02110039=
KMSN 212253Z 23003KT 10SM FEW100 21/04 A2960 RMK AO2 SLP023
     T02060039=
KFNT 212253Z 18006KT 10SM CLR 17/04 A2975 RMK AO2 SLP075
     T01670044=
KMSO 212253Z 00000KT 8SM -RA BKN030 OVC036 08/05 A2965 RMK AO2
     RAB04 SLP044 P0001 T00780050=
PAQT 212253Z AUTO 08013KT 10SM SCT012 OVC026 M03/M05 A2985 RMK AO2
     SLP110 T10331050 TSNO=
PADK 212256Z AUTO 00000KT BKN023 OVC030 06/05 A2998 RMK AO2 SLP153
     P0004 T00610050 PWINO $=
KBIL 212253Z 06014G18KT 10SM SCT070 OVC090 14/03 A2953 RMK AO2
     SLP984 VIRGA N-E SHRA DSNT SW-E T01440028=
KGCC 212253Z AUTO 34007KT 10SM CLR 21/M04 A2952 RMK AO2 SLP971
     T02061044=
KRIW 212253Z AUTO 27018G25KT 10SM CLR 22/M04 A2961 RMK AO2 PK WND
     28029/2243 SLP976 T02171044=
KGRR 212253Z 18009KT 10SM FEW150 FEW250 18/05 A2970 RMK AO2 SLP059
     T01780050=
KLWD 212253Z AUTO 20006KT 10SM CLR 24/03 A2960 RMK AO2 RAE16
     SLP022 P0000 T02440028=
KLYV 212255Z AUTO 00000KT 7SM CLR 17/01 A2960 RMK AO2=
KORH 212254Z 22005KT 10SM CLR 10/01 A3012 RMK AO2 SLP206
     T01000006=
KCRQ 212253Z 22006KT 10SM CLR 21/17 A2985 RMK AO2 SLP104
     T02110167=
KRNM 212253Z VRB06KT 10SM CLR 26/14 A2987 RMK AO2 SLP101
     T02610144=
KRQE 212253Z AUTO 10SM FEW070 19/02 A3008 RMK AO2 SLP115
     T01940017=
KSDM 212253Z VRB06KT 10SM FEW014 22/16 A2986 RMK AO2 SLP108
     T02220156=
KHVR 212253Z AUTO 30010KT -RA SCT011 OVC046 08/07 A2956 RMK AO2
     SLP018 P0003 T00780067 $=
KLBB 212253Z 24012G23KT 10SM FEW250 28/01 A2981 RMK AO2 PK WND
     23027/2239 SLP057 T02780011=
KDAB 212253Z 35009KT 10SM CLR 20/09 A3004 RMK AO2 SLP172
     T02000094=
KSAV 212253Z 10005KT 10SM FEW250 17/01 A3009 RMK AO2 SLP188
     T01670011=
KBFF 212253Z AUTO 26015G27KT 10SM CLR 25/M09 A2960 RMK AO2 PK WND
     25028/2243 SLP993 T02501094=
KCDR 212253Z AUTO 19007KT 10SM CLR 24/M08 A2949 RMK AO2 SLP980
     T02441083=
KFAR 212253Z AUTO 20004KT 10SM CLR 14/M02 A2955 RMK AO2 SLP008
     T01441017 TSNO=
KFNB 212253Z AUTO 21005KT 10SM CLR 28/06 A2957 RMK AO2 SLP008
     T02780056=
KPIA 212254Z 19014G23KT 10SM CLR 24/03 A2970 RMK AO2 SLP055
     T02390028=
KCLL 212253Z 17015G20KT 10SM CLR 29/10 A2990 RMK AO2 SLP119
     T02890100=
KLAX 212253Z 26010KT 10SM SCT010 SCT080 21/17 A2985 RMK AO2 SLP107
     T02110172=
KAPN 212254Z AUTO 18009KT 10SM CLR 16/04 A2961 RMK AO2 SLP029
     T01610044=
KCAR 212254Z AUTO 20004KT 10SM CLR 09/M01 A3004 RMK AO2 SLP181
     T00891011=
KDSM 212254Z 22004KT 10SM FEW250 24/02 A2960 RMK AO2 SLP019
     T02390022=
