SAUS70 KWBC 220236
METAR
K2C8 220235Z AUTO 31006KT 9SM SCT030 BKN041 OVC055 10/06 A2957 RMK
     AO2=
KD50 220235Z AUTO 23003KT 6SM BR FEW110 03/03 A2957 RMK AO2=
KEFT 220235Z AUTO 21013KT 10SM CLR 16/03 A2967 RMK AO2
     T01600029=
KETB 220235Z AUTO 00000KT 10SM CLR 10/03 A2968 RMK AO2=
KFRH 220235Z AUTO 16005KT 10SM CLR 16/00 A2994 RMK AO1=
KOIC 220235Z AUTO 00000KT 10SM CLR 05/M01 A3013 RMK AO2
     T00451010=
KPBH 220235Z AUTO 00000KT 10SM CLR 03/01 A2965 RMK AO2
     T00320010=
KPDC 220235Z AUTO 00000KT 10SM CLR 09/03 A2965 RMK AO2
     T00910025=
KRRL 220235Z AUTO 00000KT 10SM CLR 05/02 A2965 RMK AO2 T00470021
     TSNO=
KUNU 220235Z AUTO 00000KT 10SM CLR 14/04 A2969 RMK AO2
     T01370038=
KVNW 220235Z AUTO 18008KT 10SM CLR 14/00 A2992 RMK AO2=
KY51 220235Z AUTO 00000KT 10SM CLR 13/04 A2966 RMK AO1
     T01300035=
K6S8 220225Z AUTO 04012KT 10SM 10/05 A2955 RMK A01 LAUREL=
KJXI 220235Z AUTO 16005KT 10SM CLR 22/10 A2989 RMK AO2
     T02170102=
K08D 220235Z AUTO 00000KT 10SM 05/05 A2956 RMK AO2=
K0E0 220235Z AUTO 25006KT 10SM CLR 13/01 A3002 RMK AO2 T01260010
     TSNO=
KBEA 220235Z AUTO 15005KT 10SM CLR 19/14 A2998 RMK AO2 T01870142
     PWINO=
KCQW 220235Z AUTO 00000KT 10SM CLR 05/02 A3016 RMK AO2 PWINO=
KD55 220235Z AUTO 33004KT 6SM BR BKN043 OVC049 07/07 A2957 RMK
     AO2=
KEDE 220235Z AUTO 00000KT 10SM CLR 12/11 A3019 RMK AO2
     T01180105=
KEHO 220235Z AUTO 00000KT 10SM CLR 07/02 A3017 RMK AO2
     T00670023=
KEYF 220235Z AUTO 05003KT 10SM SCT050 09/06 A3017 RMK AO2
     T00900060=
KLAL 220235Z AUTO 03007KT 10SM CLR 17/08 A3009 RMK AO2
     T01670078=
KLNL 220235Z AUTO 00000KT 10SM CLR 01/01 A2967 RMK AO2
     T00140007=
KLUM 220235Z AUTO 00000KT 10SM CLR 08/07 A2965 RMK AO2
     T00810066=
KMAW 220235Z AUTO 19006KT 10SM CLR 16/08 A2991 RMK AO1=
KRCZ 220235Z AUTO 00000KT 10SM CLR 08/03 A3017 RMK AO2
     T00830027=
KRNV 220235Z AUTO 17009KT 10SM CLR A2995 RMK AO2 TSNO=
KRPD 220235Z AUTO 00000KT 10SM CLR 06/05 A2964 RMK AO2
     T00550045=
KSDC 220235Z AUTO 16006KT 10SM CLR 11/M01 A3001 RMK AO2=
KSNK 220235Z AUTO 20008KT 10SM CLR 21/04 A2984 RMK AO2
     T02130043=
KAQP 220233Z AUTO 18007KT 10SM 11/M01 A2958 RMK AO2=
KETH 220233Z AUTO 16005KT 10SM 12/01 A2959 RMK AO2=
KFOZ 220233Z AUTO 20003KT 10SM SCT120 09/02 A2962 RMK AO2=
KOWA 220233Z AUTO 13003KT 10SM CLR 08/03 A2964 RMK AO2=
KXVG 220233Z AUTO 00000KT 10SM SCT110 06/02 A2958 RMK AO2=
K10G 220235Z AUTO 20007KT 10SM CLR 12/M01 A3002 RMK AO2=
K14Y 220235Z AUTO 00000KT 10SM CLR 07/00 A2959 RMK AO2=
K1P1 220235Z AUTO 00000KT 10SM CLR 00/00 A3016 RMK AO2
     T00031001=
K20U 220235Z AUTO 34003KT 10SM FEW049 OVC065 07/07 A2955 RMK
     AO2=
K21D 220235Z AUTO 00000KT 10SM CLR 06/01 A2964 RMK AO2=
K22N 220235Z AUTO 00000KT 10SM CLR 00/M01 A3019 RMK AO2=
K24A 220235Z AUTO 13005KT 10SM CLR 08/M01 A3019 RMK AO2
     T00851013=
K27K 220235Z AUTO 16006KT 10SM CLR 11/00 A3002 RMK AO1=
K2P2 220235Z AUTO 00000KT 10SM CLR 06/06 A2963 RMK AO2
     T00590059=
K35A 220235Z AUTO 00000KT 10SM CLR 07/01 A3020 RMK A02
     T00690012=
K3D2 220235Z AUTO 26003KT 10SM CLR 12/06 A2964 RMK AO2
     T01230055=
K3N8 220235Z AUTO 19004KT 10SM BKN120 09/00 A2958 RMK AO2
     T00870002=
K4S2 220235Z AUTO 00000KT 5SM -RA OVC007 08/07 A2963 RMK AO2
     P0001=
K6L4 220235Z AUTO 18003KT 10SM CLR 13/01 A3008 RMK AO2=
K6S2 220235Z AUTO 22008G14KT 6SM -RA BR BKN003 BKN009 OVC018 14/14
     A2975 RMK AO2=
KACQ 220235Z AUTO 10003KT 10SM CLR 06/02 A2965 RMK AO2=
KAIT 220235Z AUTO 00000KT 10SM CLR 06/02 A2960 RMK AO2=
KAMN 220235Z AUTO 18007KT 10SM CLR 15/03 A2976 RMK AO2
     T01540032=
