SASA41 KWBC 220100 RRB
METAR
SKMD 220100Z NIL=
SKSM 220100Z VRB02KT 9999 SCT017 BKN070 25/24 Q1011 RMK A2987=
