SAPA31 KWBC 220200 RRC
METAR
PKWA 220220Z AUTO 06010KT 10SM SCT024 SCT029 BKN060 31/24 A2974
     RMK AO2 T03100242=
