SAUS70 KWBC 212318
METAR
K14Y 212315Z AUTO 00000KT 10SM CLR 13/00 A2961 RMK AO2=
K21D 212315Z AUTO 00000KT 10SM CLR 16/00 A2961 RMK AO2=
K4I3 212315Z AUTO 16004KT 10SM CLR 14/00 A2997 RMK AO2=
KACQ 212315Z AUTO 30003KT 10SM CLR 15/02 A2963 RMK AO2=
KAIT 212315Z AUTO 00000KT 10SM CLR 09/01 A2959 RMK AO2=
KAMN 212315Z AUTO 17007KT 10SM CLR 16/03 A2970 RMK AO2
     T01640032=
KAUM 212315Z AUTO 00000KT 10SM CLR 18/03 A2962 RMK AO2=
KAXV 212315Z AUTO 19009KT 10SM CLR 17/00 A2989 RMK AO2=
KCBG 212315Z AUTO 00000KT 10SM CLR 14/03 A2961 RMK AO2=
KCFE 212315Z AUTO 00000KT 10SM CLR 15/02 A2960 RMK AO2=
KCOQ 212315Z AUTO 27004KT 10SM CLR 12/M01 A2958 RMK AO2 TSNO=
KCVH 212315Z AUTO 24020KT 10SM CLR 17/11 A2987 RMK A01=
KDLZ 212315Z AUTO 18007KT 10SM CLR 15/00 A2995 RMK AO2=
KDRM 212315Z AUTO 25003KT 10SM CLR 12/05 A2958 RMK AO2
     T01240052=
KDXX 212315Z AUTO 06004KT 5SM HZ CLR 15/01 A2961 RMK AO2=
KDYT 212315Z AUTO 30008KT 10SM CLR 13/04 A2956 RMK AO2=
KELO 212315Z AUTO 26004KT 10SM CLR 12/00 A2956 RMK AO2=
KFBL 212315Z AUTO 00000KT 7SM CLR 13/04 A2963 RMK AO2=
KFFM 212315Z AUTO 22004KT 10SM CLR 14/01 A2957 RMK AO2=
KFSE 212315Z AUTO 20005KT 10SM CLR 11/M01 A2957 RMK AO2=
KGHW 212315Z AUTO 00000KT 7SM CLR 14/01 A2961 RMK AO2=
KGYL 212315Z AUTO 00000KT 7SM CLR 15/01 A2960 RMK AO2
     T01530013=
KHCO 212315Z AUTO 25009KT 10SM BKN110 14/00 A2950 RMK AO2=
KI69 212315Z AUTO 18005KT 10SM CLR 18/00 A2998 RMK AO2
     T01770000=
KJKJ 212315Z AUTO 00000KT 7SM SCT120 14/M01 A2956 RMK AO2 TSNO=
KJMR 212315Z AUTO 00000KT 10SM CLR 14/02 A2963 RMK AO2=
KLDM 212315Z AUTO 21019G28KT 10SM CLR 19/04 A2962 RMK AO2
     T01860041=
KLJF 212315Z AUTO 00000KT 10SM CLR 14/01 A2962 RMK AO2=
KMGG 212315Z AUTO 00000KT 10SM CLR 14/01 A2961 RMK AO2
     T01440011=
KMGN 212315Z AUTO 29005KT 10SM CLR 15/06 A2959 RMK AO2
     T01500068=
KMQJ 212315Z AUTO 18006KT 10SM CLR 18/02 A2989 RMK AO1=
KMVE 212315Z AUTO 00000KT 10SM CLR 15/01 A2961 RMK AO2=
KOVL 212315Z AUTO 00000KT 7SM CLR 14/01 A2962 RMK AO2=
KOZW 212315Z AUTO 17006KT 10SM CLR 17/04 A2977 RMK AO2
     T01690038=
KPWC 212315Z AUTO 00000KT 10SM CLR 12/02 A2962 RMK AO2=
KRGK 212315Z AUTO 00000KT 10SM CLR 14/03 A2960 RMK AO2=
KROX 212315Z AUTO 22004KT 10SM SCT110 14/01 A2950 RMK AO2=
KSAZ 212315Z AUTO 00000KT 10SM CLR 13/M01 A2959 RMK AO2=
KSGS 212315Z AUTO 00000KT 10SM CLR 18/02 A2960 RMK AO2
     T01760015=
KSYM 212315Z AUTO 18004KT 10SM CLR 16/M01 A3002 RMK AO2=
KTEW 212315Z AUTO 15004KT 10SM CLR 18/03 A2975 RMK AO2
     T01760030=
KTWM 212315Z AUTO 26005KT 10SM CLR 12/02 A2956 RMK AO2=
KUKT 212315Z AUTO 00000KT 10SM CLR 09/03 A3013 RMK A01=
KVVV 212315Z 00000KT 10SM 14/02 A2960 RMK AO2=
KY63 212315Z AUTO 00000KT 10SM CLR 14/00 A2959 RMK AO2
     T01380004=
K6S8 212310Z AUTO 06021G32KT 10SM 15/01 A2951 RMK A01 Laurel=
KDUH 212315Z AUTO 19004KT 10SM CLR 19/00 A2982 RMK AO2
     T01890002=
KDYB 212315Z AUTO 00000KT 10SM CLR 13/07 A3009 RMK AO2=
KEDJ 212315Z AUTO 20008KT 10SM CLR 16/01 A2993 RMK A01=
KEFK 212315Z AUTO 15008KT 10SM CLR 08/M01 A3005 RMK AO2
     T00831013=
KEKM 212315Z AUTO 19008KT 7SM CLR 20/03 A2977 RMK AO2
     T01960033=
KELK 212315Z AUTO 20018G25KT 2SM HZ CLR 28/01 A2969 RMK AO2 SLP345
     T02800005 $=
KEVU 212315Z AUTO 18008KT 10SM CLR 25/05 A2959 RMK AO2
     T02500054=
KEXX 212315Z AUTO 00000KT 10SM CLR 13/00 A3011 RMK AO2
     T01250003=
KEZF 212315Z AUTO 00000KT 10SM CLR 11/04 A3012 RMK AO2
     T01140043=
KEZM 212315Z AUTO 00000KT 10SM CLR 14/03 A3010 RMK AO2=
KFFX 212315Z AUTO 21008KT 10SM CLR 19/03 A2965 RMK AO2
     T01930033=
