SAUS70 KWBC 220000
METAR
KRID 212355Z AUTO 18006KT 10SM CLR 13/02 A2994 RMK AO2=
KMCX 212355Z AUTO 17005KT 10SM CLR 19/01 A2980 RMK AO2 T01910012
     10237 20191=
