SAUS70 KWBC 220200 RRQ
METAR
KMPO 220153Z AUTO 00000KT 10SM CLR 06/M02 A3015 RMK AO2 SLP218
     T00561017=
KPTK 220153Z 18010G17KT 10SM FEW085 16/02 A2983 RMK AO2 SLP102
     T01610022=
KRCX 220155Z AUTO 00000KT 10SM CLR 06/05 A2966 RMK AO2
     T00640050=
KTDZ 220153Z AUTO 19010KT 10SM CLR 15/02 A2989 RMK AO2 SLP122
     T01500022=
KTTN 220153Z 00000KT 10SM CLR 09/02 A3017 RMK AO2 SLP211
     T00890022=
KZZV 220153Z AUTO 13004KT 10SM CLR 11/00 A3002 RMK AO2 SLP167
     T01110000=
KHFF 220155Z AUTO 00000KT 10SM CLR 06/04 A3013 RMK AO2 SLP207
     T00620044=
KFGN 220155Z AUTO 24008KT 10SM BKN085 OVC100 11/02 A2951 RMK
     AO2=
KFSO 220155Z AUTO 18009G14KT 10SM CLR 12/M02 A3004 RMK AO2
     T01231025=
KHCO 220155Z AUTO 28009KT 10SM BKN055 OVC070 13/02 A2954 RMK
     AO2=
KIML 220153Z AUTO 18010KT 10SM CLR 15/M04 A2962 RMK AO2 SLP021
     T01501039=
KJKJ 220155Z AUTO 00000KT 10SM CLR 11/M01 A2957 RMK AO2 TSNO=
KLDM 220155Z AUTO 22016G22KT 10SM CLR 18/05 A2966 RMK AO2
     T01780051=
KLWM 220154Z 24003KT 10SM CLR 09/06 A3018 RMK AO2 SLP221
     T00890056=
KMFI 220154Z AUTO 00000KT 10SM CLR 09/03 A2965 RMK AO2 SLP048
     T00940028=
KMOT 220154Z 34006KT 10SM -RA FEW050 OVC070 07/05 A2956 RMK AO2
     RAB32 SLP023 P0000 T00670050=
KOVL 220155Z AUTO 00000KT 5SM HZ CLR 09/00 A2962 RMK AO2=
KPHL 220154Z 22003KT 10SM CLR 12/05 A3018 RMK AO2 SLP219
     T01220050=
KPLN 220154Z AUTO 31004KT 10SM CLR 06/04 A2965 RMK AO2 SLP044
     T00610039=
KPNE 220154Z 00000KT 10SM CLR 10/01 A3019 RMK AO2 SLP222
     T01000011=
KPTW 220154Z AUTO 18004KT 10SM CLR 09/01 A3018 RMK AO2 SLP217
     T00940006=
KRDG 220154Z 20004KT 10SM CLR 11/00 A3015 RMK AO2 SLP217
     T01110000=
KRGK 220155Z AUTO 00000KT 10SM CLR 11/03 A2962 RMK AO2=
KRST 220154Z 01004KT 10SM CLR 14/02 A2967 RMK AO2 SLP048
     T01390022=
KRZT 220155Z AUTO 17003KT 10SM CLR 12/00 A3000 RMK AO2 PWINO=
KTOI 220153Z AUTO 00000KT 10SM CLR 10/07 A3013 RMK AO2 SLP200
     T01000067=
TIST 220153Z AUTO 08010KT 10SM FEW085 28/23 A2993 RMK AO2 SLP135
     T02780228=
KBOS 220154Z 19008KT 10SM CLR 12/07 A3018 RMK AO2 SLP219
     T01220072=
KD25 220155Z AUTO 00000KT 10SM CLR 03/02 A2963 RMK AO2
     T00290015=
KD95 220155Z AUTO 20012G18KT 10SM CLR 17/M02 A2980 RMK AO2
     T01741019=
KELM 220153Z 00000KT 10SM CLR 03/M01 A3007 RMK AO2 SLP192
     T00331006=
KEVV 220154Z 15004KT 10SM CLR 17/03 A2992 RMK AO2 SLP131
     T01670028=
KFDY 220153Z AUTO 19013KT 10SM CLR 17/01 A2990 RMK AO2 SLP122
     T01670011=
KFRG 220153Z 00000KT 10SM CLR 09/06 A3018 RMK AO2 SLP220 T00890056
     $=
KILN 220154Z AUTO 19006KT 10SM CLR 12/00 A2999 RMK AO2 SLP163
     T01170000=
KJMR 220155Z AUTO 00000KT 10SM CLR 05/01 A2964 RMK AO2=
KLBF 220153Z AUTO 00000KT 10SM CLR 11/M02 A2959 RMK AO2 SLP020
     T01061017=
KLNK 220154Z 00000KT 6SM HZ CLR 10/00 A2960 RMK AO2 SLP022
     T01000000=
KMGJ 220154Z AUTO 00000KT 10SM CLR 03/01 A3015 RMK AO2 SLP212
     T00330006=
KMGN 220155Z AUTO 00000KT 10SM CLR 08/07 A2964 RMK AO2
     T00880069=
KOZW 220155Z AUTO 18009KT 10SM CLR 16/04 A2981 RMK AO2
     T01620035=
KPIR 220153Z AUTO 13010KT 10SM CLR 14/02 A2946 RMK AO2 SLP976
     T01390022=
KPWC 220155Z AUTO 00000KT 10SM CLR 08/02 A2963 RMK AO2=
PAVD 220156Z 00000KT 10SM FEW010 FEW040 SCT150 06/03 A2981 RMK AO2
     SLP092 T00560033 PNO $=
PAWG 220156Z 00000KT 10SM FEW028 SCT060 BKN090 05/05 A2974 RMK AO2
     SLP072 T00500046 $=
PAWN 220156Z AUTO 13007KT 8SM UP OVC008 01/00 A2973 RMK AO2
     UPB20E23B53RAB23E34 SLP079 P0000 T00110000 FZRANO=
