SAUS80 KWBC 220020
METAR
KCTY 220015Z AUTO 00000KT 10SM CLR 11/05 A3008 RMK AO2
     T01090049=
K9MN 220015Z AUTO 00000KT 10SM CLR 17/03 A2965 RMK AO1
     T01700025=
KIKW 220015Z AUTO 17006KT 10SM CLR 17/05 A2970 RMK AO2
     T01710045=
KGNG 220015Z AUTO 26006G13KT 10SM CLR 18/02 A2970 RMK AO2=
KSOW 220015Z AUTO 23014KT 10SM CLR 17/01 A3009 RMK AO2=
K40U 220015Z AUTO 35003KT 10SM CLR 16/M09 A2982 RMK AO2
     T01641088=
KEDU 220020Z AUTO 18007KT 10SM CLR 23/11 A2976 RMK AO1=
KRFI 220015Z AUTO 17003KT 10SM CLR 26/06 A2990 RMK AO2
     T02570063=
KTKC 220015Z AUTO 00000KT 10SM 13/00 A2962 RMK AO2 T01291001=
KCIR 220015Z AUTO 21004KT 10SM CLR 21/09 A2988 RMK AO2
     T02060086=
KMKN 220015Z AUTO 19009KT 10SM CLR 27/06 A2984 RMK AO2
     T02690060=
KSEP 220015Z AUTO 19006KT 10SM SCT120 27/04 A2985 RMK AO2
     T02650038=
K40B 220016Z AUTO VRB04KT 06/00 A3003 RMK AO1 SLP178 T00600000
     10112 20040 51007=
KTKV 220015Z AUTO 00000KT 10SM CLR 08/03 A2963 RMK AO2 T00840029
     PWINO=
KVTI 220015Z AUTO 00000KT 7SM CLR 19/00 A2963 RMK AO2
     T01891002=
KRLD 220015Z AUTO 17006KT 7SM -RA SCT075 OVC085 10/08 A2969 RMK
     AO2 T01020076=
KS39 220015Z AUTO 26007G16KT 6SM HZ FEW028 BKN050 OVC075 15/08
     A2967 RMK AO2=
KEHA 220015Z AUTO 00000KT 10SM CLR 22/M07 A2971 RMK AO2
     T02231068=
KIZA 220015Z AUTO 27010KT 10SM CLR 21/13 A2987 RMK AO2=
K4BM 220015Z AUTO 17014G22KT 10SM CLR 06/M17 A3012 RMK AO2=
KCKP 220015Z AUTO 10007KT 7SM CLR 14/00 A2960 RMK AO2
     T01410000=
KDBN 220015Z AUTO 00000KT 10SM CLR 08/06 A3014 RMK AO2=
KSOA 220015Z AUTO 18008KT 10SM 25/07 A2995 RMK AO2=
KPSN 220015Z AUTO 18004KT 10SM CLR 25/10 A2988 RMK AO2=
