SASA41 KWBC 212300
METAR
SEMT 212300Z 23010KT 9999 BKN020 22/17 Q1012 RMK A2989=
SEPA NIL=
SKBG 212300Z 31005KT 9999 SCT010 SCT020 22/20 Q1013 RMK A2992=
SKMD NIL=
SKPE 212300Z 18004KT 9999 SCT016 SCT080 21/18 Q1015 RETS RMK
     A2998=
SKSM NIL=
SKVG NIL=
SMJP 212300Z 06005KT 9999 FEW008 FEW015CB 27/25 Q1009 NOSIG=
