SAPA31 KWBC 212000 RRF
METAR
PTKK 211950Z 04007KT 15SM FEW014 BKN120 OVC280 27/24 A2981 RMK
     SLP094 T02720241=
