SAUS70 KWBC 220100
METAR
KCGF 220045Z 18011G17KT 10SM CLR 14/01 A2993=
KCHD 220047Z 24008KT 10SM CLR 30/09 A2980=
KSAW 220047Z 00000KT 10SM CLR 05/02 A2961=
KSUA 220047Z 34004KT 10SM SCT035 22/15 A3002=
KTIX 220047Z 34006KT 7SM SCT070 21/12 A3006=
K1A5 220055Z AUTO 00000KT 10SM CLR 09/00 A3017 RMK AO2
     T00930000=
KBBG 220045Z 18006KT 10SM CLR 21/03 A2983=
KEFT 220055Z AUTO 21011KT 10SM CLR 18/03 A2965 RMK AO2
     T01750026=
KHNZ 220055Z AUTO 00000KT 10SM CLR 07/05 A3015 RMK AO2
     T00720049=
KJXI 220055Z AUTO 00000KT 10SM CLR 23/10 A2988 RMK AO2
     T02280095=
KPDC 220055Z AUTO 00000KT 10SM CLR 12/03 A2963 RMK AO2
     T01240034=
KTRK 220045Z 20011G16KT 10SM CLR 17/M04 A2998=
KW31 220055Z AUTO 00000KT 10SM CLR 07/04 A3014 RMK AO1
     T00700043=
KW96 220055Z AUTO 00000KT 7SM CLR 09/04 A3016 RMK AO1
     T00910043=
KADS 220047Z 16012G18KT 10SM SKC 27/07 A2981=
KGEU 220047Z 21004KT 10SM FEW250 29/10 A2978=
KMWC 220045Z 21005KT 10SM CLR 18/01 A2966=
KVQQ 220050Z 00000KT 10SM CLR 09/08 A3011=
KBNL 220055Z AUTO 00000KT 10SM CLR 11/03 A3013 RMK AO2=
KETB 220055Z AUTO 00000KT 10SM CLR 14/03 A2966 RMK AO2=
KIFP 220048Z 16010KT 20SM CLR 31/03 A2973=
KLHZ 220055Z AUTO 00000KT 10SM CLR 07/03 A3017 RMK AO2=
KRRL 220055Z AUTO 00000KT 10SM CLR 09/03 A2963 RMK AO2 T00900030
     TSNO=
KSQL 220047Z 25009KT 10SM SCT200 16/12 A2985=
KUNU 220055Z AUTO 19004KT 10SM CLR 16/04 A2966 RMK AO2
     T01570042=
