SAKA31 PTYA 220100
METAR PTYA 220050Z VRB04KT 12SM FEW016 BKN300 30/26 A2982 RMK SLP100
T02980260=
