SAUS70 KWBC 220100 RRG
METAR
KARV 220055Z AUTO 00000KT 10SM CLR 07/03 A2962 RMK AO2
     T00710027=
KBED 220051Z 18007KT 10SM CLR 11/05 A3014 RMK AO2 SLP221
     T01060050=
KCMH 220051Z 15006KT 10SM SCT250 14/01 A2999 RMK AO2 SLP155
     T01390006=
KDAW 220051Z AUTO 30003KT 10SM CLR 07/05 A3014 RMK AO2 SLP204
     T00720050=
KDVP 220053Z AUTO 13004KT 7SM CLR 10/01 A2964 RMK AO2
     T00990006=
KERI 220051Z 18015G19KT 10SM CLR 14/00 A2994 RMK AO2 SLP141
     T01440000=
KEWR 220051Z 17003KT 10SM CLR 13/04 A3015 RMK AO2 SLP209
     T01330044=
KFIT 220052Z AUTO 00000KT 10SM CLR 04/01 A3016 RMK AO2 SLP215
     T00440011=
KHFY 220055Z AUTO 16007KT 10SM CLR 16/03 A2992 RMK AO2
     T01570032=
KIUA 220055Z AUTO 18006KT 160V220 10SM CLR 12/M01 A2998 RMK AO2
     T01151008=
KJVL 220045Z 19005KT 10SM CLR 17/01 A2966=
KLDJ 220055Z AUTO 00000KT 10SM CLR 13/03 A3015 RMK AO2
     T01250030=
KLGA 220051Z 18006KT 10SM CLR 14/04 A3015 RMK AO2 SLP209
     T01440044=
KMDZ 220055Z AUTO 00000KT 10SM CLR 07/03 A2964 RMK AO2 T00700030
     PWINO=
KMRJ 220055Z AUTO 00000KT 10SM CLR 19/M01 A2966 RMK AO2=
KORB 220053Z AUTO 00000KT 10SM CLR 10/02 A2955 RMK AO2=
KOWA 220053Z AUTO 00000KT 5SM HZ CLR 09/03 A2965 RMK AO2=
KUNV 220053Z 27003KT 10SM CLR 10/M01 A3011=
KXWA 220051Z AUTO 02008KT 10SM FEW022 BKN039 OVC045 05/04 A2957
     RMK AO2 SLP035 T00500039=
KBHK 220051Z AUTO 32007KT 10SM OVC110 11/04 A2955 RMK AO2 SLP012
     T01110039=
KCIC 220047Z 14008KT 10SM CLR 27/07 A2974=
KHDO 220051Z AUTO 20006KT 10SM CLR 23/11 A2993 RMK AO2 SLP127
     T02280111=
KJAQ 220055Z AUTO 26005KT 10SM CLR 24/08 A2983 RMK AO1
     T02440075=
KLGU 220051Z AUTO 18009KT 10SM CLR 19/M07 A2972 RMK AO2 SLP040
     T01891067=
KMWH 220052Z 17009KT 10SM FEW120 10/03 A2962 RMK AO2 SLP033
     T01000028=
KPHX 220051Z 28008KT 10SM FEW150 FEW250 30/08 A2978 RMK AO2 SLP068
     T03000083=
KSJT 220051Z 19010KT 10SM CLR 24/08 A2986 RMK AO2 SLP099
     T02390083=
KTRM 220052Z AUTO 13006KT 10SM CLR 28/11 A2971 RMK AO2 SLP062
     T02830111=
KAQW 220052Z AUTO VRB03KT 10SM CLR 04/ A3013 RMK AO2 SLP208 T0044
     $=
KBLF 220052Z AUTO 19005KT 10SM CLR 11/M02 A3012 RMK AO2 SLP196
     T01061017=
KBRL 220053Z AUTO 19012KT 10SM CLR 21/03 A2966 RMK AO2 SLP043
     T02060033=
KDPA 220052Z 18011KT 10SM CLR 18/04 A2972 RMK AO2 SLP063
     T01830039=
KEST 220052Z AUTO 05006KT 8SM CLR 10/02 A2964 RMK AO2 SLP039
     T01000017=
KHIE 220052Z AUTO 00000KT 10SM CLR 00/M02 A3009 RMK AO2 SLP204
     T00001022=
KIOW 220052Z AUTO 00000KT 10SM CLR 17/03 A2965 RMK AO2 SLP043
     T01720033=
KORE 220052Z AUTO 00000KT 10SM CLR 04/01 A3015 RMK AO2 SLP215
     T00390006=
KPWK 220052Z 19012KT 10SM CLR 21/04 A2972 RMK AO2 SLP064
     T02060039=
KPYM 220052Z AUTO 00000KT 10SM CLR 08/06 A3017 RMK AO2 SLP220
     T00830061=
KRPD 220055Z AUTO 00000KT 7SM CLR 08/05 A2964 RMK AO2
     T00820050=
KSPI 220052Z 17012G24KT 10SM CLR 20/04 A2976 RMK AO2 SLP077
     T02000039=
KSUX 220052Z 00000KT 5SM HZ CLR 12/01 A2959 RMK AO2 SLP024
     T01220006=
KTAN 220052Z AUTO A3017 RMK AO2 SLPNO PWINO FZRANO TSNO $=
K08D 220055Z AUTO 03007KT 10SM 05/05 A2956 RMK AO2=
KBIS 220052Z 06009KT 10SM FEW110 12/01 A2951 RMK AO2 SLP000
     T01220006=
KBML 220052Z AUTO 00000KT 10SM CLR 01/M01 A3009 RMK AO2 SLP204
     T00111006=
KCPS 220053Z 16007KT 10SM CLR 19/04 A2980 RMK AO2 SLP091 T01890039
     $=
KCQX 220052Z AUTO 20003KT 10SM CLR 14/09 A3020 RMK AO2 SLP226
     T01390089=
KDVN 220052Z AUTO 18007KT 10SM CLR 19/04 A2968 RMK AO2 SLP047
     T01940039=
