SAUS70 KWBC 220100
METAR
KCNW 220055Z 17010KT 10SM SKC 25/08 A2986=
KRYN 220045Z 23006KT 10SM CLR 29/09 A2986=
KATW 220045Z 26007KT 10SM CLR 13/02 A2962=
KEMT 220045Z 23007KT 10SM CLR 24/17 A2982=
KLBE 220047Z 00000KT 20SM CLR 07/02 A3006=
KSWF 220045Z 00000KT 10SM SKC 08/01 A3013=
KCWA 220047Z 28004KT 10SM CLR 12/03 A2965=
KEZS 220055Z AUTO 00000KT 10SM CLR 11/06 A2962 RMK AO2
     T01100057=
KFDK 220047Z 00000KT 10SM CLR 11/02 A3013=
KOUN 220047Z 14009KT 10SM CLR 24/04 A2971=
KANE 220045Z 00000KT 10SM SCT250 11/02 A2962=
KATW 220045Z 26007KT 10SM CLR 13/02 A2962=
KBAK 220045Z 17009KT 10SM CLR 15/M01 A2993=
KDLL 220055Z AUTO 00000KT 10SM CLR 12/03 A2965 RMK AO2
     T01200025=
KFMH 220045Z 00000KT 10SM CLR 08/07 A3018=
KGAF 220055Z AUTO 26004KT 8SM OVC080 11/01 A2953 RMK AO2=
KGYY 220045Z 18006KT 10SM CLR 20/04 A2975=
KLBE 220047Z 00000KT 20SM CLR 07/02 A3006=
KSWF 220045Z 00000KT 10SM SKC 08/01 A3013=
KFMH 220045Z 00000KT 10SM CLR 08/07 A3018=
KFMH 220045Z 00000KT 10SM CLR 08/07 A3018=
K1S5 220055Z AUTO 11003KT 10SM -RA SCT041 SCT047 OVC060 09/08
     A2967 RMK AO2 P0004 T00900075=
KCPF 220055Z AUTO 00000KT 10SM CLR 13/00 A3007 RMK AO2=
KEMV 220055Z AUTO 00000KT 10SM CLR 05/04 A3017 RMK AO2
     T00500044=
KFFA 220055Z AUTO 04004KT 10SM SCT070 16/10 A3013 RMK AO2
     T01610101=
KGYH 220047Z 00000KT 10SM CLR 13/M01 A3014 RMK LAST=
KMCJ 220055Z AUTO 18012G20KT 10SM FEW042 FEW050 23/14 A2997 RMK
     A01=
KPAO 220047Z 34008KT 10SM HZ FEW200 17/12 A2985=
KRHV 220047Z 30005KT 10SM SKC 19/12 A2984=
KSUW 220055Z AUTO 31003KT 10SM CLR 06/02 A2959 RMK AO2
     T00570019=
