SAUS80 KWBC 220200
METAR
KMBG 220152Z AUTO 14010KT 10SM CLR 14/01 A2946 RMK AO2 SLP976
     T01440011=
KMHK 220152Z 00000KT 10SM CLR 15/03 A2960 RMK AO2 SLP019
     T01500033=
KSAV 220153Z 00000KT 10SM CLR 09/05 A3014 RMK AO2 SLP205
     T00940050=
KSPS 220152Z 17012KT 10SM CLR 26/02 A2972 RMK AO2 SLP054
     T02560022=
KVTN 220152Z AUTO 14003KT 10SM CLR 14/M02 A2953 RMK AO2 SLP003
     T01441017=
KP59 220151Z AUTO 27006KT 12/05 A2958 RMK AO1 SLP016 T01220050=
KABI 220152Z 18008KT 10SM CLR 24/06 A2983 RMK AO2 SLP082
     T02390056=
KABQ 220152Z 29006KT 10SM CLR 19/03 A2998 RMK AO2 SLP106
     T01890033=
KALS 220152Z AUTO 24012KT 10SM CLR 12/M04 A2997 RMK AO2 SLP118
     T01171044=
KCID 220152Z 17006KT 9SM CLR 14/02 A2964 RMK AO2 SLP038
     T01440022=
KCNU 220152Z AUTO 17012KT 10SM CLR 25/05 A2969 RMK AO2 SLP045
     T02500050=
KHLC 220153Z AUTO 00000KT 10SM CLR 11/M02 A2963 RMK AO2 SLP027
     T01061022=
KN60 220152Z AUTO 03004KT 08/06 A2955 RMK AO1 SLP016 T00780056=
KP69 220152Z AUTO 00000KT 08/07 A2968 RMK AO1 SLP056 P0008
     T00780067=
KATT 220151Z AUTO VRB03KT 10SM CLR 23/09 A2994 RMK AO2 SLP131
     T02330089=
KBIL 220153Z 06008KT 10SM OVC070 11/04 A2957 RMK AO2 SLP006
     T01060039=
KBLU 220152Z AUTO 17005KT 10SM CLR 14/01 A2999 RMK AO2 SLP093
     T01440006=
KCDJ 220151Z AUTO 18007KT 24/03 A2965 RMK AO1 SLP034 T02440033
     $=
KGDP 220151Z AUTO 24022KT 10SM CLR 18/06 A3004 RMK AO2 PK WND
     24028/0110 SLP120 T01830061=
KMFD 220152Z AUTO 17010KT 10SM CLR 13/01 A2997 RMK AO2 SLP150
     T01280011=
KMLF 220152Z AUTO 20014KT 10SM CLR 17/M03 A2989 RMK AO2 SLP093
     T01721028 $=
KNYC 220151Z AUTO 00000KT 10SM CLR 13/03 A3019 RMK AO2 SLP215
     T01280028 $=
KTOL 220152Z 19007KT 10SM CLR 17/02 A2988 RMK AO2 SLP116
     T01670022=
KAID 220155Z AUTO 18008KT 10SM CLR 15/M02 A2992 RMK AO2
     T01471017=
KALS 220152Z AUTO 24012KT 10SM CLR 12/M04 A2997 RMK AO2 SLP118
     T01171044=
KCRP 220151Z 16009KT 10SM CLR 22/16 A2998 RMK AO2 SLP151
     T02170161=
KGDP 220151Z AUTO 24022KT 10SM CLR 18/06 A3004 RMK AO2 PK WND
     24028/0110 SLP120 T01830061=
KIGM 220151Z AUTO 19007KT 10SM CLR 18/04 A2992 RMK AO2 SLP081
     T01830039=
KJDN 220148Z AUTO 27004KT 08/07 A2955 RMK AO1 SLP016 P0001
     T00780067=
KREO 220152Z AUTO 26010KT 20/01 A2965 RMK AO1 PK WND 25029/0106
     SLP027 T02000006=
KROW 220151Z 27007KT 10SM CLR 20/08 A2988 RMK AO2 SLP079
     T02000083=
KSAD 220151Z AUTO 35005KT 10SM CLR 22/08 A2989 RMK AO2 SLP091
     T02170078=
KSAN 220151Z 19004KT 10SM BKN018 21/16 A2988 RMK AO2 SLP119
     T02110161=
KSPS 220152Z 17012KT 10SM CLR 26/02 A2972 RMK AO2 SLP054
     T02560022=
KABE 220151Z 32003KT CLR 07/01 A3016 RMK AO2 SLP215 T00720006=
KBKW 220151Z AUTO 16007KT 10SM CLR 10/M01 A3011 RMK AO2 SLP196
     T01001011=
KMBG 220152Z AUTO 14010KT 10SM CLR 14/01 A2946 RMK AO2 SLP976
     T01440011=
KNYC 220151Z AUTO 00000KT 10SM CLR 13/03 A3019 RMK AO2 SLP215
     T01280028 $=
KALB 220151Z 18005KT 10SM CLR 09/00 A3013 RMK AO2 SLP203
     T00890000=
KBDL 220151Z 00000KT 10SM CLR 07/02 A3017 RMK AO2 SLP215
     T00720017=
KCAK 220151Z 19012KT 10SM CLR 13/00 A3000 RMK AO2 SLP161
     T01330000=
KCON 220151Z AUTO 10SM CLR 03/01 A3015 RMK AO2 SLP213
     T00280006=
KHTS 220151Z 00000KT 10SM CLR 12/01 A3003 RMK AO2 SLP171
     T01170006=
KPVD 220151Z 00000KT 10SM CLR 09/07 A3019 RMK AO2 SLP224
     T00890072=
KTEB 220151Z 00000KT 10SM CLR 09/04 A3016 RMK AO2 SLP212
     T00940039=
KMWT 220153Z AUTO 00000KT 10SM CLR 18/07 A2986 RMK AO2 SLP111
     T01780067=
