SAUS70 KWBC 220200 RRH
METAR
KPIL 220153Z AUTO 14008KT 10SM CLR 22/17 A3000 RMK AO2 SLP157
     T02170167=
KPKB 220153Z 13003KT 10SM CLR 06/02 A3005 RMK AO2 SLP177
     T00610017=
KPKD 220153Z AUTO 16004KT 10SM CLR 10/00 A2957 RMK AO2 SLP020
     T01000000=
KLAR 220153Z AUTO 24018G23KT 10SM CLR 11/M11 A2980 RMK AO2 PK WND
     25030/0135 SLP026 T01111111=
KLAW 220153Z AUTO 22004KT 10SM CLR 20/04 A2972 RMK AO2 SLP060
     T02000044=
KLBX 220153Z AUTO 17004KT 10SM FEW042 18/14 A3001 RMK AO2 SLP163
     T01830144=
KLCH 220153Z 19006KT 10SM CLR 18/14 A3003 RMK AO2 SLP178
     T01830144=
KLEB 220153Z 00000KT 10SM CLR 03/00 A3012 RMK AO2 SLP207
     T00330000=
KLFK 220153Z AUTO 17010KT 10SM CLR 22/15 A2996 RMK AO2 SLP143
     T02220150=
KLFT 220153Z 18005KT 10SM CLR 19/14 A3005 RMK AO2 SLP176
     T01940139=
KLHQ 220153Z AUTO 15003KT 10SM CLR 06/02 A3001 RMK AO2 SLP165
     T00610017=
KLLQ 220153Z AUTO 19007KT 10SM CLR 22/12 A2992 RMK AO2 SLP130
     T02170117=
KLOU 220153Z 13004KT 10SM CLR 15/01 A2996 RMK AO2 SLP146
     T01500006=
KLOZ 220153Z AUTO 17003KT 10SM CLR 11/02 A3006 RMK AO2 SLP180
     T01060017=
KLSE 220153Z 00000KT 10SM CLR 09/04 A2965 RMK AO2 SLP041 T00940044
     $=
KLUK 220153Z 00000KT 10SM CLR 08/03 A2999 RMK AO2 SLP156
     T00830028=
KLVJ 220153Z AUTO 18005KT 10SM CLR 21/15 A3003 RMK AO2 SLP166
     T02110150=
KLWV 220153Z AUTO 18007KT 10SM CLR 13/00 A2990 RMK AO2 SLP124
     T01280000=
KLXT 220153Z AUTO 19015KT 10SM CLR 23/04 A2968 RMK AO2 SLP044
     T02280039=
KMAF 220153Z 18008KT 10SM CLR 21/09 A2988 RMK AO2 SLP086
     T02110089=
KMCB 220153Z AUTO 16009KT 10SM CLR 18/12 A3005 RMK AO2 SLP172
     T01830122=
KMCI 220153Z 19015G24KT 10SM BKN250 24/04 A2964 RMK AO2 SLP029
     T02440044=
KMCK 220153Z AUTO 17005KT 10SM CLR 17/M06 A2961 RMK AO2 SLP021
     T01671056=
KMCO 220153Z 35008KT 10SM CLR 17/09 A3007 RMK AO2 SLP181
     T01720094=
KMCW 220153Z AUTO 01003KT 7SM CLR 06/01 A2965 RMK AO2 SLP041
     T00610006=
KMDW 220153Z 21012G19KT 10SM CLR 21/03 A2975 RMK AO2 SLP071
     T02110028=
KMFE 220153Z 14012KT 10SM CLR 24/17 A2998 RMK AO2 SLP152 T02390172
     $=
KMGW 220153Z 00000KT 10SM CLR 09/01 A3007 RMK AO2 SLP187
     T00890011=
KMGY 220153Z AUTO 17006KT 10SM CLR 13/01 A2997 RMK AO2 SLP148
     T01280011=
KMHE 220153Z AUTO 14005KT 10SM CLR 09/00 A2956 RMK AO2 SLP014
     T00940000=
KMHT 220153Z 00000KT 10SM CLR 06/02 A3014 RMK AO2 SLP223
     T00610022=
KMIC 220153Z 00000KT 9SM CLR 10/03 A2961 RMK AO2 SLP030
     T01000028=
KMIE 220153Z 19012G20KT 10SM CLR 17/M01 A2991 RMK AO2 SLP122
     T01721006=
K10G 220155Z AUTO 20007KT 10SM CLR 13/M01 A3001 RMK AO2=
K1P1 220155Z AUTO 00000KT 10SM CLR 01/00 A3015 RMK AO2
     T00130004=
K20U 220155Z AUTO 31005KT 10SM FEW044 OVC060 08/08 A2956 RMK
     AO2=
K24A 220155Z AUTO 14007KT 10SM CLR 09/M01 A3017 RMK AO2
     T00921012=
K27K 220155Z AUTO 16005KT 10SM CLR 12/00 A3001 RMK AO1=
K2P2 220155Z AUTO 00000KT 7SM CLR 06/06 A2962 RMK AO2
     T00560056=
K35A 220155Z AUTO 00000KT 10SM CLR 09/01 A3018 RMK A02
     T00910011=
K3D2 220155Z AUTO 25003KT 10SM CLR 14/05 A2963 RMK AO2
     T01350050=
K4S2 220155Z AUTO 00000KT 4SM -RA BKN005 BKN023 OVC065 08/07 A2965
     RMK AO2 P0004=
K6L4 220155Z AUTO 00000KT 10SM CLR 12/01 A3007 RMK AO2=
K6S2 220155Z AUTO 20009G16KT 5SM BR OVC002 13/13 A2976 RMK AO2
     P0002=
KACV 220153Z AUTO 20003KT 8SM OVC020 14/09 A2991 RMK AO2 SLP134
     T01390094=
KADG 220153Z AUTO 22013KT 10SM CLR 16/02 A2987 RMK AO2 SLP116
     T01560022=
KAGC 220153Z 18004KT 10SM CLR 13/M02 A3005 RMK AO2 SLP182
     T01281017=
