SAPA31 KWBC 220000 RRB
METAR
PGUM 212354Z 10014G18KT 10SM CLR 29/24 A2990 RMK AO2 SLP117
     T02940244 10300 20261 51014=
