SAUS70 KWBC 220200 RRB
METAR
KDZJ 220155Z AUTO 00000KT 10SM CLR 06/02 A3016 RMK AO2
     T00610019=
KE42 220155Z AUTO 20011KT 10SM CLR 19/M04 A2968 RMK AO2
     T01901043=
KEBA 220155Z AUTO 00000KT 10SM CLR 08/01 A3014 RMK AO2
     T00810011=
KEBG 220155Z AUTO 15010G14KT 10SM CLR 23/17 A2998 RMK AO2
     T02310170 PWINO=
KEED 220156Z AUTO 24008KT 10SM CLR 28/05 A2977 RMK AO2 SLP055
     T02830050=
KEKO 220156Z AUTO 21009KT 10SM CLR 17/M07 A2978 RMK AO2 RAE31
     SLP066 P0000 T01671072=
KELA 220155Z AUTO 18008KT 10SM CLR 21/14 A2999 RMK AO2
     T02130143=
KELZ 220156Z AUTO 19009KT 10SM CLR 11/M03 A3005 RMK AO2 SLP183
     T01111028=
KEMM 220155Z AUTO 10SM CLR 11/M12 A2984 RMK AO2=
KEZZ 220155Z AUTO 18008KT 10SM CLR 21/04 A2965 RMK AO2
     T02110037=
KF00 220155Z AUTO 17009KT 10SM CLR 22/09 A2984 RMK AO2
     T02230086=
KFET 220155Z AUTO 00000KT 10SM CLR 12/02 A2959 RMK AO2
     T01170022=
KFHB 220155Z AUTO 00000KT 10SM CLR 14/06 A3012 RMK AO2=
KFOA 220155Z AUTO 17008KT 10SM CLR 13/04 A2989 RMK AO2=
KFSW 220155Z AUTO 17005KT 10SM OVC001 18/03 A2967 RMK AO2=
KFWC 220155Z AUTO 00000KT CLR 16/03 A2988 RMK AO1 T01640031
     PWINO=
KGDB 220155Z AUTO 12006KT 10SM CLR 11/01 A2961 RMK AO2
     T01140013=
KGPC 220155Z AUTO 17007KT 10SM CLR 12/01 A2990 RMK AO2
     T01220010=
KGRD 220156Z AUTO 00000KT 10SM CLR 07/01 A3016 RMK AO2 SLP213
     T00720011=
KGRN 220155Z AUTO 30003KT 10SM CLR 13/M08 A2952 RMK AO2
     T01341079=
KGWB 220155Z AUTO 20006KT 10SM CLR 16/03 A2987 RMK AO2=
KHJH 220155Z AUTO 00000KT 10SM CLR 13/00 A2960 RMK AO2
     T01310000=
KHMP 220155Z AUTO 00000KT 10SM CLR 07/05 A3017 RMK AO2
     T00660053=
KHQU 220155Z AUTO 00000KT 10SM CLR 07/04 A3014 RMK AO2
     T00710040=
KIDP 220155Z AUTO 17003KT 10SM CLR 24/05 A2970 RMK AO2
     T02360051=
KIIY 220155Z AUTO 00000KT 10SM CLR 09/02 A3015 RMK AO2
     T00910019=
KIYA 220155Z AUTO 16004KT CLR 17/14 A3006 RMK AO2 T01710136
     PWINO=
KJCA 220155Z AUTO 00000KT 10SM CLR 10/00 A3015 RMK AO2
     T01000004=
KJDD 220155Z AUTO 17004KT 10SM CLR 23/11 A2988 RMK AO2=
KJXN 220156Z AUTO 18011KT 10SM CLR 17/03 A2982 RMK AO2 SLP099
     T01670033=
KLCK 220155Z AUTO 15006KT 10SM CLR 10/01 A2999 RMK AO2
     T00990009=
KLHB 220155Z AUTO 00000KT 10SM CLR 23/12 A2994 RMK AO2
     T02300119=
KLHM 220155Z AUTO 16009KT 10SM CLR 22/07 A2972 RMK AO1=
KLNN 220155Z AUTO 19010G14KT 160V220 10SM CLR 15/M03 A2994 RMK AO1
     T01451028=
KLUD 220155Z AUTO 17010KT 10SM CLR 25/05 A2981 RMK AO2
     T02460052=
KLUL 220155Z AUTO 18009KT 10SM CLR 19/11 A3007 RMK A02
     T01920110=
KMDD 220155Z AUTO 18006KT 10SM CLR 22/07 A2988 RMK AO2
     T02150072=
KMGR 220155Z AUTO 00000KT 10SM CLR 10/06 A3014 RMK AO2=
KMJQ 220155Z AUTO 10005KT 7SM CLR 08/01 A2964 RMK AO2=
KMNH 220155Z AUTO 28005KT 10SM CLR 10/M14 A2987 RMK AO2=
KMPR 220155Z AUTO 15010KT 10SM CLR 21/01 A2960 RMK AO2
     T02100011=
KMWA 220155Z AUTO 20003KT 10SM CLR 16/08 A2989 RMK AO2
     T01550075=
KMWO 220155Z AUTO 00000KT 10SM CLR 09/02 A2998 RMK AO2
     T00880015=
KMZZ 220155Z AUTO 18008KT 10SM CLR 14/02 A2991 RMK AO2
     T01370020=
KOLY 220155Z AUTO 16006KT 10SM CLR 16/02 A2989 RMK AO2
     T01590019=
KOXV 220155Z AUTO 17006KT 10SM CLR 19/02 A2962 RMK AO2=
KPEZ 220155Z AUTO 14005KT 10SM CLR 23/11 A2996 RMK AO2
     T02250111=
KPHN 220155Z AUTO 20012G17KT 10SM CLR 16/02 A2983 RMK AO2=
KPMV 220155Z AUTO 09004KT 10SM CLR 19/M01 A2959 RMK AO2
     T01881007=
KPPO 220155Z AUTO 19006KT 10SM CLR 16/06 A2981 RMK AO2
     T01560063=
KPRG 220155Z AUTO 17009KT 10SM CLR 14/04 A2987 RMK AO2
     T01390037=
