SAUS70 KWBC 212338 RRF
METAR
KM04 212335Z AUTO 18005KT 10SM CLR 22/10 A2990 RMK A01=
KM08 212335Z AUTO 14004KT 10SM CLR 21/10 A2993 RMK A01=
KM30 212335Z AUTO 16003KT 10SM CLR 22/07 A2988 RMK AO2
     T02200065=
KM54 212330Z AUTO 16004KT 10SM CLR 19/02 A2997 RMK A01=
KM75 212335Z AUTO 07005KT 10SM FEW028 BKN034 OVC055 08/05 A2954
     RMK A01=
KM91 212335Z AUTO 14005KT 10SM CLR 19/04 A2995 RMK A01=
KMBT 212335Z AUTO 17006KT 10SM CLR 18/02 A2999 RMK A01=
KMEV 212335Z AUTO 24017G25KT 10SM CLR 23/M07 A2992 RMK AO2=
KMHV 212340Z AUTO 24006G13KT 10SM CLR 29/M02 A2987 RMK A01=
KMIO 212325Z AUTO 16011KT 10SM CLR 26/04 A2971 RMK AO2=
KMMI 212335Z AUTO 00000KT 10SM CLR 12/02 A3008 RMK A01=
KMNE 212335Z AUTO 17004KT 10SM CLR 26/14 A2990 RMK AO2
     T02550137=
KMNV 212335Z AUTO 00000KT 9SM 12/01 A3006 RMK A01=
KMNZ 212335Z AUTO 19012G16KT 10SM CLR 29/05 A2986 RMK AO2
     T02860048=
KMOP 212335Z AUTO 18007KT 10SM CLR 17/04 A2968 RMK AO2
     T01650043=
KMOR 212335Z AUTO 00000KT 10SM SCT046 SCT050 14/00 A3005 RMK
     A01=
KMOX 212335Z AUTO 00000KT 10SM CLR 14/M04 A2961 RMK AO2=
KMRC 212330Z AUTO 14004KT 10SM CLR 20/08 A2996 RMK A01=
KMUT 212335Z AUTO 16006KT 10SM CLR 21/02 A2963 RMK AO2=
KMVH 212335Z AUTO 33007KT 7SM 07/06 A2958 RMK AO2 PWINO=
KMZH 212335Z AUTO 00000KT 10SM CLR 13/01 A2959 RMK AO2=
KO69 212335Z AUTO 30009KT 280V350 9SM CLR 15/11 A2987 RMK A01=
KOEL 212335Z AUTO 03007KT 10SM CLR 22/M14 A2966 RMK AO1
     T02231141=
KOJA 212335Z AUTO 20014G19KT 10SM CLR 29/02 A2969 RMK AO2
     T02870021=
KOLG 212335Z AUTO 00000KT 10SM CLR 13/00 A2958 RMK AO1=
KONA 212335Z AUTO 00000KT 10SM CLR 13/03 A2962 RMK AO2=
KOSC 212335Z AUTO 19011G15KT 10SM CLR 16/05 A2965 RMK AO2
     T01600048=
KOXI 212335Z AUTO 19009KT 10SM CLR 18/02 A2977 RMK AO1=
KOXV 212335Z AUTO 23004KT 9SM CLR 25/01 A2960 RMK AO2=
KP08 212335Z AUTO 35007KT 10SM CLR 30/11 A2982 RMK AO2=
KPCW 212335Z AUTO 20010KT 10SM FEW050 17/02 A2986 RMK AO2=
KCZL 212335Z AUTO 00000KT 10SM CLR 15/03 A3010 RMK AO2=
KD39 212335Z AUTO 00000KT 10SM CLR 13/01 A2960 RMK AO2
     T01280007=
KDEH 212335Z AUTO 00000KT 10SM SCT022 19/01 A2962 RMK AO2=
KDKX 212335Z AUTO 00000KT 10SM CLR 12/04 A3006 RMK A01=
KDTA 212335Z AUTO 18011KT 10SM CLR 23/M10 A2984 RMK AO1=
KDUA 212335Z AUTO 17007KT 10SM CLR 29/05 A2980 RMK AO2=
KDZB 212335Z AUTO 20007G14KT 10SM CLR 28/06 A2990 RMK AO2
     T02790057=
KECS 212335Z AUTO 32011G20KT 10SM CLR 21/M10 A2951 RMK AO2=
KEDN 212335Z AUTO 00000KT 10SM CLR 16/06 A3008 RMK AO2
     T01570055=
KEGV 212335Z AUTO 00000KT 10SM CLR 09/03 A2960 RMK AO2
     T00900030=
KEIK 212335Z AUTO 24015G20KT 10SM CLR 23/M11 A2972 RMK AO2
     T02341115 PWINO=
KEKS 212330Z AUTO 16023G32KT 10SM FEW060 SCT090 OVC110 15/M04
     A2956 RMK AO2=
KERV 212335Z AUTO 17011KT 10SM CLR 25/08 A2994 RMK AO2
     T02540084=
KERY 212335Z AUTO 23005KT 10SM CLR 09/07 A2959 RMK AO2
     T00890066=
KF05 212335Z AUTO 22017G22KT 10SM CLR 30/02 A2972 RMK AO2
     T03030015=
KF17 212335Z AUTO 17007KT 10SM CLR 26/10 A2992 RMK AO2=
KF44 212335Z AUTO 19005KT 10SM CLR 27/10 A2984 RMK AO2=
KF46 212335Z AUTO 20009KT 10SM CLR 28/08 A2982 RMK AO2
     T02790079=
KFGX 212335Z AUTO 24003KT 10SM CLR 15/00 A3001 RMK AO2
     T01480000=
KFKN 212335Z AUTO 00000KT 10SM CLR 10/06 A3015 RMK AO2
     T00970062=
KFLY 212335Z AUTO 15006KT 10SM CLR 20/M09 A2984 RMK AO2
     T01981091=
KFOT 212330Z AUTO 29008KT 10SM OVC022 15/09 A2994 RMK AO1=
KFTN 212335Z AUTO 16006KT 10SM CLR 27/10 A2993 RMK A01=
KFYE 212335Z AUTO 15004KT 10SM CLR 22/10 A2991 RMK A01=
KFYM 212340Z AUTO 16006KT 10SM CLR 16/04 A3004 RMK A01=
