SACA32 KWBC 220000
METAR
MDLR NIL=
MDPC 220000Z 05008KT 9999 SCT020 SCT300 28/23 Q1012=
MDPP 220000Z 00000KT 9999 FEW018 27/24 Q1012=
MDSD 220000Z 01004KT 9999 FEW016CB SCT018 SCT300 27/24 Q1012
     CB/S=
MDST 220000Z 00000KT 9999 FEW018CB FEW020 SCT300 27/23 Q1012
     CB/SW/NW=
MTCH NIL=
MTPP 212359Z AUTO 25004KT 9000 ////// 28/24 Q1011 A2988 NOSIG=
TAPA 220000Z 07007KT 040V110 9999 FEW018 27/23 Q1012 NOSIG=
TIST 212353Z 07007KT 10SM CLR 28/23 A2990 RMK AO2 SLP125 T02830228
     10317 20278 53008=
TJBQ 212350Z 13003KT 10SM SCT024 26/23 A2992=
TJMZ NIL=
TJNR 212353Z AUTO 05007KT 10SM CLR 27/22 A2992 RMK AO2 SLP132
     T02720222 10306 20272 53007=
TJPS NIL=
TJSJ 212356Z 09006KT 10SM FEW028 FEW043 27/23 A2992 RMK AO2 SLP129
     T02720228 10311 20272 53007=
TKPK NIL=
TKPN NIL=
TQPF NIL=
TRPM NIL=
TUPJ 220000Z 07008KT 10SM SCT019 28/24 A2992 RMK Q1013 VIS16KM=
TUPW NIL=
