SAUS70 KWBC 220100 RRL
METAR
KJAS 220055Z AUTO 19009G15KT 10SM FEW040 FEW045 22/16 A2997 RMK
     AO2=
KLAS 220056Z 18007KT 10SM FEW220 28/M01 A2979 RMK AO2 SLP066
     T02831006=
KLMO 220055Z AUTO 25006KT 10SM CLR 22/M09 A2973 RMK AO2
     T02161087=
KMYF 220053Z COR 21007KT 10SM FEW015 20/16 A2986 RMK AO2 SLP106
     T02000161=
KNOW 220055Z AUTO 30010KT 10SM -RA OVC013 09/09 A2973 RMK AO2
     P0004 T00870086=
KOLM 220054Z 27003KT 4SM -RA BR OVC050 07/07 A2971 RMK AO2 SLP062
     P0008 T00720067 $=
KPNA 220055Z AUTO 26011G17KT 10SM CLR 11/M07 A2981 RMK AO2=
KPPA 220055Z AUTO 22009KT 10SM CLR 21/00 A2972 RMK AO2
     T02071001=
KRBO 220055Z AUTO 10SM CLR 23/16 A2997 RMK AO2 T02300158=
KRDM 220056Z VRB03KT 7SM -RA BKN041 BKN047 OVC060 15/08 A2966 RMK
     AO2 RAB16E26B43 SLP035 P0000 T01500083=
KSUN 220055Z 33005KT 10SM OVC110 15/M01 A2971=
KT20 220055Z AUTO 17010G16KT 10SM CLR 24/14 A2994 RMK AO2
     T02440140=
KT35 220055Z AUTO 16005KT 10SM CLR 24/10 A2990 RMK AO2
     T02420100=
KTMK 220055Z AUTO 16007KT 5SM +DZ SCT010 OVC014 12/11 A2966 RMK
     AO2 P0006=
KVAF 220055Z AUTO 14013G20KT 10SM SCT044 24/12 A3003 RMK A01=
K11R 220055Z AUTO 18007KT 10SM CLR 25/14 A2995 RMK AO2 LTG DSNT SE
     T02490138=
K19S 220055Z AUTO 17004KT 7SM HZ CLR 19/M04 A2966 RMK AO2
     T01871037=
K20V 220055Z AUTO 25012G18KT 10SM CLR 12/M08 A2993 RMK AO2=
K2J5 220055Z AUTO 00000KT 10SM CLR 09/03 A3013 RMK AO2
     T00900035=
K6I2 220055Z AUTO 16006KT 10SM CLR 14/00 A3000 RMK AO2=
K8A0 220055Z AUTO 16004KT 10SM CLR 15/02 A3008 RMK AO2=
KADH 220055Z AUTO 18009KT 10SM CLR 24/06 A2977 RMK AO2=
KADT 220055Z AUTO 00000KT 10SM CLR 17/M05 A2969 RMK AO2
     T01681046=
KAPS 220058Z AUTO 16007KT 10SM CLR 18/13 A3007 RMK AO2=
KCTJ 220055Z AUTO 00000KT 10SM CLR 09/05 A3015 RMK AO2
     T00920045=
KDCY 220055Z AUTO 17008KT 10SM CLR 14/02 A2990 RMK AO2
     T01440021=
KDEH 220100Z AUTO 00000KT 10SM BKN018 BKN042 17/01 A2963 RMK
     AO2=
KEBS 220055Z AUTO 10006KT 6SM HZ CLR 13/01 A2961 RMK AO2=
KFKR 220055Z AUTO 17009KT 10SM FEW022 SCT029 BKN039 15/02 A2986
     RMK AO2=
KFQD 220055Z AUTO 00000KT 10SM CLR 08/01 A3015 RMK AO2=
KGNB 220055Z AUTO 25010G17KT 10SM CLR 11/M11 A2997 RMK AO2
     T01121114=
KGNC 220055Z AUTO 21005KT 10SM CLR 22/04 A2991 RMK AO2
     T02160044=
KHDC 220100Z AUTO 16008KT 10SM CLR 19/14 A3006 RMK AO2 TSNO=
KHEQ 220055Z AUTO 20003KT 10SM CLR 13/M06 A2964 RMK AO2=
KHVE 220055Z AUTO 20007KT 10SM CLR 21/M05 A2983 RMK AO2=
KJES 220055Z AUTO 00000KT 10SM CLR 10/03 A3015 RMK AO2=
KJSV 220100Z AUTO RMK AO2 PWINO TSNO=
KK62 220055Z AUTO 18006KT 10SM CLR 13/00 A2999 RMK AO2=
KMHP 220055Z AUTO 00000KT 10SM CLR 10/05 A3012 RMK AO2
     T01050046=
KOZA 220055Z AUTO 19007KT 10SM CLR 22/06 A2994 RMK AO2=
KPEQ 220055Z AUTO 18004KT 10SM CLR 23/09 A2986 RMK AO2
     T02260092=
KPXE 220055Z AUTO 00000KT 10SM CLR 08/06 A3013 RMK AO2
     T00840058=
KTOC 220055Z AUTO 00000KT 10SM CLR 09/03 A3013 RMK AO2
     T00880032=
KTZR 220055Z AUTO 18005KT 10SM CLR 12/01 A2999 RMK AO2
     T01170005=
KULS 220055Z AUTO 22004KT 10SM CLR 20/M07 A2964 RMK AO2=
KX26 220055Z AUTO 33007KT 10SM CLR 19/14 A3003 RMK AO2
     T01940138=
KHPN 220056Z 00000KT 10SM CLR 09/04 A3015 RMK AO2 SLP212 T00890039
     $=
KHPT 220055Z AUTO 00000KT 5SM HZ CLR 08/M01 A2963 RMK AO2=
KHYX 220055Z AUTO 18010KT 10SM CLR 15/04 A2973 RMK AO2
     T01510041=
KHZX 220055Z AUTO 00000KT 10SM CLR 08/02 A2961 RMK AO2=
KI63 220055Z AUTO 17009KT 10SM CLR 19/03 A2971 RMK AO2
     T01910025=
KI75 220055Z AUTO 12003KT 7SM CLR 14/04 A2962 RMK AO2
     T01430036=
