SAUS80 KWBC 220100 RRB
METAR
PAOT 220053Z 14011KT 3SM BR OVC004 M01/M01 A2969 RMK AO2 VIS 2 1/2
     E SLP055 T10061006=
PASN 220053Z AUTO 21012KT 10SM CLR 07/03 A2993 RMK AO2 SLP136
     T00670033 TSNO=
PATK 220053Z AUTO 00000KT 1/4SM FG VV002 01/00 A2985 RMK AO2
     SLP114 T00060000 TSNO=
PAYA 220053Z AUTO 09005KT 10SM FEW020 FEW026 SCT037 06/04 A2968
     RMK AO2 RAB13E22 SLP052 P0000 T00610044 TSNO $=
PHJR 220053Z 15006KT 10SM CLR 29/22 A2997 RMK AO2 SLP156
     T02890217=
PHNL 220053Z 17005KT 10SM FEW025 FEW040 29/22 A2996 RMK AO2 SLP144
     T02890222=
KBKW 220051Z AUTO 15004KT 10SM CLR 10/M01 A3011 RMK AO2 SLP204
     T01001011=
KCAK 220051Z 18010KT 10SM CLR 13/00 A2999 RMK AO2 SLP160
     T01330000=
PHNL 220053Z 17005KT 10SM FEW025 FEW040 29/22 A2996 RMK AO2 SLP144
     T02890222=
PHTO 220053Z 14010KT 10SM FEW025 OVC055 28/23 A2996 RMK AO2 SLP144
     T02830228=
PHKO 220053Z 25006KT 10SM CLR 29/22 A2994 RMK AO2 SLP136
     T02940217=
PHLI 220053Z 16010KT 10SM FEW040 28/22 A2997 RMK AO2 SLP145
     T02830222=
PHJR 220053Z 15006KT 10SM CLR 29/22 A2997 RMK AO2 SLP156
     T02890217=
KGDP 220051Z AUTO 24021G29KT 10SM CLR 19/05 A3003 RMK AO2 PK WND
     25038/0005 SLP112 T01940050=
KJDN 220048Z AUTO 25003KT 08/07 A2955 RMK AO1 SLP018 P0001
     T00830072=
KMYL 220051Z AUTO 09003KT 10SM -RA OVC027 07/03 A2972 RMK AO2
     SLP067 P0007 T00670028=
KSAD 220051Z AUTO 28006KT 10SM CLR 24/07 A2988 RMK AO2 SLP086
     T02440072=
KSAT 220051Z 17008KT 10SM FEW250 26/09 A2993 RMK AO2 SLP121
     T02560089=
KSNT 220051Z AUTO VRB03KT 09/M02 A2977 RMK AO1 PK WND 21031/2352
     SLP037 T00891022=
KSVE 220055Z AUTO 28016G21KT 10SM CLR M15/M35 A2983 RMK AO2=
KVCT 220051Z 16009KT 10SM CLR 22/16 A2997 RMK AO2 SLP147
     T02220156=
KCID 220052Z 16003KT 8SM CLR 19/02 A2963 RMK AO2 SLP035
     T01890017=
KMBG 220052Z AUTO 15009KT 10SM CLR 14/03 A2948 RMK AO2 SLP984
     T01440028=
KNYC 220051Z AUTO 00000KT 10SM CLR 13/04 A3017 RMK AO2 SLP209
     T01330044 $=
KP59 220051Z AUTO 27006KT 12/05 A2957 RMK AO1 SLP014 T01170050=
KTOL 220052Z 20009KT 10SM CLR 18/02 A2986 RMK AO2 SLP111
     T01830022=
KMFD 220052Z AUTO 16010KT 10SM CLR 13/01 A2996 RMK AO2 SLP149
     T01330006=
KHSV 220053Z 14006KT 10SM CLR 16/08 A3004 RMK AO2 SLP171
     T01560078=
KHTL 220053Z AUTO 17005KT 10SM CLR 12/04 A2968 RMK AO2 SLP058
     T01220044=
KHVR 220053Z AUTO 23004KT -RA FEW007 OVC040 07/07 A2954 RMK AO2
     SLP013 P0002 T00720067 $=
KJBR 220053Z AUTO 19004KT 10SM CLR 18/09 A2989 RMK AO2 SLP119
     T01780094 $=
KBDR 220052Z 22008KT 10SM CLR 14/07 A3016 RMK AO2 SLP212
     T01390072=
KLAN 220053Z 18009KT 10SM CLR 16/04 A2977 RMK AO2 SLP082 T01610044
     $=
KLAX 220053Z 27010KT 10SM BKN010 19/17 A2984 RMK AO2 SLP104
     T01940167=
KLIT 220053Z 15004KT 10SM CLR 18/09 A2988 RMK AO2 SLP122
     T01830089=
KLND 220053Z AUTO 23008KT 10SM CLR 17/M07 A2963 RMK AO2 SLP991
     T01721067=
KMCN 220053Z AUTO 00000KT 10SM CLR 11/06 A3012 RMK AO2 SLP200
     T01060056=
KMGM 220053Z 11003KT 10SM CLR 12/07 A3010 RMK AO2 SLP191
     T01220067=
KFAT 220053Z 33003KT 10SM FEW180 31/05 A2977 RMK AO2 SLP076 MTNS
     PTLY OBSC HZ DSNT N-E-SE T03060050=
KFNT 220053Z 19009G18KT 10SM CLR 16/04 A2977 RMK AO2 SLP082
     T01610044=
KGEG 220053Z 19006KT 10SM FEW010 BKN035 OVC055 06/03 A2963 RMK AO2
     SLP039 T00610033=
KSTC 220053Z 00000KT 10SM CLR 09/03 A2961 RMK AO2 SLP039
     T00940028=
KTRI 220053Z 00000KT 10SM CLR 08/02 A3010 RMK AO2 SLP188
     T00780017=
KTUP 220053Z 16007KT 10SM CLR 21/11 A2999 RMK AO2 SLP153
     T02060106=
