SAUS70 KWBC 212346
METAR
KOAR 212335Z AUTO 27010G14KT 10SM OVC009 05/00 A2990 RMK AO2
     PWINO=
KOSC 212335Z AUTO 19011G15KT 10SM CLR 16/05 A2965 RMK AO2
     T01600048=
KBYL 212335Z AUTO 17004KT 10SM CLR 14/00 A3005 RMK AO1=
KJVY 212335Z AUTO 18005KT 10SM CLR 17/01 A2995 RMK AO2 PWINO=
KTNB 212330Z AUTO 00000KT 10SM CLR 07/M01 A3015 RMK AO2
     T00691015=
KUKF 212335Z AUTO 00000KT 10SM CLR 10/01 A3017 RMK AO2=
