SAUS80 KWBC 220222
METAR
K40B 220216Z AUTO 00000KT 03/00 A3005 RMK AO1 SLP186 T00330000
     53008=
KCKP 220215Z AUTO 00000KT 7SM CLR 10/00 A2960 RMK AO2
     T01030000=
K4BM 220215Z AUTO 18012G20KT 10SM CLR 03/M15 A3011 RMK AO2=
KIZA 220215Z AUTO 25004KT 10SM CLR 14/13 A2989 RMK AO2=
KPSN 220215Z AUTO 17005KT 10SM CLR 22/10 A2990 RMK AO2=
KSFY 220222Z AUTO 16009KT 10SM CLR 15/03 A2968 RMK AO2=
KSOA 220215Z AUTO 17007KT 10SM CLR 21/10 A2997 RMK AO2=
K77S 220235Z AUTO 25005G10KT 6SM BR BKN016 OVC023 15/15 A2973 RMK
     A01=
K9V9 220215Z AUTO 14009KT 10SM CLR 11/01 A2952 RMK AO2
     T01080014=
KAYS 220215Z AUTO 00000KT 10SM CLR 09/09 A3015 RMK AO2
     T00920086=
KCBE 220215Z AUTO 00000KT 10SM CLR 07/02 A3016 RMK AO2
     T00720017=
KGIC 220215Z AUTO 08005KT 1SM BKN003 OVC006 05/05 A2963 RMK AO1
     P0001=
K77S 220235Z AUTO 25005G10KT 6SM BR BKN016 OVC023 15/15 A2973 RMK
     A01=
KSOA 220215Z AUTO 17007KT 10SM CLR 21/10 A2997 RMK AO2=
