SAUS70 KWBC 212316 RRA
METAR
K4S2 212315Z AUTO 31004KT 7SM -RA SCT014 BKN028 OVC070 08/07 A2975
     RMK AO2=
K6L4 212315Z AUTO 00000KT 10SM CLR 16/M00 A3005 RMK AO2=
K6S2 212315Z AUTO 18007G12KT 1 1/2SM -RA BR SCT007 BKN013 12/12
     A2981 RMK AO2 VIS 1V3=
KCKI 212315Z AUTO 00000KT 10SM CLR 11/06 A3011 RMK AO2=
KD25 212315Z AUTO 00000KT 10SM CLR 11/02 A2958 RMK AO2
     T01090024=
KF70 212315Z AUTO 19010KT 10SM CLR 26/14 A2985 RMK AO2=
KGGE 212315Z AUTO 00000KT 10SM CLR 12/08 A3011 RMK AO2=
KHAE 212315Z AUTO 17009KT 10SM CLR 23/00 A2970 RMK AO2=
KHBI 212315Z AUTO 00000KT 10SM CLR 11/03 A3015 RMK AO2
     T01100033=
KHSP 212315Z AUTO 17007KT 10SM CLR 09/M03 A3014 RMK AO2
     T00921029=
KJFX 212315Z AUTO 00000KT 10SM CLR 16/13 A3002 RMK AO2=
KJSO 212315Z AUTO 21006KT 10SM CLR 27/10 A2991 RMK AO2 T02710097
     TSNO=
KL18 212315Z AUTO 21005KT 10SM CLR 23/16 A2986 RMK AO2=
KMBY 212315Z AUTO 16007KT 10SM CLR 24/00 A2968 RMK AO2=
KMNI 212315Z AUTO 00000KT 10SM CLR 11/05 A3011 RMK AO2=
KOIN 212315Z AUTO 00000KT 10SM CLR 24/M02 A2968 RMK AO1
     T02431020=
KOMH 212315Z AUTO 00000KT 10SM CLR 08/03 A3014 RMK AO2=
KPCZ 212315Z AUTO 26003KT 10SM CLR 19/02 A2960 RMK AO2
     T01860016=
KPSK 212315Z AUTO 00000KT 10SM CLR 11/01 A3010 RMK AO2
     T01140014=
KRCM 212315Z AUTO 17007KT 10SM CLR 26/01 A2967 RMK AO2=
KRCX 212315Z AUTO 24003KT 10SM CLR 15/05 A2961 RMK AO2
     T01530045=
KRHP 212315Z AUTO 00000KT 10SM CLR 12/02 A3008 RMK AO2
     T01160017=
KSHD 212315Z AUTO 15004KT 10SM CLR 12/00 A3013 RMK AO2
     T01181005=
KSRR 212315Z AUTO 26013G17KT 10SM 18/01 A3009 RMK AO2=
KTVY 212315Z AUTO 26004KT 10SM CLR 23/00 A2980 RMK AO2=
KVDF 212315Z AUTO 00000KT 10SM CLR 18/10 A3004 RMK AO2=
KX60 212315Z AUTO 00000KT 10SM CLR 14/06 A3006 RMK AO2
     T01440060=
KXSA 212315Z AUTO 00000KT 10SM CLR 11/08 A3014 RMK AO2
     T01050078=
K10G 212315Z AUTO 18005KT 10SM CLR 16/M02 A2998 RMK AO2=
