SAUS70 KWBC 220046
METAR
KEVM 220041Z AUTO 00000KT 10SM CLR 08/02 A2960 RMK AO2=
KBYL 220035Z AUTO 15005KT 10SM CLR 13/00 A3007 RMK AO1=
KE11 220040Z AUTO 20005KT 10SM CLR 23/04 A2987 RMK AO2
     T02270042=
KJSV 220043Z AUTO RMK AO2 PWINO TSNO=
KJVY 220035Z AUTO 19006KT 10SM CLR 16/01 A2995 RMK AO2 PWINO=
KUKF 220035Z AUTO 36003KT 10SM CLR 08/01 A3019 RMK AO2=
KTNB 220030Z AUTO 00000KT 10SM CLR 05/M01 A3016 RMK AO2
     T00491011=
