SACA45 KWBC 220200
METAR
MGFL NIL=
MGGT 220200Z 03010KT 9999 BKN014 SCT016 19/17 Q1022 A3018=
MGHT NIL=
MHAM NIL=
MHCA NIL=
MHCH NIL=
MHLE NIL=
MHNJ NIL=
MHNO NIL=
MHPL NIL=
MHRO NIL=
MHSR NIL=
MHTE NIL=
MHYR NIL=
MNMG NIL=
MNPC NIL=
MPSA NIL=
MRCH NIL=
MSAC NIL=
