SAUS70 KWBC 220000 RRA
METAR
KLAF 212354Z 18006KT 10SM CLR 19/02 A2982 RMK AO2 SLP096 T01890022
     10239 20189 53009=
KLDM 212355Z AUTO 20016G29KT 10SM CLR 18/04 A2964 RMK AO2
     T01830044 10192 20175=
KROX 212355Z AUTO 22006KT 10SM SCT120 13/01 A2950 RMK AO2=
KRST 212354Z 00000KT 9SM CLR 17/02 A2964 RMK AO2 SLP040 T01670022
     10206 20156 53009=
KRZT 212355Z AUTO 17003KT 10SM CLR 12/00 A2998 RMK AO2 PWINO=
KSAZ 212355Z AUTO 00000KT 10SM CLR 11/00 A2960 RMK AO2=
KSBY 212354Z 00000KT 10SM CLR 10/06 A3016 RMK AO2 SLP215 T01000061
     10211 20100 53012=
KSET 212354Z AUTO 16010KT 10SM CLR 20/02 A2976 RMK AO2 SLP075
     T02000022 10289 20200 53004 $=
KSGS 212355Z AUTO 00000KT 10SM CLR 14/03 A2961 RMK AO2 T01440030
     10199 20144=
KSMO 212351Z COR 23007KT 10SM BKN010 20/16 A2984 RMK AO2 SLP104
     T02000161 10244 20200 56011=
KSYM 212355Z AUTO 18004KT 10SM CLR 15/M01 A3002 RMK AO2=
KTAD 212354Z AUTO 14003KT 10SM CLR 22/M11 A2979 RMK AO2 SLP029
     T02221106 10256 20211 58015=
KTEW 212355Z AUTO 16003KT 10SM CLR 17/03 A2977 RMK AO2 T01700032
     10218 20168=
KTQE 212354Z AUTO 04004KT 7SM CLR 18/00 A2958 RMK AO2 SLP011
     T01780000 10267 20178 58003=
KTWM 212355Z AUTO 00000KT 10SM CLR 11/02 A2957 RMK AO2=
KUIN 212354Z AUTO 18009KT 10SM CLR 22/02 A2969 RMK AO2 SLP052
     T02220022 10278 20222 55000=
KUKT 212355Z AUTO 00000KT 10SM CLR 07/03 A3013 RMK A01=
KVSF 212354Z AUTO 00000KT 10SM CLR 06/02 A3011 RMK AO2 SLP203
     T00610017 10156 20061 51016=
KVTA 212354Z AUTO 18004KT 10SM CLR 16/01 A2998 RMK AO2 SLP154
     T01560006 10211 20156 53011=
KVVV 212355Z 10004KT 10SM 13/02 A2959 RMK AO2=
KWLD 212354Z AUTO 19011G20KT 10SM CLR 29/00 A2966 RMK AO2 SLP033
     T02890000 10328 20289 55004=
KY63 212355Z AUTO 15003KT 10SM CLR 12/01 A2959 RMK AO2 T01180008
     10165 20113=
PAKN 212354Z 25012KT 10SM FEW085 07/03 A2997 RMK AO2 PK WND
     27027/2304 RAB10E23 SLP147 P0000 60000 T00720028 10078 20017
     51004=
K14Y 212355Z AUTO 00000KT 10SM CLR 10/00 A2961 RMK AO2=
K21D 212355Z AUTO 00000KT 10SM CLR 10/01 A2962 RMK AO2=
K3N8 212355Z AUTO 19004KT 10SM CLR 11/00 A2956 RMK AO2 T01091003
     10159 20109=
K4I3 212355Z AUTO 16006KT 10SM CLR 13/01 A2998 RMK AO2=
KACQ 212355Z AUTO 35003KT 10SM CLR 11/02 A2965 RMK AO2=
KAIT 212355Z AUTO 00000KT 10SM CLR 06/01 A2958 RMK AO2=
KALO 212354Z 34004KT 10SM OVC035 16/01 A2962 RMK AO2 SLP031
     T01560006 10261 20133 53011=
KAMN 212355Z AUTO 17008KT 10SM CLR 16/04 A2971 RMK AO2 T01570035
     10207 20156=
KAUW 212354Z AUTO 24005KT 10SM CLR 15/03 A2960 RMK AO2 SLP032
     T01500028 10200 20144 53020 $=
KAXV 212355Z AUTO 19010KT 10SM CLR 17/00 A2990 RMK AO2=
KBFL 212354Z 33006KT 9SM CLR 32/04 A2976 RMK AO2 SLP072 T03170039
     10322 20267 56018=
KBOS 212354Z 20011KT 10SM CLR 14/07 A3015 RMK AO2 SLP210 T01390067
     10161 20133 53016=
KBUY 212354Z AUTO 00000KT 10SM CLR 09/03 A3013 RMK AO2 SLP203
     T00940033 10194 20094 53010=
KBWI 212354Z 16003KT 10SM FEW250 13/01 A3013 RMK AO2 SLP203
     T01330011 10200 20133 53007 $=
KCBG 212355Z AUTO 00000KT 10SM CLR 11/01 A2961 RMK AO2=
KCFE 212355Z AUTO 00000KT 7SM SCT029 BKN070 12/02 A2961 RMK
     AO2=
KCOQ 212355Z AUTO 00000KT 10SM CLR 12/M01 A2958 RMK AO2 TSNO=
KCVH 212355Z AUTO 26013KT 10SM CLR 17/11 A2989 RMK A01=
KDEC 212354Z 18012KT 10SM CLR 20/04 A2979 RMK AO2 SLP088 T02000039
     10256 20200 53004=
KDLZ 212355Z AUTO 18007KT 10SM CLR 14/00 A2996 RMK AO2=
KDRM 212355Z AUTO 00000KT 10SM CLR 09/05 A2961 RMK AO2 T00940053
     10138 20094=
KDXX 212355Z AUTO 10005KT 10SM CLR 13/M01 A2961 RMK AO2=
