SAUS70 KWBC 220100 RRH
METAR
KEXX 220055Z AUTO 00000KT 10SM CLR 09/03 A3014 RMK AO2
     T00850030=
KEZF 220055Z AUTO 00000KT 10SM CLR 09/05 A3014 RMK AO2
     T00850046=
KEZM 220055Z AUTO 00000KT 10SM CLR 08/03 A3013 RMK AO2=
KF70 220055Z AUTO 21006KT 10SM CLR 22/15 A2986 RMK AO2=
KFGX 220055Z AUTO 18005KT 10SM CLR 13/00 A3002 RMK AO2
     T01310003=
KFVX 220055Z AUTO 00000KT 10SM CLR 07/02 A3014 RMK AO2
     T00670023=
KFWB 220055Z AUTO 18004G10KT 10SM CLR 22/03 A2981 RMK AO2=
KGCN 220054Z 23005KT 10SM CLR 14/01 A3006 RMK AO2 SLP136
     T01390006=
KGGW 220053Z AUTO 07008KT 10SM -RA OVC028 08/06 A2955 RMK AO2
     RAB06 SLP018 P0001 T00780056=
KGLY 220055Z AUTO 17006KT 10SM CLR 21/03 A2971 RMK AO2=
KGWR 220055Z AUTO 16006KT 8SM FEW019 BKN026 BKN034 12/01 A2955 RMK
     A01=
KHOB 220055Z AUTO 20006KT 10SM CLR 20/07 A2988 RMK AO2=
KHRJ 220055Z AUTO 00000KT 10SM CLR 09/06 A3016 RMK AO2
     T00910063=
KHVS 220055Z AUTO 00000KT 10SM FEW038 BKN045 BKN055 09/M00 A3013
     RMK AO2=
KHWY 220055Z AUTO 00000KT 10SM CLR 03/01 A3018 RMK AO2
     T00320007=
KHYW 220055Z AUTO 00000KT 10SM CLR 08/07 A3013 RMK AO2=
KHZE 220055Z AUTO 05005KT 10SM FEW055 OVC070 10/03 A2953 RMK
     AO2=
KI67 220055Z AUTO 00000KT 10SM CLR 13/00 A2996 RMK AO1=
KI68 220055Z AUTO 16007KT 10SM CLR 14/01 A2997 RMK AO1
     T01400011=
KIDI 220055Z AUTO 00000KT 10SM BKN050 BKN055 07/02 A3009 RMK
     A01=
KINF 220055Z AUTO 00000KT 10SM CLR 13/07 A3009 RMK AO2=
KINT 220054Z 00000KT 10SM CLR 09/02 A3015 RMK AO2 SLP210
     T00940017=
KIOB 220055Z AUTO 19006KT 10SM CLR 11/02 A3004 RMK AO2 PWINO=
KJFZ 220055Z AUTO 15004KT 10SM CLR 11/00 A3011 RMK AO2
     T01111001=
KJVW 220055Z AUTO 00000KT 10SM CLR 17/17 A2999 RMK AO2=
KJZI 220055Z AUTO 31003KT 10SM CLR 11/09 A3013 RMK AO2=
KKY8 220055Z AUTO 13005KT 10SM FEW037 17/05 A2993 RMK A01=
KL08 220055Z AUTO 12004KT 10SM CLR 30/07 A2975 RMK AO2=
KL35 220055Z AUTO 26006KT 10SM CLR 13/03 A3009 RMK AO2=
KL52 220055Z AUTO 27004KT 6SM BR FEW011 15/14 A2990 RMK A01=
KLBO 220055Z AUTO 17007KT 10SM CLR 20/00 A2979 RMK AO2=
KLKR 220055Z AUTO 00000KT 10SM FEW047 BKN060 09/03 A3014 RMK
     AO2=
KLKU 220055Z AUTO 00000KT 10SM CLR 04/03 A3015 RMK AO2
     T00440028=
KLNP 220055Z AUTO 20004KT 10SM CLR 08/00 A3011 RMK AO2=
KBUR 220053Z 17009KT 10SM CLR 24/16 A2983 RMK AO2 SLP090
     T02390156=
KCCR 220053Z 24009KT 10SM CLR 17/11 A2981 RMK AO2 SLP080
     T01670106=
KDLN 220053Z AUTO 29022G32KT 10SM OVC100 12/M01 A2956 RMK AO2 PK
     WND 28036/0034 SLP984 T01221006=
KHJO 220053Z AUTO 05003KT 7SM CLR 26/13 A2976 RMK AO2 SLP079
     T02560128=
KHRI 220053Z AUTO 20009KT 8SM RA BKN055 OVC070 09/08 A2969 RMK AO2
     SLP051 P0005 T00940083=
KIDA 220053Z 21011G23KT 10SM CLR 17/M04 A2966 RMK AO2 PK WND
     22036/2355 SLP024 T01721039=
KIPL 220053Z AUTO 15004KT 10SM CLR 32/06 A2972 RMK AO2 SLP065
     T03220061=
KPRC 220053Z 23008KT 10SM CLR 17/04 A3000 RMK AO2 SLP109
     T01720044=
KPUC 220053Z AUTO 08004KT 10SM CLR 16/M05 A2987 RMK AO2 SLP093
     T01611050=
KRAL 220053Z 26007KT 10SM CLR 24/13 A2983 RMK AO2 SLP086
     T02440133=
KRNT 220053Z 13003KT 7SM -RA FEW012 BKN023 OVC038 10/08 A2971 RMK
     AO2 SLP066 P0002 T01000078=
KSHN 220053Z AUTO 11003KT 4SM -RA BR OVC011 09/08 A2968 RMK AO2
     SLP052 P0006 T00890083=
KSHR 220053Z AUTO 30009KT 10SM CLR 13/01 A2953 RMK AO2 SLP992
     T01280011=
KSNS 220053Z AUTO 31008KT 8SM OVC013 15/12 A2988 RMK AO2 SLP126
     T01500117 TSNO=
KSPB 220053Z AUTO 16004KT 2 1/2SM -RA BR OVC005 09/09 A2969 RMK
     AO2 CIG 003V008 SLP053 P0005 T00940089=
