SASA41 KWBC 220000 RRB
METAR
SKMD 220000Z NIL=
SKSM 220000Z 34007KT 9999 SCT017 BKN070 27/24 Q1010 RETS RMK
     A2984=
