SAUS70 KWBC 212300 RRS
METAR
KAFO 212255Z AUTO 24013G21KT 10SM SCT100 17/M11 A2982 RMK AO2=
KAQO 212255Z AUTO 18010G16KT 150V210 10SM CLR 30/05 A2988 RMK
     AO2=
KAUN 212255Z AUTO 22007KT 9SM CLR 27/07 A2984 RMK A01=
KCZT 212255Z AUTO 18005KT 10SM CLR 28/09 A2990 RMK AO2=
KDKR 212255Z AUTO 17011KT 10SM CLR 28/10 A2989 RMK AO2=
KLLN 212255Z AUTO 25017G24KT 10SM CLR 27/00 A2985 RMK AO2=
KLMO 212255Z AUTO 25010G21KT 10SM CLR 26/M09 A2972 RMK AO2
     T02551088=
KLUV 212255Z AUTO 26013KT 10SM CLR 28/M01 A2986 RMK AO2=
KMMH 212255Z AUTO 26012G20KT 10SM CLR 19/M09 A3007 RMK AO2=
KNOW 212255Z AUTO 30008KT 7SM -RA BKN020 OVC028 10/09 A2975 RMK
     AO2 P0001 T00960091=
KORG 212255Z AUTO 20010KT 10SM CLR 26/16 A3000 RMK AO2
     T02580160=
KPAO 212247Z 34014KT 8SM HZ FEW200 18/13 A2987=
KPPA 212255Z AUTO 24012G19KT 10SM CLR 29/00 A2973 RMK AO2
     T02900000=
KRBO 212255Z AUTO 10SM CLR 26/15 A2995 RMK AO2 T02640152=
KT20 212255Z AUTO 18009G16KT 10SM CLR 29/10 A2991 RMK AO2
     T02910101=
KXBP 212255Z AUTO 19011G14KT 10SM CLR 32/03 A2979 RMK AO2
     T03160027=
KBJI 212255Z AUTO 00000KT 10SM CLR 13/01 A2956 RMK AO2
     T01250006=
KCMY 212258Z AUTO 00000KT 5SM HZ CLR 18/03 A2961 RMK AO2 SLP034
     T01770025 $=
KHHG 212255Z AUTO 20006KT 10SM CLR A2983 RMK AO2=
KHMZ 212255Z AUTO 16006KT 10SM CLR 13/M02 A3006 RMK AO2
     T01341024=
KI63 212255Z AUTO 18009KT 10SM CLR 23/03 A2970 RMK AO2
     T02250025=
KI75 212255Z AUTO 19005KT 10SM CLR 24/03 A2960 RMK AO2
     T02360033=
KIBM 212255Z AUTO 29012KT 10SM CLR 20/M10 A2968 RMK AO2
     T02011098=
KICL 212255Z AUTO 00000KT 9SM CLR 25/02 A2959 RMK AO2=
KIKK 212255Z AUTO 20008KT 10SM CLR 22/03 A2975 RMK AO2
     T02160025=
KIKV 212255Z AUTO 00000KT 10SM CLR 24/01 A2960 RMK AO2=
KJYR 212255Z AUTO 16006KT 9SM CLR 23/M01 A2959 RMK AO2=
KLOM 212255Z AUTO 00000KT 10SM CLR 08/04 A3013 RMK AO2
     T00840040=
KLOT 212255Z AUTO 19010G18KT 10SM CLR 22/04 A2971 RMK AO2=
KMGC 212255Z AUTO 19008KT 10SM CLR 21/02 A2973 RMK AO2=
KMLE 212255Z AUTO 00000KT 10SM CLR 22/02 A2958 RMK AO2
     T02240015=
KMQB 212255Z AUTO 19010KT 10SM CLR 23/00 A2969 RMK AO2
     T02290002=
KMQS 212255Z AUTO 00000KT 10SM CLR 12/M00 A3014 RMK AO2=
KOOA 212255Z AUTO 21007KT 10SM CLR 25/09 A2961 RMK AO2
     T02540090=
KOWX 212255Z AUTO 21012KT 10SM CLR 20/M02 A2987 RMK AO1=
KRCR 212255Z AUTO 19008KT 10SM CLR 20/03 A2980 RMK AO2=
KTAZ 212255Z AUTO 17009KT 10SM CLR 21/03 A2978 RMK AO2
     T02130033=
KTIF 212255Z AUTO 15007KT 10SM CLR 22/M02 A2959 RMK AO2
     T02181025=
KUMP 212255Z AUTO 19004KT 10SM CLR 21/03 A2987 RMK AO2
     T02060027=
K19S 212255Z AUTO 16009KT 7SM CLR 28/M05 A2966 RMK AO2
     T02811051=
K20V 212255Z AUTO 23016G25KT 10SM CLR 16/M08 A2993 RMK AO2=
K2J5 212255Z AUTO 00000KT 10SM CLR 15/02 A3010 RMK AO2
     T01510020=
KADH 212255Z AUTO 21012G17KT 10SM CLR 30/03 A2976 RMK AO2=
KADT 212255Z AUTO 15003KT 10SM CLR 26/M05 A2971 RMK AO2
     T02551054=
KANK 212250Z AUTO 24014G22KT 10SM CLR A3002 RMK AO1=
KBMC 212250Z AUTO 10SM CLR 22/M08 A2979 RMK AO1 T02241078=
KC99 212251Z AUTO 28011G24KT 10SM CLR 07/M13 A3007 RMK AO2=
KCHK 212250Z AUTO 18010G15KT 10SM CLR 30/03 A2968 RMK AO2
     T03040028=
KDCY 212255Z AUTO 18008KT 10SM CLR 19/02 A2988 RMK AO2
     T01880017=
KDVO 212250Z AUTO 34009KT 10SM CLR 22/11 A2984 RMK AO2=
KDWX 212250Z AUTO 23012G19KT 190V250 10SM CLR A2988 RMK AO2=
KE11 212250Z AUTO 25006G14KT 10SM CLR 28/01 A2989 RMK AO2
     T02750011=
KEAN 212250Z AUTO 26016G22KT 10SM CLR 23/M12 A2962 RMK AO2
     T02331125=
KEBS 212255Z AUTO 01005KT 8SM CLR 20/01 A2959 RMK AO2=
