SAUS80 KWBC 220242
METAR
KIZA 220235Z AUTO 22004KT 10SM FEW017 14/12 A2989 RMK AO2=
K9V9 220235Z AUTO 14010KT 10SM CLR 11/02 A2951 RMK AO2
     T01060017=
KAYS 220235Z AUTO 00000KT 10SM CLR 09/09 A3015 RMK AO2
     T00940087=
KGIC 220235Z AUTO 07004KT 1 1/4SM OVC003 05/05 A2962 RMK AO1
     P0002=
KSOA 220235Z AUTO 17006KT 10SM 21/10 A2997 RMK AO2=
KCKP 220235Z AUTO 00000KT 10SM CLR 09/01 A2960 RMK AO2
     T00880006=
K4BM 220235Z AUTO 19008G15KT 170V230 10SM CLR 02/M14 A3010 RMK
     AO2=
KPSN 220235Z AUTO 17005KT 10SM CLR 22/10 A2991 RMK AO2=
KCBE 220235Z AUTO 00000KT 10SM CLR 06/02 A3017 RMK AO2
     T00600016=
KSFY 220243Z AUTO 16008KT 10SM CLR 15/03 A2968 RMK AO2=
