SAUS70 KWBC 220100 RRH
METAR
KIEN 220052Z AUTO 00000KT 10SM CLR 13/M06 A2950 RMK AO2 SLP997
     T01281061=
KIJD 220052Z AUTO 00000KT 10SM CLR 06/05 A3016 RMK AO2 SLP215
     T00610050=
KLNL 220055Z AUTO 00000KT 10SM CLR 04/02 A2964 RMK AO2
     T00430016=
KLUM 220055Z AUTO 00000KT 10SM CLR 11/07 A2963 RMK AO2 T01100072
     PWINO=
KMDH 220052Z 17004KT 10SM CLR 16/07 A2988 RMK AO2 SLP117
     T01560067=
KMKE 220052Z 21007KT 10SM CLR 19/04 A2966 RMK AO2 SLP044
     T01890044=
KMLI 220052Z 20008KT 10SM CLR 21/03 A2966 RMK AO2 SLP043
     T02110033=
KOMA 220052Z 35003KT 10SM SCT250 13/02 A2959 RMK AO2 SLP019
     T01330022=
KRAP 220052Z VRB04KT 10SM CLR 10/M03 A2946 RMK AO2 SLP980
     T01001033=
KSDC 220055Z AUTO 17006KT 10SM CLR 12/M02 A2998 RMK AO2=
KSPW 220053Z AUTO 05007KT 10SM CLR 10/M01 A2962 RMK AO2 SLP038
     T01001006=
KUES 220045Z 19007KT 10SM CLR 17/03 A2968=
KGTF 220053Z 23003KT 10SM OVC055 08/03 A2953 RMK AO2 SLP995
     T00830028=
KGVL 220053Z AUTO 00000KT 10SM CLR 13/M01 A3014 RMK AO2 SLP203
     T01281011=
KGWO 220053Z AUTO 20004KT 10SM CLR 20/10 A2995 RMK AO2 SLP141
     T02000100=
KHAE 220055Z AUTO 17006KT 10SM CLR 21/00 A2971 RMK AO2=
KHBI 220055Z AUTO 19003KT 10SM CLR 08/03 A3017 RMK AO2
     T00830027=
KHEI 220053Z AUTO 35016G28KT 10SM CLR 16/01 A2950 RMK AO2 PK WND
     33028/0044 SLP991 T01560011=
KHHR 220053Z 25007KT 10SM BKN010 21/17 A2984 RMK AO2 SLP103
     T02060167 $=
KHIB 220053Z AUTO 00000KT 10SM CLR 04/02 A2958 RMK AO2 SLP027
     T00440022=
KHIO 220053Z 15008KT 2SM BR BKN006 OVC036 09/08 A2969 RMK AO2
     RAE52 PRESFR SLP054 P0001 T00890083=
KHJO 220053Z AUTO 05003KT 7SM CLR 26/13 A2976 RMK AO2 SLP079
     T02560128=
KHKA 220053Z AUTO 16006KT 10SM CLR 19/09 A2989 RMK AO2 SLP120
     T01890094 $=
KHKS 220053Z 16004KT 10SM CLR 19/11 A3000 RMK AO2 SLP151
     T01890111=
KHKY 220053Z AUTO 00000KT 10SM CLR 11/01 A3014 RMK AO2 SLP197
     T01060011=
KHLN 220053Z 27010KT 10SM -RA SCT040 BKN047 OVC060 08/03 A2958 RMK
     AO2 RAB34 SLP025 P0000 T00780033=
KHOT 220053Z AUTO 14003KT 10SM CLR 19/06 A2988 RMK AO2 SLP116
     T01940061=
KHQM 220053Z AUTO 04005KT 9SM -RA OVC041 11/09 A2969 RMK AO2
     SLP057 P0000 T01060089=
KHRI 220053Z AUTO 20009KT 8SM RA BKN055 OVC070 09/08 A2969 RMK AO2
     SLP051 P0005 T00940083=
KHRO 220053Z AUTO 16008KT 10SM CLR 18/05 A2984 RMK AO2 SLP102
     T01780050=
KHSI 220053Z AUTO 00000KT 9SM CLR 14/00 A2962 RMK AO2 SLP027
     T01390000=
KHSP 220055Z AUTO 19007KT 10SM CLR 09/M03 A3016 RMK AO2
     T00861035=
KHWO 220053Z AUTO 34012KT 10SM OVC075 23/17 A2999 RMK AO2 SLP155
     T02280167=
KHYR 220053Z AUTO 00000KT 10SM CLR 06/02 A2962 RMK AO2 SLP038
     T00610017=
KHZY 220053Z AUTO 17010KT 10SM CLR 14/01 A2997 RMK AO2 SLP152
     T01390006=
KICR 220053Z AUTO 12010KT CLR 13/01 A2953 RMK AO2 SLP002
     T01280011=
KIDA 220053Z 21011G23KT 10SM CLR 17/M04 A2966 RMK AO2 PK WND
     22036/2355 SLP024 T01721039=
KIPL 220053Z AUTO 15004KT 10SM CLR 32/06 A2972 RMK AO2 SLP065
     T03220061=
KISO 220056Z 00000KT 10SM BKN047 12/07 A3015=
KJER 220053Z AUTO 20003KT 5SM HZ CLR 16/02 A2968 RMK AO2 SLP033
     T01610022=
K10G 220055Z AUTO 19005KT 10SM CLR 13/M01 A3001 RMK AO2=
K1P1 220055Z AUTO 00000KT 10SM CLR 02/00 A3013 RMK AO2
     T00170004=
K20U 220055Z AUTO 32007KT 10SM BKN060 OVC075 10/04 A2956 RMK
     AO2=
K24A 220055Z AUTO 12006KT 10SM CLR 11/M02 A3015 RMK AO2 LTG DSNT
     SE T01071017=
K27K 220055Z AUTO 17005KT 10SM CLR 11/00 A3001 RMK AO1=
K35A 220055Z AUTO 00000KT 10SM CLR 09/02 A3018 RMK A02
     T00930025=
