SAUS70 KWBC 220200
METAR
KDYA 220155Z AUTO 13003KT 10SM CLR 17/13 A3006 RMK AO2
     T01670127=
KFRH 220155Z AUTO 17003KT 10SM CLR 16/00 A2993 RMK AO1=
KGWW 220155Z AUTO 00000KT 10SM SCT055 08/06 A3016 RMK AO2
     T00760057=
KIPJ 220155Z AUTO 00000KT 10SM CLR 05/04 A3015 RMK AO2
     T00530041=
KJVL 220145Z 19007KT 10SM CLR 17/01 A2967=
KJYO 220155Z AUTO 20003KT 10SM CLR 10/03 A3016 RMK AO2=
KMRN 220155Z AUTO 36003KT 10SM CLR 05/04 A3019 RMK AO2
     T00490036=
KMYJ 220155Z AUTO 17007KT 10SM CLR 17/02 A2973 RMK AO2=
KOIC 220155Z AUTO 00000KT 10SM CLR 04/M01 A3013 RMK AO2
     T00431007=
KPBH 220155Z AUTO 00000KT 10SM CLR 05/02 A2964 RMK AO2
     T00530016=
KPOC 220147Z 25008KT 7SM CLR A2986=
KPTB 220155Z AUTO 00000KT 10SM CLR 05/04 A3018 RMK AO2
     T00540038=
KTGI 220155Z AUTO 14005KT 10SM CLR 15/10 A3018 RMK AO1
     T01480101=
KVNW 220155Z AUTO 20008G15KT 10SM CLR 15/00 A2991 RMK AO2=
PALP 220145Z 09012G22KT 4SM -SN DRSN BR FEW017 BKN024 BKN050
     M03/M05 A2988 RMK LAST=
KCGF 220145Z 19011G18KT 10SM CLR 14/01 A2994=
KCWA 220147Z 26004KT 10SM CLR 12/03 A2967=
KEFT 220155Z AUTO 21012KT 10SM CLR 17/03 A2966 RMK AO2
     T01690027=
KEZS 220155Z AUTO 00000KT 10SM CLR 10/06 A2965 RMK AO2
     T00950058=
KGYY 220145Z 18008G14KT 10SM CLR 19/03 A2977=
KLBE 220147Z 00000KT 20SM CLR 06/02 A3007=
KMWC 220145Z 22004KT 10SM CLR 17/01 A2969=
KPDC 220155Z AUTO 00000KT 10SM CLR 10/03 A2964 RMK AO2
     T01020030=
KSAW 220147Z 00000KT 10SM CLR 04/02 A2962=
KSCH 220145Z 00000KT 15SM CLR 06/01 A3012 RMK LAST=
KSUW 220155Z AUTO 22003KT 10SM CLR 05/02 A2961 RMK AO2
     T00530019=
KUES 220145Z 19006KT 10SM CLR 16/03 A2970=
KUNV 220153Z 25003KT 10SM CLR 10/M01 A3011=
KATW 220145Z 26006KT 10SM CLR 11/02 A2964=
KOQU 220150Z 27005KT 10SM SKC 12/06 A3020=
KRYY 220150Z 00000KT 10SM CLR 09/05 A3014 RMK AO2 SLP204 T00940050
     $=
KSQL 220147Z 29006KT 10SM SCT200 16/11 A2984=
