SAUS80 KWBC 220000 CCA
METAR
KP28 212356Z AUTO 18012G20KT 28/01 A2959 RMK AO1 PK WND 19027/2308
     SLP011 T02780006 10333 20256 55011 $=
KMEH 212356Z AUTO 29004KT 9SM -RA OVC005 04/04 A2970 RMK AO2
     SLP066 P0006 60015 T00440039 10111 20044 58020=
