SAUS80 KWBC 220120
METAR
KRFI 220115Z AUTO 17004KT 10SM CLR 25/08 A2992 RMK AO2
     T02460075=
KSVE 220115Z AUTO 28010KT 10SM CLR M13/M20 A2983 RMK AO2=
KIKW 220115Z AUTO 17004KT 10SM CLR 16/05 A2971 RMK AO2
     T01560046=
KLYV 220115Z AUTO 00000KT 10SM CLR 11/01 A2962 RMK AO2=
KSNC 220115Z AUTO 19004KT 10SM CLR 10/07 A3017 RMK AO2=
KTKV 220115Z AUTO 00000KT 10SM CLR 06/02 A2965 RMK AO2 T00600023
     PWINO=
KY23 220115Z AUTO 00000KT 10SM CLR 08/05 A2963 RMK AO2
     T00810047=
KCLI 220115Z AUTO 00000KT 10SM CLR 10/04 A2966 RMK AO2
     T00970036=
KSYN 220115Z AUTO 19003KT 4SM HZ CLR 10/02 A2962 RMK AO2
     T01010022=
KCTY 220115Z AUTO 00000KT 10SM CLR 09/05 A3010 RMK AO2
     T00910045=
KSOW 220115Z AUTO 22009KT 10SM CLR 15/03 A3009 RMK AO2=
KEDU 220120Z AUTO 20009KT 10SM CLR 20/11 A2973 RMK AO1=
KRLD 220115Z AUTO 17005KT 5SM UP SCT075 OVC085 10/09 A2967 RMK AO2
     P0003 T00950088=
KS39 220115Z AUTO 00000KT 9SM -DZ FEW026 BKN035 OVC042 12/09 A2966
     RMK AO2=
K40U 220115Z AUTO 30005KT 10SM CLR 11/M09 A2983 RMK AO2
     T01141088=
K9MN 220115Z AUTO 00000KT 10SM CLR 15/03 A2966 RMK AO1
     T01460027=
KCIR 220115Z AUTO 21003KT 10SM CLR 19/09 A2989 RMK AO2
     T01860086=
KVTI 220115Z AUTO 00000KT 7SM CLR 16/00 A2963 RMK AO2
     T01600000=
KTKC 220115Z AUTO 00000KT 10SM 12/00 A2963 RMK AO2 T01181005=
KGNG 220115Z AUTO 22006KT 10SM FEW090 FEW110 16/02 A2968 RMK
     AO2=
KMKN 220115Z AUTO 18008KT 10SM CLR 24/07 A2986 RMK AO2
     T02390065=
KSEP 220115Z AUTO 17005KT 10SM SCT095 SCT120 24/04 A2987 RMK AO2
     T02420040=
KJNX 220115Z AUTO 00000KT 10SM CLR 06/06 A3015 RMK AO2=
K40B 220116Z AUTO 00000KT 05/00 A3004 RMK AO1 SLP181 T00511003
     52006=
KIZA 220115Z AUTO 27011KT 10SM CLR 17/13 A2988 RMK AO2=
K4BM 220115Z AUTO 17014G23KT 10SM CLR 04/M17 A3012 RMK AO2=
KCKP 220115Z AUTO 00000KT 10SM CLR 13/00 A2960 RMK AO2
     T01260001=
KDBN 220115Z AUTO 00000KT 10SM CLR 08/06 A3015 RMK AO2=
KEHA 220115Z AUTO 00000KT 10SM CLR 22/M08 A2971 RMK AO2
     T02191079=
KPSN 220115Z AUTO 16004KT 10SM CLR 23/10 A2990 RMK AO2=
