SAUS70 KWBC 220000 RRI
METAR
PAAQ 212353Z 20004KT 10SM BKN007 OVC010 03/01 A2984 RMK AO2 SLP109
     60000 T00330011 10033 20022 51018=
PAPB 212353Z AUTO 20008KT 8SM FEW037 BKN055 06/ A2998 RMK AO2
     RAB2254E35 SLP140 P0000 60000 T0061 10078 20050 58008 TSNO
     $=
KPKB 212353Z 16005KT 10SM CLR 12/01 A3003 RMK AO2 SLP171 T01220006
     10189 20117 53004=
KPKD 212353Z AUTO 00000KT 10SM CLR 11/M01 A2958 RMK AO2 SLP021
     T01111006 10161 20106 51007=
KPLN 212354Z AUTO 36003KT 10SM CLR 13/06 A2962 RMK AO2 SLP033
     T01280061 10211 20128 53036=
KPNC 212353Z AUTO 19009G19KT 10SM CLR 29/01 A2965 RMK AO2 SLP031
     T02940006 10339 20294 55003=
KPNS 212353Z 20003KT 10SM CLR 18/07 A3008 RMK AO2 SLP188 T01830072
     10239 20183 53006=
KPQL 212353Z AUTO 00000KT 10SM CLR 14/11 A3008 RMK AO2 SLP187
     T01440111 10256 20144 53002=
KPSX 212353Z AUTO 17008KT 10SM SCT042 23/17 A2997 RMK AO2 SLP148
     T02330167 10267 20233 55002=
KPUB 212353Z AUTO 26009KT 10SM CLR 24/M13 A2970 RMK AO2 SLP006
     T02441128 10283 20244 56016=
KPWA 212353Z 17013KT 10SM CLR 27/02 A2970 RMK AO2 SLP045 T02670022
     10317 20267 56008=
KRAC 212353Z AUTO 22009KT 10SM CLR 20/04 A2967 RMK AO2 SLP048
     T02000039 10239 20200 53019=
KRBD 212353Z 17010KT 10SM CLR 27/09 A2981 RMK AO2 PK WND
     18027/2302 SLP089 T02720089 10322 20272 55005=
KRHI 212353Z AUTO 00000KT 10SM CLR 10/02 A2962 RMK AO2 SLP036
     T01000017 10189 20100 53020=
KRIL 212353Z AUTO 25012KT 10SM CLR 19/M08 A2987 RMK AO2 PK WND
     26026/2315 SLP083 T01941083 10217 20144 57015=
KRKP 212353Z AUTO 16008KT 10SM CLR 24/16 A2996 RMK AO2 SLP147
     T02440156 10289 20244 58003=
KRME 212353Z 10006KT 10SM CLR 11/M02 A3006 RMK AO2 SLP180
     T01061017 10161 20089 53014=
KRTN 212353Z AUTO 26011KT 10SM CLR 19/M08 A2985 RMK AO2 PK WND
     27026/2328 SLP062 T01941078 10256 20194 56005=
KRWF 212353Z AUTO 00000KT 10SM CLR 15/02 A2963 RMK AO2 SLP033
     T01500017 10194 20150 53006=
KRWL 212353Z AUTO 26021G35KT 10SM CLR 17/M11 A2979 RMK AO2 PK WND
     26038/2324 RAB11E35 SLP021 P0000 60000 T01671106 10189 20156
     56008=
KSAF 212353Z 27010KT 10SM CLR 18/M03 A3000 RMK AO2 SLP089
     T01831028 10217 20167 56004=
KSBM 212353Z AUTO 22004KT 10SM CLR 13/05 A2962 RMK AO2 SLP032
     T01330050 10256 20133 53027=
KSDL 212353Z 23006KT 10SM CLR 30/08 A2983 RMK AO2 SLP078 T03000083
     10311 20278 58014=
KSFB 212353Z 36007KT 10SM CLR 18/09 A3005 RMK AO2 SLP176 T01830089
     10244 20183 53012=
KSGR 212353Z 20011KT 10SM CLR 24/14 A2996 RMK AO2 SLP146 T02440139
     10306 20244 53004=
KSLN 212353Z 18003KT 10SM CLR 23/02 A2959 RMK AO2 SLP013 T02330017
     10317 20233 56006=
KSNY 212353Z AUTO 23009KT 10SM CLR 17/M07 A2964 RMK AO2 SLP005
     T01671072 10272 20167 56006=
KSPW 212353Z AUTO 11006KT 10SM CLR 17/01 A2962 RMK AO2 SLP030
     T01670011 10233 20167 55001=
PAAQ 212353Z 20004KT 10SM BKN007 OVC010 03/01 A2984 RMK AO2 SLP109
     60000 T00330011 10033 20022 51018=
PABR 212353Z 10020G32KT 4SM -SN BLSN FEW016 BKN060 OVC085 M03/M04
     A2984 RMK AO2 PK WND 10033/2329 CIG 026 NE SLP106 P0000 60000
     T10331044 11028 21033 51009=
PACV 212353Z 24006KT 10SM FEW016 FEW080 07/04 A2968 RMK AO2 SLP049
     60000 T00720044 10083 20017 53013=
PAEN 212353Z 25003KT 10SM CLR 07/00 A2984 RMK AO2 SLP107 T00720000
     10072 21028 51013=
PAGK 212353Z AUTO 27006KT 2 1/2SM -SN BR OVC017 01/00 A2971 RMK
     AO2 SLP084 P0001 60002 T00060000 10011 20006 52023 TSNO=
PAGY 212353Z AUTO 20016KT 10SM BKN075 08/04 A2962 RMK AO2 SLP029
     60000 T00830039 10089 20078 53004 TSNO=
