SAKA31 PTPN 220000
METAR PTPN 212357Z 34006KT 15SM BKN018TCU BKN130 OVC300 29/26 A2982
RMK TCU N-E AND OHD
