SAUS70 KWBC 212300 RRW
METAR
KCBK 212255Z AUTO 00000KT 10SM CLR 25/M07 A2969 RMK AO2
     T02481066=
KCCY 212255Z AUTO 32003KT 6SM HZ CLR 19/00 A2962 RMK AO2=
KCKZ 212255Z AUTO 00000KT 10SM CLR 09/02 A3013 RMK AO2=
KCOE 212256Z AUTO 22011KT 10SM RA BKN012 OVC017 03/02 A2970 RMK
     AO2 SLP083 T00280017 PNO $=
KCRX 212255Z AUTO 17008G13KT 10SM CLR 22/09 A2994 RMK AO2=
KCSQ 212255Z AUTO 22004KT 9SM CLR 23/02 A2960 RMK AO2=
KCVC 212255Z AUTO 00000KT 10SM CLR 15/03 A3009 RMK AO2=
KCVO 212256Z AUTO 20003KT 10SM BKN024 OVC029 14/09 A2977 RMK AO2
     RAB29E48 SLP083 P0000 T01390094=
KCWC 212255Z AUTO 21009G19KT 190V250 10SM CLR 33/00 A2975 RMK AO2
     T03261003=
KCXE 212255Z AUTO 00000KT 10SM CLR 11/04 A3013 RMK AO1
     T01090038=
KCXP 212255Z AUTO 28007G23KT 230V310 10SM CLR 24/M05 A2994 RMK
     AO2=
KCXU 212255Z AUTO 00000KT 10SM CLR 15/03 A3008 RMK AO1
     T01490034=
KCXW 212245Z AUTO 18010KT 9SM CLR 26/07 A2983 RMK A01=
KCZL 212255Z AUTO 21004KT 10SM CLR 17/02 A3008 RMK AO2=
KD39 212255Z AUTO 26003KT 10SM CLR 15/01 A2960 RMK AO2
     T01450008=
KDEH 212255Z AUTO 00000KT 10SM CLR 21/01 A2961 RMK AO2=
KDKX 212255Z AUTO 00000KT 10SM CLR 14/03 A3005 RMK A01=
KDTA 212255Z AUTO 19006KT 10SM CLR 23/M09 A2986 RMK AO1=
KDUA 212255Z AUTO 19011KT 10SM CLR 31/M02 A2981 RMK AO2=
KDZB 212255Z AUTO 19009G15KT 10SM CLR 29/06 A2990 RMK AO2
     T02920057=
KEAT 212255Z AUTO 31007KT 3SM HZ CLR 13/01 A2963 RMK AO2 SLP033
     T01330006=
KECS 212255Z AUTO 26013KT 10SM CLR 23/M10 A2952 RMK AO2=
KEDN 212255Z AUTO 00000KT 10SM CLR 18/06 A3007 RMK AO2
     T01820059=
KEGV 212255Z AUTO 00000KT 10SM CLR 13/02 A2957 RMK AO2
     T01340021=
KEIK 212255Z AUTO 25009G19KT 10SM CLR 25/M11 A2972 RMK AO2
     T02461112 PWINO=
KEKS 212250Z AUTO 17024G31KT 10SM FEW041 SCT055 BKN070 16/M05
     A2959 RMK AO2=
KEKY 212256Z AUTO 16003KT 10SM CLR 19/09 A3006 RMK AO2 SLP027
     T01940089=
KERV 212255Z AUTO 17010G17KT 10SM CLR 27/09 A2994 RMK AO2
     T02650085=
KF05 212255Z AUTO 22020G25KT 10SM CLR 32/01 A2973 RMK AO2
     T03170014=
KF17 212255Z AUTO 17011G16KT 10SM CLR 27/10 A2992 RMK AO2=
KF44 212255Z AUTO 20004KT 10SM CLR 28/10 A2984 RMK AO2=
KF46 212255Z AUTO 20015G20KT 10SM CLR 30/08 A2982 RMK AO2
     T02950075=
KFGX 212255Z AUTO 20003KT 10SM CLR 16/00 A3000 RMK AO2
     T01630000=
KFKN 212255Z AUTO 00000KT 10SM CLR 11/05 A3014 RMK AO2
     T01130052=
KFLY 212255Z AUTO 12007KT CLR 22/M09 A2985 RMK AO2 T02151088
     PWINO=
KFOT 212250Z AUTO 30009KT 10SM OVC026 17/09 A2994 RMK AO1=
KFTN 212255Z AUTO 14008KT 10SM CLR 29/10 A2993 RMK A01=
KFYE 212255Z AUTO VRB06KT 10SM CLR 24/10 A2991 RMK A01=
KFYM 212300Z AUTO 15005KT 10SM CLR 18/05 A3004 RMK A01=
KGAD 212256Z AUTO 00000KT 10SM CLR 19/04 A3006 RMK AO2 SLP185
     T01890039 $=
KGAO 212255Z AUTO 14004KT 10SM CLR 22/12 A3007 RMK AO2
     T02180121=
KGCY 212255Z AUTO 00000KT 10SM CLR 14/01 A3006 RMK A01=
K05U 212255Z AUTO 26014G19KT 10SM 22/M14 A2993 RMK A01=
K0A0 212255Z AUTO 15007KT 110V210 10SM CLR 27/05 A2995 RMK AO2=
K0A9 212255Z AUTO 00000KT 10SM CLR 10/04 A3007 RMK A01=
K0F2 212255Z AUTO 19012G17KT 10SM CLR 31/01 A2977 RMK AO2
     T03110011=
K0R0 212255Z AUTO 17006G14KT 10SM CLR 24/11 A3004 RMK AO2=
K1A9 212255Z AUTO 00000KT 10SM CLR 18/07 A3006 RMK AO2
     T01820072=
K1K1 212255Z AUTO 19010G17KT 10SM CLR 28/M02 A2964 RMK AO2
     T02771022=
K1M5 212255Z AUTO 18006KT 10SM CLR 19/02 A2997 RMK A01=
K1V6 212255Z AUTO 26015G22KT 10SM CLR 25/M10 A2977 RMK AO2=
K2A0 212255Z AUTO 00000KT 10SM CLR 17/02 A3004 RMK A01=
K2G2 212255Z AUTO 19007KT 10SM CLR 14/M02 A3000 RMK A01=
