SAUS80 KWBC 220236
METAR
KAID 220235Z AUTO 18007KT 10SM CLR 14/M02 A2993 RMK AO2
     T01421016=
KGNT 220235Z AUTO 00000KT 10SM CLR 09/04 A3007 RMK AO2
     T00900036=
KCLI 220235Z AUTO 00000KT 10SM CLR 08/04 A2967 RMK AO2
     T00840036=
KLYV 220235Z AUTO 00000KT 10SM CLR 09/01 A2961 RMK AO2=
KPOV 220235Z AUTO 19004KT 10SM CLR 11/M02 A2999 RMK AO2 T01121020
     PWINO=
KPZQ 220235Z AUTO 22004KT 10SM CLR 15/06 A2966 RMK AO2
     T01540055=
