SAUS80 KWBC 220050
METAR
KCUL 220033Z AUTO 16007KT 10SM CLR 14/03 A2988 RMK AO2=
KNY0 220034Z AUTO 17003KT 10SM CLR 08/M02 A3009 RMK AO2=
KROS 220043Z AUTO 00000KT 10SM CLR 12/04 A2962 RMK AO2=
