SAUS70 KWBC 212316
METAR
KDVP 212313Z AUTO 09003KT 10SM CLR 16/03 A2963 RMK AO2
     T01550028=
KORB 212313Z AUTO 28003KT 10SM CLR 12/01 A2954 RMK AO2=
KOWA 212313Z AUTO 00000KT 10SM CLR 16/04 A2962 RMK AO2=
K08D 212315Z AUTO 36008KT 10SM -RA 07/06 A2954 RMK AO2=
K0E0 212315Z AUTO 27018G22KT 10SM CLR 20/M04 A3002 RMK AO2
     T02001037 TSNO=
KAQP 212313Z AUTO 00000KT 7SM SCT090 16/M01 A2960 RMK AO2=
KBEA 212315Z AUTO 14014G18KT 10SM CLR 25/13 A2993 RMK AO2
     T02540131=
KCQW 212315Z AUTO 00000KT 10SM CLR 12/01 A3011 RMK AO2 PWINO=
KD55 212315Z AUTO 26008KT 10SM FEW065 FEW075 BKN090 11/02 A2952
     RMK AO2=
KEDE 212315Z AUTO 00000KT 10SM BKN060 13/11 A3014 RMK AO2
     T01310113=
KEHO 212315Z AUTO 00000KT 10SM CLR 15/M01 A3012 RMK AO2
     T01451008=
KETH 212313Z AUTO 00000KT 10SM 15/M01 A2960 RMK AO2=
KEYF 212315Z AUTO 00000KT 10SM CLR 14/06 A3011 RMK AO2
     T01370059=
KFOZ 212313Z AUTO 28004KT 10SM CLR 13/01 A2961 RMK AO2=
KLAL 212315Z AUTO 36005KT 10SM CLR 19/06 A3003 RMK AO2
     T01900060=
KLNL 212315Z AUTO 00000KT 10SM CLR 09/03 A2960 RMK AO2
     T00940031=
KLUM 212315Z AUTO 27003KT 10SM CLR 18/08 A2960 RMK AO2 T01800081
     PWINO=
KMAW 212315Z AUTO 18009KT 10SM CLR 23/08 A2987 RMK AO1=
KMCX 212335Z AUTO 18008KT 10SM CLR 20/01 A2980 RMK AO2
     T01980010=
KRCZ 212315Z AUTO 00000KT 10SM CLR 14/02 A3012 RMK AO2
     T01360024=
KRID 212335Z AUTO 19006KT 10SM CLR 14/03 A2993 RMK AO2=
KRNV 212315Z AUTO 18013G18KT 10SM CLR A2990 RMK AO2 TSNO=
KRPD 212315Z AUTO 00000KT 10SM CLR 15/05 A2961 RMK AO2
     T01450052=
KSNK 212315Z AUTO 23007KT 10SM CLR 28/01 A2983 RMK AO2
     T02780008=
KXVG 212313Z AUTO 00000KT 10SM CLR 09/02 A2958 RMK AO2=
K2C8 212315Z AUTO 26009KT 10SM OVC100 14/01 A2951 RMK AO2=
K4R5 212315Z AUTO 00000KT 10SM SCT110 12/05 A2956 RMK AO2
     T01220045=
KARV 212315Z AUTO 00000KT 10SM CLR 13/03 A2959 RMK AO2
     T01300025=
KD50 212315Z AUTO 00000KT 9SM OVC037 06/04 A2957 RMK AO2=
KDVP 212313Z AUTO 09003KT 10SM CLR 16/03 A2963 RMK AO2
     T01550028=
KETB 212315Z AUTO 23004KT 10SM CLR 18/02 A2961 RMK AO2=
KFRH 212315Z AUTO 17003KT 10SM CLR 18/M01 A2991 RMK AO1=
KHFY 212315Z AUTO 20008KT 10SM CLR 19/03 A2989 RMK AO2
     T01900031=
KIUA 212315Z AUTO 17004KT 10SM CLR 13/00 A2998 RMK AO2
     T01300004=
KLDJ 212315Z AUTO 00000KT 10SM CLR 14/04 A3014 RMK AO2
     T01350040=
KMDZ 212315Z AUTO 27004KT 10SM CLR 15/03 A2961 RMK AO2 T01450031
     PWINO=
KMRJ 212315Z AUTO 00000KT 10SM CLR 20/M01 A2962 RMK AO2=
KOIC 212315Z AUTO 16003KT 10SM CLR 10/M01 A3009 RMK AO2
     T00961015=
KORB 212313Z AUTO 28003KT 10SM CLR 12/01 A2954 RMK AO2=
KOWA 212313Z AUTO 00000KT 10SM CLR 16/04 A2962 RMK AO2=
KPBH 212315Z AUTO 00000KT 10SM CLR 13/02 A2958 RMK AO2
     T01300019=
KRRL 212315Z AUTO 25003KT 10SM CLR 14/04 A2959 RMK AO2 T01440038
     TSNO=
KUNU 212315Z AUTO 21003KT 10SM CLR 18/04 A2962 RMK AO2
     T01800043=
KVNW 212315Z AUTO 19008KT 10SM CLR 18/00 A2986 RMK AO2=
KY51 212315Z AUTO 24003KT 10SM CLR 18/04 A2963 RMK AO1
     T01820037=
K10G 212315Z AUTO 18005KT 10SM CLR 16/M02 A2998 RMK AO2=
K1P1 212315Z AUTO 00000KT 10SM CLR 04/01 A3012 RMK AO2
     T00430011=
K20U 212315Z AUTO 00000KT 10SM CLR 11/02 A2954 RMK AO2=
K24A 212315Z AUTO 11005KT 10SM CLR 13/M01 A3011 RMK AO2
     T01281010=
K27K 212315Z AUTO 18006KT 10SM CLR 16/00 A2999 RMK AO1=
K2P2 212315Z AUTO 17003KT 10SM CLR 10/10 A2957 RMK AO2
     T01000100=
K35A 212315Z AUTO 00000KT 10SM CLR 12/01 A3015 RMK A02
     T01250013=
K3D2 212315Z AUTO 00000KT 10SM CLR 11/08 A2957 RMK AO2
     T01140080=
