SAUS70 KWBC 220100 RRE
METAR
KCFS 220055Z AUTO 19010G15KT 10SM CLR 17/03 A2974 RMK AO2
     T01740025=
KCKC 220057Z AUTO 00000KT 10SM CLR 08/02 A2956 RMK AO2=
KCKN 220055Z AUTO 23003KT 10SM CLR 12/M02 A2955 RMK AO2=
KPMV 220055Z AUTO 10003KT 10SM CLR 20/M01 A2959 RMK AO2
     T02001010=
KPPO 220055Z AUTO 20005KT 10SM CLR 17/07 A2979 RMK AO2
     T01690065=
KPRG 220055Z AUTO 18010KT 10SM CLR 14/04 A2986 RMK AO2
     T01400037=
KPSO 220055Z AUTO 00000KT 10SM CLR 13/M04 A3006 RMK AO2
     T01291045=
KRAS 220055Z AUTO 15012KT 10SM CLR A2999 RMK AO2=
KRDM 220056Z VRB03KT 7SM -RA BKN041 BKN047 OVC060 15/08 A2966 RMK
     AO2 RAB16E26B43 SLP035 P0000 T01500083=
KRPJ 220055Z AUTO 16006KT 7SM CLR 12/06 A2971 RMK AO2 T01190055
     TSNO=
KRSV 220055Z AUTO 17005KT 10SM CLR 15/02 A2989 RMK AO2
     T01450015=
KRVJ 220055Z AUTO 00000KT 10SM CLR 11/02 A3012 RMK AO2
     T01050022=
KRVL 220055Z AUTO 00000KT 10SM CLR 08/01 A3010 RMK AO2=
KRWV 220055Z AUTO 17006KT 10SM CLR 24/10 A2993 RMK AO2
     T02350099=
KRYW 220055Z AUTO 20008KT 10SM CLR 25/09 A2993 RMK AO2
     T02450086=
KS33 220055Z AUTO 03011KT 10SM SCT040 OVC060 10/08 A2968 RMK
     AO2=
KSAA 220055Z AUTO 21012G16KT 10SM CLR 12/M11 A2985 RMK AO2=
KSLE 220056Z 15005KT 2SM BR OVC008 11/10 A2970 RMK AO2 RAB08E46
     SLP057 P0003 T01060100=
KSME 220055Z AUTO 17005KT 10SM CLR 14/01 A3003 RMK AO2=
KSTE 220055Z AUTO 00000KT 10SM CLR 09/03 A2966 RMK AO2
     T00940027=
KSTK 220055Z AUTO 00000KT 10SM CLR 16/M05 A2964 RMK AO2=
KSXK 220055Z AUTO 11007KT 10SM FEW021 FEW032 FEW050 14/01 A2959
     RMK AO2=
KT41 220055Z AUTO 10SM CLR 22/15 A3000 RMK AO2 T02240153=
KT74 220055Z AUTO 17006KT 10SM CLR 23/10 A2991 RMK AO2
     T02250100=
KT82 220055Z AUTO 00000KT 10SM CLR 22/08 A2995 RMK AO2
     T02200079=
KTDF 220055Z AUTO 00000KT 10SM CLR 06/03 A3017 RMK AO2=
KTEX 220055Z AUTO 00000KT 10SM CLR 10/M10 A3012 RMK AO2=
KTTA 220055Z AUTO 00000KT 10SM CLR 06/02 A3015 RMK AO2
     T00550023=
KTYL 220055Z AUTO 20008G17KT 10SM CLR 17/03 A3006 RMK AO2=
KTYQ 220055Z AUTO 18009KT 10SM CLR 15/02 A2989 RMK AO2
     T01470020=
KVBW 220055Z AUTO 31003KT 10SM CLR 07/01 A3013 RMK AO1
     T00690007=
KVHN 220055Z AUTO 25008KT 10SM CLR 23/07 A3001 RMK AO2
     T02260068=
KVTP 220055Z AUTO 24014G19KT 10SM CLR 06/M11 A3006 RMK AO2=
KVVS 220055Z AUTO 09003KT 10SM CLR 09/01 A3006 RMK AO2
     T00850011=
KVYS 220055Z AUTO 18010KT 10SM CLR 17/04 A2971 RMK AO2
     T01740042=
KIDP 220055Z AUTO 17013G18KT 10SM CLR 25/06 A2969 RMK AO2
     T02470056=
KIIY 220055Z AUTO 00000KT 10SM CLR 10/02 A3013 RMK AO2
     T01020024=
KIYA 220055Z AUTO 15004KT CLR 18/12 A3005 RMK AO2 T01780121
     PWINO=
KJCA 220055Z AUTO 00000KT 10SM CLR 10/02 A3013 RMK AO2
     T01000015=
KJDD 220055Z AUTO 17005KT 10SM CLR 23/11 A2987 RMK AO2=
KJMS 220056Z AUTO 03004KT 6SM HZ FEW120 09/M02 A2953 RMK AO2
     SLP009 T00941017=
KJXN 220056Z 18011G20KT 10SM CLR 17/03 A2981 RMK AO2 SLP095
     T01720033=
KLCK 220055Z AUTO 15005KT 10SM CLR 12/01 A2999 RMK AO2
     T01170008=
KLHB 220055Z AUTO 16005KT 10SM CLR 24/10 A2992 RMK AO2
     T02400103=
KLHM 220055Z AUTO 16007KT 10SM CLR 25/07 A2972 RMK AO1=
KLNN 220055Z AUTO 20011G16KT 10SM CLR 15/M02 A2992 RMK AO1
     T01501025=
KLUA 220055Z AUTO 00000KT 10SM CLR 08/01 A3012 RMK AO2=
KLUD 220055Z AUTO 17007KT 7SM CLR 26/02 A2980 RMK AO2
     T02610022=
KLUL 220055Z AUTO 18007KT 10SM CLR 20/11 A3005 RMK A02
     T02050113=
KMDD 220055Z AUTO 18007KT 10SM CLR 22/07 A2987 RMK AO2
     T02240075=
KMGR 220055Z AUTO 00000KT 10SM CLR 12/05 A3012 RMK AO2=
