SAPA31 KWBC 220100 RRE
METAR
AYPY 220100Z 30010KT 9999 SCT035 31/24 Q1009=
PKWA 220120Z AUTO 10011KT 10SM CLR 31/24 A2975 RMK AO2
     T03110243=
