SAUS70 KWBC 212338 RRH
METAR
KI74 212335Z AUTO 19004KT 10SM CLR 13/01 A2994 RMK AO2=
KIER 212335Z AUTO 20005KT 10SM CLR 25/13 A2993 RMK AO2
     T02490128=
KIFA 212335Z AUTO 00000KT 7SM CLR 17/01 A2963 RMK AO2
     T01740011=
KIGQ 212335Z AUTO 19010KT 10SM CLR 19/05 A2973 RMK AO2
     T01940048=
KIMS 212335Z AUTO 15005KT 10SM CLR 16/01 A2997 RMK AO2=
KINJ 212335Z AUTO 17013KT 10SM CLR 29/09 A2984 RMK AO2
     T02900090=
KIOB 212335Z AUTO 19005KT 10SM CLR 14/01 A3002 RMK AO2 PWINO=
KJAU 212335Z AUTO 00000KT 10SM CLR 12/02 A3010 RMK A01=
KJPX 212335Z AUTO 20005KT 10SM CLR 13/07 A3015 RMK AO2
     T01300072=
KJTC 212335Z AUTO 27013G20KT 10SM CLR 19/M02 A3012 RMK AO2=
KJWG 212335Z AUTO 19013G24KT 10SM CLR 29/02 A2970 RMK AO2
     T02870018=
KJWY 212335Z AUTO 18009KT 10SM CLR 29/10 A2984 RMK AO2
     T02860095=
KJYL 212335Z AUTO 00000KT 10SM CLR 12/06 A3011 RMK AO2
     T01220057=
KK70 212335Z AUTO 02007G13KT 10SM FEW040 FEW049 OVC055 24/21 A2993
     RMK AO2=
KLCG 212335Z AUTO 11003KT 10SM CLR 16/M02 A2959 RMK AO2
     T01551016=
KLNA 212335Z AUTO 33007KT 10SM SCT055 23/19 A2996 RMK AO2
     T02300193 PNO=
KLNC 212335Z AUTO 17010G15KT 10SM CLR 29/07 A2983 RMK AO2
     T02860071=
KLNP 212335Z AUTO 19003KT 10SM CLR 10/00 A3010 RMK AO2=
KLNQ 212335Z AUTO 00000KT 10SM CLR 20/11 A3009 RMK AO2
     T02010107=
KLUA 212335Z AUTO 20003KT 10SM CLR 10/00 A3011 RMK AO2=
KLUG 212335Z AUTO 18003KT 10SM CLR 17/06 A3000 RMK A01=
KSVC 212335Z AUTO 30012KT 10SM CLR 24/07 A3006 RMK AO2
     T02350067=
KSVH 212335Z AUTO 00000KT 10SM CLR 11/04 A3011 RMK AO2
     T01120039=
KSWW 212335Z AUTO 22012KT 10SM CLR 28/04 A2986 RMK AO2
     T02770041=
KSXU 212335Z AUTO 27019G28KT 10SM CLR 23/M01 A2985 RMK AO2
     T02301013=
KSYF 212335Z AUTO 16010KT 10SM CLR 20/M05 A2967 RMK AO2 T02041050
     PWINO=
KSYI 212335Z AUTO 14005KT 10SM CLR 18/03 A3001 RMK A01=
KSZT 212335Z AUTO 21006KT 7SM RA BKN010 OVC016 03/03 A2966 RMK
     AO2=
KSZY 212335Z AUTO 17007KT 10SM CLR 21/10 A2995 RMK A01=
KT89 212335Z AUTO 15006KT 10SM CLR 29/08 A2990 RMK A01=
KTBX 212335Z AUTO 10SM CLR 14/M08 A2977 RMK AO2=
KTDF 212335Z AUTO 00000KT 10SM CLR 08/03 A3015 RMK AO2=
KTHA 212335Z AUTO 16004KT 10SM CLR 17/02 A3002 RMK A01=
KTNU 212335Z AUTO 29003KT 9SM CLR 23/01 A2960 RMK A01=
KTQH 212335Z AUTO 16004KT 10SM CLR 26/00 A2977 RMK AO2=
KTQV 212335Z AUTO 11006KT 10SM CLR 17/M01 A3013 RMK A01=
KTYL 212335Z AUTO 20012KT 10SM CLR 21/03 A3006 RMK AO2=
KU68 212335Z AUTO 25006KT 10SM BKN120 20/M03 A2950 RMK AO2=
KUCY 212335Z AUTO 16007KT 10SM CLR 20/09 A2988 RMK A01=
KUSE 212335Z AUTO 20008KT 10SM CLR 18/02 A2983 RMK AO2=
KUVA 212335Z AUTO 20006KT 10SM CLR 26/10 A2994 RMK AO2
     T02640095=
KUXL 212335Z AUTO 18007KT 10SM CLR 22/15 A3001 RMK AO2
     T02210145=
KVCV 212335Z AUTO 00000KT 10SM CLR 28/M04 A2990 RMK AO2=
KXLL 212335Z AUTO 00000KT 10SM CLR 11/02 A3014 RMK AO2=
KY31 212335Z AUTO 19005KT 10SM CLR 16/03 A2967 RMK AO2
     T01640027=
PAAD 212335Z AUTO 10021KT 10SM OVC012 M04/M06 A2986 RMK AO2
     T10431058=
PAUT 212335Z AUTO 19010KT 10SM BKN009 OVC120 06/05 A3010 RMK
     AO2=
KBTN 212335Z AUTO 16006KT 5SM HZ CLR 14/M00 A2954 RMK AO2=
KOAR 212335Z AUTO 27010G14KT 10SM OVC009 05/00 A2990 RMK AO2
     PWINO=
K14Y 212335Z AUTO 00000KT 10SM CLR 11/00 A2961 RMK AO2=
K1P1 212335Z AUTO 00000KT 10SM CLR 03/01 A3012 RMK AO2
     T00320010=
K2P2 212335Z AUTO 18003KT 10SM CLR 10/10 A2957 RMK AO2
     T01000100=
K5H4 212335Z AUTO 26004KT 10SM FEW055 OVC070 10/07 A2955 RMK
     AO2=
K7L2 212335Z AUTO 09004KT 7SM BKN120 14/M00 A2952 RMK AO2=
