SAUS70 KWBC 220200 RRN
METAR
KHIO 220153Z 00000KT 2SM BR BKN006 OVC036 09/09 A2964 RMK AO2
     RAB24E53 SLP039 P0000 T00890089=
KLOL 220153Z AUTO 26015KT 10SM CLR 22/M04 A2978 RMK AO2 SLPNO
     T02221044 $=
KMMV 220153Z AUTO 15006KT 3SM -RA BR OVC004 09/08 A2964 RMK AO2
     SLP037 P0002 T00890083=
KONO 220153Z AUTO 00000KT 10SM CLR 17/03 A2958 RMK AO2 SLP017
     T01720028=
KPIH 220153Z 20010KT 10SM CLR 16/M04 A2967 RMK AO2 SLP022
     T01611044=
KPUC 220153Z AUTO 02010KT 10SM CLR 12/M05 A2988 RMK AO2 SLP110
     T01171050=
KPUW 220153Z AUTO 12006KT 4SM -RA BR SCT009 BKN013 OVC022 05/04
     A2966 RMK AO2 SLP050 P0009 T00500044=
KSMF 220153Z 18013KT 10SM BKN200 19/11 A2973 RMK AO2 SLP067
     T01940111=
KSRR 220155Z AUTO 14006KT 10SM 14/02 A3009 RMK AO2=
KTTD 220153Z 08004KT 2 1/2SM BR OVC019 11/08 A2965 RMK AO2
     RAB0054E26 SLP041 P0002 T01060083=
KTVY 220155Z AUTO 16008KT 10SM CLR 13/M04 A2974 RMK AO2=
KVUO 220153Z AUTO 14007KT 10SM -RA FEW008 OVC020 10/08 A2966 RMK
     AO2 RAE02B46 SLP043 P0000 T01000083=
K20U 220155Z AUTO 31005KT 10SM FEW044 OVC060 08/08 A2956 RMK
     AO2=
K6L4 220155Z AUTO 00000KT 10SM CLR 12/01 A3007 RMK AO2=
KADG 220153Z AUTO 22013KT 10SM CLR 16/02 A2987 RMK AO2 SLP116
     T01560022=
KAGC 220153Z 18004KT 10SM CLR 13/M02 A3005 RMK AO2 SLP182
     T01281017=
KAMN 220155Z AUTO 17006KT 10SM CLR 14/04 A2974 RMK AO2
     T01420036=
KBGM 220153Z AUTO 19005KT 10SM CLR 08/M04 A3009 RMK AO2 SLP197
     T00831039=
KBKL 220153Z 16015G22KT 10SM CLR 16/01 A2993 RMK AO2 SLP134
     T01560011=
KDET 220153Z 20015G25KT 9SM CLR 18/03 A2985 RMK AO2 SLP107
     T01830028=
KDKK 220153Z AUTO 18019G27KT 10SM CLR 14/M01 A2996 RMK AO2 PK WND
     18031/0108 SLP146 T01441011=
KDRM 220155Z AUTO 00000KT 10SM CLR 06/06 A2965 RMK AO2
     T00640058=
KDYL 220154Z AUTO 20004KT 10SM CLR 08/02 A3016 RMK AO2 SLP216
     T00780022=
KFWN 220153Z AUTO 00000KT 10SM CLR 04/02 A3016 RMK AO2 SLP216
     T00440022=
KGKJ 220153Z AUTO VRB03KT 10SM CLR 12/M01 A3001 RMK AO2 SLP165
     T01171006=
KPEO 220153Z AUTO 20010KT 10SM CLR 11/M01 A3004 RMK AO2 SLP175
     T01111011=
KSEG 220153Z AUTO 00000KT 10SM CLR 02/01 A3015 RMK AO2 SLP213
     T00170006=
KBYS 220155Z AUTO 17007KT 10SM CLR 23/M05 A2980 RMK AO2 SLP076
     T02261054=
K6S2 220155Z AUTO 20009G16KT 5SM BR OVC002 13/13 A2976 RMK AO2
     P0002=
KBCE 220153Z AUTO 25014KT 10SM CLR 11/M07 A3005 RMK AO2 SLP122
     T01061072=
KBOI 220153Z 06005KT 10SM BKN090 OVC110 18/02 A2962 RMK AO2 SLP016
     T01780017=
KELN 220153Z AUTO 30012KT 10SM SCT048 BKN100 BKN120 09/01 A2962
     RMK AO2 SLP032 T00890011=
KHHR 220153Z 26008KT 10SM OVC010 20/16 A2985 RMK AO2 SLP108
     T02000161 $=
KLVK 220153Z 29008KT 9SM CLR 15/11 A2981 RMK AO2 SLP093
     T01500111=
KOMK 220153Z AUTO 01007KT 10SM FEW045 OVC085 09/05 A2961 RMK AO2
     SLP032 T00890050=
KPAE 220153Z 05005KT 9SM -RA BKN007 08/06 A2970 RMK AO2 SLP059
     P0004 T00780061=
KRBG 220153Z AUTO 00000KT 10SM BKN050 OVC110 17/12 A2976 RMK AO2
     RAB20E32 SLP076 P0000 T01670122=
K14Y 220155Z AUTO 15003KT 7SM CLR 07/00 A2960 RMK AO2=
K21D 220155Z AUTO 00000KT 10SM CLR 07/01 A2964 RMK AO2=
K4I3 220155Z AUTO 16005KT 10SM CLR 11/01 A3000 RMK AO2=
KACQ 220155Z AUTO 13004KT 10SM CLR 07/01 A2965 RMK AO2=
KAIT 220155Z AUTO 00000KT 10SM CLR 05/02 A2959 RMK AO2=
KAUW 220154Z AUTO 00000KT 8SM CLR 09/03 A2964 RMK AO2 SLP046
     T00940033 $=
KBWI 220154Z 00000KT 10SM CLR 08/03 A3016 RMK AO2 SLP212 T00830028
     $=
KCKB 220153Z 00000KT 10SM CLR 08/01 A3007 RMK AO2 SLP181
     T00830011=
KCOQ 220155Z AUTO 00000KT 10SM CLR 07/00 A2960 RMK AO2 TSNO=
