SAUS80 KWBC 212342
METAR
K9V9 212335Z AUTO 15006KT 10SM CLR 15/02 A2955 RMK AO2
     T01510017=
KCBE 212335Z AUTO 21003KT 10SM CLR 13/M01 A3011 RMK AO2
     T01321005=
KGIC 212335Z AUTO 22006KT 7SM OVC036 06/04 A2971 RMK AO1 P0003=
KSFY 212342Z AUTO 15004KT 10SM CLR 16/03 A2964 RMK AO2=
KCKP 212335Z AUTO 10006KT 10SM CLR 16/00 A2960 RMK AO2
     T01600002=
KIZA 212335Z AUTO 27010KT 10SM CLR 22/12 A2986 RMK AO2=
KPSN 212335Z AUTO 18006KT 10SM CLR 27/09 A2986 RMK AO2=
