SAUS70 KWBC 220240 RRI
METAR
KPLU 220235Z AUTO 00000KT 3SM RA FEW003 OVC039 08/08 A2967 RMK
     AO2=
KPMU 220235Z AUTO 16008KT 10SM CLR 20/10 A2995 RMK AO2=
KPNA 220235Z AUTO 23008KT 10SM CLR 10/M08 A2980 RMK AO2=
KPNT 220235Z AUTO 18015KT 10SM CLR 16/07 A2977 RMK AO2
     T01640065=
KPOY 220235Z AUTO 26017G25KT 10SM BKN095 16/M06 A2951 RMK AO2=
KPPQ 220235Z AUTO 17010KT 10SM CLR 20/03 A2975 RMK AO2
     T01960034=
KRCR 220235Z AUTO 19012G19KT 10SM CLR 17/03 A2985 RMK AO2=
KRCV 220235Z AUTO 28012G18KT 10SM CLR 11/M06 A3000 RMK AO2
     T01111056=
KRDK 220235Z AUTO 00000KT CLR 08/01 A2960 RMK AO2=
KREG 220235Z AUTO 19006KT 10SM CLR 19/15 A3008 RMK AO2
     T01860150=
KSUT 220235Z AUTO 00000KT 10SM BKN042 OVC049 16/10 A3015 RMK AO2
     T01610097=
