SASA31 KWBC 220200 RRB
METAR
SKCG 220200Z VRB02KT 9999 SCT017 SCT200 29/25 Q1011 RMK A2985=
