SAUS70 KWBC 220244 RRB
METAR
KHEQ 220235Z AUTO 20009KT 10SM CLR 13/M05 A2964 RMK AO2=
KHSG 220230Z AUTO 24019G24KT 10SM CLR 18/M06 A2955 RMK AO2
     T01761060=
KHVE 220235Z AUTO 17006KT 10SM CLR 18/M04 A2983 RMK AO2=
KMMH 220235Z AUTO 23005G15KT 10SM CLR 13/M09 A3004 RMK AO2=
KOSA 220230Z AUTO 16005KT 10SM CLR 19/12 A2988 RMK AO2
     T01860116=
KOZA 220235Z AUTO 19008KT 10SM CLR 20/09 A2996 RMK AO2=
KPEQ 220235Z AUTO 21008KT 10SM CLR 19/10 A2989 RMK AO2
     T01940095=
KPPA 220235Z AUTO 20009KT 10SM CLR 17/02 A2972 RMK AO2
     T01730023=
KPVW 220230Z AUTO 23007KT 10SM CLR 18/01 A2980 RMK AO2
     T01760011=
KSLR 220230Z AUTO 18007KT 10SM CLR 23/10 A2988 RMK AO2
     T02320102=
KT35 220235Z AUTO 18013G17KT 10SM CLR 23/12 A2992 RMK AO2
     T02280118=
KTMK 220235Z AUTO 21015G22KT 10SM BKN015 OVC022 15/12 A2960 RMK
     AO2=
KTRK 220235Z AUTO 21008KT 10SM CLR 14/M04 A2999 RMK AO2=
KXBP 220235Z AUTO 16010KT 10SM CLR 24/04 A2982 RMK AO2
     T02400041=
KOAR 220235Z AUTO 27008KT 10SM OVC011 03/00 A2988 RMK AO2
     PWINO=
KOSC 220235Z AUTO 21009KT 10SM CLR 14/05 A2971 RMK AO2
     T01440047=
KEVM 220242Z AUTO 00000KT 10SM CLR 04/02 A2961 RMK AO2=
KJSV 220242Z AUTO RMK AO2 PWINO TSNO=
