SAUS70 KWBC 220000 RRA
METAR
KAVX 212351Z AUTO 24007KT 9SM CLR 17/14 A2989 RMK AO2 SLP100
     T01720139 10239 20172 56013=
KBAZ 212351Z AUTO 18010KT 10SM CLR 27/09 A2990 RMK AO2 SLP118
     T02670094 10306 20267 56007=
KBED 212351Z 18007KT 10SM CLR 12/05 A3013 RMK AO2 SLP217 T01170050
     10178 20100 53017=
KBGD 212351Z AUTO 20008KT 10SM CLR 27/M05 A2970 RMK AO2 SLP021
     T02671050 10306 20261 56009=
KBHK 212351Z AUTO 34010KT 10SM SCT120 12/04 A2954 RMK AO2 SLP006
     T01220039 10222 20122 53018=
KCLE 212351Z 18011KT 10SM CLR 16/00 A2991 RMK AO2 SLP145 T01610000
     10200 20161 53016=
KCMH 212351Z 17006KT 10SM SCT250 16/01 A2997 RMK AO2 SLP150
     T01560006 10206 20156 53008=
KCSG 212351Z 00000KT 10SM CLR 17/04 A3009 RMK AO2 SLP189 T01670039
     10222 20167 53008=
KDAW 212351Z AUTO 00000KT 10SM CLR 09/05 A3013 RMK AO2 SLP202
     T00940050 10167 20094 51014=
KERI 212351Z 17013G21KT 10SM CLR 14/00 A2994 RMK AO2 SLP140
     T01440000 10189 20144 53014=
KEST 212352Z AUTO 08005KT 8SM CLR 15/03 A2962 RMK AO2 SLP030
     T01500028 10217 20150 51001=
KEWR 212351Z 16004KT 10SM CLR 14/06 A3014 RMK AO2 SLP205 T01440056
     10194 20144 53010=
KGPM 212350Z 17007KT 10SM SKC 28/07 A2982=
KHDO 212351Z AUTO 20008KT 10SM CLR 26/10 A2992 RMK AO2 SLP120
     T02560100 10294 20250 56009=
KHOB 212350Z 23005KT 10SM SKC 24/06 A2988=
KILG 212351Z 18006KT 10SM CLR 12/03 A3015 RMK AO2 SLP210 T01220033
     10183 20122 53010=
KJCT 212351Z AUTO 20008KT 10SM CLR 26/07 A2991 RMK AO2 SLP100
     T02610072 10300 20261 56004=
KJFK 212351Z 18008KT 10SM CLR 13/06 A3016 RMK AO2 SLP212 T01330061
     10178 20122 53009=
KLGA 212351Z 17006KT 10SM CLR 14/04 A3014 RMK AO2 SLP207 T01390044
     10178 20139 53011=
KMPV 212351Z AUTO 16004KT 10SM CLR 08/M02 A3011 RMK AO2 SLP205
     T00781022 10144 20078 53010=
KORD 212351Z 20011KT 10SM FEW300 22/03 A2969 RMK AO2 SLP053
     T02170028 10244 20206 53012=
KPHX 212351Z 28009KT 10SM FEW150 FEW250 31/09 A2978 RMK AO2 SLP069
     T03060089 10322 20278 56015=
KPIT 212351Z 16004KT 10SM CLR 13/M01 A3002 RMK AO2 SLP177
     T01281006 10172 20122 53008=
KPWM 212351Z 00000KT 10SM CLR 09/06 A3014 RMK AO2 SLP207 T00890056
     10144 20083 51015=
KRDU 212351Z 00000KT 10SM FEW250 11/04 A3014 RMK AO2 SLP205
     T01110039 10217 20111 53010=
KSJT 212351Z 19010G18KT 10SM CLR 27/08 A2985 RMK AO2 SLP093
     T02670078 10306 20267 56009=
KSLK 212351Z AUTO 00000KT 10SM CLR 03/M02 A3002 RMK AO2 SLP182
     T00281017 10139 20028 53014=
KSMO 212351Z 23007KT 10SM OVC010 20/16 A2984 RMK AO2 SLP104
     T02000161 10244 20200 56011=
KSPI 212352Z 18010KT 10SM CLR 21/03 A2976 RMK AO2 SLP075 T02110033
     10261 20211 51005=
KSTL 212351Z 16009KT 10SM BKN250 24/02 A2978 RMK AO2 SLP079
     T02390017 10289 20239 53004 $=
PABA 212352Z AUTO 09019KT 10SM OVC016 M03/M06 A2991 RMK AO2 SLP134
     6//// T10331056 11028 21033 51013 FZRANO PNO $=
KCHD 212347Z 00000KT 10SM CLR 31/09 A2981=
KJCT 212351Z AUTO 20008KT 10SM CLR 26/07 A2991 RMK AO2 SLP100
     T02610072 10300 20261 56004=
KPHX 212351Z 28009KT 10SM FEW150 FEW250 31/09 A2978 RMK AO2 SLP069
     T03060089 10322 20278 56015=
KSJT 212351Z 19010G18KT 10SM CLR 27/08 A2985 RMK AO2 SLP093
     T02670078 10306 20267 56009=
KSMO 212351Z 23007KT 10SM OVC010 20/16 A2984 RMK AO2 SLP104
     T02000161 10244 20200 56011=
KVNY 212351Z 16009KT 10SM CLR 27/14 A2982 RMK AO2 SLP090 T02670144
     10289 20239 56014 $=
K2J9 212355Z AUTO 00000KT 10SM FEW030 OVC038 13/06 A3010 RMK
     AO2=
K4R5 212355Z AUTO 00000KT 10SM SCT120 07/05 A2957 RMK AO2
     T00730051=
