SAUS70 KWBC 220138 RRI
METAR
KFYE 220135Z AUTO 16005KT 10SM CLR 19/11 A2993 RMK A01=
KFYM 220140Z AUTO 16008KT 10SM FEW030 SCT037 15/04 A3006 RMK
     A01=
KGAO 220135Z AUTO 00000KT 10SM CLR 13/11 A3010 RMK AO2
     T01250108=
KGCY 220135Z AUTO 00000KT 10SM CLR 09/02 A3009 RMK A01=
KGDJ 220135Z AUTO 17010KT 10SM CLR 26/06 A2984 RMK AO2
     T02600063=
KGGI 220135Z AUTO 10003KT 7SM CLR 14/03 A2965 RMK AO2
     T01350026=
KGHB 220135Z AUTO VRB04G11KT 8SM BKN045 23/14 A3007 RMK A01=
KGKT 220135Z AUTO 00000KT 10SM CLR 08/03 A3010 RMK A01=
KVOA 220140Z AUTO 12006KT 10SM BKN055 21/10 A3012 RMK A01=
KWBF 220135Z AUTO 00000KT 10SM 23/14 A3009 RMK A01=
KXLL 220135Z AUTO 00000KT 10SM CLR 07/02 A3016 RMK AO2=
KY31 220135Z AUTO 20003KT 10SM CLR 14/04 A2970 RMK AO2
     T01400035=
KY49 220135Z AUTO 00000KT 10SM BKN110 09/00 A2958 RMK AO2
     T00861001=
PAAD 220135Z AUTO 10019KT 10SM OVC010 M05/M06 A2988 RMK AO2
     T10461060=
PAUT 220135Z AUTO 16006KT 10SM SCT014 OVC090 06/05 A3003 RMK
     AO2=
KBTN 220130Z AUTO 16008KT 7SM FEW016 FEW027 BKN043 11/00 A2954 RMK
     AO2=
KOAR 220135Z AUTO 30005KT 7SM OVC011 03/00 A2988 RMK AO2 PWINO=
K05U 220135Z AUTO 23006KT 10SM 14/M12 A2989 RMK A01=
K0A0 220135Z AUTO 20009KT 10SM CLR 21/04 A2997 RMK AO2=
K0A9 220135Z AUTO 00000KT 9SM CLR 07/02 A3012 RMK A01=
K0F2 220135Z AUTO 17006KT 10SM CLR 24/04 A2979 RMK AO2
     T02350037=
K0R0 220135Z AUTO 17009KT 10SM CLR 19/11 A3009 RMK AO2=
K1A9 220135Z AUTO 00000KT 10SM CLR 11/08 A3010 RMK AO2
     T01050076=
K1K1 220135Z AUTO 19012KT 10SM CLR 25/M02 A2965 RMK AO2
     T02521021=
K1M5 220135Z AUTO 16008KT 10SM FEW041 FEW048 17/03 A2998 RMK
     A01=
K1V6 220135Z AUTO 27006KT 10SM CLR 17/M11 A2976 RMK AO2=
K2A0 220135Z AUTO 00000KT 10SM CLR 08/04 A3008 RMK A01=
K2G2 220135Z AUTO 00000KT 10SM FEW048 11/M01 A3003 RMK A01=
K2M2 220135Z AUTO 16006KT 10SM FEW030 FEW048 FEW055 16/10 A3001
     RMK A01=
K33N 220135Z AUTO 19004KT 10SM FEW032 FEW045 08/07 A3016 RMK
     A01=
K36K 220130Z AUTO 00000KT 10SM CLR 19/M08 A2968 RMK AO2=
K3I2 220135Z AUTO 00000KT 10SM CLR 08/02 A3006 RMK AO2
     T00810015=
K3J7 220135Z AUTO 00000KT 10SM CLR 12/00 A3013 RMK AO2=
K3LF 220135Z AUTO 16012KT 10SM CLR 18/04 A2982 RMK AO2
     T01750037=
K3S8 220135Z AUTO VRB04KT 10SM OVC100 18/12 A2983 RMK AO2=
K46U 220135Z AUTO 30007G12KT 10SM SCT001 SCT027 BKN035 14/M05
     A2975 RMK A01=
K4V0 220135Z AUTO 19008KT 10SM CLR 16/M06 A2982 RMK AO2
     T01581065=
K54A 220135Z AUTO 35006KT 10SM CLR 19/11 A3004 RMK AO2=
K57C 220135Z AUTO 18004KT 10SM CLR 19/04 A2968 RMK AO2
     T01850042=
K5T9 220135Z AUTO 13005KT 10SM CLR 20/12 A2990 RMK A01=
K65S 220135Z AUTO 22010KT 190V250 10SM SCT031 BKN042 OVC085 03/02
     A2958 RMK AO2=
K6A2 220135Z AUTO 00000KT 10SM CLR 07/03 A3013 RMK AO2=
K82V 220135Z AUTO 25009KT 10SM CLR 15/M12 A2970 RMK AO2=
K8A3 220135Z AUTO 19007KT 10SM CLR 15/01 A3004 RMK A01=
KAAS 220135Z AUTO 17006KT 10SM CLR 14/01 A3006 RMK AO1=
KACP 220135Z AUTO 19004KT 10SM CLR 21/14 A3002 RMK AO2=
KAEJ 220135Z AUTO 27007KT 10SM 12/M12 A2997 RMK AO2 T01221117=
KAGI 220135Z AUTO 12016G19KT 10SM CLR 23/13 A3006 RMK AO2
     T02340130=
KALX 220135Z AUTO 00000KT 10SM CLR 10/08 A3011 RMK AO2
     T00960083=
KS33 220135Z AUTO 06006KT 10SM -RA SCT005 BKN031 OVC055 09/08
     A2966 RMK AO2 P0001=
KSAR 220135Z AUTO 17006KT 10SM CLR 19/08 A2986 RMK AO2
     T01920080=
KSCD 220135Z AUTO 00000KT 10SM CLR 11/07 A3010 RMK AO2
     T01080070=
KSCX 220135Z AUTO 18004KT 10SM FEW034 SCT047 09/00 A3007 RMK
     A01=
KSEM 220135Z AUTO 14005KT 10SM BKN036 BKN044 12/10 A3008 RMK
     AO2=
