SAPA31 KWBC 220200 RRE
METAR
PKWA 220240Z AUTO 07011KT 10SM SCT042 SCT055 31/24 A2973 RMK AO2
     T03080244=
