SAKA31 PTPN 220200
METAR PTPN 220153Z 05010KT 15SM BKN018TCU BKN130 OVC300 30/26 A2978
RMK TCU SE-SW
