SAUS70 KWBC 220000 RRB
METAR
K8W2 212355Z AUTO 00000KT 10SM CLR 09/00 A3011 RMK AO1 T00900002
     10190 20090=
KARV 212355Z AUTO 00000KT 10SM CLR 10/03 A2961 RMK AO2 T00950030
     10176 20095=
KCCA 212355Z AUTO 00000KT 10SM CLR 19/10 A2985 RMK AO2=
KCDH 212355Z AUTO 00000KT 9SM CLR 20/14 A2988 RMK AO2=
KCPK 212355Z AUTO 00000KT 10/08 A3015 RMK AO2 T00980077 10201
     20096=
KDVP 212353Z AUTO 08004KT 10SM CLR 14/02 A2964 RMK AO2 T01440015
     10181 20144=
KFDW 212355Z AUTO 00000KT 10SM CLR 12/03 A3012 RMK AO1=
KGYY 212345Z 18007KT 10SM CLR 21/04 A2974=
KHFY 212355Z AUTO 18005KT 10SM CLR 17/03 A2990 RMK AO2 T01700030
     10237 20170=
KHXD 212350Z 00000KT 10SM CLR 12/07 A3011=
KIUA 212355Z AUTO 00000KT 10SM CLR 12/00 A2998 RMK AO2 T01150000
     10200 20115=
KIXA 212355Z AUTO 00000KT 10SM CLR 08/08 A3014 RMK AO2=
KJAQ 212355Z AUTO 27005KT 10SM CLR 27/06 A2985 RMK AO1 T02680058
     10281 20262=
KJHN 212355Z AUTO 24003KT 10SM CLR 25/M08 A2967 RMK AO2 T02461083
     10289 20244=
KLDJ 212355Z AUTO 00000KT 10SM CLR 13/04 A3014 RMK AO2 T01260041
     10181 20126=
KMDZ 212355Z AUTO 23003KT 10SM CLR 12/04 A2962 RMK AO2 T01190035
     10180 20116 PWINO=
KMHL 212355Z AUTO 17004KT 10SM CLR 21/02 A2969 RMK AO2=
KMRJ 212355Z AUTO 25003KT 10SM CLR 20/M01 A2963 RMK AO2=
KNQA 212350Z 14004KT 10SM CLR 20/10 A2989=
KORB 212353Z AUTO 00000KT 10SM CLR 11/01 A2954 RMK AO2=
KRAW 212355Z AUTO 18005KT 10SM CLR 23/01 A2972 RMK AO2=
KVER 212355Z AUTO 14007KT 10SM CLR 22/05 A2970 RMK AO2 T02190045
     10297 21045=
KWDG 212350Z 17017KT 10 SM SCT200 28/02 A2965=
