SAUS70 KWBC 220218 RRD
METAR
KEFK 220215Z AUTO 16004KT 10SM CLR 07/M02 A3009 RMK AO2
     T00731025=
KFFX 220215Z AUTO 21010KT 10SM CLR 19/06 A2972 RMK AO2
     T01860055=
KFGN 220215Z AUTO 26008KT 10SM OVC085 11/02 A2952 RMK A=
KFKA 220215Z AUTO 00000KT 7SM CLR 12/02 A2967 RMK AO2
     T01220020=
KFKS 220215Z AUTO 22005KT 10SM CLR 13/07 A2966 RMK AO2
     T01300072=
KFPK 220215Z AUTO 20010KT 10SM CLR 16/03 A2978 RMK AO2
     T01600030=
KFSO 220215Z AUTO 18010G19KT 10SM CLR 12/M02 A3004 RMK AO2
     T01221023=
KHAF 220215Z AUTO 15006KT 6SM BR OVC012 14/13 A2990 RMK AO2=
KHAI 220215Z AUTO 19010G15KT 10SM CLR 16/03 A2982 RMK AO2
     T01610034=
KHZL 220215Z AUTO 00000KT 10SM CLR 08/M01 A3018 RMK AO2=
KI23 220215Z AUTO 17005KT 10SM CLR 09/M00 A3000 RMK AO1=
KIRS 220215Z AUTO 21012G18KT 10SM CLR 16/01 A2982 RMK AO2
     T01600010=
KISQ 220215Z AUTO 00000KT 1 1/4SM BR SCT005 03/02 A2963 RMK AO2
     VIS 1/2V3 T00250024=
KJYM 220215Z AUTO 18007KT 10SM CLR 14/01 A2985 RMK AO2
     T01400010=
KLWA 220215Z AUTO 20008G16KT 10SM CLR 19/02 A2977 RMK AO2
     T01920020=
KLXL 220215Z AUTO 00000KT 10SM CLR 06/02 A2960 RMK AO2=
KMCD 220215Z AUTO 29005KT 10SM CLR 09/07 A2966 RMK AO2
     T00940068=
KMWM 220215Z AUTO 00000KT 10SM CLR 06/00 A2962 RMK AO2=
KOEB 220215Z AUTO 20008KT 10SM CLR 16/03 A2984 RMK AO2
     T01610028=
K10G 220215Z AUTO 20005KT 10SM CLR 12/M01 A3001 RMK AO2=
K1P1 220215Z AUTO 00000KT 10SM CLR 01/00 A3016 RMK AO2
     T00080000=
K20U 220215Z AUTO 33005KT 10SM BKN065 OVC075 07/07 A2956 RMK
     AO2=
K21D 220215Z AUTO 00000KT 10SM CLR 06/01 A2964 RMK AO2=
K2P2 220215Z AUTO 00000KT 10SM CLR 06/06 A2962 RMK AO2
     T00560056=
K3D2 220215Z AUTO 26003KT 10SM CLR 14/05 A2963 RMK AO2
     T01370051=
K6L4 220215Z AUTO 00000KT 10SM CLR 12/01 A3008 RMK AO2=
KACQ 220215Z AUTO 10003KT 7SM CLR 06/01 A2965 RMK AO2=
KAIT 220215Z AUTO 00000KT 10SM CLR 05/02 A2960 RMK AO2=
KAUM 220215Z AUTO 00000KT 7SM CLR 09/03 A2966 RMK AO2=
KBAC 220215Z AUTO 00000KT 9SM BKN095 OVC120 10/02 A2955 RMK
     AO2=
KCOQ 220215Z AUTO 00000KT 10SM CLR 06/01 A2959 RMK AO2 TSNO=
KD25 220215Z AUTO 00000KT 10SM CLR 02/02 A2964 RMK AO2
     T00230023=
KD95 220215Z AUTO 20010KT 10SM CLR 17/M02 A2981 RMK AO2
     T01741020=
KDLZ 220215Z AUTO 18008KT 10SM CLR 12/00 A2998 RMK AO2=
KDRM 220215Z AUTO 00000KT 10SM CLR 07/05 A2965 RMK AO2
     T00730052=
KDXX 220215Z AUTO 13004KT 10SM CLR 09/01 A2960 RMK AO2=
KDYT 220215Z AUTO 19004KT 10SM 10/03 A2960 RMK AO2=
KFBL 220215Z AUTO 00000KT 10SM CLR 06/02 A2964 RMK AO2=
KFFM 220215Z AUTO 16005KT 10SM CLR 11/01 A2956 RMK AO2=
KGWR 220215Z AUTO 00000KT 8SM BKN022 OVC047 09/01 A2955 RMK
     A01=
KGYL 220215Z AUTO 00000KT 7SM CLR 09/02 A2962 RMK AO2
     T00940015=
KLBE 220215Z AUTO 00000KT 10SM CLR 05/01 A3008 RMK AO2=
KMCX 220235Z AUTO 18008KT 10SM CLR 17/01 A2985 RMK AO2
     T01680011=
KRID 220235Z AUTO 17008KT 10SM CLR 07/01 A2997 RMK AO2=
KTWM 220215Z AUTO 29003KT 10SM CLR 08/02 A2959 RMK AO2=
KUKT 220215Z AUTO 00000KT 10SM CLR 05/03 A3018 RMK A01=
KY63 220215Z AUTO 14005KT 10SM CLR 11/01 A2958 RMK AO2
     T01090005=
K2D5 220215Z AUTO 15007KT 5SM HZ OVC021 10/00 A2955 RMK AO2=
K46D 220215Z AUTO 03003KT 10SM FEW043 SCT049 BKN075 10/03 A2957
     RMK AO2=
K6B9 220215Z AUTO 20010G15KT 10SM FEW049 12/M02 A3004 RMK AO2=
K96D 220215Z AUTO 30005KT 10SM OVC070 09/08 A2957 RMK AO2=
KAIG 220215Z AUTO 00000KT 10SM CLR 06/03 A2966 RMK AO2
     T00630026=
KBWW 220215Z AUTO 02006KT 10SM OVC110 11/03 A2955 RMK AO2=
KCFJ 220215Z AUTO 17008KT 10SM CLR 12/M01 A2988 RMK AO2
     T01201013=
