SAUS80 KWBC 220224
METAR
KCUL 220213Z AUTO 17006KT 10SM CLR 14/05 A2990 RMK AO2=
KDVK 220210Z AUTO 00000KT 10SM CLR 08/01 A3004 RMK AO2=
KM25 220235Z AUTO 19005KT 10SM CLR 18/09 A2994 RMK AO2 PWINO=
KNY0 220214Z AUTO 16005KT 10SM CLR 07/M02 A3011 RMK AO2=
