SAUS70 KWBC 220000
METAR
KGAF 212355Z AUTO 25005KT 9SM SCT090 12/01 A2952 RMK AO2=
KGPH 212355Z AUTO 17006KT 10SM CLR 26/01 A2964 RMK AO2=
KW63 212355Z AUTO 00000KT 10SM CLR 10/06 A3013 RMK AO1=
