SASA41 KWBC 220200
METAR
SEMT NIL=
SEPA NIL=
SKBG NIL=
SKMD NIL=
SKPE NIL=
SKSM NIL=
SKVG NIL=
SMJP 220200Z 05002KT CAVOK 26/24 Q1010 NOSIG=
