SAUS70 KWBC 220200 RRH
METAR
PPIZ 220156Z AUTO 07007KT 10SM BKN043 OVC050 M03/M04 A2972 RMK AO2
     SLP068 T10281039 FZRANO=
KART 220156Z AUTO 18009G23KT 10SM CLR 13/M02 A2999 RMK AO2 SLP155
     T01331017=
KCKV 220152Z AUTO 17005KT 10SM CLR 19/07 A2996 RMK AO2 SLP144
     T01890067=
KCTB 220156Z AUTO 14005KT 10SM OVC005 03/03 A2953 RMK AO2 CIG
     004V008 SLP011 T00330033=
KFFZ 220154Z 30005KT 10SM CLR 28/09 A2982 RMK AO2 SLP075
     T02830094=
KHPN 220156Z 00000KT 10SM CLR 08/04 A3016 RMK AO2 SLP216 T00780044
     $=
KISP 220156Z 00000KT 10SM CLR 08/06 A3018 RMK AO2 SLP218
     T00780061=
KIWA 220158Z 27006KT 10SM CLR 27/11 A2983=
KOLM 220154Z 00000KT 3SM RA BR OVC055 07/07 A2968 RMK AO2 SLP053
     P0011 T00720067 $=
KROG 220158Z 10SM CLR 19/06 A2982 RMK AO2 SLP091 T01890056 $=
KWHP 220150Z 00000KT 10SM SKC 22/15 A2989 RMK OBSERVER HT=
K5SM 220155Z AUTO 24014G21KT 10SM CLR 02/M11 A3014 RMK AO2=
K81R 220155Z AUTO 18008KT 10SM CLR 24/09 A2990 RMK AO2
     T02350086=
KASL 220155Z AUTO 00000KT 10SM CLR 20/12 A2990 RMK AO2 T02000116
     TSNO $=
KBPG 220155Z AUTO 18009KT 10SM CLR 21/06 A2986 RMK AO2
     T02100060=
KCEC 220156Z AUTO 16007KT 6SM HZ OVC016 14/11 A2989 RMK AO2
     RAB03E41 SLP122 P0002 T01390111=
KE42 220155Z AUTO 20011KT 10SM CLR 19/M04 A2968 RMK AO2
     T01901043=
KEKO 220156Z AUTO 21009KT 10SM CLR 17/M07 A2978 RMK AO2 RAE31
     SLP066 P0000 T01671072=
KJDD 220155Z AUTO 17004KT 10SM CLR 23/11 A2988 RMK AO2=
KOLM 220154Z 00000KT 3SM RA BR OVC055 07/07 A2968 RMK AO2 SLP053
     P0011 T00720067 $=
KPSO 220155Z AUTO 00000KT 10SM TS CLR 06/M04 A3007 RMK AO2
     T00641036=
KRAS 220155Z AUTO 15014G18KT 10SM CLR A3000 RMK AO2=
KRWV 220155Z AUTO 18011KT 10SM CLR 23/14 A2995 RMK AO2
     T02300139=
KRYW 220155Z AUTO 18008KT 10SM CLR 23/09 A2995 RMK AO2
     T02270091=
KSLE 220156Z 18006KT 10SM OVC008 12/11 A2965 RMK AO2 CIG 006V011
     SLP040 T01170106=
KSTK 220155Z AUTO 21005KT 10SM CLR 13/M05 A2964 RMK AO2=
KT41 220155Z AUTO 10SM CLR 22/15 A3002 RMK AO2 T02160149=
KT74 220155Z AUTO 17006KT 10SM CLR 20/10 A2993 RMK AO2
     T02050102=
KVHN 220155Z AUTO 22005KT 10SM CLR 19/08 A3003 RMK AO2
     T01930078=
K2R9 220155Z AUTO 15013KT 10SM CLR 22/15 A2997 RMK AO2
     T02170146=
K7BM 220155Z AUTO 30009G18KT 220V350 10SM CLR 08/M11 A3004 RMK
     AO2=
KC07 220155Z AUTO 26009KT 240V300 10SM CLR 03/M08 A3007 RMK
     AO2=
KEED 220156Z AUTO 24008KT 10SM CLR 28/05 A2977 RMK AO2 SLP055
     T02830050=
KEMM 220155Z AUTO 10SM CLR 11/M12 A2984 RMK AO2=
KLHB 220155Z AUTO 00000KT 10SM CLR 23/12 A2994 RMK AO2
     T02300119=
KLHM 220155Z AUTO 16009KT 10SM CLR 22/07 A2972 RMK AO1=
KLUD 220155Z AUTO 17010KT 10SM CLR 25/05 A2981 RMK AO2
     T02460052=
KMDD 220155Z AUTO 18006KT 10SM CLR 22/07 A2988 RMK AO2
     T02150072=
KMNH 220155Z AUTO 28005KT 10SM CLR 10/M14 A2987 RMK AO2=
KPEZ 220155Z AUTO 14005KT 10SM CLR 23/11 A2996 RMK AO2
     T02250111=
KSAA 220155Z AUTO 21007KT 10SM CLR 09/M11 A2985 RMK AO2=
KTEX 220155Z AUTO 00000KT 10SM CLR 08/M10 A3012 RMK AO2=
KTPH 220156Z AUTO 23009KT 10SM CLR 17/M07 A2991 RMK AO2 SLP098
     T01671072=
KUKI 220156Z AUTO 36006KT 10SM CLR 21/08 A2981 RMK AO2 PK WND
     32026/0105 SLP091 T02060083=
KBQX 220155Z AUTO 16017G22KT 10SM 24/14 A3002 RMK A01=
KDSF 220155Z AUTO 06007KT 10SM CLR 22/13 A3011 RMK A01=
KEBG 220155Z AUTO 15010G14KT 10SM CLR 23/17 A2998 RMK AO2
     T02310170 PWINO=
KGLX 220155Z AUTO 06011KT 10SM CLR 22/13 A3011 RMK A01=
KLAS 220156Z 21004KT 10SM FEW220 27/02 A2979 RMK AO2 SLP070
     T02670017=
