SAUS70 KWBC 220100 RRF
METAR
KMJQ 220055Z AUTO 09004KT 7SM CLR 10/01 A2965 RMK AO2=
KMKS 220055Z AUTO 00000KT 10SM CLR 09/07 A3013 RMK AO2=
KMNH 220055Z AUTO 32004KT 10SM CLR 11/M13 A2986 RMK AO2=
KMPR 220055Z AUTO 14008KT 10SM CLR 22/01 A2960 RMK AO2
     T02210008=
KMWA 220055Z AUTO 20003KT 10SM CLR 17/07 A2989 RMK AO2
     T01740072=
KMWK 220055Z AUTO 00000KT 10SM CLR 07/03 A3017 RMK AO2
     T00740030=
KMWO 220055Z AUTO 25004KT 10SM CLR 10/01 A2997 RMK AO2
     T01000013=
KMZZ 220055Z AUTO 19009KT 10SM CLR 16/02 A2989 RMK AO2
     T01560022=
KOEL 220055Z AUTO 05006KT 10SM CLR 16/M12 A2966 RMK AO1
     T01631116=
KOLM 220054Z 27003KT 4SM -RA BR OVC050 07/07 A2971 RMK AO2 SLP062
     P0008 T00720067 $=
KOLY 220055Z AUTO 16006KT 10SM CLR 16/01 A2988 RMK AO2
     T01600013=
KONX 220055Z AUTO 00000KT 10SM CLR 11/08 A3016 RMK AO2
     T01090078=
KPCD 220055Z AUTO 13005KT 10SM CLR 18/09 A2985 RMK AO2
     T01830092=
KPEZ 220055Z AUTO 16004KT 10SM CLR 24/11 A2993 RMK AO2
     T02350105=
KPHN 220055Z AUTO 19005KT 10SM CLR 11/03 A2982 RMK AO2=
KZPH 220055Z AUTO 35003KT 10SM CLR 14/07 A3008 RMK A02
     T01400071=
K9D7 220055Z AUTO 32005KT 9SM BKN044 OVC065 08/06 A2957 RMK AO2
     TSNO=
KAIG 220055Z AUTO 25005KT 10SM CLR 09/03 A2965 RMK AO2
     T00910028=
KCKZ 220055Z AUTO 00000KT 10SM CLR 05/03 A3016 RMK AO2=
KD57 220055Z AUTO 05006KT 10SM OVC070 10/M02 A2950 RMK AO2=
KD60 220055Z AUTO 04005KT 10SM FEW033 BKN040 OVC045 05/05 A2957
     RMK AO2=
KEKM 220055Z AUTO 20007KT 10SM CLR 18/03 A2980 RMK AO2
     T01790033=
KGWR 220055Z AUTO 16006KT 8SM FEW019 BKN026 BKN034 12/01 A2955 RMK
     A01=
KI67 220055Z AUTO 00000KT 10SM CLR 13/00 A2996 RMK AO1=
KOEB 220055Z AUTO 18007KT 10SM CLR 17/03 A2981 RMK AO2
     T01700027=
KOKK 220056Z AUTO 19012KT 10SM CLR 17/02 A2988 RMK AO2 SLP118
     T01670022 PNO $=
KOXD 220055Z AUTO 00000KT 10SM CLR 17/M03 A2995 RMK AO2
     T01661030=
KPEX 220055Z AUTO 00000KT 10SM CLR 08/01 A2963 RMK AO2=
KPNM 220055Z AUTO 00000KT 10SM CLR 09/03 A2962 RMK AO2 TSNO=
KPVB 220055Z AUTO 13005KT 10SM CLR 19/01 A2966 RMK AO1
     T01860010=
KPVC 220056Z AUTO 20009KT 10SM CLR 13/09 A3019 RMK AO2 SLP221
     T01330089=
KRNP 220055Z AUTO 17008KT 10SM CLR 17/03 A2975 RMK AO2
     T01700026=
KRUT 220056Z AUTO 12010KT 10SM CLR 06/M01 A3010 RMK AO2 SLP197
     T00611011 $=
KSFM 220056Z AUTO 00=
PAWG 220056Z VRB06KT 10SM FEW018 BKN044 BKN060 06/06 A2973=
K06C 220055Z AUTO 20009G14KT 10SM CLR 20/08 A2971 RMK AO2
     T01960078=
K0CO 220055Z AUTO 29020G31KT 10SM CLR 00/M13 A3012 RMK AO2=
K0R4 220055Z AUTO 15009KT 10SM CLR 22/13 A2998 RMK AO2
     T02240128=
K1R8 220055Z AUTO VRB03KT 10SM FEW040 BKN048 16/08 A3009 RMK
     AO2=
K33V 220055Z AUTO 24011G14KT 10SM CLR 09/M09 A2994 RMK AO1=
K3K3 220055Z AUTO 00000KT 10SM CLR 17/M06 A2967 RMK AO2=
K49A 220055Z AUTO 00000KT 10SM CLR 10/03 A3014 RMK AO2
     T00970029=
K4O4 220055Z AUTO 15007KT 10SM CLR 22/10 A2985 RMK AO2=
K5M9 220055Z AUTO 17005KT 10SM CLR 18/07 A2991 RMK AO2
     T01830065=
K66R 220055Z AUTO 17009G14KT 10SM CLR 23/15 A2998 RMK AO2
     T02260150=
K74V 220055Z AUTO 27006KT 10SM 15/M08 A2983 RMK AO2=
KAAA 220055Z AUTO 18012KT 10SM CLR 19/05 A2976 RMK AO2
     T01870050=
KADU 220055Z AUTO 00000KT 7SM SCT007 SCT018 BKN080 06/M01 A2962
     RMK AO2=
KAFK 220055Z AUTO 00000KT 10SM CLR 20/00 A2959 RMK AO2
     T02000000=
KAIO 220055Z AUTO 01006KT 1 1/2SM HZ CLR 10/01 A2959 RMK AO2=
KAJG 220055Z AUTO 17006KT 10SM CLR 15/01 A2989 RMK AO2
     T01460013=
KAJR 220055Z AUTO 11003KT 7SM CLR 10/02 A3013 RMK AO2
     T01000021=
