SAUS70 KWBC 220018 RRK
METAR
KATS 220015Z AUTO 00000KT 10SM CLR 25/10 A2988 RMK AO2=
KBEA 220015Z AUTO 14009KT 10SM CLR 23/13 A2994 RMK AO2
     T02250133=
KBKS 220015Z AUTO 13009KT 9SM CLR 24/16 A2993 RMK AO2 SLP096
     T02420164 $=
KBVU 220015Z AUTO 17013KT 10SM CLR 29/02 A2980 RMK AO2=
KBXK 220015Z AUTO 00000KT 10SM CLR 30/11 A2980 RMK A01=
KCLS 220015Z AUTO VRB03KT 5SM -RA SCT015 SCT060 08/07 A2972 RMK
     AO2=
KCMR 220015Z AUTO 22007G13KT 10SM CLR 16/02 A3009 RMK AO2=
KCPT 220015Z AUTO 16012G18KT 10SM CLR 27/08 A2983 RMK A01=
KCVH 220015Z AUTO 26009G14KT 9SM CLR 16/11 A2988 RMK A01=
KDNA 220015Z AUTO 00000KT 10SM CLR 25/08 A2997 RMK AO2=
KF70 220015Z AUTO 21007KT 10SM CLR 24/15 A2985 RMK AO2=
KJAQ 220015Z AUTO 25006KT 10SM CLR 26/07 A2984 RMK AO1
     T02620065=
KJSO 220015Z AUTO 20005KT 10SM CLR 24/11 A2992 RMK AO2 T02430105
     TSNO=
KL18 220015Z AUTO 22005KT 10SM CLR 21/16 A2986 RMK AO2=
KPVF 220015Z AUTO 21004KT 10SM CLR 23/03 A2990 RMK AO1=
KSNK 220015Z AUTO 21006KT 10SM CLR 25/01 A2983 RMK AO2
     T02460012=
KSRR 220015Z AUTO 19004KT 10SM 15/02 A3008 RMK AO2=
KTVY 220015Z AUTO 18007KT 10SM CLR 21/M01 A2978 RMK AO2=
K6B9 220015Z AUTO 18008G17KT 150V210 10SM 12/M02 A3002 RMK AO2=
K82C 220015Z AUTO 00000KT 10SM CLR 11/04 A2963 RMK AO2
     T01050039=
K9D7 220015Z AUTO 31008KT 9SM BKN038 BKN045 OVC070 10/03 A2956 RMK
     AO2 TSNO=
KAIG 220015Z AUTO 24005KT 10SM CLR 09/03 A2963 RMK AO2
     T00940030=
KBAC 220015Z AUTO 18004KT 10SM CLR 12/01 A2955 RMK AO2=
KFFX 220015Z AUTO 21006KT 10SM CLR 17/04 A2969 RMK AO2
     T01730040=
KFKS 220015Z AUTO 22010G16KT 10SM CLR 16/06 A2962 RMK AO2
     T01610055=
KGWR 220015Z AUTO 16007KT 4SM HZ BKN024 12/01 A2954 RMK A01=
KHAI 220015Z AUTO 19008G14KT 10SM CLR 18/03 A2979 RMK AO2
     T01750032=
KHZE 220015Z AUTO 01007KT 10SM FEW050 OVC065 11/03 A2954 RMK
     AO2=
KI23 220015Z AUTO 17006KT 10SM CLR 12/M00 A2998 RMK AO1=
KI68 220015Z AUTO 17006KT 10SM CLR 14/01 A2997 RMK AO1
     T01380009=
KIRS 220015Z AUTO 20008KT 10SM CLR 16/01 A2979 RMK AO2
     T01610011=
KMDS 220015Z AUTO 14008KT 10SM CLR 13/M00 A2960 RMK AO2=
KMWM 220015Z AUTO 00000KT 7SM CLR 10/01 A2963 RMK AO2=
KN38 220015Z AUTO 19009KT 10SM CLR 09/M02 A3005 RMK AO2=
KOEO 220015Z AUTO 16006KT 10SM CLR 08/04 A2964 RMK AO2
     T00790037=
KRNH 220015Z AUTO 00000KT 10SM CLR 09/05 A2963 RMK AO2
     T00910045=
KRYV 220015Z AUTO 21003KT 10SM CLR 17/02 A2964 RMK AO2
     T01670021=
KRZN 220015Z AUTO 00000KT 10SM CLR 08/01 A2962 RMK AO2
     T00830012=
KS25 220015Z AUTO 04005KT 10SM SCT038 BKN047 OVC065 07/07 A2954
     RMK AO2=
KS32 220015Z AUTO 30004KT 10SM SCT065 BKN095 OVC110 11/M00 A2955
     RMK AO2 TSNO=
KTTF 220015Z AUTO 19007KT 10SM CLR 16/03 A2983 RMK AO2
     T01550025=
KVLL 220015Z AUTO 17004KT 10SM CLR 14/02 A2983 RMK AO2
     T01430024=
KY19 220015Z AUTO 07006KT 10SM CLR 11/02 A2952 RMK AO2=
K06D 220015Z AUTO 34008KT 10SM -RA BKN020 BKN032 OVC037 06/05
     A2956 RMK AO2=
K3N8 220015Z AUTO 18003KT 10SM CLR 10/00 A2956 RMK AO2
     T00970000=
K46D 220015Z AUTO 00000KT 10SM BKN100 11/02 A2956 RMK AO2=
K7L2 220015Z AUTO 14005KT 10SM CLR 14/M01 A2951 RMK AO2=
K96D 220015Z AUTO 24007KT 10SM FEW055 OVC065 12/02 A2952 RMK
     AO2=
KBWP 220015Z AUTO 17005KT 9SM SCT055 12/M00 A2955 RMK AO2=
KBWW 220015Z AUTO 36015KT 10SM FEW110 13/02 A2951 RMK AO2=
KC29 220015Z AUTO 00000KT 7SM CLR 13/04 A2965 RMK AO1
     T01260041=
KCAD 220015Z AUTO 21005KT 10SM CLR 14/04 A2967 RMK AO2
     T01440042=
KCFE 220015Z AUTO 00000KT 10SM FEW023 SCT028 OVC065 09/00 A2961
     RMK AO2=
