SAUS70 KWBC 220000
METAR
KW13 212355Z AUTO 10SM CLR 10/00 A3012 RMK AO1 T00991001 10170
     20094=
KDLL 212355Z AUTO 00000KT 10SM CLR 16/02 A2962 RMK AO2 T01590015
     10230 20159=
KEVB 212347Z 01010KT 10SM CLR 20/12 A3004=
PAKU 212345Z 11019KT 7SM R06/P6000FT FEW012 BKN014 OVC027 M03/M04
     A2986=
KJWN 212350Z 14007KT 10SM CLR 20/05 A2995=
PAKU 212345Z 11019KT 7SM R06/P6000FT FEW012 BKN014 OVC027 M03/M04
     A2986=
KCNW 212355Z 18010KT 10SM SKC 27/07 A2986=
KMMU 212345Z 00000KT 10SM SKC 07/05 A3014=
KRYN 212345Z 26009KT 10SM CLR 31/08 A2986=
