SAUS70 KWBC 220200 RRN
METAR
KORD 220151Z 20011G19KT 10SM CLR 21/03 A2973 RMK AO2 SLP066
     T02060033=
K0E0 220155Z AUTO 29003KT 10SM CLR 12/01 A3002 RMK AO2 T01240005
     TSNO=
KACT 220151Z 18011KT 10SM CLR 24/11 A2988 RMK AO2 SLP113 T02440111
     $=
KALI 220153Z AUTO 15008KT 10SM CLR 21/16 A2996 RMK AO2 SLP145
     T02060161=
KASE 220153Z AUTO VRB03KT 10SM CLR 04/M08 A2998 RMK AO2 SLP110
     T00441083=
KBAZ 220151Z AUTO 17010KT 10SM CLR 22/10 A2993 RMK AO2 SLP130
     T02170100=
KBEA 220155Z AUTO 15005KT 10SM CLR 20/14 A2997 RMK AO2
     T01950140=
KHRL 220152Z 14009KT 10SM CLR 22/16 A2999 RMK AO2 SLP154
     T02170156=
KLKV 220153Z AUTO 23011KT 10SM OVC100 14/02 A2980 RMK AO2 SLP095
     T01440022=
KMWH 220152Z 16008KT 10SM SCT120 09/04 A2960 RMK AO2 SLP027
     T00890039=
KOKB 220152Z AUTO 24005KT 10SM OVC018 21/17 A2985 RMK AO2 SLP108
     T02110167=
KSMO 220151Z VRB03KT 10SM OVC009 19/16 A2985 RMK AO2 SLP107
     T01890161=
KSNK 220155Z AUTO 20010KT 10SM CLR 22/04 A2984 RMK AO2
     T02210039=
KTRM 220152Z AUTO 14003KT 10SM CLR 24/11 A2972 RMK AO2 SLP064
     T02440111=
KVNY 220151Z 10004KT 10SM CLR 23/16 A2984 RMK AO2 SLP096 T02280156
     $=
K08D 220155Z AUTO 03006KT 10SM 05/05 A2957 RMK AO2=
KACK 220153Z 22006KT 10SM CLR 13/08 A3021 RMK AO2 SLP230
     T01280078=
KAMW 220153Z AUTO 00000KT 5SM HZ CLR 09/01 A2961 RMK AO2 SLP027
     T00890011=
KAOO 220153Z AUTO 19007KT 10SM CLR 11/M01 A3011 RMK AO2 SLP201
     T01061011=
KAQP 220153Z AUTO 17005KT 10SM 11/M01 A2958 RMK AO2=
KATY 220153Z AUTO 14006KT 10SM CLR 11/01 A2956 RMK AO2 SLP016
     T01060006=
KAUG 220153Z AUTO 20003KT 10SM CLR 07/03 A3015 RMK AO2 SLP212
     T00670033=
KAXN 220153Z AUTO 14006KT 10SM CLR 10/01 A2959 RMK AO2 SLP025
     T01000006=
KBBW 220153Z AUTO 34003KT 10SM CLR 07/M03 A2959 RMK AO2 SLP021
     T00671028=
KBDE 220153Z AUTO 21005KT 10SM FEW120 09/01 A2953 RMK AO2 SLP005
     T00890006=
KBEH 220153Z AUTO 19010G18KT 10SM CLR 19/04 A2976 RMK AO2 SLP078
     T01890039=
KBGR 220153Z 19004KT 10SM CLR 07/02 A3015 RMK AO2 SLP210
     T00720022=
KD55 220155Z AUTO 32008KT 6SM -DZ FEW023 BKN035 OVC040 07/07 A2957
     RMK AO2=
KFOZ 220153Z AUTO 00000KT 10SM CLR 09/01 A2962 RMK AO2=
KRPD 220155Z AUTO 00000KT 10SM CLR 05/04 A2965 RMK AO2
     T00520044=
KXVG 220153Z AUTO 00000KT 10SM CLR 06/02 A2959 RMK AO2=
