SACA45 KWBC 220000 RRB
METAR
MHCH 220000Z 0000KT 5000 TSRA SCT028CB OVC070 24/24=
MHLE 220000Z 05004KT 4000 FEW008 BKN018 17/15=
MHNO 220000Z 35006KT 9999 FEW040 SCT090 21/18=
MHPL 220000Z 00000KT 9999 SCT028TCU 26/23 Q1010=
MHSR 220000Z 36004KT 9999 BKN020 BKN100 20/19=
MHYR 220000Z 18005KT 8000 RA SCT022 OVC070 22/20=
