SAUS70 KWBC 212300 RRI
METAR
KPVB 212255Z AUTO 00000KT 10SM CLR 21/01 A2962 RMK AO1
     T02140006=
KRZL 212255Z AUTO 19012KT 10SM CLR 20/01 A2978 RMK AO2=
KSAR 212255Z AUTO 17007KT 10SM CLR 23/05 A2983 RMK AO2
     T02250054=
KWBF 212255Z AUTO 00000KT 10SM 24/14 A3006 RMK A01=
KY31 212255Z AUTO 19007KT 10SM CLR 17/03 A2964 RMK AO2
     T01700025=
KY49 212255Z AUTO 29003KT 10SM CLR 12/00 A2957 RMK AO2
     T01221001=
KBQX 212255Z AUTO 17016KT 10SM CLR 25/14 A3000 RMK A01=
KCTB 212256Z AUTO 03006KT 10SM -RA SCT010 BKN032 OVC039 04/03
     A2956 RMK AO2 RAB14 SLP018 P0001 T00440033=
KDSF 212255Z AUTO 04010KT 10SM CLR 23/13 A3007 RMK A01=
KEED 212256Z AUTO 21003KT 10SM CLR 32/04 A2979 RMK AO2 SLP059
     T03220044=
KFFZ 212254Z 10SM CLR 31/09 A2982 RMK AO2 SLP075 T03060094=
KGYB 212255Z AUTO 19008G14KT 160V220 10SM CLR 28/09 A2992 RMK AO2
     T02820090=
KMVH 212255Z AUTO 26007KT 5SM HZ BKN028 BKN033 OVC038 08/05 A2958
     RMK AO2 P0002 PWINO=
KOTH 212256Z 18009KT 10SM -RA OVC018 14/10 A2986 RMK AO2 RAB51
     SLP111 P0000 T01440100=
KPYX 212255Z AUTO 23010KT 10SM CLR 28/M07 A2968 RMK AO2
     T02831072=
KRTS 212255Z AUTO 27016G24KT 10SM CLR 23/M07 A2992 RMK AO2=
KWBF 212255Z AUTO 00000KT 10SM 24/14 A3006 RMK A01=
KWJF 212256Z 23014KT 10SM CLR 29/04 A2986 RMK AO2 SLP095
     T02940044=
KBAF 212253Z 00000KT 10SM CLR 09/01 A3011 RMK AO2 SLP203
     T00940006=
KWJF 212256Z 23014KT 10SM CLR 29/04 A2986 RMK AO2 SLP095
     T02940044=
K1H2 212255Z AUTO 17009KT 10SM CLR 21/03 A2984 RMK AO2
     T02140030=
K57C 212255Z AUTO 21006KT 10SM CLR 21/04 A2963 RMK AO2
     T02100043=
KBBB 212257Z AUTO 00000KT 10SM CLR 16/01 A2961 RMK AO2=
KC35 212255Z AUTO 24003KT 10SM CLR 20/03 A2960 RMK AO2 T02020030
     PWINO=
KFWC 212255Z AUTO 17006KT CLR 21/01 A2984 RMK AO1 T02090011
     PWINO=
KHYX 212255Z AUTO 19008KT 10SM CLR 17/04 A2971 RMK AO2
     T01690035=
KJMS 212256Z AUTO 15003KT 10SM SCT110 14/00 A2951 RMK AO2 SLP998
     T01390000=
KLCK 212255Z AUTO 18008KT 10SM CLR 17/00 A2995 RMK AO2
     T01700002=
KLNR 212256Z AUTO 26003KT 7SM CLR 23/03 A2960 RMK AO2 SLP019
     T02280028=
KMDT 212256Z 11003KT 10SM CLR 12/04 A3009 RMK AO2 SLP191
     T01170039=
KMOX 212255Z AUTO 00000KT 10SM CLR 16/M04 A2960 RMK AO2=
KMZH 212255Z AUTO 00000KT 10SM CLR 15/01 A2958 RMK AO2=
KN03 212255Z AUTO 00000KT 10SM CLR 10/M02 A3005 RMK AO2=
KOLY 212255Z AUTO 17009KT 10SM CLR 21/00 A2985 RMK AO2
     T02130000=
KONA 212255Z AUTO 00000KT 10SM CLR 17/03 A2961 RMK AO2=
KPEX 212255Z AUTO 33003KT 10SM CLR 14/01 A2962 RMK AO2=
KPHN 212255Z AUTO 18007KT 10SM CLR 15/01 A2979 RMK AO2=
KRMY 212255Z AUTO 17006KT 10SM CLR 18/04 A2975 RMK AO2
     T01810038=
KSTE 212255Z AUTO 00000KT 10SM CLR 19/00 A2960 RMK AO2
     T01850000=
KVAF 212255Z AUTO 16014KT 10SM CLR 24/12 A3001 RMK A01=
KVPZ 212256Z AUTO 20013G19KT 10SM CLR 22/03 A2975 RMK AO2 SLP073
     T02220028 $=
KVVS 212255Z AUTO 14004KT 10SM CLR 12/00 A3004 RMK AO2
     T01250001=
KART 212256Z AUTO 16008KT 10SM CLR 13/M02 A2995 RMK AO2 SLP145
     T01331017=
KAUM 212257Z AUTO 00000KT 10SM CLR 18/03 A2963 RMK AO2=
KBAF 212253Z 00000KT 10SM CLR 09/01 A3011 RMK AO2 SLP203
     T00940006=
KCQM 212256Z AUTO 25004KT 10SM CLR 13/M01 A2954 RMK AO2=
KCXY 212256Z 16003KT 10SM CLR 13/02 A3009 RMK AO2 SLP193
     T01280017=
KDAY 212256Z 19011KT 10SM BKN250 19/00 A2993 RMK AO2 SLP135
     T01890000=
KDIK 212256Z AUTO 02010KT 10SM FEW100 14/02 A2948 RMK AO2 SLP984
     T01440017=
KDSF 212255Z AUTO 04010KT 10SM CLR 23/13 A3007 RMK A01=
KERY 212255Z AUTO 20007KT 10SM CLR 09/06 A2957 RMK AO2
     T00880064=
