SAUS70 KWBC 220000 RRJ
METAR
KEWN 212354Z 06005KT 10SM BKN044 OVC080 14/10 A3013 RMK AO2 SLP202
     T01440100 10200 20139 53007=
KEXX 212355Z AUTO 00000KT 10SM CLR 11/01 A3012 RMK AO2 T01050007
     10204 20105=
KEZF 212355Z AUTO 00000KT 10SM CLR 10/05 A3012 RMK AO2 T01000050
     10196 20100=
KEZM 212355Z AUTO 00000KT 10SM CLR 11/04 A3011 RMK AO2=
KFIG 212354Z AUTO 00000KT 10SM CLR 12/M02 A3005 RMK AO2 SLP187
     T01171022 10172 20117 53013=
KFVX 212355Z AUTO 00000KT 10SM CLR 10/02 A3012 RMK AO2 T00990021
     10203 20092=
KFWB 212355Z AUTO VRB05KT 10SM CLR 23/02 A2980 RMK AO2=
KFWS 212355Z 15009KT 10SM CLR 28/07 A2982=
KGED 212354Z AUTO 00000KT 10SM CLR 11/06 A3016 RMK AO2 SLP214
     T01060056 10206 20100 53012=
KGLY 212355Z AUTO 18006KT 9SM CLR 23/03 A2969 RMK AO2=
KGWR 212355Z AUTO 15006KT 6SM HZ CLR 12/01 A2955 RMK A01=
KHVS 212355Z AUTO 00000KT 10SM SCT047 BKN055 10/01 A3012 RMK
     AO2=
KHWD 212354Z 29008KT 10SM CLR 17/12 A2985 RMK AO2 SLP117 T01720122
     10183 20156 58009=
KHZE 212355Z AUTO 05004KT 10SM OVC065 11/03 A2952 RMK AO2=
KI68 212355Z AUTO 18006KT 10SM CLR 15/01 A2996 RMK AO1 T01450006
     10218 20145=
KIDI 212355Z AUTO 12004KT 10SM BKN050 BKN060 09/02 A3007 RMK
     A01=
KINF 212355Z AUTO 00000KT 7SM CLR 14/07 A3007 RMK AO2=
KINT 212354Z 00000KT 10SM CLR 11/03 A3014 RMK AO2 SLP206 T01110028
     10194 20106 53008=
KIPT 212354Z 17007KT 10SM CLR 14/M02 A3007 RMK AO2 SLP186
     T01391017 10161 20139 53009=
KJFZ 212355Z AUTO 00000KT 10SM CLR 12/00 A3010 RMK AO2 T01181001
     10159 20118=
KJST 212354Z AUTO 16011KT CLR 11/M02 A3005 RMK AO2 SLP188
     T01061017 10156 20100 51010 $=
KPGV 212355Z AUTO 00000KT 10SM SCT050 11/06 A3013 RMK AO2=
KPHL 212354Z 19007KT 10SM CLR 14/03 A3015 RMK AO2 SLP208 T01390028
     10183 20139 53010=
KPLR 212355Z AUTO 00000KT 10SM SCT044 SCT055 13/07 A3008 RMK
     A01=
KPNE 212354Z 00000KT 10SM CLR 11/01 A3015 RMK AO2 SLP211 T01110006
     10183 20111 53009=
KPTW 212354Z AUTO 00000KT 10SM CLR 08/02 A3015 RMK AO2 SLP207
     T00780022 10167 20078 53008=
KPVF 212355Z AUTO 23006KT 10SM CLR 24/02 A2990 RMK AO1=
KRBL 212354Z AUTO 16009KT 10SM CLR 28/07 A2974 RMK AO2 SLP068
     T02780067 10289 20228 56020=
KRCE 212355Z AUTO 17011G16KT 10SM CLR 26/02 A2969 RMK AO2=
KRDG 212354Z 19004KT 10SM CLR 12/01 A3012 RMK AO2 SLP206 T01220006
     10178 20122 53008=
KRMN 212355Z AUTO 00000KT 10SM CLR 11/05 A3017 RMK AO2 T01050046
     10205 20102=
KRNH 212355Z AUTO 00000KT 10SM CLR 11/05 A2963 RMK AO2 T01110051
     10196 20105=
KRPH 212355Z AUTO 18005KT 8SM CLR 29/03 A2975 RMK AO2 T02880029
     $=
KRUG 212355Z AUTO 26005KT 10SM SCT044 BKN055 OVC065 09/03 A2953
     RMK AO2=
KRVL 212355Z AUTO 00000KT 10SM CLR 10/M00 A3009 RMK AO2=
KRYV 212355Z AUTO 19003KT 10SM CLR 17/02 A2963 RMK AO2 T01710020
     10245 20170=
KRZL 212355Z AUTO 18008KT 10SM CLR 18/02 A2980 RMK AO2=
KRZN 212355Z AUTO 00000KT 10SM CLR 10/02 A2961 RMK AO2 T01020015
     10187 20101=
KS25 212355Z AUTO 03005KT 10SM -RA BKN037 OVC048 07/07 A2954 RMK
     AO2=
KS32 212355Z AUTO 30003KT 10SM BKN065 BKN075 OVC085 11/M00 A2954
     RMK AO2 TSNO=
KSCR 212355Z AUTO 00000KT 10SM CLR 08/05 A3014 RMK AO2 T00770045
     10198 20076=
KSIK 212355Z AUTO 18004KT 10SM CLR 21/09 A2987 RMK AO2=
KSLC 212354Z 30005KT 10SM FEW160 SCT240 24/M08 A2977 RMK AO2
     SLP041 T02441078 10250 20211 56020=
KSPF 212355Z AUTO 21004KT 10SM CLR 15/M03 A2952 RMK AO2=
KSTF 212355Z AUTO 15005KT 10SM CLR 19/11 A2997 RMK AO2=
KSUZ 212355Z AUTO 18004KT 10SM CLR 21/10 A2987 RMK A01=
