SAPA31 KWBC 220100 RRG
METAR
PKWA 220140Z AUTO 09012KT 10SM SCT026 SCT031 31/24 A2975 RMK AO2
     T03120241=
