SAUS80 KWBC 220000
METAR
KSAN 212351Z VRB06KT 10SM BKN017 22/16 A2987 RMK AO2 SLP114
     T02220161 10228 20211 56003=
KP69 212352Z AUTO 00000KT 08/07 A2975 RMK AO1 SLP078 P0008 60015
     T00830072 10128 20083 58006=
KABE 212351Z 18003KT CLR 09/01 A3013 RMK AO2 SLP204 T00940006
     10172 20083 53010=
KPVD 212351Z 22004KT 10SM CLR 11/07 A3016 RMK AO2 SLP214 T01110072
     10183 20111 53013=
KTEB 212351Z 00000KT 10SM CLR 12/02 A3013 RMK AO2 SLP204 T01220022
     10183 20111 53012=
KYNG 212351Z 15005KT 10SM FEW200 13/M01 A3000 RMK AO2 SLP162
     T01331006 10183 20133 53014=
KMFD 212352Z AUTO 17011KT 10SM CLR 14/01 A2995 RMK AO2 SLP145
     T01440006 10194 20144 53014=
KMHK 212352Z 20003KT 10SM CLR 21/03 A2958 RMK AO2 SLP016 T02110033
     10322 20211 58003=
KMLF 212352Z AUTO 20021G31KT 10SM CLR 22/M04 A2987 RMK AO2 PK WND
     20031/2352 SLP078 T02221039 10244 20189 56021 $=
KN60 212352Z AUTO 04003KT 09/05 A2952 RMK AO1 SLP007 60001
     T00940050 10117 20094 55007=
KNYC 212351Z AUTO VRB03KT 10SM CLR 14/05 A3017 RMK AO2 SLP207
     T01390050 10167 20133 53010 $=
KSAV 212353Z 00000KT 10SM CLR 14/04 A3011 RMK AO2 SLP194 T01390039
     10222 20133 53008=
KP59 212351Z AUTO 26006KT 12/04 A2954 RMK AO1 SLP006 T01220044
     10156 20122 52022=
KGDP 212351Z AUTO 25026G39KT 9SM CLR 22/05 A3001 RMK AO2 PK WND
     24040/2326 SLP100 T02170050 10239 20200 56009=
KJQF 212351Z 00000KT 10SM CLR 13/00 A3015=
KMBG 212352Z AUTO 16006KT 10SM CLR 14/02 A2948 RMK AO2 SLP985
     T01390017 10200 20139 57007=
KSPS 212352Z 19015KT 10SM CLR 29/02 A2971 RMK AO2 PK WND
     21028/2305 SLP053 T02940022 10339 20294 56010=
KTOL 212352Z 19008KT 10SM CLR 19/03 A2984 RMK AO2 SLP104 T01890028
     10233 20189 53011=
KVTN 212352Z AUTO 14007KT 10SM CLR 18/M02 A2954 RMK AO2 SLP003
     T01831017 10228 20172 58020=
KABI 212352Z 20009KT 9SM CLR 28/03 A2982 RMK AO2 SLP076 T02780033
     10317 20272 55007=
KABQ 212352Z 27012KT 10SM FEW090 22/01 A2997 RMK AO2 SLP093
     T02220011 10239 20167 56012=
KALS 212352Z AUTO 24014KT 10SM CLR 16/M06 A2994 RMK AO2 SLP102
     T01611056 10200 20144 56016=
KBLU 212352Z AUTO 22007KT 180V240 10SM CLR 18/M01 A3002 RMK AO2
     SLP090 6//// T01781006 10211 20178 58006=
KCDJ 212351Z AUTO 18004KT 24/04 A2964 RMK AO1 SLP033 T02440039
     10294 20244 53000 $=
KCID 212352Z 24003KT 8SM CLR 21/02 A2961 RMK AO2 SLP028 T02060017
     10283 20200 53010=
KCNU 212352Z AUTO 17011KT 10SM CLR 26/06 A2967 RMK AO2 SLP041
     T02560056 10311 20256 58006=
KALB 212351Z 14003KT 10SM CLR 12/M01 A3009 RMK AO2 SLP190
     T01171011 10161 20117 53007=
KBDL 212351Z 18005KT 10SM CLR 11/M01 A3014 RMK AO2 SLP205
     T01061011 10178 20106 53015=
KBKW 212351Z AUTO 14007KT 10SM CLR 12/M01 A3010 RMK AO2 SLP201
     T01171011 10172 20117 53006=
KCAK 212351Z 19011KT 10SM FEW250 14/00 A2998 RMK AO2 SLP156
     T01390000 10194 20128 53013=
KCON 212351Z AUTO 10008KT 10SM CLR 06/01 A3012 RMK AO2 SLP205
     T00560011 10167 20056 53014=
KEKN 212351Z AUTO 00000KT 10SM CLR 06/01 A3008 RMK AO2 SLP209
     T00560006 10189 20056 53012=
KHTS 212351Z 14004KT 10SM CLR 17/M01 A3002 RMK AO2 SLP165
     T01671006 10200 20161 55002=
KOQT 212353Z AUTO 00000KT 10SM CLR 12/03 A3008 RMK AO2 SLP194
     T01170028 10200 20117 53003=
KNUI 212353Z AUTO 00000KT CLR 11/07 A3014 RMK AO2 SLP206 T01110072
     10211 20111 53008=
KP68 212353Z AUTO 25012G19KT 21/M13 A2990 RMK AO1 SLP075 T02111128
     10222 20167 56014=
KSDB 212353Z AUTO 10SM CLR 22/04 A3000 RMK AO2 SLP107 T02170039
     10250 20217 $=
