SACA35 KWBC 220000 RRB
METAR
MROC 220000Z 12003KT 9999 3000SW BCFG FEW010 BKN100 21/20 A3002
     RERA NOSIG=
