SAUS80 KWBC 220100
METAR
KREO 220052Z AUTO 25010KT 21/00 A2968 RMK AO1 PK WND 26028/2356
     SLP033 T02060000=
KABE 220051Z 00000KT CLR 09/01 A3014 RMK AO2 SLP208 T00940006=
KALB 220051Z 16003KT 10SM CLR 11/M01 A3010 RMK AO2 SLP196
     T01061006=
KBDL 220051Z 18005KT 10SM CLR 10/00 A3015 RMK AO2 SLP209
     T01000000=
KCON 220051Z AUTO 10009KT 10SM CLR 04/01 A3013 RMK AO2 SLP208
     T00390011=
KEKN 220051Z AUTO 00000KT 10SM CLR 03/00 A3010 RMK AO2 SLP215
     T00330000=
KHTS 220051Z 15003KT 10SM CLR 15/00 A3003 RMK AO2 SLP168
     T01500000=
KPVD 220051Z 00000KT 10SM CLR 09/07 A3017 RMK AO2 SLP217
     T00940067=
KTEB 220051Z 00000KT 10SM CLR 11/03 A3014 RMK AO2 SLP207
     T01110028=
KYNG 220051Z 16007KT 10SM CLR 12/00 A3000 RMK AO2 SLP163
     T01220000=
KCQT 220047Z AUTO 25003KT 10SM CLR 21/17 A2984 RMK AO2 SLP104
     T02060172=
KCRP 220051Z 15010KT 10SM CLR 23/16 A2997 RMK AO2 SLP147
     T02280161=
KELP 220051Z 25006KT 10SM FEW250 25/08 A2995 RMK AO2 SLP090
     T02500078=
KIGM 220051Z AUTO 23009KT 10SM CLR 22/03 A2991 RMK AO2 SLP072
     T02220028=
KOXR 220051Z 28009KT 8SM OVC007 18/17 A2984 RMK AO2 SLP105
     T01780167=
KROW 220051Z 31005KT 10SM CLR 23/06 A2988 RMK AO2 SLP076
     T02280061=
KSAN 220051Z 19005KT 10SM BKN017 22/16 A2986 RMK AO2 SLP113
     T02170161=
KSMX 220051Z 31007KT 7SM BKN014 14/12 A2990 RMK AO2 SLP126
     T01440122=
KN60 220052Z AUTO 04005KT 09/04 A2952 RMK AO1 SLP005 T00890044=
KP69 220052Z AUTO 00000KT 08/07 A2972 RMK AO1 SLP069 P0009
     T00830067=
KABI 220052Z 19008KT 10SM CLR 26/04 A2982 RMK AO2 SLP079
     T02610039=
KABQ 220052Z 25009KT 10SM FEW090 21/02 A2997 RMK AO2 SLP099
     T02060022=
KALS 220052Z AUTO 24009KT 10SM CLR 12/M05 A2995 RMK AO2 SLP120
     T01171050=
KBIL 220053Z 10011KT 10SM OVC080 11/04 A2954 RMK AO2 RAE41 SLP997
     P0000 T01110039=
KBLU 220052Z AUTO 19007KT 10SM CLR 16/01 A2999 RMK AO2 SLP084
     T01610006=
KCDJ 220051Z AUTO 18004KT 22/04 A2965 RMK AO1 SLP038 T02220039
     $=
KCID 220052Z 16003KT 8SM CLR 19/02 A2963 RMK AO2 SLP035
     T01890017=
KCNU 220052Z AUTO 16010KT 10SM CLR 24/06 A2968 RMK AO2 SLP044
     T02440056=
KSAV 220053Z 00000KT 10SM CLR 12/05 A3013 RMK AO2 SLP202
     T01170050=
KSPS 220052Z 19012KT 10SM CLR 26/03 A2973 RMK AO2 SLP058
     T02560028=
KTOL 220052Z 20009KT 10SM CLR 18/02 A2986 RMK AO2 SLP111
     T01830022=
KGDP 220051Z AUTO 24021G29KT 10SM CLR 19/05 A3003 RMK AO2 PK WND
     25038/0005 SLP112 T01940050=
KMBG 220052Z AUTO 15009KT 10SM CLR 14/03 A2948 RMK AO2 SLP984
     T01440028=
KMFD 220052Z AUTO 16010KT 10SM CLR 13/01 A2996 RMK AO2 SLP149
     T01330006=
KMHK 220052Z 22005KT 10SM CLR 21/03 A2960 RMK AO2 SLP020
     T02110028=
KMLF 220052Z AUTO 21017G28KT 10SM CLR 19/M03 A2987 RMK AO2 PK WND
     19035/2353 SLP084 T01891028 $=
KNYC 220051Z AUTO 00000KT 10SM CLR 13/04 A3017 RMK AO2 SLP209
     T01330044 $=
KATT 220051Z AUTO VRB04KT 10SM CLR 25/09 A2992 RMK AO2 SLP124
     T02500089=
KTCS 220053Z AUTO 25011KT 10SM CLR 22/04 A2996 RMK AO2 SLP089
     T02220039=
KNUI 220053Z AUTO 09003KT CLR 10/07 A3015 RMK AO2 SLP209
     T01000072=
KP68 220053Z AUTO 25008KT 18/M12 A2988 RMK AO1 SLP072
     T01781117=
KMWT 220053Z AUTO 15003KT 10SM CLR 21/06 A2985 RMK AO2 SLP107
     T02110056=
KSDB 220053Z AUTO 10SM CLR 19/05 A2999 RMK AO2 SLP110 T01890050
     $=
KDRT 220053Z AUTO 13008KT 10SM CLR 24/12 A2989 RMK AO2 SLP117
     T02390122=
KEMP 220053Z AUTO 16010KT 10SM CLR 23/04 A2964 RMK AO2 SLP034
     T02280039=
KFMN 220053Z 26003KT 10SM CLR 17/M03 A2996 RMK AO2 SLP125
     T01671028=
