SAUS70 KWBC 220000 RRW
METAR
KSLC 212354Z 30005KT 10SM FEW160 SCT240 24/M08 A2977 RMK AO2
     SLP041 T02441078 10250 20211 56020=
KSXU 212355Z AUTO 27014G24KT 10SM CLR 22/M01 A2985 RMK AO2
     T02241007 10253 20224=
KT69 212355Z AUTO 17011KT 10SM CLR 24/16 A2995 RMK A01=
KTSP 212355Z AUTO 32012KT 10SM CLR 23/M04 A2996 RMK AO2=
KBOS 212354Z 20011KT 10SM CLR 14/07 A3015 RMK AO2 SLP210 T01390067
     10161 20133 53016=
KPHL 212354Z 19007KT 10SM CLR 14/03 A3015 RMK AO2 SLP208 T01390028
     10183 20139 53010=
PASM 212356Z AUTO 21009KT 10SM FEW014 SCT041 03/01 A2983 RMK AO2
     SLP112 60000 T00330011 10039 20006 51008=
PASX 212356Z AUTO 29003KT 10SM CLR 08/M02 A2986 RMK AO2 SLP117
     T00831017 10083 20022 51013=
PATE 212356Z AUTO 19007KT 4SM -SN BR SCT012 BKN020 OVC030 01/00
     A2964 RMK AO2 RAE05B48E53SNB05E27B53 SLP043 P0003 60006
     T00110000 10017 20006 51010 FZRANO=
PATG 212356Z AUTO 23008KT 10SM CLR 07/03 A2998 RMK AO2 SLP152
     60001 T00670028 10067 20022 50004=
PATQ 212356Z AUTO 10018KT 10SM OVC013 M03/M05 A2979 RMK AO2
     SNB06E45 SLP091 P0000 60000 T10331050 11033 21044 51009
     FZRANO TSNO=
PAUN 212356Z AUTO 19011KT 10SM FEW009 BKN023 OVC039 03/01 A2978
     RMK AO2 RAE27 SLP087 P0000 60000 T00280006 10033 20022
     51012=
PAUT 212355Z AUTO 19007KT 10SM BKN011 OVC110 06/05 A3009 RMK
     AO2=
PAVD 212356Z 23003KT 10SM FEW028 SCT088 BKN130 07/04 A2977 RMK AO2
     SLP078 6//// T00720044 10072 20039 52015 PNO $=
PAWS 212356Z AUTO 34003KT 10SM OVC005 02/02 A2986 RMK AO2 SLP116
     T00220022 10028 20006 51017 FZRANO=
PAZK 212356Z AUTO 22007KT 10SM FEW048 BKN100 M02/M04 A2967 RMK AO2
     SLP099 60000 T10221044 11006 21033 51020 FZRANO=
PFCL 212356Z AUTO 24005KT 10SM SCT027 SCT046 A2999 RMK AO2 RAE05
     SLPNO P0000 60001 53003 FZRANO TSNO $=
PFKW 212356Z AUTO 24009KT 10SM SCT018 05/01 A2990 RMK AO2 SLP124
     T00500011 10056 20011 53005=
PFYU 212356Z 00000KT 2 1/2SM BR OVC008 M02/M04 A2986 RMK AO2
     SLP125 T10221039 11017 21039 52012=
PPIZ 212356Z AUTO 04005KT 10SM SCT037 OVC047 M03/M04 A2970 RMK AO2
     SLP061 60000 T10281044 11011 21044 51009 FZRANO=
PAKP 212356Z AUTO 20006KT 10SM CLR M06/M09 A2974 RMK AO2 SLP120
     60000 T10611089 11050 21067 52009 FZRANO=
PALG 212356Z AUTO VRB05KT 10SM OVC014 04/02 A2987 RMK AO2 SLP117
     60002 T00440017 10044 20017 51013=
PAMB 212356Z AUTO 25008KT 7SM SCT028 OVC034 07/02 A2998 RMK AO2
     SLP154 60000 T00670022 10072 20017 50005 $=
PAMH 212356Z AUTO 21005KT 10SM BKN006 OVC011 01/01 A2985 RMK AO2
     SLP112 60000 T00110006 10011 21017 51012 FZRANO=
PAMK 212356Z AUTO 21016KT 10SM SCT012 OVC020 03/02 A2976 RMK AO2
     SLP080 60000 T00330017 10033 20011 51009=
PANI 212356Z AUTO 25008KT 8SM -RA BKN012 OVC021 04/02 A2991 RMK
     AO2 RAB44 SLP122 P0000 60006 T00390022 10044 20017 51011
     $=
PANV 212356Z AUTO 23005KT 7SM -RA OVC009 03/02 A2980 RMK AO2 RAB56
     CIG 006V012 SLP178 P0000 60004 T00280017 10028 20006 51015
     TSNO=
PANW 212356Z AUTO 25013G17KT 10SM SCT023 07/01 A2995 RMK AO2
     SLP150 T00670011 10067 21006 50003=
PAOH 212356Z AUTO 21004KT 10SM FEW043 08/03 A2967 RMK AO2 SLP048
     6//// T00830028 53000 PNO $=
PAOO 212356Z AUTO 20010KT BKN100 04/02 A2988 RMK AO2 SLP123
     T00440022 10050 20022 51005 PWINO TSNO $=
PAOU 212356Z AUTO 25011KT 10SM -RA FEW015 BKN033 OVC040 06/03
     A3012 RMK AO2 RAB52 SLP198 6//// T00560033 10067 20039 58003
     PNO $=
PAPG 212356Z 26004KT 10SM -RA SCT039 BKN046 OVC055 07/06 A2973 RMK
     AO2 RAE24B47 SLP071 P0000 60010 T00670056 10083 20061
     58003=
