SAUS70 KWBC 212300 RRP
METAR
PAKK 212256Z AUTO 19005KT 5SM -SN BR SCT006 OVC013 01/00 A2968 RMK
     AO2 UPB43E50RAB50E53SNE43B53 SLP062 P0005 T00060000
     FZRANO=
PAKP 212256Z AUTO 19006KT 10SM CLR M06/M08 A2973 RMK AO2 SLP115
     T10561083 FZRANO=
PALG 212256Z AUTO 23006KT 10SM OVC014 04/02 A2986 RMK AO2 SLP116
     T00390022=
PAMB 212256Z AUTO 26010G15KT 7SM SCT038 BKN048 BKN060 06/03 A2998
     RMK AO2 SLP155 T00610028 $=
PAMH 212256Z AUTO 22005KT 10SM OVC006 01/01 A2984 RMK AO2
     UPE03RAB11E23 CIG 002V009 SLP108 P0000 T00110006 FZRANO=
KAFW 212253Z 17015G22KT 10SM CLR 31/04 A2977 RMK AO2 SLP072
     T03110044=
KALI 212253Z AUTO 14015G22KT 10SM CLR 27/16 A2993 RMK AO2 SLP133
     T02670161=
KAMA 212253Z 26016G22KT 10SM CLR 28/M03 A2974 RMK AO2 SLP022
     T02781028=
KASE 212253Z VRB04KT 10SM FEW095 16/M08 A2998 RMK AO2 PK WND
     34026/2201 SLP074 T01611078=
KBCE 212253Z AUTO 24009KT 10SM CLR 17/M05 A3005 RMK AO2 SLP099
     T01721050=
KBLH 212252Z AUTO 14004KT 10SM CLR 32/08 A2977 RMK AO2 SLP076
     T03220078 TSNO=
KFST 212253Z AUTO 29007KT 10SM CLR 28/07 A2990 RMK AO2 SLP086
     T02830067=
KGEU 212252Z 21006KT 10SM FEW250 30/10 A2980=
KGGG 212253Z 19010KT 10SM CLR 28/11 A2986 RMK AO2 SLP108
     T02780106=
KHLN 212253Z 29018KT 10SM OVC055 12/02 A2956 RMK AO2 SLP014
     T01170017=
KPSP 212253Z VRB06KT 10SM CLR 34/04 A2977 RMK AO2 SLP077
     T03440044=
KPUC 212253Z AUTO 11005KT 10SM CLR 20/M06 A2990 RMK AO2 SLP084
     T02001061=
KRAL 212253Z 26011G15KT 10SM CLR 28/11 A2983 RMK AO2 SLP084
     T02830111=
KSHR 212253Z AUTO 00000KT 10SM CLR 16/06 A2951 RMK AO2 SLP979
     T01610056=
KSNA 212253Z 23008KT 10SM FEW012 FEW035 24/17 A2984 RMK AO2 SLP102
     T02390167=
KGSH 212253Z AUTO 20014G21KT 10SM CLR 19/03 A2978 RMK AO2 SLP083
     T01940033=
KHAO 212253Z AUTO 19004KT 10SM CLR 19/00 A2995 RMK AO2 SLP142
     T01890000=
KHFD 212253Z 18005KT 10SM CLR 12/02 A3013 RMK AO2 SLP201
     T01170022=
KHGR 212253Z 14005KT 10SM CLR 14/M01 A3009 RMK AO2 SLP201
     T01391006 $=
KHUF 212253Z 19010KT 10SM CLR 21/02 A2984 RMK AO2 PK WND
     19026/2207 SLP104 T02110022=
KIWI 212253Z AUTO 00000KT 10SM CLR 07/03 A3015 RMK AO2 SLP208
     T00670033=
KLBF 212253Z AUTO 00000KT 10SM CLR 26/M03 A2960 RMK AO2 SLP011
     T02561028=
KLEB 212253Z 00000KT 10SM CLR 05/01 A3008 RMK AO2 SLP194
     T00500011=
KLHQ 212253Z AUTO 18005KT 10SM CLR 16/01 A2997 RMK AO2 SLP151
     T01560006=
KMFI 212254Z AUTO 26004KT 10SM CLR 16/03 A2960 RMK AO2 SLP028
     T01610033=
KMGG 212255Z AUTO 00000KT 10SM CLR 15/01 A2961 RMK AO2
     T01530012=
KMGJ 212254Z AUTO 00000KT 10SM CLR 08/02 A3010 RMK AO2 SLP195
     T00780017=
KMQJ 212255Z AUTO 18007KT 10SM CLR 19/02 A2989 RMK AO1=
KMVE 212255Z AUTO 00000KT 10SM CLR 16/02 A2961 RMK AO2=
KOZW 212255Z AUTO 18006KT 10SM CLR 17/04 A2977 RMK AO2
     T01730037=
KBOI 212253Z 36004KT 10SM CLR 19/02 A2969 RMK AO2 SLP042
     T01890022=
KBYI 212253Z AUTO 26010G19KT 10SM CLR 19/00 A2972 RMK AO2 SLP036
     T01940000=
KCPR 212253Z 25025G38KT 10SM CLR 21/M08 A2961 RMK AO2 PK WND
     24041/2231 SLP987 T02061083=
KEVW 212253Z AUTO 25024G32KT 10SM CLR 17/M11 A2990 RMK AO2 PK WND
     24037/2201 SLP063 T01671106=
KFTW 212253Z 17015G21KT 10SM CLR 31/06 A2978 RMK AO2 SLP077
     T03110056 $=
KGEY 212253Z AUTO 09005KT 10SM CLR 22/M06 A2949 RMK AO2 SLP963
     T02221061=
KGTF 212253Z 23007KT 10SM -RA BKN050 OVC070 09/05 A2955 RMK AO2
     RAB04 SLP002 P0000 T00890050=
KPSX 212253Z AUTO 17011KT 10SM CLR 25/16 A2997 RMK AO2 SLP148
     T02500156=
