SAUS70 KWBC 220138 RRH
METAR
KHCD 220135Z AUTO 00000KT 10SM CLR 09/01 A2964 RMK AO2
     T00890007=
KHFJ 220135Z AUTO 16008KT 10SM CLR 20/03 A2979 RMK AO2=
KHHF 220135Z AUTO 23006KT 10SM CLR 17/M02 A2966 RMK AO2
     T01701020=
KHHV 220135Z AUTO 17014G23KT 10SM SCT044 24/14 A3001 RMK A01=
KHLB 220135Z AUTO 18005KT 10SM CLR 13/00 A2995 RMK A01=
KHLX 220135Z AUTO 19005KT 10SM CLR 09/M07 A3015 RMK AO2
     T00901072=
KHOE 220135Z AUTO 00000KT 10SM CLR 08/05 A3013 RMK AO2
     T00830052=
KHQG 220135Z AUTO 00000KT 10SM CLR 18/M07 A2966 RMK AO2
     T01791074=
KHRX 220135Z AUTO 23015KT 10SM CLR 22/00 A2979 RMK AO2
     T02160000=
KHSB 220135Z AUTO 00000KT 10SM CLR 14/07 A2990 RMK AO2
     T01420073=
KHSD 220135Z AUTO 17008KT 10SM CLR 24/03 A2970 RMK A01=
KHYX 220135Z AUTO 19013G20KT 10SM CLR 17/04 A2974 RMK AO2
     T01700035=
KHZD 220135Z AUTO 15005KT 10SM CLR 17/10 A2993 RMK A01=
KHZX 220135Z AUTO 12003KT 10SM CLR 05/01 A2960 RMK AO2=
KI35 220135Z AUTO 00000KT 10SM CLR 08/02 A3009 RMK AO2
     T00810021=
KI74 220135Z AUTO 18006KT 10SM CLR 12/01 A2997 RMK AO2=
KIER 220135Z AUTO 19008KT 10SM CLR 22/15 A2997 RMK AO2
     T02200145=
KIFA 220135Z AUTO 09004KT 10SM CLR 14/01 A2964 RMK AO2
     T01420012=
KIFP 220135Z AUTO 16008KT 10SM CLR 30/03 A2974 RMK AO2=
KIGQ 220135Z AUTO 20011G17KT 10SM CLR 18/04 A2976 RMK AO2
     T01770041=
KIMS 220135Z AUTO 15005KT 10SM CLR 13/01 A2998 RMK AO2=
KINJ 220135Z AUTO 17015KT 10SM CLR 26/09 A2986 RMK AO2
     T02550090=
KJAU 220140Z AUTO 00000KT 10SM CLR 06/03 A3013 RMK A01=
KJPX 220135Z AUTO 00000KT 10SM CLR 09/07 A3018 RMK AO2
     T00900068=
KJTC 220130Z AUTO 00000KT 10SM CLR 12/00 A3013 RMK AO2=
KCXU 220135Z AUTO 00000KT 10SM CLR 09/04 A3013 RMK AO1
     T00910043=
KCXW 220135Z AUTO 19004KT 10SM FEW042 SCT048 BKN055 19/09 A2986
     RMK A01=
KCZL 220135Z AUTO 00000KT 10SM CLR 09/04 A3013 RMK AO2=
KD39 220135Z AUTO 00000KT 10SM CLR 08/00 A2960 RMK AO2
     T00810002=
KDCM 220135Z AUTO 00000KT 10SM CLR 08/00 A3015 RMK AO2 LTG DSNT
     SE=
KDEH 220135Z AUTO 00000KT 10SM SCT018 15/01 A2963 RMK AO2=
KDKX 220135Z AUTO 00000KT 10SM CLR 09/06 A3009 RMK A01=
KDSF 220135Z AUTO 05007KT 10SM CLR 22/13 A3011 RMK A01=
KDTA 220135Z AUTO 18012KT 10SM CLR 15/M11 A2982 RMK AO1=
KDUA 220135Z AUTO 17006KT 10SM CLR 21/06 A2982 RMK AO2=
KDZB 220135Z AUTO 17003KT 10SM CLR 23/07 A2992 RMK AO2
     T02260072=
KECS 220135Z AUTO 00000KT 10SM CLR 10/M08 A2952 RMK AO2=
KEDN 220135Z AUTO 00000KT 10SM CLR 11/07 A3011 RMK AO2
     T01100073=
KEGV 220135Z AUTO 00000KT 10SM CLR 03/01 A2963 RMK AO2
     T00320007=
KEIK 220135Z AUTO 25014G20KT 10SM CLR 21/M12 A2972 RMK AO2
     T02101117 PWINO=
KEKS 220130Z AUTO 28020G26KT 10SM FEW049 SCT060 OVC070 14/M00
     A2959 RMK AO2=
KERV 220135Z AUTO 16004KT 10SM CLR 20/09 A2996 RMK AO2
     T02010087=
KERY 220135Z AUTO 00000KT 7SM CLR 06/06 A2964 RMK AO2
     T00590055=
KETC 220135Z AUTO 00000KT 10SM BKN055 07/06 A3016 RMK AO2
     T00660057=
KF05 220135Z AUTO 21012KT 10SM CLR 26/03 A2973 RMK AO2
     T02570032=
KF17 220135Z AUTO 16007KT 10SM CLR 22/11 A2995 RMK AO2=
KF44 220135Z AUTO 18004KT 10SM CLR 22/11 A2988 RMK AO2=
KF46 220135Z AUTO 19012G15KT 10SM CLR 25/10 A2985 RMK AO2
     T02470095=
KFKN 220135Z AUTO 00000KT 10SM CLR 07/06 A3018 RMK AO2
     T00720063=
KFLY 220135Z AUTO 31007KT 10SM CLR 11/M11 A2985 RMK AO2
     T01131114=
KFOT 220130Z AUTO 30005KT 10SM OVC024 14/09 A2992 RMK AO1=
KFTN 220135Z AUTO 14007KT 10SM CLR 22/12 A2994 RMK A01=
KFWS 220135Z AUTO 16012G15KT 10SM CLR 25/08 A2985 RMK AO2
     T02540076=
