SAUS70 KWBC 212322 RRD
METAR
KHDE 212315Z AUTO 18003KT 10SM CLR 22/M01 A2962 RMK AO2
     T02171015=
KHNR 212315Z AUTO 00000KT 8SM CLR 18/01 A2960 RMK A01=
KIKK 212315Z AUTO 21008KT 10SM CLR 21/03 A2976 RMK AO2
     T02050025=
KIKV 212315Z AUTO 00000KT 10SM CLR 23/01 A2961 RMK AO2=
KJOT 212315Z AUTO 20009G14KT 10SM CLR 22/05 A2970 RMK AO2
     T02220045=
KLOM 212315Z AUTO 00000KT 10SM CLR 07/04 A3014 RMK AO2
     T00740043=
KLRJ 212315Z AUTO 09004KT 10SM CLR 21/01 A2958 RMK AO2=
KLWB 212315Z AUTO 00000KT 10SM CLR 11/00 A3011 RMK AO2
     T01060001=
KLXN 212315Z AUTO 17005KT 10SM CLR 22/M01 A2961 RMK AO2
     T02231011=
KMQS 212315Z AUTO 00000KT 10SM CLR 12/M00 A3014 RMK AO2=
KN03 212315Z AUTO 00000KT 10SM CLR 08/M02 A3005 RMK AO2=
KOGA 212315Z AUTO 20004KT 10SM CLR 26/M04 A2959 RMK AO2
     T02611045=
KOGS 212315Z AUTO 17005KT 10SM CLR 12/M01 A2993 RMK AO2=
KOLE 212315Z AUTO 20007KT 10SM CLR 11/M02 A3000 RMK AO2=
KOLZ 212315Z AUTO 22003KT 3SM HZ CLR 19/01 A2962 RMK A01=
KONL 212315Z AUTO 09005KT 7SM CLR 18/00 A2961 RMK AO2
     T01790000=
KOOA 212315Z AUTO 20008KT 7SM CLR 23/08 A2961 RMK AO2
     T02280081=
KOQN 212315Z AUTO 00000KT 10SM CLR 12/01 A3014 RMK AO2=
KOWX 212315Z AUTO 21011KT 10SM CLR 18/M01 A2988 RMK AO1=
KPEA 212315Z AUTO 00000KT 10SM CLR 23/03 A2960 RMK AO2
     T02260032=
K20V 212315Z AUTO 24012G26KT 10SM CLR 16/M09 A2992 RMK AO2=
K2J5 212315Z AUTO 00000KT 10SM CLR 14/03 A3011 RMK AO2
     T01370029=
K6I2 212315Z AUTO 16005KT 10SM CLR 16/00 A2999 RMK AO2=
KADT 212315Z AUTO 17003KT 10SM CLR 24/M05 A2970 RMK AO2
     T02401052=
KAPS 212318Z AUTO 17011G16KT 10SM CLR 21/14 A3004 RMK AO2=
KDCY 212315Z AUTO 18008KT 10SM CLR 17/02 A2989 RMK AO2
     T01670017=
KGNB 212315Z AUTO 24013G26KT 10SM CLR 14/M10 A2995 RMK AO2
     T01441100=
KHEQ 212315Z AUTO 24005KT 10SM CLR 26/M06 A2965 RMK AO2=
KK62 212315Z AUTO 18005KT 10SM CLR 16/00 A2998 RMK AO2=
KMHP 212315Z AUTO 00000KT 10SM CLR 14/03 A3010 RMK AO2
     T01430025=
KPEQ 212315Z AUTO 24008KT 10SM CLR 29/06 A2986 RMK AO2
     T02930059=
KULS 212315Z AUTO 24006KT 10SM CLR 26/M08 A2965 RMK AO2=
KX26 212315Z AUTO 34008KT 10SM CLR 21/14 A3000 RMK AO2
     T02080145=
