SAUS70 KWBC 220000 RRV
METAR
KFBL 212355Z AUTO 00000KT 7SM CLR 11/03 A2963 RMK AO2=
KFFM 212355Z AUTO 20005KT 10SM CLR 13/01 A2957 RMK AO2=
KIND 212354Z 18009KT 10SM FEW200 SCT250 17/02 A2988 RMK AO2 SLP118
     T01720017 10239 20167 53009=
KIZG 212354Z AUTO 00000KT 10SM CLR 02/01 A3013 RMK AO2 SLP207
     T00220006 10144 20022 53013=
KJKJ 212355Z AUTO 13004KT 10SM SCT120 14/M01 A2955 RMK AO2
     TSNO=
KJMR 212355Z AUTO 00000KT 10SM CLR 11/03 A2965 RMK AO2=
KLAF 212354Z 18006KT 10SM CLR 19/02 A2982 RMK AO2 SLP096 T01890022
     10239 20189 53009=
KRST 212354Z 00000KT 9SM CLR 17/02 A2964 RMK AO2 SLP040 T01670022
     10206 20156 53009=
KRZT 212355Z AUTO 17003KT 10SM CLR 12/00 A2998 RMK AO2 PWINO=
KSAZ 212355Z AUTO 00000KT 10SM CLR 11/00 A2960 RMK AO2=
KSBY 212354Z 00000KT 10SM CLR 10/06 A3016 RMK AO2 SLP215 T01000061
     10211 20100 53012=
KTWM 212355Z AUTO 00000KT 10SM CLR 11/02 A2957 RMK AO2=
KUIN 212354Z AUTO 18009KT 10SM CLR 22/02 A2969 RMK AO2 SLP052
     T02220022 10278 20222 55000=
KUKT 212355Z AUTO 00000KT 10SM CLR 07/03 A3013 RMK A01=
KVVV 212355Z 10004KT 10SM 13/02 A2959 RMK AO2=
KY63 212355Z AUTO 15003KT 10SM CLR 12/01 A2959 RMK AO2 T01180008
     10165 20113=
KROX 212355Z AUTO 22006KT 10SM SCT120 13/01 A2950 RMK AO2=
KSGS 212355Z AUTO 00000KT 10SM CLR 14/03 A2961 RMK AO2 T01440030
     10199 20144=
KTEW 212355Z AUTO 16003KT 10SM CLR 17/03 A2977 RMK AO2 T01700032
     10218 20168=
KTQE 212354Z AUTO 04004KT 7SM CLR 18/00 A2958 RMK AO2 SLP011
     T01780000 10267 20178 58003=
KVSF 212354Z AUTO 00000KT 10SM CLR 06/02 A3011 RMK AO2 SLP203
     T00610017 10156 20061 51016=
KVTA 212354Z AUTO 18004KT 10SM CLR 16/01 A2998 RMK AO2 SLP154
     T01560006 10211 20156 53011=
PASC 212353Z COR 09017KT 6SM BLSN BKN011 BKN033 M03/M04 A2985 RMK
     AO2 SLP109 60000 T10281044 11028 21033 53007=
K21D 212355Z AUTO 00000KT 10SM CLR 10/01 A2962 RMK AO2=
K3N8 212355Z AUTO 19004KT 10SM CLR 11/00 A2956 RMK AO2 T01091003
     10159 20109=
KAXV 212355Z AUTO 19010KT 10SM CLR 17/00 A2990 RMK AO2=
KBWI 212354Z 16003KT 10SM FEW250 13/01 A3013 RMK AO2 SLP203
     T01330011 10200 20133 53007 $=
KCBG 212355Z AUTO 00000KT 10SM CLR 11/01 A2961 RMK AO2=
KCFJ 212355Z AUTO 17009KT 10SM CLR 17/M01 A2985 RMK AO2 T01651010
     10219 20163=
KDLZ 212355Z AUTO 18007KT 10SM CLR 14/00 A2996 RMK AO2=
KDSV 212354Z AUTO 14007KT 10SM CLR 11/M01 A2999 RMK AO2 SLP169
     T01061006 10183 20100 53013=
KEKM 212355Z AUTO 19007KT 7SM CLR 18/03 A2979 RMK AO2
     T01840035=
KI68 212355Z AUTO 18006KT 10SM CLR 15/01 A2996 RMK AO1 T01450006
     10218 20145=
KIPT 212354Z 17007KT 10SM CLR 14/M02 A3007 RMK AO2 SLP186
     T01391017 10161 20139 53009=
KS32 212355Z AUTO 30003KT 10SM BKN065 BKN075 OVC085 11/M00 A2954
     RMK AO2 TSNO=
KVGC 212355Z AUTO 17007KT 10SM CLR 10/M03 A3006 RMK AO2=
K3N8 212355Z AUTO 19004KT 10SM CLR 11/00 A2956 RMK AO2 T01091003
     10159 20109=
KATS 212355Z AUTO 00000KT 10SM CLR 27/08 A2987 RMK AO2=
KBFL 212354Z 33006KT 9SM CLR 32/04 A2976 RMK AO2 SLP072 T03170039
     10322 20267 56018=
KCLS 212355Z AUTO 20005KT 5SM -RA FEW038 FEW044 SCT060 08/07 A2973
     RMK AO2=
KCPT 212355Z AUTO 17014G19KT 10SM CLR 28/07 A2982 RMK A01=
KCVH 212355Z AUTO 26013KT 10SM CLR 17/11 A2989 RMK A01=
KDNA 212355Z AUTO 25007KT 10SM CLR 26/08 A2997 RMK AO2=
KL08 212355Z AUTO 12006KT 10SM CLR 32/05 A2976 RMK AO2=
KL35 212355Z AUTO 28009KT 10SM CLR 16/02 A3010 RMK AO2=
KMAN 212355Z AUTO 00000KT 10SM CLR 20/03 A2966 RMK A01=
KMRY 212354Z 28008KT 8SM BKN009 14/11 A2991 RMK AO2 SLP141
     T01440111 10167 20144 53002=
KPVF 212355Z AUTO 23006KT 10SM CLR 24/02 A2990 RMK AO1=
