SAUS80 KWBC 220200 RRA
METAR
KNAK 220154Z AUTO 00000KT 10SM CLR 11/07 A3016 RMK AO2 SLP216
     T01060067=
KP53 220156Z AUTO 19005KT 06/04 A2962 RMK AO1 SLP035 T00560039=
KACY 220154Z 00000KT 10SM CLR 07/06 A3019 RMK AO2 SLP221
     T00720056=
K2WX 220156Z AUTO 02014KT 13/03 A2950 RMK AO1 PK WND 36030/0110
     SLP991 T01330033=
KOFK 220156Z AUTO 13004KT 10SM CLR 10/M02 A2959 RMK AO2 SLP021
     T01001017=
K6R6 220151Z AUTO 07003KT 19/13 A2994 RMK AO1 SLP115 T01890128=
KELY 220153Z AUTO 16010KT 10SM CLR 10/M12 A2991 RMK AO2 SLP100
     T01001117=
KMEH 220156Z AUTO 00000KT 5SM RA BR SCT005 BKN012 OVC027 03/03
     A2967 RMK AO2 SLP051 P0005 T00330028=
KMHS 220156Z AUTO 00000KT 10SM SCT120 16/06 A2981 RMK AO2 SLP100
     T01560056=
KSPD 220156Z AUTO 00000KT 12/M09 A2972 RMK AO1 SLP023
     T01221089=
KSXT 220156Z AUTO 22007KT 200V260 10SM -RA SCT008 OVC060 11/09
     A2984 RMK AO2 RAB09E18B41 SLP086 P0000 T01060094=
KCAO 220155Z AUTO 24006KT 10SM CLR 17/M05 A2978 RMK AO2 SLP032
     T01721050=
KFLG 220157Z AUTO 24004KT 10SM CLR 12/03 A3010 RMK AO2 SLP138
     T01170033=
KSHV 220156Z 18007KT 10SM CLR 22/12 A2992 RMK SLPNO=
PHJR 220153Z 18005KT 10SM CLR 29/22 A2997 RMK AO2 SLP155
     T02890217=
PHKO 220153Z 21008KT 10SM CLR 29/22 A2994 RMK AO2 SLP136
     T02940222=
PHMK 220154Z COR 17007KT 10SM FEW031 29/21 A2998 RMK AO2 SLP153
     T02890206=
PHMK 220154Z 17007KT 10SM BKN031 29/21 A2998 RMK AO2 SLP153
     T02890206=
PHNL 220153Z 20007KT 10SM FEW025 FEW040 29/22 A2996 RMK AO2 SLP143
     T02890222=
PHNY 220156Z AUTO 28008KT 10SM CLR 26/20 A3004 RMK AO2 SLP150
     T02560200 $=
PHOG 220154Z 05013KT 10SM SCT040 32/22 A2994 RMK AO2 SLP144
     T03220217=
PHTO 220153Z 12009KT 10SM FEW013 SCT019 SCT046 26/23 A2997 RMK AO2
     RAB05E16 SLP148 P0000 T02610233=
KBIH 220156Z AUTO 17009KT 10SM CLR 18/M06 A2985 RMK AO2 SLP083
     T01831061=
KCAO 220155Z AUTO 24006KT 10SM CLR 17/M05 A2978 RMK AO2 SLP032
     T01721050=
KSFO 220156Z 29008KT 10SM FEW009 FEW180 BKN200 15/12 A2985 RMK AO2
     SLP107 T01500117=
K40U 220155Z AUTO 23007KT 10SM CLR 10/M09 A2983 RMK AO2
     T01001088=
KLWS 220156Z 07008KT 9SM -RA OVC046 07/05 A2965 RMK AO2 SLP045
     P0004 T00720050=
KWMC 220156Z AUTO 24012KT 10SM CLR 22/M06 A2975 RMK AO2 SLP057
     T02171061 $=
KINW 220156Z AUTO 22008KT 10SM CLR 17/04 A2999 RMK AO2 SLP119
     T01720044=
KP60 220156Z AUTO 27009G23KT 180V320 08/M05 A2967 RMK AO1 PK WND
     22035/0058 PRESFR SLP004 T00831050=
KSDM 220153Z COR 28004KT 10SM FEW015 18/15 A2988 RMK AO2 SLP114
     T01830150=
KTKC 220155Z AUTO 00000KT 10SM 11/00 A2962 RMK AO2 T01071004=
K4BM 220155Z AUTO 18013G23KT 10SM CLR 03/M15 A3012 RMK AO2=
KIZA 220155Z AUTO 25006G11KT 10SM CLR 15/13 A2989 RMK AO2=
KCKP 220155Z AUTO 00000KT 7SM CLR 11/00 A2960 RMK AO2
     T01140001=
KDBN 220155Z AUTO 00000KT 10SM CLR 07/06 A3016 RMK AO2=
KEHA 220155Z AUTO 00000KT 10SM CLR 20/M08 A2971 RMK AO2
     T01961079=
KPSN 220155Z AUTO 17005KT 10SM CLR 23/10 A2990 RMK AO2=
TJSJ 220156Z 14003KT 10SM SCT028 28/23 A2996 RMK AO2
     RAB12E21B52E56 SLP142 P0000 T02780228=
