SAUS70 KWBC 212300 RRK
METAR
KCEC 212256Z AUTO 31003KT 6SM HZ OVC024 15/07 A2995 RMK AO2 SLP144
     T01500072=
KCFD 212255Z AUTO 17008G16KT 10SM CLR 29/10 A2992 RMK AO2
     T02860102=
KE42 212255Z AUTO 22014KT 10SM CLR 29/M06 A2970 RMK AO2
     T02881060=
KELA 212255Z AUTO 19012G17KT 10SM SCT060 27/14 A2994 RMK AO2
     T02730139=
KLHM 212255Z AUTO 20007KT 10SM CLR 28/06 A2977 RMK AO1=
KMDD 212255Z AUTO 25014KT 10SM CLR 28/01 A2988 RMK AO2
     T02810014=
KPSO 212255Z AUTO 24010G16KT 10SM CLR 17/M05 A3006 RMK AO2
     T01701049=
KS33 212255Z AUTO 22014G20KT 10SM BKN050 OVC070 16/07 A2970 RMK
     AO2=
KT41 212255Z AUTO 10SM CLR 25/15 A2997 RMK AO2 T02520149=
KT82 212255Z AUTO 20012G15KT 10SM CLR 27/08 A2994 RMK AO2
     T02650076=
KTPH 212256Z AUTO 28012G19KT 10SM CLR 23/M07 A2995 RMK AO2 SLP097
     T02331072=
KVTP 212255Z AUTO 25008G18KT 10SM CLR 11/M12 A3008 RMK AO2=
PPIZ 212256Z AUTO 08004KT 10SM SCT043 OVC090 M02/M04 A2969 RMK AO2
     SLP059 T10171039 FZRANO=
K7BM 212255Z AUTO 29013G27KT 10SM CLR 12/M15 A3006 RMK AO2=
KC07 212255Z AUTO 27009G22KT 230V300 10SM CLR 08/M09 A3007 RMK
     AO2=
KEKO 212256Z AUTO 26021G28KT 10SM -RA CLR 24/M10 A2982 RMK AO2 PK
     WND 25028/2250 SLP068 P0000 T02391100=
KEMM 212255Z AUTO 27026G37KT 10SM CLR 15/M13 A2987 RMK AO2=
KF00 212255Z AUTO 17007KT 10SM CLR 29/09 A2980 RMK AO2
     T02900093=
KJDD 212255Z AUTO 17004KT 10SM CLR 28/11 A2985 RMK AO2=
KLHB 212255Z AUTO 17012G17KT 10SM CLR 29/11 A2990 RMK AO2
     T02910105=
KMNH 212255Z AUTO 29008KT 10SM CLR 20/M14 A2986 RMK AO2=
KOLM 212254Z 20008KT 9SM -RA OVC019 08/06 A2975 RMK AO2 SLP076
     P0002 T00780061 $=
KPEZ 212255Z AUTO 17008KT 10SM CLR 30/10 A2992 RMK AO2
     T02950095=
KRAS 212255Z AUTO 15011KT 10SM CLR A2998 RMK AO2=
KRDM 212256Z 23011KT 9SM FU OVC055 17/06 A2971 RMK AO2 SLP051
     T01720061=
KRWV 212255Z AUTO 19011KT 10SM CLR 28/09 A2991 RMK AO2
     T02850094=
KSLE 212256Z 00000KT 2 1/2SM -RA BR OVC006 11/09 A2976 RMK AO2
     RAB04E16B32 SLP079 P0005 T01060094=
KSTK 212255Z AUTO 19008KT 10SM CLR 23/M06 A2964 RMK AO2=
KT74 212255Z AUTO 18012G17KT 10SM CLR 29/09 A2990 RMK AO2
     T02850093=
KVHN 212255Z AUTO 29010KT 10SM CLR 27/05 A3001 RMK AO2
     T02660050=
K04V 212255Z AUTO 28011G17KT 10SM CLR 18/M09 A3000 RMK AO2=
K06C 212255Z AUTO 19007KT 10SM CLR 22/08 A2967 RMK AO2
     T02150081=
K0R4 212255Z AUTO 16008KT 10SM CLR 26/12 A2996 RMK AO2
     T02620116=
K17J 212255Z AUTO 00000KT 10SM CLR 18/02 A3008 RMK AO2
     T01770018=
K1A6 212255Z AUTO 00000KT 10SM CLR 12/03 A3007 RMK AO2
     T01220025=
K1R8 212255Z AUTO 21007KT 10SM CLR 19/07 A3006 RMK AO2=
K2G9 212255Z AUTO 16006KT 10SM CLR 10/M02 A3006 RMK AO2=
K33V 212255Z AUTO 24016G23KT 10SM CLR 11/M11 A2994 RMK AO1=
K3K3 212255Z AUTO 15005KT 10SM CLR 27/M07 A2968 RMK AO2=
K49A 212255Z AUTO 00000KT 10SM CLR 15/02 A3010 RMK AO2
     T01470016=
K4O4 212255Z AUTO 17008KT 9SM CLR 28/08 A2983 RMK AO2=
K5C1 212255Z AUTO 20010G14KT 10SM CLR 26/07 A2994 RMK AO1=
K5R8 212255Z AUTO 17009KT 10SM CLR 24/15 A2999 RMK AO2
     T02400154=
K66R 212255Z AUTO 17010G15KT 10SM CLR 27/14 A2994 RMK AO2
     T02660137=
K6P9 212255Z AUTO 19012G15KT 10SM CLR 30/04 A2983 RMK AO2
     T03000039=
K74V 212255Z AUTO 28018G23KT 10SM 23/M11 A2984 RMK AO2=
KAAA 212255Z AUTO 19009KT 10SM CLR 23/05 A2974 RMK AO2
     T02270050=
KADU 212255Z AUTO 00000KT 10SM SCT006 BKN036 OVC080 21/M04 A2962
     RMK AO2 PWINO=
KAFK 212255Z AUTO 22005KT 10SM CLR 25/00 A2959 RMK AO2
     T02500002=
KAIO 212255Z AUTO 00000KT 5SM HZ CLR 21/02 A2959 RMK AO2=
