SAUS70 KWBC 220000 RRN
METAR
KOPN 212355Z AUTO 00000KT 10SM CLR 13/03 A3012 RMK AO2=
KOWP 212355Z AUTO 18004KT 10SM CLR 29/01 A2973 RMK AO2 T02880012
     10338 20288=
KOWX 212355Z AUTO 18006KT 10SM CLR 17/M01 A2989 RMK AO1=
KPBX 212355Z AUTO 17003KT 10SM CLR 15/00 A3006 RMK AO2 T01540002
     10187 20154=
KPEA 212355Z AUTO 00000KT 10SM CLR 19/03 A2962 RMK AO2 T01950030
     10273 20191 402730053=
KPIM 212355Z AUTO 00000KT 10SM CLR 11/04 A3011 RMK AO2 T01110036
     10218 20111=
KPLU 212355Z AUTO 00000KT 7SM -DZ FEW028 SCT050 09/09 A2973 RMK
     AO2=
KPMU 212355Z AUTO 16005KT 10SM CLR 23/09 A2992 RMK AO2=
KPNA 212355Z AUTO 28010G17KT 10SM CLR 13/M07 A2982 RMK AO2=
KPNT 212355Z AUTO 19011KT 10SM CLR 19/07 A2975 RMK AO2 T01940071
     10250 20194=
KPOY 212355Z AUTO 27011KT 10SM SCT110 17/M06 A2953 RMK AO2=
KPPQ 212355Z AUTO 17005KT 10SM CLR 20/03 A2973 RMK AO2 T01950032
     10274 20194=
KRCV 212355Z AUTO 25015KT 10SM CLR 15/M05 A2998 RMK AO2 T01461053
     10190 20139=
KRDK 212355Z AUTO 35003KT CLR 16/00 A2959 RMK AO2=
KREG 212355Z AUTO 21003KT 10SM CLR 22/14 A3003 RMK AO2 T02200136
     10284 20220=
KRQO 212355Z AUTO 18010KT CLR 25/03 A2971 RMK AO2 PWINO T02500029
     10313 20250 403130076=
KSBO 212355Z AUTO 00000KT 10SM CLR 11/06 A3012 RMK AO2=
KSBS 212355Z AUTO 26010KT 10SM CLR 15/M09 A2986 RMK AO1 T01471088
     10178 20143=
KSDA 212355Z AUTO 02004KT 10SM CLR 19/01 A2956 RMK AO2=
KSEF 212355Z AUTO 02005KT 10SM CLR 20/11 A3003 RMK AO2 T01960112
     10254 20192 402540135=
KSHL 212355Z AUTO 13005KT 9SM CLR 14/01 A2958 RMK AO2=
KSJS 212355Z AUTO 15003KT 10SM CLR 14/01 A3004 RMK AO2 T01440013
     10196 20143=
KSUT 212355Z AUTO 00000KT 10SM BKN040 BKN049 16/09 A3011 RMK AO2
     T01560090 10237 20155=
KCCU 212355Z AUTO 26017G26KT 10SM CLR 05/M12 A3016 RMK AO2=
KCIN 212355Z AUTO 00000G10KT 6SM HZ CLR 19/00 A2961 RMK AO2=
KCKF 212355Z AUTO 00000KT 10SM CLR 13/04 A3012 RMK AO2 T01250038
     10216 20125=
KCNC 212355Z AUTO 18005KT 9SM CLR 21/03 A2961 RMK AO2=
KCOM 212355Z AUTO 21006KT CLR 29/01 A2984 RMK AO2 T02850010 10317
     20280 PWINO=
KCPW 212355Z AUTO 23019G31KT 10SM CLR 03/M06 A3027 RMK AO2=
KCUH 212355Z AUTO 19006KT 10SM CLR 27/03 A2970 RMK AO2 T02670028
     10323 20266=
KCWV 212355Z AUTO 00000KT 10SM CLR 11/07 A3011 RMK AO2 T01080065
     10224 20108=
KD73 212355Z AUTO 00000KT 10SM CLR 10/05 A3012 RMK AO2 T00950046
     10203 20094 402030009=
KDKB 212355Z AUTO 18007KT 10SM CLR 14/06 A2970 RMK AO2 T01390055
     10236 20138=
KDNS 212355Z AUTO RMK AO2 PNO PWINO=
KDNV 212355Z AUTO 18009G14KT 10SM CLR 20/03 A2982 RMK AO2
     T01980028 10251 20198=
KDVO 212355Z AUTO VRB06G18KT 10SM CLR 19/11 A2984 RMK AO2=
KE11 212355Z AUTO 25004KT 10SM CLR 25/03 A2987 RMK AO2 T02500027
     10281 20242=
KE16 212355Z AUTO 14013KT 10SM CLR 20/09 A2986 RMK AO2 PWINO
     PNO=
KE41 212355Z AUTO 19011G16KT 10SM CLR 25/10 A2990 RMK AO2
     T02450096 10284 20244 402840107=
KECU 212355Z AUTO 17007KT 10SM CLR 22/09 A2999 RMK AO2=
KEGT 212355Z AUTO 20014G19KT 10SM CLR 29/M02 A2964 RMK AO2
     T02901025 10322 20280 403220072=
KEOK 212355Z AUTO 19009G14KT 10SM CLR 23/04 A2965 RMK A01=
KFEP 212355Z AUTO 19009KT 10SM CLR 18/06 A2967 RMK AO2 T01770060
     10259 20173=
KFFL 212355Z AUTO 18006KT 6SM HZ CLR 21/00 A2963 RMK A01=
KFPY 212355Z AUTO 00000KT 10SM CLR 13/06 A3009 RMK AO2 T01310057
     10233 20131 TSNO=
KFSK 212355Z AUTO 19013KT 10SM CLR 24/05 A2969 RMK AO2 T02440048
     10302 20243 403020096=
KFZG 212355Z AUTO 00000KT 10SM CLR 11/07 A3011 RMK AO2 T01110069
     10216 20111=
