SAUS70 KWBC 220120 RRH
METAR
KHJH 220115Z AUTO 00000KT 10SM CLR 13/01 A2960 RMK AO2
     T01340014=
KLNN 220115Z AUTO 19010G16KT 10SM CLR 15/M03 A2993 RMK AO1
     T01481026=
KMWA 220115Z AUTO 20003KT 10SM CLR 17/07 A2989 RMK AO2
     T01690072=
KMWO 220115Z AUTO 26003KT 10SM CLR 09/01 A2997 RMK AO2
     T00860012=
KMZZ 220115Z AUTO 19008KT 10SM CLR 15/02 A2990 RMK AO2
     T01490021=
KOLY 220115Z AUTO 16006KT 10SM CLR 16/02 A2988 RMK AO2
     T01580015=
KPMV 220115Z AUTO 09003KT 10SM CLR 18/M01 A2959 RMK AO2
     T01761007=
KPPO 220115Z AUTO 19006KT 10SM CLR 16/07 A2979 RMK AO2
     T01640065=
KPRG 220115Z AUTO 18009KT 10SM CLR 15/04 A2987 RMK AO2
     T01480038=
KRPJ 220115Z AUTO 17006KT 10SM CLR 10/05 A2971 RMK AO2 T01040053
     TSNO=
KRSV 220115Z AUTO 17006KT 10SM CLR 15/02 A2989 RMK AO2
     T01520018=
KSTE 220115Z AUTO 00000KT 10SM CLR 09/03 A2966 RMK AO2
     T00930030=
KSXK 220115Z AUTO 11007KT 10SM FEW020 SCT024 SCT041 13/01 A2958
     RMK AO2=
KTYQ 220115Z AUTO 18008KT 10SM CLR 14/02 A2990 RMK AO2
     T01410020=
KVVS 220115Z AUTO 07004KT 10SM CLR 07/01 A3006 RMK AO2
     T00740010=
KVYS 220115Z AUTO 17010KT 10SM CLR 17/04 A2972 RMK AO2
     T01700042=
KGVT 220115Z AUTO 16008KT 10SM CLR 22/10 A2985 RMK AO2 TSNO
     T02150100=
KGZL 220115Z AUTO 15006KT 10SM CLR 23/06 A2978 RMK AO2 LTG DSNT
     S=
KHDE 220115Z AUTO 19005KT 10SM CLR 14/M01 A2961 RMK AO2
     T01391015=
KHDL 220115Z AUTO 00000KT 10SM BKN031 BKN036 11/08 A3012 RMK
     AO2=
KHHG 220115Z AUTO 18004KT 10SM CLR A2987 RMK AO2=
KHII 220115Z AUTO 18005KT 10SM CLR 30/04 A2975 RMK AO2=
KHMZ 220115Z AUTO 33003KT 10SM CLR 06/M01 A3010 RMK AO2
     T00561007=
KHNR 220115Z AUTO 00000KT 10SM CLR 10/01 A2959 RMK A01=
KHPT 220115Z AUTO 00000KT 5SM HZ CLR 08/M01 A2963 RMK AO2=
KHUM 220115Z AUTO 13004KT 10SM CLR 16/13 A3009 RMK AO2
     T01560131=
KI63 220115Z AUTO 17011KT 10SM CLR 19/02 A2971 RMK AO2
     T01900024=
KI75 220115Z AUTO 12003KT 10SM CLR 15/04 A2963 RMK AO2
     T01510035=
KIBM 220115Z AUTO 24008KT 10SM CLR 12/M10 A2969 RMK AO2
     T01191096=
KICL 220115Z AUTO 00000KT 9SM CLR 12/05 A2961 RMK AO2=
KIKK 220115Z AUTO 19010KT 10SM CLR 18/03 A2979 RMK AO2
     T01750025=
KIKV 220115Z AUTO 00000KT 10SM CLR 12/03 A2963 RMK AO2=
KJAS 220115Z AUTO 18005G16KT 10SM FEW045 22/16 A2998 RMK AO2=
KJKA 220115Z AUTO 00000KT 10SM CLR 13/10 A3011 RMK AO2=
KJOT 220115Z AUTO 20012G18KT 10SM CLR 21/04 A2974 RMK AO2
     T02050042=
KJYR 220115Z AUTO 00000KT 9SM CLR 15/M01 A2960 RMK AO2=
KK88 220115Z AUTO 16010KT 10SM CLR 22/04 A2969 RMK AO1
     T02200043=
KLAM 220115Z AUTO 20003KT 10SM CLR 14/M03 A3005 RMK AO2
     T01411035=
KLCQ 220115Z AUTO 00000KT 10SM CLR 10/05 A3011 RMK AO2 LTG DSNT
     E=
KLGC 220115Z AUTO 00000KT 10SM CLR 09/05 A3012 RMK AO2
     T00860047=
KLLN 220115Z AUTO 24009KT 10SM CLR 18/04 A2986 RMK AO2=
KLOM 220115Z AUTO 00000KT 10SM CLR 05/04 A3017 RMK AO2
     T00530036=
KLOT 220115Z AUTO 18013KT 10SM CLR 19/04 A2975 RMK AO2=
KLRJ 220115Z AUTO 00000KT 10SM CLR 11/00 A2958 RMK AO2=
KLWB 220115Z AUTO 00000KT 10SM CLR 06/01 A3014 RMK AO2
     T00560010=
KLXN 220115Z AUTO 17008KT 7SM CLR 14/M01 A2961 RMK AO2
     T01371012=
KMDQ 220115Z AUTO 00000KT 10SM CLR 16/03 A3006 RMK A02
     T01640033=
KMJD 220115Z AUTO 00000KT 10SM CLR 15/11 A3007 RMK AO2=
KMLJ 220115Z AUTO 00000KT 10SM CLR 10/03 A3012 RMK AO2=
KMQI 220115Z AUTO 03006KT 10SM CLR 15/11 A3016 RMK AO2
     T01490108=
KMQS 220115Z AUTO 00000KT 10SM CLR 09/M00 A3017 RMK AO2=
KN03 220115Z AUTO 25003KT 10SM CLR 08/M02 A3007 RMK AO2=
