SAUS70 KWBC 212342 RRA
METAR
KPNT 212335Z AUTO 19014KT 10SM CLR 20/07 A2974 RMK AO2
     T02010073=
KRCR 212335Z AUTO 19009KT 10SM CLR 19/03 A2980 RMK AO2=
KRDK 212335Z AUTO 01004KT CLR 19/00 A2958 RMK AO2=
KSHL 212335Z AUTO 5SM HZ CLR 16/01 A2958 RMK AO2=
KUBE 212335Z AUTO 00000KT 10SM CLR 12/06 A2961 RMK AO2=
KW22 212335Z AUTO 10SM CLR 11/M01 A3006 RMK AO2=
KAAA 212335Z AUTO 19008KT 10SM CLR 21/05 A2975 RMK AO2
     T02090051=
KAFK 212335Z AUTO 24004KT 10SM CLR 23/00 A2958 RMK AO2
     T02320000=
KAJG 212335Z AUTO 18006KT 10SM CLR 18/02 A2987 RMK AO2
     T01820016=
KASW 212335Z AUTO 18004KT 10SM CLR 18/02 A2981 RMK AO2
     T01880028=
KBJI 212335Z AUTO 00000KT 10SM CLR 12/01 A2957 RMK AO2
     T01150006=
KBUU 212335Z AUTO 20005KT 10SM CLR 18/04 A2966 RMK AO2 T01820042
     PWINO=
KCAV 212335Z AUTO 02005KT 2 1/2SM HZ CLR 15/01 A2962 RMK A01=
KCBF 212335Z AUTO 00000KT 3SM HZ CLR 21/M05 A2957 RMK AO2=
KCNC 212335Z AUTO 19007KT 4SM HZ CLR 22/03 A2960 RMK AO2=
KDNS 212335Z AUTO 00000KT 8SM 20/01 A2961 RMK AO2=
KGBG 212335Z AUTO 18006KT 10SM CLR 21/05 A2968 RMK AO2
     T02110047=
KGGF 212335Z AUTO 22011KT 6SM HZ CLR 24/M09 A2960 RMK AO2=
KGHG 212335Z AUTO 21004KT 10SM CLR 11/06 A3015 RMK AO2=
KGWB 212335Z AUTO 20005KT 10SM CLR 17/03 A2983 RMK AO2=
KHDE 212335Z AUTO 17004KT 10SM CLR 20/M02 A2962 RMK AO2
     T02021016=
KHMZ 212335Z AUTO 00000KT 10SM CLR 11/M02 A3008 RMK AO2
     T01131018=
KHPT 212335Z AUTO 36004KT 10SM CLR 16/00 A2962 RMK AO2=
KIKV 212335Z AUTO 00000KT 10SM CLR 17/02 A2961 RMK AO2=
KLWB 212335Z AUTO 00000KT 10SM CLR 10/01 A3011 RMK AO2
     T00980006=
KMGC 212335Z AUTO 19008KT 160V220 10SM CLR 20/02 A2974 RMK AO2=
KOGA 212335Z AUTO 24004KT 10SM CLR 25/M05 A2959 RMK AO2
     T02521047=
KPPQ 212335Z AUTO 16007KT 10SM CLR 20/03 A2973 RMK AO2
     T02020034=
KSLB 212335Z AUTO 07005KT 9SM CLR 17/01 A2961 RMK AO2=
KTAZ 212335Z AUTO 17011KT 10SM CLR 20/03 A2980 RMK AO2
     T02020033=
KTIF 212335Z AUTO 16006KT 10SM CLR 20/M02 A2959 RMK AO2
     T01961021=
KUNI 212335Z AUTO 16004KT 7SM CLR 12/00 A3000 RMK AO2
     T01200000=
KVYS 212335Z AUTO 17010KT 10SM CLR 19/04 A2968 RMK AO2
     T01890041=
KZER 212335Z AUTO 15006KT 10SM CLR 08/M02 A3011 RMK AO2=
K74V 212335Z AUTO 28012KT 10SM 22/M10 A2983 RMK AO2=
KBBD 212335Z AUTO 18011G17KT 10SM CLR 28/02 A2987 RMK AO2=
KCOM 212335Z AUTO 21009G19KT 10SM CLR 30/01 A2984 RMK AO2
     T02960010=
KCZT 212335Z AUTO 18004KT 10SM CLR 26/10 A2990 RMK AO2=
KDKB 212335Z AUTO 19008KT 10SM CLR 15/06 A2969 RMK AO2
     T01500057=
KDKR 212335Z AUTO 16009KT 10SM CLR 26/09 A2989 RMK AO2=
KE38 212335Z AUTO 28008KT 10SM CLR 25/04 A3007 RMK AO2
     T02460043=
KECU 212335Z AUTO 17008KT 10SM CLR 23/09 A2999 RMK AO2=
KFMM 212335Z AUTO 25005KT 10SM CLR 22/M06 A2968 RMK AO2 LTG DSNT
     S=
KGCD 212335Z AUTO 22007KT 10SM SCT050 BKN095 OVC110 14/03 A2968
     RMK AO2 T01410032=
KGVT 212335Z AUTO 17010KT 10SM CLR 27/08 A2982 RMK AO2 TSNO
     T02720077=
KHII 212335Z AUTO 21006KT 10SM CLR 32/04 A2977 RMK AO2=
KJAS 212335Z AUTO 19008G14KT 9SM CLR 24/14 A2993 RMK AO2=
KLAM 212335Z AUTO 28007G15KT 10SM CLR 17/M05 A3006 RMK AO2
     T01691050=
KLHB 212335Z AUTO 17009KT 10SM CLR 28/10 A2990 RMK AO2
     T02750100=
KLUV 212335Z AUTO 24009KT 10SM CLR 26/01 A2985 RMK AO2=
KPLU 212335Z AUTO 00000KT 8SM -DZ FEW050 09/08 A2973 RMK AO2=
KPOY 212335Z AUTO 27014G23KT 10SM SCT110 18/M06 A2953 RMK AO2=
KRCV 212335Z AUTO 23012G19KT 10SM CLR 15/M05 A2998 RMK AO2
     T01491052=
KRWV 212335Z AUTO 18011KT 10SM CLR 27/09 A2991 RMK AO2
     T02700094=
