SAUS70 KWBC 212320 RRF
METAR
KM75 212315Z AUTO 08005KT 10SM OVC029 08/04 A2954 RMK A01=
KMEV 212315Z AUTO 26011G22KT 10SM CLR 23/M06 A2992 RMK AO2=
KPRS 212315Z AUTO 00000KT 10SM CLR 29/11 A2996 RMK AO2
     T02890111=
KRTS 212315Z AUTO 24016G23KT 10SM CLR 23/M07 A2991 RMK AO2=
KSWW 212315Z AUTO 23009G20KT 10SM CLR 29/02 A2986 RMK AO2
     T02850022=
KSZT 212315Z AUTO 20008KT 168V228 7SM -RA SCT010 OVC018 04/03
     A2966 RMK AO2=
KT89 212315Z AUTO 15005KT 10SM CLR 30/07 A2991 RMK A01=
KUVA 212315Z AUTO 19006KT 10SM CLR 27/09 A2994 RMK AO2
     T02710088=
K1H2 212315Z AUTO 16006KT 10SM CLR 21/03 A2985 RMK AO2
     T02060027=
K2G2 212310Z AUTO 20006KT 10SM CLR 14/M02 A3000 RMK A01=
K33N 212315Z AUTO 00000KT 10SM CLR 10/05 A3014 RMK A01=
K3LF 212315Z AUTO 16011KT 10SM CLR 20/03 A2980 RMK AO2
     T02040030=
KADC 212316Z AUTO 00000KT 10SM CLR 11/M01 A2959 RMK AO2 TSNO=
KAHQ 212315Z AUTO 13005KT 7SM CLR 21/01 A2958 RMK AO2
     T02070005=
KANW 212315Z AUTO 14006KT 10SM CLR 19/M01 A2958 RMK AO2
     T01861007=
KAUH 212315Z AUTO 00000KT 10SM CLR 22/M01 A2960 RMK AO2
     T02221011=
KBIE 212315Z AUTO 00000KT 7SM CLR 23/01 A2958 RMK AO2
     T02300011=
KBNW 212315Z AUTO 00000KT 10SM CLR 23/M00 A2962 RMK AO2=
KBTA 212315Z AUTO 12004KT 4SM HZ CLR 22/01 A2959 RMK AO2
     T02160011=
KBTN 212310Z AUTO 15005KT 6SM HZ CLR 15/M00 A2954 RMK AO2=
KBVN 212315Z AUTO 14004KT 10SM CLR 20/M01 A2960 RMK AO2
     T02011014=
KC09 212315Z AUTO 20008G15KT 10SM CLR 22/05 A2969 RMK AO2
     T02190047=
KCCY 212315Z AUTO 34004KT 5SM HZ CLR 18/00 A2962 RMK AO2=
KCSQ 212315Z AUTO 00000KT 3SM HZ CLR 23/01 A2960 RMK AO2=
KDEH 212315Z AUTO 00000KT 9SM CLR 20/01 A2961 RMK AO2=
KDSF 212315Z AUTO 05008KT 10SM CLR 22/13 A3008 RMK A01=
KHHV 212315Z AUTO 15009G20KT 10SM SCT041 24/14 A2998 RMK A01=
KHYX 212315Z AUTO 18008KT 10SM CLR 16/04 A2972 RMK AO2
     T01570039=
KIFA 212315Z AUTO 35003KT 5SM HZ CLR 19/01 A2962 RMK AO2
     T01880012=
KIGQ 212315Z AUTO 20009KT 10SM CLR 20/05 A2972 RMK AO2
     T02000048=
KJPX 212315Z AUTO 20005KT 10SM CLR 13/07 A3015 RMK AO2
     T01290073=
KLCG 212315Z AUTO 06005KT 10SM CLR 19/M01 A2959 RMK AO2
     T01881010=
KONA 212315Z AUTO 00000KT 10SM CLR 15/03 A2961 RMK AO2=
KOXV 212315Z AUTO 24004KT 8SM CLR 25/01 A2959 RMK AO2=
KSAR 212315Z AUTO 17006KT 10SM CLR 22/06 A2983 RMK AO2
     T02160056=
KXLL 212315Z AUTO 17003KT 10SM CLR 12/01 A3013 RMK AO2=
KD39 212315Z AUTO 00000KT 10SM CLR 13/01 A2960 RMK AO2
     T01320008=
KGGI 212315Z AUTO 24003KT 5SM HZ CLR 21/02 A2961 RMK AO2
     T02120018=
KHCD 212315Z AUTO 00000KT 10SM CLR 14/01 A2963 RMK AO2
     T01440005=
KHLB 212315Z AUTO 18004KT 10SM CLR 16/00 A2993 RMK A01=
KHSB 212315Z AUTO 18006KT 10SM CLR 21/08 A2986 RMK AO2
     T02080084=
KHZX 212315Z AUTO 00000KT 7SM CLR 13/02 A2959 RMK AO2=
KI74 212315Z AUTO 20005KT 10SM CLR 15/01 A2993 RMK AO2=
KM30 212315Z AUTO 17004KT 10SM CLR 23/07 A2988 RMK AO2
     T02260065=
KMOP 212315Z AUTO 17008KT 10SM CLR 17/04 A2967 RMK AO2
     T01650044=
KMUT 212315Z AUTO 19006KT 10SM CLR 22/02 A2963 RMK AO2=
KOSC 212315Z AUTO 19008G14KT 10SM CLR 16/04 A2965 RMK AO2
     T01600043=
KOXI 212315Z AUTO 19011KT 10SM CLR 18/02 A2976 RMK AO1=
KPCW 212315Z AUTO 20010KT 10SM CLR 18/02 A2985 RMK AO2=
KPEX 212315Z AUTO 00000KT 10SM CLR 13/01 A2962 RMK AO2=
KPRO 212315Z AUTO 20006KT 10SM CLR 20/M01 A2960 RMK AO2
     T01981010=
KPTD 212315Z AUTO 17008KT 10SM FEW032 BKN042 OVC048 12/M02 A2996
     RMK AO2=
KRMY 212315Z AUTO 17005KT 10SM CLR 18/04 A2976 RMK AO2
     T01770038=
KRRT 212315Z AUTO 21003KT 10SM CLR 13/04 A2950 RMK AO2=
