SAUS70 KWBC 212300 RRG
METAR
KARG 212256Z AUTO 19008KT 10SM CLR 23/09 A2986 RMK AO2 SLP111
     T02280094=
KASH 212256Z 00000KT 10SM CLR 09/04 A3012 RMK AO2 SLP206 T00890044
     $=
KBDH 212255Z AUTO 00000KT 10SM CLR 15/02 A2965 RMK AO2=
KBHB 212256Z AUTO 22005KT 10SM CLR 10/05 A3014 RMK AO2 SLP209
     T01000050 PNO $=
KBID 212256Z AUTO 22007KT 10SM CLR 14/07 A3016 RMK AO2 SLP215
     T01390067=
KBKX 212256Z AUTO 00000KT 5SM HZ CLR A2961 RMK AO2 SLPNO FZRANO
     $=
KBLM 212256Z AUTO 15004KT 10SM CLR 12/06 A3016 RMK AO2 SLP212
     T01220056=
KBMI 212256Z 20014KT 10SM CLR 21/04 A2975 RMK AO2 SLP069
     T02110039=
KBTP 212256Z AUTO 18005KT 10SM CLR 13/M01 A3001 RMK AO2 SLP172
     T01331006 TSNO=
KBVI 212255Z AUTO 17004KT 10SM CLR 15/M02 A3000 RMK AO2
     T01461018=
KBVX 212256Z AUTO 15007KT 120V180 10SM CLR 24/09 A2986 RMK AO2
     SLP109 T02390089=
KCAD 212255Z AUTO 21011G19KT 10SM CLR 16/04 A2964 RMK AO2
     T01620035=
KCDA 212255Z AUTO 13005KT 10SM 09/M02 A3008 RMK AO2 T00871025=
KCDI 212255Z AUTO 17003KT 10SM CLR 12/02 A3000 RMK AO2
     T01240022=
KCFE 212255Z AUTO 00000KT 10SM CLR 16/02 A2960 RMK AO2=
KCGZ 212256Z AUTO 31007KT 10SM CLR 31/12 A2983 RMK AO2 SLP089
     T03110117 $=
KCIU 212256Z AUTO 27012KT 10SM CLR 13/06 A2958 RMK AO2 SLP018
     T01280056=
KCMA 212255Z 21009KT 7SM CLR 22/17 A2984 RMK AO2 SLP113
     T02170172=
KCNB 212255Z AUTO 11003KT 5SM HZ CLR 17/00 A2961 RMK AO2
     T01691004=
KCOD 212256Z AUTO 27011G14KT 10SM FEW100 19/M02 A2957 RMK AO2
     SLP968 T01941022=
KCVN 212256Z AUTO 25018G26KT 10SM CLR 25/M02 A2985 RMK AO2 PK WND
     24029/2219 SLP077 T02501022=
KCVX 212255Z AUTO 24009G14KT 10SM CLR 17/06 A2958 RMK AO2
     T01700056=
KCWI 212256Z AUTO 20009KT 9SM CLR 21/04 A2963 RMK AO2 SLP036
     T02110044=
KRUT 212256Z AUTO 11009KT 10SM CLR 09/M02 A3008 RMK AO2 SLP187
     T00891017 $=
KSDY 212256Z AUTO 02005KT 10SM -RA SCT043 SCT060 OVC080 08/07
     A2954 RMK AO2 SLP016 T00780067 PNO $=
KSFM 212256Z AUTO 00000KT 10SM CLR 06/03 A3013 RMK AO2 SLP209
     T00560033=
KSFZ 212256Z AUTO VRB03KT 10SM CLR 12/06 A3014 RMK AO2 SLP209
     T01170056=
KSGH 212256Z AUTO 19005KT 10SM CLR 17/01 A2994 RMK AO2 SLP142
     T01670006=
KSGJ 212256Z 35007KT 10SM CLR 18/10 A3008 RMK AO2 SLP183
     T01830100=
KSGT 212256Z AUTO 21006KT 10SM CLR 25/09 A2988 RMK AO2 SLP117
     T02500089=
KSGU 212256Z AUTO 28012KT 10SM CLR 27/M01 A2986 RMK AO2 SLP084
     T02721011=
KSJX 212255Z AUTO 22011G18KT 10SM CLR 12/07 A2959 RMK AO2
     T01150072=
KSKX 212256Z AUTO 27017G21KT 10SM CLR 19/M07 A3003 RMK AO2 SLP143
     T01891072=
KSLG 212256Z AUTO 17008KT 10SM CLR 25/06 A2980 RMK AO2 SLP083
     T02500056=
KSLH 212255Z AUTO 25005KT 10SM CLR 17/06 A2957 RMK AO2=
KSMN 212256Z AUTO 26008KT 10SM BKN090 OVC110 19/M03 A2954 RMK AO2
     SLP713 T01891033=
KSOP 212256Z AUTO 00000KT 10SM CLR 12/03 A3012 RMK AO2 SLP208
     T01170033 TSNO=
KSQI 212256Z AUTO VRB03KT 10SM CLR 23/03 A2965 RMK AO2 SLP907
     T02330033=
KSRC 212256Z AUTO 19005KT 10SM CLR 24/09 A2986 RMK AO2 SLP110
     T02390094=
KSUE 212256Z AUTO 16003KT 10SM CLR 17/05 A2958 RMK AO2 SLP016
     T01720050=
KTOB 212255Z AUTO 33004KT 10SM 17/01 A2962 RMK AO2=
KTTF 212255Z AUTO 19006KT 10SM CLR 18/02 A2980 RMK AO2
     T01750018=
KTVF 212256Z AUTO 25007KT 10SM CLR 14/00 A2955 RMK AO2 SLP011
     T01390000=
KUDG 212256Z AUTO 00000KT 10SM CLR 12/04 A3011 RMK AO2 SLP199
     T01220039=
KUGN 212255Z 21013KT 10SM CLR 21/04 A2964 RMK AO2 PK WND
     20027/2159 SLP035 T02110039=
KULM 212255Z AUTO 00000KT 10SM CLR 17/00 A2962 RMK AO2=
