SAUS70 KWBC 212338 RRG
METAR
KGAO 212335Z AUTO 14003KT 10SM CLR 20/13 A3007 RMK AO2
     T01960125=
KGCY 212335Z AUTO 00000KT 10SM CLR 12/01 A3007 RMK A01=
KGDJ 212335Z AUTO 18009KT 10SM CLR 30/04 A2982 RMK AO2
     T03000036=
KGGI 212335Z AUTO 25003KT 10SM CLR 21/02 A2962 RMK AO2
     T02110017=
KGKT 212335Z AUTO 00000KT 10SM CLR 13/01 A3006 RMK A01=
KGOO 212335Z AUTO 00000KT 10SM CLR 24/03 A2990 RMK A01=
KGYB 212335Z AUTO 20008G14KT 10SM CLR 27/09 A2992 RMK AO2
     T02730094=
KGZN 212320Z AUTO 20012G23KT 10SM CLR 30/00 A2980 RMK AO2=
KGZS 212335Z AUTO 00000KT 10SM FEW055 16/09 A3000 RMK A01=
KH71 212335Z AUTO 16008KT 10SM CLR 27/03 A2971 RMK AO2=
KHCD 212335Z AUTO 00000KT 10SM CLR 12/00 A2964 RMK AO2
     T01210000=
KPHT 212335Z AUTO 16006KT 10SM CLR 19/09 A2991 RMK A01=
KPKV 212335Z AUTO 18011G15KT 10SM SCT043 26/15 A2997 RMK AO2
     T02560149=
KPMH 212335Z AUTO 00000KT 10SM CLR 13/00 A3000 RMK AO2
     T01300003=
KPRO 212335Z AUTO 21006KT 10SM CLR 18/M01 A2961 RMK AO2
     T01781006=
KPRS 212335Z AUTO 00000KT 10SM CLR 29/11 A2995 RMK AO2
     T02850112=
KPTD 212335Z AUTO 18011KT 10SM FEW032 BKN042 OVC060 13/M02 A2996
     RMK AO2=
KPUJ 212335Z AUTO 00000KT 7SM CLR 13/02 A3009 RMK AO2=
KPVB 212335Z AUTO 00000KT 10SM CLR 21/01 A2963 RMK AO1
     T02070005=
KPVJ 212335Z AUTO 18005KT 10SM CLR 29/02 A2973 RMK AO2
     T02860020=
KPYX 212335Z AUTO 21009KT 10SM CLR 26/M07 A2966 RMK AO2
     T02631071=
KRKR 212335Z AUTO 17008KT 10SM CLR 25/03 A2980 RMK AO2=
KRMY 212335Z AUTO 19006KT 10SM CLR 18/04 A2976 RMK AO2
     T01770037=
KRNC 212335Z AUTO 00000KT 10SM CLR 16/01 A3003 RMK A01=
KRSN 212335Z AUTO 19006KT 10SM CLR 24/11 A2995 RMK AO2
     T02440114=
KRTS 212335Z AUTO 27014G23KT 10SM CLR 22/M07 A2991 RMK AO2=
KRUQ 212335Z AUTO 00000KT 10SM CLR 10/03 A3012 RMK AO2
     T00950031=
KRZL 212335Z AUTO 19012KT 10SM CLR 19/01 A2980 RMK AO2=
KRZR 212335Z AUTO 00000KT 10SM CLR 12/02 A3005 RMK A01=
KSAR 212335Z AUTO 16005KT 10SM CLR 21/06 A2984 RMK AO2
     T02110060=
KSCD 212335Z AUTO 16003KT 10SM CLR 17/06 A3008 RMK AO2
     T01690061=
KSCX 212335Z AUTO 19004KT 10SM CLR 14/M01 A3005 RMK A01=
KSEM 212335Z AUTO 13003KT 10SM CLR 15/11 A3005 RMK AO2=
KSEZ 212335Z AUTO 23008KT 10SM 22/05 A3000 RMK AO2=
KSFQ 212335Z AUTO 00000KT 10SM CLR 14/08 A3016 RMK AO2
     T01380081=
KSIF 212335Z AUTO 00000KT 10SM CLR 08/04 A3013 RMK AO2
     T00760040=
KSLO 212335Z AUTO 16005KT 10SM CLR 21/03 A2984 RMK AO2
     T02110031=
KSNH 212330Z AUTO 17004KT 10SM CLR 20/11 A2994 RMK A01=
KSRB 212335Z AUTO 15004KT 10SM CLR 16/02 A3003 RMK A01=
KSRE 212335Z AUTO 10SM CLR 28/M00 A2973 RMK AO2=
KHFJ 212335Z AUTO 17008KT 10SM CLR 23/02 A2977 RMK AO2=
KHHF 212335Z AUTO 22008KT 10SM CLR 29/M02 A2965 RMK AO2
     T02851020=
KHLB 212335Z AUTO VRB04KT 10SM CLR 16/00 A2993 RMK A01=
KHLX 212335Z AUTO 18004KT 10SM CLR 11/M08 A3013 RMK AO2
     T01051077=
KHOE 212335Z AUTO 00000KT 10SM CLR 12/07 A3009 RMK AO2
     T01230078=
KHQG 212335Z AUTO 28006KT 10SM CLR 27/M09 A2966 RMK AO2
     T02661086=
KHRX 212335Z AUTO 24012KT 10SM CLR 27/M02 A2978 RMK AO2
     T02661022=
KHSB 212335Z AUTO 16004KT 10SM CLR 17/07 A2987 RMK AO2
     T01740069=
KHSD 212335Z AUTO 17013KT 10SM CLR 28/02 A2969 RMK A01=
KHYW 212335Z AUTO 00000KT 10SM CLR 10/08 A3011 RMK AO2=
KHYX 212335Z AUTO 19009KT 10SM CLR 16/04 A2972 RMK AO2
     T01580039=
KHZD 212335Z AUTO 15004KT 10SM CLR 20/10 A2991 RMK A01=
KHZX 212335Z AUTO 00000KT 10SM CLR 10/02 A2959 RMK AO2=
KI35 212335Z AUTO 00000KT 10SM CLR 13/00 A3007 RMK AO2
     T01261001=
KI67 212335Z AUTO 17003KT 10SM CLR 17/00 A2994 RMK AO1=
