SAUS70 KWBC 220022 RRA
METAR
KADU 220015Z AUTO 00000KT 10SM SCT005 SCT036 SCT075 09/M01 A2962
     RMK AO2=
KAFK 220015Z AUTO 00000KT 10SM CLR 23/00 A2959 RMK AO2
     T02290000=
KAHQ 220015Z AUTO 00000KT 7SM CLR 17/00 A2958 RMK AO2
     T01661002=
KAIO 220015Z AUTO 01005KT 7SM CLR 12/01 A2959 RMK AO2=
KAJG 220015Z AUTO 18006KT 10SM CLR 17/01 A2988 RMK AO2
     T01710013=
KAUH 220015Z AUTO 00000KT 7SM CLR 15/M01 A2960 RMK AO2
     T01511013=
KAWG 220015Z AUTO 18006KT 10SM CLR 21/03 A2963 RMK AO2=
KAXA 220015Z AUTO 10004KT 8SM CLR 17/03 A2962 RMK A01=
KBIE 220015Z AUTO 00000KT 10SM CLR 18/01 A2958 RMK AO2
     T01790008=
KC35 220015Z AUTO 00000KT 10SM CLR 15/04 A2964 RMK AO2 T01450035
     PWINO=
KC75 220015Z AUTO 19009G15KT 10SM CLR 21/07 A2969 RMK AO2
     T02140069=
KCAV 220015Z AUTO 06005KT 2SM HZ 13/02 A2962 RMK A01=
KCFS 220015Z AUTO 18008KT 10SM CLR 16/03 A2974 RMK AO2
     T01630028=
KCKN 220015Z AUTO 22004KT 10SM CLR 11/M02 A2954 RMK AO2=
KGDB 220015Z AUTO 00000KT 10SM CLR 11/03 A2963 RMK AO2
     T01120025=
KMZZ 220015Z AUTO 20011KT 7SM CLR 16/03 A2988 RMK AO2
     T01610025=
KOQN 220015Z AUTO 00000KT 10SM CLR 12/00 A3015 RMK AO2=
KPPO 220015Z AUTO 19007KT 10SM SCT110 18/07 A2978 RMK AO2
     T01780066=
KPRG 220015Z AUTO 17007KT 10SM CLR 14/04 A2986 RMK AO2
     T01400035=
KRPJ 220015Z AUTO 17006KT 7SM CLR 15/07 A2969 RMK AO2 T01540065
     TSNO=
KRSV 220015Z AUTO 18003KT 10SM CLR 15/02 A2988 RMK AO2
     T01500015=
KSXK 220015Z AUTO 11007KT 7SM FEW024 FEW035 15/01 A2958 RMK
     AO2=
KTYQ 220015Z AUTO 18008KT 10SM CLR 15/02 A2989 RMK AO2
     T01500019=
KVVS 220015Z AUTO 00000KT 10SM CLR 10/01 A3005 RMK AO2
     T00970010=
KVYS 220015Z AUTO 17011KT 10SM CLR 19/04 A2970 RMK AO2
     T01850043=
K5SM 220015Z AUTO 25011G21KT 10SM CLR 03/M11 A3014 RMK AO2=
K81R 220015Z AUTO 18007KT 10SM CLR 26/07 A2988 RMK AO2
     T02600075=
KBBD 220015Z AUTO 20011KT 10SM CLR 26/03 A2988 RMK AO2=
KBDG 220015Z AUTO 18005G16KT 10SM 18/M03 A3003 RMK AO1
     T01771034=
KBPG 220015Z AUTO 19008KT 10SM CLR 24/05 A2985 RMK AO2
     T02430051=
KC07 220015Z AUTO 28006KT 240V320 10SM CLR 05/M08 A3007 RMK
     AO2=
KCFD 220015Z AUTO 17005KT 10SM CLR 26/10 A2992 RMK AO2
     T02570100=
KECU 220015Z AUTO 17007KT 10SM CLR 21/09 A3000 RMK AO2=
KFMM 220015Z AUTO 00000KT 10SM CLR 20/M08 A2967 RMK AO2=
KGCD 220015Z AUTO 22011KT 10SM SCT060 BKN075 OVC110 14/03 A2966
     RMK AO2 T01410031=
KGVT 220015Z AUTO 17009KT 10SM CLR 24/09 A2983 RMK AO2 TSNO
     T02390092=
KJAS 220015Z AUTO 19009G14KT 10SM CLR 23/14 A2995 RMK AO2=
KMNH 220015Z AUTO 27004KT 10SM CLR 13/M14 A2985 RMK AO2=
KPEZ 220015Z AUTO 15004KT 10SM CLR 26/11 A2992 RMK AO2
     T02550105=
KPSO 220015Z AUTO 23009G15KT 10SM CLR 15/M05 A3005 RMK AO2
     T01471048=
KRAS 220015Z AUTO 15012G17KT 10SM CLR A2998 RMK AO2=
KRWV 220015Z AUTO 18007KT 10SM CLR 25/10 A2991 RMK AO2
     T02490096=
KRYW 220015Z AUTO 19009KT 10SM CLR 25/08 A2992 RMK AO2
     T02510080=
KS33 220015Z AUTO 23010G14KT 10SM SCT043 BKN049 OVC060 15/07 A2968
     RMK AO2=
KSAA 220015Z AUTO 22013G17KT 10SM CLR 13/M12 A2984 RMK AO2=
KSTK 220015Z AUTO 17005KT 10SM CLR 20/M03 A2963 RMK AO2=
KT41 220015Z AUTO 10SM CLR 23/15 A2998 RMK AO2 T02290153=
KT74 220015Z AUTO 18006KT 10SM CLR 24/10 A2990 RMK AO2
     T02420099=
KT82 220015Z AUTO 18005KT 10SM CLR 23/08 A2994 RMK AO2
     T02340077=
KTEX 220015Z AUTO 29007KT 10SM CLR 11/M10 A3012 RMK AO2=
KVHN 220015Z AUTO 27005KT 10SM CLR 25/06 A3000 RMK AO2
     T02450061=
KVTP 220015Z AUTO 24013G22KT 10SM CLR 08/M12 A3007 RMK AO2=
