SAUS70 KWBC 220118 RRH
METAR
KCNB 220115Z AUTO 14004KT 10SM CLR 11/01 A2961 RMK AO2
     T01050005=
KCRX 220115Z AUTO 16006KT 10SM CLR 18/09 A2997 RMK AO2=
KCSQ 220115Z AUTO 08005KT 8SM CLR 16/02 A2961 RMK AO2=
KCVC 220115Z AUTO 00000KT 10SM CLR 09/03 A3012 RMK AO2=
KCVX 220115Z AUTO 21004KT 10SM CLR 14/06 A2962 RMK AO2
     T01410055=
KCWC 220115Z AUTO 19013KT 10SM CLR 25/02 A2976 RMK AO2
     T02480015=
KCXP 220115Z AUTO 20015G22KT 10SM CLR 20/M05 A2990 RMK AO2=
KCXU 220115Z AUTO 00000KT 10SM CLR 10/05 A3012 RMK AO1
     T00950045=
KCXW 220110Z AUTO 00000KT 7SM FEW037 BKN050 BKN060 18/08 A2986 RMK
     A01=
KCZL 220115Z AUTO 00000KT 10SM CLR 10/04 A3012 RMK AO2=
KD39 220115Z AUTO 00000KT 10SM CLR 09/00 A2960 RMK AO2
     T00910003=
KDEH 220115Z AUTO 00000KT 10SM SCT018 14/01 A2963 RMK AO2=
KDKX 220115Z AUTO 00000KT 10SM CLR 09/06 A3009 RMK A01=
KDSF 220110Z AUTO 05009KT 10SM CLR 22/13 A3010 RMK A01=
KDTA 220115Z AUTO 17011KT 10SM CLR 16/M10 A2982 RMK AO1=
KDTL 220115Z AUTO 13005KT 10SM OVC055 10/01 A2956 RMK AO2=
KDUA 220115Z AUTO 17007KT 10SM CLR 22/06 A2982 RMK AO2=
KDUH 220115Z AUTO 19008KT 10SM CLR 18/00 A2986 RMK AO2
     T01750000=
KDZB 220115Z AUTO 17004KT 10SM CLR 23/07 A2992 RMK AO2
     T02300069=
KECS 220115Z AUTO 35003KT 10SM CLR 14/M09 A2953 RMK AO2=
KEDN 220115Z AUTO 00000KT 10SM CLR 11/07 A3011 RMK AO2
     T01120068=
KEIK 220115Z AUTO 25011G21KT 10SM CLR 21/M11 A2972 RMK AO2
     T02121115 PWINO=
KEKS 220110Z AUTO 19013G22KT 10SM FEW044 BKN050 OVC075 16/M01
     A2958 RMK AO2=
KERV 220115Z AUTO 15004KT 10SM CLR 21/09 A2996 RMK AO2
     T02090087=
KERY 220115Z AUTO 22003KT 5SM BR CLR 05/05 A2962 RMK AO2
     T00510047=
KF05 220115Z AUTO 20009KT 10SM CLR 25/03 A2973 RMK AO2
     T02540030=
KF17 220115Z AUTO 16003KT 10SM CLR 22/10 A2994 RMK AO2=
KF44 220115Z AUTO 18004KT 10SM CLR 22/11 A2988 RMK AO2=
KF46 220115Z AUTO 19009G15KT 10SM CLR 25/09 A2985 RMK AO2
     T02500093=
KFFX 220115Z AUTO 21010G18KT 10SM CLR 19/04 A2971 RMK AO2
     T01920043=
KM75 220115Z AUTO 07006KT 10SM BKN029 OVC033 07/05 A2954 RMK
     A01=
KM91 220115Z AUTO VRB06KT 10SM FEW049 BKN055 18/04 A2996 RMK
     A01=
KMBT 220115Z AUTO 16008KT 10SM SCT038 16/03 A3000 RMK A01=
KMCD 220115Z AUTO 28005KT 10SM CLR 10/07 A2962 RMK AO2
     T01020066=
KMEV 220115Z AUTO 24016G21KT 10SM CLR 19/M06 A2990 RMK AO2=
KMHV 220120Z AUTO 23010KT 10SM CLR 25/01 A2987 RMK A01=
KMIO 220115Z AUTO 15014KT 10SM CLR 24/05 A2973 RMK AO2=
KMMI 220115Z AUTO 00000KT 10SM CLR 09/02 A3011 RMK A01=
KMNV 220115Z AUTO 00000KT 09/02 A3009 RMK A01=
KMNZ 220115Z AUTO 17009KT 10SM CLR 24/06 A2988 RMK AO2
     T02380063=
KMOP 220115Z AUTO 19007KT 10SM CLR 16/05 A2971 RMK AO2
     T01560045=
KMOR 220115Z AUTO 00000KT 10SM CLR 09/02 A3008 RMK A01=
KMOX 220115Z AUTO 11005KT 10SM CLR 11/M03 A2959 RMK AO2=
KMRC 220110Z AUTO 16005KT 10SM CLR 18/07 A2998 RMK A01=
KMUT 220115Z AUTO 00000KT 10SM CLR 17/03 A2967 RMK AO2=
KMVH 220115Z AUTO 11004KT 7SM FEW005 BKN012 OVC042 06/05 A2958 RMK
     AO2 PWINO=
KMWM 220115Z AUTO 08003KT 10SM CLR 07/00 A2963 RMK AO2=
KMZH 220115Z AUTO 00000KT 10SM CLR 07/01 A2962 RMK AO2=
KO69 220115Z AUTO 31007G14KT 8SM SCT011 13/11 A2985 RMK A01=
KOEB 220115Z AUTO 19005KT 10SM CLR 17/03 A2982 RMK AO2
     T01670027=
KOJA 220115Z AUTO 19010G17KT 10SM CLR 25/02 A2970 RMK AO2
     T02500018=
KONA 220115Z AUTO 00000KT 10SM CLR 10/04 A2965 RMK AO2=
KONZ 220115Z AUTO 20012KT 10SM OVC100 14/02 A2985 RMK AO2
     T01370021=
KOSC 220115Z AUTO 19007KT 10SM CLR 15/05 A2969 RMK AO2
     T01500051=
