SACA35 KWBC 212300 RRA
METAR
MGSJ 212300Z 36004KT 9999 FEW028 BKN090 27/24 Q1011 A2985=
