SAUS70 KWBC 220200
METAR
KMAI 220153Z AUTO 00000KT 10SM CLR 11/06 A3012 RMK AO1 SLP197
     T01110061=
KMDH 220152Z 17004KT 10SM CLR 16/07 A2988 RMK AO2 SLP116
     T01560072=
KMEB 220152Z AUTO 00000KT 10SM CLR 08/04 A3015 RMK AO2 SLP210
     T00830039=
KMKE 220152Z 22007KT 10SM FEW250 17/04 A2968 RMK AO2 SLP051
     T01720044=
KMLI 220152Z 18007KT 10SM CLR 19/03 A2968 RMK AO2 SLP048
     T01940033=
KMSS 220153Z AUTO 19008KT 10SM CLR 12/M02 A2998 RMK AO2 SLP155
     T01171017=
KOKC 220152Z 16010KT 10SM FEW200 21/05 A2972 RMK AO2 SLP056
     T02060050=
KOMA 220152Z 00000KT 10SM SCT250 11/03 A2958 RMK AO2 SLP019
     T01060028=
KORB 220153Z AUTO 00000KT 10SM CLR 09/02 A2955 RMK AO2=
KORE 220152Z AUTO 00000KT 10SM CLR 03/01 A3017 RMK AO2 SLP221
     T00280006=
KOTM 220153Z AUTO 18008KT 10SM CLR 18/03 A2965 RMK AO2 SLP038
     T01830028=
KOWA 220153Z AUTO 15005KT 10SM CLR 10/04 A2964 RMK AO2=
KPPF 220152Z AUTO 18010G17KT 10SM CLR 24/04 A2971 RMK AO2 SLP052
     T02440039 PWINO $=
KPWK 220152Z 19011KT 10SM CLR 21/04 A2974 RMK AO2 SLP069
     T02060039=
KPYM 220152Z AUTO 00000KT 10SM CLR 08/06 A3019 RMK AO2 SLP227
     T00780061=
KRAP 220152Z 35010KT 10SM CLR 13/M03 A2947 RMK AO2 SLP982
     T01281033=
KSGF 220152Z 17010KT 10SM CLR 21/03 A2978 RMK AO2 SLP078 T02060028
     $=
KSPI 220152Z 18012G22KT 10SM CLR 19/04 A2977 RMK AO2 SLP079
     T01890039=
KSUX 220152Z 00000KT 5SM HZ CLR 11/00 A2958 RMK AO2 SLP021
     T01110000=
KTAN 220152Z AUTO A3019 RMK AO2 SLPNO PWINO FZRANO TSNO $=
KAQW 220152Z AUTO 14005KT 10SM CLR 06/ A3014 RMK AO2 SLP212 T0061
     $=
KARR 220152Z 16007KT 10SM CLR 15/04 A2974 RMK AO2 SLP070
     T01500039=
KBIS 220152Z 07006KT 10SM BKN110 11/01 A2951 RMK AO2 SLP002
     T01110006=
KBLF 220152Z AUTO 17006KT 10SM CLR 10/M02 A3013 RMK AO2 SLP195
     T01001022=
KBML 220152Z AUTO 00000KT 10SM CLR 01/M01 A3011 RMK AO2 SLP209
     T00061011=
KCFV 220152Z AUTO 16010KT 10SM CLR 24/05 A2969 RMK AO2 SLP050
     T02390050=
KCLT 220152Z 00000KT 10SM CLR 12/00 A3015 RMK SLP208 T01170000=
KCMX 220153Z AUTO 00000KT 10SM CLR 09/04 A2959 RMK AO2 SLP024
     T00940039=
KCQX 220152Z AUTO 21003KT 10SM CLR 13/09 A3022 RMK AO2 SLP233
     T01330094=
KCVG 220152Z 19008KT 10SM CLR 14/01 A2997 RMK AO2 SLP145
     T01390006=
KDCA 220152Z 22004KT 10SM CLR 13/05 A3017 RMK AO2 SLP217 T01280050
     $=
KDDC 220152Z AUTO 19007KT 10SM CLR 18/M03 A2963 RMK AO2 SLP021
     T01831028=
KDPA 220152Z 19010KT 10SM CLR 18/04 A2974 RMK AO2 SLP069
     T01780044=
KDVN 220152Z AUTO 18008KT 10SM CLR 18/04 A2970 RMK AO2 SLP052
     T01830039=
KDVP 220153Z AUTO 14006KT 7SM CLR 09/01 A2962 RMK AO2
     T00900006=
KEST 220152Z AUTO 08006KT 8SM CLR 08/01 A2963 RMK AO2 SLP038
     T00830011=
KFIT 220152Z AUTO 00000KT 10SM CLR 04/01 A3017 RMK AO2 SLP220
     T00390011=
KGAG 220153Z AUTO 18016KT 10SM CLR 23/M02 A2964 RMK AO2 SLP020
     T02281022=
KGLS 220152Z AUTO 19011KT 10SM SCT043 23/15 A3003 RMK AO2 SLP167
     T02330150=
KHIE 220152Z AUTO 00000KT 10SM CLR M01/M02 A3012 RMK AO2 SLP211
     T10061022=
KHRL 220152Z 14009KT 10SM CLR 22/16 A2999 RMK AO2 SLP154
     T02170156=
KHUT 220152Z 16009KT 10SM CLR 22/M01 A2960 RMK AO2 SLP008
     T02171006=
KIAD 220152Z 17005KT 10SM CLR 11/02 A3015 RMK AO2 SLP210
     T01110022=
KIEN 220152Z AUTO VRB03KT 10SM CLR 14/M06 A2949 RMK AO2 SLP990
     T01391061=
KIJD 220152Z AUTO 00000KT 10SM CLR 05/04 A3018 RMK AO2 SLP221
     T00500044=
KIOW 220152Z AUTO 00000KT 10SM CLR 15/03 A2966 RMK AO2 SLP046
     T01500033=
KLAL 220150Z 02006KT 10SM SKC 17/07 A3008=
