SAUS70 KWBC 220126
METAR
K11R 220115Z AUTO 19010G15KT 10SM CLR 25/15 A2996 RMK AO2
     T02450145=
K20V 220115Z AUTO 25014G19KT 10SM CLR 12/M08 A2994 RMK AO2=
KAFO 220115Z AUTO 16008KT 10SM CLR 10/M11 A2978 RMK AO2=
KANK 220110Z AUTO 25009KT 10SM CLR 14/M12 A3001 RMK AO1
     T01361116=
KAXX 220115Z AUTO 25014G20KT 10SM CLR 10/M06 A3007 RMK AO2
     T01031064=
KBMC 220110Z AUTO 10SM CLR 16/M05 A2972 RMK AO1 T01641046=
KBMT 220115Z AUTO 00000KT 10SM CLR 20/14 A3001 RMK AO2
     T01970144=
KDUB 220116Z AUTO 30012G19KT 10SM CLR 10/M08 A2968 RMK AO2=
KDUX 220115Z AUTO 20009KT 10SM CLR 19/M03 A2972 RMK AO2
     T01921028=
KDWX 220110Z AUTO 18014G18KT 10SM CLR 06/M20 A2987 RMK AO2
     T00601198=
KEAN 220110Z AUTO 26009G15KT 10SM CLR 20/M12 A2962 RMK AO2
     T01991118=
KEDC 220115Z AUTO 19006KT 10SM FEW049 23/08 A2991 RMK AO2=
KETN 220115Z AUTO 19004KT 10SM CLR 23/03 A2983 RMK AO2
     T02300033=
KGLE 220115Z AUTO 17009KT 10SM CLR 23/06 A2981 RMK AO2
     T02290056=
KGNB 220115Z AUTO 25011G15KT 10SM CLR 11/M11 A2997 RMK AO2
     T01071112=
KGNC 220115Z AUTO 20006KT 10SM CLR 21/05 A2992 RMK AO2
     T02080050=
KHBV 220110Z AUTO 14011KT 5SM HZ CLR 23/13 A2996 RMK AO2
     T02290132=
KHEQ 220115Z AUTO 19010KT 10SM CLR 12/M06 A2965 RMK AO2=
KHSG 220110Z AUTO 22013G22KT 10SM CLR 18/M05 A2955 RMK AO2
     T01771053=
KHVE 220115Z AUTO 18007KT 10SM CLR 20/M05 A2983 RMK AO2=
KORG 220115Z AUTO 18007KT 10SM CLR 23/16 A3003 RMK AO2
     T02300164=
KOSA 220110Z AUTO 15005KT 10SM CLR 21/12 A2988 RMK AO2
     T02050118=
KOZA 220115Z AUTO 18009G14KT 10SM CLR 21/07 A2994 RMK AO2=
KPEQ 220115Z AUTO 23007KT 10SM CLR 22/09 A2988 RMK AO2
     T02220092=
KPVW 220110Z AUTO 23007KT 10SM CLR 18/01 A2980 RMK AO2
     T01840010=
KSLR 220110Z AUTO 17008KT 10SM CLR 25/10 A2987 RMK AO2
     T02460096=
KTMK 220115Z AUTO 19011G16KT 10SM OVC014 14/12 A2964 RMK AO2
     P0001=
KTRK 220115Z AUTO 23008G14KT 10SM CLR 16/M04 A2998 RMK AO2=
KTXW 220110Z AUTO 14011KT 10SM CLR 24/17 A2998 RMK AO2
     T02440166=
KW99 220122Z AUTO 00000KT 10SM CLR 05/02 A3012 RMK AO2=
KEZS 220135Z AUTO 00000KT 10SM CLR 10/06 A2964 RMK AO2
     T00990059=
KGPH 220135Z AUTO 17004KT 10SM CLR 23/02 A2965 RMK AO2=
KJVY 220115Z AUTO 19004KT 10SM CLR 15/01 A2996 RMK AO2 PWINO=
KTNB 220110Z AUTO 00000KT 10SM CLR 04/M01 A3017 RMK AO2
     T00381011=
KW63 220135Z AUTO 00000KT 3SM CLR 07/07 A3015 RMK AO1=
K2W6 220119Z AUTO 00000KT 10SM CLR 10/07 A3018 RMK AO1=
KBUU 220115Z AUTO 21006KT 10SM CLR 16/05 A2969 RMK AO2 T01610046
     PWINO=
KCGE 220115Z AUTO 00000KT 10SM FEW045 08/06 A3017 RMK A01=
KDCY 220115Z AUTO 17008KT 10SM CLR 14/02 A2990 RMK AO2
     T01430022=
KDLL 220135Z AUTO 00000KT 10SM CLR 10/03 A2965 RMK AO2
     T01000027=
KDMW 220115Z AUTO 17000KT 10SM CLR 12/01 A3014 RMK AO2=
KEBS 220115Z AUTO 09005KT 6SM HZ CLR 11/00 A2960 RMK AO2=
KEVM 220121Z AUTO 00000KT 10SM CLR 06/02 A2959 RMK AO2=
KFME 220119Z AUTO 00000KT 10SM CLR 05/03 A3018 RMK AO1=
KGAF 220135Z AUTO 27005KT 7SM BKN080 11/02 A2955 RMK AO2=
KIIB 220115Z AUTO 12004KT 7SM CLR 12/02 A2965 RMK AO2
     T01210020=
KMLE 220115Z AUTO 00000KT 10SM CLR 13/02 A2959 RMK AO2
     T01270024=
KMPZ 220110Z AUTO 00000KT 10SM CLR 18/07 A2967 RMK AO2=
KSDA 220115Z AUTO 05004KT 7SM CLR 13/02 A2958 RMK AO2=
KSHL 220115Z AUTO 05010KT 6SM HZ CLR 10/00 A2960 RMK AO2=
KTIF 220115Z AUTO 17011KT 10SM CLR 17/M02 A2959 RMK AO2
     T01671020=
KTZR 220115Z AUTO 18005KT 10SM CLR 12/01 A2999 RMK AO2
     T01180005=
KUMP 220115Z AUTO 00000KT 10SM CLR 16/03 A2991 RMK AO2
     T01600030=
