SAUS80 KWBC 220200 RRI
METAR
KFAR 220155Z 15003KT 10SM CLR 11/M02 A2956=
