SAUS70 KWBC 220038 RRB
METAR
KHOB 220035Z AUTO 21006KT 10SM CLR 20/08 A2988 RMK AO2=
KHRJ 220035Z AUTO 00000KT 10SM CLR 10/06 A3015 RMK AO2
     T00970062=
KORS 220035Z AUTO 18003KT 4SM -RA HZ FEW030 SCT042 OVC049 10/
     A2971 RMK AO2=
KOZS 220035Z AUTO 15008KT 10SM CLR 20/M01 A2976 RMK AO2=
KPAN 220035Z AUTO 22005KT 10SM CLR 20/04 A3004 RMK AO2 PWINO
     TSNO=
KPCM 220035Z AUTO 35004KT 10SM CLR 19/06 A3007 RMK AO2=
KPGV 220035Z AUTO 00000KT 10SM BKN060 11/07 A3014 RMK AO2=
KPLR 220035Z AUTO 00000KT 10SM BKN045 11/07 A3009 RMK A01=
KPVF 220035Z AUTO 21005KT 10SM CLR 22/03 A2989 RMK AO1=
KRCE 220035Z AUTO 17011KT 10SM CLR 23/02 A2970 RMK AO2=
KRMN 220035Z AUTO 00000KT 10SM CLR 10/05 A3018 RMK AO2
     T00970046=
KRNH 220035Z AUTO 00000KT 10SM CLR 09/05 A2963 RMK AO2
     T00900052=
KRPH 220035Z AUTO VRB06KT 9SM CLR 27/02 A2976 RMK AO2 T02730021
     $=
KRUG 220035Z AUTO 34009G15KT 10SM SCT043 BKN049 OVC055 08/05 A2954
     RMK AO2=
KRVL 220035Z AUTO 00000KT 10SM CLR 08/01 A3009 RMK AO2=
KRYV 220035Z AUTO 00000KT 10SM CLR 15/02 A2965 RMK AO2
     T01480023=
KRZN 220035Z AUTO 00000KT 10SM CLR 08/02 A2962 RMK AO2
     T00780017=
KS25 220035Z AUTO 01003KT 10SM FEW041 BKN065 OVC075 07/07 A2955
     RMK AO2=
KS32 220035Z AUTO 30005KT 10SM BKN070 BKN090 OVC110 10/M00 A2956
     RMK AO2 TSNO=
KSCR 220035Z AUTO 00000KT 10SM CLR 07/04 A3014 RMK AO2
     T00660041=
KSIK 220035Z AUTO 18004KT 10SM CLR 20/09 A2988 RMK AO2=
KSPF 220035Z AUTO 26003KT 10SM CLR 12/M04 A2953 RMK AO2=
KSTF 220035Z AUTO 15005KT 10SM CLR 18/12 A2999 RMK AO2=
KSUZ 220035Z AUTO 17005KT 10SM CLR 20/10 A2988 RMK A01=
KT69 220035Z AUTO 17007KT 10SM CLR 23/16 A2996 RMK A01=
KTKX 220035Z AUTO 18006KT 7SM SCT042 BKN048 18/10 A2988 RMK AO2
     TSNO=
KTME 220035Z AUTO 19011KT 10SM CLR 23/14 A2998 RMK AO2=
KTSP 220035Z AUTO 31011G16KT 10SM CLR 22/M03 A2996 RMK AO2=
KTWT 220035Z AUTO 15003KT 10SM CLR 17/05 A2990 RMK AO2=
KU42 220035Z AUTO 22008KT 10SM CLR 20/00 A2979 RMK AO1
     T02000004=
KUOX 220035Z AUTO 15006KT 10SM FEW065 19/10 A2997 RMK AO2
     PWINO=
KUTA 220035Z AUTO 16006KT 10SM CLR 21/09 A2990 RMK AO2 T02060093
     $=
KVGC 220035Z AUTO 14007KT 10SM CLR 07/M02 A3007 RMK AO2=
KVJI 220035Z AUTO 00000KT 10SM CLR 08/00 A3011 RMK AO2
     T00791003=
KW78 220035Z AUTO 00000KT 10SM CLR 08/03 A3015 RMK AO1
     T00750033=
KW81 220035Z AUTO 00000KT 10SM CLR 07/03 A3014 RMK AO1
     T00660030=
KX07 220035Z AUTO 01003KT 10SM FEW048 18/09 A3005 RMK A01=
KXNX 220035Z AUTO 16004KT 10SM FEW050 16/02 A3002 RMK A01=
KY19 220035Z AUTO 07006KT 10SM CLR 11/02 A2952 RMK AO2=
K10G 220035Z AUTO 18005KT 10SM CLR 14/M01 A3000 RMK AO2=
K1P1 220035Z AUTO 00000KT 10SM CLR 01/00 A3013 RMK AO2
     T00120001=
K21D 220035Z AUTO 00000KT 10SM CLR 09/01 A2963 RMK AO2=
K4I3 220035Z AUTO 17004KT 10SM CLR 12/01 A2999 RMK AO2=
K6L4 220035Z AUTO 00000KT 10SM CLR 14/00 A3006 RMK AO2=
KBDH 220035Z AUTO 00000KT 10SM CLR 12/02 A2965 RMK AO2=
KCFE 220035Z AUTO 00000KT 10SM SCT024 OVC065 09/01 A2962 RMK
     AO2=
KCOQ 220035Z AUTO 00000KT 10SM CLR 08/01 A2959 RMK AO2 TSNO=
KDLZ 220035Z AUTO 18008KT 10SM CLR 14/00 A2997 RMK AO2=
KDXX 220035Z AUTO 12007KT 7SM CLR 12/00 A2962 RMK AO2=
KDYT 220035Z AUTO 26004KT 10SM CLR 12/04 A2958 RMK AO2=
KFBL 220035Z AUTO 00000KT 10SM CLR 09/03 A2964 RMK AO2=
KFSE 220035Z AUTO 17004KT 10SM SCT120 09/M02 A2956 RMK AO2=
KHCO 220035Z AUTO 23005KT 10SM SCT080 OVC100 12/01 A2951 RMK
     AO2=
KJKJ 220035Z AUTO 15004KT 7SM CLR 12/M01 A2956 RMK AO2 TSNO=
KJMR 220035Z AUTO 00000KT 10SM CLR 08/02 A2964 RMK AO2=
