SAUS80 KWBC 220220
METAR
KSYN 220215Z AUTO 00000KT 4SM HZ CLR 08/02 A2964 RMK AO2
     T00840018=
KGNG 220215Z AUTO 21005KT 10SM SCT049 SCT080 OVC110 15/02 A2967
     RMK AO2=
KRFI 220215Z AUTO 17005KT 10SM CLR 24/07 A2993 RMK AO2
     T02370072=
KRLD 220215Z AUTO 23004KT 10SM -RA SCT025 SCT070 BKN100 10/09
     A2965 RMK AO2 P0001 T00980088=
KSOW 220215Z AUTO 21008KT 10SM CLR 14/05 A3010 RMK AO2=
K9MN 220215Z AUTO 13004KT 10SM CLR 14/02 A2965 RMK AO1
     T01360024=
KVTI 220215Z AUTO 17003KT 7SM CLR 12/01 A2964 RMK AO2
     T01180009=
KEDU 220220Z AUTO 21009KT 10SM CLR 18/11 A2974 RMK AO1=
KCIR 220215Z AUTO 20004KT 10SM CLR 17/09 A2990 RMK AO2
     T01670091=
KS39 220215Z AUTO 28006G13KT 7SM -RA FEW019 SCT028 BKN034 12/09
     A2964 RMK AO2=
KSEP 220215Z AUTO 17006KT 10SM SCT120 23/05 A2987 RMK AO2
     T02250046=
KTKC 220215Z AUTO 00000KT 10SM 11/00 A2962 RMK AO2 T01131003=
KTKV 220215Z AUTO 00000KT 10SM CLR 05/02 A2966 RMK AO2 T00510022
     PWINO=
K40U 220215Z AUTO 29005KT 10SM CLR 08/M09 A2984 RMK AO2
     T00801085=
K48A 220215Z AUTO 00000KT 10SM CLR 07/04 A3014 RMK AO2
     T00740040=
KCTY 220215Z AUTO 00000KT 10SM CLR 08/04 A3012 RMK AO2
     T00780045=
KCKP 220215Z AUTO 00000KT 7SM CLR 10/00 A2960 RMK AO2
     T01030000=
KDBN 220215Z AUTO 00000KT 10SM CLR 07/05 A3017 RMK AO2=
KEHA 220215Z AUTO 14004KT 10SM CLR 18/M08 A2970 RMK AO2
     T01821076=
K4BM 220215Z AUTO 18012G20KT 10SM CLR 03/M15 A3011 RMK AO2=
KPSN 220215Z AUTO 17005KT 10SM CLR 22/10 A2990 RMK AO2=
KIZA 220215Z AUTO 25004KT 10SM CLR 14/13 A2989 RMK AO2=
K40U 220215Z AUTO 29005KT 10SM CLR 08/M09 A2984 RMK AO2
     T00801085=
KMKN 220215Z AUTO 19012KT 10SM CLR 24/07 A2986 RMK AO2
     T02400070=
