SAUS70 KWBC 220138 RRF
METAR
KALM 220135Z AUTO 15008KT 10SM CLR 18/06 A2996 RMK AO2=
KAQP 220133Z AUTO 17005KT 10SM 12/00 A2958 RMK AO2=
KBEA 220135Z AUTO 15006KT 10SM CLR 20/14 A2996 RMK AO2 T02010137
     PWINO=
KF70 220135Z AUTO 21006KT 10SM CLR 20/15 A2987 RMK AO2=
KHAF 220135Z AUTO 5SM BR OVC011 14/13 A2988 RMK AO2=
KHOB 220135Z AUTO 23008KT 10SM CLR 19/07 A2989 RMK AO2=
KJSO 220135Z AUTO 20006KT 10SM CLR 23/11 A2994 RMK AO2 T02250110
     TSNO=
KL08 220135Z AUTO 00000KT 10SM CLR 27/08 A2975 RMK AO2=
KL18 220135Z AUTO 23004KT 10SM BKN010 18/16 A2987 RMK AO2=
KLRU 220135Z AUTO 25007KT 10SM CLR 21/06 A3000 RMK AO2
     T02070056=
KPAN 220135Z AUTO 18003KT 10SM CLR 16/04 A3005 RMK AO2 PWINO
     TSNO=
KRPH 220135Z AUTO 17006KT 9SM CLR 26/04 A2976 RMK AO2 T02600035
     $=
KSNK 220135Z AUTO 20010KT 10SM CLR 23/03 A2984 RMK AO2
     T02250032=
KSRR 220135Z AUTO 13004KT 10SM 14/02 A3008 RMK AO2=
KTVY 220135Z AUTO 16010KT 10SM CLR 13/M05 A2976 RMK AO2=
K06D 220135Z AUTO 00000KT 10SM FEW042 OVC060 05/05 A2956 RMK
     AO2=
K5H4 220135Z AUTO 00000KT 10SM OVC060 09/05 A2956 RMK AO2=
K6B9 220135Z AUTO VRB06G17KT 10SM CLR 12/M02 A3003 RMK AO2=
K96D 220135Z AUTO 31006KT 10SM BKN026 BKN039 OVC070 09/08 A2956
     RMK AO2=
KAEL 220135Z AUTO 00000KT 7SM CLR 09/03 A2965 RMK AO2=
KAUM 220136Z AUTO 00000KT 10SM CLR 09/03 A2965 RMK AO2=
KBWP 220135Z AUTO 15004KT 9SM FEW031 OVC050 12/M01 A2955 RMK
     AO2=
KCFJ 220135Z AUTO 15007KT 10SM CLR 13/M01 A2988 RMK AO2
     T01251013=
KDTL 220135Z AUTO 00000KT 10SM OVC055 10/01 A2956 RMK AO2=
KDUH 220135Z AUTO 19007KT 10SM CLR 17/00 A2987 RMK AO2
     T01670000=
KFFX 220135Z AUTO 21010G17KT 10SM CLR 19/05 A2971 RMK AO2
     T01920046=
KFPK 220135Z AUTO 19009KT 10SM CLR 16/04 A2977 RMK AO2
     T01560035=
KIDI 220135Z AUTO 00000KT 10SM BKN055 06/02 A3010 RMK A01=
KIRS 220135Z AUTO 20009G18KT 10SM CLR 16/01 A2982 RMK AO2
     T01620008=
KISQ 220135Z AUTO 00000KT 1/4SM FG VV002 05/05 A2963 RMK AO2
     T00470047=
KJYM 220135Z AUTO 17007KT 10SM CLR 15/01 A2984 RMK AO2
     T01470008=
KLXL 220135Z AUTO 00000KT 10SM CLR 07/01 A2961 RMK AO2=
KMCD 220135Z AUTO 29005KT 10SM CLR 10/07 A2964 RMK AO2
     T00960066=
KOCQ 220135Z AUTO 28003KT 10SM CLR 06/04 A2963 RMK AO1
     T00580041=
KOLG 220135Z AUTO 21003KT 10SM CLR 04/00 A2961 RMK AO1=
KPVB 220135Z AUTO 00000KT 10SM CLR 19/01 A2966 RMK AO1
     T01940005=
KRNH 220135Z AUTO 00000KT 10SM CLR 06/04 A2964 RMK AO2
     T00640044=
KRNP 220135Z AUTO 19009G18KT 10SM CLR 17/03 A2977 RMK AO2
     T01710025=
KRVL 220135Z AUTO 00000KT 10SM CLR 05/00 A3012 RMK AO2=
KRYV 220135Z AUTO 00000KT 10SM CLR 10/03 A2967 RMK AO2
     T00950030=
KRZN 220135Z AUTO 00000KT 10SM CLR 07/01 A2962 RMK AO2
     T00690012=
K2P2 220135Z AUTO 00000KT 10SM CLR 06/06 A2961 RMK AO2
     T00570057=
K46D 220135Z AUTO 00000KT 6SM HZ FEW039 FEW047 OVC070 10/03 A2956
     RMK AO2=
K7L2 220135Z AUTO 09006KT 10SM FEW120 13/M01 A2953 RMK AO2=
K9D7 220135Z AUTO 01006KT 7SM SCT029 BKN038 OVC065 07/06 A2958 RMK
     AO2 TSNO=
KACB 220135Z AUTO 00000KT 10SM CLR 09/07 A2964 RMK AO2
     T00870068=
KANQ 220135Z AUTO 18008KT 10SM FEW028 SCT037 BKN047 15/03 A2984
     RMK AO2=
KBAC 220135Z AUTO 00000KT 9SM FEW036 BKN100 BKN120 10/01 A2955 RMK
     AO2=
KBDH 220135Z AUTO 00000KT 10SM CLR 09/02 A2964 RMK AO2=
KBWW 220135Z AUTO 02009KT 10SM OVC110 12/03 A2953 RMK AO2=
KEDJ 220135Z AUTO 18010KT 10SM CLR 14/01 A2996 RMK A01=
KGWR 220135Z AUTO 17006KT 7SM BKN025 OVC048 11/01 A2955 RMK
     A01=
KI67 220135Z AUTO 00000KT 10SM CLR 13/00 A2996 RMK AO1=
