SACA35 KWBC 220200
METAR
MGGI NIL=
MGPB 220200Z 00000KT 7000 RA OVC016 24/23 Q1015 A2997=
MGSJ NIL=
MHLC 220200Z 15004KT 6000 -RA FEW012 BKN020 OVC070 24/23 Q1015
     A2997 NOSIG=
MHLM 220200Z 04004KT 7000 -RA SCT020 OVC070 22/21 Q1015 A2997
     NOSIG=
MHTG 220200Z 04007KT 020V080 9999 FEW012 SCT032 BKN080 21/19 Q1018
     A3006 NOSIG=
MNPC NIL=
MPBO NIL=
MPCH NIL=
MPDA 220200Z 26003KT 9000 -RA FEW004 SCT015CB OVC080 25/24
     Q1012=
MPMG NIL=
MPSA NIL=
MPTO 220200Z 34003KT 9999 SCT016 BKN080 24/23 Q1010 NOSIG=
MRLB NIL=
MRLM NIL=
MROC 220200Z VRB03G13KT 7000 2000SW -RA BCFG FEW005 BKN010 21/20
     A3008 NOSIG=
MRPV NIL=
MSLP 220150Z 34003KT 300V360 9999 VCTS FEW017 BKN030 FEW037CB
     27/25 Q1011 A2987 TEMPO 07010G20KT 5000 TSRA RMK CB NE E=
MSSS NIL=
MZBZ NIL=
