SAUS80 KWBC 212248
METAR
KLZZ 212235Z AUTO 20008G15KT 10SM CLR 30/05 A2984 RMK AO2
     T02960050=
