SAUS70 KWBC 220138 RRE
METAR
KLNP 220135Z AUTO 19004KT 10SM CLR 09/00 A3012 RMK AO2=
KLRO 220135Z AUTO 00000KT 10SM CLR 10/10 A3013 RMK AO2=
KLRU 220135Z AUTO 25007KT 10SM CLR 21/06 A3000 RMK AO2
     T02070056=
KLRY 220135Z AUTO 19006KT 10SM CLR 22/02 A2971 RMK AO2=
KLUX 220135Z AUTO 00000KT 10SM CLR 08/01 A3014 RMK AO2=
KLVL 220135Z AUTO 00000KT 10SM CLR 09/05 A3017 RMK AO1
     T00880053=
KLWA 220135Z AUTO 19011G17KT 10SM CLR 19/02 A2974 RMK AO2
     T01940021=
KLXL 220135Z AUTO 00000KT 10SM CLR 07/01 A2961 RMK AO2=
KM40 220135Z AUTO 15007KT 10SM CLR 19/13 A3002 RMK AO2=
KMAN 220135Z AUTO 16003KT 10SM CLR 17/04 A2962 RMK A01=
KMAO 220135Z AUTO 00000KT 10SM CLR 08/06 A3015 RMK AO2=
KMBO 220135Z AUTO 00000KT 10SM CLR 17/13 A3000 RMK AO2=
KMBY 220135Z AUTO 17007KT 10SM CLR 20/00 A2970 RMK AO2=
KMCD 220135Z AUTO 29005KT 10SM CLR 10/07 A2964 RMK AO2
     T00960066=
KMDS 220135Z AUTO 17004KT 10SM CLR 11/M00 A2959 RMK AO2=
KMEZ 220135Z AUTO 00000KT 10SM 18/07 A2989 RMK AO2 T01800071 $=
KMKJ 220135Z AUTO 00000KT 10SM CLR 06/00 A3017 RMK AO2
     T00601005=
KMNI 220135Z AUTO 00000KT 10SM CLR 07/05 A3014 RMK AO2=
KMTV 220135Z AUTO 00000KT 10SM CLR 04/02 A3019 RMK AO2
     T00440021=
KMWM 220135Z AUTO 12004KT 10SM CLR 08/01 A2962 RMK AO2=
KN38 220135Z AUTO 20007KT 10SM CLR 08/M02 A3007 RMK AO2=
KO22 220135Z AUTO 00000KT 10SM CLR 21/03 A2984 RMK A01=
KS24 220135Z AUTO 19010G19KT 10SM CLR 16/02 A2990 RMK AO2=
KCDA 220135Z AUTO 16003KT 10SM 08/M02 A3011 RMK AO2 T00801021=
KDLZ 220135Z AUTO 17009KT 10SM CLR 13/00 A2997 RMK AO2=
KDRM 220135Z AUTO 00000KT 10SM CLR 06/05 A2964 RMK AO2
     T00560048=
KDYT 220135Z AUTO 00000KT 10SM SCT038 BKN044 10/04 A2958 RMK
     AO2=
KELO 220135Z AUTO 21004KT 10SM CLR 07/01 A2958 RMK AO2=
KFBL 220135Z AUTO 00000KT 10SM CLR 09/03 A2963 RMK AO2=
KFFM 220135Z AUTO 15005KT 10SM CLR 12/01 A2955 RMK AO2=
KFSE 220135Z AUTO 18005KT 10SM BKN100 08/00 A2956 RMK AO2=
KFSO 220135Z AUTO 18012G17KT 10SM CLR 13/M03 A3004 RMK AO2
     T01261026=
KGYL 220135Z AUTO 00000KT 7SM CLR 12/01 A2963 RMK AO2
     T01200013=
KHCO 220135Z AUTO 25006KT 10SM SCT060 BKN070 OVC090 12/01 A2954
     RMK AO2=
KHZL 220135Z AUTO 17003KT 10SM CLR 09/M01 A3017 RMK AO2=
KI69 220135Z AUTO 17003KT 10SM CLR 14/01 A3000 RMK AO2
     T01430006=
KJKJ 220135Z AUTO 00000KT 10SM CLR 12/M01 A2957 RMK AO2 TSNO=
KJMR 220135Z AUTO 00000KT 10SM CLR 05/01 A2965 RMK AO2=
KLDM 220135Z AUTO 21013G21KT 10SM CLR 18/05 A2966 RMK AO2
     T01780054=
KLJF 220135Z AUTO 00000KT 10SM CLR 08/01 A2961 RMK AO2=
KMGG 220135Z AUTO 00000KT 10SM CLR 07/02 A2963 RMK AO2 T00740024
     PWINO=
KMQJ 220135Z AUTO 16005KT 10SM CLR 14/02 A2992 RMK AO1=
KMVE 220135Z AUTO 14005KT 4SM HZ CLR 10/01 A2959 RMK AO2=
KOVL 220135Z AUTO 00000KT 7SM CLR 09/01 A2962 RMK AO2=
KOZW 220135Z AUTO 18010KT 10SM CLR 17/04 A2980 RMK AO2
     T01650035=
KPWC 220135Z AUTO 00000KT 10SM CLR 07/02 A2963 RMK AO2=
KSAZ 220135Z AUTO 16003KT 10SM CLR 09/01 A2959 RMK AO2=
KY63 220135Z AUTO 13006KT 10SM CLR 12/01 A2957 RMK AO2
     T01180006=
PAAD 220135Z AUTO 10019KT 10SM OVC010 M05/M06 A2988 RMK AO2
     T10461060=
PAUT 220135Z AUTO 16006KT 10SM SCT014 OVC090 06/05 A3003 RMK
     AO2=
K0E0 220135Z AUTO 30004KT 10SM CLR 13/00 A3002 RMK AO2 T01270003
     TSNO=
K0S9 220135Z AUTO 00000KT 5SM -RA SCT011 BKN018 OVC042 09/08 A2970
     RMK AO2=
K3N8 220135Z AUTO 17003KT 10SM BKN100 BKN120 10/00 A2956 RMK AO2
     T00960000=
K4S2 220135Z AUTO 00000KT 5SM RA BKN005 BKN013 OVC023 08/07 A2966
     RMK AO2 P0002=
K6S2 220135Z AUTO 20010G15KT 6SM -RA BR OVC003 13/13 A2975 RMK
     AO2=
