SAUS70 KWBC 220118
METAR
K21D 220115Z AUTO 00000KT 10SM CLR 08/02 A2964 RMK AO2=
KAMN 220115Z AUTO 17009KT 10SM CLR 15/04 A2973 RMK AO2
     T01520035=
KAUM 220115Z AUTO 00000KT 10SM CLR 10/03 A2964 RMK AO2=
KAXV 220115Z AUTO 18012G16KT 10SM CLR 16/00 A2991 RMK AO2=
KCBG 220115Z AUTO 00000KT 10SM CLR 10/01 A2962 RMK AO2=
KCOQ 220115Z AUTO 00000KT 10SM CLR 07/00 A2959 RMK AO2 TSNO=
KDRM 220115Z AUTO 00000KT 10SM CLR 06/05 A2963 RMK AO2
     T00620052=
KELO 220115Z AUTO 00000KT 10SM CLR 09/01 A2958 RMK AO2=
KI69 220115Z AUTO 00000KT 10SM CLR 15/01 A2999 RMK AO2
     T01460005=
KLDM 220115Z AUTO 21012G18KT 10SM CLR 17/06 A2965 RMK AO2
     T01700055=
KLJF 220115Z AUTO 00000KT 10SM CLR 09/01 A2962 RMK AO2=
KMGG 220115Z AUTO 00000KT 10SM CLR 07/02 A2963 RMK AO2 T00700024
     PWINO=
KMGN 220115Z AUTO 00000KT 10SM CLR 08/06 A2963 RMK AO2
     T00890066=
KMQJ 220115Z AUTO 16005KT 10SM CLR 14/02 A2992 RMK AO1=
KOZW 220115Z AUTO 18009KT 10SM CLR 17/04 A2980 RMK AO2
     T01650036=
KROX 220115Z AUTO 23006KT 10SM BKN110 12/01 A2952 RMK AO2=
KSAZ 220115Z AUTO 00000KT 10SM CLR 09/01 A2959 RMK AO2=
KTWM 220115Z AUTO 30003KT 10SM CLR 09/02 A2958 RMK AO2=
K6S8 220110Z AUTO 08012KT 10SM 11/04 A2955 RMK A01 Laurel=
K08D 220115Z AUTO 02006KT 10SM 05/05 A2956 RMK AO2=
K20U 220115Z AUTO 30007KT 10SM FEW035 SCT060 OVC075 09/06 A2957
     RMK AO2=
K4R5 220115Z AUTO 00000KT 10SM CLR 05/04 A2958 RMK AO2
     T00450038=
KAQP 220113Z AUTO 19006KT 10SM 12/00 A2958 RMK AO2=
KARV 220115Z AUTO 00000KT 10SM CLR 06/02 A2962 RMK AO2
     T00640021=
KD55 220115Z AUTO 30007G15KT 5SM -DZ FEW024 BKN033 OVC039 08/08
     A2956 RMK AO2=
KDVP 220113Z AUTO 13004KT 7SM CLR 09/01 A2963 RMK AO2
     T00930005=
KETH 220113Z AUTO 14007KT 10SM 12/01 A2957 RMK AO=
KFOZ 220113Z AUTO 00000KT 10SM CLR 09/01 A2963 RMK AO2=
KHFY 220115Z AUTO 17007KT 10SM CLR 16/03 A2992 RMK AO2
     T01550032=
KIUA 220115Z AUTO 18007KT 140V230 10SM CLR 12/M01 A2999 RMK AO2
     T01201011=
KLDJ 220115Z AUTO 00000KT 10SM CLR 12/03 A3016 RMK AO2
     T01200027=
KLNL 220115Z AUTO 00000KT 10SM CLR 04/02 A2964 RMK AO2
     T00370015=
KLUM 220115Z AUTO 00000KT 10SM CLR 10/07 A2963 RMK AO2
     T01020069=
KMDZ 220115Z AUTO 18003KT 10SM CLR 06/03 A2964 RMK AO2 T00570031
     PWINO=
KMRJ 220115Z AUTO 14004KT 10SM CLR 16/00 A2966 RMK AO2=
KORB 220113Z AUTO 00000KT 10SM CLR 10/02 A2955 RMK AO2=
KOWA 220113Z AUTO 00000KT 10SM CLR 08/03 A2965 RMK AO2=
KPCZ 220115Z AUTO 00000KT 10SM CLR 13/03 A2964 RMK AO2
     T01250032=
KRGK 220115Z AUTO 00000KT 10SM CLR 10/03 A2962 RMK AO2=
KRID 220135Z AUTO 17009KT 10SM CLR 11/02 A2996 RMK AO2=
KRPD 220115Z AUTO 00000KT 7SM CLR 08/05 A2964 RMK AO2
     T00770050=
KSGS 220115Z AUTO 00000KT 7SM CLR 12/04 A2962 RMK AO2
     T01240035=
KVVV 220115Z 14005KT 10SM 10/02 A2958 RMK AO2=
KXVG 220113Z AUTO 00000KT 10SM CLR 06/01 A2958 RMK AO2=
K10G 220115Z AUTO 19007KT 10SM CLR 13/M01 A3001 RMK AO2=
K14Y 220115Z AUTO 00000KT 10SM CLR 07/00 A2961 RMK AO2=
K1P1 220115Z AUTO 00000KT 10SM CLR 02/01 A3014 RMK AO2
     T00200006=
K3D2 220115Z AUTO 26003KT 10SM CLR 12/06 A2961 RMK AO2
     T01190062=
K4I3 220115Z AUTO 16005KT 10SM CLR 11/01 A3000 RMK AO2=
KACQ 220115Z AUTO 00000KT 10SM CLR 07/01 A2966 RMK AO2=
KAIT 220115Z AUTO 00000KT 10SM CLR 06/02 A2959 RMK AO2=
KCQM 220115Z AUTO 22003KT 10SM CLR 09/00 A2957 RMK AO2=
KD25 220115Z AUTO 00000KT 10SM CLR 04/02 A2962 RMK AO2
     T00380024=
KDLZ 220115Z AUTO 18008KT 10SM CLR 13/00 A2997 RMK AO2=
KDXX 220115Z AUTO 13007KT 10SM CLR 11/01 A2960 RMK AO2=
KFBL 220115Z AUTO 00000KT 10SM CLR 09/03 A2963 RMK AO2=
