SAUS70 KWBC 220040 RRD
METAR
KMEV 220035Z AUTO 25016G22KT 10SM CLR 20/M07 A2990 RMK AO2=
KMHV 220040Z AUTO 22014G20KT 10SM CLR 26/03 A2987 RMK A01=
KMNZ 220035Z AUTO 19010KT 10SM CLR 26/05 A2987 RMK AO2
     T02600052=
KMVH 220035Z AUTO 33011KT 5SM BR 07/05 A2956 RMK AO2 PWINO=
KO69 220035Z AUTO VRB04G12KT 8SM CLR 14/11 A2985 RMK A01=
KPKV 220035Z AUTO 17006KT 10SM CLR 23/15 A2998 RMK AO2
     T02330149=
KPRS 220035Z AUTO 00000KT 10SM CLR 27/11 A2994 RMK AO2
     T02680113=
KRTS 220035Z AUTO 24012G21KT 10SM CLR 20/M06 A2990 RMK AO2=
KVAF 220035Z AUTO 16019KT 10SM SCT044 24/12 A3003 RMK A01=
KVCV 220035Z AUTO 19011KT 26/05 A2989 RMK AO2=
K0S9 220035Z AUTO 00000KT 5SM -RA SCT032 BKN041 OVC048 09/09 A2972
     RMK AO2=
K3N8 220035Z AUTO 16004KT 10SM CLR 10/00 A2956 RMK AO2
     T01031004=
KATS 220035Z AUTO 00000KT 10SM CLR 23/10 A2989 RMK AO2=
KBKS 220035Z AUTO 13009KT 10SM CLR 24/17 A2994 RMK AO2 SLP099
     T02350166 $=
KBVU 220035Z AUTO 16012KT 10SM CLR 28/02 A2979 RMK AO2=
KCLS 220035Z AUTO 20004KT 6SM -RA BKN015 BKN048 BKN055 08/07 A2971
     RMK AO2=
KCMR 220035Z AUTO 22006KT 10SM CLR 15/02 A3008 RMK AO2=
KCXP 220035Z AUTO 22013G20KT 10SM CLR 21/M06 A2990 RMK AO2=
KDSF 220035Z AUTO 05009KT 10SM CLR 22/13 A3009 RMK A01=
KF70 220035Z AUTO 20010KT 10SM CLR 23/15 A2986 RMK AO2=
KFOT 220030Z AUTO 29007KT 9SM OVC026 14/09 A2994 RMK AO1=
KGZN 220020Z AUTO 18007KT 10SM CLR 26/02 A2981 RMK AO2=
KHAF 220035Z AUTO 5SM BR OVC011 14/13 A2989 RMK AO2=
KHOB 220035Z AUTO 21006KT 10SM CLR 20/08 A2988 RMK AO2=
KL35 220035Z AUTO 25003KT 10SM CLR 14/01 A3009 RMK AO2=
KLRU 220035Z AUTO 26013KT 10SM CLR 24/05 A2999 RMK AO2
     T02350045=
KMAN 220035Z AUTO 01006KT 8SM CLR 19/03 A2966 RMK A01=
KO22 220035Z AUTO 00000KT 10SM CLR 27/01 A2985 RMK A01=
KO32 220035Z AUTO 00000KT 8SM CLR 29/11 A2976 RMK AO2 T02920111
     $=
KONM 220035Z AUTO 17006KT 10SM SCT100 21/04 A2995 RMK AO2
     T02050037=
KRPH 220035Z AUTO VRB06KT 9SM CLR 27/02 A2976 RMK AO2 T02730021
     $=
KTSP 220035Z AUTO 31011G16KT 10SM CLR 22/M03 A2996 RMK AO2=
KU42 220035Z AUTO 22008KT 10SM CLR 20/00 A2979 RMK AO1
     T02000004=
K1V6 220035Z AUTO 28007KT 10SM CLR 20/M10 A2976 RMK AO2=
K46U 220035Z AUTO 27009G16KT 10SM BKN100 16/M06 A2974 RMK A01=
K4V0 220035Z AUTO 22009KT 10SM CLR 19/M08 A2981 RMK AO2
     T01881085=
K5T9 220035Z AUTO 12006KT 10SM CLR 22/13 A2989 RMK A01=
K82V 220035Z AUTO 25012G17KT 10SM CLR 18/M11 A2970 RMK AO2=
KATA 220035Z AUTO 00000KT 10SM CLR 18/13 A2986 RMK AO2 SLP011
     T01770130 $=
KAVQ 220035Z AUTO 25006KT 10SM CLR 31/06 A2983 RMK AO2
     T03080056=
KBKD 220035Z AUTO 18008KT 10SM CLR 28/03 A2979 RMK AO2
     T02810034=
KBPC 220035Z AUTO 21009KT 10SM CLR 18/M05 A2967 RMK AO2 PNO=
KBQX 220035Z AUTO 17016KT 10SM 24/14 A3000 RMK A01=
KHHF 220035Z AUTO 22004KT 10SM CLR 20/M02 A2965 RMK AO2
     T01981017=
KINJ 220035Z AUTO 17012KT 10SM CLR 27/09 A2984 RMK AO2
     T02660085=
KJTC 220035Z AUTO 25006KT 10SM CLR 14/01 A3012 RMK AO2=
KLXY 220035Z AUTO 17006KT 10SM CLR 24/10 A2988 RMK AO2
     T02370100=
KP08 220035Z AUTO 31005KT 10SM CLR 29/12 A2982 RMK AO2=
KPYX 220035Z AUTO 20008KT 10SM CLR 19/M08 A2965 RMK AO2
     T01911080=
KSWW 220035Z AUTO 21008KT 10SM CLR 24/04 A2986 RMK AO2
     T02440043=
KT89 220030Z AUTO 00000KT 10SM CLR 26/08 A2990 RMK A01=
KTYL 220035Z AUTO 20011G18KT 10SM CLR 18/03 A3005 RMK AO2=
KUVA 220035Z AUTO 00000KT 10SM CLR 22/10 A2994 RMK AO2
     T02160102=
KWBF 220035Z AUTO VRB05G10KT 10SM 23/13 A3008 RMK A01=
KCCY 220035Z AUTO 05004KT 10SM CLR 14/00 A2963 RMK AO2=
KCKC 220036Z AUTO 00000KT 10SM CLR 08/02 A2956 RMK AO2=
