SAUS70 KWBC 220244
METAR
K06C 220235Z AUTO 20011G18KT 10SM CLR 19/07 A2974 RMK AO2
     T01900072=
KADU 220235Z AUTO 00000KT 10SM SCT006 SCT029 BKN080 04/M01 A2961
     RMK AO2=
KAFK 220235Z AUTO 16006KT 10SM CLR 17/00 A2960 RMK AO2
     T01670000=
KAIO 220235Z AUTO 01004KT 3SM HZ CLR 06/01 A2959 RMK AO2=
KASW 220235Z AUTO 20008KT 160V250 10SM CLR 17/02 A2986 RMK AO2
     T01690027=
KAXA 220235Z AUTO 07006KT 6SM HZ CLR 12/02 A2961 RMK A01=
KBJI 220235Z AUTO 00000KT 10SM SCT100 OVC120 10/00 A2957 RMK AO2
     T01020004=
KBUU 220235Z AUTO 21005KT 10SM CLR 16/04 A2971 RMK AO2 T01550044
     PWINO=
KC65 220235Z AUTO 19009G15KT 160V220 10SM CLR 17/03 A2983 RMK
     A01=
KC75 220235Z AUTO 18010G15KT 10SM CLR 18/07 A2972 RMK AO2
     T01820066=
KCAV 220235Z AUTO 08010KT 7SM FEW028 FEW034 SCT042 08/01 A2962 RMK
     A01=
KCIN 220235Z AUTO 00000KT 5SM CLR 07/01 A2959 RMK AO2=
KCNC 220235Z AUTO 16007KT 10SM CLR 17/03 A2962 RMK AO2=
KDNV 220235Z AUTO 18008KT 10SM CLR 17/03 A2986 RMK AO2
     T01670025=
KEOK 220235Z AUTO 20011G17KT 10SM CLR 20/04 A2967 RMK A01=
KFEP 220235Z AUTO 19010KT 10SM CLR 16/07 A2971 RMK AO2
     T01630066=
KFKR 220235Z AUTO 17008KT 10SM FEW030 FEW034 FEW040 12/02 A2988
     RMK AO2=
KGBG 220235Z AUTO 15004KT 10SM CLR 16/05 A2972 RMK AO2
     T01560047=
KGGF 220235Z AUTO 21010KT 10SM CLR 14/M04 A2960 RMK AO2=
KGGP 220235Z AUTO 19011KT 10SM CLR 15/01 A2988 RMK AO2=
KIJX 220235Z AUTO 17011G17KT CLR 19/04 A2975 RMK AO2 T01890038=
KTIP 220235Z AUTO 16007KT 10SM CLR 14/02 A2983 RMK AO2
     T01400023=
KUMP 220235Z AUTO 17004KT 10SM CLR 16/03 A2992 RMK AO2
     T01580026=
K04V 220235Z AUTO 28008KT 10SM 07/M08 A3001 RMK AO2=
K5C1 220235Z AUTO 20004KT 10SM CLR 18/08 A2996 RMK AO1=
K66R 220235Z AUTO 18006KT 10SM CLR 21/15 A3000 RMK AO2
     T02100145=
K6P9 220235Z AUTO 18008G14KT 10SM CLR 23/06 A2984 RMK AO2
     T02300055=
KAFO 220235Z AUTO 19008KT 10SM CLR 08/M10 A2977 RMK AO2=
KAUN 220235Z AUTO 13005KT 10SM CLR 22/07 A2980 RMK A01=
KAXX 220235Z AUTO 25011G18KT 10SM CLR 09/M06 A3008 RMK AO2
     T00921065=
KBBD 220235Z AUTO 19008KT 10SM CLR 22/07 A2990 RMK AO2=
KBMT 220235Z AUTO 16003KT 10SM CLR 18/14 A3002 RMK AO2
     T01840140=
KBVS 220235Z AUTO 00000KT 7SM BKN005 BKN011 OVC017 08/08 A2969 RMK
     A01=
KCCU 220235Z AUTO 25011G17KT 10SM CLR 02/M10 A3015 RMK AO2=
KCZT 220235Z AUTO 17004KT 10SM CLR 17/12 A2992 RMK AO2=
KDUX 220235Z AUTO 21011KT 10SM CLR 18/M02 A2972 RMK AO2
     T01781016=
KE16 220235Z AUTO 15005KT 10SM FEW110 13/10 A2989 RMK AO2 PWINO
     PNO=
KE38 220235Z AUTO 24004KT 10SM CLR 16/07 A3009 RMK AO2
     T01590072=
KETN 220235Z AUTO 19008KT 10SM CLR 22/04 A2984 RMK AO2
     T02210044=
KFMM 220235Z AUTO 20006KT 10SM CLR 13/M06 A2968 RMK AO2=
KHCR 220235Z AUTO 13004KT 10SM CLR 12/M10 A2981 RMK AO2=
KLMO 220235Z AUTO 27014G22KT 7SM CLR 22/M09 A2973 RMK AO2
     T02151095=
KLUV 220235Z AUTO 22008KT 10SM BKN100 BKN120 16/06 A2986 RMK
     AO2=
KNOW 220235Z AUTO 28006KT 10SM DZ SCT007 SCT027 OVC055 09/09 A2970
     RMK AO2 P0001 T00860086=
KORG 220235Z AUTO 19006KT 10SM CLR 22/16 A3005 RMK AO2
     T02240160=
KRBO 220235Z AUTO 10SM CLR 22/16 A2998 RMK AO2 T02180160=
KSBS 220235Z AUTO 12003KT 10SM CLR 09/M09 A2988 RMK AO1
     T00901091=
KT20 220235Z AUTO 17009KT 10SM CLR 22/15 A2997 RMK AO2
     T02170148=
KANK 220230Z AUTO 24008KT 10SM CLR 13/M10 A3000 RMK AO1
     T01251104=
KBBG 220235Z AUTO 16007KT 10SM CLR 19/05 A2984 RMK AO2=
KBMC 220230Z AUTO 10SM CLR 17/M08 A2971 RMK AO1 T01671080=
KC99 220230Z AUTO 26014G30KT 210V300 10SM CLR 02/M12 A3002 RMK
     AO2=
