SAUS70 KWBC 212308
METAR
KEZS 212315Z AUTO 00000KT 10SM CLR 18/04 A2957 RMK AO2
     T01820039=
K1S5 212315Z AUTO 22006KT 10SM -RA SCT039 SCT048 OVC060 10/07
     A2970 RMK AO2 P0001 T01000070=
KCPF 212315Z AUTO 00000KT 10SM CLR 16/00 A3004 RMK AO2=
KEMV 212315Z AUTO 00000KT 10SM CLR 08/05 A3015 RMK AO2
     T00790050=
KFFA 212315Z AUTO 04003KT 10SM CLR 16/09 A3012 RMK AO2
     T01600090=
KMCJ 212315Z AUTO 20015G24KT 10SM FEW055 26/14 A2993 RMK A01=
KSUW 212315Z AUTO 27003KT 10SM CLR 14/03 A2956 RMK AO2
     T01400025=
KTFP 212235Z AUTO 17009KT 10SM CLR 26/16 A2995 RMK AO2
     T02570158=
