SAUS70 KWBC 220100 CCA
METAR
TISX 220053Z 06008KT 10SM CLR 28/23 A2992 RMK AO2 SLP130 T02780228
     $=
