SAUS70 KWBC 220242 RRA
METAR
KVUJ 220235Z AUTO 00000KT 10SM CLR 04/02 A3022 RMK AO2
     T00400023=
KW22 220235Z AUTO 16003KT 10SM FEW045 07/00 A3009 RMK AO2=
KWDR 220235Z AUTO 00000KT 10SM CLR 08/01 A3017 RMK AO2=
KXBP 220235Z AUTO 16010KT 10SM CLR 24/04 A2982 RMK AO2
     T02400041=
KZER 220235Z AUTO 21006KT 10SM CLR 08/M02 A3017 RMK AO2=
K04V 220235Z AUTO 28008KT 10SM 07/M08 A3001 RMK AO2=
K17J 220235Z AUTO 00000KT 10SM CLR 09/04 A3014 RMK AO2
     T00910040=
K1A6 220235Z AUTO 00000KT 10SM CLR 05/03 A3012 RMK AO2
     T00470027=
K2G9 220235Z AUTO 00000KT 10SM CLR 08/M02 A3011 RMK AO2=
K5C1 220235Z AUTO 20004KT 10SM CLR 18/08 A2996 RMK AO1=
K5R8 220235Z AUTO 16004KT 10SM CLR 18/14 A3004 RMK AO2
     T01800142=
K6I2 220235Z AUTO 16007KT 10SM CLR 14/00 A3002 RMK AO2=
K6P9 220235Z AUTO 18008G14KT 10SM CLR 23/06 A2984 RMK AO2
     T02300055=
KAFO 220235Z AUTO 19008KT 10SM CLR 08/M10 A2977 RMK AO2=
KAPS 220236Z AUTO 16006KT 10SM CLR 16/13 A3009 RMK AO2=
KAXX 220235Z AUTO 25011G18KT 10SM CLR 09/M06 A3008 RMK AO2
     T00921065=
KBHC 220235Z AUTO 00000KT 10SM CLR A3014 RMK AO2=
KBIJ 220235Z AUTO 00000KT 10SM CLR 07/05 A3014 RMK AO2=
KBMT 220235Z AUTO 16003KT 10SM CLR 18/14 A3002 RMK AO2
     T01840140=
KCCO 220235Z AUTO 00000KT 10SM CLR 10/04 A3013 RMK AO2
     T00950037=
KCNI 220235Z AUTO 04005KT 10SM CLR 08/02 A3016 RMK AO2
     T00830018=
KCZT 220235Z AUTO 17004KT 10SM CLR 17/12 A2992 RMK AO2=
KDED 220235Z AUTO 33006KT 10SM CLR 16/10 A3010 RMK AO2 LTG DSNT E
     T01560098=
KDPL 220235Z AUTO 00000KT 10SM OVC046 11/08 A3017 RMK AO2=
KDQH 220235Z AUTO 00000KT 10SM CLR 09/04 A3016 RMK AO2
     T00900042=
KDUX 220235Z AUTO 21011KT 10SM CLR 18/M02 A2972 RMK AO2
     T01781016=
KE38 220235Z AUTO 24004KT 10SM CLR 16/07 A3009 RMK AO2
     T01590072=
KETN 220235Z AUTO 19008KT 10SM CLR 22/04 A2984 RMK AO2
     T02210044=
KFQD 220235Z AUTO 00000KT 10SM CLR 06/02 A3018 RMK AO2=
KFWZ 220235Z AUTO 22012G26KT 10SM CLR 08/M11 A2981 RMK AO2=
KFXY 220235Z AUTO 00000KT 7SM CLR 05/01 A2964 RMK AO2=
KFYJ 220235Z AUTO 00000KT 10SM CLR 06/05 A3020 RMK AO1
     T00610053=
KGLW 220235Z AUTO 18004KT 10SM CLR 15/03 A3001 RMK AO2
     T01520030=
KHCR 220235Z AUTO 13004KT 10SM CLR 12/M10 A2981 RMK AO2=
KHZR 220235Z AUTO 20007KT 10SM CLR 18/14 A3006 RMK AO2
     T01800142=
KIIB 220235Z AUTO 00000KT 7SM CLR 08/02 A2966 RMK AO2
     T00770016=
KIJX 220235Z AUTO 17011G17KT CLR 19/04 A2975 RMK AO2 T01890038=
KLMO 220235Z AUTO 27014G22KT 7SM CLR 22/M09 A2973 RMK AO2
     T02151095=
KLUV 220235Z AUTO 22008KT 10SM BKN100 BKN120 16/06 A2986 RMK
     AO2=
KMLE 220235Z AUTO 00000KT 10SM CLR 10/03 A2959 RMK AO2
     T01040027=
KMMH 220235Z AUTO 23005G15KT 10SM CLR 13/M09 A3004 RMK AO2=
KMMU 220235Z AUTO 00000KT 10SM CLR 03/01 A3018 RMK AO2=
KMQB 220235Z AUTO 18009KT 10SM CLR 17/01 A2973 RMK AO2
     T01660011=
KMQW 220235Z AUTO 00000KT 10SM CLR 06/04 A3015 RMK AO2
     T00570035=
KNOW 220235Z AUTO 28006KT 10SM DZ SCT007 SCT027 OVC055 09/09 A2970
     RMK AO2 P0001 T00860086=
KNRN 220235Z AUTO 00000KT 10SM CLR 10/M03 A2963 RMK AO2=
KORG 220235Z AUTO 19006KT 10SM CLR 22/16 A3005 RMK AO2
     T02240160=
KPPA 220235Z AUTO 20009KT 10SM CLR 17/02 A2972 RMK AO2
     T01730023=
KPTT 220235Z AUTO 20010KT 10SM CLR 17/M02 A2962 RMK AO2
     T01671018=
KRBO 220235Z AUTO 10SM CLR 22/16 A2998 RMK AO2 T02180160=
KRGA 220237Z AUTO 18008KT 10SM CLR 14/01 A3005 RMK AO2=
KRQO 220235Z AUTO 18010KT CLR 19/04 A2972 RMK AO2 PWINO
     T01860042=
KSBO 220235Z AUTO 00000KT 10SM CLR 08/07 A3016 RMK AO2=
KSBS 220235Z AUTO 12003KT 10SM CLR 09/M09 A2988 RMK AO1
     T00901091=
