SAUS70 KWBC 212300 RRJ
METAR
KRCX 212255Z AUTO 25004KT 10SM CLR 16/05 A2961 RMK AO2
     T01610050=
KRHI 212253Z AUTO 26004KT 10SM CLR 13/02 A2959 RMK AO2 SLP025
     T01330017=
KSEG 212253Z AUTO 00000KT 10SM CLR 08/02 A3008 RMK AO2 SLP190
     T00780022=
KGGW 212253Z AUTO 08008KT 10SM BKN030 BKN100 10/04 A2953 RMK AO2
     SLP007 T01000044=
KHRI 212253Z AUTO 22007KT 3SM RA BR OVC047 09/08 A2975 RMK AO2
     SLP072 P0009 T00940078=
KJSO 212255Z AUTO 21008KT 10SM CLR 28/10 A2991 RMK AO2 T02770097
     TSNO=
KLVK 212253Z 30011KT 10SM CLR 23/11 A2983 RMK AO2 SLP097
     T02280111=
KPUW 212253Z AUTO 23006KT 7SM -RA BKN030 OVC042 06/03 A2973 RMK
     AO2 SLP072 P0002 T00560033=
KRNT 212253Z 15005KT 10SM BKN020 OVC026 10/07 A2975 RMK AO2 RAE47
     SLP080 P0000 T01000072=
KSAC 212253Z 20007KT 10SM CLR 26/09 A2979 RMK AO2 SLP086
     T02610094=
KSFF 212253Z 00000KT 8SM -RA FEW013 OVC027 06/03 A2969 RMK AO2
     SLP056 P0007 T00560028=
K10G 212255Z AUTO 18006KT 10SM CLR 16/M01 A2997 RMK AO2=
K6L4 212255Z AUTO 00000KT 10SM CLR 16/M00 A3005 RMK AO2=
KADG 212253Z AUTO 22010KT 10SM CLR 18/03 A2981 RMK AO2 SLP098
     T01780028=
KAGC 212253Z AUTO 17006KT 10SM CLR 14/M01 A3001 RMK AO2 SLP168
     T01441011=
KAMW 212253Z AUTO 18003KT 9SM CLR 21/02 A2960 RMK AO2 SLP020
     T02110022=
KARB 212253Z 20006KT 10SM CLR 17/03 A2978 RMK AO2 SLP088
     T01670028=
KASX 212253Z AUTO 28005KT 10SM CLR 14/04 A2957 RMK AO2 SLP014
     T01440039=
KBDE 212253Z AUTO 25004KT 10SM CLR 14/00 A2952 RMK AO2 SLP002
     T01390000=
KCKB 212253Z 15003KT 10SM CLR 16/M02 A3004 RMK AO2 SLP168
     T01611017=
KPEO 212253Z AUTO 19005KT 10SM CLR 12/M02 A3001 RMK AO2 SLP164
     T01221017=
KPHD 212253Z AUTO 15005KT 10SM CLR 16/00 A2999 RMK AO2 SLP158
     T01560000=
KPIR 212253Z AUTO 16009KT 10SM CLR 18/02 A2951 RMK AO2 SLP990
     T01780017=
KSMQ 212253Z AUTO 00000KT 10SM CLR 09/03 A3011 RMK AO2 SLP197
     T00940033=
KSTP 212253Z 27005KT 10SM CLR 18/02 A2960 RMK AO2 SLP023
     T01780017=
KTDZ 212253Z AUTO 20009KT 10SM CLR 19/03 A2984 RMK AO2 SLP104
     T01940028=
KZZV 212253Z AUTO 17007KT 10SM CLR 14/00 A2999 RMK AO2 SLP156
     T01440000=
K2DP 212255Z AUTO 03005KT 10SM CLR 12/12 A3010 RMK AO2 SLPNO
     T01200120 $=
KACV 212253Z AUTO 00000KT 10SM BKN026 OVC065 16/11 A2994 RMK AO2
     SLP144 T01560106=
KGYI 212250Z 17013G16KT 10SM SKC 30/05 A2980=
KHIO 212253Z 13005KT 1SM R13R/P6000FT -RA BR OVC008 09/08 A2977
     RMK AO2 SLP082 P0013 T00890083=
KHQM 212253Z AUTO 05003KT 8SM -RA SCT011 BKN017 OVC065 11/09 A2973
     RMK AO2 SLP072 P0005 T01110094=
KL18 212255Z AUTO 22008KT 10SM CLR 23/16 A2986 RMK AO2=
KLMT 212253Z 29013KT 10SM CLR 16/04 A2987 RMK AO2 SLP099
     T01610044=
KLOL 212253Z AUTO 27016G19KT 10SM CLR 27/M08 A2981 RMK AO2 WSHFT
     2210 RAE23 SLPNO P0000 T02671083 $=
KMOD 212253Z 24004KT 10SM CLR 29/03 A2976 RMK AO2 SLP078
     T02940033=
KMYV 212253Z AUTO 15013KT 10SM CLR 29/08 A2975 RMK AO2 SLP079
     T02940078=
KPAE 212253Z 22004KT 2 1/2SM -RA BR BKN009 BKN015 OVC024 09/07
     A2975 RMK AO2 SLP074 P0003 T00890072=
KPRB 212253Z AUTO 21017KT 10SM CLR 27/07 A2985 RMK AO2 SLP104
     T02670067=
KPSC 212253Z 21003KT 10SM -RA BKN070 OVC090 11/07 A2970 RMK AO2
     SLP059 P0003 T01060067=
KRBG 212253Z AUTO VRB03KT 10SM OVC036 19/12 A2983 RMK AO2 RAE13
     SLP101 P0000 T01890117=
KWVI 212253Z AUTO 23010KT 10SM BKN011 15/11 A2990 RMK AO2 SLP126
     T01500111=
KAKO 212253Z AUTO 21004KT 10SM CLR 24/M08 A2971 RMK AO2 SLP012
     T02391083=
KAUS 212253Z 18013KT 10SM CLR 28/09 A2989 RMK AO2 SLP115
     T02830094=
