SAUS80 KWBC 220000 RRC
METAR
PFNO 212356Z AUTO 13008KT 8SM OVC021 02/01 A2973 RMK AO2 SLP150
     60000 T00170006 10017 20000 51007 FZRANO=
KANJ 212355Z AUTO 24006KT 10SM CLR 11/07 A2959 RMK AO2 SLP022
     T01060067 10178 20106 51027=
KAST 212355Z AUTO 11006KT 2SM -RA BR SCT015 BKN021 OVC036 11/09
     A2967 RMK AO2 PRESFR SLP045 P0007 60025 T01060094 10111 20106
     56031=
KMKG 212355Z 19017G27KT 10SM SCT150 SCT250 19/07 A2968 RMK AO2 PK
     WND 18032/2300 SLP052 T01940072 10206 20156 53010=
KPHP 212355Z AUTO 09005KT 10SM CLR 16/01 A2946 RMK AO2 SLP974
     T01610006 10233 20161 56022=
KWMC 212356Z AUTO 24013G22KT 10SM CLR 24/M07 A2977 RMK AO2 PK WND
     26028/2307 SLP059 60000 T02391067 10261 20233 58021=
PADK 212356Z AUTO 00000KT BKN018 OVC023 06/05 A2996 RMK AO2 SLP145
     P0003 60012 T00610050 10067 20039 58014 PWINO $=
KDAB 212353Z 32005KT 10SM CLR 18/10 A3006 RMK AO2 SLP178 T01830100
     10239 20183 53008=
KSAV 212353Z 00000KT 10SM CLR 14/04 A3011 RMK AO2 SLP194 T01390039
     10222 20133 53008=
KFNB 212353Z AUTO 19007KT 10SM CLR 26/04 A2957 RMK AO2 SLP009
     T02560044 10306 20256 55004=
KCRW 212354Z 14005KT 10SM CLR 11/03 A3004 RMK AO2 SLP178 T01110028
     10194 20111 53004=
KP68 212353Z AUTO 25012G19KT 21/M13 A2990 RMK AO1 SLP075 T02111128
     10222 20167 56014=
KP69 212352Z AUTO 00000KT 08/07 A2975 RMK AO1 SLP078 P0008 60015
     T00830072 10128 20083 58006=
KSDM 212353Z COR VRB05KT 10SM CLR 21/16 A2986 RMK AO2 SLP106
     T02110156 10244 20211 56009=
KMVL 212354Z AUTO 00000KT 10SM CLR 04/00 A3007 RMK AO2 SLP190
     T00440000 10144 20039 53012=
KPZQ 212355Z AUTO 19005KT 10SM CLR 16/06 A2963 RMK AO2 T01590055
     10211 20159=
KRFD 212354Z 18008KT 10SM CLR 19/04 A2968 RMK AO2 SLP051 T01940044
     10256 20194 53014=
KINL 212354Z AUTO 00000KT 10SM CLR 07/01 A2952 RMK AO2 SLP007
     T00670006 10161 20067 51010=
KLYV 212355Z AUTO 00000KT 10SM CLR 14/01 A2962 RMK AO2=
KORH 212354Z 22006KT 10SM CLR 09/01 A3014 RMK AO2 SLP211 T00890011
     10156 20089 53014=
KPIA 212354Z 19012KT 10SM CLR 21/03 A2971 RMK AO2 SLP060 T02110033
     10267 20211 53006=
KPOV 212355Z AUTO 00000KT 10SM CLR 12/M02 A2997 RMK AO2 T01201020
     PWINO=
KBTV 212354Z 19007KT 10SM CLR 11/M02 A3005 RMK AO2 SLP178
     T01111022 10150 20111 53011=
KACY 212354Z 00000KT 10SM CLR 09/06 A3016 RMK AO2 SLP214 T00940056
     10189 20089 53010=
KAVP 212354Z 00000KT 10SM CLR 12/M02 A3010 RMK AO2 SLP197
     T01171017 10167 20100 53015=
KBUF 212354Z 18009KT 10SM FEW250 14/00 A2993 RMK AO2 SLP138
     T01390000 10189 20139 53010=
KDSM 212354Z 33003KT 10SM FEW250 21/02 A2961 RMK AO2 SLP023
     T02060022 10261 20206 53003=
KROC 212354Z 18007KT 10SM CLR 14/M01 A2996 RMK AO2 SLP150
     T01391006 10183 20139 53009=
KY23 212355Z AUTO 00000KT 10SM CLR 12/05 A2962 RMK AO2 T01190052
     10200 20118=
KDRA 212353Z AUTO 24013G17KT 10SM CLR 27/M04 A2985 RMK AO2 SLP074
     T02671044 10272 20233 56021=
KSOW 212355Z AUTO 23013G20KT 10SM CLR 18/M00 A3010 RMK AO2=
KFAR 212353Z AUTO 13005KT 10SM BKN110 13/M03 A2953 RMK AO2 SLP005
     T01331028 10172 20133 58010 TSNO=
KFWA 212354Z 19010KT 10SM FEW250 16/03 A2985 RMK AO2 SLP108
     T01560028 10233 20156 53011=
KMTP 212354Z AUTO 00000KT 14/09 A3017 RMK AO1 SLP217 T01440089
     10178 20144 53009=
KNUI 212353Z AUTO 00000KT CLR 11/07 A3014 RMK AO2 SLP206 T01110072
     10211 20111 53008=
KP59 212351Z AUTO 26006KT 12/04 A2954 RMK AO1 SLP006 T01220044
     10156 20122 52022=
KSBN 212354Z 19011KT 10SM CLR 19/03 A2978 RMK AO2 SLP083 T01890033
     10239 20183 53009=
