SAUS70 KWBC 220000 RRG
METAR
KIPL 212353Z AUTO 12006KT 10SM CLR 33/06 A2973 RMK AO2 SLP069
     T03280061 10333 20294 56017=
KJSO 212355Z AUTO 20005KT 10SM CLR 25/10 A2991 RMK AO2 T02510104
     10293 20251 TSNO=
KLGB 212353Z 17007KT 10SM CLR 22/17 A2984 RMK AO2 SLP102 T02220167
     10244 20217 56014=
KPIH 212353Z 24014KT 10SM CLR 18/M03 A2972 RMK AO2 SLP036
     T01831028 10217 20183 58016=
KPMD 212353Z 23015KT 10SM CLR 27/06 A2986 RMK AO2 SLP091 T02720061
     10300 20250 56013=
KPRB 212353Z AUTO 20016KT 10SM CLR 23/08 A2985 RMK AO2 SLP104
     T02330083 10306 20194 56008=
KPSC 212353Z 15006KT 10SM -RA BKN070 OVC080 10/07 A2969 RMK AO2
     SLP055 P0003 60009 T01000067 10144 20100 58020=
KPSP 212353Z 09007KT 10SM CLR 34/04 A2976 RMK AO2 SLP072 T03390044
     10350 20300 56016=
KRAL 212353Z 27011KT 10SM CLR 27/13 A2982 RMK AO2 SLP083 T02720133
     10294 20239 56015=
KRBG 212353Z AUTO 23008KT 10SM SCT030 OVC037 18/12 A2981 RMK AO2
     SLP093 60000 T01830122 10211 20161 58017=
KSNA 212353Z 22007KT 10SM FEW012 23/17 A2984 RMK AO2 SLP102
     T02280172 10250 20228 56011=
KSRR 212355Z AUTO 26007KT 10SM 17/01 A3008 RMK AO2=
KSTS 212353Z AUTO 17010KT 8SM CLR 16/11 A2984 RMK AO2 SLP099
     T01610111 10200 20106 55008=
KLUK 212353Z 23004KT 10SM CLR 14/01 A2997 RMK AO2 SLP148 T01440006
     10228 20139 53007=
KMDW 212353Z 20010KT 10SM CLR 23/03 A2971 RMK AO2 SLP059 T02280033
     10256 20217 53010=
KMGY 212353Z AUTO 18006KT 10SM CLR 13/01 A2995 RMK AO2 SLP143
     T01330011 10217 20133 53008=
KMHT 212353Z 11003KT 10SM CLR 08/02 A3011 RMK AO2 SLP214 T00780017
     10178 20078 53014=
KMMK 212353Z AUTO 00000KT 10SM CLR 07/03 A3015 RMK AO2 SLP210
     T00720033 10178 20072 53014=
KMRB 212353Z 00000KT 10SM CLR 11/M01 A3010 RMK AO2 SLP194
     T01061006 10178 20106 53006 $=
KMVY 212353Z 19005KT 10SM CLR 12/07 A3017 RMK AO2 SLP217 T01170072
     10178 20117 53009=
KOSU 212353Z 17006KT 10SM CLR 16/00 A2996 RMK AO2 SLP147 60000
     T01610000 10217 20161 53008=
KOVS 212353Z AUTO 00000KT 10SM CLR 13/04 A2963 RMK AO2 SLP038
     T01330039 10256 20133 $=
KOWA 212353Z AUTO 00000KT 5SM HZ CLR 11/03 A2964 RMK AO2=
KRCX 212355Z AUTO 00000KT 10SM CLR 11/05 A2963 RMK AO2 T01060046
     10195 20106=
KTDZ 212353Z AUTO 18008KT 10SM CLR 16/03 A2986 RMK AO2 SLP110
     T01610033 10228 20156 53012=
KBUR 212353Z 18008KT 10SM CLR 26/16 A2983 RMK AO2 SLP088 T02610156
     10278 20233 56014=
PABA 212352Z AUTO 09019KT 10SM OVC016 M03/M06 A2991 RMK AO2 SLP134
     6//// T10331056 11028 21033 51013 FZRANO PNO $=
PASC 212353Z 09017KT 9SM BLSN BKN011 BKN033 M03/M04 A2985 RMK AO2
     SLP109 60000 T10281044 11028 21033 53007=
TIST 212353Z 07007KT 10SM CLR 28/23 A2990 RMK AO2 SLP125 T02830228
     10317 20278 53008=
KAFW 212353Z 17013KT 10SM CLR 28/06 A2977 RMK AO2 SLP072 T02830056
     10328 20283 56010=
KDGW 212353Z AUTO 27020G31KT 10SM CLR 20/M09 A2959 RMK AO2 PK WND
     26039/2254 SLP992 T02001089 10244 20200 56006=
KDLN 212353Z AUTO 25014G23KT 10SM SCT095 BKN120 16/M04 A2951 RMK
     AO2 PK WND 23027/2254 SLP962 T01561039 10178 20156 56020=
KGKY 212353Z AUTO 16009KT 10SM CLR 29/07 A2980 RMK AO2 SLP085
     T02890072 10328 20289 55005=
KJER 212353Z AUTO 25006KT 10SM CLR 18/01 A2971 RMK AO2 SLP038
     60000 T01780011 10206 20172 56022=
KL18 212355Z AUTO 20007KT 10SM CLR 22/16 A2986 RMK AO2=
KLAA 212353Z AUTO 16006KT 10SM CLR 23/M09 A2966 RMK AO2 SLP018
     T02281089 10283 20228 58015=
KLAR 212353Z AUTO 26021G31KT 10SM CLR 14/M12 A2980 RMK AO2 PK WND
     25033/2326 SLP017 T01441117 10189 20144 56006=
