SAUS70 KWBC 220238
METAR
KELO 220235Z AUTO 21003KT 10SM CLR 07/01 A2959 RMK AO2=
KMVE 220235Z AUTO 14004KT 10SM CLR 09/01 A2959 RMK AO2=
KSAZ 220235Z AUTO 00000KT 10SM CLR 09/02 A2958 RMK AO2=
K06D 220235Z AUTO 00000KT 10SM OVC045 05/05 A2956 RMK AO2=
K0S9 220235Z AUTO 28004KT 8SM -RA BKN009 OVC038 09/08 A2969 RMK
     AO2=
K0VG 220235Z AUTO 00000KT 10SM CLR 05/01 A3013 RMK AO2=
K15M 220235Z AUTO 17005KT 10SM CLR 16/11 A3002 RMK AO2 T01640111
     $=
K1R7 220235Z AUTO 16007KT 10SM FEW048 19/18 A3006 RMK AO2
     PWINO=
K24J 220235Z AUTO 00000KT 10SM 08/04 A3013 RMK A01=
K28J 220235Z AUTO 00000KT 10SM FEW023 FEW028 07/06 A3012 RMK AO2
     TSNO=
K2D5 220235Z AUTO 11005KT 6SM HZ BKN018 BKN025 OVC044 09/00 A2955
     RMK AO2=
K3AU 220235Z AUTO 17012G17KT 10SM CLR 25/M05 A2964 RMK AO2=
K42J 220235Z AUTO 00000KT 10SM SCT032 SCT037 BKN050 10/08 A3012
     RMK A01=
K46D 220235Z AUTO 05003KT 10SM BKN070 10/03 A2956 RMK AO2=
K4A6 220235Z AUTO 00000KT 10SM FEW032 SCT042 09/05 A3010 RMK
     AO2=
K4M9 220235Z AUTO 18005KT 9SM CLR 15/10 A2988 RMK AO2 PWINO=
K5H4 220235Z AUTO 36005KT 10SM FEW047 OVC060 08/05 A2957 RMK
     AO2=
K6B9 220235Z AUTO 19009G18KT 130V230 10SM CLR 12/M02 A3005 RMK
     AO2=
K7L2 220235Z AUTO 11005KT 10SM FEW050 FEW090 BKN110 12/M00 A2953
     RMK AO2=
K82C 220235Z AUTO 30003KT 10SM CLR 07/04 A2966 RMK AO2
     T00710036=
K96D 220235Z AUTO 28004KT 10SM -DZ FEW028 SCT048 BKN055 09/08
     A2957 RMK AO2=
K9D7 220235Z AUTO 02006KT 8SM OVC050 06/06 A2959 RMK AO2 TSNO=
KACB 220235Z AUTO 00000KT 10SM CLR 07/06 A2967 RMK AO2
     T00720062=
KACJ 220235Z AUTO 00000KT 10SM CLR 08/03 A3013 RMK AO2
     T00800033=
KAFP 220235Z AUTO 00000KT 10SM CLR 05/02 A3017 RMK AO2
     T00520015=
KAGO 220235Z AUTO 17004KT 10SM CLR 19/12 A2991 RMK A01=
KAIG 220235Z AUTO 00000KT 10SM CLR 07/02 A2967 RMK AO2
     T00690024=
KAIK 220235Z AUTO 00000KT 10SM CLR 07/03 A3016 RMK AO2
     T00680027=
KALM 220235Z AUTO 16008KT 10SM FEW046 17/06 A2997 RMK AO2=
KANQ 220235Z AUTO 19008KT 10SM FEW025 SCT030 BKN035 15/03 A2986
     RMK AO2=
KAQX 220235Z AUTO 00000KT 10SM CLR 08/04 A3014 RMK AO2=
KARW 220235Z AUTO 00000KT 10SM CLR 11/10 A3014 RMK AO2=
KASJ 220235Z AUTO 00000KT 10SM CLR 07/07 A3019 RMK AO2
     T00660066=
KATS 220235Z AUTO 25009KT 10SM CLR 19/08 A2991 RMK AO2=
KAVC 220235Z AUTO 00000KT 10SM CLR 07/05 A3023 RMK AO2
     T00660053=
KBAC 220235Z AUTO 18005KT 9SM OVC100 10/01 A2955 RMK AO2=
KBCB 220235Z AUTO 00000KT 10SM CLR 05/01 A3020 RMK AO2
     T00510005=
KBKS 220235Z AUTO 14010KT 10SM CLR 22/16 A2997 RMK AO2 SLP108
     T02150165 $=
KBKT 220235Z AUTO 00000KT 10SM CLR 06/03 A3018 RMK AO1
     T00620030=
KBOW 220235Z AUTO 02005KT 10SM CLR 17/10 A3009 RMK AO2=
KBRG 220235Z AUTO 20008KT 10SM CLR 16/04 A2998 RMK AO2
     T01560035=
KHVS 220235Z AUTO 00000KT 10SM BKN041 BKN049 07/00 A3016 RMK
     AO2=
KHWY 220235Z AUTO 00000KT 10SM CLR 02/01 A3020 RMK AO2
     T00180005=
KHZE 220235Z AUTO 05003KT 10SM -RA FEW034 SCT041 OVC049 08/05
     A2956 RMK AO2=
KI68 220235Z AUTO 16007KT 10SM CLR 13/01 A3000 RMK AO1
     T01250013=
KIDI 220235Z AUTO 00000KT 10SM BKN055 05/02 A3012 RMK A01=
KINF 220235Z AUTO 00000KT 7SM CLR 13/08 A3011 RMK AO2=
KIRS 220235Z AUTO 21012G18KT 10SM CLR 16/01 A2983 RMK AO2
     T01600010=
KISO 220235Z AUTO 36003KT 10SM OVC060 14/08 A3018 RMK AO2
     T01360081=
KJFZ 220235Z AUTO 14004KT 10SM CLR 10/00 A3014 RMK AO2
     T01021002=
KJYG 220235Z AUTO 00000KT 7SM CLR 05/00 A2962 RMK AO2=
KJZI 220235Z AUTO 00000KT 10SM CLR 10/08 A3015 RMK AO2=
KKY8 220235Z AUTO 16005KT 10SM CLR 17/05 A2995 RMK A01=
