SAUS70 KWBC 212320 RRJ
METAR
KCQM 212317Z AUTO 26003KT 10SM CLR 12/M01 A2956 RMK AO2=
KEGV 212315Z AUTO 00000KT 10SM CLR 11/03 A2958 RMK AO2
     T01050025=
KERY 212315Z AUTO 20008KT 10SM SCT006 09/07 A2958 RMK AO2
     T00860065=
KFOA 212315Z AUTO 18009KT 10SM CLR 19/03 A2985 RMK AO2=
KFWC 212315Z AUTO 14003KT CLR 20/01 A2985 RMK AO1 T02000010
     PWINO=
KGLX 212315Z AUTO 06009KT 10SM CLR 22/12 A3008 RMK A01=
KGPC 212315Z AUTO 17009KT 10SM CLR 18/02 A2987 RMK AO2
     T01800023=
KGWB 212315Z AUTO 20006KT 10SM CLR 18/03 A2983 RMK AO2=
KHJH 212315Z AUTO 00000KT 10SM CLR 23/00 A2958 RMK AO2
     T02270003=
KIMS 212315Z AUTO 15004KT 10SM CLR 17/00 A2997 RMK AO2=
KJYG 212317Z AUTO 01003KT 7SM CLR 15/02 A2962 RMK AO2=
KLNN 212315Z AUTO 19007KT 10SM CLR 16/M02 A2991 RMK AO1
     T01601023=
KLVN 212315Z AUTO 00000KT 7SM CLR 15/01 A2962 RMK AO2=
KMOX 212315Z AUTO 00000KT 10SM CLR 15/M03 A2961 RMK AO2=
KMZH 212315Z AUTO 00000KT 10SM CLR 14/01 A2959 RMK AO2=
KMZZ 212315Z AUTO 20009KT 10SM CLR 17/03 A2986 RMK AO2
     T01740030=
KPMH 212315Z AUTO 00000KT 10SM CLR 14/00 A3000 RMK AO2
     T01401001=
KRSV 212315Z AUTO 18009KT 10SM CLR 19/02 A2986 RMK AO2
     T01890016=
KSTE 212315Z AUTO 00000KT 10SM CLR 16/01 A2960 RMK AO2
     T01550013=
KSXK 212315Z AUTO 09006KT 8SM CLR 18/01 A2958 RMK AO2=
KTYQ 212315Z AUTO 19009KT 10SM CLR 16/02 A2987 RMK AO2
     T01640020=
KVVS 212315Z AUTO 00000KT 10SM CLR 11/01 A3004 RMK AO2
     T01120007=
KVYS 212315Z AUTO 17008KT 10SM CLR 19/04 A2968 RMK AO2
     T01930039=
KY49 212315Z AUTO 00000KT 10SM CLR 12/00 A2957 RMK AO2
     T01211002=
K0CO 212315Z AUTO 29027G37KT 10SM CLR 01/M16 A3012 RMK AO2=
K5SM 212315Z AUTO 24013G28KT 200V260 10SM CLR 06/M13 A3015 RMK
     AO2=
K7BM 212315Z AUTO 26014G28KT 230V300 10SM CLR 11/M16 A3006 RMK
     AO2=
KBPG 212315Z AUTO 22012KT 10SM CLR 28/04 A2985 RMK AO2
     T02770036=
KC07 212315Z AUTO 28009G18KT 230V320 10SM CLR 07/M09 A3007 RMK
     AO2=
KCFD 212315Z AUTO 18008G15KT 10SM CLR 28/10 A2991 RMK AO2
     T02800101=
KE42 212315Z AUTO 22013KT 10SM CLR 28/M06 A2969 RMK AO2
     T02791062=
KEBG 212315Z AUTO 14008KT 10SM CLR 28/15 A2994 RMK AO2 T02810147
     PWINO=
KELA 212315Z AUTO 19012G19KT 10SM CLR 27/14 A2994 RMK AO2
     T02650143=
KF00 212315Z AUTO 17009KT 10SM CLR 28/09 A2980 RMK AO2
     T02830088=
KJDD 212315Z AUTO 17004KT 10SM CLR 28/11 A2984 RMK AO2=
KLHM 212315Z AUTO 17008KT 10SM CLR 28/06 A2976 RMK AO1=
KLUD 212315Z AUTO 19008G15KT 10SM CLR 31/00 A2979 RMK AO2
     T03080000=
KMDD 212315Z AUTO 25010KT 10SM CLR 28/01 A2987 RMK AO2
     T02780013=
KPEZ 212315Z AUTO 17005KT 10SM CLR 29/10 A2992 RMK AO2
     T02880098=
KPSO 212315Z AUTO 22013G19KT 10SM CLR 16/M04 A3006 RMK AO2
     T01641045=
KRWV 212315Z AUTO 18008G17KT 10SM CLR 28/09 A2991 RMK AO2
     T02780095=
KSTK 212315Z AUTO 19006KT 10SM CLR 24/M05 A2964 RMK AO2=
KT82 212315Z AUTO 19010KT 10SM CLR 26/08 A2994 RMK AO2
     T02600075=
KTEX 212315Z AUTO 28008KT 10SM CLR 13/M13 A3013 RMK AO2=
KTYL 212315Z AUTO 22012G23KT 10SM CLR 22/02 A3006 RMK AO2=
KUMP 212315Z AUTO 19008KT 10SM CLR 20/03 A2987 RMK AO2
     T01990027=
