SAUS80 KWBC 220104
METAR
K77S 220115Z AUTO 22009KT 10SM BKN015 OVC023 15/15 A2974 RMK
     A01=
KM25 220115Z AUTO 17007KT 10SM CLR 19/08 A2993 RMK AO2 PWINO=
