SASA31 KWBC 220100
METAR
SEGU 220100Z 22013KT 9999 FEW030 BKN100 24/18 Q1012 NOSIG RMK
     A2989=
SEQM NIL=
SEQU NIL=
SKBO 220100Z 31008KT 9999 VCSH SCT013 SCT070 14/12 Q1025 NOSIG RMK
     VCSH/S A3029=
SKBQ 220100Z 23003KT 180V290 9999 SCT012CB 26/25 Q1010 NOSIG RMK
     CB LTNG/NE A2986=
SKCG 220100Z 25003KT 9999 SCT017CB 29/25 Q1010 RMK CB/LTNG/NW
     A2984=
SKCL 220100Z 35007KT 9999 SCT020 BKN120 23/18 Q1015 NOSIG RMK
     A2998=
SKLT 220100Z 01004KT 9999 FEW015 26/24 Q1009 RMK A2979=
SKRG 220100Z VRB02KT 9999 SCT012 BKN080 16/15 Q1025 NOSIG RMK
     A3027=
SKSP 220100Z 06008KT 9999 FEW016 29/25 Q1010 RMK A2985=
SMNI NIL=
SMZO NIL=
SMZY NIL=
SOCA 220100Z AUTO 01002KT CAVOK 25/24 Q1010=
SPJC 220100Z 18006KT 9999 SCT012 15/12 Q1014 NOSIG=
SPQT NIL=
SPQU 220100Z 10003KT CAVOK 12/M05 Q1026 NOSIG RMK PP000=
SPSO 220100Z 22009KT CAVOK 16/13 Q1014 RMK PP000=
SPTN NIL=
SPYL NIL=
SPZO NIL=
SVBC NIL=
SVMC NIL=
SVMG NIL=
SVMI 220100Z 09002KT 9999 SCT016 BKN070 26/23 Q1011=
SYCJ 220100Z 36006KT 9999 SCT017 BKN090 26/25 Q1010 NOSIG=
SYTM NIL=
