SAUS70 KWBC 220100 RRX
METAR
KNSE 220056Z 00000KT 10SM CLR 13/08 A3011 RMK AO2 SLP183 T01330078
     PNO $=
TISX 220053Z 06008KT 10SM CLR 28/23 A2992 RMK AO2 SLP130 T02780228
     $=
KEFD 220054Z 16008KT 10SM CLR 20/15 A2999=
PPIZ 220056Z AUTO 08006KT 10SM OVC035 M03/M04 A2971 RMK AO2 SLP064
     T10281044 FZRANO=
KNQA 220050Z 15006KT 10SM CLR 20/11 A2990=
KOCW 220055Z AUTO 00000KT 10SM 13/05 A3016 RMK AO2 T01300053=
