SAUS70 KWBC 212300 RRJ
METAR
PACV 212253Z 00000KT 10SM FEW017 SCT022 BKN085 08/05 A2966 RMK AO2
     SLP043 T00780050=
PAEN 212253Z 21005KT 10SM CLR 07/02 A2984 RMK AO2 SLP106
     T00720022=
PAGK 212253Z AUTO 26005KT 6SM -SN BR OVC016 01/00 A2968 RMK AO2
     UPB44E48SNB2157E13B48 SLP075 P0000 T00110000 TSNO=
PAGY 212253Z AUTO 21019KT 10SM BKN065 BKN085 OVC110 08/03 A2961
     RMK AO2 SLP025 T00830033 TSNO=
PAIL 212253Z 24007KT 10SM SCT018 BKN023 BKN029 04/03 A2996 RMK AO2
     SLP148 T00440028=
PAKT 212253Z 29011G17KT 10SM SCT030 SCT047 11/04 A2973 RMK AO2
     SLP068 HARBOR WND 31010KT T01060039=
PAKV 212253Z AUTO VRB03KT 10SM BKN007 OVC014 01/01 A2980 RMK AO2
     SLP095 T00110006 TSNO=
PAKW 212253Z AUTO 00000KT 10SM -RA SCT035 BKN046 OVC090 10/04
     A2974 RMK AO2 RAB49 SLP072 P0000 T01000039 TSNO $=
PALH 212253Z 00000KT 1/4SM FG VV002 02/02 A2985 RMK AO2 TWR VIS
     1/2 SLP107 T00220022=
PAMR 212253Z 29004KT 10SM CLR 04/02 A2984 RMK AO2 SLP105
     T00440017=
PAPB 212253Z AUTO 23010KT 6SM HZ SCT024 SCT028 BKN033 07/ A2999
     RMK AO2 SLP145 T0067 TSNO $=
PASC 212253Z 09017KT 5SM BLSN BKN011 OVC033 M03/M05 A2984 RMK AO2
     SLP105 T10331050=
PASI 212253Z 11007KT 7SM FEW014 BKN030 BKN065 07/03 A2972 RMK
     P0008=
PASO 212253Z AUTO VRB05KT 10SM CLR 09/02 A2989 RMK AO2 SLP122
     T00890017 TSNO=
PATO 212253Z AUTO 25011G21KT 10SM CLR 05/M01 A2977 RMK AO2 PK WND
     25026/2214 SLP082 T00501011 TSNO=
PAWD 212253Z AUTO 35018G27KT 10SM CLR 09/M04 A2978 RMK AO2 PK WND
     34027/2245 SLP084 T00941044 TSNO=
PAWI 212253Z AUTO 10020KT 8SM BKN055 OVC075 M03/M05 A2972 RMK AO2
     SNB23E34 SLP066 P0000 T10331050 TSNO $=
K10G 212255Z AUTO 18006KT 10SM CLR 16/M01 A2997 RMK AO2=
K20U 212255Z AUTO 36007KT 10SM CLR 11/02 A2954 RMK AO2=
K24A 212255Z AUTO 00000KT 10SM CLR 15/M02 A3011 RMK AO2
     T01521016=
K27K 212255Z AUTO 17007KT 10SM CLR 16/00 A2999 RMK AO1=
K35A 212255Z AUTO 00000KT 10SM CLR 13/02 A3015 RMK A02
     T01330020=
K4S2 212255Z AUTO 31005KT 7SM -RA BKN028 OVC049 08/07 A2976 RMK
     AO2 P0001=
K6L4 212255Z AUTO 00000KT 10SM CLR 16/M00 A3005 RMK AO2=
K6S2 212255Z AUTO 18009G16KT 140V210 3SM UP BR OVC016 12/12 A2982
     RMK AO2 P0002=
KABR 212253Z AUTO 15005KT 10SM CLR 17/01 A2955 RMK AO2 SLP007
     T01670006=
KACV 212253Z AUTO 00000KT 10SM BKN026 OVC065 16/11 A2994 RMK AO2
     SLP144 T01560106=
KADG 212253Z AUTO 22010KT 10SM CLR 18/03 A2981 RMK AO2 SLP098
     T01780028=
KAGC 212253Z AUTO 17006KT 10SM CLR 14/M01 A3001 RMK AO2 SLP168
     T01441011=
KAGS 212253Z 00000KT 10SM CLR 12/04 A3009 RMK AO2 SLP190
     T01170044=
KALW 212253Z 17011KT 5SM -RA HZ OVC055 08/05 A2974 RMK AO2 SLP072
     P0006 T00830050=
KAMW 212253Z AUTO 18003KT 9SM CLR 21/02 A2960 RMK AO2 SLP020
     T02110022=
KANB 212253Z AUTO 00000KT 10SM CLR 17/06 A3006 RMK AO2 SLP184
     T01670061=
KARB 212253Z 20006KT 10SM CLR 17/03 A2978 RMK AO2 SLP088
     T01670028=
KASX 212253Z AUTO 28005KT 10SM CLR 14/04 A2957 RMK AO2 SLP014
     T01440039=
KATY 212253Z AUTO 00000KT 5SM HZ CLR 14/02 A2958 RMK AO2 SLP018
     T01440017=
KAXN 212253Z AUTO 00000KT 10SM CLR 14/00 A2960 RMK AO2 SLP028
     T01440000=
KBDE 212253Z AUTO 25004KT 10SM CLR 14/00 A2952 RMK AO2 SLP002
     T01390000=
KBFI 212253Z 16008G17KT 4SM -RA BR FU BKN011 BKN019 OVC026 09/08
     A2975 RMK AO2 RAB04 SLP075 P0001 T00890078=
KBGM 212253Z AUTO 20007KT 10SM CLR 10/M04 A3005 RMK AO2 SLP185
     T01001039=
KBHM 212253Z 14006KT 10SM CLR 20/06 A3007 RMK AO2 SLP179
     T02000061=
KBKE 212253Z AUTO 04006KT 10SM -RA BKN060 OVC075 11/03 A2973 RMK
     AO2 RAB2159 SLP074 P0000 T01060033=
