SAUS70 KWBC 212300 RRQ
METAR
KBHC 212255Z AUTO 00000KT 10SM CLR A3009 RMK AO2=
KBIJ 212255Z AUTO 00000KT 10SM CLR 16/06 A3008 RMK AO2=
KCCO 212255Z AUTO 00000KT 10SM CLR 16/02 A3009 RMK AO2
     T01600020=
KCMD 212255Z AUTO 18005KT 10SM CLR 19/08 A3005 RMK AO2=
KCNI 212255Z AUTO 14004KT 10SM CLR 17/00 A3009 RMK AO2
     T01701001=
KCSV 212253Z AUTO 17003KT 10SM CLR 14/01 A3006 RMK AO2 SLP180
     T01440011=
KCZT 212255Z AUTO 18005KT 10SM CLR 28/09 A2990 RMK AO2=
KDKR 212255Z AUTO 17011KT 10SM CLR 28/10 A2989 RMK AO2=
KDPL 212255Z AUTO 00000KT 10SM SCT060 12/08 A3011 RMK AO2=
KDQH 212255Z AUTO 00000KT 10SM CLR 17/02 A3010 RMK AO2
     T01690018=
KE38 212255Z AUTO 27010KT 10SM CLR 26/03 A3007 RMK AO2
     T02580033=
KFKR 212255Z AUTO 19006KT 9SM CLR 19/02 A2983 RMK AO2=
KFMM 212255Z AUTO 24008G13KT 10SM CLR 25/M09 A2969 RMK AO2=
KFQD 212255Z AUTO 00000KT 10SM CLR 15/00 A3012 RMK AO2=
KFWZ 212255Z AUTO 24016G28KT 10SM CLR 12/M08 A2981 RMK AO2=
KFXY 212255Z AUTO 00000KT 2 1/2SM HZ CLR 17/02 A2962 RMK AO2=
KFYJ 212255Z AUTO 00000KT 10SM CLR 10/07 A3015 RMK AO1
     T00990065=
KGGF 212255Z AUTO 23014KT 10SM CLR 26/M08 A2961 RMK AO2=
KGLW 212255Z AUTO 16003KT 10SM CLR 19/03 A2998 RMK AO2
     T01900026=
KHCR 212255Z AUTO 22010G20KT 190V250 10SM CLR 21/M09 A2986 RMK
     AO2=
KHDC 212259Z AUTO 15009G18KT 10SM CLR 22/13 A3003 RMK AO2 TSNO=
KHDL 212255Z AUTO 00000KT 10SM CLR 19/03 A3008 RMK AO2=
KIIB 212255Z AUTO 26004KT 10SM CLR 21/02 A2963 RMK AO2
     T02090022=
KIJX 212255Z AUTO 17008KT 10SM CLR 23/03 A2974 RMK AO2
     T02320027=
KJAS 212255Z AUTO 19011G17KT 9SM CLR 26/11 A2993 RMK AO2=
KJSV 212258Z AUTO RMK AO2 PWINO TSNO=
KJYR 212255Z AUTO 16006KT 9SM CLR 23/M01 A2959 RMK AO2=
KLLN 212255Z AUTO 25017G24KT 10SM CLR 27/00 A2985 RMK AO2=
KLMO 212255Z AUTO 25010G21KT 10SM CLR 26/M09 A2972 RMK AO2
     T02551088=
KLOT 212255Z AUTO 19010G18KT 10SM CLR 22/04 A2971 RMK AO2=
KLUV 212255Z AUTO 26013KT 10SM CLR 28/M01 A2986 RMK AO2=
KMEI 212258Z 15004KT 10SM CLR 23/12 A3001 RMK AO2 SLP160
     T02280122=
KMJD 212255Z AUTO 14006KT 10SM CLR 21/12 A3005 RMK AO2=
KMLE 212255Z AUTO 00000KT 10SM CLR 22/02 A2958 RMK AO2
     T02240015=
KMMH 212255Z AUTO 26012G20KT 10SM CLR 19/M09 A3007 RMK AO2=
KMQB 212255Z AUTO 19010KT 10SM CLR 23/00 A2969 RMK AO2
     T02290002=
KMRH 212258Z AUTO 36004KT 10SM FEW065 SCT100 16/11 A3010 RMK AO2
     SLP192 T01560106=
KNOW 212255Z AUTO 30008KT 7SM -RA BKN020 OVC028 10/09 A2975 RMK
     AO2 P0001 T00960091=
KNRN 212255Z AUTO 00000KT 10SM CLR 26/M02 A2966 RMK AO2=
KOBE 212255Z AUTO 03007KT 10SM BKN075 21/15 A2998 RMK AO2=
KORG 212255Z AUTO 20010KT 10SM CLR 26/16 A3000 RMK AO2
     T02580160=
KPAO 212247Z 34014KT 8SM HZ FEW200 18/13 A2987=
KPPA 212255Z AUTO 24012G19KT 10SM CLR 29/00 A2973 RMK AO2
     T02900000=
KPTT 212255Z AUTO 17006KT 10SM CLR 29/M03 A2962 RMK AO2
     T02901027=
KRBO 212255Z AUTO 10SM CLR 26/15 A2995 RMK AO2 T02640152=
KRCR 212255Z AUTO 19008KT 10SM CLR 20/03 A2980 RMK AO2=
KSNL 212255Z AUTO 20012G16KT 10SM CLR 29/M03 A2973 RMK AO2
     T02941032=
KT20 212255Z AUTO 18009G16KT 10SM CLR 29/10 A2991 RMK AO2
     T02910101=
KTAZ 212255Z AUTO 17009KT 10SM CLR 21/03 A2978 RMK AO2
     T02130033=
KTBR 212255Z AUTO 00000KT 10SM CLR 15/04 A3009 RMK AO2
     T01450040=
KTIF 212255Z AUTO 15007KT 10SM CLR 22/M02 A2959 RMK AO2
     T02181025=
KTQK 212255Z AUTO 17004KT 10SM CLR 29/M09 A2965 RMK AO2
     T02911094=
KTVI 212255Z AUTO 00000KT 10SM CLR 15/06 A3009 RMK AO2=
KVDI 212255Z AUTO 00000KT 10SM CLR 16/06 A3009 RMK AO2=
KVKS 212255Z AUTO 17007KT 10SM CLR 26/12 A2995 RMK A01=
