SAKA31 PTKK 220200
METAR PTKK 220152Z 03009KT 15SM FEW014 SCT280 28/25 A2979 RMK SLP089
T02780248=
