SAPA31 KWBC 220100 RRC
METAR
PTSA 220059Z 10006KT 10SM BKN020 BKN130 BKN300 31/24 A2978=
