SAUS70 KWBC 220130
METAR
K1A5 220135Z AUTO 00000KT 10SM CLR 06/00 A3018 RMK AO2
     T00590004=
KEFT 220135Z AUTO 21012KT 10SM CLR 17/03 A2966 RMK AO2
     T01670026=
KHNZ 220135Z AUTO 00000KT 7SM CLR 07/04 A3016 RMK AO2
     T00700042=
KJXI 220135Z AUTO 16004KT 10SM CLR 22/10 A2989 RMK AO2
     T02200101=
KPDC 220135Z AUTO 00000KT 10SM CLR 11/03 A2964 RMK AO2
     T01120031=
KW31 220135Z AUTO 00000KT 10SM CLR 07/04 A3015 RMK AO1
     T00660041=
KW96 220135Z AUTO 00000KT 10SM CLR 09/05 A3016 RMK AO1
     T00850046=
KBNL 220135Z AUTO 00000KT 10SM CLR 09/03 A3014 RMK AO2=
KETB 220135Z AUTO 00000KT 10SM CLR 11/03 A2967 RMK AO2=
KLHZ 220135Z AUTO 00000KT 10SM CLR 06/03 A3017 RMK AO2=
KOCW 220115Z AUTO 00000KT 10SM 12/06 A3016 RMK AO2 T01170058=
KRRL 220135Z AUTO 00000KT 10SM CLR 07/03 A2964 RMK AO2 T00710029
     TSNO=
KUNU 220135Z AUTO 18004KT 10SM CLR 15/04 A2967 RMK AO2
     T01530040=
