SAUS70 KWBC 220200 RRE
METAR
KMHV 220200Z AUTO 29013KT 10SM CLR 24/M04 A2987 RMK A01=
KPWT 220156Z AUTO 00000KT 10SM -RA OVC011 08/08 A2970 RMK AO2
     SLP061 P0006 T00780078=
KPYX 220155Z AUTO 22005KT 10SM CLR 14/M07 A2966 RMK AO2
     T01421075=
KRTS 220155Z AUTO 23011G18KT 10SM CLR 18/M06 A2991 RMK AO2=
KS33 220155Z AUTO 08006KT 10SM DZ SCT047 BKN060 OVC070 09/08 A2966
     RMK AO2 P0002=
KVIS 220156Z AUTO 00000KT 10SM CLR 24/11 A2977 RMK AO2 SLP087
     T02440106=
K4V0 220155Z AUTO 19010KT 10SM CLR 16/M07 A2982 RMK AO2
     T01571066=
K5T9 220150Z AUTO 14006KT 10SM CLR 20/12 A2991 RMK A01=
KAJO 220156Z AUTO 26009KT 10SM CLR 22/17 A2984 RMK AO2 SLP100
     T02170172=
KBAM 220155Z AUTO 25007KT 10SM CLR 18/M07 A2978 RMK AO1=
KBKD 220155Z AUTO 19009KT 10SM CLR 26/04 A2980 RMK AO2
     T02580038=
KCGZ 220156Z AUTO 10SM CLR 26/10 A2984 RMK AO2 SLP094 T02610100
     $=
KCMA 220155Z 27005KT 7SM OVC009 18/16 A2986 RMK AO2 SLP118
     T01780161=
KGOO 220155Z AUTO VRB05KT 10SM CLR 19/03 A2987 RMK A01=
KGYI 220155Z AUTO 17013KT 10SM CLR 25/07 A2982 RMK AO2 T02520068
     TSNO=
KSGU 220156Z AUTO 22004KT 10SM CLR 23/01 A2984 RMK AO2 SLP083
     T02280006=
KSKX 220156Z AUTO 23008KT 10SM CLR 12/M06 A3005 RMK AO2 SLP161
     T01221056=
KU68 220155Z AUTO 04012KT 10SM BKN110 14/00 A2949 RMK AO2=
K1V6 220155Z AUTO 29005KT 10SM CLR 17/M11 A2977 RMK AO2=
KAEJ 220155Z AUTO 28009KT 10SM 10/M12 A2996 RMK AO2 T00981116=
KAXH 220155Z AUTO 00000KT 10SM CLR 20/15 A3002 RMK AO2
     T01950151=
KCXP 220155Z AUTO 21010G21KT 10SM CLR 20/M05 A2991 RMK AO2=
KEKS 220145Z AUTO 28022G30KT 10SM SCT041 BKN047 OVC075 14/M01
     A2961 RMK AO2=
KF05 220155Z AUTO 20013KT 10SM CLR 26/03 A2973 RMK AO2
     T02600031=
KFOT 220150Z AUTO 31003KT 10SM OVC024 14/08 A2992 RMK AO1=
KHND 220156Z 16010KT 10SM CLR 26/03 A2982 RMK AO2 SLP096
     T02610033=
KLGD 220156Z AUTO 30006KT 8SM -RA SCT019 OVC047 08/08 A2965 RMK
     AO2 SLP047 P0015 T00830078=
KLPC 220156Z AUTO 01004KT 10SM OVC012 15/13 A2990 RMK AO2 SLP125
     T01500133=
KLXY 220155Z AUTO 17008KT 10SM CLR 22/11 A2990 RMK AO2
     T02170106=
KMNZ 220155Z AUTO 18011KT 10SM CLR 24/07 A2989 RMK AO2
     T02360068=
KPVU 220156Z 06004KT 10SM CLR 13/01 A2980 RMK AO2 SLP075
     T01330006=
KSEZ 220155Z AUTO 20007KT 10SM 19/05 A3000 RMK AO2=
KTBX 220155Z AUTO 10SM CLR 12/M10 A2977 RMK AO2=
KTYL 220155Z AUTO 21006KT 10SM CLR 13/02 A3007 RMK AO2=
K05U 220155Z AUTO 26007KT 10SM 13/M11 A2990 RMK A01=
K0A0 220155Z AUTO 20010G15KT 170V250 10SM CLR 21/04 A2997 RMK
     AO2=
K46U 220155Z AUTO 33005KT 10SM FEW001 FEW027 SCT034 13/M05 A2974
     RMK A01=
K65S 220155Z AUTO 21008G13KT 180V240 10SM FEW029 BKN042 OVC060
     03/02 A2959 RMK AO2=
K82V 220155Z AUTO 25008KT 10SM CLR 13/M12 A2971 RMK AO2=
KAVQ 220155Z AUTO 27004KT 10SM CLR 28/05 A2985 RMK AO2
     T02760047=
KBDU 220155Z AUTO 22007KT 10SM CLR 20/M08 A2973 RMK AO2=
KC83 220155Z AUTO VRB04KT 10SM CLR 20/10 A2978 RMK AO2=
KCOE 220156Z AUTO 14007KT 10SM OVC012 04/03 A2964 RMK AO2 RAE56
     SLP059 T00440033 PNO $=
KCVO 220156Z AUTO 21013KT 10SM FEW010 SCT065 OVC090 13/11 A2969
     RMK AO2 RAB0059E09B35E51 SLP057 P0000 T01330111=
KECS 220155Z AUTO 02006KT 10SM CLR 12/M09 A2952 RMK AO2=
KERV 220155Z AUTO 14005KT 10SM CLR 19/09 A2996 RMK AO2
     T01940088=
KJWY 220155Z AUTO 18009KT 10SM CLR 24/09 A2987 RMK AO2
     T02410092=
KM75 220155Z AUTO 07005KT 10SM SCT028 OVC034 07/05 A2954 RMK
     A01=
KMVH 220155Z AUTO 00000KT 3SM BR 06/05 A2958 RMK AO2 P0012
     PWINO=
KSWW 220155Z AUTO 21012KT 10SM CLR 22/04 A2987 RMK AO2
     T02200035=
