SAUS70 KWBC 220000 RRU
METAR
KPXE 212355Z AUTO 00000KT 10SM CLR 11/05 A3011 RMK AO2 T01080047
     10225 20106 402250001=
KRBW 212355Z AUTO 00000KT 10SM CLR 10/07 A3012 RMK AO2=
KT20 212355Z AUTO 17007KT 10SM CLR 27/11 A2992 RMK AO2 T02690105
     10306 20269=
KTMK 212355Z AUTO 00000KT 2 1/2SM BR BKN010 OVC018 11/10 A2971 RMK
     AO2=
KUKL 212355Z AUTO 17009KT 10SM CLR A2966 RMK AO2=
KVES 212355Z AUTO 19006KT 10SM CLR 16/M02 A2992 RMK AO2=
