SAUS80 KWBC 220100
METAR
KCQT 220047Z AUTO 25003KT 10SM CLR 21/17 A2984 RMK AO2 SLP104
     T02060172=
KGNT 220055Z AUTO 28005KT 10SM CLR 13/03 A3007 RMK AO2
     T01280032=
