SACA42 KWBC 220000
METAR
TIST 212353Z 07007KT 10SM CLR 28/23 A2990=
TJBQ 212350Z 13003KT 10SM SCT024 26/23 A2992=
TJMZ NIL=
TJNR 212353Z AUTO 05007KT 10SM CLR 27/22 A2992=
TJPS NIL=
TJSJ 212356Z 09006KT 10SM FEW028 FEW043 27/23 A2992=
