SAUS80 KWBC 212324
METAR
KCUL 212313Z AUTO 15007KT 10SM CLR 18/02 A2987 RMK AO2=
KDVK 212310Z AUTO 00000KT 10SM CLR 15/00 A3002 RMK AO2=
KM25 212335Z AUTO 17005KT 10SM CLR 21/07 A2990 RMK AO2 PWINO=
KNY0 212314Z AUTO 15005KT 10SM CLR 08/M02 A3006 RMK AO2=
