SAUS80 KWBC 220136
METAR
KGNT 220135Z AUTO 28004KT 10SM CLR 11/04 A3007 RMK AO2
     T01100039=
KSVE 220135Z AUTO 30009G16KT 10SM CLR M07/M22 A2984 RMK AO2=
KAID 220135Z AUTO 18009KT 10SM CLR 15/M02 A2992 RMK AO2
     T01511017=
