SAUS80 KWBC 220100
METAR
KAID 220055Z AUTO 18006KT 10SM CLR 16/M01 A2991 RMK AO2
     T01551015=
KGNT 220055Z AUTO 28005KT 10SM CLR 13/03 A3007 RMK AO2
     T01280032=
