SAUS70 KWBC 212300 RRL
METAR
KMOD 212253Z 24004KT 10SM CLR 29/03 A2976 RMK AO2 SLP078
     T02940033=
KMPO 212253Z AUTO 18004KT 10SM CLR 09/M02 A3010 RMK AO2 SLP208
     T00891017=
KMSP 212253Z 28006KT 10SM FEW200 BKN250 18/01 A2960 RMK AO2 SLP022
     T01780006=
KMYV 212253Z AUTO 15013KT 10SM CLR 29/08 A2975 RMK AO2 SLP079
     T02940078=
KOAK 212253Z 30014G28KT 10SM FEW010 FEW250 17/12 A2988 RMK AO2 PK
     WND 31029/2229 SLP116 T01670117=
KOIN 212255Z AUTO 00000KT 10SM CLR 26/M02 A2968 RMK AO1
     T02551020=
KOMK 212253Z AUTO 01005KT 10SM OVC075 11/07 A2965 RMK AO2 SLP044
     T01060067=
KOVE 212253Z AUTO 14014KT 9SM CLR 29/07 A2976 RMK AO2 SLP078
     T02940072=
KPAE 212253Z 22004KT 2 1/2SM -RA BR BKN009 BKN015 OVC024 09/07
     A2975 RMK AO2 SLP074 P0003 T00890072=
KPBG 212253Z AUTO 17012G16KT 10SM CLR 12/M01 A3001 RMK AO2 SLP163
     T01171006=
KPCZ 212255Z AUTO 26005KT 10SM CLR 19/02 A2959 RMK AO2
     T01900021=
KPDK 212253Z 00000KT 10SM CLR 13/03 A3008 RMK AO2 SLP195
     T01330028=
KPDT 212253Z 17005KT 4SM RA OVC041 08/06 A2976 RMK AO2 SLP072
     P0004 T00830056=
KPEO 212253Z AUTO 19005KT 10SM CLR 12/M02 A3001 RMK AO2 SLP164
     T01221017=
KPHD 212253Z AUTO 15005KT 10SM CLR 16/00 A2999 RMK AO2 SLP158
     T01560000=
KPIR 212253Z AUTO 16009KT 10SM CLR 18/02 A2951 RMK AO2 SLP990
     T01780017=
KPKD 212253Z AUTO 25005KT 10SM CLR 11/01 A2957 RMK AO2 SLP020
     T01110006=
KPOU 212253Z 00000KT 10SM CLR 09/02 A3010 RMK AO2 SLP191
     T00940022=
KGGE 212255Z AUTO 00000KT 10SM CLR 12/08 A3010 RMK AO2=
KGGW 212253Z AUTO 08008KT 10SM BKN030 BKN100 10/04 A2953 RMK AO2
     SLP007 T01000044=
KGKJ 212253Z AUTO VRB04KT 10SM CLR 13/M01 A2997 RMK AO2 SLP154
     T01331006=
KGMU 212253Z 10003KT 10SM CLR 17/M02 A3011 RMK AO2 SLP195
     T01721022=
KGRB 212253Z 24004KT 10SM CLR 20/03 A2958 RMK AO2 SLP018
     T02000033=
KGRI 212253Z 14005KT 10SM CLR 24/M02 A2961 RMK AO2 SLP022
     T02441017=
KGSP 212253Z 11003KT 10SM CLR 15/00 A3011 RMK AO2 SLP196
     T01500000=
KGVL 212253Z AUTO 00000KT 10SM CLR 16/M01 A3011 RMK AO2 SLP193
     T01611011=
KGYI 212250Z 17013G16KT 10SM SKC 30/05 A2980=
KHAE 212255Z AUTO 18008KT 10SM CLR 25/00 A2970 RMK AO2=
KHEI 212253Z AUTO 19008KT 10SM CLR 19/00 A2948 RMK AO2 SLP977
     T01940000=
KHIB 212253Z AUTO 24004KT 10SM CLR 12/02 A2957 RMK AO2 SLP019
     T01220022=
KHIO 212253Z 13005KT 1SM R13R/P6000FT -RA BR OVC008 09/08 A2977
     RMK AO2 SLP082 P0013 T00890083=
KHJO 212253Z AUTO 00000KT 9SM CLR 32/08 A2978 RMK AO2 SLP083
     T03170083=
KHKY 212253Z 00000KT 10SM CLR 13/01 A3011 RMK AO2 SLP187
     T01280011=
KHQM 212253Z AUTO 05003KT 8SM -RA SCT011 BKN017 OVC065 11/09 A2973
     RMK AO2 SLP072 P0005 T01110094=
KHRI 212253Z AUTO 22007KT 3SM RA BR OVC047 09/08 A2975 RMK AO2
     SLP072 P0009 T00940078=
KHSP 212255Z AUTO 16005KT 10SM CLR 09/M03 A3013 RMK AO2
     T00911034=
KHYR 212253Z AUTO 27003KT 10SM CLR 17/02 A2958 RMK AO2 SLP020
     T01670017=
KHZY 212253Z AUTO 17010KT 10SM CLR 16/01 A2995 RMK AO2 SLP143
     T01560006=
KICR 212253Z AUTO 15012KT CLR 22/01 A2955 RMK AO2 SLP999
     T02170011=
KIMT 212254Z AUTO 26003KT 7SM CLR 17/03 A2954 RMK AO2 SLP010
     T01670033=
KJFX 212255Z AUTO 00000KT 10SM CLR 19/13 A3002 RMK AO2=
KJSO 212255Z AUTO 21008KT 10SM CLR 28/10 A2991 RMK AO2 T02770097
     TSNO=
KL18 212255Z AUTO 22008KT 10SM CLR 23/16 A2986 RMK AO2=
KLMT 212253Z 29013KT 10SM CLR 16/04 A2987 RMK AO2 SLP099
     T01610044=
KLNL 212255Z AUTO 00000KT 10SM CLR 13/02 A2959 RMK AO2
     T01290021=
KLNS 212253Z 16005KT 10SM CLR 13/01 A3011 RMK AO2 SLP198
     T01330011=
