SAUS70 KWBC 212322 RRA
METAR
KVHN 212315Z AUTO 27008KT 10SM CLR 26/05 A3001 RMK AO2
     T02640054=
KVTP 212315Z AUTO 26008G19KT 10SM CLR 10/M11 A3008 RMK AO2=
K11R 212315Z AUTO 19008KT 10SM CLR 28/12 A2992 RMK AO2
     T02840115=
K2W6 212319Z AUTO 00000KT 10SM CLR 10/07 A3016 RMK AO1=
K5C1 212315Z AUTO 20007KT 10SM CLR 25/07 A2994 RMK AO1=
K5R8 212315Z AUTO 17006KT 10SM CLR 23/15 A2999 RMK AO2
     T02300153=
K6P9 212315Z AUTO 20008G16KT 10SM CLR 29/03 A2982 RMK AO2
     T02910028=
K8A0 212315Z AUTO 16004KT 10SM CLR 17/02 A3006 RMK AO2=
KAFO 212315Z AUTO 22010KT 10SM SCT100 16/M11 A2981 RMK AO2=
KAQO 212315Z AUTO 19010G16KT 10SM CLR 29/05 A2988 RMK AO2=
KAUN 212315Z AUTO 22007KT 10SM CLR 26/07 A2984 RMK A01=
KAXX 212315Z AUTO 26021G30KT 10SM CLR 13/M06 A3005 RMK AO2
     T01321059=
KBHC 212315Z AUTO 00000KT 10SM CLR A3009 RMK AO2=
KBIJ 212315Z AUTO 00000KT 10SM CLR 13/07 A3009 RMK AO2=
KBMT 212315Z AUTO 18010G14KT 10SM CLR 24/15 A2998 RMK AO2
     T02370150=
KCCO 212315Z AUTO 00000KT 10SM CLR 14/04 A3009 RMK AO2
     T01390038=
KCGE 212315Z AUTO 00000KT 10SM CLR 10/06 A3014 RMK A01=
KCMD 212315Z AUTO 18004KT 10SM CLR 18/08 A3005 RMK AO2=
KCNI 212315Z AUTO 14003KT 10SM CLR 16/00 A3009 RMK AO2
     T01560002=
KCTJ 212315Z AUTO 00000KT 10SM CLR 13/05 A3012 RMK AO2
     T01340047=
KCZT 212315Z AUTO 19004KT 10SM CLR 27/10 A2990 RMK AO2=
KDED 212315Z AUTO 34005KT 10SM CLR 18/08 A3006 RMK AO2
     T01770082=
KDKR 212315Z AUTO 17007KT 10SM CLR 27/09 A2989 RMK AO2=
KDMW 212315Z AUTO 15004KT 10SM CLR 14/00 A3012 RMK AO2=
KDPL 212315Z AUTO 00000KT 10SM SCT060 11/07 A3012 RMK AO2=
KDQH 212315Z AUTO 00000KT 10SM CLR 15/02 A3010 RMK AO2
     T01510020=
KDUX 212315Z AUTO 21009KT 10SM CLR 27/M05 A2973 RMK AO2
     T02651048=
KE38 212315Z AUTO 27010G14KT 10SM CLR 25/04 A3007 RMK AO2
     T02540043=
KETN 212315Z AUTO 18011G18KT 10SM CLR 29/03 A2981 RMK AO2
     T02930033=
KFKR 212315Z AUTO 19008KT 10SM CLR 18/03 A2983 RMK AO2=
KFME 212319Z AUTO 00000KT 10SM CLR 07/02 A3016 RMK AO1=
KFMM 212315Z AUTO 24007KT 10SM CLR 24/M08 A2968 RMK AO2=
KFQD 212315Z AUTO 00000KT 10SM CLR 13/00 A3013 RMK AO2=
KFWZ 212315Z AUTO 24016G28KT 10SM CLR 12/M09 A2980 RMK AO2=
KFXY 212315Z AUTO 00000KT 10SM CLR 15/03 A2962 RMK AO2=
KFYJ 212315Z AUTO 00000KT 10SM CLR 09/05 A3015 RMK AO1
     T00900054=
KTIF 212315Z AUTO 15005KT 10SM CLR 21/M02 A2959 RMK AO2
     T02051023=
KTMK 212315Z AUTO 06005KT 2SM BR SCT006 OVC010 11/10 A2973 RMK
     AO2=
KTQK 212315Z AUTO 18003KT 10SM CLR 28/M09 A2965 RMK AO2
     T02771090=
KTVI 212315Z AUTO 00000KT 10SM CLR 14/06 A3009 RMK AO2=
KUKL 212315Z AUTO 17008KT 10SM CLR A2965 RMK AO2=
KVDI 212315Z AUTO 00000KT 10SM CLR 15/04 A3010 RMK AO2=
KVES 212315Z AUTO 20006KT 10SM CLR 17/M02 A2991 RMK AO2=
KVKS 212315Z AUTO 17007KT 10SM CLR 25/12 A2994 RMK A01=
KVPC 212315Z AUTO 00000KT 10SM CLR 16/03 A3009 RMK AO2=
KVUJ 212315Z AUTO 00000KT 10SM CLR 10/02 A3017 RMK AO2
     T01010024=
KXBP 212315Z AUTO 20013G17KT 10SM CLR 31/02 A2979 RMK AO2
     T03100023=
KGEV 212315Z AUTO 00000KT 10SM CLR 09/M01 A3014 RMK AO2
     T00911015=
KGGF 212315Z AUTO 22011G19KT 10SM CLR 26/M09 A2961 RMK AO2=
KGLW 212315Z AUTO 00000KT 10SM CLR 18/03 A2998 RMK AO2
     T01760026=
KHCR 212315Z AUTO 21009G21KT 10SM CLR 20/M10 A2985 RMK AO2=
KHDL 212315Z AUTO 00000KT 10SM CLR 17/05 A3008 RMK AO2=
KHVE 212315Z AUTO 18011G15KT 10SM CLR 25/M05 A2985 RMK AO2=
KHZR 212315Z AUTO 18010KT 10SM BKN055 25/14 A3000 RMK AO2
     T02450137=
KIIB 212315Z AUTO 29003KT 5SM HZ CLR 18/02 A2963 RMK AO2
     T01790023=
