SAUS70 KWBC 220222
METAR
KBJI 220215Z AUTO 00000KT 10SM BKN100 OVC120 10/01 A2956 RMK AO2
     T01010006=
KOWX 220215Z AUTO 19009KT 10SM CLR 15/M01 A2993 RMK AO1=
KAAA 220215Z AUTO 18011KT 10SM CLR 18/05 A2977 RMK AO2
     T01750053=
KAHQ 220215Z AUTO 00000KT 7SM CLR 10/01 A2958 RMK AO2
     T00980005=
KAIO 220215Z AUTO 00000KT 5SM HZ CLR 08/01 A2959 RMK AO2=
KASW 220215Z AUTO 19007KT 130V240 10SM CLR 17/02 A2985 RMK AO2
     T01710028=
KAUH 220215Z AUTO 17004KT 7SM CLR 10/M02 A2959 RMK AO2
     T01031016=
KBIE 220215Z AUTO 00000KT 7SM CLR 11/01 A2959 RMK AO2
     T01080011=
KBVN 220215Z AUTO 00000KT 7SM CLR 08/M02 A2958 RMK AO2
     T00811017=
KCAV 220215Z AUTO 08009KT 7SM SCT029 SCT040 BKN046 08/01 A2962 RMK
     A01=
KCFS 220215Z AUTO 19011G16KT 10SM CLR 17/02 A2977 RMK AO2
     T01720024=
KCKN 220215Z AUTO 00000KT 10SM SCT080 12/M01 A2956 RMK AO2=
KFEP 220215Z AUTO 19010KT 10SM CLR 16/07 A2970 RMK AO2
     T01620066=
KFSW 220215Z AUTO 00000KT 10SM OVC001 19/03 A2968 RMK AO2=
KGBG 220215Z AUTO 15003KT 10SM CLR 16/05 A2972 RMK AO2
     T01580048=
KGWB 220215Z AUTO 20007KT 10SM CLR 15/03 A2987 RMK AO2=
KHPT 220215Z AUTO 00000KT 5SM HZ CLR 07/M01 A2964 RMK AO2=
KLNN 220215Z AUTO 19009G16KT 10SM CLR 14/M03 A2994 RMK AO1
     T01431030=
KMJQ 220215Z AUTO 12006KT 10SM CLR 08/01 A2963 RMK AO2=
KMWO 220215Z AUTO 00000KT 10SM CLR 06/01 A2999 RMK AO2
     T00630014=
KOLZ 220215Z AUTO 06006KT 8SM CLR 11/01 A2964 RMK A01=
KPMV 220215Z AUTO 13006KT 10SM CLR 18/00 A2959 RMK AO2
     T01791005=
KPNT 220215Z AUTO 18015G22KT 10SM CLR 17/07 A2977 RMK AO2
     T01710065=
KRDK 220215Z AUTO 00000KT CLR 09/01 A2960 RMK AO2=
KRSV 220215Z AUTO 17007KT 10SM CLR 13/02 A2990 RMK AO2
     T01310022=
KTYQ 220215Z AUTO 17007KT 10SM CLR 13/02 A2991 RMK AO2
     T01310020=
KVYS 220215Z AUTO 18009KT 10SM CLR 15/04 A2973 RMK AO2
     T01500042=
K5SM 220215Z AUTO 23013G22KT 10SM CLR 02/M11 A3014 RMK AO2=
K6S8 220210Z AUTO 05012KT 10SM 10/05 A2955 RMK A01 LAUREL=
K7BM 220215Z AUTO 30008G18KT 280V340 10SM CLR 08/M10 A3004 RMK
     AO2=
K81R 220215Z AUTO 19008KT 10SM CLR 23/09 A2990 RMK AO2
     T02320086=
KBPG 220215Z AUTO 17010KT 10SM CLR 20/06 A2986 RMK AO2
     T02040060=
KC07 220215Z AUTO 27009G17KT 220V290 10SM CLR 03/M09 A3007 RMK
     AO2=
KCFD 220215Z AUTO 17010G17KT 10SM CLR 23/13 A2997 RMK AO2
     T02340134=
KE16 220215Z AUTO 15008KT 10SM CLR 14/10 A2987 RMK AO2 PWINO
     PNO=
KE42 220215Z AUTO 20010KT 10SM CLR 18/M04 A2968 RMK AO2
     T01811040=
KEBG 220215Z AUTO 15009KT 10SM CLR 23/17 A2999 RMK AO2 T02270170
     PWINO=
KELA 220215Z AUTO 17007KT 10SM CLR 21/15 A2999 RMK AO2
     T02070145=
KJAS 220215Z AUTO 19009KT 9SM FEW048 21/17 A3000 RMK AO2=
KJDD 220215Z AUTO 17004KT 10SM CLR 22/11 A2988 RMK AO2=
KLHB 220215Z AUTO 17010G17KT 10SM CLR 23/13 A2995 RMK AO2
     T02310134=
KMDD 220215Z AUTO 19008KT 10SM CLR 22/07 A2988 RMK AO2
     T02170072=
KMNH 220215Z AUTO 24007KT 10SM CLR 08/M15 A2987 RMK AO2=
KPSO 220215Z AUTO 00000KT 10SM CLR 08/M04 A3007 RMK AO2
     T00801041=
KSAA 220215Z AUTO 21008KT 10SM CLR 07/M11 A2984 RMK AO2=
KSTK 220215Z AUTO 22003KT 10SM CLR 11/M05 A2964 RMK AO2=
KT82 220215Z AUTO 00000KT 10SM CLR 19/08 A2996 RMK AO2
     T01910080=
KTEX 220215Z AUTO 00000KT 10SM CLR 07/M09 A3013 RMK AO2=
KVHN 220215Z AUTO 21006KT 10SM CLR 18/08 A3003 RMK AO2
     T01790083=
K06C 220215Z AUTO 20009G16KT 10SM CLR 19/08 A2974 RMK AO2
     T01920075=
KADU 220215Z AUTO 00000KT 10SM SCT008 SCT080 05/M01 A2961 RMK
     AO2=
KAFK 220215Z AUTO 17004KT 10SM CLR 17/00 A2960 RMK AO2
     T01680000=
