SAUS70 KWBC 220300
METAR
KC62 220255Z AUTO 20008KT 10SM CLR 15/03 A2987 RMK AO2
     T01470040=
KRYN 220245Z 21005KT 10SM CLR 24/10 A2989=
