SAUS80 KWBC 220300
METAR
K77S 220255Z AUTO 23008KT 8SM SCT015 BKN028 OVC045 15/14 A2971 RMK
     A01=
