SAUS80 KWBC 220200
METAR
KMVL 220154Z AUTO 00000KT 10SM CLR 02/M01 A3010 RMK AO2 SLP200
     T00171011=
KORH 220154Z 23007KT 10SM CLR 07/03 A3016 RMK AO2 SLP218
     T00720033=
KPIA 220154Z 18012KT 10SM CLR 18/03 A2973 RMK AO2 SLP067
     T01830033=
KPOV 220155Z AUTO 18005KT 10SM CLR 12/M02 A2998 RMK AO2 T01151020
     PWINO=
KPZQ 220155Z AUTO 20006KT 10SM CLR 15/05 A2965 RMK AO2
     T01520054=
KRFD 220154Z 18009KT 10SM CLR 17/04 A2971 RMK AO2 SLP060
     T01720044=
KRIC 220154Z 13004KT 10SM CLR 10/04 A3017 RMK AO2 SLP221
     T01000044=
KROA 220154Z 00000KT 10SM CLR 08/02 A3018 RMK AO2 SLP220
     T00780017=
KFWA 220154Z 20009KT 10SM CLR 13/02 A2989 RMK AO2 SLP122
     T01330022=
KGSO 220154Z 00000KT 10SM CLR 09/03 A3015 RMK AO2 SLP208
     T00890033=
KINL 220154Z AUTO 20003KT 10SM FEW110 08/01 A2953 RMK AO2 SLP009
     T00830006=
KJAN 220154Z 17007KT 10SM CLR 18/11 A3001 RMK AO2 SLP159
     T01780111=
KLEX 220154Z 17008KT 10SM CLR 13/01 A3001 RMK AO2 SLP161
     T01280006=
KLYH 220154Z 00000KT 10SM CLR 07/01 A3016 RMK AO2 SLP212
     T00720011=
KLYV 220155Z AUTO 00000KT 10SM CLR 10/01 A2960 RMK AO2=
KACY 220154Z 00000KT 10SM CLR 07/06 A3019 RMK AO2 SLP221
     T00720056=
KAKQ 220154Z AUTO 00000KT 10SM CLR 07/04 A3018 RMK AO2 SLP220
     T00670044=
KAPN 220154Z AUTO 19007KT 10SM CLR 15/04 A2966 RMK AO2 SLP048
     T01500044=
KAVP 220154Z VRB03KT 10SM CLR 06/M01 A3014 RMK AO2 SLP211
     T00611006=
KBTV 220154Z 18009KT 10SM CLR 11/M02 A3008 RMK AO2 SLP188
     T01061022=
KCAR 220154Z AUTO 20004KT 10SM CLR 07/M01 A3006 RMK AO2 SLP187
     T00671011=
KCOS 220154Z 31008KT 10SM CLR 18/M10 A2981 RMK AO2 SLP021
     T01781100 $=
KCOU 220154Z 17010KT 10SM CLR 21/01 A2974 RMK AO2 SLP066 T02110006
     $=
KCRW 220154Z 12003KT 10SM CLR 08/03 A3006 RMK AO2 SLP182
     T00780033=
KDSM 220154Z 09006KT 10SM CLR 14/04 A2962 RMK AO2 SLP028
     T01440039=
KDMH 220154Z AUTO 13/02 A3017 RMK AO1 SLP215 T01280022=
KMTP 220154Z AUTO VRB04KT 15/09 A3020 RMK AO1 SLP227 T01500094=
KNAK 220154Z AUTO 00000KT 10SM CLR 11/07 A3016 RMK AO2 SLP216
     T01060067=
K1V4 220154Z AUTO 04/00 A3010 RMK AO1 SLP200 T00390000 PNO=
KBFF 220153Z AUTO 25013G20KT 10SM CLR 21/M10 A2960 RMK AO2 SLP995
     T02111100=
KFNB 220153Z AUTO 20005KT 10SM CLR 21/04 A2959 RMK AO2 SLP016
     T02060039=
KGRR 220153Z 19010KT 10SM CLR 17/04 A2976 RMK AO2 SLP078
     T01670039=
KSBN 220154Z 20014G22KT 10SM CLR 18/03 A2981 RMK AO2 SLP095
     T01780033=
KSUS 220154Z 18012G25KT 10SM CLR 22/05 A2978 RMK AO2 SLP080
     T02170050=
KSYR 220154Z 19009KT 10SM FEW200 14/M03 A3003 RMK AO2 SLP167
     T01391033=
KWAL 220154Z AUTO 00000KT 10SM CLR 09/07 A3019 RMK AO2 SLP221
     T00940067=
KCDR 220153Z AUTO 25008KT 10SM CLR 11/M07 A2950 RMK AO2 SLP001
     T01111072=
KCUT 220153Z AUTO 31004KT 10SM CLR 13/M08 A2958 RMK AO2 SLP986
     T01281083=
KHTL 220153Z AUTO 18006KT 10SM CLR 13/04 A2969 RMK AO2 SLP058
     T01280044=
KDRT 220153Z AUTO 12008KT 10SM CLR 22/12 A2991 RMK AO2 SLP123
     T02220122=
KRQE 220153Z AUTO 00000KT 10SM CLR 12/03 A3006 RMK AO2 SLP132
     T01170028=
KTCS 220153Z AUTO 25008KT 10SM CLR 20/04 A2998 RMK AO2 SLP098
     T02000039=
KTUS 220153Z 27006KT 10SM CLR 27/10 A2991 RMK AO2 SLP089
     T02720100=
KFMN 220153Z 28003KT 10SM CLR 16/M02 A2997 RMK AO2 SLP127
     T01561017=
KGCC 220153Z AUTO 00000KT 10SM CLR 07/M05 A2952 RMK AO2 SLP989
     T00721050=
KDAL 220153Z 17011G18KT 10SM CLR 27/09 A2983 RMK AO2 SLP096
     T02670089=
KMSN 220153Z 00000KT 10SM CLR 10/05 A2966 RMK AO2 SLP046
     T01000050=
