SAUS80 KWBC 212250
METAR
KCUL 212233Z AUTO 17010KT 10SM CLR 23/03 A2986 RMK AO2=
KROS 212243Z AUTO 25003KT 10SM CLR 18/04 A2959 RMK AO2=
KLZZ 212235Z AUTO 20008G15KT 10SM CLR 30/05 A2984 RMK AO2
     T02960050=
