SAUS80 KWBC 220200 CCA
METAR
KCQT 220147Z AUTO 26004KT 10SM OVC009 19/17 A2986 RMK AO2 SLP109
     T01890167=
