SAUS70 KWBC 220216
METAR
K2C8 220215Z AUTO 31008KT 9SM BKN030 BKN042 OVC050 10/06 A2956 RMK
     AO2=
KD50 220215Z AUTO 23003KT 2 1/2SM BR FEW030 SCT120 04/04 A2957 RMK
     AO2=
KEFT 220215Z AUTO 21012KT 10SM CLR 16/03 A2967 RMK AO2
     T01610028=
KETB 220215Z AUTO 00000KT 10SM CLR 10/03 A2968 RMK AO2=
KFRH 220215Z AUTO 17004KT 10SM CLR 16/00 A2994 RMK AO1=
KOIC 220215Z AUTO 20003KT 10SM CLR 04/M01 A3013 RMK AO2
     T00441009=
KPBH 220215Z AUTO 00000KT 10SM CLR 04/01 A2964 RMK AO2
     T00440014=
KPDC 220215Z AUTO 00000KT 10SM CLR 10/03 A2965 RMK AO2
     T01000030=
KRRL 220215Z AUTO 00000KT 10SM CLR 06/03 A2964 RMK AO2 T00610029
     TSNO=
KUNU 220215Z AUTO 00000KT 10SM CLR 15/04 A2968 RMK AO2
     T01460037=
KVNW 220215Z AUTO 19009KT 10SM CLR 15/00 A2992 RMK AO2=
KY51 220215Z AUTO 00000KT 10SM CLR 15/04 A2966 RMK AO1
     T01500038=
K08D 220215Z AUTO 04005KT 10SM 05/05 A2957 RMK AO2=
K0E0 220215Z AUTO 26003KT 10SM CLR 11/01 A3002 RMK AO2 T01130010
     TSNO=
KBEA 220215Z AUTO 15005KT 10SM CLR 19/14 A2997 RMK AO2 T01900141
     PWINO=
KCQW 220215Z AUTO 00000KT 10SM CLR 08/02 A3015 RMK AO2 PWINO=
KD55 220215Z AUTO 32007KT 7SM FEW023 SCT036 BKN041 07/07 A2957 RMK
     AO2=
KEDE 220215Z AUTO 00000KT 10SM CLR 12/11 A3018 RMK AO2
     T01180106=
KEHO 220215Z AUTO 00000KT 10SM CLR 06/03 A3016 RMK AO2
     T00610025=
KEYF 220215Z AUTO 00000KT 10SM CLR 09/06 A3016 RMK AO2
     T00950058=
KLAL 220215Z AUTO 03008KT 10SM CLR 17/08 A3008 RMK AO2
     T01700075=
KLNL 220215Z AUTO 00000KT 10SM CLR 02/01 A2966 RMK AO2
     T00190009=
KLUM 220215Z AUTO 00000KT 10SM CLR 10/07 A2964 RMK AO2
     T00980073=
KMAW 220215Z AUTO 18005KT 10SM CLR 16/08 A2990 RMK AO1=
KMCX 220235Z AUTO 18008KT 10SM CLR 17/01 A2985 RMK AO2
     T01680011=
KRCZ 220215Z AUTO 00000KT 10SM CLR 09/03 A3016 RMK AO2
     T00890025=
KRID 220235Z AUTO 17008KT 10SM CLR 07/01 A2997 RMK AO2=
KRNV 220215Z AUTO 17008KT 10SM CLR A2994 RMK AO2 TSNO=
KRPD 220215Z AUTO 00000KT 10SM CLR 06/05 A2965 RMK AO2
     T00620047=
KSDC 220215Z AUTO 17006KT 10SM CLR 12/M01 A3000 RMK AO2=
KSNK 220215Z AUTO 20008KT 10SM CLR 22/04 A2984 RMK AO2
     T02150042=
KAQP 220213Z AUTO 19004KT 10SM 11/M01 A2958 RMK AO2=
KETH 220213Z AUTO 16005KT 10SM 13/01 A2958 RMK AO2=
KFOZ 220213Z AUTO 00000KT 10SM CLR 09/02 A2962 RMK AO2=
KOWA 220213Z AUTO 14004KT 10SM CLR 09/03 A2964 RMK AO2=
KXVG 220213Z AUTO 00000KT 10SM CLR 06/02 A2958 RMK AO2=
K10G 220215Z AUTO 20005KT 10SM CLR 12/M01 A3001 RMK AO2=
K14Y 220215Z AUTO 00000KT 7SM CLR 07/00 A2959 RMK AO2=
K1P1 220215Z AUTO 00000KT 10SM CLR 01/00 A3016 RMK AO2
     T00080000=
K20U 220215Z AUTO 33005KT 10SM BKN065 OVC075 07/07 A2956 RMK
     AO2=
K21D 220215Z AUTO 00000KT 10SM CLR 06/01 A2964 RMK AO2=
K24A 220215Z AUTO 13005KT 10SM CLR 09/M01 A3018 RMK AO2 LTG DSNT
     SE T00881012=
K27K 220215Z AUTO 16004KT 10SM CLR 11/00 A3002 RMK AO1=
K2P2 220215Z AUTO 00000KT 10SM CLR 06/06 A2962 RMK AO2
     T00560056=
K35A 220215Z AUTO 00000KT 10SM CLR 08/01 A3019 RMK A02 LTG DSNT S
     T00820014=
K3D2 220215Z AUTO 26003KT 10SM CLR 14/05 A2963 RMK AO2
     T01370051=
K4I3 220215Z AUTO 17006KT 10SM CLR 11/01 A3001 RMK AO2=
K4S2 220215Z AUTO 00000KT 5SM -RA BKN005 BKN023 OVC060 08/07 A2965
     RMK AO2 P0001=
K6L4 220215Z AUTO 00000KT 10SM CLR 12/01 A3008 RMK AO2=
K6S2 220215Z AUTO 20009G15KT 4SM BR OVC003 13/13 A2975 RMK AO2=
KACQ 220215Z AUTO 10003KT 7SM CLR 06/01 A2965 RMK AO2=
KAIT 220215Z AUTO 00000KT 10SM CLR 05/02 A2960 RMK AO2=
KAMN 220215Z AUTO 17007KT 10SM CLR 15/04 A2975 RMK AO2
     T01450035=
KANE 220215Z AUTO 00000KT 10SM CLR 09/03 A2961 RMK AO2=
