SAUS80 KWBC 220116
METAR
KFAR 220111Z 16006KT 10SM CLR 12/M02 A2954=
KAID 220115Z AUTO 18008KT 10SM CLR 15/M02 A2991 RMK AO2
     T01541017=
KPOV 220115Z AUTO 17003KT 10SM CLR 11/M02 A2997 RMK AO2 T01111017
     PWINO=
KPZQ 220115Z AUTO 20006KT 10SM CLR 16/05 A2965 RMK AO2
     T01580054=
KIKW 220115Z AUTO 17004KT 10SM CLR 16/05 A2971 RMK AO2
     T01560046=
