SAUS70 KWBC 220200
METAR
KC62 220155Z AUTO 20008G14KT 10SM CLR 15/03 A2985 RMK AO2
     T01550040=
