SAPA32 KWBC 220100
METAR
NCRG 220100Z AUTO 06010KT 9999 FEW010/// BKN016/// 27/23 Q1014=
NFFN 220100Z 20011KT 9999 VCSH SCT026TCU SCT047 29/21 Q1010
     NOSIG=
NFNA NIL=
NFTF 220100Z 13010G22KT 9999 -RA FEW009 SCT016 BKN100 25/22
     Q1013=
NFTV 220100Z 07003KT 9999 FEW018 SCT100 28/24 Q1011=
NGFU 220100Z 09004KT 9999 FEW018TCU SCT020 31/25 Q1007=
NSFA NIL=
NSTU NIL=
NTAA NIL=
NWWW 220100Z AUTO 05009KT 360V080 CAVOK 29/14 Q1013 NOSIG=
