SAKA31 PTKK 220100
METAR PTKK 220050Z 03008KT 15SM FEW014CB SCT120 OVC280 28/24 A2981
RMK
CB NE MOV SW SLP098 T02780239=
