SAUS70 KWBC 220238 RRE
METAR
KPCZ 220235Z AUTO 00000KT 10SM CLR 10/04 A2967 RMK AO2
     T00970040=
KRGK 220235Z AUTO 00000KT 10SM CLR 09/03 A2963 RMK AO2=
KROX 220235Z AUTO 27008KT 10SM SCT070 OVC080 13/01 A2955 RMK
     AO2=
KSAZ 220235Z AUTO 00000KT 10SM CLR 09/02 A2958 RMK AO2=
K0E0 220235Z AUTO 25006KT 10SM CLR 13/01 A3002 RMK AO2 T01260010
     TSNO=
K3N8 220235Z AUTO 19004KT 10SM BKN120 09/00 A2958 RMK AO2
     T00870002=
K4S2 220235Z AUTO 00000KT 5SM -RA OVC007 08/07 A2963 RMK AO2
     P0001=
K6S2 220235Z AUTO 22008G14KT 6SM -RA BR BKN003 BKN009 OVC018 14/14
     A2975 RMK AO2=
KAQP 220233Z AUTO 18007KT 10SM 11/M01 A2958 RMK AO2=
KBEA 220235Z AUTO 15005KT 10SM CLR 19/14 A2998 RMK AO2 T01870142
     PWINO=
KF70 220235Z AUTO 21007KT 10SM CLR 18/16 A2990 RMK AO2=
KJAQ 220235Z AUTO 00000KT 10SM CLR 21/09 A2983 RMK AO1
     T02120092=
KJSO 220235Z AUTO 19009G14KT 10SM CLR 22/11 A2995 RMK AO2
     T02170107 TSNO=
KL18 220235Z AUTO 23003KT 10SM OVC014 18/16 A2989 RMK AO2=
KL52 220235Z AUTO 00000KT 7SM SCT012 14/13 A2989 RMK A01=
KPAN 220235Z AUTO 00000KT 10SM CLR 15/05 A3005 RMK AO2 PWINO
     TSNO=
KPVF 220235Z AUTO 14004KT 10SM CLR 18/04 A2988 RMK AO1=
KRPH 220235Z AUTO VRB04KT 9SM CLR 24/04 A2977 RMK AO2 T02430043
     $=
KSNK 220235Z AUTO 20008KT 10SM CLR 21/04 A2984 RMK AO2
     T02130043=
KSRR 220235Z AUTO 16004KT 10SM 13/02 A3008 RMK AO2=
KT69 220235Z AUTO 18006KT 10SM CLR 21/16 A2998 RMK A01=
KTME 220235Z AUTO 18007KT 10SM CLR 20/15 A3001 RMK AO2=
KTSP 220235Z AUTO 00000KT 10SM CLR 16/M00 A2998 RMK AO2=
KTVY 220235Z AUTO 18011KT 10SM CLR 16/M03 A2973 RMK AO2=
KU42 220235Z AUTO 21005KT 10SM CLR 15/M02 A2976 RMK AO1
     T01481018=
KD57 220235Z AUTO 07004KT 10SM 10/M01 A2951 RMK AO2=
KHZE 220235Z AUTO 05003KT 10SM -RA FEW034 SCT041 OVC049 08/05
     A2956 RMK AO2=
KI68 220235Z AUTO 16007KT 10SM CLR 13/01 A3000 RMK AO1
     T01250013=
KIDI 220235Z AUTO 00000KT 10SM BKN055 05/02 A3012 RMK A01=
KJYG 220235Z AUTO 00000KT 7SM CLR 05/00 A2962 RMK AO2=
KMVE 220235Z AUTO 14004KT 10SM CLR 09/01 A2959 RMK AO2=
KOLG 220235Z AUTO 00000KT 10SM CLR 04/00 A2963 RMK AO1=
KPNM 220235Z AUTO 00000KT 10SM CLR 08/03 A2963 RMK AO2 TSNO=
KRNH 220235Z AUTO 00000KT 10SM CLR 08/05 A2963 RMK AO2
     T00790049=
KRUG 220235Z AUTO 02004KT 7SM OVC042 06/06 A2956 RMK AO2=
KRVL 220235Z AUTO 00000KT 10SM CLR 05/01 A3013 RMK AO2=
KRYV 220235Z AUTO 00000KT 10SM CLR 07/03 A2969 RMK AO2
     T00690031=
KRZL 220235Z AUTO 18011G15KT 10SM CLR 16/02 A2983 RMK AO2=
KRZN 220235Z AUTO 00000KT 10SM CLR 05/01 A2963 RMK AO2
     T00460008=
KS25 220235Z AUTO 01005KT 10SM FEW033 SCT050 BKN065 06/06 A2957
     RMK AO2=
KS32 220235Z AUTO 00000KT 10SM FEW039 BKN060 OVC075 09/M00 A2956
     RMK AO2 TSNO=
KSJX 220235Z AUTO 28004KT 10SM CLR 09/08 A2966 RMK AO2
     T00920079=
KSPF 220235Z AUTO 00000KT 10SM CLR 11/M04 A2952 RMK AO2=
KTME 220235Z AUTO 18007KT 10SM CLR 20/15 A3001 RMK AO2=
KTOB 220235Z AUTO 00000KT 10SM CLR 09/01 A2964 RMK AO2=
KVGC 220235Z AUTO 15008KT 10SM CLR 07/M02 A3009 RMK AO2=
KY19 220235Z AUTO 05006KT 10SM BKN039 BKN120 10/02 A2952 RMK
     AO2=
KY70 220235Z AUTO 20010G16KT 10SM CLR 17/02 A2977 RMK AO2
     T01710023=
K06D 220235Z AUTO 00000KT 10SM OVC045 05/05 A2956 RMK AO2=
K46D 220235Z AUTO 05003KT 10SM BKN070 10/03 A2956 RMK AO2=
K6B9 220235Z AUTO 19009G18KT 130V230 10SM CLR 12/M02 A3005 RMK
     AO2=
K7L2 220235Z AUTO 11005KT 10SM FEW050 FEW090 BKN110 12/M00 A2953
     RMK AO2=
K82C 220235Z AUTO 30003KT 10SM CLR 07/04 A2966 RMK AO2
     T00710036=
K96D 220235Z AUTO 28004KT 10SM -DZ FEW028 SCT048 BKN055 09/08
     A2957 RMK AO2=
