SAUS70 KWBC 212338 RRI
METAR
K82C 212335Z AUTO 00000KT 10SM CLR 14/04 A2962 RMK AO2
     T01360038=
KAIG 212335Z AUTO 23004KT 10SM CLR 11/03 A2961 RMK AO2
     T01140031=
KBAC 212335Z AUTO 13004KT 10SM SCT090 BKN110 13/01 A2953 RMK
     AO2=
KFBL 212335Z AUTO 00000KT 10SM CLR 12/03 A2963 RMK AO2=
KFSO 212335Z AUTO 17008KT 10SM CLR 13/M03 A3002 RMK AO2
     T01291032=
KHZL 212335Z AUTO 00000KT 10SM CLR 07/M01 A3014 RMK AO2=
KI69 212335Z AUTO 17004KT 10SM CLR 17/00 A2998 RMK AO2
     T01710001=
KMGG 212335Z AUTO 00000KT 10SM CLR 11/02 A2963 RMK AO2 T01060019
     PWINO=
KPWC 212335Z AUTO 00000KT 10SM CLR 09/02 A2963 RMK AO2=
KROX 212335Z AUTO 23005KT 10SM SCT110 14/01 A2950 RMK AO2=
KRUG 212335Z AUTO 27006KT 10SM FEW025 SCT048 OVC065 10/03 A2953
     RMK AO2=
KRYV 212335Z AUTO 21004KT 10SM CLR 18/02 A2962 RMK AO2
     T01800020=
KRZN 212335Z AUTO 00000KT 10SM CLR 12/01 A2960 RMK AO2
     T01190010=
KSGS 212335Z AUTO 26003KT 10SM CLR 15/02 A2960 RMK AO2
     T01540023=
KVGC 212335Z AUTO 17005KT 10SM CLR 10/M03 A3006 RMK AO2=
KVVV 212335Z 11004KT 10SM 13/01 A2959 RMK AO2=
KY19 212335Z AUTO 07005KT 10SM BKN095 12/03 A2951 RMK AO2=
K0E0 212335Z AUTO 27013G21KT 10SM CLR 20/M04 A3002 RMK AO2
     T01951038 TSNO=
K0S9 212335Z AUTO 00000KT 4SM -RA BKN024 OVC033 09/08 A2973 RMK
     AO2=
K3N8 212335Z AUTO 19003KT 10SM CLR 11/00 A2956 RMK AO2
     T01111002=
K4S2 212335Z AUTO 32005KT 7SM -RA BKN012 BKN022 OVC070 08/07 A2974
     RMK AO2 P0001=
K6S2 212335Z AUTO 20010G22KT 3SM -RA BR BKN007 BKN013 12/12 A2981
     RMK AO2=
KALM 212335Z AUTO 13003KT 10SM CLR 24/06 A2996 RMK AO2=
KAQP 212333Z AUTO 00000KT 7SM BKN090 14/00 A2960 RMK AO2=
KATS 212335Z AUTO 00000KT 10SM CLR 28/05 A2987 RMK AO2=
KBEA 212335Z AUTO 14011G16KT 10SM CLR 25/13 A2993 RMK AO2
     T02450132=
KBKS 212335Z AUTO 13011KT 9SM CLR 26/16 A2992 RMK AO2 SLP093
     T02600161 $=
KCVH 212335Z AUTO 25015G21KT 10SM CLR 17/11 A2988 RMK A01=
KJAQ 212335Z AUTO 25005KT 10SM CLR 27/05 A2985 RMK AO1
     T02680049=
KJSO 212335Z AUTO 20005KT 10SM CLR 26/10 A2991 RMK AO2 T02610101
     TSNO=
KL18 212335Z AUTO 21004KT 10SM CLR 23/16 A2985 RMK AO2=
KPVF 212335Z AUTO 22005KT 10SM CLR 25/01 A2991 RMK AO1=
KRPH 212335Z AUTO 18007KT 8SM CLR 30/01 A2975 RMK AO2 T03040014
     $=
KSNK 212335Z AUTO 23010KT 10SM CLR 27/01 A2983 RMK AO2
     T02730005=
KSRR 212335Z AUTO 28007G17KT 10SM 18/01 A3009 RMK AO2=
KTSP 212335Z AUTO 31013KT 9SM CLR 24/M04 A2996 RMK AO2=
KTVY 212335Z AUTO 17010KT 10SM CLR 23/00 A2979 RMK AO2=
KU42 212335Z AUTO 24011G16KT 10SM CLR 23/02 A2981 RMK AO1
     T02250017=
K04W 212335Z AUTO 32003KT 10SM CLR 11/02 A2960 RMK AO2=
K06D 212335Z AUTO 30005KT 10SM -RA BKN022 OVC031 08/04 A2954 RMK
     AO2=
K22N 212335Z AUTO 00000KT 10SM CLR 05/00 A3013 RMK AO2=
K2D5 212335Z AUTO 15006KT 5SM HZ CLR 13/01 A2955 RMK AO2=
K3D2 212335Z AUTO 20004KT 10SM CLR 11/08 A2958 RMK AO2
     T01090077=
K46D 212335Z AUTO 22003KT 10SM SCT110 11/02 A2956 RMK AO2=
K6B9 212335Z AUTO 17007G13KT 130V210 10SM CLR 12/M02 A3002 RMK
     AO2=
K96D 212335Z AUTO 27007G12KT 10SM FEW075 OVC090 13/01 A2951 RMK
     AO2=
K9D7 212335Z AUTO 29005KT 10SM OVC070 10/02 A2954 RMK AO2 TSNO=
KACB 212335Z AUTO 00000KT 10SM CLR 17/06 A2961 RMK AO2
     T01670057=
KANQ 212335Z AUTO 19010KT 10SM FEW040 SCT047 18/03 A2981 RMK
     AO2=
KBWP 212335Z AUTO 19003KT 9SM CLR 14/M00 A2956 RMK AO2=
KBWW 212335Z AUTO 35019KT 10SM FEW090 15/01 A2950 RMK AO2=
KCFJ 212335Z AUTO 17009KT 10SM CLR 16/M01 A2985 RMK AO2
     T01631009=
KCNB 212335Z AUTO 14005KT 10SM CLR 14/00 A2961 RMK AO2
     T01421002=
