SAUS70 KWBC 212250
METAR
KDCY 212235Z AUTO 18008KT 10SM CLR 20/02 A2988 RMK AO2
     T02040016=
KEVM 212241Z AUTO 25005KT 10SM CLR 13/02 A2957 RMK AO2=
KJVY 212235Z AUTO 19004KT 10SM CLR 19/01 A2994 RMK AO2 PWINO=
KMPZ 212230Z AUTO 20009G16KT 10SM CLR 27/10 A2962 RMK AO2=
KUYF 212235Z AUTO 19008KT 10SM CLR 15/M02 A2994 RMK AO2=
KW99 212240Z AUTO 00000KT 1/4SM HZ VV002 15/01 A3006 RMK AO2=
K20V 212235Z AUTO 25014G31KT 10SM CLR 17/M08 A2993 RMK AO2=
KANK 212230Z AUTO 24014G23KT 10SM CLR A3003 RMK AO1=
KBMC 212230Z AUTO 10SM CLR 23/M09 A2979 RMK AO1 T02251090=
KDUB 212234Z AUTO 30017G26KT 10SM SCT075 14/M07 A2971 RMK AO2=
KDWX 212230Z AUTO 21011G19KT 10SM CLR A2989 RMK AO2=
KEAN 212230Z AUTO 27014G32KT 10SM CLR 24/M13 A2962 RMK AO2
     T02351128=
KGNB 212235Z AUTO 24015G22KT 10SM CLR 16/M10 A2995 RMK AO2
     T01561104=
KGNC 212235Z AUTO 28012KT 10SM CLR 27/02 A2992 RMK AO2
     T02710017=
KHBV 212230Z AUTO 19005KT 4SM HZ CLR 29/09 A2994 RMK AO2
     T02890093=
KHEQ 212235Z AUTO 25012G16KT 10SM CLR 27/M08 A2966 RMK AO2=
KHSG 212230Z AUTO 25023G28KT 10SM CLR 20/M04 A2954 RMK AO2
     T02041036=
KMMH 212234Z AUTO 29016G22KT 10SM CLR 20/M08 A3007 RMK AO2=
KOSA 212230Z AUTO 20008KT 10SM CLR 29/09 A2985 RMK AO2
     T02870093=
KOZA 212235Z AUTO 19012G25KT 10SM CLR 27/07 A2994 RMK AO2=
KPEQ 212235Z AUTO 25012G20KT 10SM CLR 30/06 A2987 RMK AO2
     T02980055=
KPEZ 212230Z AUTO 19011KT 10SM CLR 30/09 A2993 RMK AO2
     T03000094=
KPVW 212230Z AUTO 26017G21KT 10SM CLR 27/M01 A2980 RMK AO2
     T02721010=
KSLR 212230Z AUTO 19009G15KT 10SM CLR 30/05 A2985 RMK AO2
     T02970049=
KTFP 212215Z AUTO 18010G16KT 10SM CLR 26/16 A2996 RMK AO2
     T02610156=
KTXW 212230Z AUTO 15011KT 10SM CLR 29/14 A2994 RMK AO2
     T02910142=
KC62 212315Z AUTO 20009KT 10SM CLR 19/03 A2980 RMK AO2
     T01920030=
KOCW 212235Z AUTO 00000KT 10SM 15/06 A3012 RMK AO2 T01480061=
