SAUS80 KWBC 220032
METAR
KROS 220023Z AUTO 25003KT 10SM SCT110 12/04 A2963 RMK AO2=
KAID 220035Z AUTO 18004KT 10SM CLR 16/M01 A2991 RMK AO2
     T01561015=
