SAUS70 KWBC 212328
METAR
K1S5 212335Z AUTO 25005KT 10SM -RA OVC060 10/07 A2969 RMK AO2
     P0002 T00970067=
KCPF 212335Z AUTO 17003KT 10SM CLR 16/00 A3004 RMK AO2=
KEMV 212335Z AUTO 00000KT 10SM CLR 08/06 A3015 RMK AO2
     T00810055=
KFFA 212335Z AUTO 05003KT 10SM CLR 16/09 A3012 RMK AO2
     T01600094=
KMCJ 212335Z AUTO 17015G24KT 10SM CLR 25/14 A2993 RMK A01=
KSUW 212335Z AUTO 31003KT 10SM CLR 12/02 A2958 RMK AO2
     T01160020=
