SAUS70 KWBC 220100
METAR
KBLH 220052Z AUTO 15005KT 10SM CLR 31/08 A2974 RMK AO2 SLP066
     T03110083 TSNO=
K2C8 220055Z AUTO 30008KT 10SM FEW050 SCT060 OVC070 12/02 A2952
     RMK AO2=
KALN 220050Z 16011KT 10SM CLR 18/04 A2980=
KCLE 220051Z 18012G18KT 10SM CLR 16/00 A2992 RMK AO2 SLP147
     T01560000=
KD50 220055Z AUTO 00000KT 10SM BKN042 OVC050 05/04 A2958 RMK
     AO2=
KILG 220051Z 18005KT 10SM CLR 12/04 A3016 RMK AO2 SLP213
     T01170044=
KJFK 220051Z 20010KT 10SM CLR 14/07 A3016 RMK AO2 SLP214
     T01390067=
KMPV 220051Z AUTO 05003KT 10SM CLR 07/M02 A3012 RMK AO2 SLP209
     T00671022=
KOQU 220050Z 23005KT 10SM SKC 13/06 A3018=
KORD 220051Z 20010G21KT 10SM CLR 21/03 A2971 RMK AO2 SLP061
     T02110033=
KOXC 220051Z 17006KT 10SM CLR 09/03 A3016 RMK AO2 SLP229
     T00890028=
KPIT 220051Z 17003KT 10SM FEW250 11/M01 A3003 RMK AO2 SLP182
     T01111006=
KPWM 220051Z 00000KT 10SM CLR 07/05 A3015 RMK AO2 SLP208
     T00670050=
KSLK 220051Z AUTO 21004KT 10SM CLR 04/M02 A3002 RMK AO2 SLP179
     T00391017=
KY51 220055Z AUTO 20003KT 10SM CLR 17/04 A2965 RMK AO1
     T01710036=
KACT 220051Z 17013KT 10SM CLR 26/11 A2986 RMK AO2 SLP106
     T02610106=
KAVX 220051Z AUTO 00000KT 9SM CLR 18/13 A2988 RMK AO2 SLP096
     T01830133=
KBAZ 220051Z AUTO 17009KT 10SM CLR 22/09 A2991 RMK AO2 SLP125
     T02170094=
KBGD 220051Z AUTO 18008KT 10SM CLR 24/M02 A2969 RMK AO2 SLP023
     T02441022=
KDAG 220050Z AUTO 10003KT 10SM CLR 29/M02 A2980 RMK AO2 SLP070
     T02891017=
KHQZ 220050Z 14006KT 10SM CLR 23/08 A2984=
KJCT 220051Z AUTO 19007KT 10SM CLR 23/08 A2992 RMK AO2 SLP108
     T02330078=
KSEE 220047Z 23008KT 10SM SKC 21/16 A2986=
KSMO 220051Z 23008KT 10SM BKN010 19/16 A2984 RMK AO2 SLP103
     T01890161=
KTPL 220051Z AUTO 16009KT 10SM CLR 24/09 A2989 RMK AO2 SLP115
     T02390094=
KVNY 220051Z 14008KT 10SM CLR 25/14 A2982 RMK AO2 SLP089 T02500139
     $=
K08D 220055Z AUTO 03007KT 10SM 05/05 A2956 RMK AO2=
K0E0 220055Z AUTO 27008KT 10SM CLR 15/00 A3002 RMK AO2 T01541003
     TSNO=
KAFN 220052Z AUTO 00000KT 10SM CLR 03/01 A3013 RMK AO2 SLP219
     T00330006=
KAQW 220052Z AUTO VRB03KT 10SM CLR 04/ A3013 RMK AO2 SLP208 T0044
     $=
KARR 220052Z 17007KT 10SM CLR 16/04 A2972 RMK AO2 SLP065
     T01610044=
KATL 220052Z 14004KT 10SM FEW250 14/03 A3012 RMK AO2 SLP199
     T01440033=
KBEA 220055Z AUTO 14007KT 10SM CLR 22/14 A2995 RMK AO2 T02150135
     PWINO=
KBIS 220052Z 06009KT 10SM FEW110 12/01 A2951 RMK AO2 SLP000
     T01220006=
KBLF 220052Z AUTO 19005KT 10SM CLR 11/M02 A3012 RMK AO2 SLP196
     T01061017=
KBML 220052Z AUTO 00000KT 10SM CLR 01/M01 A3009 RMK AO2 SLP204
     T00111006=
KBRL 220053Z AUTO 19012KT 10SM CLR 21/03 A2966 RMK AO2 SLP043
     T02060033=
KBVO 220053Z AUTO 19004KT 10SM CLR 24/06 A2970 RMK AO2 SLP052
     T02390056=
KBYI 220053Z AUTO 28005KT 10SM CLR 16/01 A2969 RMK AO2 SLP032
     T01610006=
KCLT 220052Z 00000KT 10SM CLR 09/00 A3014 RMK SLP205 T00940000=
KCPS 220053Z 16007KT 10SM CLR 19/04 A2980 RMK AO2 SLP091 T01890039
     $=
KCQW 220055Z AUTO 00000KT 10SM CLR 10/02 A3013 RMK AO2 PWINO=
KCQX 220052Z AUTO 20003KT 10SM CLR 14/09 A3020 RMK AO2 SLP226
     T01390089=
KCVG 220052Z 19006KT 10SM CLR 13/01 A2996 RMK AO2 SLP145
     T01330006=
KD55 220055Z AUTO 30009KT 10SM SCT038 BKN047 OVC060 09/04 A2955
     RMK AO2=
KDCA 220052Z 17007KT 10SM FEW250 13/06 A3016 RMK AO2 SLP212
     T01330056 $=
KDDC 220052Z AUTO 22003KT 10SM CLR 22/M03 A2964 RMK AO2 SLP020
     T02171033=
KDPA 220052Z 18011KT 10SM CLR 18/04 A2972 RMK AO2 SLP063
     T01830039=
