SAUS70 KWBC 212340 RRC
METAR
KCLS 212335Z AUTO 18007KT 5SM -RA FEW019 FEW050 08/07 A2974 RMK
     AO2=
KCMR 212335Z AUTO 22006G12KT 10SM CLR 17/02 A3009 RMK AO2=
KDNA 212335Z AUTO 25008KT 10SM CLR 26/08 A2998 RMK AO2=
KF70 212335Z AUTO 22010KT 10SM CLR 25/15 A2985 RMK AO2=
KHAF 212335Z AUTO 17004KT 5SM BR OVC011 14/13 A2990 RMK AO2=
KL08 212335Z AUTO 12006KT 10SM CLR 32/05 A2976 RMK AO2=
KL35 212335Z AUTO 00000KT 10SM CLR 16/M02 A3010 RMK AO2=
KL52 212335Z AUTO 25007KT 7SM SCT010 16/15 A2989 RMK A01=
KLRU 212335Z AUTO 26017G24KT 10SM CLR 26/04 A2999 RMK AO2
     T02550042=
KMAN 212335Z AUTO 00000KT 10SM CLR 20/03 A2967 RMK A01=
KO22 212335Z AUTO 22005KT 10SM CLR 28/01 A2987 RMK A01=
KO32 212335Z AUTO 00000KT 9SM CLR 31/07 A2977 RMK AO2 T03060073
     $=
KONM 212335Z AUTO 16009KT 10SM CLR 24/03 A2995 RMK AO2
     T02380032=
KORS 212335Z AUTO 20005KT 5SM -RA HZ OVC043 10/ A2972 RMK AO2=
KPAN 212335Z AUTO 22006G11KT 10SM CLR 21/04 A3005 RMK AO2 PWINO
     TSNO=
KT69 212335Z AUTO 17011G16KT 10SM CLR 24/15 A2995 RMK A01=
KTME 212335Z AUTO 19012KT 10SM CLR 25/15 A2996 RMK AO2=
K2G2 212335Z AUTO 19005KT 10SM CLR 13/M02 A3001 RMK A01=
K33N 212335Z AUTO 00000KT 10SM CLR 10/06 A3014 RMK A01=
K3I2 212335Z AUTO 00000KT 10SM CLR 12/02 A3003 RMK AO2
     T01150017=
K3LF 212335Z AUTO 15009KT 10SM CLR 20/03 A2981 RMK AO2
     T01960030=
KBTN 212335Z AUTO 16006KT 5SM HZ CLR 14/M00 A2954 RMK AO2=
KHLB 212335Z AUTO VRB04KT 10SM CLR 16/00 A2993 RMK A01=
KHSB 212335Z AUTO 16004KT 10SM CLR 17/07 A2987 RMK AO2
     T01740069=
KHYX 212335Z AUTO 19009KT 10SM CLR 16/04 A2972 RMK AO2
     T01580039=
KHZX 212335Z AUTO 00000KT 10SM CLR 10/02 A2959 RMK AO2=
KI67 212335Z AUTO 17003KT 10SM CLR 17/00 A2994 RMK AO1=
KI74 212335Z AUTO 19004KT 10SM CLR 13/01 A2994 RMK AO2=
KIFA 212335Z AUTO 00000KT 7SM CLR 17/01 A2963 RMK AO2
     T01740011=
KIGQ 212335Z AUTO 19010KT 10SM CLR 19/05 A2973 RMK AO2
     T01940048=
KIMS 212335Z AUTO 15005KT 10SM CLR 16/01 A2997 RMK AO2=
KJPX 212335Z AUTO 20005KT 10SM CLR 13/07 A3015 RMK AO2
     T01300072=
KLCG 212335Z AUTO 11003KT 10SM CLR 16/M02 A2959 RMK AO2
     T01551016=
KPMH 212335Z AUTO 00000KT 10SM CLR 13/00 A3000 RMK AO2
     T01300003=
KPRO 212335Z AUTO 21006KT 10SM CLR 18/M01 A2961 RMK AO2
     T01781006=
KPVB 212335Z AUTO 00000KT 10SM CLR 21/01 A2963 RMK AO1
     T02070005=
KSLO 212335Z AUTO 16005KT 10SM CLR 21/03 A2984 RMK AO2
     T02110031=
KUSE 212335Z AUTO 20008KT 10SM CLR 18/02 A2983 RMK AO2=
KXLL 212335Z AUTO 00000KT 10SM CLR 11/02 A3014 RMK AO2=
KY31 212335Z AUTO 19005KT 10SM CLR 16/03 A2967 RMK AO2
     T01640027=
KARM 212335Z AUTO 19012G18KT 10SM SCT047 24/14 A2997 RMK AO2
     T02420135 TSNO=
KINJ 212335Z AUTO 17013KT 10SM CLR 29/09 A2984 RMK AO2
     T02900090=
KJTC 212335Z AUTO 27013G20KT 10SM CLR 19/M02 A3012 RMK AO2=
KJWY 212335Z AUTO 18009KT 10SM CLR 29/10 A2984 RMK AO2
     T02860095=
KLNC 212335Z AUTO 17010G15KT 10SM CLR 29/07 A2983 RMK AO2
     T02860071=
KMVH 212335Z AUTO 33007KT 7SM 07/06 A2958 RMK AO2 PWINO=
KPKV 212335Z AUTO 18011G15KT 10SM SCT043 26/15 A2997 RMK AO2
     T02560149=
KPRS 212335Z AUTO 00000KT 10SM CLR 29/11 A2995 RMK AO2
     T02850112=
KPYX 212335Z AUTO 21009KT 10SM CLR 26/M07 A2966 RMK AO2
     T02631071=
KRTS 212335Z AUTO 27014G23KT 10SM CLR 22/M07 A2991 RMK AO2=
KSEZ 212335Z AUTO 23008KT 10SM 22/05 A3000 RMK AO2=
KSZT 212335Z AUTO 21006KT 7SM RA BKN010 OVC016 03/03 A2966 RMK
     AO2=
KT89 212335Z AUTO 15006KT 10SM CLR 29/08 A2990 RMK A01=
KTYL 212335Z AUTO 20012KT 10SM CLR 21/03 A3006 RMK AO2=
KUVA 212335Z AUTO 20006KT 10SM CLR 26/10 A2994 RMK AO2
     T02640095=
