SAUS70 KWBC 220100 RRA
METAR
KIPT 220054Z 00000KT 10SM CLR 08/00 A3010 RMK AO2 SLP196
     T00780000=
KISW 220054Z AUTO 00000KT 10SM CLR 11/03 A2965 RMK AO2 SLP045
     T01110033=
KIWI 220053Z AUTO 00000KT 10SM CLR 04/02 A3017 RMK AO2 SLP215
     T00390022=
KIZG 220054Z AUTO 00000KT 10SM CLR 01/00 A3013 RMK AO2 SLP209
     T00060000=
KJKJ 220055Z AUTO 16004KT 7SM CLR 12/M01 A2956 RMK AO2 TSNO=
KPVG 220055Z 00000KT 9SM CLR 05/05 A3018 RMK AO2 SLP302 PWINO PNO
     FZRANO RVRNO=
KPWC 220055Z AUTO 00000KT 10SM CLR 07/02 A2963 RMK AO2=
KRBL 220054Z AUTO 16006KT 10SM CLR 26/07 A2974 RMK AO2 SLP068
     T02610072=
KRDG 220054Z 21005KT 10SM CLR 11/01 A3013 RMK AO2 SLP209
     T01110011=
KRGK 220055Z AUTO 00000KT 10SM CLR 10/03 A2963 RMK AO2=
KROX 220055Z AUTO 24006KT 10SM SCT120 12/01 A2951 RMK AO2=
KRST 220054Z 00000KT 10SM CLR 15/02 A2965 RMK AO2 SLP044
     T01500022=
KRZT 220055Z AUTO 17003KT 10SM CLR 07/00 A3000 RMK AO2 PWINO=
KSAZ 220055Z AUTO 00000KT 10SM CLR 09/01 A2960 RMK AO2=
KSBY 220054Z 00000KT 10SM CLR 08/06 A3017 RMK AO2 SLP218
     T00830056=
KSET 220054Z AUTO 15009KT 10SM CLR 18/02 A2977 RMK AO2 SLP080
     T01830022 $=
KSGS 220055Z AUTO 00000KT 10SM CLR 12/03 A2962 RMK AO2
     T01210032=
KSYM 220055Z AUTO 16003KT 10SM CLR 15/M01 A3004 RMK AO2=
KTAD 220054Z AUTO 24009KT 10SM CLR 16/M09 A2980 RMK AO2 SLP046
     T01611089=
KTEW 220055Z AUTO 16004KT 10SM CLR 17/03 A2978 RMK AO2
     T01690033=
KTQE 220054Z AUTO 24004KT 5SM HZ CLR 12/M02 A2958 RMK AO2 SLP015
     T01221022=
KTWM 220055Z AUTO 00000KT 10SM CLR 09/02 A2958 RMK AO2=
KUIN 220054Z AUTO 17009KT 10SM CLR 21/02 A2970 RMK AO2 SLP054
     T02110017=
KUKT 220055Z AUTO 00000KT 10SM CLR 06/03 A3015 RMK A01=
KVAY 220054Z AUTO 00000KT 10SM CLR 09/03 A3016 RMK AO2 SLP213
     T00890033=
KVSF 220054Z AUTO 00000KT 10SM CLR 04/02 A3012 RMK AO2 SLP206
     T00440017=
KVTA 220054Z AUTO 18004KT 10SM CLR 13/01 A2999 RMK AO2 SLP160
     T01330006=
KVVV 220055Z 13007KT 10SM 11/02 A2957 RMK AO2=
KWLD 220054Z AUTO 18011KT 10SM CLR 27/02 A2967 RMK AO2 SLP038
     T02720017=
KY63 220055Z AUTO 13004KT 7SM CLR 10/02 A2959 RMK AO2
     T01010023=
PAKN 220054Z 25010KT 10SM CLR 07/03 A2997 RMK AO2 SLP150
     T00670028=
KJMR 220055Z AUTO 00000KT 10SM CLR 07/02 A2965 RMK AO2=
KJST 220054Z AUTO 16009KT CLR 10/M02 A3007 RMK AO2 SLP193
     T01001017 $=
KLAF 220054Z 18007KT 10SM CLR 18/02 A2984 RMK AO2 SLP102
     T01780022=
KLDM 220055Z AUTO 21013G22KT 10SM CLR 17/05 A2965 RMK AO2
     T01740052=
KLJF 220055Z AUTO 00000KT 10SM CLR 10/01 A2962 RMK AO2=
KLNK 220054Z 34004KT 7SM CLR 11/01 A2960 RMK AO2 SLP024
     T01110006=
KLVS 220053Z AUTO 24010KT 10SM CLR 14/M03 A2998 RMK AO2 SLP084
     T01391028=
KLWM 220054Z 20004KT 10SM CLR 11/06 A3016 RMK AO2 SLP215
     T01110056=
KMEM 220054Z 17008KT 10SM CLR 21/11 A2992 RMK AO2 SLP128
     T02110106=
KMFI 220054Z AUTO 29004KT 10SM CLR 11/03 A2965 RMK AO2 SLP047
     T01060028=
KMGG 220055Z AUTO 00000KT 10SM CLR 08/03 A2963 RMK AO2
     T00840027=
KMGJ 220054Z AUTO 00000KT 10SM CLR 03/01 A3013 RMK AO2 SLP205
     T00330006=
KMGN 220055Z AUTO 00000KT 10SM CLR 10/07 A2962 RMK AO2
     T01010071=
KMIV 220054Z AUTO 00000KT 10SM CLR 06/04 A3017 RMK AO2 SLP215
     T00610039=
KMKC 220054Z 18008KT 10SM CLR 23/04 A2964 RMK AO2 SLP031
     T02330044=
KMOT 220054Z 35007KT 10SM BKN046 OVC060 07/05 A2954 RMK AO2 RAE51
     SLP017 P0000 T00670050=
KMQJ 220055Z AUTO 16006KT 10SM CLR 15/02 A2991 RMK AO1=
KMRY 220054Z 22004KT 7SM OVC008 14/11 A2988 RMK AO2 SLP129
     T01390111=
KMVE 220055Z AUTO 13004KT 5SM HZ CLR 12/01 A2961 RMK AO2=
