SACA45 KWBC 212300
METAR
MGFL NIL=
MGGT 212300Z 04010KT 9999 BKN020 SCT080 20/16 Q1019 A3009=
MGHT NIL=
MHAM NIL=
MHCA 212300Z 03003KT 9999 SCT026 FEW030CB BKN080 24/23 RETS CB
     E=
MHCH 212300Z 00000KT 5000 TSRA SCT018CB OVC070 25/25=
MHCH 212300Z 00000KT 5000 TSRA SCT018CB OVC070 25/250=
MHLE 212300Z 06006KT 5000 VCSH FEW014 BKN018 17/15 REDZ=
MHNJ NIL=
MHNO 212300Z 35006KT 9999 FEW040 SCT090 22/18=
MHPL 212300Z 31006KT 9999 BKN028TCU 28/23 Q1011=
MHRO 212300Z 02010KT 2000 RA BKN014TCU OVC070 25/23 Q1011 A2986
     TEMPO 4000 RA=
MHSR 212300Z 35006KT 9999 BKN020 BKN100 20/19=
MHTE NIL=
MHYR 212300Z 18004KT 8000 DZ SCT022 BKN070 23/21=
MNMG NIL=
MNPC NIL=
MPSA NIL=
MRCH NIL=
MSAC NIL=
