SAUS70 KWBC 212300 RRA
METAR
KMZH 212255Z AUTO 00000KT 10SM CLR 15/01 A2958 RMK AO2=
KONA 212255Z AUTO 00000KT 10SM CLR 17/03 A2961 RMK AO2=
KOSC 212255Z AUTO 19008KT 10SM CLR 16/05 A2965 RMK AO2
     T01560045=
KPEX 212255Z AUTO 33003KT 10SM CLR 14/01 A2962 RMK AO2=
KPMH 212255Z AUTO 00000KT 10SM CLR 16/M02 A3000 RMK AO2
     T01611025=
KPZZ 212255Z AUTO 12009KT 10SM CLR 23/13 A3007 RMK A01=
KRMY 212255Z AUTO 17006KT 10SM CLR 18/04 A2975 RMK AO2
     T01810038=
KRRT 212255Z AUTO 21003KT 10SM CLR 13/04 A2950 RMK AO2=
KSBD 212255Z 26007KT 6SM HZ CLR 29/06 A2984=
KSBP 212256Z VRB05KT 10SM CLR 22/13 A2987 RMK AO2 SLP113
     T02170128=
KSDF 212256Z 18008KT 10SM BKN250 21/00 A2994 RMK AO2 SLP139
     T02060000=
KTTS 212255Z AUTO 01006KT 10SM SCT075 19/12 A2999 RMK AO2 SLP160
     T01930123 $=
KVAF 212255Z AUTO 16014KT 10SM CLR 24/12 A3001 RMK A01=
KVOA 212300Z AUTO 10008KT 10SM CLR 21/10 A3009 RMK A01=
KVPZ 212256Z AUTO 20013G19KT 10SM CLR 22/03 A2975 RMK AO2 SLP073
     T02220028 $=
KWBF 212255Z AUTO 00000KT 10SM 24/14 A3006 RMK A01=
KWJF 212256Z 23014KT 10SM CLR 29/04 A2986 RMK AO2 SLP095
     T02940044=
KY31 212255Z AUTO 19007KT 10SM CLR 17/03 A2964 RMK AO2
     T01700025=
KY49 212255Z AUTO 29003KT 10SM CLR 12/00 A2957 RMK AO2
     T01221001=
PAKN 212254Z COR 26015G20KT 10SM BKN024 08/03 A2996 RMK AO2 SLP147
     T00780033=
KAEL 212255Z AUTO 00000KT 10SM CLR 18/03 A2962 RMK AO2=
KBDH 212255Z AUTO 00000KT 10SM CLR 15/02 A2965 RMK AO2=
KBTP 212256Z AUTO 18005KT 10SM CLR 13/M01 A3001 RMK AO2 SLP172
     T01331006 TSNO=
KBVI 212255Z AUTO 17004KT 10SM CLR 15/M02 A3000 RMK AO2
     T01461018=
KCIU 212256Z AUTO 27012KT 10SM CLR 13/06 A2958 RMK AO2 SLP018
     T01280056=
KCWI 212256Z AUTO 20009KT 9SM CLR 21/04 A2963 RMK AO2 SLP036
     T02110044=
KEFK 212255Z AUTO 15009KT 10SM CLR 09/M02 A3005 RMK AO2
     T00891017=
KGAI 212256Z AUTO 13003KT 10SM CLR 12/01 A3012 RMK AO2 SLP218
     T01170006=
KISQ 212255Z AUTO 20006KT 10SM CLR 09/08 A2956 RMK AO2
     T00880075=
KITH 212256Z 16008KT 10SM CLR 11/M02 A3004 RMK AO2 SLP179
     T01111022=
KIWD 212256Z AUTO 00000KT 10SM CLR 12/04 A2957 RMK AO2 SLP019
     T01170044=
KJRB 212256Z AUTO 18004KT 10SM CLR A3015 RMK AO2 SLPNO FZRANO
     $=
KLXL 212255Z AUTO 00000KT 10SM CLR 14/00 A2960 RMK AO2=
KMVN 212256Z AUTO 19008KT 9SM CLR 21/03 A2984 RMK AO2 SLP107
     T02110028=
KOEB 212255Z AUTO 20004KT 10SM CLR 19/03 A2978 RMK AO2
     T01930030=
KONZ 212255Z AUTO 18008KT 10SM BKN100 12/06 A2980 RMK AO2
     T01200060=
KPNM 212255Z AUTO 00000KT 10SM CLR 16/02 A2960 RMK AO2 TSNO=
KRNP 212255Z AUTO 18007KT 10SM CLR 18/02 A2974 RMK AO2
     T01840020=
K0S9 212255Z AUTO 00000KT 8SM -RA SCT029 OVC035 10/09 A2974 RMK
     AO2=
KCGZ 212256Z AUTO 31007KT 10SM CLR 31/12 A2983 RMK AO2 SLP089
     T03110117 $=
KCLS 212255Z AUTO 18006KT 9SM -RA SCT018 08/07 A2975 RMK AO2=
KCOD 212256Z AUTO 27011G14KT 10SM FEW100 19/M02 A2957 RMK AO2
     SLP968 T01941022=
KGUC 212256Z AUTO 27016G22KT 10SM CLR 16/M09 A3000 RMK AO2 SLP128
     T01611089=
KGXY 212256Z 17004KT 10SM CLR 26/M09 A2970 RMK AO2 SLP032
     T02561089 $=
KHDN 212256Z AUTO 27020G27KT 10SM CLR 18/M09 A2988 RMK AO2 PK WND
     27031/2201 SLP075 T01831089=
KLPC 212256Z AUTO 30010KT 10SM OVC012 17/13 A2989 RMK AO2 SLP123
     T01670133=
KO32 212255Z AUTO 28003KT 9SM CLR 31/09 A2978 RMK AO2 T03050089
     $=
KPAN 212255Z AUTO 21007G12KT 10SM CLR 22/04 A3006 RMK AO2 PWINO
     TSNO=
KPTV 212256Z AUTO 30006KT 10SM CLR 32/07 A2979 RMK AO2 SLP085
     T03220067=
KPVF 212255Z AUTO 22005KT 10SM CLR 25/03 A2992 RMK AO1=
