SAUS70 KWBC 220200 RRV
METAR
KRNH 220155Z AUTO 00000KT 10SM CLR 07/05 A2963 RMK AO2
     T00650046=
KRUG 220155Z AUTO 36005KT 10SM OVC050 06/06 A2956 RMK AO2=
KRZL 220155Z AUTO 17010KT 10SM CLR 16/02 A2983 RMK AO2=
KS25 220155Z AUTO 02007KT 10SM -RA FEW027 BKN034 OVC055 06/06
     A2957 RMK AO2=
KTME 220155Z AUTO 18007KT 10SM CLR 22/15 A3001 RMK AO2=
KVGC 220155Z AUTO 14007KT 10SM CLR 07/M03 A3008 RMK AO2=
K0S9 220155Z AUTO 00000KT 6SM -RA BKN009 BKN014 OVC039 09/08 A2970
     RMK AO2 P0006=
KBFL 220154Z 01006KT 9SM CLR 26/04 A2976 RMK AO2 SLP073
     T02610044=
KEUG 220154Z 22008KT 5SM -RA BR SCT018 BKN028 OVC060 14/12 A2973
     RMK AO2 RAB27E36B52 SLP067 P0000 T01390122=
KHWD 220154Z 32009KT 10SM CLR 14/12 A2985 RMK AO2 SLP118
     T01440122=
KL08 220155Z AUTO 26004KT 10SM CLR 25/09 A2976 RMK AO2=
KL35 220155Z AUTO 21003KT 10SM CLR 10/02 A3010 RMK AO2=
KL52 220155Z AUTO 00000KT 8SM BKN013 15/14 A2990 RMK A01=
KLVS 220153Z AUTO 18005KT 10SM CLR 12/M03 A2997 RMK AO2 SLP071
     T01221033=
KMAN 220155Z AUTO 12004KT 10SM CLR 17/04 A2960 RMK A01=
KO32 220155Z AUTO 00000KT 8SM CLR 25/11 A2975 RMK AO2 T02490114
     $=
KONM 220155Z AUTO 26004KT 10SM OVC090 17/06 A2997 RMK AO2
     T01720063=
KPAN 220155Z AUTO 18003KT 10SM CLR 17/04 A3004 RMK AO2 PWINO
     TSNO=
KRHV 220147Z 30005KT 10SM SKC 17/12 A2985=
KSLC 220154Z 13008KT 10SM FEW130 SCT220 18/M07 A2973 RMK AO2
     SLP034 T01831067=
KT69 220155Z AUTO 18007KT 10SM CLR 21/16 A2998 RMK A01=
KTSP 220155Z AUTO 30003KT 9SM CLR 18/M01 A2997 RMK AO2=
KAFJ 220156Z AUTO 00000KT 10SM CLR 05/02 A3009 RMK AO2 SLP192
     T00500022=
KBDH 220155Z AUTO 10003KT 10SM CLR 08/02 A2964 RMK AO2=
KBVI 220155Z AUTO 16005KT 10SM CLR 12/M01 A3004 RMK AO2
     T01201006=
KDTL 220155Z AUTO 00000KT 10SM OVC055 10/01 A2957 RMK AO2=
KEFK 220155Z AUTO 17003KT 10SM CLR 08/M03 A3009 RMK AO2
     T00821030=
KESC 220156Z AUTO 01004KT 8SM CLR 07/07 A2963 RMK AO2 SLP038
     T00670067 PNO $=
KFFX 220155Z AUTO 21011KT 10SM CLR 19/05 A2972 RMK AO2
     T01890051=
KFKA 220155Z AUTO 00000KT 7SM CLR 12/02 A2966 RMK AO2
     T01240020=
KFKS 220155Z AUTO 22005KT 10SM CLR 13/07 A2965 RMK AO2
     T01330070=
KFOD 220156Z AUTO 06005KT 7SM CLR 11/01 A2962 RMK AO2 SLP047
     T01110011=
KHAI 220155Z AUTO 19009KT 10SM CLR 16/03 A2981 RMK AO2
     T01590034=
KI23 220155Z AUTO 16005KT 10SM CLR 08/M00 A3000 RMK AO1=
KITH 220156Z AUTO 17009KT 10SM CLR 10/M02 A3007 RMK AO2 SLP187
     T01001022=
KJYM 220155Z AUTO 18008KT 10SM CLR 14/01 A2985 RMK AO2
     T01420010=
KLEW 220156Z AUTO 00000KT 10SM CLR 02/02 A3015 RMK AO2 SLP220
     T00220022 FZRANO=
KMBL 220156Z AUTO 20004KT 10SM CLR 17/06 A2965 RMK AO2 SLP041
     T01720061=
KMCD 220155Z AUTO 28005KT 10SM CLR 09/07 A2964 RMK AO2
     T00870067=
KALM 220155Z AUTO 15009KT 10SM CLR 18/07 A2996 RMK AO2=
KATA 220155Z AUTO 00000KT 10SM CLR 15/12 A2988 RMK AO2 SLP017
     T01500123 $=
KBXK 220155Z AUTO 00000KT 10SM CLR 25/12 A2980 RMK A01=
KCLS 220155Z AUTO 00000KT 5SM -RA BKN017 OVC036 08/07 A2968 RMK
     AO2=
KCPT 220155Z AUTO 17015G22KT 10SM CLR 25/08 A2986 RMK A01=
KGGW 220153Z AUTO 08007KT 10SM OVC032 07/05 A2955 RMK AO2 RAE15
     SLP016 P0000 T00720050=
KHOB 220155Z AUTO 24010KT 10SM CLR 17/07 A2990 RMK AO2=
KLRU 220155Z AUTO 22005KT 10SM CLR 20/06 A3000 RMK AO2
     T01980062=
KLWT 220154Z AUTO 29011G17KT 5SM RA BR BKN026 OVC031 06/04 A2957
     RMK AO2 SLP006 P0010 T00610044=
KMRY 220154Z 28007KT 8SM OVC009 14/11 A2989 RMK AO2 SLP134
     T01390111=
KO22 220155Z AUTO 05004KT 10SM CLR 20/03 A2984 RMK A01=
