SAUS70 KWBC 220022 RRB
METAR
K06C 220015Z AUTO 20007KT 10SM CLR 20/08 A2971 RMK AO2
     T02020079=
KDNV 220015Z AUTO 18009G14KT 10SM CLR 20/03 A2982 RMK AO2
     T01960027=
KEOK 220015Z AUTO 18011G16KT 10SM CLR 24/04 A2965 RMK A01=
KFEP 220015Z AUTO 19009KT 7SM CLR 17/06 A2968 RMK AO2
     T01740061=
KFFL 220015Z AUTO 18007KT 9SM CLR 20/00 A2964 RMK A01=
KFKR 220015Z AUTO 17009KT 10SM FEW024 FEW028 SCT042 15/02 A2985
     RMK AO2=
KGBG 220015Z AUTO 17007KT 10SM CLR 20/05 A2969 RMK AO2
     T01980046=
KGGF 220015Z AUTO 17010KT 9SM CLR 17/M07 A2960 RMK AO2=
KGGP 220015Z AUTO 19008KT 10SM CLR 16/02 A2985 RMK AO2=
KGHG 220015Z AUTO 21004KT 10SM CLR 11/06 A3016 RMK AO2=
KHDE 220015Z AUTO 19005KT 10SM CLR 17/M02 A2962 RMK AO2
     T01701018=
KHHG 220015Z AUTO 19006KT 10SM CLR A2985 RMK AO2=
KHMZ 220015Z AUTO 00000KT 10SM CLR 08/M01 A3008 RMK AO2
     T00781010=
KHNR 220015Z AUTO 00000KT 10SM CLR 12/00 A2960 RMK A01=
KHPT 220015Z AUTO 00000KT 10SM CLR 11/M01 A2963 RMK AO2=
KI63 220015Z AUTO 17008KT 10SM CLR 19/02 A2970 RMK AO2
     T01890023=
KI75 220015Z AUTO 18003KT 10SM CLR 18/03 A2962 RMK AO2
     T01780031=
KIBM 220015Z AUTO 27007KT 10SM CLR 14/M09 A2968 RMK AO2
     T01391095=
KICL 220015Z AUTO 00000KT 5SM HZ CLR 16/04 A2960 RMK AO2=
KIKK 220015Z AUTO 19008KT 10SM CLR 18/03 A2978 RMK AO2
     T01810025=
KIKV 220015Z AUTO 00000KT 10SM CLR 14/03 A2962 RMK AO2=
KJOT 220015Z AUTO 19008KT 10SM CLR 21/05 A2973 RMK AO2
     T02100047=
KJYG 220017Z AUTO 00000KT 7SM CLR 12/02 A2963 RMK AO2=
KJYR 220015Z AUTO 00000KT 10SM CLR 18/M02 A2960 RMK AO2=
KLOM 220015Z AUTO 00000KT 10SM CLR 06/05 A3015 RMK AO2
     T00570045=
KMJQ 220015Z AUTO 07004KT 10SM CLR 10/01 A2965 RMK AO2=
KPHN 220015Z AUTO 19006KT 10SM CLR 13/02 A2981 RMK AO2=
KW22 220015Z AUTO 00000KT 10SM CLR 10/M01 A3007 RMK AO2=
KBJI 220015Z AUTO 00000KT 10SM CLR 10/01 A2956 RMK AO2
     T01030007=
KBUU 220015Z AUTO 20005KT 10SM CLR 17/05 A2967 RMK AO2 T01700045
     PWINO=
KC65 220015Z AUTO 19007KT 10SM CLR 18/03 A2980 RMK A01=
KCBF 220015Z AUTO 14003KT 4SM HZ CLR 20/M05 A2957 RMK AO2=
KCIN 220015Z AUTO 13005KT 2 1/2SM HZ CLR 16/00 A2961 RMK AO2=
KCNC 220015Z AUTO 17006KT 10SM CLR 20/03 A2961 RMK AO2=
KDKB 220015Z AUTO 18008KT 10SM CLR 14/06 A2971 RMK AO2
     T01380055=
KDNS 220015Z AUTO RMK AO2 PNO PWINO=
KLOT 220015Z AUTO 18013KT 10SM CLR 20/04 A2974 RMK AO2=
KLRJ 220015Z AUTO 09003KT 10SM CLR 15/01 A2958 RMK AO2=
KLWB 220015Z AUTO 00000KT 10SM CLR 08/01 A3012 RMK AO2
     T00790009=
KLXN 220015Z AUTO 15006KT 10SM CLR 18/M01 A2961 RMK AO2
     T01811015=
KMQS 220015Z AUTO 00000KT 10SM CLR 10/00 A3015 RMK AO2=
KOGA 220015Z AUTO 24004KT 10SM CLR 22/M06 A2959 RMK AO2
     T02161057=
KOGS 220015Z AUTO 18007G12KT 10SM FEW050 12/M01 A2992 RMK AO2=
KOLZ 220015Z AUTO 33005KT 2 1/2SM HZ CLR 16/01 A2964 RMK A01=
KOOA 220015Z AUTO 19007KT 7SM CLR 19/07 A2963 RMK AO2
     T01900066=
KOWX 220015Z AUTO 19010G14KT 10SM CLR 17/M01 A2990 RMK AO1=
KPEA 220015Z AUTO 10003KT 10SM CLR 18/04 A2962 RMK AO2
     T01830035=
KPNT 220015Z AUTO 18012KT 10SM CLR 19/07 A2975 RMK AO2
     T01870069=
KPPQ 220015Z AUTO 16004KT 10SM CLR 19/03 A2974 RMK AO2
     T01900030=
KRCR 220015Z AUTO 19008KT 10SM CLR 18/03 A2982 RMK AO2=
KRDK 220015Z AUTO 01004KT CLR 15/00 A2959 RMK AO2=
KSDA 220015Z AUTO 04005KT 10SM CLR 18/01 A2957 RMK AO2=
KSHL 220015Z AUTO 08005KT 6SM HZ CLR 14/01 A2959 RMK AO2=
KSLB 220015Z AUTO 08007KT 7SM CLR 14/00 A2962 RMK AO2=
KTIP 220015Z AUTO 19010KT 10SM CLR 18/03 A2980 RMK AO2
     T01820028=
KUNI 220015Z AUTO 00000KT 7SM CLR 12/00 A3001 RMK AO2
     T01191001=
