SAUS70 KWBC 220200 RRM
METAR
KMLE 220155Z AUTO 00000KT 10SM CLR 11/04 A2958 RMK AO2
     T01070039=
KMQB 220155Z AUTO 18013KT 10SM CLR 18/01 A2971 RMK AO2
     T01770012=
KMRH 220158Z AUTO 02005KT 10SM OVC070 16/12 A3013 RMK AO2 SLP204
     T01560122=
KNOW 220155Z AUTO 27007KT 10SM -RA BKN009 BKN018 OVC055 09/09
     A2971 RMK AO2 P0003 T00870087=
KNRN 220155Z AUTO 12004KT 10SM CLR 11/M02 A2964 RMK AO2=
KORG 220155Z AUTO 19005KT 10SM CLR 23/16 A3005 RMK AO2
     T02260160=
KPPA 220155Z AUTO 20009KT 10SM CLR 19/03 A2972 RMK AO2
     T01870026=
KPTT 220155Z AUTO 19005KT 10SM CLR 19/M02 A2962 RMK AO2
     T01861020=
KRBO 220155Z AUTO 10SM CLR 22/16 A2998 RMK AO2 T02210158=
KRGA 220157Z AUTO 00000KT 10SM CLR 14/01 A3004 RMK AO2=
KRQO 220155Z AUTO 18009KT CLR 18/04 A2973 RMK AO2 PWINO
     T01840038=
KSBO 220155Z AUTO 00000KT 10SM CLR 09/07 A3015 RMK AO2=
KSBS 220155Z AUTO 04003KT 10SM CLR 11/M10 A2988 RMK AO1
     T01091098=
KSDA 220155Z AUTO 00000KT 7SM CLR 11/02 A2958 RMK AO2=
KSEF 220155Z AUTO 01004KT 10SM CLR 18/13 A3006 RMK AO2
     T01760130=
KSHL 220155Z AUTO 06009KT 10SM CLR 10/01 A2959 RMK AO2=
KSJS 220155Z AUTO 19003KT 10SM CLR 14/02 A3007 RMK AO2
     T01350015=
KSLB 220155Z AUTO 08006KT 9SM CLR 13/00 A2961 RMK AO2=
KSNL 220155Z AUTO 16011KT 10SM CLR 23/01 A2974 RMK AO2
     T02320010=
KSUT 220155Z AUTO 00000KT 10SM BKN040 BKN048 OVC055 16/10 A3014
     RMK AO2 T01610097=
KT20 220155Z AUTO 16008KT 10SM CLR 23/14 A2997 RMK AO2
     T02260144=
KT35 220155Z AUTO 17006KT 10SM CLR 22/11 A2992 RMK AO2
     T02230105=
KTAZ 220155Z AUTO 16010KT 10SM CLR 17/04 A2980 RMK AO2
     T01720041=
KTBR 220155Z AUTO 00000KT 10SM CLR 08/05 A3014 RMK AO2
     T00770045=
KTIF 220155Z AUTO 17012KT 10SM CLR 17/M02 A2957 RMK AO2
     T01681021=
KTIP 220155Z AUTO 19011KT 10SM CLR 16/03 A2982 RMK AO2
     T01620025=
KTQK 220155Z AUTO 05003KT 10SM CLR 18/M08 A2966 RMK AO2
     T01761081=
KTRK 220155Z AUTO 23008KT 10SM CLR 13/M04 A2998 RMK AO2=
KTVI 220155Z AUTO 00000KT 10SM CLR 09/05 A3014 RMK AO2=
KUNI 220155Z AUTO 00000KT 7SM -SN CLR 05/01 A3003 RMK AO2
     T00520014=
KVDI 220155Z AUTO 00000KT 10SM CLR 10/05 A3014 RMK AO2=
KVKS 220155Z AUTO 17009KT 10SM FEW038 FEW046 BKN055 22/12 A2998
     RMK A01=
KVPC 220155Z AUTO 00000KT 10SM FEW038 09/07 A3013 RMK AO2=
KVUJ 220155Z AUTO 00000KT 10SM CLR 05/03 A3020 RMK AO2
     T00490026=
K04V 220155Z AUTO 31008KT 10SM 08/M08 A3002 RMK AO2=
K17J 220155Z AUTO 03003KT 10SM CLR 10/04 A3013 RMK AO2
     T01020037=
K1A6 220155Z AUTO 00000KT 10SM CLR 06/03 A3011 RMK AO2
     T00560027=
K2G9 220155Z AUTO 16005KT 10SM CLR 08/M02 A3009 RMK AO2=
K5C1 220155Z AUTO 20004KT 10SM CLR 18/08 A2996 RMK AO1=
K5R8 220155Z AUTO 15004KT 10SM CLR 19/14 A3003 RMK AO2
     T01860144=
K6P9 220155Z AUTO 19008G14KT 10SM CLR 24/05 A2983 RMK AO2
     T02390051=
KAFO 220155Z AUTO 16006KT 10SM CLR 10/M12 A2978 RMK AO2=
KAOH 220153Z AUTO 19010KT 10SM CLR 15/01 A2993 RMK AO2 SLP133
     T01500006=
KBHC 220155Z AUTO 00000KT 10SM CLR A3014 RMK AO2=
KBIJ 220155Z AUTO 00000KT 10SM CLR 08/05 A3014 RMK AO2=
KBUU 220155Z AUTO 21005KT 10SM CLR 15/05 A2970 RMK AO2 T01490045
     PWINO=
KCCO 220155Z AUTO 00000KT 10SM CLR 10/04 A3013 RMK AO2
     T01000039=
KCNI 220155Z AUTO 04004KT 10SM CLR 11/02 A3014 RMK AO2
     T01060016=
KCSV 220153Z AUTO 00000KT 10SM CLR 10/02 A3010 RMK AO2 SLP190
     T01000022=
KCZT 220155Z AUTO 17004KT 10SM CLR 18/11 A2992 RMK AO2=
KDPL 220155Z AUTO 00000KT 10SM BKN044 BKN055 BKN075 10/07 A3016
     RMK AO2=
KDQH 220155Z AUTO 00000KT 10SM CLR 10/05 A3015 RMK AO2
     T00970047=
