SAUS70 KWBC 220000 RRI
METAR
KOLG 212355Z AUTO 00000KT 10SM CLR 10/00 A2958 RMK AO1=
KONM 212355Z AUTO 16008KT 10SM CLR 23/03 A2995 RMK AO2 T02290031
     10247 20184=
KORS 212355Z AUTO 17004KT 5SM -RA HZ OVC046 10/04 A2972 RMK
     AO2=
KOZS 212355Z AUTO 17008KT 10SM CLR 23/M01 A2976 RMK AO2=
KPAN 212355Z AUTO 21006KT 10SM CLR 21/05 A3004 RMK AO2 PWINO
     TSNO=
KPCM 212355Z AUTO 36003KT 10SM CLR 20/06 A3006 RMK AO2=
KAVC 212355Z AUTO 00000KT 10SM CLR 08/07 A3019 RMK AO2 T00830072
     10200 20083=
KAVL 212354Z 17003KT 10SM CLR 11/M01 A3014 RMK AO2 SLP207
     T01061011 10178 20106 53010=
KBAC 212355Z AUTO 00000KT 9SM FEW095 12/01 A2955 RMK AO2=
KBCB 212355Z AUTO 11004KT 10SM CLR 08/00 A3015 RMK AO2 T00770002
     10173 20075=
KBKS 212355Z AUTO 13012KT 9SM CLR 25/16 A2992 RMK AO2 SLP094
     T02500161 $=
KBKT 212355Z AUTO 00000KT 10SM CLR 10/03 A3014 RMK AO1 T01030033
     10199 20102=
KBOW 212355Z AUTO 33004KT 10SM CLR 20/07 A3004 RMK AO2=
KBRG 212355Z AUTO 30008KT 10SM CLR 22/00 A2997 RMK AO2 T02230002
     10248 20201=
KBRY 212355Z AUTO 18005KT 10SM CLR 17/00 A2997 RMK AO2
     T01660001=
KBVU 212355Z AUTO 17012KT 10SM CLR 29/02 A2980 RMK AO2=
KBWP 212355Z AUTO 16004KT 9SM CLR 13/M01 A2955 RMK AO2=
KBWW 212355Z AUTO 35017KT 10SM CLR 14/01 A2951 RMK AO2=
KBXK 212355Z AUTO 00000KT 10SM CLR 30/10 A2980 RMK A01=
KC29 212355Z AUTO 00000KT 10SM CLR 14/03 A2964 RMK AO1 T01430033
     10250 20143=
KCDN 212355Z AUTO 00000KT 10SM CLR 11/01 A3013 RMK AO2=
KCEU 212354Z AUTO 00000KT 10SM CLR 14/M01 A3011 RMK AO2 SLP198
     T01391006 10200 20139 53005=
KCEY 212355Z AUTO 15006KT 10SM CLR 21/08 A2992 RMK A01=
KCFJ 212355Z AUTO 17009KT 10SM CLR 17/M01 A2985 RMK AO2 T01651010
     10219 20163=
KCGC 212355Z AUTO 00000KT 10SM CLR 15/03 A3006 RMK AO2=
KCJR 212355Z AUTO 00000KT 10SM CLR 08/02 A3014 RMK AO2 T00800021
     10198 20080=
KCKM 212355Z AUTO 16009KT 10SM FEW050 FEW060 25/10 A2991 RMK
     A01=
KCKZ 212355Z AUTO 00000KT 10SM CLR 07/02 A3014 RMK AO2=
KCLS 212355Z AUTO 20005KT 5SM -RA FEW038 FEW044 SCT060 08/07 A2973
     RMK AO2=
KCLT 212352Z 00000KT 10SM CLR 12/M01 A3012 RMK SLP202 T01221011
     10200 20122 53006=
KCLW 212355Z AUTO 36003KT 10SM CLR 17/07 A3005 RMK AO2=
KCMR 212355Z AUTO 24007G14KT 10SM CLR 17/02 A3009 RMK AO2=
KCPT 212355Z AUTO 17014G19KT 10SM CLR 28/07 A2982 RMK A01=
KCTZ 212355Z AUTO 00000KT 10SM SCT060 12/07 A3013 RMK AO2
     T01210074 10215 20121=
KCXE 212355Z AUTO 00000KT 10SM CLR 09/03 A3014 RMK AO1 T00900031
     10192 20090=
KD57 212355Z AUTO 06007KT 10SM CLR 11/M02 A2948 RMK AO2=
KD60 212355Z AUTO 05005KT 10SM FEW008 OVC044 05/05 A2956 RMK
     AO2=
KDNA 212355Z AUTO 25007KT 10SM CLR 26/08 A2997 RMK AO2=
KDNN 212355Z AUTO 00000KT 10SM CLR 12/03 A3008 RMK AO2
     T01240029=
KDRI 212355Z AUTO 18010KT 9SM CLR 23/16 A2998 RMK AO2 T02340160
     $=
KDSV 212354Z AUTO 14007KT 10SM CLR 11/M01 A2999 RMK AO2 SLP169
     T01061006 10183 20100 53013=
KDXR 212353Z 00000KT 10SM CLR 08/02 A3015 RMK AO2 SLP212 T00830022
     10178 20078 53014=
KDYB 212355Z AUTO 00000KT 10SM CLR 11/08 A3011 RMK AO2=
KDYL 212354Z AUTO 00000KT 10SM CLR 11/01 A3013 RMK AO2 SLP206
     T01110011 10178 20111 53009=
KEKM 212355Z AUTO 19007KT 7SM CLR 18/03 A2979 RMK AO2
     T01840035=
KELK 212355Z AUTO 19013G20KT 3SM HZ CLR 26/01 A2969 RMK AO2 SLP345
     T02610007 $=
KEUG 212354Z 22012KT 10SM SCT021 BKN055 OVC070 15/11 A2977 RMK AO2
     SLP082 60000 T01500111 10183 20139 58024=
KEVU 212355Z AUTO 18007KT 10SM CLR 22/05 A2960 RMK AO2
     T02260050=
