SAUS70 KWBC 220020 RRC
METAR
KALM 220015Z AUTO 13006KT 10SM CLR 21/06 A2995 RMK AO2=
KBAM 220015Z AUTO 23016G20KT 10SM CLR 23/M07 A2980 RMK AO1=
KBKD 220015Z AUTO 18006KT 10SM CLR 29/02 A2979 RMK AO2
     T02860024=
KBPC 220015Z AUTO 22007KT 10SM CLR 21/M06 A2967 RMK AO2 PNO=
KFTN 220015Z AUTO 16005KT 10SM CLR 24/11 A2993 RMK A01=
KHAF 220015Z AUTO 5SM BR OVC011 14/13 A2989 RMK AO2=
KHOB 220015Z AUTO 21006KT 10SM CLR 22/07 A2988 RMK AO2=
KL08 220015Z AUTO 12006KT 10SM CLR 32/06 A2975 RMK AO2=
KL35 220015Z AUTO 24004KT 10SM CLR 15/02 A3010 RMK AO2=
KL52 220015Z AUTO VRB05G10KT 6SM BR CLR 16/14 A2990 RMK A01=
KLRU 220015Z AUTO 26018KT 10SM CLR 24/04 A2998 RMK AO2
     T02440036=
KMAN 220015Z AUTO 36003KT 10SM CLR 20/03 A2966 RMK A01=
KO22 220015Z AUTO 00000KT 10SM CLR 28/00 A2985 RMK A01=
KO32 220015Z AUTO 00000KT 9SM CLR 30/09 A2976 RMK AO2 T03010095
     $=
KONM 220015Z AUTO 17007KT 10SM CLR 22/04 A2995 RMK AO2
     T02160035=
KORS 220015Z AUTO 18005KT 6SM -RA HZ OVC047 10/ A2971 RMK AO2=
KPAN 220015Z AUTO 18006KT 10SM CLR 20/04 A3004 RMK AO2 PWINO
     TSNO=
KRPH 220015Z AUTO 17005KT 8SM CLR 28/03 A2975 RMK AO2 T02770027
     $=
KT69 220015Z AUTO 17008G14KT 10SM CLR 23/16 A2996 RMK A01=
KTME 220015Z AUTO 19012KT 10SM CLR 24/15 A2997 RMK AO2=
KTSP 220015Z AUTO 31011G17KT 9SM CLR 23/M04 A2996 RMK AO2=
KU42 220015Z AUTO 21005KT 10SM CLR 21/01 A2981 RMK AO1
     T02090010=
K3S8 220015Z AUTO VRB05KT 10SM SCT047 BKN060 OVC070 20/11 A2986
     RMK AO2=
K46U 220015Z AUTO 30007G13KT 10SM OVC100 16/M07 A2974 RMK A01=
K5T9 220010Z AUTO 13005KT 10SM CLR 23/13 A2988 RMK A01=
KC83 220015Z AUTO 27013KT 10SM CLR 25/07 A2978 RMK AO2=
KCWC 220015Z AUTO 16009G20KT 140V200 10SM CLR 29/01 A2974 RMK AO2
     T02900013=
KDTA 220015Z AUTO 19013KT 10SM CLR 22/M10 A2983 RMK AO1=
KEIK 220015Z AUTO 25013G20KT 10SM CLR 22/M11 A2971 RMK AO2
     T02171115 PWINO=
KF46 220015Z AUTO 18006KT 10SM CLR 26/09 A2983 RMK AO2
     T02580086=
KJWY 220015Z AUTO 18010KT 10SM CLR 27/09 A2985 RMK AO2
     T02660092=
KLNC 220015Z AUTO 17008KT 10SM CLR 27/07 A2983 RMK AO2
     T02700069=
KMHV 220020Z AUTO 22015KT 10SM CLR 27/02 A2987 RMK A01=
KMNZ 220015Z AUTO 19012G16KT 10SM CLR 27/05 A2986 RMK AO2
     T02670052=
KMVH 220015Z AUTO 32014KT 4SM BR 07/06 A2956 RMK AO2 PWINO=
KSEZ 220015Z AUTO 18005KT 10SM 21/05 A2999 RMK AO2=
KSWW 220015Z AUTO 22010KT 10SM CLR 25/05 A2986 RMK AO2
     T02540046=
KTBX 220015Z AUTO 10SM CLR 13/M08 A2976 RMK AO2=
KU68 220015Z AUTO 14003KT 10SM BKN120 19/M05 A2948 RMK AO2=
KUVA 220015Z AUTO 00000KT 10SM CLR 24/10 A2994 RMK AO2
     T02350101=
KVAF 220015Z AUTO 17013KT 10SM FEW044 24/12 A3002 RMK A01=
K1H2 220015Z AUTO 14004KT 10SM CLR 18/03 A2987 RMK AO2
     T01800030=
KADC 220016Z AUTO 00000KT 10SM CLR 10/M01 A2959 RMK AO2 TSNO=
KANW 220015Z AUTO 14006KT 10SM CLR 14/00 A2955 RMK AO2
     T01351005=
KBNW 220015Z AUTO 00000KT 6SM HZ CLR 16/00 A2964 RMK AO2=
KBTA 220015Z AUTO 00000KT 10SM CLR 20/01 A2959 RMK AO2
     T01960006=
KBTN 220015Z AUTO 15006KT 5SM HZ BKN024 BKN042 12/M01 A2954 RMK
     AO2=
KCDD 220014Z AUTO 00000KT 10SM CLR 07/02 A2957 RMK AO2=
KCSQ 220015Z AUTO 00000KT 8SM CLR 21/01 A2960 RMK AO2=
KD39 220015Z AUTO 19003KT 10SM CLR 10/01 A2961 RMK AO2
     T01020005=
KERY 220015Z AUTO 00000KT 10SM CLR 07/06 A2961 RMK AO2
     T00740062=
KGGI 220015Z AUTO 00000KT 10SM CLR 19/02 A2963 RMK AO2
     T01910020=
KGLX 220015Z AUTO 04009KT 10SM CLR 21/13 A3009 RMK A01=
KHSB 220015Z AUTO 00000KT 10SM CLR 16/06 A2988 RMK AO2
     T01550062=
KHZX 220015Z AUTO 00000KT 10SM CLR 07/01 A2960 RMK AO2=
