SAUS80 KWBC 212300
METAR
K12N 212254Z AUTO 00000KT 10/04 A3012 RMK AO1 SLP204 T01000044=
KFWA 212254Z 20010KT 10SM FEW250 18/02 A2983 RMK AO2 SLP103
     T01780022=
KGSO 212254Z 00000KT 10SM FEW250 15/M01 A3011 RMK AO2 SLP196
     T01501011=
KINL 212254Z AUTO 25003KT 10SM CLR 13/M01 A2952 RMK AO2 SLP003
     T01281011=
KJAN 212254Z 18007KT 10SM CLR 25/09 A2997 RMK AO2 SLP147
     T02500094=
KJQF 212251Z 00000KT 10SM CLR 14/M01 A3013=
KLEX 212254Z 18007KT 10SM CLR 17/00 A2999 RMK AO2 SLP155
     T01720000=
KLYH 212254Z 00000KT 10SM CLR 11/02 A3012 RMK AO2 SLP202
     T01060017=
KSBN 212254Z 20011G22KT 10SM CLR 21/03 A2975 RMK AO2 SLP074
     T02060033=
KSUS 212254Z 16005KT 10SM CLR 25/01 A2975 RMK AO2 SLP071
     T02500011=
KSYR 212254Z 17005KT 10SM FEW200 SCT250 13/M03 A3001 RMK AO2
     SLP162 T01331028=
KWAL 212254Z 17003KT 10SM CLR 12/07 A3015 RMK AO2 SLP208
     T01220067=
KACY 212254Z 19003KT 10SM CLR 13/07 A3015 RMK AO2 SLP208
     T01330067=
KAKQ 212254Z AUTO 00000KT 10SM CLR 12/06 A3013 RMK AO2 SLP205
     T01170056=
KAPN 212254Z AUTO 18009KT 10SM CLR 16/04 A2961 RMK AO2 SLP029
     T01610044=
KAVP 212254Z 00000KT 10SM CLR 13/M02 A3008 RMK AO2 SLP189
     T01281022=
KBTV 212254Z 18010KT 10SM CLR 12/M03 A3003 RMK AO2 SLP172
     T01221028=
KCAR 212254Z AUTO 20004KT 10SM CLR 09/M01 A3004 RMK AO2 SLP181
     T00891011=
KCOS 212254Z VRB05KT 10SM FEW230 23/M11 A2980 RMK AO2 SLP001
     T02331111=
KCOU 212254Z 18007KT 10SM CLR 26/02 A2972 RMK AO2 SLP060 T02560017
     $=
KCRW 212254Z 17003KT 10SM FEW250 14/02 A3004 RMK AO2 SLP174
     T01390017=
KDSM 212254Z 22004KT 10SM FEW250 24/02 A2960 RMK AO2 SLP019
     T02390022=
KLYV 212255Z AUTO 00000KT 7SM CLR 17/01 A2960 RMK AO2=
KMVL 212254Z AUTO 00000KT 10SM CLR 06/01 A3005 RMK AO2 SLP186
     T00610011=
KORH 212254Z 22005KT 10SM CLR 10/01 A3012 RMK AO2 SLP206
     T01000006=
KPIA 212254Z 19014G23KT 10SM CLR 24/03 A2970 RMK AO2 SLP055
     T02390028=
KPOV 212255Z AUTO 00000KT 10SM CLR 14/M02 A2995 RMK AO2 T01421025
     PWINO=
KPZQ 212255Z AUTO 19007KT 10SM CLR 18/06 A2960 RMK AO2
     T01750055=
KRFD 212254Z 19007KT 10SM CLR 21/05 A2966 RMK AO2 SLP045
     T02060050=
KRIC 212254Z 00000KT 10SM FEW250 13/03 A3012 RMK AO2 SLP206
     T01330033=
KROA 212254Z 13005KT 10SM SCT200 14/M01 A3013 RMK AO2 SLP202
     T01441011=
KDMH 212254Z AUTO 15/00 A3014 RMK AO1 SLP204 T01500000=
KNAK 212254Z AUTO 00000KT 10SM CLR 13/04 A3013 RMK AO2 SLP205
     T01280039=
K1V4 212254Z AUTO 08/M01 A3006 RMK AO1 SLP186 T00781006 PNO=
KBLU 212252Z AUTO 21007KT 170V240 10SM CLR 20/00 A3002 RMK AO2
     SLP088 T02000000=
KJDN 212248Z AUTO 00000KT 09/07 A2955 RMK AO1 SLP018 P0002
     T00940072=
KLND 212253Z AUTO 28019G24KT 10SM CLR 19/M05 A2962 RMK AO2 PK WND
     25037/2154 SLP978 T01941050=
KMLF 212252Z AUTO 20021G29KT 10SM CLR 24/M06 A2988 RMK AO2 PK WND
     20029/2250 SLP077 T02391061 $=
KREO 212252Z AUTO 29015G25KT 22/01 A2973 RMK AO1 PK WND 27026/2205
     SLP049 T02170006=
KSNT 212251Z AUTO 21005KT 13/M04 A2975 RMK AO1 SLP017
     T01331039=
PHMK 212254Z 16008KT 10SM FEW046 30/20 A3001 RMK AO2 SLP164
     T03000200=
PHOG 212254Z 03016KT 10SM FEW045 34/21 A2998 RMK AO2 SLP155
     T03390206=
KBUF 212254Z 17008KT 10SM FEW250 14/01 A2992 RMK AO2 SLP135
     T01440006=
KCLI 212255Z AUTO 25004KT 10SM CLR 18/04 A2959 RMK AO2
     T01820037=
KEKX 212255Z AUTO 18008KT 10SM CLR 18/00 A2997 RMK AO2
     T01810000=
K12N 212254Z AUTO 00000KT 10/04 A3012 RMK AO1 SLP204 T01000044=
KATT 212251Z AUTO 20007KT 160V220 10SM CLR 28/09 A2991 RMK AO2
     SLP118 T02830089=
