SAUS70 KWBC 220000 RRS
METAR
KSDA 212355Z AUTO 02004KT 10SM CLR 19/01 A2956 RMK AO2=
K33V 212355Z AUTO 24010G19KT 10SM CLR 12/M10 A2993 RMK AO1=
K74V 212355Z AUTO 27010G15KT 10SM 21/M10 A2982 RMK AO2=
KAJZ 212355Z AUTO 19003KT 10SM CLR 23/M07 A2988 RMK AO2 T02251072
     10241 20173 PWINO=
KCOM 212355Z AUTO 21006KT CLR 29/01 A2984 RMK AO2 T02850010 10317
     20280 PWINO=
KDKB 212355Z AUTO 18007KT 10SM CLR 14/06 A2970 RMK AO2 T01390055
     10236 20138=
KDVO 212355Z AUTO VRB06G18KT 10SM CLR 19/11 A2984 RMK AO2=
KE11 212355Z AUTO 25004KT 10SM CLR 25/03 A2987 RMK AO2 T02500027
     10281 20242=
KE41 212355Z AUTO 19011G16KT 10SM CLR 25/10 A2990 RMK AO2
     T02450096 10284 20244 402840107=
KECU 212355Z AUTO 17007KT 10SM CLR 22/09 A2999 RMK AO2=
KGOP 212355Z AUTO 10SM CLR 27/07 A2987 RMK AO2=
KGVT 212355Z AUTO 17009KT 10SM CLR 25/09 A2983 RMK AO2 TSNO
     T02470085 10319 20246 403190056=
KHII 212355Z AUTO 21005KT 10SM CLR 32/04 A2976 RMK AO2=
KLAM 212355Z AUTO 25008G14KT 10SM CLR 16/M04 A3005 RMK AO2
     T01631042 10184 20128=
KPOY 212355Z AUTO 27011KT 10SM SCT110 17/M06 A2953 RMK AO2=
KRCV 212355Z AUTO 25015KT 10SM CLR 15/M05 A2998 RMK AO2 T01461053
     10190 20139=
KSBS 212355Z AUTO 26010KT 10SM CLR 15/M09 A2986 RMK AO1 T01471088
     10178 20143=
KUMP 212355Z AUTO 00000KT 10SM CLR 19/03 A2989 RMK AO2 T01860026
     10237 20186=
K6S8 212355Z AUTO 07017KT 10SM 12/04 A2952 RMK A01 Laurel=
K2W6 212359Z AUTO 00000KT 10SM CLR 11/07 A3016 RMK AO1=
KCGE 212355Z AUTO 00000KT 10SM CLR 09/07 A3015 RMK A01=
KDMW 212355Z AUTO 15005KT 10SM CLR 13/00 A3013 RMK AO2=
KFME 212359Z AUTO 00000KT 10SM CLR 06/03 A3016 RMK AO1=
KSQL 212347Z 31006KT 10SM FEW200 19/12 A2986=
K66R 212355Z AUTO 17010G14KT 10SM CLR 24/15 A2995 RMK AO2
     T02430146 10299 20243=
KBBD 212355Z AUTO 19011G17KT 10SM CLR 27/03 A2987 RMK AO2=
KBDG 212355Z AUTO 17010G18KT 10SM 18/M03 A3004 RMK AO1 T01841035
     10237 20042=
KBVS 212355Z AUTO 00000KT 10SM OVC019 09/09 A2973 RMK A01
     P0002=
KBYY 212355Z AUTO 19006KT 10SM CLR 22/14 A2999 RMK AO2
     T02250145=
KCCU 212355Z AUTO 26017G26KT 10SM CLR 05/M12 A3016 RMK AO2=
KCPW 212355Z AUTO 23019G31KT 10SM CLR 03/M06 A3027 RMK AO2=
KE16 212355Z AUTO 14013KT 10SM CLR 20/09 A2986 RMK AO2 PWINO
     PNO=
KGCD 212355Z AUTO 21012G17KT 10SM OVC110 14/03 A2968 RMK AO2
     T01400031 10153 20133=
KPLU 212355Z AUTO 00000KT 7SM -DZ FEW028 SCT050 09/09 A2973 RMK
     AO2=
KPNA 212355Z AUTO 28010G17KT 10SM CLR 13/M07 A2982 RMK AO2=
KOAR 212355Z AUTO 29007G10KT 10SM OVC011 05/00 A2990 RMK AO2
     PWINO=
PAVD 212356Z COR 23003KT 10SM FEW028 SCT085 BKN130 07/04 A2977 RMK
     AO2 SLP078 6//// T00720044 10072 20039 52015 PNO $=
KAJG 212355Z AUTO 17006KT 10SM CLR 17/01 A2987 RMK AO2 T01730011
     10257 20173=
KAWG 212355Z AUTO 20006KT 10SM CLR 22/03 A2962 RMK AO2=
KCNC 212355Z AUTO 18005KT 9SM CLR 21/03 A2961 RMK AO2=
KDNV 212355Z AUTO 18009G14KT 10SM CLR 20/03 A2982 RMK AO2
     T01980028 10251 20198=
KFEP 212355Z AUTO 19009KT 10SM CLR 18/06 A2967 RMK AO2 T01770060
     10259 20173=
KFFL 212355Z AUTO 18006KT 6SM HZ CLR 21/00 A2963 RMK A01=
KGGP 212355Z AUTO 19009KT 10SM CLR 16/02 A2984 RMK AO2=
KHMZ 212355Z AUTO 18003KT 10SM CLR 08/M01 A3008 RMK AO2 T00831011
     10168 20083=
KICL 212355Z AUTO 00000KT 9SM CLR 18/03 A2960 RMK AO2=
KLRJ 212355Z AUTO 04004KT 9SM CLR 16/01 A2958 RMK AO2=
KOGA 212355Z AUTO 23005KT 10SM CLR 24/M05 A2959 RMK AO2 T02361052
     10268 20207=
KOOA 212355Z AUTO 19008KT 10SM CLR 20/07 A2962 RMK AO2 T02000069
     10302 20196=
K2G9 212355Z AUTO 16007KT 10SM CLR 10/M02 A3007 RMK AO2=
