SAUS70 KWBC 220200 RRJ
METAR
KACB 220155Z AUTO 00000KT 10SM CLR 08/07 A2965 RMK AO2
     T00790067=
KADC 220155Z AUTO 00000KT 10SM CLR 10/01 A2957 RMK AO2 TSNO=
KADF 220156Z AUTO 00000KT 10SM CLR 14/10 A2990 RMK AO2 SLP124
     T01440100=
KAEL 220155Z AUTO 00000KT 7SM CLR 08/03 A2965 RMK AO2=
KAFJ 220156Z AUTO 00000KT 10SM CLR 05/02 A3009 RMK AO2 SLP192
     T00500022=
KAIZ 220156Z AUTO 17006KT 10SM CLR 21/01 RMK AO2 SLPNO T02110011
     $=
KARG 220156Z AUTO 17006KT 8SM CLR 15/09 A2988 RMK AO2 SLP121
     T01500089=
KASH 220156Z AUTO 00000KT 10SM CLR 04/04 A3017 RMK AO2 SLP222
     T00390039 $=
KBDH 220155Z AUTO 10003KT 10SM CLR 08/02 A2964 RMK AO2=
KBHB 220156Z AUTO 00000KT 10SM CLR 07/05 A3018 RMK AO2 SLP222
     T00670050 PNO $=
KBID 220156Z AUTO 21008KT 10SM CLR 13/07 A3021 RMK AO2 SLP229
     T01330067=
KBKX 220156Z AUTO 13009KT 9SM CLR A2959 RMK AO2 SLPNO FZRANO $=
KBLM 220156Z AUTO 21003KT 10SM CLR 10/08 A3019 RMK AO2 SLP224
     T01000078=
KBMI 220156Z 18013KT 10SM CLR 16/04 A2979 RMK AO2 SLP084
     T01610039=
KBTP 220156Z AUTO 17006KT 10SM CLR 11/M01 A3006 RMK AO2 SLP188
     T01111006 TSNO=
KBVI 220155Z AUTO 16005KT 10SM CLR 12/M01 A3004 RMK AO2
     T01201006=
KBVX 220156Z AUTO 19007G14KT 10SM CLR 22/09 A2988 RMK AO2 SLP117
     T02170089=
KCAD 220155Z AUTO 20007KT 10SM CLR 13/04 A2968 RMK AO2
     T01290041=
KCDA 220155Z AUTO 13006KT 10SM 07/M02 A3012 RMK AO2 T00711018=
KCDD 220153Z AUTO 00000KT 10SM CLR 04/01 A2958 RMK AO2=
KCDI 220155Z AUTO 00000KT 10SM CLR 03/02 A3004 RMK AO2
     T00330024=
KCFE 220155Z AUTO 00000KT 10SM FEW021 FEW028 OVC055 08/01 A2962
     RMK AO2=
KCIU 220156Z AUTO 25006KT 10SM CLR 09/07 A2965 RMK AO2 SLP043
     T00890067=
KCNB 220155Z AUTO 15004KT 10SM CLR 10/01 A2960 RMK AO2
     T01030005=
KCOD 220156Z AUTO 16005KT 10SM OVC100 17/M04 A2953 RMK AO2 SLP959
     T01721044=
KCVN 220156Z AUTO 25012KT 10SM CLR 19/00 A2986 RMK AO2 SLP086
     T01890000=
KCVX 220155Z AUTO 19006KT 10SM CLR 14/06 A2963 RMK AO2
     T01360058=
KCWI 220156Z AUTO 18008KT 10SM CLR 17/04 A2968 RMK AO2 SLP054
     T01670044=
PAGN 220156Z AUTO 00000KT 7SM -RA SCT018 BKN032 OVC095 06/06 A2974
     RMK AO2 RAB52 SLP059 P0000 T00560056=
PAKK 220156Z AUTO 00000KT 7SM -SN BKN009 OVC012 01/00 A2971 RMK
     AO2 UPB33E37SNE33B37 CIG 007V011 SLP070 P0008 T00060000
     FZRANO=
PAKP 220156Z AUTO 21005KT 10SM CLR M10/M12 A2975 RMK AO2 SLP130
     T11001117 FZRANO=
PANA 220156Z AUTO 22008KT 10SM SCT035 OVC042 06/01 A2991 RMK AO2
     SLP129 T00560011 TSNO $=
PANI 220156Z AUTO 25007KT 10SM SCT018 SCT024 BKN031 04/01 A2994
     RMK AO2 RAB02E17 SLP131 P0000 T00440011 $=
PANV 220156Z AUTO 24005KT 10SM FEW007 BKN039 02/02 A2982 RMK AO2
     SLP188 T00220017 FZRANO TSNO=
PAOH 220156Z AUTO 09003KT 10SM OVC043 05/04 A2969 RMK AO2 SLP052
     T00500039 PNO $=
PATQ 220156Z AUTO 10014KT 10SM OVC012 M04/M05 A2980 RMK AO2 SLP097
     T10391050 FZRANO TSNO=
PAZK 220156Z AUTO 21005KT 10SM FEW005 OVC050 M03/M04 A2971 RMK AO2
     SLP116 T10281039 FZRANO=
PFCL 220156Z AUTO 25006KT 9SM -RA SCT023 BKN033 BKN040 A2999 RMK
     AO2 RAB42 SLPNO P0000 FZRANO TSNO $=
PFKW 220156Z AUTO 22009KT 10SM FEW100 05/01 A2991 RMK AO2 SLP128
     T00500006=
PFSH 220156Z AUTO 20016KT 10SM BKN010 OVC023 03/02 A2977 RMK AO2
     SLP081 T00330017=
PFWS 220156Z AUTO 24011KT 10SM CLR 06/03 A3001 RMK AO2 SLP206
     T00610033=
KMKT 220156Z AUTO 15004KT 10SM CLR 11/03 A2963 RMK AO2 SLP038
     T01110033=
KMML 220156Z AUTO 16007KT 10SM CLR 09/01 A2961 RMK AO2 SLP034
     T00890006=
