SAUS70 KWBC 220220 RRC
METAR
KD39 220215Z AUTO 14003KT 10SM CLR 08/01 A2959 RMK AO2
     T00780006=
KDEH 220215Z AUTO 00000KT 10SM BKN020 OVC045 13/01 A2964 RMK
     AO2=
KDUH 220215Z AUTO 19008KT 160V230 10SM CLR 16/00 A2988 RMK AO2
     T01570001=
KEDJ 220215Z AUTO 18009KT 10SM CLR 13/01 A2997 RMK A01=
KEGV 220215Z AUTO 00000KT 10SM CLR 03/00 A2964 RMK AO2
     T00270002=
KFKS 220215Z AUTO 22005KT 10SM CLR 13/07 A2966 RMK AO2
     T01300072=
KGLX 220215Z AUTO 08008G14KT 10SM CLR 22/13 A3011 RMK A01=
KHLB 220215Z AUTO 18005KT 10SM FEW033 13/00 A2996 RMK A01=
KHSB 220215Z AUTO 00000KT 10SM CLR 13/08 A2990 RMK AO2
     T01340076=
KIMS 220215Z AUTO 15003KT 10SM CLR 13/01 A2999 RMK AO2=
KJYM 220215Z AUTO 18007KT 10SM CLR 14/01 A2985 RMK AO2
     T01400010=
KLXL 220215Z AUTO 00000KT 10SM CLR 06/02 A2960 RMK AO2=
KM30 220215Z AUTO 16004KT 10SM CLR 18/08 A2992 RMK AO2
     T01810080=
KMOX 220215Z AUTO 16007KT 10SM CLR 08/M03 A2958 RMK AO2=
KMWM 220215Z AUTO 00000KT 10SM CLR 06/00 A2962 RMK AO2=
KPCW 220215Z AUTO 21011G16KT 10SM CLR 15/02 A2990 RMK AO2=
KPVB 220215Z AUTO 14005KT 10SM CLR 16/01 A2967 RMK AO1
     T01590014=
KRRT 220215Z AUTO 25007KT 10SM BKN070 BKN080 12/03 A2954 RMK
     AO2=
KUES 220215Z AUTO 18004KT 10SM CLR 15/03 A2970 RMK AO2=
K05U 220215Z AUTO 26006KT 10SM 12/M11 A2989 RMK A01=
K1V6 220215Z AUTO 28008KT 10SM CLR 16/M11 A2977 RMK AO2=
K46U 220215Z AUTO 00000KT 10SM SCT110 13/M04 A2973 RMK A01=
K65S 220215Z AUTO 21008KT 180V250 10SM SCT041 BKN049 OVC055 03/02
     A2958 RMK AO2=
KBAM 220215Z AUTO 26008KT 10SM CLR 18/M07 A2978 RMK AO1=
KBKD 220215Z AUTO 19010KT 10SM CLR 26/04 A2981 RMK AO2
     T02580037=
KECS 220215Z AUTO 03006KT 10SM CLR 13/M09 A2951 RMK AO2=
KFOT 220210Z AUTO 00000KT 10SM OVC022 14/08 A2991 RMK AO1=
KFWS 220215Z AUTO 16013G18KT 7SM CLR 25/08 A2985 RMK AO2
     T02490076=
KGOO 220215Z AUTO 14004KT 10SM CLR 19/04 A2987 RMK A01=
KGPM 220215Z AUTO 17010G16KT 10SM CLR 26/08 A2985 RMK AO2
     T02570077=
KM75 220215Z AUTO 06009KT 10SM OVC025 07/05 A2953 RMK A01=
KMEV 220215Z AUTO 25010G22KT 10SM CLR 19/M05 A2990 RMK AO2=
KMNZ 220215Z AUTO 18010KT 10SM CLR 23/07 A2989 RMK AO2
     T02320070=
KP08 220215Z AUTO 27004KT 10SM CLR 25/11 A2984 RMK AO2=
KSXU 220215Z AUTO 24006KT 10SM CLR 18/00 A2988 RMK AO2
     T01760000=
KTBX 220215Z AUTO 10SM CLR 12/M10 A2976 RMK AO2=
KU68 220215Z AUTO 04013KT 10SM BKN110 13/01 A2948 RMK AO2=
KUVA 220215Z AUTO 00000KT 10SM CLR 19/11 A2996 RMK AO2
     T01910110=
K33N 220215Z AUTO 19004KT 10SM FEW033 FEW070 09/06 A3018 RMK
     A01=
K3I2 220215Z AUTO 00000KT 10SM CLR 06/01 A3006 RMK AO2
     T00640014=
K57C 220215Z AUTO 18005KT 10SM CLR 16/04 A2969 RMK AO2
     T01630042=
KANW 220215Z AUTO 17007KT 10SM CLR 12/M02 A2955 RMK AO2
     T01181019=
KBAX 220215Z AUTO 20012KT 10SM CLR 15/04 A2976 RMK AO2
     T01470040=
KBNW 220215Z AUTO 08004KT 7SM CLR 14/00 A2962 RMK AO2=
KBTA 220215Z AUTO 00000KT 10SM CLR 18/00 A2958 RMK AO2
     T01770000=
KBTN 220215Z AUTO 15006KT 3SM HZ BKN040 11/M00 A2954 RMK AO2=
KC09 220215Z AUTO 17005KT 10SM CLR 14/04 A2975 RMK AO2
     T01440043=
KCCY 220215Z AUTO 07005KT 6SM HZ CLR 11/01 A2964 RMK AO2=
KCKZ 220215Z AUTO 00000KT 10SM CLR 04/04 A3018 RMK AO2=
KERY 220215Z AUTO 00000KT 3SM BR CLR 04/04 A2964 RMK AO2
     T00420039=
KGGI 220215Z AUTO 11003KT 10SM CLR 15/03 A2965 RMK AO2
     T01450025=
KHZX 220215Z AUTO 00000KT 10SM CLR 06/01 A2960 RMK AO2=
KI67 220215Z AUTO 00000KT 10SM CLR 10/01 A2997 RMK AO1=
KIFA 220215Z AUTO 03004KT 5SM HZ CLR 08/01 A2963 RMK AO2
     T00810006=
KMUT 220215Z AUTO 00000KT 10SM CLR 12/03 A2968 RMK AO2=
