SAUS70 KWBC 220114
METAR
K2C8 220115Z AUTO 29012KT 10SM FEW015 BKN055 OVC075 12/02 A2954
     RMK AO2=
KCLK 220115Z AUTO 19011KT 10SM CLR 23/00 A2970 RMK AO2=
KD50 220115Z AUTO 23004KT 10SM FEW042 SCT060 SCT120 04/04 A2958
     RMK AO2=
KFRR 220115Z AUTO 00000KT 10SM CLR 07/01 A3012 RMK AO1=
KLQK 220115Z AUTO 10SM CLR 07/02 A3013 RMK AO2 T00690018=
KSPA 220115Z AUTO 00000KT 10SM CLR 08/02 A3013 RMK AO2=
KY51 220115Z AUTO 21004KT 7SM CLR 18/04 A2965 RMK AO1
     T01750035=
K2J9 220115Z AUTO 00000KT 10SM BKN029 BKN036 BKN060 10/07 A3013
     RMK AO2=
K4R5 220115Z AUTO 00000KT 10SM CLR 05/04 A2958 RMK AO2
     T00450038=
K8W2 220115Z AUTO 00000KT 10SM CLR 04/01 A3013 RMK AO1
     T00430005=
KARV 220115Z AUTO 00000KT 10SM CLR 06/02 A2962 RMK AO2
     T00640021=
KCCA 220115Z AUTO 00000KT 10SM CLR 13/10 A2988 RMK AO2=
KCDH 220115Z AUTO 00000KT 10SM CLR 17/14 A2989 RMK AO2=
KCPK 220115Z AUTO 00000KT 07/06 A3016 RMK AO2 T00690056=
KDVP 220113Z AUTO 13004KT 7SM CLR 09/01 A2963 RMK AO2
     T00930005=
KFDW 220115Z AUTO 00000KT 10SM CLR 09/03 A3014 RMK AO1=
KHFY 220115Z AUTO 17007KT 10SM CLR 16/03 A2992 RMK AO2
     T01550032=
KIUA 220115Z AUTO 18007KT 140V230 10SM CLR 12/M01 A2999 RMK AO2
     T01201011=
KIXA 220115Z AUTO 00000KT 10SM CLR 06/06 A3016 RMK AO2=
KJAQ 220115Z AUTO 27005KT 10SM CLR 24/08 A2983 RMK AO1
     T02360076=
KJHN 220115Z AUTO 19004KT 10SM CLR 18/M07 A2967 RMK AO2
     T01841069=
KLDJ 220115Z AUTO 00000KT 10SM CLR 12/03 A3016 RMK AO2
     T01200027=
KMDZ 220115Z AUTO 18003KT 10SM CLR 06/03 A2964 RMK AO2 T00570031
     PWINO=
KMHL 220115Z AUTO 17004KT 10SM CLR 19/02 A2970 RMK AO2=
KMRJ 220115Z AUTO 14004KT 10SM CLR 16/00 A2966 RMK AO2=
KORB 220113Z AUTO 00000KT 10SM CLR 10/02 A2955 RMK AO2=
KRAW 220115Z AUTO 18004KT 10SM CLR 21/01 A2974 RMK AO2=
KVER 220115Z AUTO 15006KT 10SM CLR 21/05 A2971 RMK AO2
     T02060045=
