SAUS80 KWBC 212322
METAR
KSOA 212315Z AUTO 19007G16KT 10SM 27/07 A2995 RMK AO2=
K77S 212335Z AUTO 21009KT 7SM SCT007 BKN010 OVC022 15/15 A2978 RMK
     A01=
K9V9 212315Z AUTO 14006KT 10SM CLR 17/02 A2955 RMK AO2
     T01700017=
KAYS 212315Z AUTO 00000KT 10SM CLR 15/06 A3009 RMK AO2
     T01490064=
KCBE 212315Z AUTO 00000KT 10SM CLR 14/00 A3011 RMK AO2
     T01371004=
KGIC 212315Z AUTO 22006KT 7SM BKN034 OVC040 06/04 A2972 RMK AO1
     P0001=
KIZA 212315Z AUTO 27010KT 240V300 10SM CLR 23/12 A2986 RMK AO2=
KPSN 212315Z AUTO 19007G12KT 10SM CLR 28/08 A2986 RMK AO2=
KSFY 212322Z AUTO 18005KT 10SM CLR 19/04 A2963 RMK AO2=
K4BM 212315Z AUTO 23007KT 10SM CLR 08/M16 A3014 RMK AO2=
K77S 212335Z AUTO 21009KT 7SM SCT007 BKN010 OVC022 15/15 A2978 RMK
     A01=
KGIC 212315Z AUTO 22006KT 7SM BKN034 OVC040 06/04 A2972 RMK AO1
     P0001=
KIZA 212315Z AUTO 27010KT 240V300 10SM CLR 23/12 A2986 RMK AO2=
KPSN 212315Z AUTO 19007G12KT 10SM CLR 28/08 A2986 RMK AO2=
KCKP 212315Z AUTO 09005KT 10SM CLR 19/01 A2960 RMK AO2
     T01860006=
