SAUS80 KWBC 220200 RRF
METAR
KP58 220155Z AUTO 19007KT 17/04 A2972 RMK AO1 SLP064 T01670044=
