SAUS70 KWBC 220100 RRX
METAR
KO69 220055Z AUTO 30007KT 7SM CLR 13/11 A2985 RMK A01=
KOJA 220055Z AUTO 19011G16KT 10SM CLR 25/02 A2970 RMK AO2
     T02540021=
KOTG 220056Z AUTO 08004KT 10SM CLR 10/02 A2964 RMK AO2 SLP047
     T01000017=
KOTH 220056Z 21009KT 2 1/2SM -RA BR OVC008 14/13 A2982 RMK AO2 CIG
     006V012 SLP097 P0001 T01390133=
KOXI 220055Z AUTO 19009KT 10SM CLR 17/02 A2979 RMK AO1=
KOXV 220055Z AUTO 16005KT 10SM CLR 21/02 A2962 RMK AO2=
KP08 220055Z AUTO 34005KT 10SM CLR 28/11 A2982 RMK AO2=
KPCW 220055Z AUTO 20010G16KT 10SM CLR 16/02 A2988 RMK AO2=
KPHT 220055Z AUTO 17009KT 10SM CLR 18/10 A2993 RMK A01=
KPIB 220056Z AUTO 18005KT 10SM CLR 19/12 A3007 RMK AO2 SLP180
     T01940122 PNO $=
KPKV 220055Z AUTO 17005KT 10SM CLR 22/15 A2999 RMK AO2
     T02220150=
KPRO 220055Z AUTO 00000KT 10SM CLR 14/M01 A2962 RMK AO2
     T01361012=
KPRS 220055Z AUTO 05003KT 10SM CLR 26/12 A2995 RMK AO2
     T02620115=
KPTD 220055Z AUTO 18012G19KT 10SM SCT035 BKN047 BKN060 13/M03
     A2996 RMK AO2=
KPTV 220056Z AUTO 33003KT 10SM CLR 29/08 A2978 RMK AO2 SLP081
     T02940083=
KPUJ 220055Z AUTO 00000KT 7SM CLR 12/02 A3011 RMK AO2=
KPVJ 220055Z AUTO 16005KT 10SM CLR 25/03 A2974 RMK AO2
     T02450032=
KPVU 220056Z 00000KT 10SM CLR 17/06 A2981 RMK AO2 SLP073
     T01670056=
KPWT 220056Z AUTO 17004KT 7SM -RA OVC004 08/08 A2971 RMK AO2
     SLP066 P0005 T00830078=
KPYX 220055Z AUTO 20009KT 10SM CLR 17/M08 A2966 RMK AO2
     T01661081=
KRKR 220055Z AUTO 00000KT 10SM CLR 21/05 A2981 RMK AO2=
KRKS 220054Z AUTO 28016G26KT 10SM CLR 13/M09 A2982 RMK AO2 PK WND
     27034/0008 SLP056 T01331094=
KRNC 220055Z AUTO 00000KT 10SM CLR 11/03 A3005 RMK A01=
KRSN 220055Z AUTO 18004KT 10SM CLR 21/12 A2997 RMK AO2
     T02060122=
KBTN 220055Z AUTO 16007KT 5SM HZ SCT017 OVC024 12/00 A2954 RMK
     AO2=
KOAR 220055Z AUTO 28008KT 7SM OVC011 04/00 A2989 RMK AO2 PWINO=
