SACA32 KWBC 212300 RRA
METAR
MDPP 212300Z 00000KT 9999 SCT020 28/25 Q1011=
MDST 212300Z 00000KT 9999 FEW018CB FEW020 SCT300 28/23 Q1011
     CB/S/SW/W=
TAPA 212300Z 07007KT 9999 SCT018 27/23 Q1012 NOSIG=
