SAUS80 KWBC 212300 RRC
METAR
KPSN 212255Z AUTO 20010KT 10SM CLR 29/08 A2986 RMK AO2=
K2WX 212256Z AUTO 16008KT 20/M01 A2944 RMK AO1 SLP962
     T02001006=
K9V9 212255Z AUTO 16007KT 10SM CLR 19/02 A2956 RMK AO2
     T01920017=
KD07 212256Z AUTO 16013G17KT 18/01 A2948 RMK AO1 SLP983
     T01780006=
KGNA 212256Z AUTO 25006KT 11/07 A2953 RMK AO1 SLP002 T01060067=
KGNR 212256Z AUTO VRB03KT 08/M02 A3006 RMK AO1 SLP191
     T00781022=
KP53 212256Z AUTO 00000KT 11/06 A2956 RMK AO1 SLP015 T01060056=
KCUL 212253Z AUTO 15008KT 10SM CLR 21/03 A2986 RMK AO2=
KDVK 212250Z AUTO 00000KT 10SM CLR 16/00 A3001 RMK AO2=
KNY0 212254Z AUTO 15005KT 10SM CLR 08/M02 A3006 RMK AO2=
KGIC 212255Z AUTO 22006KT 7SM OVC039 06/03 A2972 RMK AO1=
KIZA 212255Z AUTO 27014KT 10SM CLR 23/12 A2985 RMK AO2=
KMEH 212256Z AUTO 00000KT 3SM -RA BR BKN008 BKN013 OVC021 06/05
     A2972 RMK AO2 SLP070 P0004 T00610050=
KTCS 212253Z AUTO 18009KT 10SM CLR 26/04 A2996 RMK AO2 SLP081
     T02560039=
