SAUS70 KWBC 220218 RRF
METAR
KAZC 220215Z AUTO 10SM CLR 15/00 A2998 RMK AO2=
KBAM 220215Z AUTO 26008KT 10SM CLR 18/M07 A2978 RMK AO1=
KBAX 220215Z AUTO 20012KT 10SM CLR 15/04 A2976 RMK AO2
     T01470040=
KBCK 220215Z AUTO 00000KT 10SM CLR 03/01 A2965 RMK AO2
     T00290011=
KBDN 220215Z AUTO 22010KT 10SM SCT046 BKN060 BKN070 15/07 A2964
     RMK AO2=
KBDU 220215Z AUTO 19004KT 10SM CLR 20/M08 A2972 RMK AO2=
KBGF 220215Z AUTO 16004KT 9SM FEW041 FEW047 15/02 A3006 RMK
     A01=
KBKD 220215Z AUTO 19010KT 10SM CLR 26/04 A2981 RMK AO2
     T02580037=
KBKT 220215Z AUTO 08004KT 10SM CLR 06/04 A3018 RMK AO1
     T00620035=
KBNW 220215Z AUTO 08004KT 7SM CLR 14/00 A2962 RMK AO2=
KBPC 220215Z AUTO 21009KT 10SM CLR 18/M02 A2968 RMK AO2 PNO=
KBQX 220215Z AUTO 17019KT 10SM 24/14 A3002 RMK A01=
KBRG 220215Z AUTO 21007KT 10SM CLR 16/03 A2999 RMK AO2
     T01610032=
KBTA 220215Z AUTO 00000KT 10SM CLR 18/00 A2958 RMK AO2
     T01770000=
KBTN 220215Z AUTO 15006KT 3SM HZ BKN040 11/M00 A2954 RMK AO2=
KBWP 220215Z AUTO 15007KT 10SM SCT028 BKN034 OVC050 12/M01 A2955
     RMK AO2=
KBXA 220215Z AUTO 16006KT 10SM CLR 17/12 A3009 RMK AO2
     T01730115=
KC09 220215Z AUTO 17005KT 10SM CLR 14/04 A2975 RMK AO2
     T01440043=
KC83 220215Z AUTO VRB05G15KT 10SM CLR 20/10 A2978 RMK AO2=
KCBK 220215Z AUTO 14004KT 10SM CLR 14/M07 A2965 RMK AO2
     T01411068=
KCCY 220215Z AUTO 07005KT 6SM HZ CLR 11/01 A2964 RMK AO2=
KLYO 220215Z AUTO 14006KT 10SM CLR 20/00 A2960 RMK AO2
     T01991002=
KM02 220215Z AUTO 18006KT 9SM 18/09 A2998 RMK A01=
KM04 220215Z AUTO 18007KT 10SM FEW055 20/10 A2992 RMK A01=
KM08 220215Z AUTO 15008KT 10SM FEW060 19/11 A2995 RMK A01=
KM30 220215Z AUTO 16004KT 10SM CLR 18/08 A2992 RMK AO2
     T01810080=
KM54 220210Z AUTO 15005KT 10SM FEW041 SCT049 SCT055 17/03 A2999
     RMK A01=
KM75 220215Z AUTO 06009KT 10SM OVC025 07/05 A2953 RMK A01=
KM91 220215Z AUTO 15005KT 10SM SCT047 SCT055 17/05 A2997 RMK
     A01=
KMAO 220215Z AUTO 00000KT 10SM CLR 07/05 A3015 RMK AO2=
KMBT 220215Z AUTO 17007KT 10SM BKN038 BKN044 BKN050 16/03 A3001
     RMK A01=
KMEV 220215Z AUTO 25010G22KT 10SM CLR 19/M05 A2990 RMK AO2=
KMHV 220220Z AUTO 29014KT 10SM CLR 24/M03 A2987 RMK A01=
KMIO 220210Z AUTO 16015KT 10SM CLR 23/05 A2974 RMK AO2=
KMKS 220215Z AUTO 00000KT 10SM CLR 07/06 A3015 RMK AO2=
KMMI 220215Z AUTO 00000KT 10SM CLR 07/02 A3013 RMK A01=
KMNE 220215Z AUTO 16004KT 10SM CLR 22/14 A2994 RMK AO2
     T02200141=
KMNV 220215Z AUTO 00000KT 10SM 08/02 A3011 RMK A01=
KMNZ 220215Z AUTO 18010KT 10SM CLR 23/07 A2989 RMK AO2
     T02320070=
KMOP 220215Z AUTO 19006KT 10SM CLR 15/05 A2973 RMK AO2
     T01530045=
KMOR 220215Z AUTO 00000KT 10SM FEW032 SCT046 08/02 A3009 RMK
     A01=
KMOX 220215Z AUTO 16007KT 10SM CLR 08/M03 A2958 RMK AO2=
KMRC 220210Z AUTO 18007G13KT 10SM CLR 18/09 A2999 RMK A01=
KMUT 220215Z AUTO 00000KT 10SM CLR 12/03 A2968 RMK AO2=
KMVH 220215Z AUTO 30004KT 7SM FEW011 OVC020 06/05 A2958 RMK AO2
     PWINO=
KMWK 220215Z AUTO 00000KT 10SM CLR 06/02 A3019 RMK AO2
     T00560024=
KMZH 220215Z AUTO 00000KT 10SM CLR 06/01 A2961 RMK AO2=
KO69 220215Z AUTO 29012KT 10SM OVC009 12/11 A2986 RMK A01=
KOEL 220215Z AUTO 08004KT 10SM CLR 14/M11 A2964 RMK AO1
     T01421110=
KOJA 220215Z AUTO 20011KT 10SM CLR 23/03 A2969 RMK AO2
     T02320026=
KOLG 220215Z AUTO 00000KT 10SM CLR 05/00 A2963 RMK AO1=
KONA 220215Z AUTO 00000KT 10SM CLR 08/05 A2965 RMK AO2=
KONX 220215Z AUTO 00000KT 10SM SCT060 10/09 A3018 RMK AO2
     T00990091=
KOSC 220215Z AUTO 20008KT 10SM CLR 15/05 A2970 RMK AO2
     T01450047=
KOXI 220215Z AUTO 19011KT 10SM CLR 16/02 A2981 RMK AO1=
