SAUS70 KWBC 220300
METAR
KGYY 220245Z 18006G14KT 10SM CLR 19/03 A2978=
