SAUS70 KWBC 220208
METAR
K1S5 220215Z AUTO 06004KT 10SM BKN085 BKN100 OVC120 09/08 A2964
     RMK AO2 T00860075=
KCPF 220215Z AUTO 00000KT 10SM CLR 12/01 A3007 RMK AO2=
KEMV 220215Z AUTO 00000KT 10SM CLR 05/04 A3020 RMK AO2
     T00450039=
KFFA 220215Z AUTO 03004KT 10SM BKN070 16/10 A3015 RMK AO2
     T01620104=
KMCJ 220215Z AUTO 17010KT 10SM BKN037 22/15 A2999 RMK A01=
KSUW 220215Z AUTO 19003KT 10SM CLR 05/02 A2961 RMK AO2
     T00460016=
KTFP 220135Z AUTO 18008KT 10SM CLR 23/17 A2998 RMK AO2
     T02280166=
