SAUS70 KWBC 212300 RRM
METAR
KOOA 212255Z AUTO 21007KT 10SM CLR 25/09 A2961 RMK AO2
     T02540090=
KOPL 212255Z AUTO 20010G16KT 10SM CLR 25/12 A3000 RMK AO2
     T02470122=
KOPN 212255Z AUTO 00000KT 10SM CLR 18/01 A3010 RMK AO2=
KCAV 212255Z AUTO 01005KT 1 3/4SM HZ CLR 19/02 A2962 RMK A01=
KCBF 212255Z AUTO 18004KT 6SM HZ CLR 22/M05 A2957 RMK AO2=
KCCU 212255Z AUTO 23010G20KT 200V260 10SM CLR 07/M13 A3018 RMK
     AO2=
KCIN 212255Z AUTO 06004KT 9SM CLR 23/01 A2959 RMK AO2=
KCKF 212255Z AUTO 00000KT 10SM CLR 16/04 A3009 RMK AO2
     T01570040=
KCKV 212252Z AUTO 16004KT 10SM CLR 23/06 A2992 RMK AO2 SLP131
     T02280056=
KCNC 212255Z AUTO 22007KT 10SM CLR 26/03 A2959 RMK AO2=
KCOM 212255Z AUTO 21009KT CLR 31/02 A2984 RMK AO2 T03070015
     PWINO=
KCPW 212255Z AUTO 22019G29KT 10SM SCT120 05/M06 A3029 RMK AO2=
KCQB 212255Z AUTO 19014G21KT 10SM CLR 30/03 A2972 RMK AO2
     T03000028=
KCUH 212255Z AUTO 19010G17KT 10SM CLR 30/03 A2969 RMK AO2
     T03010025=
KCWV 212255Z AUTO 00000KT 10SM CLR 14/06 A3009 RMK AO2
     T01410060=
KD73 212255Z AUTO 00000KT 10SM CLR 13/04 A3010 RMK AO2
     T01300037=
KDKB 212255Z AUTO 20009KT 10SM CLR 19/06 A2968 RMK AO2
     T01890063=
KDNS 212255Z AUTO RMK AO2 PNO PWINO=
KDNV 212255Z AUTO 20009G15KT 10SM CLR 21/02 A2980 RMK AO2
     T02130017=
KE16 212255Z AUTO 18009KT 10SM CLR 23/09 A2985 RMK AO2 PWINO
     PNO=
KE41 212255Z AUTO 19011G17KT 10SM CLR 27/08 A2991 RMK AO2
     T02690083=
KECU 212255Z AUTO 16009G15KT 10SM CLR 25/09 A3000 RMK AO2=
KEGT 212255Z AUTO 16007KT 10SM CLR 29/01 A2963 RMK AO2
     T02890010=
KEOK 212255Z AUTO 19012KT 10SM CLR 25/05 A2964 RMK A01=
KFEP 212255Z AUTO 22009KT 7SM CLR 21/06 A2965 RMK AO2
     T02130060=
KFFL 212255Z AUTO 20007KT 9SM CLR 24/M00 A2961 RMK A01=
KFPY 212255Z AUTO 00000KT 10SM CLR 19/02 A3008 RMK AO2 T01930019
     TSNO=
KFSK 212255Z AUTO 20016G21KT 10SM CLR 28/04 A2969 RMK AO2
     T02760042=
KFZG 212255Z AUTO 00000KT 10SM CLR 14/07 A3009 RMK AO2
     T01400073=
KGBG 212255Z AUTO 19010KT 10SM CLR 24/05 A2967 RMK AO2
     T02350049=
KGCD 212255Z AUTO 26003KT 10SM -RA OVC065 14/04 A2972 RMK AO2
     T01370044=
KGCM 212255Z AUTO 17007KT 10SM CLR 28/03 A2974 RMK AO2=
KGEV 212255Z AUTO 00000KT 10SM CLR 09/M01 A3013 RMK AO2
     T00931013=
KGGP 212255Z AUTO 20009KT 10SM CLR 18/01 A2983 RMK AO2=
KGHG 212255Z AUTO 21005KT 10SM CLR 12/06 A3014 RMK AO2=
KGMJ 212255Z AUTO 19007KT 10SM CLR 19/M06 A2974 RMK AO2=
KOWP 212255Z AUTO 20006KT 10SM CLR 32/00 A2972 RMK AO2
     T03211004=
KPBX 212255Z AUTO 00000KT 10SM CLR 17/00 A3004 RMK AO2
     T01650001=
KPEA 212255Z AUTO 00000KT 10SM CLR 25/03 A2960 RMK AO2
     T02470033=
KPIM 212255Z AUTO 00000KT 10SM CLR 16/05 A3009 RMK AO2
     T01580049=
KPLU 212255Z AUTO 00000KT 10SM -DZ CLR 09/08 A2975 RMK AO2=
KPMU 212255Z AUTO 18007KT 10SM CLR 25/09 A2991 RMK AO2=
KPNA 212255Z AUTO 28014G20KT 10SM CLR 14/M07 A2982 RMK AO2=
KPNT 212255Z AUTO 19012G17KT 10SM CLR 22/08 A2973 RMK AO2
     T02160075=
KPOY 212255Z AUTO 27015G27KT 10SM CLR 18/M07 A2954 RMK AO2=
KPPQ 212255Z AUTO 17007KT 10SM CLR 24/04 A2973 RMK AO2
     T02380035=
KRCV 212255Z AUTO 25013G20KT 10SM CLR 18/M05 A2999 RMK AO2
     T01781052=
KRDK 212255Z AUTO 00000KT CLR 21/01 A2958 RMK AO2=
KREG 212255Z AUTO 21007KT 10SM CLR 25/13 A3002 RMK AO2
     T02500134=
KROG 212258Z 10SM CLR 26/03 A2980 RMK AO2 SLP083 T02560028 $=
KRQO 212255Z AUTO 20021KT CLR 30/02 A2971 RMK AO2 PWINO
     T02990016=
KSBO 212255Z AUTO 06003KT 10SM CLR 15/04 A3010 RMK AO2=
KSBS 212255Z AUTO 25012G22KT 10SM CLR 17/M09 A2988 RMK AO1
     T01701091=
