SAUS70 KWBC 220206
METAR
KW99 220202Z AUTO 00000KT 10SM CLR 04/02 A3014 RMK AO2=
KEVM 220202Z AUTO 00000KT 10SM CLR 05/02 A2960 RMK AO2=
KGAF 220215Z AUTO 21006KT 7SM FEW060 10/01 A2956 RMK AO2=
KEZS 220215Z AUTO 00000KT 10SM CLR 09/05 A2965 RMK AO2
     T00930054=
KW63 220215Z AUTO 00000KT 10SM CLR 07/07 A3017 RMK AO1=
