SACA33 KWBC 220100 RRB
METAR
TLPL 220100Z 07015KT 9999 FEW024 27/23 Q1011 NOSIG=
