SAUS70 KWBC 220100
METAR
KADM 220050Z 14008KT 10SM CLR 24/07 A2975=
KHQZ 220050Z 14006KT 10SM CLR 23/08 A2984=
KHXD 220050Z 00000KT 10SM CLR 11/07 A3013=
KCGF 220045Z 18011G17KT 10SM CLR 14/01 A2993=
KCWA 220047Z 28004KT 10SM CLR 12/03 A2965=
KEFT 220055Z AUTO 21011KT 10SM CLR 18/03 A2965 RMK AO2
     T01750026=
KETB 220055Z AUTO 00000KT 10SM CLR 14/03 A2966 RMK AO2=
KEZS 220055Z AUTO 00000KT 10SM CLR 11/06 A2962 RMK AO2
     T01100057=
KFDK 220047Z 00000KT 10SM CLR 11/02 A3013=
KFRH 220055Z AUTO 17004KT 10SM CLR 17/00 A2993 RMK AO1=
KMMU 220045Z 00000KT 10SM SKC 07/05 A3015=
KMWC 220045Z 21005KT 10SM CLR 18/01 A2966=
KOIC 220055Z AUTO 20004KT 10SM CLR 05/M01 A3012 RMK AO2
     T00481006=
KPBH 220055Z AUTO 00000KT 10SM CLR 05/01 A2962 RMK AO2
     T00520013=
KPDC 220055Z AUTO 00000KT 10SM CLR 12/03 A2963 RMK AO2
     T01240034=
KRRL 220055Z AUTO 00000KT 10SM CLR 09/03 A2963 RMK AO2 T00900030
     TSNO=
KSAW 220047Z 00000KT 10SM CLR 05/02 A2961=
KSUW 220055Z AUTO 31003KT 10SM CLR 06/02 A2959 RMK AO2
     T00570019=
KUNU 220055Z AUTO 19004KT 10SM CLR 16/04 A2966 RMK AO2
     T01570042=
KVNW 220055Z AUTO 19009KT 10SM CLR 16/00 A2988 RMK AO2=
TJBQ 220050Z 11004KT 10SM CLR 25/22 A2995=
K2C8 220055Z AUTO 30008KT 10SM FEW050 SCT060 OVC070 12/02 A2952
     RMK AO2=
KALN 220050Z 16011KT 10SM CLR 18/04 A2980=
KCLK 220055Z AUTO 19010KT 10SM CLR 23/00 A2970 RMK AO2=
KCWF 220050Z 18007KT 10SM CLR 16/13 A3002=
KD50 220055Z AUTO 00000KT 10SM BKN042 OVC050 05/04 A2958 RMK
     AO2=
KDAG 220050Z AUTO 10003KT 10SM CLR 29/M02 A2980 RMK AO2 SLP070
     T02891017=
KFRR 220055Z AUTO 16003KT 10SM CLR 09/00 A3011 RMK AO1=
KLQK 220055Z AUTO 10SM CLR 08/03 A3013 RMK AO2 T00770025=
KOCF 220051Z AUTO 06004KT 10SM CLR 16/04 A3010 RMK AO2 SLP193
     T01560044 PNO $=
KOXC 220051Z 17006KT 10SM CLR 09/03 A3016 RMK AO2 SLP229
     T00890028=
KSEE 220047Z 23008KT 10SM SKC 21/16 A2986=
KSLK 220051Z AUTO 21004KT 10SM CLR 04/M02 A3002 RMK AO2 SLP179
     T00391017=
KSPA 220055Z AUTO 00000KT 10SM CLR 08/02 A3013 RMK AO2=
KTPL 220051Z AUTO 16009KT 10SM CLR 24/09 A2989 RMK AO2 SLP115
     T02390094=
KY51 220055Z AUTO 20003KT 10SM CLR 17/04 A2965 RMK AO1
     T01710036=
PAMD 220051Z AUTO 31014KT 10SM CLR 08/M01 A2971 RMK AO2 SLP049
     T00831011 PNO $=
KACT 220051Z 17013KT 10SM CLR 26/11 A2986 RMK AO2 SLP106
     T02610106=
KAHN 220051Z AUTO 10006KT 10SM CLR 09/02 A3013 RMK AO2 SLP205
     T00890017=
KAVX 220051Z AUTO 00000KT 9SM CLR 18/13 A2988 RMK AO2 SLP096
     T01830133=
KBAZ 220051Z AUTO 17009KT 10SM CLR 22/09 A2991 RMK AO2 SLP125
     T02170094=
KBED 220051Z 18007KT 10SM CLR 11/05 A3014 RMK AO2 SLP221
     T01060050=
KBGD 220051Z AUTO 18008KT 10SM CLR 24/M02 A2969 RMK AO2 SLP023
     T02441022=
KBHK 220051Z AUTO 32007KT 10SM OVC110 11/04 A2955 RMK AO2 SLP012
     T01110039=
KCFV 220052Z AUTO 17011KT 10SM CLR 25/06 A2968 RMK AO2 SLP047
     T02500056=
KCIC 220047Z 14008KT 10SM CLR 27/07 A2974=
KCLE 220051Z 18012G18KT 10SM CLR 16/00 A2992 RMK AO2 SLP147
     T01560000=
KCMH 220051Z 15006KT 10SM SCT250 14/01 A2999 RMK AO2 SLP155
     T01390006=
KCSG 220051Z 00000KT 10SM CLR 14/04 A3011 RMK AO2 SLP195
     T01390044=
KDAW 220051Z AUTO 30003KT 10SM CLR 07/05 A3014 RMK AO2 SLP204
     T00720050=
KERI 220051Z 18015G19KT 10SM CLR 14/00 A2994 RMK AO2 SLP141
     T01440000=
KEWR 220051Z 17003KT 10SM CLR 13/04 A3015 RMK AO2 SLP209
     T01330044=
KHDO 220051Z AUTO 20006KT 10SM CLR 23/11 A2993 RMK AO2 SLP127
     T02280111=
KILG 220051Z 18005KT 10SM CLR 12/04 A3016 RMK AO2 SLP213
     T01170044=
