SAKA31 PTSA 220000
METAR PTSA 212350Z 11010KT 10SM BKN019 BKN130 BKN300 28/25 A2982
