SACA31 KWBC 212300
METAR
MBJT NIL=
MBPV NIL=
MBSC NIL=
MKJP 212300Z 12010KT 9999 FEW020 FEW022CB 29/24 Q1011=
MKJS NIL=
MUCM 212250Z 36006KT 8000 BKN020 25/23 Q1013=
MUCU 212250Z VRB03KT 9000 FEW020 SCT080 28/24 Q1012=
MUHA 212250Z 01008KT 9000 SCT030 24/16 Q1015=
MUVR 212250Z 36007KT 9000 FEW020 SCT050 23/17 Q1014=
MWCB 212300Z 06004KT 8000 SCT016TCU 27/23 Q1012=
MWCR 212300Z 03003KT 9999 -SHRA FEW015 BKN090 27/24 Q1012 REFC=
MYAM NIL=
MYEG NIL=
MYEH NIL=
MYGF 212300Z 03013KT 9999 FEW030 SCT040 BKN090 25/17 A2993=
MYNN NIL=
