SAUS70 KWBC 220018 RRD
METAR
KHVS 220015Z AUTO 00000KT 10SM SCT042 BKN048 BKN055 10/M00 A3012
     RMK AO2=
KHWY 220015Z AUTO 00000KT 10SM CLR 05/01 A3017 RMK AO2
     T00490006=
KHZE 220015Z AUTO 01007KT 10SM FEW050 OVC065 11/03 A2954 RMK
     AO2=
KHZL 220015Z AUTO 00000KT 10SM CLR 07/M01 A3014 RMK AO2=
KI23 220015Z AUTO 17006KT 10SM CLR 12/M00 A2998 RMK AO1=
KI68 220015Z AUTO 17006KT 10SM CLR 14/01 A2997 RMK AO1
     T01380009=
KIDI 220015Z AUTO 00000KT 10SM SCT050 BKN060 07/02 A3008 RMK
     A01=
KINF 220015Z AUTO 00000KT 10SM CLR 13/07 A3007 RMK AO2=
KIRS 220015Z AUTO 20008KT 10SM CLR 16/01 A2979 RMK AO2
     T01610011=
KJFZ 220015Z AUTO 14003KT 10SM CLR 12/00 A3010 RMK AO2
     T01170000=
KJYM 220015Z AUTO 18007KT 10SM CLR 16/00 A2982 RMK AO2
     T01640003=
KJZI 220015Z AUTO 00000KT 10SM CLR 12/09 A3012 RMK AO2=
KKY8 220015Z AUTO 13003KT 10SM FEW039 18/05 A2993 RMK A01=
KL08 220015Z AUTO 12006KT 10SM CLR 32/06 A2975 RMK AO2=
KL35 220015Z AUTO 24004KT 10SM CLR 15/02 A3010 RMK AO2=
KL52 220015Z AUTO VRB05G10KT 6SM BR CLR 16/14 A2990 RMK A01=
KLBO 220015Z AUTO 16007KT 10SM CLR 20/M01 A2980 RMK AO2=
KLKR 220015Z AUTO 00000KT 10SM FEW038 FEW044 SCT065 10/03 A3013
     RMK AO2=
KLRO 220015Z AUTO 00000KT 10SM CLR 12/10 A3011 RMK AO2=
KLRU 220015Z AUTO 26018KT 10SM CLR 24/04 A2998 RMK AO2
     T02440036=
KLRY 220015Z AUTO 19004KT 10SM CLR 24/02 A2970 RMK AO2=
KLVL 220015Z AUTO 00000KT 10SM CLR 11/06 A3015 RMK AO1
     T01050059=
KLWA 220015Z AUTO 19009KT 10SM CLR 20/03 A2972 RMK AO2
     T01960027=
KM40 220015Z AUTO 15006KT 10SM CLR 20/12 A3001 RMK AO2=
KS24 220015Z AUTO 19010KT 10SM CLR 17/02 A2988 RMK AO2=
K04W 220015Z AUTO 00000KT 10SM CLR 07/02 A2961 RMK AO2=
K22N 220015Z AUTO 00000KT 10SM CLR 03/00 A3014 RMK AO2=
K6B0 220015Z AUTO 00000KT 10SM CLR 08/00 A3008 RMK AO2
     T00790004=
KACB 220015Z AUTO 00000KT 10SM CLR 13/07 A2963 RMK AO2
     T01260065=
KBDH 220015Z AUTO 00000KT 10SM CLR 13/02 A2964 RMK AO2=
KBVI 220015Z AUTO 16004KT 10SM CLR 13/M01 A3003 RMK AO2
     T01311012=
KCDA 220015Z AUTO 00000KT 10SM 08/M02 A3009 RMK AO2 T00821021=
KCDI 220015Z AUTO 00000KT 10SM CLR 06/04 A3002 RMK AO2
     T00580035=
KD95 220015Z AUTO 18007KT 10SM CLR 16/M01 A2978 RMK AO2
     T01621006=
KEDJ 220015Z AUTO 18007KT 10SM CLR 15/01 A2995 RMK A01=
KHAF 220015Z AUTO 5SM BR OVC011 14/13 A2989 RMK AO2=
KHCO 220015Z AUTO 24005KT 10SM SCT080 OVC100 12/01 A2951 RMK
     AO2=
KISQ 220015Z AUTO 00000KT 7SM SCT120 08/07 A2959 RMK AO2
     T00760070=
KLXL 220015Z AUTO 00000KT 10SM CLR 08/01 A2961 RMK AO2=
KOXD 220015Z AUTO 00000KT 10SM CLR 17/M04 A2995 RMK AO2
     T01741037=
KPNM 220015Z AUTO 00000KT 10SM CLR 11/03 A2964 RMK AO2 TSNO=
KRQB 220015Z AUTO 16004KT 10SM CLR 15/05 A2969 RMK AO2
     T01530047=
KSJX 220015Z AUTO 23008G15KT 10SM CLR 11/08 A2962 RMK AO2
     T01100077=
KTOB 220015Z AUTO 00000KT 10SM 12/01 A2965 RMK AO2=
KULM 220015Z AUTO 02003KT 10SM CLR 15/M01 A2963 RMK AO2=
KVWU 220015Z AUTO 00000KT 10SM CLR 11/02 A2955 RMK AO2=
KY70 220015Z AUTO 17008KT 10SM CLR 16/04 A2972 RMK AO2
     T01600038=
K14Y 220015Z AUTO 00000KT 10SM CLR 08/00 A2961 RMK AO2=
K1P1 220015Z AUTO 00000KT 10SM CLR 02/01 A3012 RMK AO2
     T00240009=
K3D2 220015Z AUTO 00000KT 10SM CLR 11/08 A2959 RMK AO2
     T01060078=
KAIT 220015Z AUTO 00000KT 10SM CLR 04/01 A2960 RMK AO2=
KAMN 220015Z AUTO 18008KT 10SM CLR 16/04 A2971 RMK AO2
     T01550036=
KAQP 220013Z AUTO 00000KT 7SM 12/00 A2960 RMK AO2=
KAUM 220015Z AUTO 00000KT 10SM CLR 13/03 A2964 RMK AO2=
KCOQ 220015Z AUTO 00000KT 10SM CLR 10/00 A2958 RMK AO2 TSNO=
