SAUS70 KWBC 220100 RRE
METAR
KHUL 220053Z AUTO 19005KT 10SM CLR 06/00 A3008 RMK AO2 SLP192
     T00560000=
KIAH 220053Z 18009KT 10SM CLR 24/14 A2997 RMK AO2 SLP149
     T02390144=
KILM 220053Z 04003KT 10SM SCT041 BKN050 OVC070 16/11 A3012 RMK AO2
     SLP200 T01560106 PWINO $=
KINK 220053Z AUTO 20007KT 10SM CLR 22/07 A2985 RMK AO2 SLP080
     T02220067=
KITR 220053Z AUTO 14012KT 10SM CLR 14/M08 A2969 RMK AO2 SLP029
     T01391083=
KIXD 220053Z 17009KT 10SM CLR 23/05 A2967 RMK AO2 SLP040 T02330050
     $=
KJEF 220053Z 11007KT 10SM CLR 23/01 A2973 RMK AO2 SLP057 T02280006
     $=
KJKL 220053Z AUTO 20004KT 10SM CLR 14/01 A3005 RMK AO2 SLP174
     T01440006=
KLAL 220050Z 01005KT 10SM SKC 17/06 A3006=
KLAR 220053Z AUTO 25012G25KT 10SM CLR 12/M11 A2981 RMK AO2 PK WND
     25029/0003 SLP027 T01171111=
KLAW 220053Z AUTO 25005KT 10SM CLR 23/04 A2971 RMK AO2 SLP059
     T02280039=
KLBF 220053Z AUTO 16006KT 10SM CLR 14/00 A2959 RMK AO2 SLP020
     T01390000=
KLBX 220053Z AUTO 18005KT 10SM FEW041 18/14 A3000 RMK AO2 SLP159
     T01830144=
KLCH 220053Z 18005KT 10SM CLR 18/14 A3002 RMK AO2 SLP173
     T01830144=
KLEB 220053Z 00000KT 10SM CLR 04/01 A3010 RMK AO2 SLP199
     T00390006=
KLFK 220053Z AUTO 17008KT 10SM CLR 23/13 A2994 RMK AO2 SLP138
     T02330128=
KLFT 220053Z 18006KT 10SM CLR 21/13 A3004 RMK AO2 SLP170
     T02110133=
KCAG 220053Z AUTO 23005KT 10SM CLR 08/M08 A2985 RMK AO2 SLP115
     T00831083=
KCDS 220053Z AUTO 19011KT 10SM CLR 23/04 A2973 RMK AO2 SLP051
     T02280044=
KCEW 220053Z AUTO 10SM CLR 12/08 A3012 RMK AO2 SLP200
     T01220083=
KCEZ 220053Z AUTO 15004KT 10SM CLR 11/M01 A2998 RMK AO2 SLP132
     T01111011=
KCGI 220053Z AUTO 18006KT 10SM FU CLR 18/08 A2988 RMK AO2 SLP117
     T01780083=
KCHO 220053Z 00000KT 10SM CLR 09/02 A3014 RMK AO2 SLP207
     T00940022=
KCMI 220053Z 18014KT 10SM CLR 18/03 A2982 RMK AO2 SLP097
     T01780028=
KCNM 220053Z AUTO 24010KT 10SM CLR 22/06 A2986 RMK AO2 SLP080
     T02220056=
KCOT 220053Z AUTO 13006KT 9SM CLR 23/12 A2992 RMK AO2 SLP125
     T02330122=
KCPR 220053Z 24021G28KT 10SM CLR 17/M07 A2960 RMK AO2 PK WND
     24030/0003 SLP978 T01721067=
KCRE 220053Z AUTO 00000KT 10SM CLR 11/09 A3012 RMK AO1 SLP201
     T01060089=
KCRG 220053Z 00000KT 10SM CLR 14/08 A3010 RMK AO2 SLP194
     T01390083=
KCRS 220053Z AUTO 16008KT 10SM CLR 23/09 A2988 RMK AO2 SLP115
     T02330089=
KCSM 220053Z 18014KT 10SM CLR 23/03 A2970 RMK AO2 SLP043
     T02280033=
KCUB 220053Z AUTO 00000KT 10SM CLR 11/06 A3014 RMK AO2 SLP204
     T01060056=
KCXO 220053Z 19011KT 10SM FEW060 24/14 A2996 RMK AO2 SLP141
     T02440139=
KCYS 220053Z 24012KT 10SM CLR 16/M12 A2975 RMK AO2 SLP008
     T01611117=
KDAN 220053Z AUTO 00000KT 10SM CLR 07/02 A3015 RMK AO2 SLP205
     T00670022=
KDEN 220053Z 27007KT 10SM FEW130 SCT200 19/M11 A2973 RMK AO2
     SLP006 T01891106=
KDEQ 220053Z AUTO 00000KT 10SM CLR 17/10 A2984 RMK AO2 SLP102
     T01670100 $=
KDFW 220053Z 16013G23KT 10SM CLR 27/08 A2980 RMK AO2 SLP083
     T02720083=
KDGW 220053Z AUTO 26013G25KT 10SM CLR 19/M08 A2959 RMK AO2 PK WND
     28029/0012 SLP997 T01891083=
KDHN 220053Z AUTO 00000KT 10SM CLR 13/05 A3015 RMK AO2 SLP206
     T01280050=
KDHT 220053Z AUTO 22008KT 10SM CLR 14/01 A2973 RMK AO2 SLP051
     T01390006=
KDMO 220053Z AUTO 17010KT 10SM CLR 19/02 A2972 RMK AO2 SLP060
     T01940022=
KDRO 220053Z AUTO 26007KT 10SM CLR 14/M04 A3001 RMK AO2 SLP139
     T01391039=
KSFB 220053Z 35008KT 10SM CLR 18/10 A3007 RMK AO2 SLP182
     T01830100=
KSGR 220053Z 18010KT 10SM CLR 22/14 A2998 RMK AO2 SLP154
     T02220144=
