SAUS70 KWBC 212300 RRX
METAR
KBOS 212254Z 20011KT 10SM CLR 14/06 A3013 RMK AO2 SLP203
     T01390061=
KBOS 212254Z 20011KT 10SM CLR 14/06 A3013 RMK AO2 SLP203
     T01390061=
