SAUS70 KWBC 220100 RRA
METAR
KHCD 220055Z AUTO 00000KT 10SM CLR 11/00 A2963 RMK AO2
     T01140004=
KHHV 220055Z AUTO 16010G23KT 10SM BKN042 24/14 A3000 RMK A01=
KHVN 220053Z 21005KT 10SM CLR 15/08 A3016 RMK AO2 SLP213
     T01500078=
KHWV 220056Z AUTO 00000KT 10SM CLR 08/06 A3017 RMK AO2 SLP217
     T00830061=
KHYA 220056Z 20005KT 10SM CLR 13/07 A3017 RMK AO2 SLP218
     T01280067=
KNFE 220056Z AUTO 00000KT 10SM CLR 11/07 A3016 RMK AO2 SLP216
     T01060067=
KLBT 220056Z AUTO 00000KT 10SM CLR 10/06 A3013 RMK AO2 SLP204
     T01000061 TSNO=
K2D5 220055Z AUTO 14006KT 4SM HZ FEW018 FEW025 OVC050 11/00 A2955
     RMK AO2=
K2P2 220055Z AUTO 00000KT 10SM CLR 07/07 A2959 RMK AO2
     T00740074=
K46D 220055Z AUTO 00000KT 10SM BKN075 OVC085 10/02 A2955 RMK
     AO2=
K5H4 220055Z AUTO 33005KT 10SM OVC065 09/05 A2956 RMK AO2=
K7L2 220055Z AUTO 10005KT 9SM CLR 12/M01 A2952 RMK AO2=
K82C 220055Z AUTO 00000KT 10SM CLR 10/04 A2964 RMK AO2
     T00980039=
K96D 220055Z AUTO 31010G15KT 9SM -DZ SCT028 OVC039 10/05 A2954 RMK
     AO2=
KANQ 220055Z AUTO 18008KT 10SM FEW036 BKN044 BKN055 16/03 A2983
     RMK AO2=
KBWP 220055Z AUTO 14005KT 9SM OVC049 13/M01 A2954 RMK AO2=
KBWW 220055Z AUTO 36012KT 10SM SCT120 12/02 A2953 RMK AO2=
KCFJ 220055Z AUTO 16007KT 10SM CLR 13/M01 A2987 RMK AO2
     T01321015=
KHZE 220055Z AUTO 05005KT 10SM FEW055 OVC070 10/03 A2953 RMK
     AO2=
KI68 220055Z AUTO 16007KT 10SM CLR 14/01 A2997 RMK AO1
     T01400011=
KIDI 220055Z AUTO 00000KT 10SM BKN050 BKN055 07/02 A3009 RMK
     A01=
KOCQ 220055Z AUTO 00000KT 08/05 A2961 RMK AO1 T00810053=
KRZN 220055Z AUTO 00000KT 10SM CLR 08/02 A2963 RMK AO2
     T00760016=
KSPF 220055Z AUTO 24004KT 10SM CLR 12/M04 A2952 RMK AO2=
KTME 220055Z AUTO 19010KT 10SM CLR 23/15 A2999 RMK AO2=
KUBE 220055Z AUTO 00000KT 10SM CLR 10/05 A2963 RMK AO2=
KGFA 220055Z AUTO 36003KT 10SM -RA OVC046 09/04 A2953 RMK AO2
     SLP003 P0001 T00930039 $=
KEDJ 220055Z AUTO 18008KT 10SM CLR 14/01 A2995 RMK A01=
KEEN 220056Z AUTO 00000KT 10SM CLR 03/02 A3014 RMK AO2 SLP215
     T00330017 $=
KEFK 220055Z AUTO 00000KT 10SM CLR 09/M02 A3008 RMK AO2
     T00851024=
KESC 220056Z AUTO 28003KT 10SM CLR 11/10 A2960 RMK AO2 SLP030
     T01060100 PNO $=
KFFX 220055Z AUTO 20011G14KT 10SM CLR 19/04 A2970 RMK AO2
     T01880040=
KFKA 220055Z AUTO 00000KT 7SM CLR 14/02 A2965 RMK AO2
     T01440019=
KFKL 220056Z AUTO 18010KT 10SM CLR 11/M01 A3003 RMK AO2 SLP176
     T01061006=
KFOD 220056Z AUTO 06004KT 8SM CLR 11/01 A2962 RMK AO2 SLP047
     T01060011=
KOLU 220056Z AUTO 00000KT 6SM HZ CLR 11/M01 A2960 RMK AO2 SLP031
     T01111006=
KONZ 220055Z AUTO 20010KT 10SM OVC090 13/03 A2984 RMK AO2
     T01300030=
KPQI 220056Z AUTO 19005KT 10SM CLR 06/01 A3008 RMK AO2 SLP214
     T00610006=
KRKD 220056Z AUTO 00000KT 10SM CLR 05/04 A3016 RMK AO2 SLP214
     T00500039=
KRQB 220055Z AUTO 17003KT 10SM CLR 16/05 A2970 RMK AO2
     T01630050=
KS24 220055Z AUTO 19012G17KT 10SM CLR 16/02 A2989 RMK AO2=
KSGH 220056Z AUTO 19006KT 10SM CLR 14/01 A2997 RMK AO2 SLP152
     T01390006=
KSJX 220055Z AUTO 22007KT 10SM CLR 11/08 A2962 RMK AO2
     T01050077=
K0S9 220055Z AUTO 00000KT 5SM -RA BKN035 OVC041 09/08 A2971 RMK
     AO2 P0003=
KALM 220055Z AUTO 15004KT 10SM CLR 18/06 A2995 RMK AO2=
KATA 220055Z AUTO 00000KT 10SM CLR 17/13 A2987 RMK AO2 SLP014
     T01670127 $=
KATS 220055Z AUTO 25007KT 10SM CLR 23/09 A2989 RMK AO2=
KBFL 220054Z 34005KT 8SM CLR 30/04 A2976 RMK AO2 SLP071
     T03000039=
KBKS 220055Z AUTO 13009KT 10SM CLR 23/17 A2995 RMK AO2 SLP101
     T02320165 $=
KBXK 220055Z AUTO 00000KT 10SM CLR 28/11 A2979 RMK A01=
