SAUS70 KWBC 220100 RRW
METAR
KHRX 220055Z AUTO 22011KT 10SM CLR 22/00 A2979 RMK AO2
     T02191005=
KHSB 220055Z AUTO 00000KT 10SM CLR 16/07 A2989 RMK AO2
     T01560074=
KHSD 220055Z AUTO 16008KT 10SM CLR 25/02 A2969 RMK A01=
KHZD 220055Z AUTO 17005KT 10SM FEW055 17/10 A2993 RMK A01=
KI35 220055Z AUTO 00000KT 10SM CLR 09/02 A3009 RMK AO2
     T00860021=
KI74 220055Z AUTO 18005KT 10SM CLR 12/01 A2996 RMK AO2=
KIER 220055Z AUTO 18004KT 10SM CLR 22/14 A2995 RMK AO2
     T02150136=
KIFA 220055Z AUTO 00000KT 10SM CLR 15/01 A2964 RMK AO2
     T01460010=
KIFP 220055Z AUTO 18011KT 10SM CLR 31/03 A2973 RMK AO2=
KIGQ 220055Z AUTO 20010G14KT 10SM CLR 18/04 A2976 RMK AO2
     T01810043=
KINJ 220055Z AUTO 17013G16KT 10SM CLR 26/09 A2985 RMK AO2
     T02610086=
KJAU 220050Z AUTO 00000KT 10SM CLR 08/03 A3012 RMK A01=
KJPX 220055Z AUTO 00000KT 10SM CLR 09/08 A3017 RMK AO2
     T00920075=
KANW 220055Z AUTO 15004KT 10SM CLR 13/M01 A2956 RMK AO2
     T01341012=
KARM 220055Z AUTO 18007KT 10SM CLR 21/14 A2999 RMK AO2 T02120140
     TSNO=
KASN 220055Z AUTO 00000KT 10SM CLR 13/06 A3009 RMK AO2
     T01320060=
KAUO 220056Z AUTO 00000KT 10SM CLR 13/06 A3013 RMK AO2 SLP228
     T01330061=
KAVK 220055Z AUTO 18014KT 10SM CLR 26/M05 A2962 RMK AO2 PWINO=
KAVQ 220055Z AUTO 26006KT 10SM CLR 30/06 A2983 RMK AO2
     T02970060=
KAWO 220056Z AUTO 04004KT 7SM -RA SCT030 BKN039 OVC047 08/07 A2973
     RMK AO2 SLP072 P0003 T00830072=
KAXH 220055Z AUTO 18003KT 10SM CLR 21/15 A3001 RMK AO2
     T02140145=
KAXS 220055Z AUTO 19012KT 10SM CLR 26/02 A2971 RMK AO2
     T02570015=
KAZC 220055Z AUTO 29005KT 10SM CLR 18/00 A2996 RMK AO2=
KBAM 220055Z AUTO 24009KT 10SM CLR 21/M07 A2978 RMK AO1=
KBDN 220055Z AUTO 22018G26KT 10SM SCT065 SCT075 16/07 A2967 RMK
     AO2=
KBDU 220055Z AUTO 23006KT 10SM CLR 21/M08 A2973 RMK AO2=
KBGF 220055Z AUTO 14005KT 10SM CLR 15/02 A3005 RMK A01=
KBKD 220055Z AUTO 17006KT 10SM CLR 27/04 A2979 RMK AO2
     T02700036=
KBKX 220056Z AUTO 11006KT 10SM CLR RMK AO2 SLPNO FZRANO $=
KBNW 220055Z AUTO 00000KT 7SM CLR 17/00 A2964 RMK AO2=
KBOK 220056Z AUTO 12003KT 6SM -RA OVC014 13/10 A2991 RMK AO2 RAB32
     SLP129 P0000 T01280100 $=
KBPC 220055Z AUTO 20009KT 10SM CLR 20/M06 A2967 RMK AO2=
KBTA 220055Z AUTO 10003KT 10SM CLR 20/01 A2959 RMK AO2
     T01950006=
KBTN 220055Z AUTO 16007KT 5SM HZ SCT017 OVC024 12/00 A2954 RMK
     AO2=
KBXA 220055Z AUTO 16005KT 10SM CLR 19/12 A3007 RMK AO2
     T01920121=
KC09 220055Z AUTO 18009KT 10SM CLR 19/05 A2973 RMK AO2
     T01860050=
KC83 220055Z AUTO 25012G19KT 10SM CLR 23/10 A2977 RMK AO2=
KCCY 220055Z AUTO 03004KT 8SM CLR 13/00 A2964 RMK AO2=
KCGZ 220056Z AUTO 32005KT 10SM CLR 28/11 A2982 RMK AO2 SLP088
     T02780106 $=
KCMA 220055Z 27010KT 6SM HZ OVC014 19/16 A2984 RMK AO2 SLP113
     T01940161=
KCOE 220056Z AUTO 17008KT 10SM -RA OVC021 04/03 A2966 RMK AO2
     SLP066 T00440033 PNO $=
KCRX 220055Z AUTO 16006KT 10SM CLR 18/09 A2997 RMK AO2=
KCSQ 220055Z AUTO 08003KT 9SM CLR 15/02 A2961 RMK AO2=
KCTB 220056Z AUTO 15004KT 10SM OVC070 04/03 A2954 RMK AO2 SLP013
     T00390033=
KCVC 220055Z AUTO 00000KT 10SM CLR 10/03 A3012 RMK AO2=
KMNV 220055Z AUTO 00000KT 3SM HZ 09/02 A3009 RMK A01=
KMNZ 220055Z AUTO 17008KT 10SM CLR 24/06 A2987 RMK AO2
     T02440055=
KMOP 220055Z AUTO 19004KT 10SM CLR 16/05 A2971 RMK AO2
     T01560045=
KMOR 220055Z AUTO 00000KT 10SM FEW047 10/01 A3007 RMK A01=
KMRC 220050Z AUTO 15004KT 10SM CLR 18/08 A2998 RMK A01=
KMUT 220055Z AUTO 15004KT 10SM CLR 18/03 A2966 RMK AO2=
KMVH 220055Z AUTO 10004KT 7SM 07/05 A2957 RMK AO2 P0005 PWINO=
