SAUS70 KWBC 220232
METAR
KBNL 220235Z AUTO 00000KT 10SM FEW045 FEW060 07/03 A3015 RMK
     AO2=
KETB 220235Z AUTO 00000KT 10SM CLR 10/03 A2968 RMK AO2=
KFRH 220235Z AUTO 16005KT 10SM CLR 16/00 A2994 RMK AO1=
KGWW 220235Z AUTO 00000KT 10SM SCT050 08/07 A3018 RMK AO2
     T00750065=
KIPJ 220235Z AUTO 00000KT 10SM CLR 05/04 A3016 RMK AO2
     T00460037=
KLHZ 220235Z AUTO 00000KT 10SM CLR 05/03 A3019 RMK AO2=
KOCW 220215Z AUTO 00000KT 10SM 13/08 A3018 RMK AO2 T01320075=
KOIC 220235Z AUTO 00000KT 10SM CLR 05/M01 A3013 RMK AO2
     T00451010=
KRRL 220235Z AUTO 00000KT 10SM CLR 05/02 A2965 RMK AO2 T00470021
     TSNO=
KTGI 220235Z AUTO 13006KT 10SM CLR 15/10 A3019 RMK AO1
     T01450101=
K6S8 220225Z AUTO 04012KT 10SM 10/05 A2955 RMK A01 Laurel=
KDYA 220235Z AUTO 15003KT 10SM CLR 16/12 A3007 RMK AO2
     T01550122=
KFRR 220235Z AUTO 00000KT 10SM CLR 07/01 A3014 RMK AO1=
KJYO 220235Z AUTO 19004KT 10SM CLR 10/03 A3018 RMK AO2=
KLQK 220235Z AUTO 10SM CLR 04/02 A3016 RMK AO2 T00430022=
KMYJ 220235Z AUTO 18009KT 10SM CLR 18/02 A2974 RMK AO2=
KPBH 220235Z AUTO 00000KT 10SM CLR 03/01 A2965 RMK AO2
     T00320010=
KPTB 220235Z AUTO 00000KT 10SM CLR 05/04 A3019 RMK AO2
     T00540041=
KVNW 220235Z AUTO 18008KT 10SM CLR 14/00 A2992 RMK AO2=
