SAUS70 KWBC 220000 RRH
METAR
K0E0 212355Z AUTO 27012G19KT 10SM CLR 19/M02 A3001 RMK AO2
     T01891023 10208 20176 TSNO=
KBEA 212355Z AUTO 14010G15KT 10SM CLR 23/13 A2994 RMK AO2
     T02340132 10293 20234=
KGEU 212353Z 22006KT 10SM FEW250 30/09 A2979=
KITR 212353Z AUTO 13009KT 10SM CLR 19/M08 A2969 RMK AO2 SLP025
     T01891078 10272 20189 56016=
KLGU 212351Z AUTO 19010KT 10SM CLR 21/M06 A2975 RMK AO2 SLP049
     T02111061 10222 20167 58020=
KLHX 212353Z AUTO 00000KT 10SM CLR 24/M12 A2970 RMK AO2 SLP014
     T02441117 10278 20244 56015=
KMWH 212352Z 18011KT 10SM CLR 12/03 A2963 RMK AO2 SLP037 60002
     T01170033 10133 20089 56023=
KTPL 212351Z AUTO 17012KT 10SM CLR 27/08 A2988 RMK AO2 SLP110
     6//// T02670083 10322 20267 55002=
KTRM 212352Z AUTO 13009KT 10SM CLR 32/08 A2972 RMK AO2 SLP064
     T03170083 10339 20300 56017=
KBIS 212352Z 06007KT 10SM FEW100 13/01 A2951 RMK AO2 SLP997
     T01280006 10150 20122 58007=
KBLF 212352Z AUTO 16005KT 10SM CLR 12/M02 A3011 RMK AO2 SLP192
     T01221022 10161 20111 53006=
KBML 212352Z AUTO 00000KT 10SM CLR 02/M01 A3009 RMK AO2 SLP204
     T00221006 10150 20017 51017=
KDPA 212352Z 19010KT 10SM CLR 20/04 A2969 RMK AO2 SLP056 T02000044
     10244 20194 53012=
KIEN 212352Z AUTO 16008KT 10SM CLR 18/M06 A2950 RMK AO2 SLP986
     T01831061 10244 20172 57019=
KLUM 212355Z AUTO 00000KT 10SM CLR 14/08 A2961 RMK AO2 T01380076
     10207 20137 PWINO=
KMIC 212353Z 00000KT 10SM CLR 13/02 A2961 RMK AO2 SLP028 T01280022
     10200 20128 53014=
KMKE 212352Z 22011KT 10SM CLR 21/04 A2965 RMK AO2 SLP039 T02110039
     10250 20211 53021=
KORE 212352Z AUTO 00000KT 10SM CLR 05/01 A3014 RMK AO2 SLP211
     T00500011 10156 20050 53013=
KPIR 212353Z AUTO 15010KT 10SM CLR 16/02 A2950 RMK AO2 SLP986
     T01610017 10206 20144 56018=
KPWK 212352Z 20010KT 10SM CLR 22/03 A2970 RMK AO2 SLP058 T02170033
     10244 20206 53013=
KSDC 212355Z AUTO 16007KT 130V200 10SM CLR 13/M02 A2997 RMK
     AO2=
KSSF 212353Z 17007KT 10SM CLR 27/09 A2989 RMK AO2 SLP117 T02670089
     10300 20267 56006 $=
KSSI 212353Z AUTO 04005KT 10SM CLR 16/04 A3009 RMK AO2 SLP191
     T01610044 10211 20161 53006=
KSTJ 212353Z 18008KT 10SM CLR 21/04 A2961 RMK AO2 SLP023 60000
     T02060039 10294 20206 53004 $=
KSTP 212353Z 00000KT 10SM CLR 14/02 A2962 RMK AO2 SLP030 T01440017
     10206 20133 53011=
KTCC 212353Z AUTO 26014KT 10SM CLR 23/00 A2975 RMK AO2 SLP032
     T02330000 10272 20233 56009=
KTKI 212353Z 17012KT 10SM CLR 27/08 A2980 RMK AO2 SLP093 T02720078
     10317 20272 55006=
KTRL 212353Z AUTO 18007KT 10SM CLR 26/07 A2983 RMK AO2 SLP099
     T02610072 10317 20261 55004=
KTUL 212353Z 16009KT 10SM SCT180 28/06 A2970 RMK AO2 SLP050 60000
     T02780061 10317 20267 55007=
KTVC 212353Z 21009G20KT 10SM FEW180 18/04 A2961 RMK AO2 SLP026
     T01780044 10222 20178 53027=
KTXK 212353Z 17004KT 10SM CLR 24/10 A2986 RMK AO2 SLP108 T02390100
     10306 20239 55005=
KTYR 212353Z 18007KT 10SM CLR 24/12 A2986 RMK AO2 SLP107 T02440117
     10306 20244 55008 $=
KUNO 212353Z AUTO 15005KT 10SM CLR 21/08 A2985 RMK AO2 SLP103
     T02060078 10272 20206 53003=
KUTS 212353Z AUTO 17004KT 10SM CLR 27/11 A2991 RMK AO2 SLP125
     T02670111 10300 20267 56002=
KUUU 212353Z AUTO 19004KT 10SM CLR 13/07 A3016 RMK AO2 SLP212
     T01280067 10161 20128 53010=
KVLD 212353Z AUTO 00000KT 10SM CLR 12/05 A3009 RMK AO2 SLP199
     T01220050 10228 20122 53007=
KWST 212353Z AUTO 21006KT 10SM CLR 14/08 A3016 RMK AO2 SLP213
     T01440083 10172 20144 53010=
KXVG 212353Z AUTO 00000KT 10SM CLR 08/01 A2958 RMK AO2=
