SAUS70 KWBC 220100 RRG
METAR
KUXL 220055Z AUTO 17004KT 10SM CLR 19/15 A3003 RMK AO2
     T01850150=
KUZA 220054Z AUTO 00000KT 10SM CLR 08/01 A3014 RMK AO2 SLP210
     T00780011=
KVGC 220055Z AUTO 15008KT 10SM CLR 06/M02 A3008 RMK AO2=
KLRO 220055Z AUTO 00000KT 10SM CLR 11/10 A3012 RMK AO2=
KLRU 220055Z AUTO 26009KT 10SM CLR 22/05 A2999 RMK AO2
     T02240050=
KLRY 220055Z AUTO 20006KT 10SM CLR 23/02 A2971 RMK AO2=
KLUX 220055Z AUTO 14003KT 10SM CLR 08/01 A3014 RMK AO2=
KLVL 220055Z AUTO 00000KT 10SM CLR 10/06 A3016 RMK AO1
     T01010056=
KLWT 220054Z AUTO 30003KT 6SM -RA BR BKN022 OVC030 07/05 A2956 RMK
     AO2 SLP001 P0006 T00720050=
KM40 220055Z AUTO 15008KT 10SM CLR 19/13 A3002 RMK AO2=
KMAN 220055Z AUTO 02008KT 10SM CLR 19/03 A2964 RMK A01=
KMAO 220055Z AUTO 00000KT 10SM CLR 09/05 A3014 RMK AO2=
KMBO 220055Z AUTO 00000KT 10SM CLR 17/13 A2999 RMK AO2=
KMBY 220055Z AUTO 16007KT 10SM CLR 21/00 A2970 RMK AO2=
KMDS 220055Z AUTO 13008KT 10SM CLR 11/M01 A2959 RMK AO2=
KMEZ 220055Z AUTO 00000KT 10SM 19/07 A2987 RMK AO2 T01890065 $=
KMKJ 220055Z AUTO 00000KT 10SM CLR 06/00 A3016 RMK AO2
     T00621003=
KMNI 220055Z AUTO 00000KT 10SM CLR 08/05 A3014 RMK AO2=
KMTV 220055Z AUTO 00000KT 10SM CLR 05/01 A3017 RMK AO2
     T00530014=
KN38 220055Z AUTO 20007KT 10SM CLR 08/M02 A3007 RMK AO2=
KO22 220055Z AUTO 20004KT 10SM CLR 26/02 A2985 RMK A01=
KO32 220055Z AUTO 00000KT 7SM CLR 28/10 A2976 RMK AO2 T02780105
     $=
KOCQ 220055Z AUTO 00000KT 08/05 A2961 RMK AO1 T00810053=
KOEO 220055Z AUTO 00000KT 10SM CLR 08/04 A2966 RMK AO2
     T00790040=
KOKV 220055Z AUTO 00000KT 10SM CLR 06/00 A3010 RMK AO2=
KOLG 220055Z AUTO 00000KT 10SM CLR 07/00 A2960 RMK AO1=
KOMH 220055Z AUTO 00000KT 10SM CLR 06/02 A3016 RMK AO2=
KONM 220055Z AUTO 19006KT 10SM SCT100 20/04 A2995 RMK AO2
     T02000037=
KORS 220055Z AUTO 17003KT 7SM -RA SCT046 BKN055 OVC065 10/ A2970
     RMK AO2=
KOZS 220055Z AUTO 16007KT 10SM CLR 20/00 A2976 RMK AO2=
KPAN 220055Z AUTO 00000KT 10SM CLR 18/04 A3004 RMK AO2 PWINO
     TSNO=
KPCM 220055Z AUTO 36004KT 10SM CLR 19/06 A3008 RMK AO2=
KPGV 220055Z AUTO 00000KT 10SM BKN060 11/08 A3015 RMK AO2=
KPLR 220055Z AUTO 00000KT 10SM FEW037 BKN046 OVC055 11/07 A3010
     RMK A01=
KPVB 220055Z AUTO 13005KT 10SM CLR 19/01 A2966 RMK AO1
     T01860010=
KPVF 220055Z AUTO 22004KT 10SM CLR 22/04 A2989 RMK AO1=
KRCE 220055Z AUTO 16011KT 10SM CLR 23/02 A2970 RMK AO2=
KRMN 220055Z AUTO 32003KT 10SM CLR 08/05 A3018 RMK AO2
     T00820048=
KBVY 220053Z 19005KT 10SM CLR 11/06 A3015 RMK AO2 SLP205 T01110061
     $=
KCDW 220053Z 30003KT 10SM CLR 09/02 A3015 RMK AO2 SLP217
     T00940022=
KCMI 220053Z 18014KT 10SM CLR 18/03 A2982 RMK AO2 SLP097
     T01780028=
KCMX 220053Z AUTO 29005KT 10SM CLR 09/04 A2958 RMK AO2 SLP021
     T00940039=
KDKK 220053Z AUTO 19014G29KT 10SM CLR 15/M01 A2994 RMK AO2 PK WND
     17029/0048 SLP140 T01501011=
KELM 220053Z 31004KT 10SM CLR 04/M01 A3006 RMK AO2 SLP189
     T00391011=
KHEI 220053Z AUTO 35016G28KT 10SM CLR 16/01 A2950 RMK AO2 PK WND
     33028/0044 SLP991 T01560011=
KHIB 220053Z AUTO 00000KT 10SM CLR 04/02 A2958 RMK AO2 SLP027
     T00440022=
KHZY 220053Z AUTO 17010KT 10SM CLR 14/01 A2997 RMK AO2 SLP152
     T01390006=
KPKD 220053Z AUTO 18004KT 10SM CLR 11/00 A2957 RMK AO2 SLP023
     T01060000=
KPOU 220053Z AUTO 00000KT 10SM CLR 05/02 A3013 RMK AO2 SLP202
     T00500017=
KSMQ 220053Z AUTO 00000KT 10SM CLR 06/03 A3014 RMK AO2 SLP206
     T00610028=
KEVU 220055Z AUTO 17008KT 10SM CLR 21/05 A2960 RMK AO2 T02110050
     TSNO=
KEWN 220054Z 00000KT 10SM FEW043 OVC075 15/11 A3014 RMK AO2 SLP205
     T01500111=
