SAUS70 KWBC 220010
METAR
K1A5 220015Z AUTO 00000KT 10SM CLR 11/00 A3015 RMK AO2
     T01060000=
KEFT 220015Z AUTO 22012KT 10SM CLR 19/03 A2964 RMK AO2
     T01850025=
KHNZ 220015Z AUTO 00000KT 10SM CLR 08/04 A3014 RMK AO2
     T00760043=
KJXI 220015Z AUTO 15003KT 10SM CLR 25/09 A2986 RMK AO2
     T02450088=
KPDC 220015Z AUTO 00000KT 10SM CLR 14/04 A2963 RMK AO2
     T01420036=
KW31 220015Z AUTO 00000KT 10SM CLR 09/05 A3014 RMK AO1
     T00860053=
KW96 220015Z AUTO 00000KT 10SM CLR 09/05 A3015 RMK AO1
     T00930046=
KDLL 220015Z AUTO 00000KT 10SM CLR 13/02 A2963 RMK AO2
     T01280023=
KEZS 220015Z AUTO 00000KT 10SM CLR 14/06 A2961 RMK AO2
     T01360055=
KGAF 220015Z AUTO 25005KT 9SM SCT085 11/01 A2953 RMK AO2=
KSUW 220015Z AUTO 00000KT 10SM CLR 08/02 A2958 RMK AO2
     T00750022=
KBNL 220015Z AUTO 00000KT 10SM CLR 11/03 A3012 RMK AO2=
KC62 220035Z AUTO 19008KT 10SM CLR 16/03 A2983 RMK AO2
     T01690037=
KETB 220015Z AUTO 20003KT 10SM CLR 16/03 A2964 RMK AO2=
KLHZ 220015Z AUTO 00000KT 10SM CLR 07/03 A3015 RMK AO2=
KRRL 220015Z AUTO 00000KT 10SM CLR 11/03 A2961 RMK AO2 T01070034
     TSNO=
KUNU 220015Z AUTO 00000KT 10SM CLR 15/04 A2965 RMK AO2
     T01510042=
