SAUS80 KWBC 220100 RRB
METAR
KBNO 220053Z AUTO 26009G19KT 10SM OVC120 16/01 A2970 RMK AO2
     SLP050 T01560011=
KLND 220053Z AUTO 23008KT 10SM CLR 17/M07 A2963 RMK AO2 SLP991
     T01721067=
KPGA 220053Z AUTO 24004KT 10SM CLR 23/M03 A2987 RMK AO2 SLP067
     T02281028=
K12N 220054Z AUTO 00000KT 07/02 A3014 RMK AO1 SLP212 T00720022=
KATT 220051Z AUTO VRB04KT 10SM CLR 25/09 A2992 RMK AO2 SLP124
     T02500089=
KLAN 220053Z 18009KT 10SM CLR 16/04 A2977 RMK AO2 SLP082 T01610044
     $=
KDAB 220053Z 32007KT 10SM CLR 18/10 A3007 RMK AO2 SLP183
     T01780100=
KSAV 220053Z 00000KT 10SM CLR 12/05 A3013 RMK AO2 SLP202
     T01170050=
KUIL 220053Z AUTO 00000KT 10SM -RA BKN005 BKN012 OVC070 09/08
     A2973 RMK AO2 SLP068 P0002 T00940083=
KBDR 220052Z 22008KT 10SM CLR 14/07 A3016 RMK AO2 SLP212
     T01390072=
KODX 220053Z AUTO 00000KT 10SM CLR 09/M01 A2958 RMK AO2 SLP026
     T00891011=
KFAT 220053Z 33003KT 10SM FEW180 31/05 A2977 RMK AO2 SLP076 MTNS
     PTLY OBSC HZ DSNT N-E-SE T03060050=
KGEG 220053Z 19006KT 10SM FEW010 BKN035 OVC055 06/03 A2963 RMK AO2
     SLP039 T00610033=
KYKM 220053Z AUTO 10005KT 10SM BKN080 BKN090 10/06 A2964 RMK AO2
     SLP041 T01000061=
KDWU 220056Z AUTO 00000KT 10SM CLR 09/06 A3004 RMK AO2 SLP175
     T00890056=
KEAR 220056Z AUTO 18005KT 9SM CLR 15/M01 A2962 RMK AO2 SLP025
     T01501011=
KHON 220055Z AUTO 15006KT 10SM CLR 13/01 A2955 RMK AO2 SLP011
     T01280006=
PFNO 220056Z AUTO 12008KT 9SM OVC019 02/01 A2974 RMK AO2 SLP152
     T00220006 FZRANO=
KPHP 220055Z AUTO 09006KT 10SM CLR 14/00 A2945 RMK AO2 SLP971
     T01440000=
KSYN 220055Z AUTO 19003KT 5SM HZ CLR 10/02 A2964 RMK AO2
     T01020020=
PADK 220056Z AUTO 00000KT SCT012 BKN019 OVC025 06/05 A2994 RMK AO2
     SLP139 P0002 T00610050 PWINO $=
KIRK 220055Z AUTO 18009KT 10SM CLR 21/03 A2967 RMK AO2 SLP049
     T02060028 $=
KISM 220056Z 02006KT 10SM CLR 19/09 A3008 RMK AO2 SLP185 T01940094
     PNO $=
KLIC 220055Z AUTO 01005KT 10SM CLR 08/M14 A2974 RMK AO2 SLP047
     T00831139=
KMKG 220055Z 19013G20KT 10SM SCT170 18/08 A2971 RMK AO2 PK WND
     20028/2359 SLP061 T01830083=
KCNK 220055Z AUTO 12003KT 10SM CLR 21/00 A2959 RMK AO2 SLP011
     T02110000=
KCAR 220054Z AUTO 21005KT 10SM CLR 07/M01 A3005 RMK AO2 SLP184
     T00671011=
KCRW 220054Z 00000KT 10SM CLR 11/03 A3004 RMK AO2 SLP177
     T01060028=
KLYV 220055Z AUTO 07003KT 10SM CLR 11/01 A2962 RMK AO2=
KORH 220054Z 22007KT 10SM CLR 08/02 A3015 RMK AO2 SLP215
     T00780022=
KPOV 220055Z AUTO 15003KT 10SM CLR 11/M02 A2998 RMK AO2 T01091016
     PWINO=
KRFD 220054Z 18008KT 10SM CLR 18/04 A2969 RMK AO2 SLP055
     T01780044=
KFNT 220053Z 19009G18KT 10SM CLR 16/04 A2977 RMK AO2 SLP082
     T01610044=
KPZQ 220055Z AUTO 20006KT 10SM CLR 16/05 A2965 RMK AO2
     T01590053=
KFAR 220053Z AUTO 18005KT 10SM FEW110 12/M02 A2955 RMK AO2 SLP011
     T01171017 TSNO=
KMTP 220054Z AUTO VRB03KT 14/09 A3018 RMK AO1 SLP221 T01390089=
KN60 220052Z AUTO 04005KT 09/04 A2952 RMK AO1 SLP005 T00890044=
KNUI 220053Z AUTO 09003KT CLR 10/07 A3015 RMK AO2 SLP209
     T01000072=
KPIA 220054Z 19010KT 10SM CLR 20/03 A2972 RMK AO2 SLP065
     T02000033=
KROC 220054Z 19007KT 10SM CLR 12/M01 A2996 RMK AO2 SLP152
     T01221006=
KSYR 220054Z 18012G21KT 10SM FEW200 FEW250 14/M03 A3002 RMK AO2
     SLP163 T01391033=
KATT 220051Z AUTO VRB04KT 10SM CLR 25/09 A2992 RMK AO2 SLP124
     T02500089=
KCOS 220054Z VRB05KT 10SM FEW230 18/M11 A2980 RMK AO2 SLP017
     T01831106=
KP68 220053Z AUTO 25008KT 18/M12 A2988 RMK AO1 SLP072
     T01781117=
KP69 220052Z AUTO 00000KT 08/07 A2972 RMK AO1 SLP069 P0009
     T00830067=
