SAUS70 KWBC 212300 RRE
METAR
KMDS 212255Z AUTO 00000KT 10SM CLR 17/00 A2960 RMK AO2=
KMEZ 212255Z AUTO VRB03KT 10SM CLR 25/06 A2986 RMK AO2
     T02510056=
KMKJ 212255Z AUTO 00000KT 10SM CLR 12/00 A3013 RMK AO2
     T01150000=
KMNI 212255Z AUTO 00000KT 10SM CLR 13/05 A3010 RMK AO2=
KMRY 212254Z VRB06KT 8SM BKN009 15/12 A2991 RMK AO2 SLP139
     T01500117=
KMTN 212254Z 00000KT 10SM CLR 11/04 A3014=
KMTV 212255Z AUTO 00000KT 10SM CLR 10/01 A3014 RMK AO2
     T01040011=
KN38 212255Z AUTO 19010KT 10SM CLR 10/M03 A3003 RMK AO2=
KO22 212255Z AUTO 18004KT 10SM CLR 29/00 A2986 RMK A01=
KO32 212255Z AUTO 28003KT 9SM CLR 31/09 A2978 RMK AO2 T03050089
     $=
KOEO 212255Z AUTO 26003KT 10SM CLR 16/05 A2961 RMK AO2
     T01620050=
KOKV 212255Z AUTO 14004KT 10SM CLR 11/00 A3008 RMK AO2=
KOLG 212255Z AUTO 29003KT 10SM CLR 15/00 A2957 RMK AO1=
KOMH 212255Z AUTO 00000KT 10SM CLR 08/03 A3013 RMK AO2=
KONM 212255Z AUTO 14007KT 10SM CLR 25/02 A2997 RMK AO2
     T02450018=
KORS 212255Z AUTO 18004KT 5SM -RA HZ FEW035 OVC044 10/ A2973 RMK
     AO2=
KOZS 212255Z AUTO 17007KT 10SM CLR 26/M02 A2975 RMK AO2=
KPAN 212255Z AUTO 21007G12KT 10SM CLR 22/04 A3006 RMK AO2 PWINO
     TSNO=
KPCM 212255Z AUTO 36004KT 10SM CLR 22/06 A3005 RMK AO2=
KPGV 212255Z AUTO 00000KT 10SM CLR 16/03 A3011 RMK AO2=
KPLR 212255Z AUTO 00000KT 10SM CLR 17/06 A3007 RMK A01=
KPVF 212255Z AUTO 22005KT 10SM CLR 25/03 A2992 RMK AO1=
KRBL 212254Z AUTO 18008KT 10SM CLR 28/06 A2976 RMK AO2 SLP073
     T02830061=
KRCE 212255Z AUTO 19015G24KT 10SM CLR 30/01 A2970 RMK AO2=
KRMN 212255Z AUTO 00000KT 10SM CLR 14/03 A3015 RMK AO2
     T01350031=
KRNH 212255Z AUTO 00000KT 10SM CLR 15/05 A2960 RMK AO2
     T01530054=
KRPH 212255Z AUTO 20011G18KT 9SM CLR 32/03 A2976 RMK AO2 T03180027
     $=
PAHN 212254Z AUTO 10006KT 10SM SCT020 OVC034 09/05 A2963 RMK AO2
     SLP035 T00890050 TSNO=
PAKN 212254Z 26015G20KT 10SM FEW024 08/03 A2996 RMK AO2 SLP147
     T00780033=
PABA 212252Z AUTO 10015KT 10SM OVC016 M03/M06 A2991 RMK AO2 SLP134
     T10331056 FZRANO PNO $=
TJBQ 212250Z 13003KT 10SM SCT023 SCT036 SCT050 26/23 A2991=
KD95 212255Z AUTO 17005KT 10SM CLR 17/M01 A2976 RMK AO2
     T01691015=
KDTL 212255Z AUTO 00000KT 10SM CLR 14/M00 A2958 RMK AO2=
KDYR 212256Z AUTO 19005KT 10SM FEW002 24/10 A2990 RMK AO2 SLP130
     T02390100=
KEDJ 212255Z AUTO 20009KT 10SM CLR 17/01 A2993 RMK A01=
KEEN 212256Z AUTO 00000KT 10SM CLR 08/02 A3012 RMK AO2 SLP207
     T00780022 $=
KEFK 212255Z AUTO 15009KT 10SM CLR 09/M02 A3005 RMK AO2
     T00891017=
KEGE 212256Z 27017G23KT 10SM CLR 18/M09 A2992 RMK AO2 PK WND
     29026/2211 SLP051 T01831089=
KEHR 212256Z AUTO 17009KT 10SM CLR 21/02 A2989 RMK AO2 SLP120
     T02110017=
KEKQ 212256Z AUTO 15005KT 10SM CLR 16/02 A3003 RMK AO2 SLP168
     T01610017=
KENV 212256Z AUTO 25015KT 10SM CLR 26/M11 A2976 RMK AO2 SLP053
     T02561106=
KESC 212256Z AUTO 00000KT 10SM CLR 13/08 A2955 RMK AO2 SLP012
     T01330083 PNO $=
KEWK 212256Z AUTO 18010KT 10SM CLR 28/01 A2964 RMK AO2 SLP024
     T02830011=
KFAM 212256Z AUTO 18009G16KT 10SM CLR 23/06 A2983 RMK AO2 SLP110
     T02280061=
KFCI 212256Z AUTO 28004KT 10SM CLR 11/04 A3013 RMK AO2 SLP215
     T01110039=
KFFX 212255Z AUTO 21011KT 10SM CLR 20/03 A2964 RMK AO2
     T01970031=
KFKA 212255Z AUTO 32003KT 7SM CLR 18/02 A2963 RMK AO2
     T01840015=
KFKL 212256Z AUTO 18006KT 10SM CLR 12/M01 A3000 RMK AO2 SLP169
     T01171006=
KFKS 212255Z AUTO 20010G18KT 10SM CLR 16/05 A2960 RMK AO2
     T01570050=
KFLP 212256Z AUTO VRB04KT 10SM CLR 26/05 A2982 RMK AO2 SLP092
     T02560050=
