SAUS70 KWBC 212300 RRE
METAR
KAIA 212253Z AUTO 24015G26KT 10SM CLR 23/M08 A2958 RMK AO2 PK WND
     26031/2212 SLP996 T02331078=
KAKO 212253Z AUTO 21004KT 10SM CLR 24/M08 A2971 RMK AO2 SLP012
     T02391083=
KALI 212253Z AUTO 14015G22KT 10SM CLR 27/16 A2993 RMK AO2 SLP133
     T02670161=
KAMA 212253Z 26016G22KT 10SM CLR 28/M03 A2974 RMK AO2 SLP022
     T02781028=
KAMG 212253Z AUTO 00000KT 10SM CLR 16/04 A3008 RMK AO2 SLP184
     T01610039=
KAOO 212253Z AUTO 18005KT 10SM CLR 11/M01 A3006 RMK AO2 SLP190
     T01111011=
KAPA 212253Z 35007KT 10SM FEW200 23/M11 A2976 RMK AO2 SLP017
     T02281106=
KAPF 212253Z AUTO 01006KT 10SM CLR 24/15 A2996 RMK AO2 SLP144
     T02390150 PWINO $=
KARA 212253Z 20010KT 10SM CLR 23/13 A3002 RMK AO2 SLP166
     T02330128=
KASD 212253Z AUTO 17009KT 10SM CLR 22/12 A3005 RMK AO2 SLP176
     T02220117=
KASE 212253Z VRB04KT 10SM FEW095 16/M08 A2998 RMK AO2 PK WND
     34026/2201 SLP074 T01611078=
KAUG 212253Z AUTO 19005KT 10SM CLR 10/02 A3013 RMK AO2 SLP204
     T01000022=
KAUS 212253Z 18013KT 10SM CLR 28/09 A2989 RMK AO2 SLP115
     T02830094=
KAWM 212253Z AUTO 17009KT 10SM CLR 24/10 A2987 RMK AO2 SLP112
     T02390100=
KAZO 212253Z 18008KT 10SM CLR 17/04 A2974 RMK AO2 SLP073
     T01720044=
KBBW 212253Z AUTO 16008KT 10SM CLR 23/M03 A2961 RMK AO2 SLP011
     T02281028=
KBCE 212253Z AUTO 24009KT 10SM CLR 17/M05 A3005 RMK AO2 SLP099
     T01721050=
KBEH 212253Z AUTO 18008G16KT 10SM CLR 21/04 A2970 RMK AO2 SLP058
     T02110044=
KBFD 212253Z AUTO 17004KT 10SM CLR 13/M02 A3001 RMK AO2 SLP168
     T01281017=
KBFM 212253Z 17007KT 10SM CLR 19/08 A3008 RMK AO2 SLP187
     T01940083=
KBGR 212253Z 19005KT 10SM CLR 10/03 A3012 RMK AO2 SLP199
     T01000028=
KBIV 212253Z AUTO 19008KT 10SM CLR 18/05 A2968 RMK AO2 SLPNO
     T01830050=
KBKV 212253Z 10SM CLR 19/07 A3005 RMK AO2 SLP173 T01940072=
KBMG 212253Z 18008KT 10SM CLR 20/01 A2988 RMK AO2 SLP116
     T02000011=
KBMQ 212253Z AUTO 18014G22KT 10SM CLR 28/07 A2992 RMK AO2 SLP115
     T02830072=
K4R5 212255Z AUTO 27003KT 10SM SCT110 15/05 A2955 RMK AO2
     T01450045=
KARV 212255Z AUTO 31004KT 10SM CLR 15/02 A2958 RMK AO2
     T01480023=
KATW 212245Z 26006KT 10SM CLR 17/03 A2957=
KBED 212251Z 00000KT 10SM CLR 11/03 A3011 RMK AO2 SLP211
     T01060028=
KCLE 212251Z 18013KT 10SM CLR 17/00 A2990 RMK AO2 SLP139
     T01720000=
KCMH 212251Z 18007KT 10SM SCT250 18/00 A2996 RMK AO2 SLP144
     T01780000=
KDAW 212251Z AUTO 17003KT 10SM CLR 11/04 A3012 RMK AO2 SLP198
     T01060039=
KERI 212251Z 17015G21KT 10SM CLR 16/00 A2992 RMK AO2 SLP133
     T01560000=
KEWR 212251Z 15005KT 10SM CLR 15/03 A3013 RMK AO2 SLP203
     T01500033=
KHFY 212255Z AUTO 21006KT 10SM CLR 20/03 A2988 RMK AO2
     T01960034=
KILG 212251Z 19005KT 10SM CLR 13/02 A3014 RMK AO2 SLP207
     T01330017=
KMDZ 212255Z AUTO 26003KT 10SM CLR 15/04 A2959 RMK AO2 T01530036
     PWINO=
KXWA 212251Z AUTO 03011KT 10SM FEW007 SCT031 OVC041 06/04 A2955
     RMK AO2 SLP029 T00560039=
KINK 212253Z AUTO 27010KT 10SM CLR 29/04 A2985 RMK AO2 SLP073
     T02940044=
KIPL 212253Z AUTO 00000KT 10SM CLR 33/07 A2974 RMK AO2 SLP073
     T03330067=
KITR 212253Z AUTO 14009KT 10SM CLR 25/M08 A2971 RMK AO2 SLP021
     T02501083=
KIWI 212253Z AUTO 00000KT 10SM CLR 07/03 A3015 RMK AO2 SLP208
     T00670033=
KIXD 212253Z 19009KT 10SM CLR 27/04 A2966 RMK AO2 SLP033 T02670039
     $=
KJEF 212253Z 16005KT 10SM CLR 28/01 A2971 RMK AO2 SLP049 T02830006
     $=
KJER 212253Z AUTO 27015G20KT 10SM CLR 19/01 A2973 RMK AO2 SLP042
     T01940006=
KJKL 212253Z AUTO 00000KT 10SM CLR 17/00 A3003 RMK AO2 SLP167
     T01670000=
