SAUS70 KWBC 220000 RRX
METAR
KSBA 212353Z 24008KT 6SM HZ BKN006 17/14 A2985 RMK FG BNK WEST OF
     AIRFIELD=
