SAUS70 KWBC 220018 RRJ
METAR
KMNZ 220015Z AUTO 19012G16KT 10SM CLR 27/05 A2986 RMK AO2
     T02670052=
KMOP 220015Z AUTO 18005KT 10SM CLR 16/05 A2969 RMK AO2
     T01620045=
KMOR 220015Z AUTO 00000KT 10SM FEW040 SCT048 12/01 A3007 RMK
     A01=
KMOX 220015Z AUTO 16003KT 10SM CLR 13/M03 A2961 RMK AO2=
KMRC 220010Z AUTO 15004KT 10SM CLR 18/08 A2997 RMK A01=
KMUT 220015Z AUTO 16004KT 10SM CLR 20/03 A2965 RMK AO2=
KMVH 220015Z AUTO 32014KT 4SM BR 07/06 A2956 RMK AO2 PWINO=
KMZH 220015Z AUTO 00000KT 10SM CLR 09/01 A2960 RMK AO2=
KO69 220015Z AUTO VRB06G12KT 280V340 9SM CLR 15/11 A2986 RMK
     A01=
KOEL 220015Z AUTO 03005KT 10SM CLR 18/M13 A2966 RMK AO1
     T01801130=
KOJA 220015Z AUTO 19010KT 10SM CLR 27/02 A2969 RMK AO2
     T02660025=
KOLG 220015Z AUTO 00000KT 10SM CLR 08/01 A2959 RMK AO1=
KONA 220015Z AUTO 00000KT 10SM CLR 12/05 A2964 RMK AO2=
KONP 220015Z AUTO 19022G27KT 3SM RA OVC006 11/10 A2977 RMK AO2=
KOSC 220015Z AUTO 20013G17KT 10SM CLR 16/05 A2967 RMK AO2
     T01620048=
KOXI 220015Z AUTO 19010KT 10SM CLR 17/02 A2979 RMK AO1=
KOXV 220015Z AUTO 15005KT 10SM CLR 22/01 A2961 RMK AO2=
KP08 220015Z AUTO 33004KT 10SM CLR 30/11 A2982 RMK AO2=
KPCW 220015Z AUTO 20012KT 10SM CLR 16/02 A2987 RMK AO2=
KPEX 220015Z AUTO 00000KT 10SM CLR 10/01 A2962 RMK AO2=
KPHT 220015Z AUTO 16007KT 10SM CLR 19/10 A2992 RMK A01=
KPKV 220015Z AUTO 18006KT 10SM CLR 24/15 A2998 RMK AO2
     T02420146=
KPMH 220015Z AUTO 00000KT 10SM CLR 13/00 A3003 RMK AO2
     T01260001=
KPRO 220015Z AUTO 22005KT 10SM CLR 17/00 A2961 RMK AO2
     T01711005=
KPRS 220015Z AUTO 00000KT 10SM CLR 28/11 A2994 RMK AO2
     T02770111=
KPTD 220015Z AUTO 18012KT 10SM FEW035 BKN042 OVC060 13/M03 A2996
     RMK AO2=
KPUJ 220015Z AUTO 17003KT 7SM CLR 14/02 A3010 RMK AO2=
KPVB 220015Z AUTO 00000KT 10SM CLR 19/01 A2965 RMK AO1
     T01850005=
KPVJ 220015Z AUTO 16004KT 10SM CLR 26/02 A2973 RMK AO2
     T02600019=
KPYX 220015Z AUTO 20006KT 10SM CLR 21/M08 A2966 RMK AO2
     T02141077=
KTDF 220015Z AUTO 00000KT 10SM CLR 07/03 A3016 RMK AO2=
KTHA 220015Z AUTO 16005KT 10SM CLR 16/03 A3003 RMK A01=
KTNU 220015Z AUTO 34004KT 10SM CLR 22/01 A2961 RMK A01=
KTQH 220015Z AUTO 16003KT 10SM CLR 24/00 A2978 RMK AO2=
KTQV 220015Z AUTO 12003KT 10SM CLR 16/00 A3013 RMK A01=
KTYL 220015Z AUTO 21012KT 10SM CLR 19/03 A3005 RMK AO2=
KU68 220015Z AUTO 14003KT 10SM BKN120 19/M05 A2948 RMK AO2=
KUCY 220015Z AUTO 16006KT 10SM CLR 19/10 A2989 RMK A01=
KUSE 220015Z AUTO 19007KT 10SM CLR 16/02 A2984 RMK AO2=
KUVA 220015Z AUTO 00000KT 10SM CLR 24/10 A2994 RMK AO2
     T02350101=
KUXL 220015Z AUTO 17004KT 10SM CLR 20/15 A3001 RMK AO2
     T01970146=
KVAF 220015Z AUTO 17013KT 10SM FEW044 24/12 A3002 RMK A01=
KVCV 220010Z AUTO RMK AO2 PNO PWINO TSNO=
KVOA 220020Z AUTO 10008KT 10SM SCT055 21/10 A3010 RMK A01=
KWBF 220015Z AUTO VRB04KT 10SM 23/13 A3008 RMK A01=
KXLL 220015Z AUTO 17005KT 10SM CLR 08/02 A3014 RMK AO2=
KY31 220015Z AUTO 20004KT 10SM CLR 15/03 A2969 RMK AO2
     T01530029=
KY49 220015Z AUTO 21003KT 10SM CLR 11/00 A2958 RMK AO2
     T01100000=
PAAD 220015Z AUTO 10019G23KT 10SM UP OVC010 M04/M06 A2987 RMK AO2
     T10451057=
PAUT 220015Z AUTO 19007KT 10SM SCT011 OVC100 06/05 A3008 RMK
     AO2=
K0E0 220015Z AUTO 26008KT 10SM CLR 17/M01 A3001 RMK AO2 T01741010
     TSNO=
K3N8 220015Z AUTO 18003KT 10SM CLR 10/00 A2956 RMK AO2
     T00970000=
K4S2 220015Z AUTO 32006KT 7SM -RA SCT016 BKN043 OVC070 08/07 A2972
     RMK AO2 P0001=
K6S2 220015Z AUTO 20011G20KT 180V250 1 3/4SM -RA BR OVC004 12/12
     A2978 RMK AO2=
KAQP 220013Z AUTO 00000KT 7SM 12/00 A2960 RMK AO2=
