SAUS70 KWBC 220126 RRA
METAR
KUNI 220115Z AUTO 00000KT 7SM -SN CLR 07/01 A3002 RMK AO2
     T00680014=
KUYF 220115Z AUTO 18008KT 10SM CLR 09/M01 A2998 RMK AO2=
KVES 220115Z AUTO 19006KT 10SM CLR 13/M02 A2993 RMK AO2=
KW99 220122Z AUTO 00000KT 10SM CLR 05/02 A3012 RMK AO2=
KZER 220115Z AUTO 15004KT 10SM CLR 07/M01 A3014 RMK AO2=
