SASA31 KWBC 220200
METAR
SEGU 220200Z 23009KT 9999 SCT030 BKN100 23/18 Q1013 NOSIG RMK
     A2991=
SEQM NIL=
SEQU NIL=
SKBO 220200Z 29004KT 9999 VCSH SCT010 SCT070 14/12 Q1026 NOSIG RMK
     VCSH/SE A3032=
SKBQ 220200Z VRB02KT 9999 FEW015 25/25 Q1011 NOSIG RMK A2987=
SKCG NIL=
SKCL NIL=
SKLT 220200Z VRB02KT 9999 FEW015 25/24 Q1009 RMK A2980=
SKRG 220200Z VRB02KT 9999 SCT012 BKN080 16/15 Q1026 BECMG FM0330
     BKN010 RMK A3029=
SKSP 220200Z 05008KT 9999 FEW016 29/24 Q1012 RMK A2989=
SMNI NIL=
SMZO NIL=
SMZY NIL=
SOCA 220200Z AUTO 00000KT CAVOK 25/24 Q1010=
SPJC 220200Z 18008KT 9999 BKN011 15/12 Q1014 NOSIG RMK PP000=
SPQT 220200Z VRB02KT CAVOK 26/23 Q1009 NOSIG RMK PP000=
SPQU 220200Z 05004KT CAVOK 13/M09 Q1027 NOSIG RMK PP000=
SPSO 220200Z 17003KT 100V220 CAVOK 16/12 Q1014 RMK PP000=
SPTN 220200Z 20004KT 9999 OVC027 13/10 Q1018 RMK PP000=
SPYL NIL=
SPZO 220200Z 00000KT 9999 NSC 14/06 Q1028 NOSIG RMK BIRD HAZARD
     RWY 28 PP000=
SVBC NIL=
SVMC NIL=
SVMG NIL=
SVMI 220200Z 11002KT 9999 SCT016 BKN070 26/23 Q1011=
SYCJ NIL=
SYTM NIL=
