SAUS70 KWBC 212200 RRX
METAR
KMTN 212158Z 14003KT 10SM CLR 15/00 A3014=
