SAUS70 KWBC 220140 RRA
METAR
KECS 220135Z AUTO 00000KT 10SM CLR 10/M08 A2952 RMK AO2=
KEIK 220135Z AUTO 25014G20KT 10SM CLR 21/M12 A2972 RMK AO2
     T02101117 PWINO=
KF17 220135Z AUTO 16007KT 10SM CLR 22/11 A2995 RMK AO2=
KF46 220135Z AUTO 19012G15KT 10SM CLR 25/10 A2985 RMK AO2
     T02470095=
KFWS 220135Z AUTO 16012G15KT 10SM CLR 25/08 A2985 RMK AO2
     T02540076=
KIFP 220135Z AUTO 16008KT 10SM CLR 30/03 A2974 RMK AO2=
KMNZ 220135Z AUTO 18009KT 10SM CLR 23/07 A2989 RMK AO2
     T02320066=
KSEZ 220135Z AUTO 20009KT 10SM 20/05 A2999 RMK AO2=
KSZT 220135Z AUTO 23004KT 7SM -RA SCT014 BKN020 OVC031 03/02 A2964
     RMK AO2=
KTBX 220135Z AUTO 10SM CLR 13/M10 A2976 RMK AO2=
KVAF 220135Z AUTO 18015KT 10SM SCT044 24/13 A3004 RMK A01=
KWBF 220135Z AUTO 00000KT 10SM 23/14 A3009 RMK A01=
K0F2 220135Z AUTO 17006KT 10SM CLR 24/04 A2979 RMK AO2
     T02350037=
K1V6 220135Z AUTO 27006KT 10SM CLR 17/M11 A2976 RMK AO2=
K65S 220135Z AUTO 22010KT 190V250 10SM SCT031 BKN042 OVC085 03/02
     A2958 RMK AO2=
KGZN 220120Z AUTO 18006KT 10SM CLR 22/03 A2982 RMK AO2=
KHHF 220135Z AUTO 23006KT 10SM CLR 17/M02 A2966 RMK AO2
     T01701020=
KINJ 220135Z AUTO 17015KT 10SM CLR 26/09 A2986 RMK AO2
     T02550090=
KJWY 220135Z AUTO 18009KT 10SM CLR 25/09 A2987 RMK AO2
     T02450090=
KLNC 220135Z AUTO 17007KT 10SM CLR 25/08 A2986 RMK AO2
     T02460082=
KLXY 220135Z AUTO 16006KT 10SM CLR 22/11 A2989 RMK AO2
     T02180105=
KM75 220135Z AUTO 08005KT 10SM OVC032 07/05 A2953 RMK A01=
KMEV 220135Z AUTO 24014KT 10SM CLR 19/M06 A2990 RMK AO2=
KMHV 220140Z AUTO 28008G13KT 10SM CLR 25/M04 A2987 RMK A01=
KMVH 220135Z AUTO 12003KT 4SM BR FEW006 BKN013 OVC020 06/05 A2958
     RMK AO2 PWINO=
KO69 220135Z AUTO 30006G14KT 9SM OVC011 13/11 A2986 RMK A01=
KP08 220135Z AUTO 31006KT 10SM CLR 27/11 A2983 RMK AO2=
KPKV 220135Z AUTO 16005KT 10SM CLR 21/14 A2999 RMK AO2
     T02090144=
KPRS 220135Z AUTO 02005KT 10SM CLR 22/13 A2996 RMK AO2
     T02220125=
KPYX 220135Z AUTO 20006KT 7SM CLR 14/M08 A2966 RMK AO2
     T01401085=
K3LF 220135Z AUTO 16012KT 10SM CLR 18/04 A2982 RMK AO2
     T01750037=
KBTN 220130Z AUTO 16008KT 7SM FEW016 FEW027 BKN043 11/00 A2954 RMK
     AO2=
KCKC 220136Z AUTO 00000KT 10SM CLR 08/02 A2956 RMK AO2=
KHYX 220135Z AUTO 19013G20KT 10SM CLR 17/04 A2974 RMK AO2
     T01700035=
KHZX 220135Z AUTO 12003KT 10SM CLR 05/01 A2960 RMK AO2=
KIMS 220135Z AUTO 15005KT 10SM CLR 13/01 A2998 RMK AO2=
KLCG 220135Z AUTO 00000KT 10SM CLR 08/M03 A2960 RMK AO2
     T00781031=
KLVN 220135Z AUTO 00000KT 7SM CLR 11/02 A2963 RMK AO2=
KMOP 220135Z AUTO 19006KT 10SM CLR 16/05 A2971 RMK AO2
     T01590045=
KMUT 220135Z AUTO 00000KT 10SM CLR 16/03 A2967 RMK AO2=
KMZH 220135Z AUTO 00000KT 10SM CLR 07/01 A2961 RMK AO2=
KONA 220135Z AUTO 00000KT 10SM CLR 09/05 A2966 RMK AO2=
KOSC 220135Z AUTO 21009KT 10SM CLR 15/05 A2970 RMK AO2
     T01490050=
KOXI 220135Z AUTO 19010G16KT 10SM CLR 16/02 A2980 RMK AO1=
KOXV 220135Z AUTO 17005KT 10SM CLR 20/02 A2962 RMK AO2=
KPCW 220135Z AUTO 20011KT 10SM CLR 15/02 A2989 RMK AO2=
KPEX 220135Z AUTO 00000KT 10SM CLR 08/01 A2962 RMK AO2=
KPMH 220135Z AUTO 00000KT 10SM CLR 09/01 A3003 RMK AO2
     T00930005=
KPRO 220135Z AUTO 13003KT 4SM HZ CLR 15/00 A2960 RMK AO2
     T01460000=
KPTD 220135Z AUTO 17013KT 10SM SCT034 SCT041 BKN048 13/M03 A2997
     RMK AO2=
KRMY 220135Z AUTO 19007KT 10SM CLR 17/03 A2980 RMK AO2
     T01700030=
KRRT 220135Z AUTO 24007KT 10SM BKN100 120 12/03 A2953 RMK AO2=
KSAR 220135Z AUTO 17006KT 10SM CLR 19/08 A2986 RMK AO2
     T01920080=
KSLO 220135Z AUTO 16006KT 10SM CLR 19/04 A2986 RMK AO2
     T01860038=
