SAUS70 KWBC 220120 RRI
METAR
KOBE 220115Z AUTO 02006KT 10SM CLR 19/15 A3003 RMK AO2 LTG DSNT
     NE=
KOGA 220115Z AUTO 27006KT 10SM CLR 16/M05 A2960 RMK AO2
     T01601052=
K06C 220115Z AUTO 20008G15KT 170V230 10SM CLR 20/08 A2972 RMK AO2
     T01970078=
K0CO 220115Z AUTO 32018G28KT 10SM CLR M01/M12 A3012 RMK AO2=
K0R4 220115Z AUTO 15009KT 10SM CLR 22/13 A2999 RMK AO2
     T02210131=
K1R8 220115Z AUTO 15003KT 10SM SCT046 BKN055 15/08 A3010 RMK
     AO2=
K33V 220115Z AUTO 25010KT 10SM CLR 08/M10 A2993 RMK AO1=
K3K3 220115Z AUTO 00000KT 10SM CLR 17/M06 A2966 RMK AO2=
K49A 220115Z AUTO 00000KT 10SM CLR 09/02 A3015 RMK AO2
     T00930024=
K4O4 220115Z AUTO 16009KT 10SM FEW049 22/10 A2986 RMK AO2=
K5M9 220115Z AUTO 17004KT 10SM CLR 18/07 A2992 RMK AO2
     T01800066=
K66R 220115Z AUTO 17009KT 10SM CLR 22/15 A2999 RMK AO2
     T02220147=
K74V 220115Z AUTO 28004KT 10SM 14/M08 A2983 RMK AO2=
KAAA 220115Z AUTO 18011KT 10SM CLR 18/05 A2977 RMK AO2
     T01820050=
KADU 220115Z AUTO 00000KT 10SM SCT006 SCT017 SCT085 06/M01 A2961
     RMK AO2=
KAFK 220115Z AUTO 00000KT 10SM CLR 20/00 A2960 RMK AO2
     T01980000=
KAIO 220115Z AUTO 36005KT 1 1/2SM HZ CLR 09/01 A2959 RMK AO2=
KAJG 220115Z AUTO 17006KT 10SM CLR 17/02 A2989 RMK AO2
     T01670018=
KAJR 220115Z AUTO 12003KT 10SM CLR 10/02 A3013 RMK AO2
     T01020018=
KAJZ 220115Z AUTO 21006KT 10SM CLR 17/M04 A2988 RMK AO2 T01701037
     PWINO=
KAQO 220115Z AUTO 17004KT 10SM CLR 23/07 A2990 RMK AO2=
KASW 220115Z AUTO 21006KT 170V230 10SM CLR 17/02 A2984 RMK AO2
     T01750030=
KAUN 220115Z AUTO 15003KT 9SM CLR 23/07 A2981 RMK A01=
KAWG 220115Z AUTO 18007KT 10SM CLR 20/03 A2964 RMK AO2=
KAXA 220115Z AUTO 06005KT 8SM CLR 14/03 A2962 RMK A01=
KAZE 220115Z AUTO 00000KT 10SM CLR 11/04 A3012 RMK AO2
     T01070043=
KBBD 220115Z AUTO 18010G15KT 10SM CLR 23/05 A2989 RMK AO2=
KBBP 220115Z AUTO 00000KT 10SM CLR 06/03 A3014 RMK AO2=
KBDG 220115Z AUTO 00000KT 10SM 15/M03 A3003 RMK AO1 T01471032=
KBEC 220115Z AUTO 17013G17KT 10SM CLR 25/00 A2964 RMK AO2
     T02540000=
KBJI 220115Z AUTO 00000KT 10SM BKN110 10/00 A2956 RMK AO2
     T01040004=
KBQK 220115Z AUTO 00000KT 10SM CLR 08/06 A3012 RMK AO2 LTG DSNT SE
     T00770060=
KBVS 220115Z AUTO 10SM OVC016 09/09 A2972 RMK A01=
KBYY 220115Z AUTO 16005KT 10SM SCT042 18/14 A3001 RMK AO2
     T01940147=
KC65 220115Z AUTO 20008G17KT 10SM CLR 18/03 A2981 RMK A01=
KC75 220115Z AUTO 18009G15KT 10SM CLR 20/07 A2970 RMK AO2
     T02010065=
KCAV 220115Z AUTO 07007KT 5SM HZ 10/01 A2962 RMK A01=
KCBF 220115Z AUTO 12005KT 4SM HZ CLR 18/M05 A2957 RMK AO2=
KCCU 220115Z AUTO 27011KT 10SM CLR 03/M10 A3016 RMK AO2=
KCIN 220115Z AUTO 00000KT 5SM HZ FEW035 11/00 A2959 RMK AO2=
KCKF 220115Z AUTO 00000KT 10SM CLR 09/03 A3014 RMK AO2
     T00930034=
KCMD 220115Z AUTO 16006KT 10SM CLR 17/07 A3007 RMK AO2=
KCNC 220115Z AUTO 15005KT 10SM CLR 18/03 A2962 RMK AO2=
KCOM 220115Z AUTO 20006KT 10SM CLR 24/03 A2986 RMK AO2
     T02420026=
KCPW 220115Z AUTO 22024G37KT 10SM CLR 00/M07 A3024 RMK AO2=
KCQB 220115Z AUTO 16008KT 10SM CLR 24/03 A2973 RMK AO2
     T02360034=
KCUH 220115Z AUTO 20003KT 10SM CLR 21/03 A2970 RMK AO2
     T02140032=
KCWV 220115Z AUTO 00000KT 10SM CLR 09/06 A3013 RMK AO2 LTG DSNT SE
     T00860061=
KD73 220115Z AUTO 00000KT 10SM CLR 08/05 A3014 RMK AO2
     T00770047=
KDKB 220115Z AUTO 18008KT 10SM CLR 12/05 A2973 RMK AO2
     T01150051=
KDKR 220115Z AUTO 16005KT 10SM CLR 23/09 A2993 RMK AO2=
KDNS 220115Z AUTO RMK AO2 PNO PWINO=
KDNV 220115Z AUTO 19010G18KT 10SM CLR 19/03 A2984 RMK AO2
     T01870025=
KDVO 220115Z AUTO VRB04G10KT 10SM CLR 17/11 A2983 RMK AO2=
