SAUS70 KWBC 220000
METAR
KHQZ 212350Z 15005KT 10SM CLR 26/07 A2983=
KPAO 212347Z 35007KT 10SM HZ FEW200 17/13 A2985=
KSUN 212349Z 21005KT 10SM SCT100 16/01 A2974=
KCHD 212347Z 00000KT 10SM CLR 31/09 A2981=
KDYA 212355Z AUTO 00000KT 10SM CLR 16/14 A3003 RMK AO2 T01590135
     10251 20159=
KFMH 212356Z 00000KT 10SM CLR 10/07 A3017=
KFRH 212355Z AUTO 17003KT 10SM CLR 18/00 A2992 RMK AO1=
KGWW 212355Z AUTO 00000KT 10SM CLR 10/06 A3013 RMK AO2 T01000061
     10208 20098=
KJYO 212355Z AUTO 17005KT 10SM CLR 12/02 A3013 RMK AO2=
KMRN 212355Z AUTO 00000KT 10SM CLR 07/06 A3016 RMK AO2 T00730056
     10195 20073=
KMWA 212345Z 17010KT 20SM CLR 20/08 A2986=
KMYJ 212355Z AUTO 16005KT 10SM CLR 20/03 A2972 RMK AO2=
KOIC 212355Z AUTO 00000KT 10SM CLR 09/M02 A3010 RMK AO2 T00891020
     10150 20087=
KPBH 212355Z AUTO 00000KT 10SM CLR 08/02 A2961 RMK AO2 T00810016
     10183 20080=
KPTB 212355Z AUTO 00000KT 10SM CLR 07/05 A3015 RMK AO2 T00730046
     10198 20069=
KRYY 212350Z 00000KT 10SM CLR 13/04 A3011 RMK AO2 SLP196 T01330039
     10211 20133 53007 $=
KTGI 212355Z AUTO 15007KT 10SM CLR 15/08 A3015 RMK AO1 T01510084
     10328 20093=
KVNW 212355Z AUTO 19009KT 10SM CLR 16/00 A2987 RMK AO2=
TJBQ 212350Z 13003KT 10SM SCT024 26/23 A2992=
KADM 212350Z 15007KT 10SM CLR 27/06 A2974=
KLAL 212350Z 36005KT 10SM SKC 18/06 A3004=
KMWC 212345Z 21011G15KT 10SM CLR 20/01 A2964=
KTOA 212347Z 00000KT 10SM FEW015 22/18 A2984=
