SAUS70 KWBC 220000 RRB
METAR
KJST 212354Z AUTO 16011KT CLR 11/M02 A3005 RMK AO2 SLP188
     T01061017 10156 20100 51010 $=
KMIV 212354Z AUTO 00000KT 10SM CLR 07/04 A3016 RMK AO2 SLP212
     T00720039 10189 20067 53009=
KRKD 212356Z AUTO 00000KT 10SM CLR 05/04 A3015 RMK AO2 SLP211
     T00500039 10144 20050 53014=
KRNP 212355Z AUTO 18007KT 10SM CLR 17/03 A2975 RMK AO2 T01710027
     10210 20171=
KRQB 212355Z AUTO 13004KT 10SM CLR 16/05 A2968 RMK AO2 T01640045
     10205 20164=
KSGH 212356Z AUTO 18004KT 10SM CLR 15/01 A2996 RMK AO2 SLP148
     T01500006 10211 20150 53012=
KAFJ 212356Z AUTO 21003KT 10SM CLR 10/02 A3006 RMK AO2 SLP185
     T01000017 10172 20100 53009=
KASH 212356Z 00000KT 10SM CLR 07/04 A3014 RMK AO2 SLP212 T00670039
     10178 20067 53016 $=
KLXL 212355Z AUTO 00000KT 10SM CLR 09/01 A2961 RMK AO2=
KMKT 212356Z AUTO 00000KT 10SM CLR 15/02 A2963 RMK AO2 SLP038
     T01500022 10200 20150 53006=
KMWM 212355Z AUTO 00000KT 10SM CLR 11/01 A2963 RMK AO2=
KOKK 212356Z AUTO 19011KT 10SM CLR 18/03 A2986 RMK AO2 SLP113
     6//// T01780028 10233 20178 53011 PNO $=
KS24 212355Z AUTO 18009G14KT 10SM CLR 17/02 A2988 RMK AO2=
KSUE 212356Z AUTO 21004KT 10SM CLR 12/08 A2960 RMK AO2 SLP024
     6//// T01220078 10206 20122 52027=
KTTF 212355Z AUTO 18005KT 10SM CLR 16/02 A2982 RMK AO2 T01570022
     10220 20155=
KTVF 212356Z AUTO 23006KT 10SM BKN090 12/M01 A2955 RMK AO2 SLP013
     6//// T01171006 10167 20117 53002=
KUGN 212355Z 21012KT 10SM CLR 20/04 A2966 RMK AO2 SLP043 T02000039
     10239 20200 53016=
KVLL 212355Z AUTO 17003KT 10SM CLR 15/02 A2982 RMK AO2 T01520020
     10205 20152=
KVWU 212355Z AUTO 00000KT 10SM CLR 12/02 A2955 RMK AO2=
KWVL 212356Z AUTO 20004KT 10SM CLR 08/02 A3011 RMK AO2 SLP226
     T00830022 10144 20083 52017=
KY50 212356Z AUTO 00000KT 10SM CLR 13/04 A2963 RMK AO2 SLP037
     T01280039 10233 20122 52026 $=
KY70 212355Z AUTO 18010KT 10SM CLR 16/04 A2971 RMK AO2 T01630037
     10206 20158=
KSGH 212356Z AUTO 18004KT 10SM CLR 15/01 A2996 RMK AO2 SLP148
     T01500006 10211 20150 53012=
KCVO 212356Z AUTO 23006KT 10SM FEW022 BKN032 OVC040 14/10 A2976
     RMK AO2 SLP079 60000 T01390100 10150 20111 55019=
KENV 212356Z AUTO 24015KT 10SM CLR 25/M11 A2974 RMK AO2 SLP048
     T02501106 10261 20161 56025=
KFNL 212356Z 32008KT 10SM CLR 22/M09 A2969 RMK AO2 SLP015
     T02171094 10261 20217 56008=
KGDV 212356Z AUTO 36005KT 10SM -RA OVC065 08/07 A2954 RMK AO2
     RAB2259 SLP014 P0000 60000 T00830067 10133 20083 53006=
KGTU 212356Z 18010KT 10SM CLR 27/09 A2991 RMK AO2 SLP123 T02720089
     10300 20272 55004=
KGUC 212356Z AUTO 29010KT 10SM CLR 16/M09 A2999 RMK AO2 SLP131
     T01561094 10178 20094 58009=
KGXY 212356Z 13005KT 10SM CLR 21/M07 A2968 RMK AO2 SLP036
     T02111072 10261 20211 56013 $=
KHAF 212355Z AUTO VRB06KT 5SM BR OVC011 14/13 A2989 RMK AO2=
KJAC 212356Z 21013G28KT 10SM OVC090 14/M08 A2974 RMK AO2 PK WND
     24039/2332 SLP049 6//// T01441078 10167 20144 58012 PNO $=
KSGU 212356Z AUTO 27008KT 10SM CLR 27/M01 A2984 RMK AO2 SLP080
     T02671006 10272 20183 56021=
KSMN 212356Z AUTO 25014G24KT 200V280 10SM FEW060 OVC085 16/M02
     A2961 RMK AO2 PK WND 25037/2310 SLP734 T01611022 10206 20139
     53011=
KVIS 212356Z AUTO 26003KT 10SM CLR 31/08 A2978 RMK AO2 SLP089
     T03110083 10317 20250 56015=
KESC 212356Z AUTO 00000KT 10SM CLR 11/10 A2958 RMK AO2 SLP021
     6//// T01110100 10189 20111 52027 PNO $=
KFKA 212355Z AUTO 30003KT 7SM CLR 16/02 A2965 RMK AO2 T01610016
     10216 20161=
KFKL 212356Z AUTO 18009KT 10SM CLR 11/M01 A3002 RMK AO2 SLP176
     6//// T01111006 10161 20111 53012=
