SMTO01 NFTF 220000
AAXX 22004
91772 31498 20805 10294 20258 40135 60001 70200 82100 333 20235 562//
 70000
82818=
91779 31498 60803 10276 20237 40121 53006 60001 70222 8117/ 333 20205
 5629/
70195 81818 86360=
91784 11398 79902 10260 20211 40125 56008 60031 70282 847/6 333 20221
 569/9
70085 82709 84816 87279=
91792 11398 71311 10244 20214 40141 58015 69941 70262 8477/ 333 20218
 5639/
70041 82709 84816 87460=