SMPA01 RJTD 220000
AAXX 22004
91165 12966 01711 10289 20228 30115 40148 58015 69901 92353=
91203 11474 81202 10283 20270 30112 40117 5//// 60054 70282 82378=
91212 32966 01014 10294 20244 30034 40117 51014 92354=
91285 12566 81211 10283 20228 30134 40146 58023 69901 92353=
91317 12474 81604 10283 20268 30098 40102 5//// 60044 81850=
91324 32474 80703 10296 20250 30083 40085 8517/=
91334 12474 59905 10300 20255 30102 40105 50003 60014 82101=
91348 12474 80404 10318 20260 30059 40112 50002 60254 83271=
91353 12474 80505 20233 30100 40107 5//// 60084 86208=
91356 11466 71110 10278 20248 30099 40106 5//// 60024 72582 85145=
91367 11469 81005 10289 20251 60114 78221 82267=
91369 11474 60805 10283 20261 30060 40063 61834 70282 84337=
91376 11472 81107 10254 20226 30095 40098 50002 60114 76082 8587/=
91378 11474 81610 10267 20211 60043 70284 84358=
91413 12469 69903 10296 20261 30075 40100 50010 60074 82101=
91425 11474 21105 10300 20283 30115 40116 5//// 60154 70282 82200=
91434 32474 30603 10306 20256 30094 40095 5//// 83200=
91601 11599 61312 10/// 20/// 4//// 5//// 60001 70122 81108=
91610 11599 21708 10295 20241 40092 50001 60004 70200 82101=
91155 NIL=
91217 NIL=
91232 NIL=
91250 NIL=
91275 NIL=
91339 NIL=
91366 NIL=
91371 NIL=
91408 NIL=
