ASUS44 KMEG 220110
RWRTN 
TENNESSEE HOURLY STATE WEATHER ROUNDUP
NATIONAL WEATHER SERVICE MEMPHIS TN
800 PM CDT FRI OCT 21 2022

TNZ002-004-019-021-049-052-054-088>092-220200-
WEST TENNESSEE
  
CITY           SKY/WX    TMP DP  RH WIND       PRES   REMARKS
MEMPHIS INTL   CLEAR     70  51  51 S9        29.92R                  
NWS MEMPHIS      N/A     69 N/A N/A MISG        N/A                   
JACKSON        CLEAR     67  50  54 S7        29.95R                  
DYERSBURG      CLEAR     68  51  54 S5        29.92R                  
SOMERVILLE     PTCLDY    66  52  59 S5        29.93R                  
COVINGTON      PTCLDY    68  50  52 S5        29.91R                  
UNION CITY     CLEAR     64  50  59 S8        29.90R                  
BOLIVAR        PTCLDY    64  52  63 SE6       29.94S                  
PARIS          CLEAR     64  50  59 S10       29.93R                  
HUNTINGDON     PTCLDY    63  50  63 S6        29.93R                  
SELMER         CLEAR     68  50  52 S10       29.96S                  
SAVANNAH       PTCLDY    63  52  67 S6        29.96S                  
$$

TNZ008-025-027-028-033-062-065-066-220200-
NORTH MIDDLE TENNESSEE
  
CITY           SKY/WX    TMP DP  RH WIND       PRES   REMARKS
NASHVILLE      PTCLDY    65  37  35 S12       30.00R                  
DICKSON          N/A     64  46  52 S8        29.96S                  
PORTLAND       CLEAR     63  37  39 S8        29.98S                  
CLARKSVILLE    CLEAR     63  43  48 S6        29.95R                  
LEBANON        PTCLDY    63  36  36 SE7       29.98S                  
SMYRNA         CLEAR     62  40  44 S3        30.02R                  
MURFREESBORO   PTCLDY    61  37  41 S8        30.00R                  
COOKEVILLE     CLEAR     57  36  44 S6        30.05R                  
LIVINGSTON     CLEAR     57  34  41 S6        30.04R                  
GALLATIN       PTCLDY    61  36  39 S5        30.02S                  
CROSSVILLE     CLEAR     53  34  48 S3        30.09R                  
$$

TNZ061-075-076-078-094-096-097-220200-
SOUTH MIDDLE TENNESSEE
  
CITY           SKY/WX    TMP DP  RH WIND       PRES   REMARKS
LAWRENCEBURG   PTCLDY    61  48  63 SE7       30.01R                  
LEWISBURG      CLEAR     55  43  62 CALM      30.01R                  
FAYETTEVILLE   PTCLDY    57  39  51 S8        30.06R                  
TULLAHOMA      PTCLDY    59  37  44 S8        30.04R                  
WINCHESTER     CLEAR     59  36  41 SE6       30.05R                  
MCMINNVILLE    CLEAR     52  37  58 CALM      30.05R                  
COLUMBIA       CLEAR     64  46  52 SE5       29.98R                  
SHELBYVILLE    CLEAR     61  37  41 SE8       30.02S                  
$$

TNZ017-018-042-046-047-220200-
NORTHEAST TENNESSEE
  
CITY           SKY/WX    TMP DP  RH WIND       PRES   REMARKS
TRI CITIES     CLEAR     46  35  65 CALM      30.10R                  
ELIZABETHTON   CLEAR     45  36  70 CALM      30.11R                  
GREENEVILLE    CLEAR     50  36  57 SE3       30.09R                  
$$

TNZ012-013-036-069-073-074-220200-
CENTRAL EAST TENNESSEE
  
CITY           SKY/WX    TMP DP  RH WIND       PRES   REMARKS
KNOXVILLE      PTCLDY    54  35  48 CALM      30.08R                  
OAK RIDGE      CLEAR     49  38  65 CALM      30.10R                  
DOWNTOWN KNOXV CLEAR     48  43  81 CALM      30.09R                  
GATLINBURG     CLEAR     48  37  66 CALM      30.09R                  
MORRISTOWN     PTCLDY    50  34  53 CALM      30.07S                  
JACKSBORO      CLEAR     46  37  71 CALM      30.12S                  
ONEIDA         MOCLDY    52  32  46 S5        30.07R                  
$$

TNZ083-085-099-220200-
SOUTHEAST TENNESSEE
  
CITY           SKY/WX    TMP DP  RH WIND       PRES   REMARKS
CHATTANOOGA    CLEAR     56  38  50 CALM      30.09R                  
DAYTON         CLEAR     48  37  66 CALM      30.08R                  
$$

SKY/WX REPORTED AS FAIR MEANS FEW OR NO CLOUDS BELOW
12 THOUSAND FEET.

  
