ASUS45 KABQ 212301
RWRNM 
NEW MEXICO REGIONAL WEATHER ROUNDUP
NATIONAL WEATHER SERVICE ALBUQUERQUE NM
500 PM MDT FRI OCT 21 2022

NOTE: "FAIR" MEANS FEW OR NO CLOUDS BELOW 12,000 FEET AGL WITH NO
       SIGNIFICANT WEATHER OR OBSTRUCTIONS TO VISION.

      THIS PRODUCT IS RELEASED AS TWO VERSIONS.  ONE VERSION NEAR
      THE TOP OF THE HOUR CONTAINING PRELIMINARY DATA FROM ALBUQUERQUE
      AND OTHER STATIONS.  A FINAL VERSION WITH ADDITIONAL DATA IS 
      ISSUED ABOUT 10 MINUTES AFTER THE HOUR.
 
NMZ201-203-204-210>218-220000-
NORTHWEST PLATEAU/NORTHCENTRAL MOUNTAINS
  
CITY           SKY/WX    TMP DP  RH WIND       PRES   REMARKS
FARMINGTON     FAIR      70  27  20 W10       29.98F                  
LOS ALAMOS     FAIR      63  21  20 W10       30.06F                  
SANTA FE       FAIR      68  26  20 W17G25    30.00S                  
TAOS           FAIR      66  19  16 W20       30.03F                  

$$
NMZ202-205>209-241-402-403-220000-
WESTCENTRAL MOUNTAINS/SOUTHWEST MOUNTAINS
  
CITY           SKY/WX    TMP DP  RH WIND       PRES   REMARKS
GALLUP         FAIR      67  37  33 W21       30.07F                  
GRANTS         FAIR      68  32  26 W16G23    30.09S                  
SILVER CITY    FAIR      76  43  30 W15G25    30.06S                  

$$
NMZ407-409-411-412-220000-
SOUTHERN DESERTS
  
CITY           SKY/WX    TMP DP  RH WIND       PRES   REMARKS
DEMING         FAIR      80  44  27 W16G23    29.99S                  
LAS CRUCES     FAIR      79  40  25 W23       29.99F                  
HOLLOMAN AFB   FAIR      78  40  25 SW5       29.99F                  
ALAMOGORDO     FAIR      77  39  25 E6        29.97F                  
T OR C         FAIR      78  39  24 S10       29.96F                  

$$
NMZ219>223-220000-
CENTRAL VALLEYS/CENTRAL HIGHLANDS
  
CITY           SKY/WX    TMP DP  RH WIND       PRES   REMARKS
ALBUQUERQUE    FAIR      74  32  21 W15G21    29.98F                  
DOUBLE EAGLE   SUNNY     72  32  23 W8G16     30.01F                  
MORIARTY ARPT  FAIR      68  25  19 W21G29    30.03F                  
CLINES CORNERS FAIR      63  30  28 W22G35    30.05F                  
BELEN          FAIR      75  31  19 W17       29.98F                  
SOCORRO        FAIR      76  35  22 SE8       29.97S                  

$$
NMZ224>226-239-240-220000-
SOUTHCENTRAL MOUNTAINS
  
CITY           SKY/WX    TMP DP  RH WIND       PRES   REMARKS
RUIDOSO          N/A     64  32  29 W13G22    30.10S                  

$$
NMZ227>231-220000-
NORTHEAST HIGHLANDS/NORTHEAST PLAINS
  
CITY           SKY/WX    TMP DP  RH WIND       PRES   REMARKS
LAS VEGAS      FAIR      69  26  20 W17G24    29.96R                  
RATON          FAIR      72  18  13 W20G29    29.85F                  
CLAYTON        FAIR      77  17  10 SW9       29.78F                  

$$
NMZ232>237-220000-
EASTCENTRAL PLAINS
  
CITY           SKY/WX    TMP DP  RH WIND       PRES   REMARKS
SANTA ROSA     FAIR      75  30  19 W29G35    29.86F                  
TUCUMCARI      FAIR      79  28  15 W21G26    29.76F                  
CANNON AFB     FAIR      77  27  16 W23G36    29.83F                  
CLOVIS AIRPORT FAIR      77  28  16 W21G30    29.85S                  

$$
NMZ028-029-033-238-220000-
SOUTHEAST PLAINS
  
CITY           SKY/WX    TMP DP  RH WIND       PRES   REMARKS
ROSWELL        FAIR      84  38  19 NW9       29.87S                  
ARTESIA        FAIR      82  45  26 E6        29.88F                  
CARLSBAD       FAIR      82  38  20 W16G26    29.86F                  
HOBBS          SUNNY     79  36  21 SW13      29.90F                  


$$
  
