ASUS45 KABQ 220210
RWRNM 
NEW MEXICO REGIONAL WEATHER ROUNDUP
NATIONAL WEATHER SERVICE ALBUQUERQUE NM
800 PM MDT FRI OCT 21 2022

NOTE: "FAIR" MEANS FEW OR NO CLOUDS BELOW 12,000 FEET AGL WITH NO
       SIGNIFICANT WEATHER OR OBSTRUCTIONS TO VISION.

      THIS PRODUCT IS RELEASED AS TWO VERSIONS.  ONE VERSION NEAR
      THE TOP OF THE HOUR CONTAINING PRELIMINARY DATA FROM ALBUQUERQUE
      AND OTHER STATIONS.  A FINAL VERSION WITH ADDITIONAL DATA IS 
      ISSUED ABOUT 10 MINUTES AFTER THE HOUR.
 
NMZ201-203-204-210>218-220300-
NORTHWEST PLATEAU/NORTHCENTRAL MOUNTAINS
  
CITY           SKY/WX    TMP DP  RH WIND       PRES   REMARKS
FARMINGTON     FAIR      60  29  30 W3        29.97R                  
LOS ALAMOS     FAIR      55  26  32 S7        30.06R                  
SANTA FE       FAIR      51  31  46 NW8       30.01R                  
TAOS           FAIR      54  22  28 SW9       30.05R                  
ANGEL FIRE     FAIR      50  20  30 W16G28    30.08R                  

$$
NMZ202-205>209-241-402-403-220300-
WESTCENTRAL MOUNTAINS/SOUTHWEST MOUNTAINS
  
CITY           SKY/WX    TMP DP  RH WIND       PRES   REMARKS
GALLUP         FAIR      51  37  58 CALM      30.05R                  
GRANTS         FAIR      51  39  63 W3        30.07S                  
SILVER CITY    FAIR      57  48  73 N9        30.06R                  

$$
NMZ407-409-411-412-220300-
SOUTHERN DESERTS
  
CITY           SKY/WX    TMP DP  RH WIND       PRES   REMARKS
DEMING         FAIR      68  47  46 W5        29.99R                  
LAS CRUCES     FAIR      68  43  41 SW6       30.00S                  
HOLLOMAN AFB   FAIR      67  42  39 SE8       29.98R                  
ALAMOGORDO     FAIR      64  45  48 SE10      29.96R                  
T OR C         FAIR      68  39  34 W9        29.98R                  

$$
NMZ219>223-220300-
CENTRAL VALLEYS/CENTRAL HIGHLANDS
  
CITY           SKY/WX    TMP DP  RH WIND       PRES   REMARKS
ALBUQUERQUE    FAIR      66  38  35 W7        29.98R                  
DOUBLE EAGLE   CLEAR     55  36  47 W8        30.01R                  
MORIARTY ARPT  FAIR      54  33  44 W3        30.02S                  
CLINES CORNERS FAIR      53  34  48 NW15      30.05R                  
BELEN          FAIR      60  37  43 S10       29.98R                  
SOCORRO        CLOUDY    63  43  48 W5        29.97R                  

$$
NMZ224>226-239-240-220300-
SOUTHCENTRAL MOUNTAINS
  
CITY           SKY/WX    TMP DP  RH WIND       PRES   REMARKS
RUIDOSO          N/A     57  36  44 SE7       30.09R                  

$$
NMZ227>231-220300-
NORTHEAST HIGHLANDS/NORTHEAST PLAINS
  
CITY           SKY/WX    TMP DP  RH WIND       PRES   REMARKS
LAS VEGAS      FAIR      54  26  34 S6        29.97F                  
RATON          FAIR      59  22  24 SW13      29.88R                  
CLAYTON        FAIR      63  23  21 SW7       29.78R                  

$$
NMZ232>237-220300-
EASTCENTRAL PLAINS
  
CITY           SKY/WX    TMP DP  RH WIND       PRES   REMARKS
SANTA ROSA     FAIR      64  32  30 W7        29.89R                  
TUCUMCARI      FAIR      68  32  26 W16G23    29.76S                  
CANNON AFB     FAIR      65  33  31 W14       29.85S                  
CLOVIS AIRPORT FAIR      66  32  28 W14       29.86S                  

$$
NMZ028-029-033-238-220300-
SOUTHEAST PLAINS
  
CITY           SKY/WX    TMP DP  RH WIND       PRES   REMARKS
ROSWELL        FAIR      68  47  46 W8        29.88S                  
ARTESIA        FAIR      68  45  42 SW9       29.91R                  
CARLSBAD       FAIR      70  43  37 SW10      29.88R                  
HOBBS          FAIR      63  45  51 SW12      29.90R                  


$$
  
