ASUS41 KCLE 231912
RWRCLE
OHIO REGIONAL WEATHER ROUNDUP
NATIONAL WEATHER SERVICE WILMINGTON, OH
300 PM EDT SUN OCT 23 2022

NOTE: "FAIR" INDICATES FEW OR NO CLOUDS BELOW 12,000 FEET WITH NO
SIGNIFICANT WEATHER AND/OR OBSTRUCTIONS TO VISIBILITY.

OHZ001>008-015>018-024>027-034-035-043-044-232000-
   NORTHWEST OHIO
  
CITY           SKY/WX    TMP DP  RH WIND       PRES   REMARKS
DEFIANCE       FAIR      76  49  38 S14G28    30.07F                  
FINDLAY        FAIR      76  51  41 S16       30.10F                  
TOLEDO EXPRESS FAIR      77  51  40 S14G23    30.09F                  
TOLEDO EXEC    FAIR      77  51  40 S13       30.11F                  
LIMA           FAIR      75  50  41 S14G24    30.10F                  
$$
 
OHZ009>014-019>023-028>033-038-089-232000-
   NORTHEAST OHIO
  
CITY           SKY/WX    TMP DP  RH WIND       PRES   REMARKS
CLE-HOPKINS    FAIR      76  46  34 SE13G18   30.13F                  
CLE-LAKEFRONT  FAIR      76  47  35 SE12      30.13F                  
CUY CO. ARPT   MOSUNNY   73  48  40 SE7       30.16F                  
LORAIN-ELYRIA  FAIR      75  47  36 S14G21    30.15F                  
ASHTABULA      FAIR      74  43  32 S9        30.19F                  
AKRON-CANTON   FAIR      75  42  30 S9        30.17F                  
WOOSTER        FAIR      73  47  39 S9        30.16F                  
MANSFIELD      FAIR      73  48  41 SE13      30.16F                  
YOUNGSTOWN     FAIR      72  39  30 VRB7      30.19F                  
$$
 
OHZ042-051>053-060>062-070>072-077>081-232000-
  SOUTHWEST OHIO
  
CITY           SKY/WX    TMP DP  RH WIND       PRES   REMARKS
CINC-COVINGTON FAIR      76  48  37 S12       30.10F                  
CINC-LUNKEN    FAIR      78  47  33 SW8G20    30.10F                  
HAMILTON       FAIR      78  48  34 VRB6      30.10F                  
DAYTON         FAIR      75  48  38 S17       30.12F                  
WRIGHT-PAT AFB FAIR      75  48  38 S13       30.08F                  
DAYTON GENERAL FAIR      76  49  38 S15G24    30.11F                  
WILMINGTON     FAIR      75  48  38 S9G18     30.12F                  
$$

OHZ036-037-039>041-045>050-054>059-063>069-073>076-082>088-232000-
  CENTRAL AND SOUTHEAST OHIO
  
CITY           SKY/WX    TMP DP  RH WIND       PRES   REMARKS
COLUMBUS       FAIR      77  46  33 S9        30.13F                  
OSU AIRPORT    FAIR      76  49  38 SE14      30.13F                  
BOLTON FIELD   SUNNY     75  52  43 S8        30.14F                  
RICKENBACK AFB FAIR      76  46  34 S6        30.13F                  
NEWARK         FAIR      78  45  30 S8        30.14F                  
MARION         FAIR      74  49  41 S14       30.13F                  
LANCASTER      FAIR      76  48  37 S8        30.14F                  
ZANESVILLE     FAIR      74  48  39 VRB3      30.15F                  
NEW PHILLY     FAIR      75  44  33 SE8       30.17F                  
$$
  
