FTUS80 KWBC 212248 AAA
TAF AMD
KMTJ 212247Z 2123/2218 24009KT P6SM SKC
     FM220300 15009KT P6SM SKC
     FM221700 20015G25KT P6SM SKC=
