FTUS80 KWBC 220206
TAF
TAF AMD PAFA 220158Z 2202/2306 25003KT 6SM -SHSN BR SCT015 BKN035
     FM220800 00000KT 2SM BR VCSH BKN005 BKN025
     FM221500 VRB03KT 3SM -SHSN BR BKN025
     FM222100 VRB03KT P6SM VCSH BKN025=
