FTCA35 KWBC 212309
TAF
TAF MPTO 212300Z 2200/2306 23006KT 9999 SCT018 BKN090
      TEMPO 2202/2206 VRB02KT FEW015CB PROB30 2210/2214 8000 -RA
      SCT016CB BKN090=
