FTUS80 KWBC 220221 AAA
TAF AMD
KHVR 220219Z 2202/2224 VRB06KT P6SM -SHRA SCT010 OVC018
      TEMPO 2202/2206 2SM -RA BR BKN009
     FM220800 06007KT 5SM -RA BR SCT015 BKN030
     FM221800 04008KT 4SM -SHRA BR SCT010 BKN025 AMD NOT SKED=
PAGK 220219Z 2202/2224 27005KT 6SM -SN BR SCT018 OVC030
      TEMPO 2202/2205 2SM -SN BR BKN018
     FM220600 VRB04KT 6SM BR SCT018 OVC035=
