FTUS80 KWBC 212333 RRD
TAF
KJXN 212331Z 2200/2224 16006KT P6SM FEW250 WS020/22045KT
     FM221100 18008KT P6SM SKC
     FM221600 18012G21KT P6SM SKC=
KLAN 212331Z 2200/2224 18008KT P6SM FEW250 WS020/22045KT
     FM221100 18008KT P6SM SKC
     FM221300 18012G21KT P6SM SKC=
TAF KLCK 212327Z 2200/2224 16005KT P6SM SCT250
     FM221600 18010G18KT P6SM FEW050 SCT250
     FM222200 14006KT P6SM SCT250=
KLOZ 212330Z 2200/2224 VRB03KT P6SM FEW250
     FM221500 18007KT P6SM FEW250=
KLVS 212332Z 2200/2224 25013G21KT P6SM SKC
     FM220200 28009KT P6SM FEW200 WS020/28035KT
     FM220900 25011KT P6SM FEW200 WS020/29045KT
     FM221600 26018G32KT P6SM FEW200=
KMCI 212332Z 2200/2224 19013KT P6SM FEW200
     FM221500 19018G26KT P6SM SKC=
KMCN 212330Z 2200/2224 00000KT P6SM SKC
     FM221500 08005KT P6SM SKC=
KMCW 212330Z 2200/2224 03003KT P6SM FEW250
     FM220600 11005KT P6SM SKC
     FM221500 17011KT P6SM SKC
     FM221800 18015G26KT P6SM SKC=
KMKC 212332Z 2200/2224 19010KT P6SM SCT200
     FM221500 19015G23KT P6SM SKC=
KMKG 212331Z 2200/2224 19015G24KT P6SM SCT250 WS020/22045KT
     FM220100 18012KT P6SM FEW250 WS020/22045KT
     FM220900 18009KT P6SM SKC
     FM221400 18014G22KT P6SM SKC=
KMSO 212331Z 2200/2224 27003KT 5SM -RA BR OVC025
     FM220800 29007KT 3SM -RA BR OVC025=
KMTH 212331Z 2200/2224 33011G17KT P6SM SCT045
     FM220500 01010G16KT P6SM SCT040=
