FTUS80 KWBC 212345
TAF
KAPA 212342Z 2200/2224 27007KT P6SM FEW130 SCT200
     FM220200 22009KT P6SM SCT200
     FM221800 27011KT P6SM FEW130
     FM222200 31011KT P6SM FEW130=
KBCE 212341Z 2200/2224 24012KT P6SM SKC
     FM220200 25008KT P6SM SKC
     FM221400 19012G25KT P6SM FEW200
     FM221800 21020G40KT P6SM FEW200=
KBJC 212342Z 2200/2224 27017G25KT P6SM FEW130 SCT200
     FM220300 25012G20KT P6SM FEW130 BKN200
     FM221200 25017G25KT P6SM FEW130=
KCDC 212341Z 2200/2224 22011G20KT P6SM FEW200
     FM220100 19011KT P6SM FEW200
     FM221600 20020G40KT P6SM SCT150 SCT180
     FM221900 21025G45KT P6SM SCT150=
KDEN 212342Z 2200/2306 28012G20KT P6SM FEW130 SCT200
     FM220200 23010KT P6SM FEW130 BKN200
     FM220400 20012KT P6SM SCT200
     FM221700 26008KT P6SM FEW130
     FM221900 29012G20KT P6SM FEW130
     FM230000 26010KT P6SM FEW130
     FM230200 22012KT P6SM SCT200=
KENV 212341Z 2200/2224 24010KT P6SM FEW250
     FM220700 28012G28KT P6SM BKN150 OVC180
     FM221200 29020G40KT 4SM BLDU BKN150 OVC180
     FM221700 29015G30KT P6SM -SHRA FEW060 BKN150
     FM222300 31010KT P6SM VCSH FEW080 BKN100=
TAF KEVW 212341Z 2200/2224 25022G35KT P6SM FEW200
     FM220100 23014G24KT P6SM FEW120 BKN150
     FM221400 24020G30KT P6SM VCSH SCT120 BKN150
     FM221700 22020G35KT 4SM RA BKN090 OVC120=
