FTUS80 KWBC 212321 RRC
TAF
KCKB 212320Z 2200/2224 19005KT P6SM SKC
     FM220600 15003KT P6SM FEW250
     FM221500 18009KT P6SM SKC=
KCKV 212320Z 2200/2224 17007KT P6SM SKC
     FM221700 18009G15KT P6SM SCT050=
KCLE 212320Z 2200/2306 18012KT P6SM SKC=
KCLL 212320Z 2200/2224 17014KT P6SM SKC
     FM220100 18010KT P6SM SKC
     FM221500 19015G24KT P6SM SCT025
     FM221900 18018G27KT P6SM SCT040=
KCLM 212320Z 2200/2224 31006KT 4SM -RA OVC015
     FM220400 27008KT P6SM -SHRA OVC020
     FM221100 25010KT P6SM VCSH OVC025
     FM221800 30008KT P6SM VCSH OVC030=
KCOE 212320Z 2200/2224 23010KT 6SM -RA BR BKN010 OVC020
     FM220600 23002KT 3SM -RA BR OVC015=
KCON 212320Z 2200/2224 20004KT P6SM SKC=
KCRE 212320Z 2200/2224 01004KT P6SM FEW040
     FM221200 03010KT P6SM FEW030=
KCRW 212320Z 2200/2224 20004KT P6SM FEW250
     FM221500 15002KT P6SM SCT200
     FM221800 18007KT P6SM FEW240=
KCSV 212320Z 2200/2224 16005KT P6SM FEW250
     FM221700 18006G13KT P6SM SCT050=
KCXP 212320Z 2200/2224 25015G25KT P6SM FEW120 SCT200
     FM220300 22010G18KT P6SM SCT120 BKN200 WS020/25040KT
     FM220700 20018G30KT P6SM BKN120 OVC200 WS020/25045KT
     FM221600 29015G25KT P6SM VCSH SCT045 BKN070 WS020/27040KT
      PROB30 2218/2224 34018G30KT -SHRA SCT030 OVC045=
KCYS 212320Z 2200/2224 27022G35KT P6SM SCT150
     FM220200 25016G26KT P6SM SKC
     FM221000 24012KT P6SM SCT150
     FM221600 25023G35KT P6SM SCT150=
