FTUS80 KWBC 212333 RRG
TAF
KTTD 212329Z 2200/2224 09007KT 3SM -RA BKN022 OVC035
     FM220200 VRB04KT 4SM RA BR SCT008 BKN015 OVC025
     FM220600 24008KT P6SM -SHRA SCT012 OVC025
     FM221100 26003KT P6SM -SHRA SCT020 BKN035 OVC050
     FM221900 23005KT P6SM -SHRA SCT020 BKN035 BKN060=
KTVC 212331Z 2200/2224 21008G16KT P6SM FEW150 WS020/24035KT
     FM220200 22007KT P6SM FEW150
     FM221800 18009G19KT P6SM FEW250=
KUAO 212329Z 2200/2224 11003KT 2SM -RA BKN004 BKN020 OVC035
     FM220200 20005KT 3SM RA BR BKN006 OVC022
     FM220500 25008KT P6SM -SHRA FEW006 BKN018 OVC030
     FM220800 25011G19KT P6SM -SHRA SCT015 OVC035
     FM221200 23008KT P6SM -SHRA SCT018 BKN035 OVC060=
PGSN 212331Z 2200/2224 09010KT P6SM VCSH SCT018 SCT040 BKN090
      TEMPO 2200/2202 4SM SHRA BKN018=
PGUM 212331Z 2200/2306 09012KT P6SM VCSH SCT016 BKN100
     FM221200 12012KT P6SM -RA SCT016 BKN040 OVC120=
PKMJ 212331Z 2200/2224 08011KT P6SM -RA BKN015 BKN100 OVC120
      TEMPO 2200/2204 3SM SHRA
     FM220400 09011KT P6SM VCSH SCT015 BKN120 OVC300=
PKWA 212331Z 2200/2224 07011KT P6SM VCSH SCT020=
PTKK 212331Z 2200/2224 VRB06KT P6SM VCSH SCT015 BKN120=
PTPN 212331Z 2200/2224 06011KT P6SM VCSH BKN018 BKN130
     FM220200 06011KT P6SM VCSH SCT018 BKN130 OVC300=
PTRO 212331Z 2200/2224 VRB06KT P6SM VCSH SCT014 BKN100
      TEMPO 2202/2206 4SM SHRA BKN016=
