FTUS80 KWBC 220054 AAA
TAF AMD
PATA 220052Z 2201/2224 10006KT P6SM -SHSN OVC012
      TEMPO 2201/2205 1 1/2SM -SN BR OVC009
     FM220500 08003KT 1SM -SHSN BR OVC007
     FM222100 VRB03KT 5SM -SHSN BKN025=
