FTUS80 KWBC 212342 RRB
TAF
KLWB 212340Z 2200/2224 00000KT P6SM SCT250
     FM221500 05004KT P6SM SCT250=
KLYH 212340Z 2200/2224 VRB03KT P6SM FEW250
     FM221500 07007KT P6SM SCT250=
KMEI 212339Z 2200/2224 18005KT P6SM FEW060 SCT250=
KMLU 212338Z 2200/2224 19010KT P6SM SKC
     FM221500 19013G24KT P6SM SKC=
KMRY 212338Z 2200/2224 25009KT 6SM BR BKN008
     FM220700 VRB03KT 3SM BR OVC005
     FM221200 24009KT P6SM OVC007
     FM221700 27013G20KT P6SM SCT010=
KOAJ 212339Z 2200/2224 00000KT P6SM SCT050
     FM221300 03007KT P6SM SCT050 AMD LTD TO CLD VIS AND WIND=
KOAK 212338Z 2200/2306 30014G20KT P6SM FEW010 FEW200
     FM220300 26012KT P6SM SCT010 BKN200
     FM220800 28012KT P6SM BKN015
     FM221200 29016G22KT P6SM BKN010
     FM221500 30021KT P6SM FEW010 BKN150
     FM221800 31022G30KT P6SM SCT250
     FM230300 32014KT P6SM SKC=
KOKC 212339Z 2200/2224 18013G19KT P6SM FEW250 WS020/21045KT
     FM221400 20018G28KT P6SM SCT250=
KONT 212339Z 2200/2306 25011KT P6SM FEW100 FEW250
     FM220400 VRB04KT P6SM FEW250
     FM220900 VRB04KT P6SM OVC012
     FM221700 24004KT P6SM BKN025
     FM222000 25011KT P6SM BKN035
     FM230200 25011G17KT P6SM VCSH BKN020 OVC030=
KOXR 212339Z 2200/2224 24008KT P6SM FEW012
     FM220300 28006KT P6SM BKN007
     FM221000 VRB03KT 5SM BR OVC012
     FM221500 VRB03KT P6SM OVC015
     FM222100 25012KT P6SM OVC025=
