FTUS80 KWBC 220142 CCA
TAF COR
KCTB 220140Z 2202/2224 13005KT P6SM VCSH SCT010 BKN050
      TEMPO 2202/2206 -RA BKN005
     FM220600 32008KT 4SM -RASN BR BKN015
     FM221600 02009KT 3SM -SN BR BKN008
     FM222000 34010KT 1SM -SN BR SCT006 BKN010=
