FTUS80 KWBC 220200 AAA
TAF AMD
KATL 220158Z 2202/2306 15003KT P6SM SKC
     FM221500 13006KT P6SM SKC=
KCEC 220159Z 2202/2224 18010KT 3SM -RA BR OVC015 WS020/30026KT
     FM220400 30013G23KT 2SM -RA BKN007 OVC015 WS020/34030KT
     FM220900 28010G20KT 4SM BR SCT005 BKN080 WS020/35032KT
     FM221200 34009G18KT 6SM BR VCSH SCT025 OVC040
     FM222000 33010KT 6SM BR BKN025 OVC050=
KPDX 220157Z 2202/2224 12007KT P6SM -RA SCT007 OVC017
     FM220400 29005KT 6SM RA BR SCT008 BKN025 OVC040
     FM220700 27008KT P6SM -SHRA SCT015 BKN025 OVC045
     FM221100 28007KT P6SM -SHRA SCT020 BKN035 OVC050
     FM221800 25007KT P6SM -SHRA SCT020 BKN035 BKN070=
KSEA 220158Z 2202/2306 VRB04KT 6SM -RA BR SCT007 OVC012
      TEMPO 2202/2204 4SM -RA BR OVC007
     FM220500 VRB04KT P6SM -SHRA BKN012 OVC020
     FM220800 20005KT P6SM VCSH OVC015
     FM221700 34005KT P6SM VCSH SCT015 OVC025=
PAFA 220158Z 2202/2306 25003KT 6SM -SHSN BR SCT015 BKN035
     FM220800 00000KT 2SM BR VCSH BKN005 BKN025
     FM221500 VRB03KT 3SM -SHSN BR BKN025
     FM222100 VRB03KT P6SM VCSH BKN025=
