FTUS80 KWBC 212254
TAF
TAF AMD PABI 212251Z 2122/2304 27009KT 1600 -SN OVC012 620129
      QNH2972INS
      BECMG 2122/2124 27009KT 2800 -SN OVC012 620129 QNH2968INS
      BECMG 2212/2214 VRB06KT 9000 BR SCT020 BKN030 620309
      QNH2989INS TX00/2122Z TNM08/2216Z=
