FTUS80 KWBC 220033 AAA
TAF AMD
KMOT 220031Z 2201/2224 VRB06KT P6SM -RA BKN030 OVC070
     FM220500 04005KT P6SM VCSH BKN030=
