FTUS80 KWBC 212312 AAA
TAF AMD
KSLC 212309Z 2123/2224 28010KT P6SM FEW150 FEW250
     FM220100 17011KT P6SM FEW150 SCT250
     FM220900 19015G25KT P6SM VCSH SCT080 OVC100
     FM221900 22016G30KT P6SM SHRA FEW040 OVC080=
KSOA 212310Z 2123/2218 19012KT P6SM SKC
     FM220100 18007KT P6SM SKC
     FM221530 20012G20KT P6SM SKC=
