FTCA33 KWBC 212303
TAF
TAF TBPB 212300Z 2200/2224 08012KT 9999 SCT018=
TAF TDPD 212300Z 2200/2224 10005KT 9999 SCT020=
