FTUS80 KWBC 212318 AAA
TAF AMD
PANC 212317Z 2123/2224 VRB03KT P6SM VCFG FEW001
      TEMPO 2123/2202 1/2SM FG BKN001
     FM222000 VRB05KT P6SM SCT100 BKN200=
