FTUS80 KWBC 212324 RRB
TAF
KHRO 212321Z 2200/2224 16009KT P6SM SKC
     FM220300 16009KT P6SM SKC WS020/23050KT
     FM221400 17020G28KT P6SM SCT250 WS018/22043KT
     FM221800 17020G29KT P6SM SCT250=
KISM 212322Z 2200/2224 03005KT P6SM SKC
     FM221400 36008KT P6SM FEW040=
KJMS 212321Z 2200/2224 VRB05KT P6SM BKN100
     FM221400 06008KT P6SM OVC200=
KLBB 212322Z 2200/2224 24015KT P6SM SKC
     FM221600 27020G30KT P6SM BKN250=
KLEE 212322Z 2200/2224 36007KT P6SM SKC
     FM220400 36004KT P6SM SKC
     FM221400 02007KT P6SM SCT050=
KLIT 212321Z 2200/2224 18009KT P6SM SKC
     FM220300 18006KT P6SM SKC WS020/23042KT
     FM221500 19013G20KT P6SM SCT220 WS020/21035KT
     FM221600 18016G24KT P6SM SCT200=
KMCO 212322Z 2200/2306 01007KT P6SM SKC
     FM221800 01012KT P6SM SCT050
     FM230300 36007KT P6SM SKC=
KMIA 212323Z 2200/2306 34011KT P6SM VCSH SCT030 BKN250
     FM220200 35005KT P6SM FEW050 SCT250
     FM221300 35010KT P6SM FEW050 SCT200
     FM221600 02012KT P6SM FEW035
     FM230100 VRB05KT P6SM FEW050=
KMLB 212322Z 2200/2224 36008KT P6SM FEW050 SCT080
     FM221400 01012KT P6SM SCT050=
KMLC 212323Z 2200/2224 19010G24KT P6SM FEW250
     FM220400 18011KT P6SM SCT250 WS020/20045KT
     FM221400 18016G24KT P6SM SCT250=
KMOT 212321Z 2200/2224 04005KT P6SM -RA BKN030 OVC070
     FM220500 04005KT P6SM VCSH BKN030=
