FTUS80 KWBC 212321 RRP
TAF
KSAT 212320Z 2200/2306 19010KT P6SM SKC
     FM221600 18012G22KT P6SM SKC=
KSAV 212320Z 2200/2224 06006KT P6SM SKC
     FM220100 VRB03KT P6SM SKC
     FM221400 02008KT P6SM FEW050=
KSBY 212320Z 2200/2224 00000KT P6SM SKC
     FM220900 00000KT 3SM BR SKC
     FM221300 07005KT P6SM SKC=
KSDF 212320Z 2200/2306 16007KT P6SM SCT250
     FM221400 19015G20KT P6SM SCT250=
KSDL 212320Z 2200/2224 VRB03KT P6SM FEW250
      TEMPO 2200/2202 24004KT
     FM221800 18009KT P6SM SCT050 SCT180
     FM222100 22015G23KT P6SM SCT050 SCT180=
KSEA 212320Z 2200/2306 20010KT P6SM -RA OVC010
     FM220500 VRB04KT P6SM -SHRA OVC015
     FM221000 20007KT P6SM VCSH OVC015
     FM221700 34005KT P6SM VCSH SCT015 OVC025=
KSFF 212320Z 2200/2224 23009KT 6SM -RA BR OVC050
     FM220900 23005KT 4SM -RA BR OVC040=
KSJT 212320Z 2200/2224 21014G22KT P6SM SKC
     FM220100 19012KT P6SM SKC
      TEMPO 2206/2210 19015G22KT
     FM221500 21016G25KT P6SM SKC=
KSLK 212320Z 2200/2224 21006KT P6SM FEW150
     FM221400 22010G20KT P6SM SKC
     FM222200 21007KT P6SM FEW150=
KSNY 212320Z 2200/2224 24020G32KT P6SM SCT150
     FM220200 25011KT P6SM SCT150
     FM221300 24015G26KT P6SM SKC=
KSOA 212320Z 2200/2224 19012KT P6SM SKC
     FM220100 18007KT P6SM SKC
     FM221530 20012G20KT P6SM SKC=
KSRQ 212320Z 2200/2224 36006KT P6SM SKC
     FM221400 01009KT P6SM SKC=
