FTUS80 KWBC 212327 RRC
TAF
KMKE 212324Z 2200/2306 21010KT P6SM SKC WS020/23040KT
     FM221400 19009G21KT P6SM FEW250
     FM221900 17013G27KT P6SM FEW250
     FM230500 19012KT P6SM FEW250 WS020/21045KT=
KMKL 212325Z 2200/2224 18007KT P6SM SKC
     FM221500 20015G20KT P6SM FEW250
     FM222300 18007KT P6SM SKC=
KMOD 212325Z 2200/2224 24004KT P6SM SKC
     FM220700 12006KT P6SM BKN250
     FM221600 31011KT P6SM BKN100=
KMRB 212326Z 2200/2224 15004KT P6SM FEW250
     FM220100 00000KT P6SM SKC
     FM221500 14004KT P6SM SKC=
KMSN 212324Z 2200/2224 22006KT P6SM SKC
     FM220300 VRB04KT P6SM FEW250
     FM221300 18008KT P6SM FEW250
     FM221500 18013G23KT P6SM SKC=
KMTJ 212323Z 2200/2224 25008KT P6SM SKC
     FM220200 19010KT P6SM SKC
     FM220400 15009KT P6SM FEW250
     FM221600 19015G23KT P6SM FEW250
     FM221800 22018G27KT P6SM FEW250=
KMTN 212326Z 2200/2224 00000KT P6SM SKC
     FM221500 14004KT P6SM SKC
     FM222200 00000KT P6SM FEW250 AMD NOT SKED 2202/2212=
KRBL 212325Z 2200/2224 18008KT P6SM SKC
     FM220800 20010KT P6SM BKN100
     FM221700 34017G24KT P6SM SKC=
KRDD 212325Z 2200/2224 17009KT P6SM SKC
     FM220600 21008KT P6SM SCT050 OVC100
     FM221700 36015G22KT P6SM SKC=
KRIL 212323Z 2200/2224 26015KT P6SM SCT250
     FM220200 21008KT P6SM FEW250
     FM220600 16003KT P6SM SKC
     FM221600 21008KT P6SM SKC
     FM221830 23022G33KT P6SM SCT200=
