FTUS80 KWBC 220009 AAA
TAF AMD
KCRW 220007Z 2200/2224 15005KT P6SM SKC
     FM221500 15002KT P6SM SCT200
     FM221800 18007KT P6SM FEW240=
KPKB 220008Z 2200/2224 16005KT P6SM SKC
     FM221800 17007KT P6SM SCT060
     FM222100 15005KT P6SM FEW250=
