FTUS80 KWBC 220027 AAA
TAF AMD
KLAX 220024Z 2200/2306 25012KT P6SM BKN010 BKN070
     FM220300 26006KT 6SM BR BKN009
     FM220800 VRB03KT 6SM HZ OVC012
     FM221600 19008KT P6SM OVC015
     FM222000 24012KT P6SM OVC025
     FM230100 25015KT P6SM VCSH OVC030=
KOXR 220023Z 2200/2224 24008KT P6SM BKN012
     FM220300 28006KT 5SM BR OVC012
     FM221500 VRB03KT P6SM OVC015
     FM222100 25012KT P6SM OVC025=
KSMO 220024Z 2200/2224 24007KT P6SM BKN010
     FM220500 VRB03KT 5SM BR OVC009
     FM220800 VRB03KT 6SM HZ BR OVC012
     FM221700 16004KT P6SM OVC015
     FM222100 21008KT P6SM OVC025=
