FTUS80 KWBC 212315 AAA
TAF AMD
KABI 212312Z 2123/2218 20017G27KT P6SM SKC
     FM220100 19014KT P6SM SKC
     FM220300 19018G26KT P6SM SKC
     FM221500 22020G29KT P6SM SKC=
