FTUS80 KWBC 212254 AAA
TAF AMD
KSJT 212252Z 2123/2218 21014G22KT P6SM SKC
     FM220100 19012KT P6SM SKC
      TEMPO 2206/2210 19015G22KT
     FM221500 21016G25KT P6SM SKC=
