FTUS80 KWBC 212345 RRB
TAF
PABR 212343Z 2200/2224 09021G31KT 3SM -SN BR BLSN SCT010 BKN025
      TEMPO 2200/2203 1SM -SHSN BKN015=
PABT 212343Z 2200/2224 33003KT P6SM VCSH SCT015 BKN040
     FM220600 03003KT 5SM -SHSN BKN015=
PACV 212341Z 2200/2224 VRB03KT P6SM FEW015 SCT025 BKN080
     FM221200 00000KT 6SM BR VCFG SCT002=
PADQ 212341Z 2200/2224 27010KT P6SM FEW050
      TEMPO 2200/2204 27012G18KT
     FM221600 11007KT P6SM FEW030 OVC050
     FM222000 05012G18KT 4SM -RA BR OVC015=
PAEN 212341Z 2200/2224 21005KT P6SM SKC=
PAFA 212343Z 2200/2306 25004KT 3SM -SN BR BKN020 OVC035
     FM220500 25003KT 5SM -SHSN BR BKN025
     FM220800 00000KT 2SM BR VCSH BKN005 BKN025
     FM221500 VRB03KT 3SM -SHSN BR BKN025
     FM222100 VRB03KT P6SM VCSH BKN025=
PAGA 212343Z 2200/2224 13008KT P6SM -SHRA BKN029
     FM220300 12008KT 6SM -SHRASN BR BKN015 OVC025
     FM221200 12005KT P6SM VCSH OVC015 AMD LTD TO CLD VIS WX=
PAGK 212341Z 2200/2224 27006KT 6SM -SN BR SCT015 OVC020
      TEMPO 2200/2202 3SM -SN BR OVC015
     FM220400 VRB04KT 6SM BR VCSH OVC030=
PAHO 212341Z 2200/2224 27012G18KT P6SM FEW025 SCT200
     FM220200 27010KT P6SM SCT200
     FM221200 VRB05KT P6SM BKN200
     FM222200 05006KT P6SM SCT050 BKN100=
PAMC 212343Z 2200/2224 18004KT 4SM -SHRA BR BKN010
     FM220600 20005KT 4SM -SHSN BR BKN015 AMD NOT SKED=
