FTUS80 KWBC 220000
TAF
KAOO 212320Z 2200/2224 18004KT P6SM FEW250=
KBFD 212320Z 2200/2224 17005KT P6SM SKC
     FM220300 17004KT P6SM SKC WS017/23035KT
     FM221100 16004KT P6SM FEW250
     FM221500 19007KT P6SM SKC=
KBKE 212340Z 2200/2224 34010KT P6SM -RA OVC040
      TEMPO 2204/2207 6SM -RA OVC025
     FM220800 30012KT P6SM -SHRA OVC040=
KBNO 212340Z 2200/2224 25015G22KT P6SM VCSH OVC060
     FM220400 22012KT P6SM -RA OVC040
     FM220600 24022G32KT P6SM -RA OVC035
     FM220900 23017G27KT P6SM BKN040=
KBOI 212340Z 2200/2224 31010KT P6SM SCT150
     FM220200 32008KT P6SM VCSH OVC060
     FM220500 29015G25KT P6SM -RA OVC040
     FM221400 31014G24KT P6SM -SHRA OVC050=
KEUL 212340Z 2200/2224 29010KT P6SM SCT150
     FM220100 VRB06KT P6SM VCSH OVC060
     FM220500 24015G25KT P6SM -RA OVC050
     FM221300 27016G26KT P6SM -SHRA OVC060 AMD NOT SKED=
KIPT 212320Z 2200/2224 16010KT P6SM SKC
     FM220400 VRB03KT P6SM FEW250
     FM221500 21005KT P6SM SKC=
KJST 212320Z 2200/2224 17006KT P6SM FEW250=
KLNS 212320Z 2200/2224 VRB03KT P6SM FEW250
     FM221600 18004KT P6SM SKC=
KMDT 212320Z 2200/2224 VRB03KT P6SM FEW250
     FM221600 19005KT P6SM SKC=
KMYL 212340Z 2200/2224 20008KT P6SM -RA OVC035
     FM220200 16010KT 4SM -RA BR OVC015
      TEMPO 2204/2207 3SM -RA BR OVC015
     FM221200 18012KT 6SM -RA BR OVC025=
