FTUS80 KWBC 212327 RRD
TAF
KROC 212324Z 2200/2224 18009KT P6SM SKC
     FM220200 20012G20KT P6SM SKC WS015/22040KT
     FM221300 20010KT P6SM SKC
     FM221800 20012G20KT P6SM SKC
     FM222300 18007KT P6SM FEW250=
KRST 212325Z 2200/2224 VRB04KT P6SM SCT250
     FM220400 14008KT P6SM FEW250
     FM221500 17011KT P6SM FEW250
     FM221800 18016G24KT P6SM SKC=
KSAC 212325Z 2200/2224 19007KT P6SM BKN250
     FM221700 27009KT P6SM BKN250=
KSBM 212324Z 2200/2224 23007KT P6SM FEW250
     FM220600 00000KT P6SM FEW240
     FM221200 18007KT P6SM SKC
     FM221400 18010G22KT P6SM SKC
     FM221900 17013G25KT P6SM FEW250=
KSCK 212325Z 2200/2224 32007KT P6SM SKC
     FM220500 21010KT P6SM BKN250
     FM222200 29010G17KT P6SM SKC=
KSMF 212325Z 2200/2224 17012KT P6SM BKN250
     FM221900 24012KT P6SM BKN250=
KSTL 212323Z 2200/2306 17009KT P6SM SCT250
     FM221600 17015G25KT P6SM SCT250=
KSUS 212323Z 2200/2224 18007KT P6SM SCT250
     FM221600 18012G23KT P6SM SCT250=
KTEX 212323Z 2200/2224 27006KT P6SM FEW150
     FM220200 15004KT P6SM FEW150
     FM221600 19012G25KT P6SM FEW250
     FM222100 21023G40KT P6SM FEW250=
KTUP 212325Z 2200/2224 14006KT P6SM SKC
     FM220500 19006KT P6SM FEW250
     FM221500 21011G17KT P6SM FEW250=
KUIN 212323Z 2200/2224 18010KT P6SM FEW250
     FM220300 17008KT P6SM SCT250 WS016/22040KT
     FM221500 18015G25KT P6SM SCT250=
