FTUS80 KWBC 220245 AAA
TAF AMD
KLAX 220241Z 2203/2306 25010KT P6SM OVC008
     FM220800 VRB03KT 6SM HZ OVC012
     FM221600 19008KT P6SM OVC015
     FM222000 24012KT P6SM OVC025
     FM230100 25015KT P6SM VCSH OVC030=
