FTUS80 KWBC 220233 AAB
TAF AMD
KTEB 220232Z 2203/2306 VRB04KT P6SM SKC
     FM221500 20005KT P6SM SKC
     FM221900 17006KT P6SM FEW250
     FM230100 VRB03KT P6SM SCT250=
