FTUS80 KWBC 212306 AAA
TAF AMD
KBBD 212303Z 2123/2218 19015KT P6SM SKC
     FM220015 18008KT P6SM SKC
     FM221500 19015G24KT P6SM SKC=
KJCT 212305Z 2123/2218 20010G18KT P6SM SKC
     FM220000 19005KT P6SM SKC
     FM221600 20013G21KT P6SM SKC=
