FTUS80 KWBC 220133 AAA
TAF AMD
KHOT 220130Z 2202/2224 14004KT P6SM SKC WS020/22038KT
     FM220300 17006KT P6SM SKC WS020/22040KT
     FM221500 20013G20KT P6SM SCT200 WS020/22042KT
     FM221600 19015G22KT P6SM SCT180=
KLIT 220132Z 2202/2224 15005KT P6SM SKC WS005/20030KT
     FM220300 18006KT P6SM SKC WS020/23042KT
     FM221500 19013G20KT P6SM SCT220 WS020/21035KT
     FM221600 18016G24KT P6SM SCT200=
KLIT 220132Z 2202/2224 15005KT P6SM SKC WS020/20030KT
     FM220300 18006KT P6SM SKC WS020/23042KT
     FM221500 19013G20KT P6SM SCT220 WS020/21035KT
     FM221600 18016G24KT P6SM SCT200=
