FTUS80 KWBC 212324 AAA
TAF AMD
KAEX 212321Z 2123/2218 23009KT P6SM SKC
     FM221500 18012G18KT P6SM FEW250=
