FTUS80 KWBC 220121
TAF
TAF AMD PABI 220102Z 2201/2304 27009KT 4800 -SN BKN009 OVC014
      620099 QNH2978INS
      TEMPO 2202/2204 2400 BKN015 OVC020
      BECMG 2212/2214 VRB06KT 9000 BR SCT020 BKN030 620309
      QNH2989INS TX00/2201Z TNM08/2216Z=
