FTUS80 KWBC 212327 RRE
TAF
KVCT 212325Z 2200/2224 18012G18KT P6SM SKC
     FM220200 17008KT P6SM FEW025
     FM221500 17016G25KT P6SM FEW250=
KVEL 212323Z 2200/2224 25013G23KT P6SM SKC
     FM220300 26009KT P6SM FEW250
     FM221800 21015G23KT P6SM BKN200
     FM222000 22021G31KT P6SM BKN110
     FM222300 24021G32KT P6SM OVC090=
PAGS 212325Z 2200/2224 24009KT P6SM VCSH FEW040 OVC050
     FM220600 34003KT P6SM VCFG SCT007 BKN050
     FM221800 15003KT P6SM BKN100 AMD LTD TO CLD VIS AND WIND=
PAGY 212325Z 2200/2224 21015G20KT P6SM FEW060 BKN070 OVC100
     FM220600 03008KT P6SM VCFG BKN050
     FM221800 03003KT P6SM SKC AMD LTD TO CLD VIS AND WIND=
PAJN 212325Z 2200/2224 13008KT P6SM -SHRA FEW008 BKN050 BKN070
     FM220600 00000KT 6SM BR VCFG SCT007 BKN050
     FM221200 00000KT 1SM BCFG OVC007
     FM221800 09002KT P6SM BKN100=
PAKT 212325Z 2200/2224 30011KT P6SM VCSH SCT027 BKN045 BKN060
     FM220600 31002KT P6SM VCFG BKN050
     FM221800 31002KT P6SM SKC=
PAKW 212325Z 2200/2224 VRB05KT P6SM VCSH SCT040 BKN050
     FM220600 03003KT P6SM VCFG BKN050
     FM221800 02003KT P6SM SKC AMD LTD TO CLD VIS AND WIND=
PAPG 212325Z 2200/2224 05003KT P6SM -SHRA FEW008 BKN035 OVC045
     FM221200 00000KT 1SM BCFG SCT001 BKN050
     FM221800 VRB03KT P6SM SKC=
PASI 212325Z 2200/2224 01007KT P6SM -SHRA FEW025 SCT035 BKN050
      TEMPO 2200/2204 4SM -SHRA FEW015 BKN030 OVC050
     FM220600 31006KT P6SM BKN050=
