FTUS80 KWBC 212330 RRD
TAF
PADU 212329Z 2200/2224 VRB06KT P6SM SCT025 OVC200
      TEMPO 2200/2204 OVC025
     FM220400 VRB06KT 6SM -RA OVC015
     FM220600 VRB06KT 4SM -RA BR OVC007
     FM221700 VRB06KT P6SM VCSH OVC015
     FM221900 VRB06KT P6SM VCSH OVC025=
PAIL 212329Z 2200/2224 VRB06KT P6SM SCT025 BKN050
      TEMPO 2200/2204 BKN025=
PAKN 212329Z 2200/2224 26015G20KT P6SM VCSH SCT025 BKN050
      TEMPO 2200/2204 VRB06KT BKN025
     FM220400 VRB06KT P6SM BKN050=
PASN 212329Z 2200/2224 24013KT P6SM FEW030
     FM220300 20005KT P6SM FEW030
     FM221800 23009KT P6SM OVC025=
