FTUS80 KWBC 212321 RRS
TAF
KVGT 212320Z 2200/2224 13008KT P6SM FEW200
     FM220300 23006KT P6SM SKC
     FM221500 20012G20KT P6SM SKC WS020/23040KT
     FM221900 22027G37KT 6SM BLDU SCT200 BKN250=
KVLD 212320Z 2200/2224 VRB04KT P6SM SKC
     FM221600 03010KT P6SM SKC=
KVTN 212320Z 2200/2224 15011KT P6SM FEW250
     FM220300 18009KT P6SM SCT250
     FM220500 21007KT P6SM SCT250 WS020/23035KT
     FM221000 24007KT P6SM SCT250 WS020/23035KT
     FM221700 23012G22KT P6SM SCT250=
KWMC 212320Z 2200/2224 24014G24KT P6SM SCT100 BKN150
     FM221100 28018G28KT P6SM VCSH SCT060 BKN100=
KYNG 212320Z 2200/2224 18010KT P6SM SKC=
KZZV 212320Z 2200/2224 17007KT P6SM SKC=
