FTUS80 KWBC 212321 RRN
TAF
KPAH 212320Z 2200/2224 19007KT P6SM FEW250
     FM220200 18005KT P6SM SCT250
     FM220700 18004KT P6SM BKN250 WS015/21035KT
     FM221400 19012G20KT P6SM SCT250
     FM221600 20015G25KT P6SM SCT250
     FM222300 19012KT P6SM SCT250=
KPBG 212320Z 2200/2224 17007KT P6SM FEW180
     FM221400 16007KT P6SM SKC
     FM221700 16010G18KT P6SM FEW180
     FM222200 17007KT P6SM FEW180=
KPHF 212320Z 2200/2224 00000KT P6SM SKC
     FM220800 00000KT 2SM BR SCT003
     FM221100 07006KT P6SM SKC=
KPHX 212320Z 2200/2306 27006KT P6SM FEW250
     FM220600 11007KT P6SM FEW070 BKN250
     FM221800 18009KT P6SM SCT050 SCT180
     FM222000 22014G24KT P6SM SCT050 SCT180=
KPIE 212320Z 2200/2224 35008KT P6SM SKC
     FM220300 02007KT P6SM SKC=
KPIH 212320Z 2200/2224 25020G30KT P6SM OVC200
     FM220200 22011KT P6SM VCSH OVC080
     FM220700 21010KT P6SM -RA SCT030 OVC050
     FM221200 21013KT P6SM -RA BKN020 OVC040
     FM221800 23020G30KT P6SM VCSH OVC060=
KPIT 212320Z 2200/2306 18006KT P6SM SKC=
KPKB 212320Z 2200/2224 20005KT P6SM FEW250
     FM221800 17007KT P6SM SCT060
     FM222100 15005KT P6SM FEW250=
KPNS 212320Z 2200/2224 19005KT P6SM SKC
     FM220200 VRB03KT P6SM SKC
     FM221500 15009KT P6SM FEW050=
KPQI 212320Z 2200/2224 18005KT P6SM SCT250
     FM220300 VRB02KT P6SM SKC
     FM221600 18007G14KT P6SM FEW045=
KPSM 212320Z 2200/2224 14005KT P6SM SKC
     FM220400 23004KT P6SM FEW250=
