FTUS80 KWBC 220000 CCA
TAF COR
KMRY 212357Z 2200/2224 25009KT 6SM BR BKN008
     FM220700 22007KT 4SM BR OVC004
     FM221200 28008KT 6SM -DZ BR OVC007
     FM221700 27013G20KT P6SM SCT010 BKN050
     FM222200 30020KT P6SM FEW200=
