FTUS80 KWBC 212321 RRR
TAF
KTOP 212320Z 2200/2224 17008KT P6SM FEW250
     FM220200 16007KT P6SM SKC WS012/21045KT
     FM221200 17008KT P6SM SKC
     FM221500 18013G21KT P6SM SKC=
KTPA 212320Z 2200/2306 01008KT P6SM SKC
     FM220200 02005KT P6SM SKC
     FM221400 01008KT P6SM SKC
     FM230200 02005KT P6SM SKC=
KTPH 212320Z 2200/2224 23012G22KT P6SM SCT250
     FM220300 26014G24KT P6SM FEW150 BKN200
     FM220600 35013G23KT P6SM SCT150 BKN200=
KTRI 212320Z 2200/2224 VRB02KT P6SM SKC=
KTRK 212320Z 2200/2224 23014G24KT P6SM FEW100 SCT200
     FM220200 20012G20KT P6SM SCT100 BKN180 WS020/25045KT
     FM220600 20023G36KT P6SM SCT040 BKN100 BKN180 WS020/25050KT
     FM221500 25013G23KT P6SM -SHRA SCT025 BKN060 WS020/28040KT
      PROB30 2218/2224 31018G30KT 6SM -SHRA BKN025 OVC040=
KTUS 212320Z 2200/2224 28011G20KT P6SM SCT130 SCT250
     FM220300 24006KT P6SM SCT250
     FM220700 15005KT P6SM FEW250
     FM221800 21013G22KT P6SM SCT250
     FM222100 22018G28KT P6SM BKN250=
KTVL 212320Z 2200/2224 20014G24KT P6SM FEW100 SCT200
     FM220200 20012G22KT P6SM SCT100 BKN180 WS020/25045KT
     FM220600 20025G38KT P6SM BKN100 BKN180 WS020/25050KT
     FM221600 20012G22KT P6SM -SHRA SCT025 BKN060 WS020/29040KT
      PROB30 2218/2224 21015G28KT 6SM -SHRA BKN025 OVC040=
KTYS 212320Z 2200/2224 VRB03KT P6SM SKC
     FM221700 24005KT P6SM FEW250=
