FTUS80 KWBC 212327
TAF
KALI 212325Z 2200/2224 17012G18KT P6SM SKC
     FM220200 18008KT P6SM FEW030
     FM221500 16015G23KT P6SM SKC=
KART 212324Z 2200/2224 17010G23KT P6SM FEW250
     FM220300 19013G23KT P6SM SKC
     FM221000 18011G18KT P6SM SKC
     FM221600 20013G21KT P6SM SKC
     FM222100 18010G16KT P6SM SKC=
KASE 212323Z 2200/2224 34013G22KT P6SM FEW100
     FM220100 21009KT P6SM FEW250
     FM221700 22014G25KT P6SM FEW250=
KBUF 212324Z 2200/2224 18009KT P6SM SKC
     FM220200 20010G20KT P6SM SKC WS015/22040KT
     FM221200 20013G24KT P6SM FEW250
     FM222200 20009KT P6SM FEW250
     FM222300 18007KT P6SM SKC=
KBWI 212326Z 2200/2306 15005KT P6SM FEW250
     FM220400 00000KT P6SM SKC
     FM221500 16004KT P6SM SKC
     FM222300 00000KT P6SM FEW250
     FM230200 07004KT P6SM FEW100 SCT250=
KCHO 212326Z 2200/2224 19004KT P6SM FEW250
     FM220100 00000KT P6SM SKC
     FM221500 17005KT P6SM SKC
     FM222200 12004KT P6SM FEW250=
KCNY 212323Z 2200/2224 20010KT P6SM SKC
     FM220300 21005KT P6SM SKC
     FM221800 20022G35KT P6SM FEW250=
KCOT 212325Z 2200/2224 17008KT P6SM SKC
      TEMPO 2211/2215 BKN025
     FM221500 17012G19KT P6SM SKC=
KCOU 212323Z 2200/2224 17008KT P6SM SCT250
     FM220300 16008KT P6SM SCT250 WS016/21040KT
     FM221500 18014G24KT P6SM SCT250=
KCPS 212323Z 2200/2224 17007KT P6SM SCT250
     FM221600 17012G23KT P6SM SCT250=
