FTUS80 KWBC 220233 AAA
TAF AMD
KABI 220230Z 2203/2224 19010KT P6SM SKC
     FM220330 19018G26KT P6SM SKC
     FM221500 22020G29KT P6SM SKC=
KBDR 220232Z 2203/2224 21009KT P6SM SKC
     FM220800 VRB04KT P6SM SKC
     FM221400 23005KT P6SM SKC
     FM221900 18007KT P6SM FEW250=
KEWR 220232Z 2203/2306 VRB04KT P6SM SKC
     FM221500 22005KT P6SM SKC
     FM221900 16007KT P6SM FEW250
     FM230100 VRB03KT P6SM SCT250=
KGON 220232Z 2203/2224 20010KT P6SM SKC
     FM220500 19006KT P6SM SKC
     FM220900 VRB03KT P6SM SKC
     FM221500 21005KT P6SM SKC
     FM221900 18007KT P6SM FEW250=
KHPN 220232Z 2203/2224 VRB03KT P6SM SKC
     FM221600 20005KT P6SM SKC
     FM222000 16005KT P6SM FEW250 AMD NOT SKED=
KISP 220232Z 2203/2224 VRB03KT P6SM SKC
     FM221500 21005KT P6SM SKC
     FM221900 18007KT P6SM FEW250=
KJFK 220232Z 2203/2306 21011KT P6SM SKC
     FM220500 22007KT P6SM SKC
     FM220900 VRB04KT P6SM SKC
     FM221400 20006KT P6SM SKC
     FM221900 17008KT P6SM FEW250
     FM230200 07005KT P6SM SCT250=
KLGA 220232Z 2203/2306 19006KT P6SM SKC
     FM220700 VRB04KT P6SM SKC
     FM221400 20005KT P6SM SKC
     FM222000 16007KT P6SM FEW250
     FM230200 06005KT P6SM SCT250=
KSWF 220232Z 2203/2306 VRB03KT P6SM SKC
     FM221500 24006KT P6SM SKC
     FM221900 21008KT P6SM FEW250
     FM222300 VRB04KT P6SM SCT250 AMD NOT SKED=
