FTUS80 KWBC 212339 RRA
TAF
KCWA 212337Z 2200/2224 VRB03KT P6SM SCT180
     FM221000 10007KT P6SM SCT200
     FM221500 15009G17KT P6SM SKC
     FM222300 15009KT P6SM SKC WS010/20020KT=
KDBQ 212336Z 2200/2224 17005KT P6SM FEW250
     FM221600 19015G21KT P6SM SKC=
KDHT 212337Z 2200/2224 25012KT P6SM SKC
     FM221800 24023G34KT P6SM SCT300=
KDPA 212338Z 2200/2224 20010G20KT P6SM SKC WS010/22045KT
     FM220900 19010KT P6SM FEW300
     FM221500 19015G25KT P6SM FEW300=
KGGG 212338Z 2200/2224 19010KT P6SM SKC
     FM221500 19019G30KT P6SM SKC=
KGRB 212337Z 2200/2224 VRB04KT P6SM SCT180
     FM220300 18003KT P6SM SKC
     FM221600 17010G17KT P6SM SCT200
     FM222300 16009KT P6SM SKC WS010/20020KT=
KGTF 212337Z 2200/2224 23011KT P6SM SCT040 BKN060
      TEMPO 2200/2203 -SHRA BKN040
     FM220600 22010KT P6SM SCT040 BKN060
      TEMPO 2207/2211 -SHRA BKN040
     FM221500 32008KT 6SM -SHRA BR SCT010 BKN020
     FM222200 34010KT 3SM -SHSNRA BR SCT006 BKN015=
KGYY 212338Z 2200/2224 20010KT P6SM SKC WS010/22045KT
     FM220900 19010KT P6SM FEW300
     FM221500 19015G25KT P6SM FEW300=
KHLN 212337Z 2200/2224 30011KT P6SM OVC070
      TEMPO 2202/2206 4SM -RA BR OVC025
     FM220600 VRB05KT 6SM -RA BR OVC025
     FM221500 VRB04KT 4SM -RA BR OVC010=
