FTUS80 KWBC 220112 AAA
TAF AMD
KSEA 220109Z 2201/2306 20005KT 6SM -RA BR OVC012
     FM220500 21004KT P6SM -SHRA BKN013 OVC020
     FM221000 20005KT P6SM VCSH OVC015
     FM221700 34005KT P6SM VCSH SCT015 OVC025=
