FTUS80 KWBC 212357 CCA
TAF COR
KSNS 212353Z 2200/2224 31014KT P6SM BKN012
     FM220300 29007KT 6SM BR OVC008
     FM221100 27012KT 5SM -DZ BR OVC012
     FM221800 29018G25KT P6SM FEW015 BKN100=
