FTUS80 KWBC 212257 AAA
TAF AMD
KLFK 212255Z 2123/2218 21012KT P6SM SKC
     FM220000 19008KT P6SM SKC
     FM221500 19016G25KT P6SM SKC=
KSAN 212255Z 2123/2224 22008KT P6SM BKN015
      TEMPO 2123/2201 SCT015
     FM220100 VRB04KT P6SM SCT012 SCT200
     FM220300 VRB04KT P6SM BKN014
     FM220700 VRB03KT P6SM -DZ OVC014
     FM221800 20010KT P6SM BKN020=
