FTUS80 KWBC 220039 AAA
TAF AMD
KJLN 220036Z 2201/2224 18013KT P6SM SKC
     FM220300 18015KT P6SM BKN250 WS020/21040KT
     FM221100 18016G26KT P6SM SCT240 WS020/21050KT
     FM221500 19022G34KT P6SM FEW250
     FM222200 18021G30KT P6SM FEW210=
KOGD 220038Z 2201/2224 17008KT P6SM SKC
     FM220500 17012KT P6SM SCT200
     FM221000 18016G28KT P6SM SCT080 BKN120
     FM221700 21014KT 5SM RA BR FEW030 BKN080 OVC100=
