FTUS80 KWBC 220103 AAA
TAF AMD
KBLI 220100Z 2201/2224 19006KT 6SM -RA BR BKN009 OVC015
     FM220400 VRB04KT 6SM -SHRA BR OVC015
     FM221400 01003KT P6SM VCSH OVC015
     FM221800 33005KT P6SM VCSH SCT015 OVC025=
