FTUS80 KWBC 212324 CCA
TAF COR
KMSY 212322Z 2200/2306 17011KT P6SM FEW035
     FM220200 VRB04KT P6SM SKC
     FM221500 15011KT P6SM SCT025
     FM230300 16005KT P6SM SKC=
