FTUS80 KWBC 212321 RRB
TAF
KBRO 212320Z 2200/2224 15010KT P6SM FEW050
     FM220200 VRB05KT P6SM SKC
     FM221500 16013G20KT P6SM SCT045 SCT250
     FM221800 16019G26KT P6SM FEW050 FEW250=
KBTR 212320Z 2200/2224 23010KT P6SM FEW030
     FM220200 VRB03KT P6SM SKC
     FM221500 17012KT P6SM SCT250=
KBTV 212320Z 2200/2224 18006KT P6SM FEW150
     FM221500 19014G22KT P6SM SKC=
KBVI 212320Z 2200/2224 VRB05KT P6SM SKC AMD LTD TO WIND VIS AND
      WX=
KBWG 212320Z 2200/2224 18007KT P6SM SCT250
     FM221400 19015G20KT P6SM SCT250=
KBYI 212320Z 2200/2224 27010G20KT P6SM OVC200
     FM220300 24008KT P6SM BKN100
     FM220600 24007KT P6SM VCSH SCT040 OVC070
     FM220800 24010KT P6SM -RA SCT030 OVC050
     FM221300 25013KT P6SM -RA OVC025
     FM221800 27015G25KT P6SM VCSH OVC070=
KCAK 212320Z 2200/2224 18010KT P6SM SKC=
KCAR 212320Z 2200/2224 19005KT P6SM SCT250
     FM221600 18008G16KT P6SM FEW045=
KCDR 212320Z 2200/2224 23012KT P6SM SCT150
     FM221600 23015G25KT P6SM SCT150=
KCGI 212320Z 2200/2224 19007KT P6SM FEW250
      TEMPO 2200/2202 6SM FU
     FM220200 17005KT P6SM SCT250
     FM220700 18004KT P6SM SCT250 WS015/21035KT
     FM221300 18012G20KT P6SM SCT250
     FM221500 19015G25KT P6SM SCT250
     FM222300 18012KT P6SM SCT250=
KCHA 212320Z 2200/2224 17002KT P6SM SKC
     FM221400 17004KT P6SM FEW240=
KCHS 212320Z 2200/2224 VRB03KT P6SM SKC
     FM221400 03008KT P6SM SCT050=
