FTUS80 KWBC 212339
TAF
KABR 212336Z 2200/2224 15005KT P6SM BKN250
     FM221600 12007KT P6SM SCT250=
KAMA 212337Z 2200/2224 23016KT P6SM SKC
     FM221600 24025G35KT P6SM SCT300=
TAF KARA 212332Z 2200/2224 22008KT P6SM SKC
     FM221600 18012G18KT P6SM FEW250=
KATY 212336Z 2200/2224 14003KT 6SM HZ SCT250
      TEMPO 2200/2202 5SM HZ
     FM220300 16006KT P6SM FEW250
     FM221500 19011G21KT P6SM FEW250
     FM222300 18006KT P6SM FEW250=
KAUW 212337Z 2200/2224 VRB03KT P6SM SCT180
     FM221000 10007KT P6SM SCT200
     FM221500 15009G17KT P6SM SKC
     FM222300 15009KT P6SM SKC WS010/20020KT=
KBRL 212336Z 2200/2224 18007KT P6SM SKC
     FM220700 18008KT P6SM FEW250 WS020/23040KT
     FM221600 19014G21KT P6SM SKC=
KBZN 212337Z 2200/2306 VRB05KT P6SM VCSH SCT045 BKN070
      TEMPO 2201/2205 -SHRA BKN050
     FM220600 03007KT P6SM -SHRA SCT020 BKN040
     FM221600 VRB06KT 1 1/2SM -RA BR OVC012
     FM221800 VRB05KT 6SM -RA BR OVC015
     FM230100 VRB05KT 3SM -SN BR OVC005=
KCID 212336Z 2200/2224 16005KT P6SM FEW250
     FM221600 18012G20KT P6SM SKC=
KCTB 212337Z 2200/2224 03005KT P6SM VCSH SCT010 BKN040
      TEMPO 2201/2205 -RA BKN015
     FM220600 32008KT 4SM -RASN BR OVC009
     FM221600 02009KT 3SM -SN BR OVC008
     FM222000 34010KT 1SM -SN BR SCT006 BKN010=
