FTUS80 KWBC 212342 CCA
TAF COR
KBCB 212341Z 2200/2224 00000KT P6SM FEW250
     FM221500 08005KT P6SM SCT250=
KSJC 212341Z 2200/2224 32012G18KT P6SM FEW250
     FM220800 13007KT P6SM BKN020
     FM221600 31014G22KT P6SM FEW020
     FM222200 32021G26KT P6SM SKC=
