SAPS31 NZKL 220200
METAR NIUE 220200Z AUTO 07006KT 27/22 Q1011=
METAR NCAI 220200Z AUTO 08003KT //// ////// 29/23 Q1013=
