SMPA01 KWBC 220000 RRA
AAXX 22004
91165 12966 01711 10289 20228 30115 40148 58015 69901 92353 333
10294 20217 555 92200=
91182 12566 4//06 10289 20222 30144 40148 58018 69901 92353 333
10294 20233 555 92200=
91190 32666 20313 10344 20200 30127 40147 58022 92354 333 10344
20222 555 92200=
91212 32966 01014 10294 20244 30034 40117 51014 92354 333 10300
91018 555 92200=
91285 12566 81211 10283 20228 30134 40146 58023 69901 92353 333
10294 20217 555 92200=
91317 12474 81604 10283 20268 30098 40102 5//// 60044 81850 333
5649/ 59012 70043 81818 86366 555 92200=
