SPUS70 KWBC 220220
SPECI
PAOO 220217Z AUTO 22012KT FEW029 04/02 A2988 RMK AO2 PWINO TSNO
     $=
PAGL 220218Z AUTO 23005KT 4SM BR BKN012 OVC021 03/02 A2974 RMK AO2
     PWINO $=
PPIZ 220218Z AUTO 06006KT 3SM -SN BR FEW017 BKN035 OVC046 M02/M04
     A2972 RMK AO2 SNB06 P0000 FZRANO=
KDEW 220217Z AUTO 13004KT 6SM BR SCT003 BKN014 OVC038 04/03 A2963
     RMK AO2 T00440033=
KSPB 220217Z AUTO 16003KT 4SM -RA BR BKN004 OVC011 09/09 A2962 RMK
     AO2 CIG 003V007 P0001 T00940094=
PAGL 220218Z AUTO 23005KT 4SM BR BKN012 OVC021 03/02 A2974 RMK AO2
     PWINO $=
