SPUS70 KWBC 220030
SPECI
PABV 220027Z AUTO 31003KT 10SM BKN005 03/02 A2987 RMK AO2=
KKLS 220027Z AUTO 00000KT 2 1/2SM +RA BR FEW009 BKN019 OVC041
     09/08 A2972 RMK AO2 VIS 1 1/2V5 P0005=
PABV 220027Z AUTO 31003KT 10SM BKN005 03/02 A2987 RMK AO2=
KTTD 220027Z 11005KT 2 1/2SM -RA BR FEW008 BKN026 OVC050 11/08
     A2972 RMK AO2 PRESFR P0005 T01060083=
