SPUS70 KWBC 220058
SPECI
KUAO 220055Z 00000KT 3SM -RA BR BKN003 OVC012 09/09 A2971 RMK AO2
     P0000 T00940089=
