SPUS70 KWBC 220010
SPECI
KOKB 220006Z AUTO 21006KT 8SM BKN015 22/17 A2984 RMK AO2
     T02220172=
