SPUS80 KWBC 220218
SPECI
KSEA 220214Z 00000KT 7SM -RA SCT008 OVC016 08/07 A2969 RMK AO2
     P0002 T00830072=
KSXT 220215Z AUTO 23007KT 190V260 1 3/4SM RA BR BKN004 OVC011
     11/10 A2983 RMK AO2 P0000 T01060100=
