SPUS70 KWBC 220118
SPECI
PAOO 220115Z AUTO 21012KT SCT017 SCT022 05/02 A2988 RMK AO2 PWINO
     TSNO $=
KHQM 220115Z AUTO 03007KT 4SM -RA BR FEW005 SCT028 OVC038 11/09
     A2969 RMK AO2 P0000 T01060089=
PAMB 220116Z AUTO 26008KT 9SM SCT026 BKN032 BKN042 06/03 A2999 RMK
     AO2 RAE16 P0000 $=
