SPUS80 KWBC 220144
SPECI
KAST 220140Z AUTO 06012KT 5SM -RA BR OVC017 10/09 A2959 RMK AO2
     P0007 T01000089=
