SPUS70 KWBC 220054
SPECI
KRNT 220050Z 00000KT 8SM -RA FEW012 BKN023 OVC038 10/08 A2971 RMK
     AO2 P0002=
PFYU 220052Z 00000KT 3SM FZRA BR OVC006 M03/M04 A2987 RMK AO2
     UPB12E41FZRAB41 P0000=
