SPUS70 KWBC 220018
SPECI
KPWT 220015Z AUTO 19004KT 10SM -RA SCT006 BKN011 BKN034 08/08
     A2972 RMK AO2 P0001=
PALG 220016Z AUTO 22008KT 10SM OVC016 04/02 A2987 RMK AO2=
PARY 220016Z AUTO 07003KT 1 1/2SM -RA BR SCT007 BKN012 OVC020
     01/00 A2980 RMK AO2 VIS 3/4V5 P0000 FZRANO=
KSFF 220015Z VRB03KT 10SM SCT026 OVC039 05/03 A2967 RMK AO2
     T00500033=
