SPUS70 KWBC 212248
SPECI
PAHN 212244Z AUTO 10007KT 10SM SCT018 OVC033 09/05 A2963 RMK AO2
     T00890050 TSNO=
PAKV 212244Z AUTO 00000KT 10SM SCT009 OVC014 01/01 A2980 RMK AO2
     T00110006 TSNO=
KRXE 212244Z AUTO 23014G31KT 10SM SCT021 19/M03 A2967 RMK AO2 PK
     WND 22041/2212 T01941033=
KSPB 212244Z AUTO 14003KT 2 1/2SM -RA BR BKN044 OVC055 09/09 A2978
     RMK AO2 P0003 T00940089=
PAIG 212246Z AUTO 22011KT 10SM FEW019 BKN026 07/02 A2996 RMK AO2
     $=
