SPUS80 KWBC 212254
SPECI
KPDX 212251Z 00000KT 2SM RA BR SCT009 OVC034 10/08 A2979 RMK AO2
     SFC VIS 2 1/2 P0009=
KSAN 212248Z 22008KT 10SM BKN015 23/17 A2987 RMK AO2=
