SPUS80 KWBC 220046
SPECI
PATK 220043Z AUTO 27003KT 1/2SM FG VV002 01/M01 A2985 RMK AO2
     T00061006 TSNO=
KPDX 220043Z 13005KT 3SM FEW006 BKN042 11/09 A2971 RMK AO2 SFC VIS
     10 RAE39 P0002 T01060089=
