SPUS70 KWBC 220036
SPECI
KVUO 220033Z AUTO 14007KT 8SM -RA SCT007 BKN039 OVC047 10/08 A2973
     RMK AO2 P0003 T01000083=
