SPUS80 KWBC 220022
SPECI
KAST 220019Z AUTO 11003KT 2SM -RA BR BKN020 OVC027 10/09 A2965 RMK
     AO2 P0004 T01000094=
KCRQ 220019Z 23007KT 10SM BKN013 21/17 A2984 RMK AO2 T02060167=
