SPUS80 KWBC 220140
SPECI
KSCK 220137Z 31009KT 3SM HZ CLR 21/09 A2976 RMK AO2 T02060094=
KUIL 220137Z AUTO 00000KT 10SM FEW008 BKN045 OVC055 09/08 A2971
     RMK AO2 RAE33 P0000 T00890083=
PANN 220137Z AUTO 00000KT 3SM -SN BR FEW011 OVC019 00/M01 A2985
     RMK AO2 RAE21SNB21 P0002 T00001006 TSNO=
