SPUS70 KWBC 220150
SPECI
KCLM 220146Z AUTO 27006KT 7SM -RA SCT006 OVC047 09/07 A2972 RMK
     AO2 P0004 T00890072=
KOTH 220148Z 22012KT 4SM -RA BR OVC011 14/14 A2979 RMK AO2
     P0002=
