SPUS80 KWBC 220102
SPECI
KAST 220059Z AUTO 08011KT 1 1/2SM -RA BR FEW014 OVC021 10/09 A2962
     RMK AO2 P0001 T01000089=
