SPUS80 KWBC 220248
SPECI
PANN 220245Z AUTO 00000KT 2SM -SN BR OVC007 00/M01 A2986 RMK AO2
     UPE00B31E36SNB00E31B36 P0001 T00001006 TSNO=
