SPUS70 KWBC 220244
SPECI
KMLP 220240Z AUTO 1/4SM FZFG VV001 M03/M03 A2957 RMK AO2
     T10281033=
KPWT 220241Z AUTO 04006KT 4SM RA BR SCT007 BKN011 08/08 A2969 RMK
     AO2 P0004=
KSHN 220240Z AUTO 04003KT 10SM SCT003 OVC011 08/08 A2965 RMK AO2
     RAE33 P0001 T00830078=
KVUO 220240Z AUTO 14005KT 4SM -RA BR BKN008 OVC014 10/09 A2962 RMK
     AO2 RAE0155B15 CIG 006V010 P0002 T01000089=
PAUN 220242Z AUTO 20014KT 10SM -RA OVC014 03/01 A2980 RMK AO2
     P0000=
