SPUS70 KWBC 220232
SPECI
PAGK 220228Z AUTO 27004KT 2 1/2SM -SN BR OVC027 00/M01 A2976 RMK
     AO2 P0001 T00001006 TSNO=
KFUL 220228Z 22003KT 10SM SCT009 19/17 A2985 RMK AO2 T01940172=
KMLP 220228Z AUTO 00000KT 1/2SM FZFG VV001 M03/M03 A2957 RMK AO2
     T10281033=
KXWA 220228Z AUTO 03006KT 10SM BKN031 OVC043 05/04 A2956 RMK AO2
     T00500039=
KNFE 220226Z AUTO 00000KT 1SM BR CLR 09/07 A3019 RMK AO2
     T00890072=
KPWT 220230Z AUTO 00000KT 3SM RA BR BKN005 BKN011 08/08 A2970 RMK
     AO2 CIG 004V008 P0002=
