SPUS70 KWBC 212334
SPECI
PAGK 212330Z AUTO 27008KT 2 1/2SM -SN BR FEW010 OVC014 01/00 A2969
     RMK AO2 VIS 2V4 P0000 T00060000 TSNO=
PATQ 212331Z AUTO 10015KT 10SM -SN OVC013 M03/M05 A2978 RMK AO2
     SNB06 P0000 FZRANO TSNO=
PATQ 212331Z AUTO 10015KT 10SM -SN OVC013 M03/M05 A2978 RMK AO2
     SNB06 P0000 FZRANO TSNO=
