SPUS70 KWBC 212356
SPECI
KSLE 212352Z 00000KT 1 1/2SM BR OVC004 11/09 A2973 RMK AO2 RAE10
     CIG 002V008 P0000=
PANW 212353Z AUTO 26012G17KT 10SM SCT023 07/01 A2995 RMK AO2=
