SPUS80 KWBC 220040
SPECI
KSMX 220036Z 31010KT 8SM BKN014 14/13 A2990 RMK AO2 T01440128=
