SPUS70 KWBC 220204
SPECI
KTIW 220200Z 00000KT 8SM -RA BKN025 OVC041 08/07 A2969 RMK AO2
     P0000 T00780067=
KTTD 220200Z 08003KT 10SM OVC019 11/08 A2965 RMK AO2 T01060083=
KMLP 220201Z AUTO 24006KT 3/4SM BR VV001 M03/M04 A2957 RMK AO2
     T10281039=
