SPUS70 KWBC 220004
SPECI
KPUW 220000Z AUTO 24007KT 4SM -RA BR SCT026 OVC034 06/04 A2971 RMK
     AO2 P0000 T00560039=
KTIW 220000Z 19003KT 5SM -RA BR BKN007 OVC025 08/07 A2972 RMK AO2
     P0001 T00830072=
KWVI 220000Z AUTO 26007KT 10SM SCT011 13/11 A2990 RMK AO2
     T01330111=
KFHR 220000Z AUTO 00000KT 6SM -RA BR SCT026 SCT035 OVC042 09/08
     A2973 RMK AO2 P0000 T00940083=
KMMV 220001Z AUTO 12006KT 4SM -RA BR BKN005 OVC017 09/08 A2973 RMK
     AO2 P0000 T00940083=
PAIK 220002Z AUTO 11006KT 10SM SCT005 BKN020 OVC037 01/01 A2976
     RMK AO2 FZRANO=
