SPUS70 KWBC 212332
SPECI
PAPB 212328Z AUTO 20009KT 10SM -RA SCT022 BKN029 OVC046 06/ A2998
     RMK AO2 RAB2254 P0000 T0056 TSNO $=
PAMK 212329Z AUTO 22010KT 10SM BKN010 OVC014 03/02 A2976 RMK AO2
     CIG 008V012=
PAPB 212328Z AUTO 20009KT 10SM -RA SCT022 BKN029 OVC046 06/ A2998
     RMK AO2 RAB2254 P0000 T0056 TSNO $=
PAAQ 212329Z 00000KT 10SM OVC009 03/01 A2984 RMK AO2 CIG 007V011
     T00330011=
PABL 212330Z AUTO 13010KT 10SM -RA SCT027 02/01 A2971 RMK AO2
     P0001 FZRANO $=
KCEC 212329Z AUTO 05005KT 2SM -RA OVC022 14/08 A2994 RMK AO2 RAB22
     P0000 T01440083=
KDEW 212329Z AUTO 16005KT 7SM -RA BKN004 OVC009 04/03 A2967 RMK
     AO2 CIG 003V007 P0002 T00390033=
KPAE 212329Z 02004KT 4SM -RA BR BKN009 BKN015 OVC024 09/07 A2974
     RMK AO2 P0002 T00890072=
PAAQ 212329Z 00000KT 10SM OVC009 03/01 A2984 RMK AO2 CIG 007V011
     T00330011=
