SPUS70 KWBC 220124
SPECI
PANV 220121Z AUTO 24005KT 10SM SCT009 BKN013 OVC039 02/02 A2982
     RMK AO2 FZRANO TSNO=
KVUO 220120Z AUTO 13004KT 10SM FEW008 BKN020 OVC036 10/08 A2968
     RMK AO2 RAE02 P0000 T01000083=
PANV 220121Z AUTO 24005KT 10SM SCT009 BKN013 OVC039 02/02 A2982
     RMK AO2 FZRANO TSNO=
KCTB 220120Z AUTO 13007KT 10SM BKN006 OVC060 04/03 A2953 RMK AO2
     T00390033=
PAKK 220122Z AUTO 24003KT 1/4SM -SN FG SCT003 OVC007 00/M01 A2970
     RMK AO2 CIG 005V011 P0003 FZRANO=
PAKK 220122Z AUTO 24003KT 1/4SM -SN FG SCT003 OVC007 00/M01 A2970
     RMK AO2 CIG 005V011 P0003 FZRANO=
KEUG 220121Z 24006KT 10SM BKN019 BKN041 OVC055 14/12 A2973 RMK AO2
     T01390122=
