SPUS80 KWBC 212354
SPECI
PAOR 212351Z 31010KT 3SM -SN BR SCT008 BKN030 OVC037 00/M01 A2967
     RMK AO2 4/006 P0000 $=
