SPUS70 KWBC 220028
SPECI
KOLM 220023Z 00000KT 5SM -RA BR FEW019 SCT029 OVC050 07/07 A2972
     RMK AO2 P0003 T00720067 $=
KLPC 220026Z AUTO 27012KT 10SM BKN014 16/13 A2990 RMK AO2=
KYKN 220026Z AUTO 17003KT 3SM HZ CLR 17/02 A2959 RMK AO2=
PATA 220025Z 11004KT 1 3/4SM -SN BR OVC009 01/M01 A2985 RMK AO2
     P0001 T00061011=
