SPUS70 KWBC 220022
SPECI
KPDT 220018Z 17007KT 4SM -RA BR SCT004 BKN029 OVC035 08/07 A2972
     RMK AO2 P0001 T00780067=
KSPB 220019Z AUTO 15005KT 3SM RA BR BKN004 BKN014 OVC043 09/09
     A2971 RMK AO2 P0002 T00940089=
