SPUS70 KWBC 220056
SPECI
PATE 220054Z AUTO 16008KT 10SM FEW015 OVC038 02/01 A2965 RMK AO2
     RAB16E25SNE16 P0000 FZRANO=
