SPUS80 KWBC 220004
SPECI
KCRQ 220000Z 22006KT 10SM FEW014 21/17 A2984 RMK AO2 T02060167=
