SPUS70 KWBC 212302
SPECI
KMCI 212259Z 19013KT 10SM BKN250 28/03 A2963 RMK AO2 T02780028=
