SPUS70 KWBC 220020
SPECI
PFSH 220017Z AUTO 20014KT 10SM OVC016 03/02 A2975 RMK AO2=
KCTB 220017Z AUTO 09004KT 10SM BKN008 BKN075 OVC095 04/03 A2954
     RMK AO2 CIG 005V012 T00390033=
KHQM 220016Z AUTO 06005KT 5SM -RA BR FEW007 OVC048 11/09 A2969 RMK
     AO2 P0000 T01110094=
