SPUS70 KWBC 212326
SPECI
KEAT 212323Z AUTO 31010KT 2 1/2SM HZ CLR 13/01 A2962 RMK AO2
     T01330006=
