SPUS70 KWBC 212352
SPECI
PAWS 212349Z AUTO 35003KT 10SM OVC005 02/02 A2986 RMK AO2
     FZRANO=
PAIN 212350Z AUTO 36007KT 3SM -SN BR FEW005 BKN020 OVC032 01/M01
     A2979 RMK AO2 P0001 FZRANO $=
