SPUS80 KWBC 212318
SPECI
KSMP 212315Z AUTO VRB04KT 1/2SM FG VV005 01/01 A2968 RMK AO2 SNE12
     P0001 T00110006=
