SPUS70 KWBC 220012
SPECI
PAAQ 220008Z 00000KT 10SM SCT006 OVC010 03/01 A2984 RMK AO2
     T00330011=
KPAE 220008Z 02008KT 2SM RA BR OVC006 08/06 A2973 RMK AO2 P0002
     T00780061=
PAAQ 220008Z 00000KT 10SM SCT006 OVC010 03/01 A2984 RMK AO2
     T00330011=
PAGK 220009Z AUTO 27006KT 3SM -SN BR OVC019 01/00 A2971 RMK AO2
     P0000 T00060000 TSNO=
KOTH 220010Z VRB03KT 2 1/2SM -RA BR OVC008 13/13 A2985 RMK AO2 CIG
     007V012 P0000=
