SPUS80 KWBC 220200
SPECI
PADG 220158Z 09010KT 7SM -SN BR BKN011 OVC018 M01/M01 A2966=
