SPUS70 KWBC 220144
SPECI
KMMV 220140Z AUTO 15006KT 3SM -RA BR OVC005 09/08 A2965 RMK AO2
     P0002 T00890083=
