SPUS80 KWBC 220110
SPECI
PANN 220107Z AUTO 19003KT 7SM -RA BKN004 OVC029 01/00 A2985 RMK
     AO2 P0001 T00060000 TSNO=
KMYL 220107Z AUTO 12004KT 9SM -RA SCT026 OVC031 06/03 A2970 RMK
     AO2 P0002 T00610028=
