SPUS70 KWBC 212322
SPECI
KCLM 212318Z AUTO 30005KT 3SM -RA BR BKN007 OVC018 09/08 A2976 RMK
     AO2 P0003 T00940078=
KBLI 212319Z 19005KT 10SM -RA BKN012 BKN021 OVC060 10/09 A2973 RMK
     AO2 P0000 T01000094=
