SPUS70 KWBC 220116
SPECI
PAKK 220113Z AUTO 22004KT 3/4SM -SN BR OVC005 01/00 A2970 RMK AO2
     CIG 002V008 P0001 FZRANO=
KCEC 220112Z AUTO 16005KT 2 1/2SM -RA BKN017 OVC024 14/11 A2991
     RMK AO2 VIS 1 1/2V3 RAB03 P0000 T01440111=
KPUW 220112Z AUTO 14005KT 4SM -RA BR SCT009 SCT013 OVC021 05/05
     A2967 RMK AO2 P0002 T00500050=
PAKK 220113Z AUTO 22004KT 3/4SM -SN BR OVC005 01/00 A2970 RMK AO2
     CIG 002V008 P0001 FZRANO=
PAHX 220114Z AUTO 20005KT 10SM BKN019 OVC044 03/03 A2985 RMK
     AO2=
PAIK 220114Z AUTO 09005KT 10SM FEW007 BKN020 OVC027 01/01 A2977
     RMK AO2 FZRANO=
PAPH 220114Z AUTO 26009KT 6SM -RA BR FEW021 BKN033 OVC040 06/04
     A3009 RMK AO2 P0001=
KGGW 220113Z AUTO 08008KT 10SM -RA OVC030 08/06 A2955 RMK AO2
     P0000 T00780056=
