SPUS70 KWBC 220130
SPECI
PAIL 220126Z 32005KT 10SM -RA BKN013 BKN021 OVC031 04/03 A2997 RMK
     AO2 RAB18 P0000 T00440028=
PASC 220123Z 09019KT 3SM -SN BLSN SCT011 SCT022 OVC060 M03/M05
     A2986 RMK AO2 SNB02 P0000 T10331050=
PAKI 220128Z AUTO 22014KT 10SM BKN021 05/03 A2990 RMK AO2 PNO
     $=
PAKV 220127Z AUTO 19003KT 10SM SCT008 OVC014 02/01 A2982 RMK AO2
     T00170006 TSNO=
KMLP 220127Z AUTO VRB06KT 1 1/4SM -SN BR OVC001 M03/M03 A2958 RMK
     AO2 P0000 T10281033=
