SPUS80 KWBC 220228
SPECI
KSCK 220225Z 30006KT 2 1/2SM HZ CLR 19/10 A2978 RMK AO2
     T01940100=
