SPUS70 KWBC 220134
SPECI
KRSW 220130Z 01006KT 10SM FU SCT070 22/12 A3003 RMK AO2
     T02170117=
KSNA 220130Z 22007KT 10SM FEW009 FEW020 21/16 A2984 RMK AO2
     T02110161=
PAKK 220132Z AUTO 00000KT 1/4SM -SN FG SCT007 OVC013 00/M01 A2970
     RMK AO2 P0005 FZRANO=
PARY 220132Z AUTO 15003KT 10SM -RA FEW002 OVC008 01/00 A2981 RMK
     AO2 RAE00B17 CIG 006V011 P0000 FZRANO=
KPWT 220132Z AUTO 19005KT 7SM -RA BKN006 OVC009 08/08 A2970 RMK
     AO2 CIG 004V007 P0005=
PAKK 220132Z AUTO 00000KT 1/4SM -SN FG SCT007 OVC013 00/M01 A2970
     RMK AO2 P0005 FZRANO=
