SPUS80 KWBC 220236
SPECI
KPDX 220232Z 12005KT 7SM -RA OVC012 11/09 A2962 RMK AO2 RAB19
     P0000 T01060089=
KSCK 220232Z 31007KT 10SM CLR 19/10 A2978 RMK AO2 T01890100=
