SPUS70 KWBC 220146
SPECI
KLWT 220143Z AUTO 28007KT 5SM RA BR FEW015 BKN026 OVC031 07/05
     A2957 RMK AO2 P0008 T00670050=
KPDT 220142Z 18010KT 5SM RA BR FEW005 BKN021 OVC035 08/07 A2968
     RMK AO2 P0007 T00780067=
KSPB 220142Z AUTO 00000KT 2SM RA BR OVC004 09/09 A2965 RMK AO2
     RAE11B28 CIG 003V008 P0004 T00940089=
PABV 220143Z AUTO 07003KT 3SM BR OVC003 03/02 A2988 RMK AO2=
PANV 220143Z AUTO 24005KT 10SM FEW007 OVC039 03/02 A2982 RMK AO2
     TSNO=
PABV 220143Z AUTO 07003KT 3SM BR OVC003 03/02 A2988 RMK AO2=
PANV 220143Z AUTO 24005KT 10SM FEW007 OVC039 03/02 A2982 RMK AO2
     TSNO=
KALW 220143Z AUTO 19008KT 10SM -RA HZ SCT025 OVC050 08/07 A2966
     RMK AO2 P0005 T00780067=
