SPUS70 KWBC 220106
SPECI
PAAQ 220102Z AUTO 24003KT 10SM SCT010 SCT015 03/01 A2985 RMK AO2
     T00280006 TSNO=
PATA 220102Z 00000KT 2SM -SN BR OVC010 01/M01 A2985 RMK AO2 P0000
     T00061006=
PAUN 220103Z AUTO 19009KT 10SM -RA BKN013 OVC018 02/01 A2979 RMK
     AO2 P0000 FZRANO=
PAAQ 220102Z AUTO 24003KT 10SM SCT010 SCT015 03/01 A2985 RMK AO2
     T00280006 TSNO=
KOTH 220104Z 21012KT 4SM -RA BR SCT006 OVC011 14/14 A2981 RMK AO2
     P0000=
