SPUS80 KWBC 212330
SPECI
PANN 212326Z AUTO 00000KT 10SM BKN003 BKN019 OVC037 01/00 A2983
     RMK AO2 UPB2259E17SNE2259B01E14 P0000 T00060000 TSNO=
PATK 212326Z 19003KT 1/2SM FG VV002 01/00 A2984 RMK AO2
     T00060000=
