SPUS70 KWBC 212246
SPECI
KDEW 212242Z AUTO 17007KT 8SM -RA FEW007 OVC014 04/03 A2968 RMK
     AO2 P0003 T00440033=
KGGW 212242Z AUTO 06007KT 10SM SCT025 BKN031 BKN110 10/04 A2954
     RMK AO2 T01000044=
PANV 212244Z AUTO 22006KT 10SM BKN007 OVC011 02/02 A2978 RMK AO2
     RAE35 CIG 004V009 P0000 FZRANO TSNO=
PANV 212244Z AUTO 22006KT 10SM BKN007 OVC011 02/02 A2978 RMK AO2
     RAE35 CIG 004V009 P0000 FZRANO TSNO=
