SPUS80 KWBC 220138
SPECI
KCQT 220134Z AUTO 25003KT 10SM BKN010 19/17 A2985 RMK AO2
     T01890167=
KSXT 220134Z AUTO 25007KT 220V290 10SM SCT002 BKN017 OVC065 11/09
     A2986 RMK AO2 RAB09E18 P0000 T01110089=
