SPUS80 KWBC 220146
SPECI
KCQT 220143Z AUTO 25004KT 10SM BKN009 19/17 A2985 RMK AO2
     T01890167=
