SPUS70 KWBC 220138
SPECI
PANV 220135Z AUTO 23004KT 10SM SCT013 OVC039 03/02 A2982 RMK AO2
     TSNO=
PANV 220135Z AUTO 23004KT 10SM SCT013 OVC039 03/02 A2982 RMK AO2
     TSNO=
PAIG 220136Z AUTO 20011G17KT 10SM BKN030 OVC035 07/02 A2997 RMK
     AO2 $=
KBOK 220136Z AUTO 11004KT 2SM -RA BR FEW006 OVC012 12/12 A2990 RMK
     AO2 P0002 $=
KLWT 220136Z AUTO 28008KT 5SM RA BR FEW015 SCT020 OVC031 07/04
     A2957 RMK AO2 P0006 T00670044=
