SPUS70 KWBC 212314
SPECI
PARC 212311Z AUTO 00000KT 10SM FEW002 M07/M09 A2972 RMK AO2
     FZRANO=
KOLF 212310Z AUTO 09004KT 10SM SCT023 BKN037 OVC100 09/06 A2955
     RMK AO2 T00890056=
KMTH 212311Z AUTO 34008G15KT 10SM FEW003 SCT038 SCT049 24/18 A2994
     RMK AO2 T02390178=
KVUO 212311Z AUTO 00000KT 3SM -RA BR BKN007 BKN014 OVC033 09/08
     A2979 RMK AO2 P0002 T00940078=
