SPUS70 KWBC 220108
SPECI
PARY 220105Z AUTO 07003KT 2 1/2SM BR FEW004 OVC010 01/00 A2980 RMK
     AO2 RAE00 CIG 007V014 P0000 FZRANO=
KBOK 220105Z AUTO VRB03KT 1 3/4SM -RA BR OVC014 12/11 A2991 RMK
     AO2 VIS 1V5 P0001 $=
PAMK 220106Z AUTO 22014KT 10SM UP OVC016 03/01 A2978 RMK AO2 UPB00
     P0000=
KSHN 220105Z AUTO 09003KT 5SM -RA BR SCT005 OVC010 09/08 A2967 RMK
     AO2 P0002 T00890083=
