SPUS70 KWBC 212344
SPECI
PARY 212341Z AUTO 00000KT 1 1/4SM -RA BR OVC010 01/00 A2980 RMK
     AO2 UPB39E41RAB41 CIG 007V013 P0000 FZRANO=
KVUO 212340Z AUTO 13004KT 1 3/4SM RA BR OVC006 09/08 A2976 RMK AO2
     P0008 T00940083=
KFHR 212340Z AUTO 00000KT 4SM -RA BR BKN026 OVC032 09/08 A2974 RMK
     AO2 P0003 T00940078=
PADL 212342Z 00000KT 10SM FEW022 BKN037 OVC049 07/02 A2997 RMK
     AO2=
KHQM 212341Z AUTO 06006KT 4SM -RA BR FEW006 BKN038 OVC055 11/09
     A2971 RMK AO2 P0002 T01110094=
KSPB 212341Z AUTO 18003KT 3SM -RA BR BKN007 BKN015 OVC032 09/09
     A2974 RMK AO2 P0007 T00940089=
