SPUS70 KWBC 220104
SPECI
KPAE 220100Z 04007KT 4SM -RA BR OVC008 08/07 A2972 RMK AO2 P0001
     T00780067=
