SPUS80 KWBC 212320
SPECI
KSMP 212317Z AUTO VRB03KT 1/4SM FG VV004 02/01 A2968 RMK AO2 SNE12
     P0001 T00170006=
