SPUS80 KWBC 212306
SPECI
PATK 212302Z 00000KT 1/4SM FG VV002 01/00 A2983 RMK AO2
     T00060000=
KPDX 212302Z 00000KT 2SM RA BR BKN005 BKN009 OVC034 10/08 A2978
     RMK AO2 SFC VIS 2 1/2 P0001 T01000083=
PAQT 212301Z AUTO 09012KT 10SM BKN012 OVC026 M03/M05 A2986 RMK AO2
     T10331050 TSNO=
