SPUS70 KWBC 220136
SPECI
KXWA 220132Z AUTO 03007KT 10SM BKN029 BKN037 OVC044 05/04 A2957
     RMK AO2 T00500039=
KLGD 220133Z AUTO 31004KT 7SM -RA SCT022 BKN032 OVC044 08/08 A2965
     RMK AO2 P0012=
PABV 220134Z AUTO 04003KT 1 3/4SM BR OVC003 03/02 A2988 RMK AO2
     VIS 3/4V5=
PAGL 220134Z AUTO 22004KT 10SM SCT014 BKN019 OVC033 03/02 A2974
     RMK AO2 PWINO $=
PASC 220133Z 09019G23KT 2SM -SN BLSN FEW009 OVC060 M03/M05 A2987
     RMK AO2 SNB02 P0000 T10331050=
PABV 220134Z AUTO 04003KT 1 3/4SM BR OVC003 03/02 A2988 RMK AO2
     VIS 3/4V5=
PAGL 220134Z AUTO 22004KT 10SM SCT014 BKN019 OVC033 03/02 A2974
     RMK AO2 PWINO $=
