ASUS43 KOAX 212310
RWRNE 

WEATHER ROUNDUP FOR NEBRASKA
NATIONAL WEATHER SERVICE OMAHA NE
600 PM CDT FRI OCT 21 2022

NOTES: SATELLITE DATA IS BEING USED TO AUGMENT CLOUD COVER ABOVE
       12000 FEET.
       "FAIR" INDICATES FEW OR NO CLOUDS BELOW 12,000 FEET WITH NO
       SIGNIFICANT WEATHER AND/OR OBSTRUCTIONS TO VISIBILITY.

   
NEZ001>004-019>022-054>056-220000-
NEBRASKA PANHANDLE
  
CITY           SKY/WX    TMP DP  RH WIND       PRES   REMARKS
SCOTTSBLUFF    MOSUNNY   77  15   9 W17G31    29.60F                  
ALLIANCE       CLEAR     74  18  12 SW17G30   29.58F                  
CHADRON        MOCLDY    76  17  11 S8        29.49F                  
GORDON         PTCLDY    73  17  12 SW9G17    29.54F                  
KIMBALL        PTSUNNY   68  14  12 W14       29.68F                  
SIDNEY         MOSUNNY   75  17  11 SW16      29.64F                  
$$
 
NEZ057>060-069>072-079>082-220000-
SOUTHWEST NEBRASKA
  
CITY           SKY/WX    TMP DP  RH WIND       PRES   REMARKS
NORTH PLATTE   CLEAR     78  27  15 CALM      29.60F                  
IMPERIAL       CLEAR     78  21  12 S14G20    29.62F                  
LEXINGTON      CLEAR     75  28  17 S5        29.62F                  
MCCOOK         CLEAR     77  24  14 S6        29.63F                  
OGALLALA       PTCLDY    79  26  14 SE6       29.60F                  
$$
 
NEZ005>010-023>029-035>040-094-220000-
NORTH CENTRAL NEBRASKA
  
CITY           SKY/WX    TMP DP  RH WIND       PRES   REMARKS
VALENTINE      CLEAR     71  30  21 SE13      29.56F                  
AINSWORTH      PTCLDY    68  30  24 S6        29.60S                  
BROKEN BOW     CLEAR     73  27  18 S9        29.61F                  
O'NEILL        PTCLDY    68  32  26 E5        29.61F                  
ORD            CLEAR     73  31  21 SE3       29.59F                  
THEDFORD       PTCLDY    71  28  19 SE8       29.59F                  
$$
 
NEZ041-046>049-061>064-073>077-083>087-220000-
SOUTH CENTRAL NEBRASKA
  
CITY           SKY/WX    TMP DP  RH WIND       PRES   REMARKS
GRAND ISLAND   CLEAR     76  29  17 SE6       29.61S                  
AURORA         CLEAR     73  32  22 CALM      29.60S                  
HASTINGS       PTCLDY    75  30  19 CALM      29.61F                  
HEBRON         PTCLDY    77  33  20 CALM      29.59F                  
HOLDREGE       CLEAR     73  29  20 CALM      29.62S                  
KEARNEY        CLEAR     72  33  24 S8        29.62S                  
YORK           PTCLDY    73  30  20 S7        29.59F                  
$$
 
NEZ011>018-030>034-042>045-220000-
NORTHEAST NEBRASKA
  
CITY           SKY/WX    TMP DP  RH WIND       PRES   REMARKS
NORFOLK        CLEAR     73  30  20 E5        29.59F                  
ALBION         CLEAR     73  30  20 SE5       29.60S                  
BLAIR          PTCLDY    73  34  24 SE3       29.59S                  
COLUMBUS       CLEAR     74  32  21 E5        29.60S                  
FREMONT        CLEAR     74  36  25 E3        29.59F                  
TEKAMAH        PTCLDY    74  39  28 N5        29.58S                  
WAYNE          CLEAR     70  30  22 NE6       29.59F                  
$$

NEZ050>053-065>068-078-088>093-220000-
SOUTHEAST NEBRASKA
  
CITY           SKY/WX    TMP DP  RH WIND       PRES   REMARKS
LINCOLN        PTCLDY    75  31  19 CALM      29.59F                  
OMAHA EPPLEY   PTCLDY    74  35  24 S3        29.59S                  
BEATRICE       MOCLDY    77  33  20 CALM      29.59R                  
FALLS CITY     PTCLDY    82  42  24 SW6       29.57S                  
NEBRASKA CITY  PTCLDY    77  32  19 SW6       29.59R                  
PLATTSMOUTH    PTCLDY    74  32  21 CALM      29.59S                  
$$

NEZ044-045-051>053-067-220000-
OMAHA AREA
  
CITY           SKY/WX    TMP DP  RH WIND       PRES   REMARKS
OMAHA EPPLEY   PTCLDY    74  35  24 S3        29.59S                  
BLAIR          PTCLDY    73  34  24 SE3       29.59S                  
FREMONT        CLEAR     74  36  25 E3        29.59F                  
MILLARD        PTCLDY    72  35  25 CALM      29.58F                  
OFFUTT AFB     MOCLDY    76  28  17 CALM      29.60F                  
PLATTSMOUTH    PTCLDY    74  32  21 CALM      29.59S                  
WAHOO          CLEAR     72  33  23 SE6       29.58F                  
$$
  
