ASUS43 KOAX 220210
RWRNE 

WEATHER ROUNDUP FOR NEBRASKA
NATIONAL WEATHER SERVICE OMAHA NE
900 PM CDT FRI OCT 21 2022

NOTES: SATELLITE DATA IS BEING USED TO AUGMENT CLOUD COVER ABOVE
       12000 FEET.
       "FAIR" INDICATES FEW OR NO CLOUDS BELOW 12,000 FEET WITH NO
       SIGNIFICANT WEATHER AND/OR OBSTRUCTIONS TO VISIBILITY.

   
NEZ001>004-019>022-054>056-220300-
NEBRASKA PANHANDLE
  
CITY           SKY/WX    TMP DP  RH WIND       PRES   REMARKS
SCOTTSBLUFF    CLEAR     70  14  11 W15G23    29.60S                  
ALLIANCE       PTCLDY    51  19  28 SW10      29.58S                  
CHADRON        CLEAR     52  19  27 W9        29.50S                  
GORDON         CLEAR     56  18  22 NW3       29.52S                  
KIMBALL        CLEAR     53  15  22 SW9       29.68F                  
SIDNEY         PTCLDY    49  18  29 SW13      29.64S                  
$$
 
NEZ057>060-069>072-079>082-220300-
SOUTHWEST NEBRASKA
  
CITY           SKY/WX    TMP DP  RH WIND       PRES   REMARKS
NORTH PLATTE   PTCLDY    51  29  42 CALM      29.59S                  
IMPERIAL       CLEAR     59  25  27 S12       29.62F                  
LEXINGTON      CLEAR     55  30  38 S7        29.60F                  
MCCOOK         CLEAR     62  22  21 S6        29.61F                  
OGALLALA       CLEAR     64  23  21 SW7       29.61R                  
$$
 
NEZ005>010-023>029-035>040-094-220300-
NORTH CENTRAL NEBRASKA
  
CITY           SKY/WX    TMP DP  RH WIND       PRES   REMARKS
VALENTINE      CLEAR     58  29  33 SE3       29.53F                  
AINSWORTH      CLEAR     54  29  38 S9        29.55F                  
BROKEN BOW     CLEAR     44  27  51 N3        29.59S                  
O'NEILL        CLEAR     56  32  40 SE5       29.57F                  
ORD            CLEAR     50  31  48 CALM      29.57F                  
THEDFORD       PTCLDY    62  28  27 S14       29.57F                  
$$
 
NEZ041-046>049-061>064-073>077-083>087-220300-
SOUTH CENTRAL NEBRASKA
  
CITY           SKY/WX    TMP DP  RH WIND       PRES   REMARKS
GRAND ISLAND   CLEAR     56  31  38 S5        29.60F                  
AURORA         CLEAR     47  28  46 S5        29.60S                  
HASTINGS       CLEAR     53  34  48 CALM      29.61F                  
HEBRON         PTCLDY    56  32  40 CALM      29.60S                  
HOLDREGE       CLEAR     56  29  35 S3        29.61S                  
KEARNEY        CLEAR     57  31  37 S6        29.61F                  
YORK           CLEAR     54  30  40 CALM      29.60S                  
$$
 
NEZ011>018-030>034-042>045-220300-
NORTHEAST NEBRASKA
  
CITY           SKY/WX    TMP DP  RH WIND       PRES   REMARKS
NORFOLK        CLEAR     50  29  44 SE5       29.59S                  
ALBION         CLEAR     47  29  49 CALM      29.59F                  
BLAIR          CLEAR     65  32  29 CALM      29.58F                  
COLUMBUS       CLEAR     49  30  48 CALM      29.60S                  
FREMONT        CLEAR     53  36  52 CALM      29.59S                  
TEKAMAH        CLEAR     51  32  48 NW6       29.57F                  
WAYNE          CLEAR     45  27  49 CALM      29.59F                  
$$

NEZ050>053-065>068-078-088>093-220300-
SOUTHEAST NEBRASKA
  
CITY           SKY/WX    TMP DP  RH WIND       PRES   REMARKS
LINCOLN        CLEAR     50  32  50 CALM      29.60S                  
OMAHA EPPLEY   PTCLDY    51  37  58 CALM      29.58F                  
BEATRICE       CLEAR     55  35  47 CALM      29.60S                  
FALLS CITY     PTCLDY    69  39  33 S6        29.59R                  
NEBRASKA CITY  CLEAR     61  32  33 S5        29.60S                  
PLATTSMOUTH    CLEAR     66  31  26 E5        29.59S                  
$$

NEZ044-045-051>053-067-220300-
OMAHA AREA
  
CITY           SKY/WX    TMP DP  RH WIND       PRES   REMARKS
OMAHA EPPLEY   PTCLDY    51  37  58 CALM      29.58F                  
BLAIR          CLEAR     65  32  29 CALM      29.58F                  
FREMONT        CLEAR     53  36  52 CALM      29.59S                  
MILLARD        CLEAR     51  39  63 CALM      29.58F                  
OFFUTT AFB     PTCLDY    57  34  42 CALM      29.60S                  
PLATTSMOUTH    CLEAR     66  31  26 E5        29.59S                  
WAHOO          CLEAR     51  32  48 CALM      29.58S HAZE             
$$
  
