ASUS43 KDTX 220101
RWRMI 
MICHIGAN HOURLY REGIONAL WEATHER ROUNDUP
NATIONAL WEATHER SERVICE DETROIT/PONTIAC MI
900 PM EDT FRI OCT 21 2022

NOTE: "FAIR" INDICATES FEW OR NO CLOUDS BELOW 12,000 FEET WITH NO
SIGNIFICANT WEATHER AND/OR OBSTRUCTION TO VISIBILITY.

MIZ047>049-052>055-059>063-066>070-074>076-081>083-220200-
SOUTHEAST LOWER MICHIGAN
  
CITY           SKY/WX    TMP DP  RH WIND       PRES   REMARKS
ADRIAN         CLEAR     61  37  41 SW13      29.84R                  
ALMA           CLEAR     59  38  46 S9        29.72R                  
ANN ARBOR      CLEAR     59  37  44 S8        29.82R                  
BAD AXE        PTCLDY    58  39  49 S14       29.74S                  
CARO           PTCLDY    63  37  36 S12G17    29.74S                  
DETROIT CITY   CLEAR     63  38  39 S13       29.83R                  
DETROIT        PTCLDY    58  37  45 S10       29.84R                  
FLINT          CLEAR     61  40  45 S10G21    29.77R                  
GROSSE ILE     CLOUDY    55  37  50 S12       29.84R                  
HILLSDALE      CLEAR     60  33  36 S9        29.83R                  
HOWELL         CLEAR     62  39  42 S9G16     29.79S                  

CITY           SKY/WX    TMP DP  RH WIND       PRES   REMARKS
JACKSON        CLEAR     63  38  39 S13G23    29.81R                  
LAMBERTVILLE   CLEAR     64  32  29 S9        29.85S                  
LANSING        CLEAR     61  40  45 S10       29.77R                  
LAPEER         CLEAR     62  30  30 S9        29.78S                  
MASON          CLEAR     62  38  40 S5        29.78R                  
MONROE         CLEAR     59  37  42 S12G20    29.84R                  
MT. CLEMENS    PTCLDY    53  41  64 S12       29.80R                  
PONTIAC        PTCLDY    60  37  42 S7        29.81R                  
PORT HURON     CLEAR     52  37  58 S6        29.82R                  
TRI CITIES     PTCLDY    61  40  45 S13       29.73R                  
MIDLAND        PTCLDY    61  40  46 S5        29.71R                  
TROY           CLEAR     60  36  40 S8        29.84R                  
SAGINAW HB     CLEAR     59  39  47 S12       29.73S                  
$$
MIZ043>046-050>051-056>058-064>065-071>073-077>080-220200-
SOUTHWEST LOWER MICHIGAN
  
CITY           SKY/WX    TMP DP  RH WIND       PRES   REMARKS
BATTLE CREEK   CLEAR     64  38  38 S15       29.78R                  
BENTON HARBOR  CLEAR     66  40  38 S10G18    29.74R                  
BIG RAPIDS     CLEAR     61  41  47 S3        29.70R                  
COLDWATER      CLEAR     63  37  38 S8        29.81R                  
FREMONT        FAIR      66  39  37 S13       29.70R                  
HOLLAND        CLEAR     63  40  42 S9        29.73R                  
GRAND RAPIDS   CLEAR     64  40  41 S14       29.73R                  
IONIA          FAIR      61  38  42 S12       29.72S                  
KALAMAZOO      CLEAR     63  39  41 S13       29.78R                  
LUDINGTON      CLEAR     63  41  44 SW15G25   29.65R                  
MARSHALL       CLEAR     63  38  39 S9        29.79R                  
MOUNT PLEASANT CLEAR     60  40  47 S5        29.71R                  
MUSKEGON       PTCLDY    65  47  52 S15G23    29.71R                  
SOUTH HAVEN    CLEAR     67  36  31 S10       29.73R                  
$$
MIZ016>042-220200-
NORTHERN LOWER MICHIGAN
  
CITY           SKY/WX    TMP DP  RH WIND       PRES   REMARKS
ALPENA         PTCLDY    52  41  66 CALM      29.66R                  
BEAVER ISLAND  CLEAR     51  46  83 SW8       29.62S                  
BELLAIRE       CLEAR     50  45  81 CALM      29.63S                  
CADILLAC       CLEAR     57  39  51 S7        29.67S                  
CHARLEVOIX     CLEAR     58  42  55 S7        29.62S                  
FRANKFORT      PTCLDY    60  43  53 SW10G20   29.63R                  
GAYLORD        CLEAR     57  39  51 S8        29.65R                  
HARBOR SPRINGS CLEAR     50  45  81 CALM      29.62S                  
HOUGHTON LAKE  CLEAR     54  40  59 S6        29.68S                  
MANISTEE       PTCLDY    64  42  44 S7        29.63R                  
OSCODA         PTCLDY    60  41  49 S9        29.69R                  
PELLSTON       CLEAR     46  42  86 E3        29.63R                  
ROGERS CITY    PTCLDY    61  42  49 S7        29.65R                  
TRAVERSE CITY  PTCLDY    63  40  42 S12G25    29.61S                  
$$
MIZ007>008-015-220200-
EASTERN UPPER MICHIGAN
  
CITY           SKY/WX    TMP DP  RH WIND       PRES   REMARKS
KINROSS        CLEAR     48  44  86 SW5       29.63R                  
MACKINAC ISLAN CLEAR     51  44  77 W7        29.62S                  
NEWBERRY       CLEAR     41  40  99 S3        29.61S FOG              
S. S. MARIE    CLEAR     48  43  82 SW5       29.61R                  
$$
MIZ004>006-011>014-085-220200-
CENTRAL UPPER MICHIGAN
  
CITY           SKY/WX    TMP DP  RH WIND       PRES   REMARKS
MANISTIQUE     CLEAR     44  43  99 CALM      29.61R FOG              
ESCANABA       CLEAR     51  50  96 W3        29.60R                  
MENOMINEE      CLEAR     50  41  71 NW8       29.61R                  
SAWYER-GWINN   CLEAR     41  36  81 CALM      29.61R                  
MUNISING         N/A     44  41  89 S8        29.61R                  
$$
MIZ001>003-009>011-084-220200-
WESTERN UPPER MICHIGAN
  
CITY           SKY/WX    TMP DP  RH WIND       PRES   REMARKS
IRON MOUNTAIN  CLEAR     44  36  73 CALM      29.60R                  
HOUGHTON       PTCLDY    49  39  68 W6        29.58R                  
COPPER HARBOR    N/A     53  41  63 W7        29.57R                  
IRONWOOD       PTCLDY    40  38  93 CALM      29.61R                  
$$

ABBREVIATIONS USED IN REMARKS
   TC - TEMPERATURE IN CELSIUS
  WCI - WIND CHILL INDEX
   HX - HEAT INDEX
  VSB - VISIBILITY

  
