ASUS44 KJAN 220110
RWRMS 

MISSISSIPPI HOURLY WEATHER ROUNDUP
NATIONAL WEATHER SERVICE JACKSON MS
800 PM CDT FRI OCT 21 2022

NOTE: "FAIR: INDICATES FEW OR NO CLOUDS BELOW 12,000 FEET WITH NO
SIGNIFICANT WEATHER AND/OR OBSTRUCTIONS TO VISIBILITY.

MSZ001>002-007>008-010>013-018>021-025>028-034>036-220200-
NORTHWEST MISSISSIPPI
  
CITY           SKY/WX    TMP DP  RH WIND       PRES   REMARKS
BATESVILLE     FAIR      70  50  49 SE8       29.93S                  
CLARKSDALE     MOCLDY    70  50  49 SE7       29.93R                  
CLEVELAND      FAIR     N/A N/A N/A S9        29.93R                  
GREENWOOD      CLEAR     68  50  52 S5        29.95R                  
GREENVILLE     CLEAR     75  50  41 S12       29.92R                  
OLIVE BRANCH   CLEAR     70  48  46 S8        29.92R                  
OXFORD         PTCLDY    66  50  55 SE8       29.97S                  
TUNICA         CLEAR     68  49  52 S9        29.91R                  
$$

MSZ003>006-009-014>017-022>024-029>033-037>039-220200-
NORTHEAST MISSISSIPPI
  
CITY           SKY/WX    TMP DP  RH WIND       PRES   REMARKS
ABERDEEN       FAIR      66  55  68 SE9       30.02R                  
COLUMBUS AFB   CLEAR     61  53  73 S8        29.98R                  
CORINTH        CLEAR     64  48  55 S7        29.97S                  
GOLDN TRIANGLE CLEAR     67  55  65 SE8       30.02R                  
STARKVILLE     FAIR      64  54  68 SE6       29.99R                  
TUPELO         CLEAR     69  51  52 S8        29.99R                  
$$

MSZ040-058-220200-
CENTRAL MISSISSIPPI
  
CITY           SKY/WX    TMP DP  RH WIND       PRES   REMARKS
JACKSON INTL   CLEAR     64  51  62 S8        29.99R                  
JACKSON HAWKNS CLEAR     66  52  60 S5        30.00R                  
MADISON        FAIR      63  55  77 CALM      29.99R                  
MERIDIAN KEY   CLEAR     61  56  83 CALM      30.03R                  
MERIDIAN NAS   CLEAR     65  55  70 SE6       30.04R                  
RAYMOND        FAIR      63  63 100 CALM      29.99R                  
VICKSBURG VKS  PTCLDY    72  54  53 S7        29.96S                  
$$

MSZ059>079-220200-
SOUTH MISSISSIPPI
  
CITY           SKY/WX    TMP DP  RH WIND       PRES   REMARKS
BROOKHAVEN     FAIR      68  63  83 S8        30.03R                  
HATTIESBURG    CLEAR     67  53  61 S7        30.07R                  
LAUREL         CLEAR     69  52  55 S8        30.05R                  
MCCOMB         CLEAR     67  54  63 S13       30.04R                  
NATCHEZ        CLEAR     68  55  63 SE9       30.00R                  
PINE BELT      CLEAR     67  54  63 S6        30.07R                  
$$

MSZ080>082-220200-
COASTAL MISSISSIPPI
  
CITY           SKY/WX    TMP DP  RH WIND       PRES   REMARKS
BAY ST LOUIS   MOCLDY    55  50  82 CALM      30.08R                  
BILOXI         CLEAR     65  57  74 S8        30.07R                  
PASCAGOULA     CLEAR     54  51  90 CALM      30.10R                  
GULFPORT       CLEAR     66  54  65 S5        30.08R                  
$$

LAZ007>009-015>016-023>026-220200-
NORTHEAST LOUISIANA
  
CITY           SKY/WX    TMP DP  RH WIND       PRES   REMARKS
BASTROP        FAIR      71  53  53 CALM      29.94R                  
TALLULAH/VBURG CLEAR     69  53  56 S6        29.97R                  
VIDALIA        FAIR      72  55  54 SE10      29.98R                  
$$
  
