ASUS44 KJAN 212310
RWRMS 

MISSISSIPPI HOURLY WEATHER ROUNDUP
NATIONAL WEATHER SERVICE JACKSON MS
600 PM CDT FRI OCT 21 2022

NOTE: "FAIR: INDICATES FEW OR NO CLOUDS BELOW 12,000 FEET WITH NO
SIGNIFICANT WEATHER AND/OR OBSTRUCTIONS TO VISIBILITY.

MSZ001>002-007>008-010>013-018>021-025>028-034>036-220000-
NORTHWEST MISSISSIPPI
  
CITY           SKY/WX    TMP DP  RH WIND       PRES   REMARKS
BATESVILLE     FAIR      77  48  36 S8        29.91S                  
CLARKSDALE     CLEAR     81  50  34 S13G21    29.90S                  
CLEVELAND      FAIR     N/A N/A N/A S15       29.90F                  
GREENWOOD      CLEAR     79  50  36 S13       29.93S                  
GREENVILLE     CLEAR     82  51  34 S16       29.90S                  
OLIVE BRANCH   CLEAR     75  50  41 SE9       29.90F                  
OXFORD         CLEAR     75  48  38 S7G14     29.95S                  
TUNICA         CLEAR     80  48  33 S13       29.88S                  
$$

MSZ003>006-009-014>017-022>024-029>033-037>039-220000-
NORTHEAST MISSISSIPPI
  
CITY           SKY/WX    TMP DP  RH WIND       PRES   REMARKS
ABERDEEN       FAIR      73  54  49 SE7       29.99S                  
COLUMBUS AFB   CLEAR     72  54  53 SE10      30.00S                  
CORINTH        CLEAR     72  48  43 S9G15     29.94F                  
GOLDN TRIANGLE CLEAR     74  54  49 S10       29.99S                  
STARKVILLE     FAIR      73  52  46 S7        29.96F                  
TUPELO         CLEAR     75  50  41 SE7       29.96S                  
$$

MSZ040-058-220000-
CENTRAL MISSISSIPPI
  
CITY           SKY/WX    TMP DP  RH WIND       PRES   REMARKS
JACKSON INTL   CLEAR     77  49  37 S8        29.97F                  
JACKSON HAWKNS CLEAR     78  50  37 S7        29.98S                  
MADISON        FAIR      77  50  38 S8        29.97S                  
MERIDIAN KEY   CLEAR     73  54  51 SE5       30.01S                  
MERIDIAN NAS   CLEAR     73  55  53 SE3       30.02S                  
PRESTON        CLEAR     72  52  49 SE6       30.03F                  
RAYMOND        FAIR      79  50  36 S8G16     29.97S                  
VICKSBURG VKS  CLEAR     79  54  41 S8        29.95S                  
$$

MSZ059>079-220000-
SOUTH MISSISSIPPI
  
CITY           SKY/WX    TMP DP  RH WIND       PRES   REMARKS
BROOKHAVEN     FAIR      77  54  44 S6        30.01S                  
HATTIESBURG    CLEAR     76  52  43 S8        30.03S                  
LAUREL         PTCLDY    76  50  39 S8        30.02S                  
MCCOMB         CLEAR     75  51  43 S5        30.00F                  
NATCHEZ        CLEAR     77  54  44 SE7       29.98S                  
PINE BELT      PTCLDY    74  54  49 S6        30.03S                  
$$

MSZ080>082-220000-
COASTAL MISSISSIPPI
  
CITY           SKY/WX    TMP DP  RH WIND       PRES   REMARKS
BAY ST LOUIS   CLEAR     68  46  45 S8        30.06F                  
BILOXI         CLEAR     69  54  57 S8        30.05S                  
PASCAGOULA     CLEAR     69  51  52 MISG      30.07S                  
GULFPORT       CLEAR     69  53  56 VRB5      30.07S                  
$$

LAZ007>009-015>016-023>026-220000-
NORTHEAST LOUISIANA
  
CITY           SKY/WX    TMP DP  RH WIND       PRES   REMARKS
BASTROP        FAIR      79  52  38 S5        29.92S                  
TALLULAH/VBURG CLEAR     79  53  40 S13       29.95S                  
VIDALIA        FAIR      79  53  40 S9        29.96S                  
$$
  
