ASUS42 KCAE 212310
RWRCAE
REGIONAL WEATHER ROUNDUP
NATIONAL WEATHER SERVICE COLUMBIA SC
700 PM EDT FRI OCT 21 2022

NOTE: "FAIR" INDICATES FEW OR NO CLOUDS BELOW 12,000 FEET WITH NO
SIGNIFICANT WEATHER AND/OR OBSTRUCTIONS TO VISIBILITY.

NOT ALL STATIONS ARE QUALITY CONTROLLED BY THE NATIONAL 
WEATHER SERVICE. USE DATA WITH CAUTION...ESPECIALLY 
DEWPOINT OBSERVATIONS.

SCZ001>059-115-116-135>137-GAZ040-063>065-077-220000-
...UPSTATE SOUTH CAROLINA...
  
CITY           SKY/WX    TMP DP  RH WIND       PRES   REMARKS
ANDERSON       CLEAR     59  34  39 CALM      30.09S                  
LIBERTY        CLEAR     59  33  38 MISG      30.09S                  
SPARTANBURG    CLEAR     57  34  41 CALM      30.10S                  
CLEMSON        CLEAR     60  32  34 CALM      30.10S                  
GREENVILLE     CLEAR     63  28  26 E3        30.11S                  
GREENWOOD      CLEAR     56  34  43 CALM      30.11S                  
GREER          CLEAR     59  32  36 E3        30.11S                  
ROCK HILL      CLEAR     51  35  54 CALM      30.11S                  
LAURENS        CLEAR     55  36  47 CALM      30.10S                  


...CENTRAL SOUTH CAROLINA...
  
CITY           SKY/WX    TMP DP  RH WIND       PRES   REMARKS
COLUMBIA APT   CLEAR     62  35  36 CALM      30.10R                  
COLUMBIA OWENS CLEAR     60  41  49 CALM      30.11R                  
MCENTIRE ANGB  CLEAR     56  42  61 CALM      30.08R                  
ORANGEBURG     CLEAR     57  41  55 CALM      30.10R                  
SUMTER SHAW    CLEAR     61  35  38 CALM      30.08S                  
AIKEN          FAIR      59  35  41 CALM      30.10R                  
BARNWELL       FAIR      61  36  39 CALM      30.10R                  
MANNING        FAIR      55  41  58 CALM      30.10S                  
CAMDEN         FAIR      61  32  33 CALM      30.11R                  
LANCASTER      CLEAR     55  34  44 CALM      30.11R                  
WINNSBORO      CLEAR     55  39  54 CALM      30.11R                  


...EASTERN AND COASTAL SOUTH CAROLINA...
  
CITY           SKY/WX    TMP DP  RH WIND       PRES   REMARKS
MYRTLE BEACH   CLEAR     59  49  69 CALM      30.10S                  
N MYRTLE BCH   CLEAR     57  47  69 CALM      30.09R                  
CONWAY         FAIR      54  48  82 CALM      30.10S                  
MARION         FAIR      55  36  47 CALM      30.11R                  
HARTSVILLE     FAIR      54  36  50 CALM      30.11R                  
FLORENCE       CLEAR     58  41  53 CALM      30.11R                  
DARLINGTON     CLEAR     54  39  57 CALM      30.11R                  
CHARLESTON APT CLEAR     60  42  51 N6        30.09S                  
MOUNT PLEASANT FAIR      57  50  77 CALM      30.09S                  
WALTERBORO     CLEAR     54  45  71 CALM      30.10S                  
BEAUFORT       CLEAR     61  45  55 CALM      30.09S                  
HILTON HEAD    CLEAR     57  46  67 CALM      30.10S                  


...EASTERN GEORGIA...
  
CITY           SKY/WX    TMP DP  RH WIND       PRES   REMARKS
AUGUSTA BUSH F CLEAR     53  40  61 CALM      30.09R                  
AUGUSTA DANIEL CLEAR     64  29  26 CALM      30.10R                  
THOMSON        CLEAR     60  36  41 E5        30.10R                  
WASHINGTON     FAIR      59  33  38 CALM      30.10S                  
CLAXTON        FAIR      57  43  58 CALM      30.09R                  
SYLVANIA       CLEAR     60  37  42 CALM      30.10R                  
STATESBORO     CLEAR     58  39  49 CALM      30.09R                  
SAVANNAH       PTCLDY    62  34  35 E6        30.09R                  


...SOUTHERN NORTH CAROLINA...
  
CITY           SKY/WX    TMP DP  RH WIND       PRES   REMARKS
CHARLOTTE      PTCLDY    60  31  33 SW3       30.11S                  
MONROE         CLEAR     57  28  33 CALM      30.11R                  
WADESBORO      CLEAR     58  33  38 CALM      30.11S                  
ROCKINGHAM     CLEAR     60  33  35 CALM      30.11R                  
RUTHERFORDTON  CLEAR     59  32  36 CALM      30.12S                  
ASHEVILLE      CLEAR     56  29  35 CALM      30.12R                  

$$
  
