ASUS42 KCAE 220210
RWRCAE
REGIONAL WEATHER ROUNDUP
NATIONAL WEATHER SERVICE COLUMBIA SC
1000 PM EDT FRI OCT 21 2022

NOTE: "FAIR" INDICATES FEW OR NO CLOUDS BELOW 12,000 FEET WITH NO
SIGNIFICANT WEATHER AND/OR OBSTRUCTIONS TO VISIBILITY.

NOT ALL STATIONS ARE QUALITY CONTROLLED BY THE NATIONAL 
WEATHER SERVICE. USE DATA WITH CAUTION...ESPECIALLY 
DEWPOINT OBSERVATIONS.

SCZ001>059-115-116-135>137-GAZ040-063>065-077-220300-
...UPSTATE SOUTH CAROLINA...
  
CITY           SKY/WX    TMP DP  RH WIND       PRES   REMARKS
ANDERSON       CLEAR     47  36  65 CALM      30.14R                  
LIBERTY        CLEAR     43  36  74 MISG      30.14R                  
SPARTANBURG    CLEAR     45  36  70 CALM      30.14R                  
CLEMSON        CLEAR     49  38  65 CALM      30.15R                  
GREENVILLE     CLEAR     51  34  52 CALM      30.16R                  
GREENWOOD      CLEAR     45  34  65 CALM      30.16R                  
GREER          CLEAR     43  35  73 CALM      30.15R                  
ROCK HILL      CLEAR     43  35  73 CALM      30.15R                  
CHESTER        CLEAR     45  34  65 CALM      30.16R                  
LAURENS        CLEAR     46  36  66 CALM      30.15R                  


...CENTRAL SOUTH CAROLINA...
  
CITY           SKY/WX    TMP DP  RH WIND       PRES   REMARKS
COLUMBIA APT   CLEAR     47  39  74 CALM      30.14R                  
COLUMBIA OWENS CLEAR     49  40  71 CALM      30.15R                  
MCENTIRE ANGB  CLEAR     43  42  94 CALM      30.13R                  
ORANGEBURG     CLEAR     47  43  86 CALM      30.14R                  
SUMTER SHAW    CLEAR     48  38  67 CALM      30.14R                  
AIKEN          FAIR      47  36  66 CALM      30.14R                  
BARNWELL       FAIR      46  37  71 CALM      30.14R                  
MANNING        FAIR      45  41  87 CALM      30.15R                  
CAMDEN         FAIR      45  36  70 CALM      30.15R                  
LANCASTER      MOCLDY    46  37  71 CALM      30.15R                  
WINNSBORO      CLEAR     50  34  53 CALM      30.14S                  


...EASTERN AND COASTAL SOUTH CAROLINA...
  
CITY           SKY/WX    TMP DP  RH WIND       PRES   REMARKS
MYRTLE BEACH   CLEAR     53  48  83 NW3       30.14R                  
N MYRTLE BCH   CLEAR     49  46  90 CALM      30.13R                  
CONWAY         FAIR      45  43  93 CALM      30.15R                  
MARION         FAIR      46  41  81 CALM      30.15R                  
HARTSVILLE     MOCLDY    46  32  57 CALM      30.15R                  
FLORENCE       CLEAR     47  40  76 CALM      30.15R                  
DARLINGTON     CLEAR     45  40  82 CALM      30.15R                  
CHARLESTON APT CLEAR     50  45  83 NW3       30.14R                  
MOUNT PLEASANT FAIR      50  50 100 CALM      30.13S                  
WALTERBORO     CLEAR     45  41  87 CALM      30.15R                  
BEAUFORT       CLEAR     51  46  83 CALM      30.14R                  


...EASTERN GEORGIA...
  
CITY           SKY/WX    TMP DP  RH WIND       PRES   REMARKS
AUGUSTA BUSH F CLEAR     43  38  82 CALM      30.14R                  
AUGUSTA DANIEL CLEAR     57  33  40 CALM      30.14R                  
THOMSON        CLEAR     45  39  81 CALM      30.14R                  
WASHINGTON     FAIR      48  35  60 CALM      30.15R                  
CLAXTON        FAIR      46  43  88 CALM      30.14R                  
SYLVANIA       CLEAR     45  40  83 CALM      30.15R                  
STATESBORO     CLEAR     46  40  80 CALM      30.14R                  
SAVANNAH       CLEAR     49  41  74 CALM      30.14R                  


...SOUTHERN NORTH CAROLINA...
  
CITY           SKY/WX    TMP DP  RH WIND       PRES   REMARKS
CHARLOTTE      CLEAR     53  32  44 CALM      30.15R                  
MONROE         CLEAR     47  33  58 CALM      30.14R                  
WADESBORO      CLEAR     42  34  74 CALM      30.15R                  
ROCKINGHAM     CLEAR     52  36  54 CALM      30.15R                  
RUTHERFORDTON  CLEAR     43  36  75 NW3       30.17R                  
ASHEVILLE      CLEAR     43  33  68 CALM      30.17R                  

$$
  
