ASUS44 KJAN 232010
RWRMS 

MISSISSIPPI HOURLY WEATHER ROUNDUP
NATIONAL WEATHER SERVICE JACKSON MS
300 PM CDT SUN OCT 23 2022

NOTE: "FAIR: INDICATES FEW OR NO CLOUDS BELOW 12,000 FEET WITH NO
SIGNIFICANT WEATHER AND/OR OBSTRUCTIONS TO VISIBILITY.

MSZ001>002-007>008-010>013-018>021-025>028-034>036-232100-
NORTHWEST MISSISSIPPI
  
CITY           SKY/WX    TMP DP  RH WIND       PRES   REMARKS
BATESVILLE     FAIR      81  54  39 S12G20    30.00F                  
CLARKSDALE     MOSUNNY   81  55  41 S15G23    29.98F                  
CLEVELAND      FAIR     N/A N/A N/A S16G24    29.98F                  
GREENWOOD      MOSUNNY   84  55  36 S18G24    30.00F                  
GREENVILLE     MOSUNNY   86  56  35 SW18G28   29.97F                  
OLIVE BRANCH   MOSUNNY   79  54  41 SE16G25   29.99F                  
OXFORD         MOSUNNY   79  54  41 S12G18    30.03F                  
TUNICA         PTSUNNY   82  57  42 S18       29.97F                  
$$

MSZ003>006-009-014>017-022>024-029>033-037>039-232100-
NORTHEAST MISSISSIPPI
  
CITY           SKY/WX    TMP DP  RH WIND       PRES   REMARKS
ABERDEEN       FAIR      81  45  28 S13       30.08F                  
COLUMBUS AFB   SUNNY     79  45  29 S12       30.09F                  
CORINTH        MOSUNNY   79  45  29 S14G21    30.04F                  
GOLDN TRIANGLE SUNNY     79  49  34 S10       30.08F                  
STARKVILLE       N/A    N/A N/A N/A MISG        N/A                   
TUPELO         MOSUNNY   80  47  31 S12       30.05F                  
$$

MSZ040-058-232100-
CENTRAL MISSISSIPPI
  
CITY           SKY/WX    TMP DP  RH WIND       PRES   REMARKS
JACKSON INTL   MOSUNNY   81  54  39 VRB5      30.03F                  
JACKSON HAWKNS MOSUNNY   82  55  39 S7        30.04F                  
MADISON        FAIR      81  57  44 VRB6G12   30.03F                  
MERIDIAN KEY   SUNNY     80  51  36 S9G20     30.08F                  
MERIDIAN NAS   MOSUNNY   78  49  35 VRB6      30.08F                  
VICKSBURG VKS  SUNNY     84  57  39 S10       29.99F                  
$$

MSZ059>079-232100-
SOUTH MISSISSIPPI
  
CITY           SKY/WX    TMP DP  RH WIND       PRES   REMARKS
BROOKHAVEN     FAIR      81  61  50 S9        30.05F                  
HATTIESBURG    SUNNY     83  48  29 S14       30.07F                  
LAUREL         SUNNY     80  50  34 SE9       30.07F                  
MCCOMB         MOSUNNY   80  55  42 S8        30.04F                  
NATCHEZ        MOSUNNY   82  59  45 SE14G23   30.02F                  
PINE BELT      NOT AVBL                                               
$$

MSZ080>082-232100-
COASTAL MISSISSIPPI
  
CITY           SKY/WX    TMP DP  RH WIND       PRES   REMARKS
BAY ST LOUIS   SUNNY     79  57  47 SE13G20   30.07F                  
BILOXI         SUNNY     78  57  48 SE12      30.07F                  
PASCAGOULA     SUNNY     79  55  43 SE9       30.09F                  
GULFPORT       SUNNY     77  60  55 SE12      30.08F                  
$$

LAZ007>009-015>016-023>026-232100-
NORTHEAST LOUISIANA
  
CITY           SKY/WX    TMP DP  RH WIND       PRES   REMARKS
BASTROP        PTSUNNY   83  57  40 S7G16     29.98F                  
TALLULAH/VBURG MOSUNNY   85  58  39 S17G23    30.01F                  
VIDALIA        PTSUNNY   82  59  45 SE15      30.00F                  
$$
  
