ASUS43 KLOT 231956
RWRIL 

ILLINOIS REGIONAL WEATHER ROUNDUP
NATIONAL WEATHER SERVICE CHICAGO/ROMEOVILLE IL
300 PM CDT SUN OCT 23 2022

NOTE: "FAIR" INDICATES FEW OR NO CLOUDS BELOW 12,000 FEET WITH NO
SIGNIFICANT WEATHER AND/OR OBSTRUCTIONS TO VISIBILITY.

* THESE STATIONS ARE NOT UNDER NWS QUALITY CONTROL. THEY ALSO MAY NOT
  REPORT WEATHER SUCH AS PRECIPITATION OR FOG.

ILZ001-002-007-009-015-016-024-232100-
NORTHWEST ILLINOIS
  
CITY           SKY/WX    TMP DP  RH WIND       PRES   REMARKS
MOLINE         NOT AVBL                                               
SAVANNA*       SUNNY     79  55  44 S24G31    29.73F                  
$$

ILZ003-004-008-010-011-017-018-232100-
NORTH CENTRAL ILLINOIS
  
CITY           SKY/WX    TMP DP  RH WIND       PRES   REMARKS
ROCKFORD       NOT AVBL                                               
$$

ILZ005-006-012>014-019>023-232100-
NORTHEAST ILLINOIS
  
CITY           SKY/WX    TMP DP  RH WIND       PRES   REMARKS
CHICAGO-OHARE  MOSUNNY   78  55  44 S23G36    29.83F                  
CHICAGO-MIDWAY NOT AVBL                                               
AURORA         NOT AVBL                                               
WAUKEGAN       NOT AVBL                                               
DUPAGE AIRPORT NOT AVBL                                               
WHEELING       NOT AVBL                                               
$$

LMZ740>746-232100-
SOUTHERN LAKE MICHIGAN
  
STATION/POSITION SKY/WX   TEMP    WIND        PRES    VSBY  WAVE
                          AIR SEA DIR/SP/G                  HT/PER
                          (F)     (DEG/KT/KT) (MB)    (MI)  (FT/S)
S. MID LAKE BUOY           56 50  130/ 12/ 14 1012.5F
WINTHROP HARBOR            59 54  260/ 14/ 16   N/A           3/ 4
WAUKEGAN HARBOR            58 51              1011.1F         2/ 4
WILMETTE BUOY              61 54  140/ 10/ 12 1009.3F         3/ 4
CHICAGO BUOY               66 53  190/ 17/ 21 1011.9F         2/ 4
HARRISON CRIB              72     180/ 28/ 31   N/A
NORTHERLY ISL              76     200/ 16/ 22   N/A
CALUMET HARBOR                    160/ 18/ 23 1011.3
BURNS HARBOR               78     160/ 11/ 18 1012.5F
MICHIGAN CITY              78                 1011.1F
MICH CITY BUOY             71                   N/A           2/ 3
ST. JOSEPH BUOY            70 57  150/ 19/ 27 1012.8F         2/ 3
$$

ILZ025>027-034>036-040-047-049-050-058-095>099-232100-
WEST-CENTRAL ILLINOIS
  
CITY           SKY/WX    TMP DP  RH WIND       PRES   REMARKS
$$

ILZ028>032-037-038-041>044-048-051>054-059>061-232100-
CENTRAL ILLINOIS
  
CITY           SKY/WX    TMP DP  RH WIND       PRES   REMARKS
PEORIA         NOT AVBL                                               
SPRINGFIELD    NOT AVBL                                               
TAYLORVILLE    NOT AVBL                                               
$$

ILZ033-039-045-046-055>057-062-063-232100-
EAST-CENTRAL ILLINOIS
  
CITY           SKY/WX    TMP DP  RH WIND       PRES   REMARKS
$$

ILZ079-100>102-232100-
SOUTHWEST ILLINOIS
  
CITY           SKY/WX    TMP DP  RH WIND       PRES   REMARKS
ALTON          MOSUNNY   75  57  53 S22G35    29.83F                  
$$

ILZ064>066-069>071-074>076-080>082-084>086-088>090-092>094-232100-
SOUTH-CENTRAL ILLINOIS
  
CITY           SKY/WX    TMP DP  RH WIND       PRES   REMARKS
CARBONDALE     NOT AVBL                                               
MARION         PTSUNNY   77  59  53 S24G32    29.93F                  
$$

ILZ067-068-072-073-078-083-087-091-232100-
SOUTHEAST ILLINOIS
  
CITY           SKY/WX    TMP DP  RH WIND       PRES   REMARKS
$$

ABBREVIATIONS USED IN REMARKS
   TC - TEMPERATURE IN CELSIUS
  WCI - WIND CHILL INDEX
   HX - HEAT INDEX
  VSB - VISIBILITY
$$

  
