ASUS43 KLOT 231910
RWRIL 

ILLINOIS REGIONAL WEATHER ROUNDUP
NATIONAL WEATHER SERVICE CHICAGO/ROMEOVILLE IL
200 PM CDT SUN OCT 23 2022

NOTE: "FAIR" INDICATES FEW OR NO CLOUDS BELOW 12,000 FEET WITH NO
SIGNIFICANT WEATHER AND/OR OBSTRUCTIONS TO VISIBILITY.

* THESE STATIONS ARE NOT UNDER NWS QUALITY CONTROL. THEY ALSO MAY NOT
  REPORT WEATHER SUCH AS PRECIPITATION OR FOG.

ILZ001-002-007-009-015-016-024-232000-
NORTHWEST ILLINOIS
  
CITY           SKY/WX    TMP DP  RH WIND       PRES   REMARKS
MOLINE         MOSUNNY   78  57  48 SE20G33   29.72F                  
STERLING*      SUNNY     74  58  57 SE10G20   29.77F                  
SAVANNA*       SUNNY     77  55  47 SE23      29.74F                  
$$

ILZ003-004-008-010-011-017-018-232000-
NORTH CENTRAL ILLINOIS
  
CITY           SKY/WX    TMP DP  RH WIND       PRES   REMARKS
ROCKFORD       MOSUNNY   76  57  51 S18G32    29.81F                  
FREEPORT*      SUNNY     75  60  59 S16G29    29.79F                  
ROCHELLE*      SUNNY     76  60  58 S25G33    29.81F                  
DE KALB*       SUNNY     74  59  59 S24G32    29.84F                  
PERU*          MOSUNNY   77  57  50 SE26G32   29.80F                  
$$

ILZ005-006-012>014-019>023-232000-
NORTHEAST ILLINOIS
  
CITY           SKY/WX    TMP DP  RH WIND       PRES   REMARKS
CHICAGO-OHARE  MOSUNNY   78  55  44 S22G38    29.85F                  
CHICAGO-MIDWAY MOSUNNY   80  55  42 S23G39    29.87F HX  80           
AURORA         MOSUNNY   76  56  49 S18G35    29.83F                  
JOLIET*        SUNNY     78  57  47 S18G29    29.86F                  
WAUKEGAN       SUNNY     69  55  60 S14       29.85F                  
DUPAGE AIRPORT MOSUNNY   77  57  50 S23G37    29.85F                  
KANKAKEE*      SUNNY     77  54  43 S22G32    29.90F                  
WHEELING       SUNNY     78  56  46 S25G32    29.87F                  
MORRIS*        SUNNY     79  58  48 S22G30    29.84F HX  80           
ROMEOVILLE*    SUNNY     79  57  47 S26G35    29.87F HX  80           
LANSING*       SUNNY     78  56  47 S26G32    29.90F                  
$$

LMZ740>746-232000-
SOUTHERN LAKE MICHIGAN
  
STATION/POSITION SKY/WX   TEMP    WIND        PRES    VSBY  WAVE
                          AIR SEA DIR/SP/G                  HT/PER
                          (F)     (DEG/KT/KT) (MB)    (MI)  (FT/S)
S. MID LAKE BUOY           55 50  130/ 10/ 12 1013.1F         2/ 4
WINTHROP HARBOR            60 54  130/ 14/ 17   N/A           3/ 4
WAUKEGAN HARBOR            58 51              1011.6F         2/ 4
WILMETTE BUOY              60 54  130/ 12/ 16 1009.9F         3/ 4
CHICAGO BUOY               62 53  170/ 12/ 17 1012.6          2/ 3
HARRISON CRIB              70     170/ 23/ 25   N/A
NORTHERLY ISL              78     160/ 13/ 22   N/A
CALUMET HARBOR                    140/ 16/ 21 1011.6
BURNS HARBOR               77     170/ 13/ 18 1012.9F
MICHIGAN CITY              76                 1011.9F
MICH CITY BUOY             68                   N/A           2/ 3
ST. JOSEPH BUOY            69 57  210/ 17/ 25 1013.4F         2/ 3
$$

ILZ025>027-034>036-040-047-049-050-058-095>099-232000-
WEST-CENTRAL ILLINOIS
  
CITY           SKY/WX    TMP DP  RH WIND       PRES   REMARKS
QUINCY         SUNNY     77  58  51 S22G31    29.72F                  
GALESBURG*     MOSUNNY   74  59  61 S18G26    29.76F                  
MACOMB*        MOSUNNY   71  54  55 S22G30    29.78F                  
JACKSONVILLE*  MOSUNNY   75  58  54 S20G26    29.80F                  
PITTSFIELD*    MOSUNNY   74  59  59 SE17      29.78F                  
$$

ILZ028>032-037-038-041>044-048-051>054-059>061-232000-
CENTRAL ILLINOIS
  
CITY           SKY/WX    TMP DP  RH WIND       PRES   REMARKS
PONTIAC        SUNNY     77  61  56 S26G38    29.86F                  
BLOOMINGTON    SUNNY     75  58  55 S25G31    29.86F                  
DECATUR        MOSUNNY   75  59  57 S24G33    29.88F                  
PEORIA         MOSUNNY   77  57  50 S21G35    29.80F                  
LACON*         SUNNY     76  61  59 S20G33    29.80S                  
LINCOLN*       SUNNY     76  59  54 S26G36    29.84F                  
SPRINGFIELD    MOSUNNY   76  57  51 S22G38    29.83F                  
TAYLORVILLE    MOSUNNY   74  57  56 S22G31    29.87F                  
$$

ILZ033-039-045-046-055>057-062-063-232000-
EAST-CENTRAL ILLINOIS
  
CITY           SKY/WX    TMP DP  RH WIND       PRES   REMARKS
CHAMPAIGN      MOSUNNY   79  56  45 S31G47    29.91F HX  80           
DANVILLE*      SUNNY     79  54  41 S26G32    29.94F HAZE             
RANTOUL*       MOSUNNY   78  56  46 S31G38    29.91S                  
MATTOON        MOSUNNY   76  56  49 SE23G41   29.92F                  
PARIS*         MOSUNNY   80  56  44 S26G35    29.96F HX  80           
$$

ILZ079-100>102-232000-
SOUTHWEST ILLINOIS
  
CITY           SKY/WX    TMP DP  RH WIND       PRES   REMARKS
ALTON          PTSUNNY   73  57  56 S24G37    29.85F                  
BELLEVILLE     PTSUNNY   75  59  56 S17G29    29.86F                  
CAHOKIA*       MOSUNNY   75  59  57 S15G36    29.84F                  
SPARTA*        CLOUDY    75  59  56 S25G31    29.91F                  
$$

ILZ064>066-069>071-074>076-080>082-084>086-088>090-092>094-232000-
SOUTH-CENTRAL ILLINOIS
  
CITY           SKY/WX    TMP DP  RH WIND       PRES   REMARKS
CARBONDALE     MOSUNNY   80  58  46 S25G37    29.93F HX  80           
CAIRO*         CLOUDY    79  58  48 SW16G29   29.98F HX  80           
EFFINGHAM*     CLOUDY    76  57  52 SE16G26   29.95F                  
MARION         PTSUNNY   75  59  57 S22G29    29.96F                  
MT. VERNON     MOSUNNY   79  58  48 S17G30    29.94F HX  80           
SALEM*         PTSUNNY   77  58  52 S17G28    29.93S                  
METROPOLIS*    PTSUNNY   79  53  40 S15G22    29.99F                  
$$

ILZ067-068-072-073-078-083-087-091-232000-
SOUTHEAST ILLINOIS
  
CITY           SKY/WX    TMP DP  RH WIND       PRES   REMARKS
LAWRENCEVILLE  MOSUNNY   81  53  37 S28G37    29.98F HX  80           
FLORA*         PTSUNNY   79  57  47 S25G36    29.95F HX  80           
FAIRFIELD*     PTSUNNY   77  55  45 S22G29    29.95F                  
HARRISBURG*    PTSUNNY   80  62  55 S21G31    29.98S HX  81           
ROBINSON*      MOSUNNY   79  51  37 S22G32    29.98F                  
CARMI*         MOSUNNY   81  50  34 S24       29.97F HX  80           
$$

ABBREVIATIONS USED IN REMARKS
   TC - TEMPERATURE IN CELSIUS
  WCI - WIND CHILL INDEX
   HX - HEAT INDEX
  VSB - VISIBILITY
$$

  
