ASUS43 KLOT 231756
RWRIL 

ILLINOIS REGIONAL WEATHER ROUNDUP
NATIONAL WEATHER SERVICE CHICAGO/ROMEOVILLE IL
100 PM CDT SUN OCT 23 2022

NOTE: "FAIR" INDICATES FEW OR NO CLOUDS BELOW 12,000 FEET WITH NO
SIGNIFICANT WEATHER AND/OR OBSTRUCTIONS TO VISIBILITY.

* THESE STATIONS ARE NOT UNDER NWS QUALITY CONTROL. THEY ALSO MAY NOT
  REPORT WEATHER SUCH AS PRECIPITATION OR FOG.

ILZ001-002-007-009-015-016-024-231900-
NORTHWEST ILLINOIS
  
CITY           SKY/WX    TMP DP  RH WIND       PRES   REMARKS
MOLINE         NOT AVBL                                               
SAVANNA*       SUNNY     75  55  50 S20G26    29.78F                  
$$

ILZ003-004-008-010-011-017-018-231900-
NORTH CENTRAL ILLINOIS
  
CITY           SKY/WX    TMP DP  RH WIND       PRES   REMARKS
ROCKFORD       NOT AVBL                                               
$$

ILZ005-006-012>014-019>023-231900-
NORTHEAST ILLINOIS
  
CITY           SKY/WX    TMP DP  RH WIND       PRES   REMARKS
CHICAGO-OHARE  MOSUNNY   76  55  48 S21G30    29.87F                  
6HR MIN TEMP:  62; 6HR MAX TEMP:  76;                                

CHICAGO-MIDWAY NOT AVBL                                               
AURORA         NOT AVBL                                               
WAUKEGAN       NOT AVBL                                               
DUPAGE AIRPORT NOT AVBL                                               
WHEELING       NOT AVBL                                               
$$

LMZ740>746-231900-
SOUTHERN LAKE MICHIGAN
  
STATION/POSITION SKY/WX   TEMP    WIND        PRES    VSBY  WAVE
                          AIR SEA DIR/SP/G                  HT/PER
                          (F)     (DEG/KT/KT) (MB)    (MI)  (FT/S)
S. MID LAKE BUOY           55 50  130/ 12/ 14 1014.0F
WINTHROP HARBOR            58 54  150/ 12/ 16   N/A           2/ 4
WAUKEGAN HARBOR            57 52              1012.8F         1/ 4
WILMETTE BUOY              59 54  130/ 14/ 17 1011.2F         2/ 4
HARRISON CRIB              66     160/ 22/ 24   N/A
NORTHERLY ISL              74     160/ 12/ 19   N/A
CALUMET HARBOR                    160/ 14/ 21 1012.6
BURNS HARBOR               74     160/  9/ 18 1014.2F
MICHIGAN CITY              74                 1012.8F
MICH CITY BUOY             68                   N/A           2/ 3
ST. JOSEPH BUOY            67 57  200/ 16/ 23 1014.3F         2/ 3
$$

ILZ025>027-034>036-040-047-049-050-058-095>099-231900-
WEST-CENTRAL ILLINOIS
  
CITY           SKY/WX    TMP DP  RH WIND       PRES   REMARKS
$$

ILZ028>032-037-038-041>044-048-051>054-059>061-231900-
CENTRAL ILLINOIS
  
CITY           SKY/WX    TMP DP  RH WIND       PRES   REMARKS
PEORIA         NOT AVBL                                               
SPRINGFIELD    NOT AVBL                                               
TAYLORVILLE    NOT AVBL                                               
$$

ILZ033-039-045-046-055>057-062-063-231900-
EAST-CENTRAL ILLINOIS
  
CITY           SKY/WX    TMP DP  RH WIND       PRES   REMARKS
$$

ILZ079-100>102-231900-
SOUTHWEST ILLINOIS
  
CITY           SKY/WX    TMP DP  RH WIND       PRES   REMARKS
ALTON          PTSUNNY   73  57  56 S24G33    29.88S                  
$$

ILZ064>066-069>071-074>076-080>082-084>086-088>090-092>094-231900-
SOUTH-CENTRAL ILLINOIS
  
CITY           SKY/WX    TMP DP  RH WIND       PRES   REMARKS
CARBONDALE     NOT AVBL                                               
MARION         PTSUNNY   75  59  57 S21G33    29.97F                  
$$

ILZ067-068-072-073-078-083-087-091-231900-
SOUTHEAST ILLINOIS
  
CITY           SKY/WX    TMP DP  RH WIND       PRES   REMARKS
$$

ABBREVIATIONS USED IN REMARKS
   TC - TEMPERATURE IN CELSIUS
  WCI - WIND CHILL INDEX
   HX - HEAT INDEX
  VSB - VISIBILITY
$$

  
