ASUS43 KLOT 232106
RWRIL 

ILLINOIS REGIONAL WEATHER ROUNDUP
NATIONAL WEATHER SERVICE CHICAGO/ROMEOVILLE IL
400 PM CDT SUN OCT 23 2022

NOTE: "FAIR" INDICATES FEW OR NO CLOUDS BELOW 12,000 FEET WITH NO
SIGNIFICANT WEATHER AND/OR OBSTRUCTIONS TO VISIBILITY.

* THESE STATIONS ARE NOT UNDER NWS QUALITY CONTROL. THEY ALSO MAY NOT
  REPORT WEATHER SUCH AS PRECIPITATION OR FOG.

ILZ001-002-007-009-015-016-024-232200-
NORTHWEST ILLINOIS
  
CITY           SKY/WX    TMP DP  RH WIND       PRES   REMARKS
MOLINE         MOSUNNY   77  58  51 S20G28    29.69S                  
STERLING*      SUNNY     76  58  53 SE14G22   29.75F                  
SAVANNA*       MOSUNNY   75  57  53 SE22G31   29.71F                  
$$

ILZ003-004-008-010-011-017-018-232200-
NORTH CENTRAL ILLINOIS
  
CITY           SKY/WX    TMP DP  RH WIND       PRES   REMARKS
ROCKFORD       PTSUNNY   76  57  51 S20G35    29.79R                  
FREEPORT*      PTSUNNY   76  61  60 S22G29    29.77S                  
ROCHELLE*      PTSUNNY   75  60  59 S26G36    29.79S                  
DE KALB*       SUNNY     75  59  58 S30       29.81F                  
PERU*          SUNNY     76  57  51 S22G36    29.78S                  
$$

ILZ005-006-012>014-019>023-232200-
NORTHEAST ILLINOIS
  
CITY           SKY/WX    TMP DP  RH WIND       PRES   REMARKS
CHICAGO-OHARE  MOSUNNY   78  54  43 S21G41    29.82F                  
CHICAGO-MIDWAY MOSUNNY   80  54  40 S17G30    29.84F HX  80           
AURORA         MOSUNNY   77  57  50 S23G38    29.80S                  
JOLIET*        SUNNY     79  57  46 S21G28    29.84S HX  80           
WAUKEGAN       SUNNY     72  55  55 S13       29.81F                  
DUPAGE AIRPORT SUNNY     78  56  46 S15G33    29.81F                  
KANKAKEE*      SUNNY     78  53  42 S22G31    29.88S                  
WHEELING       SUNNY     78  55  44 S21G38    29.83F                  
MORRIS*        MOSUNNY   78  58  50 S25G33    29.82R                  
ROMEOVILLE*    SUNNY     79  55  44 S24G37    29.84S                  
LANSING*       SUNNY     77  55  45 S23G33    29.87F                  
$$

LMZ740>746-232200-
SOUTHERN LAKE MICHIGAN
  
STATION/POSITION SKY/WX   TEMP    WIND        PRES    VSBY  WAVE
                          AIR SEA DIR/SP/G                  HT/PER
                          (F)     (DEG/KT/KT) (MB)    (MI)  (FT/S)
S. MID LAKE BUOY           57 50  140/ 12/ 14 1012.0F         2/ 4
WINTHROP HARBOR            59 54  130/ 14/ 17   N/A           3/ 4
WAUKEGAN HARBOR            59 51              1010.6F         2/ 4
WILMETTE BUOY              62 54  150/ 12/ 19 1008.6F         3/ 4
CHICAGO BUOY               66 53  180/ 17/ 23 1011.5F         3/ 4
HARRISON CRIB              69     180/ 25/ 28   N/A
NORTHERLY ISL              75     160/ 13/ 25   N/A
CALUMET HARBOR                    160/ 15/ 23 1010.6F
BURNS HARBOR               77     190/ 15/ 21 1011.9F
MICHIGAN CITY              78                 1010.9F
MICH CITY BUOY             70                   N/A           2/ 3
ST. JOSEPH BUOY            70 57  160/ 19/ 25 1012.6F         2/ 3
$$

ILZ025>027-034>036-040-047-049-050-058-095>099-232200-
WEST-CENTRAL ILLINOIS
  
CITY           SKY/WX    TMP DP  RH WIND       PRES   REMARKS
QUINCY         SUNNY     78  58  49 S20G30    29.70S                  
GALESBURG*     MOSUNNY   75  60  58 S16G23    29.73S                  
MACOMB*        SUNNY     75  55  48 S23       29.75S                  
JACKSONVILLE*  MOSUNNY   73  58  58 SE20G28   29.77F                  
PITTSFIELD*    MOSUNNY   76  60  57 S17G24    29.75R                  
$$

ILZ028>032-037-038-041>044-048-051>054-059>061-232200-
CENTRAL ILLINOIS
  
CITY           SKY/WX    TMP DP  RH WIND       PRES   REMARKS
PONTIAC        MOSUNNY   74  62  64 S28G35    29.83F                  
BLOOMINGTON    MOSUNNY   75  59  57 S30G40    29.83F                  
DECATUR        PTSUNNY   77  60  55 S20G37    29.85F                  
PEORIA         MOSUNNY   76  57  51 S24G35    29.76F                  
LACON*         MOSUNNY   75  61  60 S20G30    29.76S                  
LINCOLN*       MOSUNNY   76  59  56 S24G31    29.80F                  
SPRINGFIELD    MOSUNNY   77  58  51 S24G36    29.79F                  
TAYLORVILLE    PTSUNNY   76  57  52 S26G37    29.83F                  
$$

ILZ033-039-045-046-055>057-062-063-232200-
EAST-CENTRAL ILLINOIS
  
CITY           SKY/WX    TMP DP  RH WIND       PRES   REMARKS
CHAMPAIGN      MOSUNNY   76  55  48 S23G37    29.88F                  
DANVILLE*      MOSUNNY   77  51  40 S20G29    29.92S                  
RANTOUL*       MOSUNNY   74  54  48 S22G28    29.89S                  
MATTOON        PTSUNNY   76  55  48 S21G33    29.89S                  
PARIS*         MOSUNNY   76  54  46 S25       29.93F                  
$$

ILZ079-100>102-232200-
SOUTHWEST ILLINOIS
  
CITY           SKY/WX    TMP DP  RH WIND       PRES   REMARKS
ALTON          MOSUNNY   77  57  50 S23G35    29.82F                  
BELLEVILLE     MOSUNNY   78  59  50 S17G31    29.82F HX  80           
CAHOKIA*       SUNNY     78  58  49 S15G38    29.82R                  
SPARTA*        SUNNY     78  58  49 S24G37    29.86F                  
$$

ILZ064>066-069>071-074>076-080>082-084>086-088>090-092>094-232200-
SOUTH-CENTRAL ILLINOIS
  
CITY           SKY/WX    TMP DP  RH WIND       PRES   REMARKS
CARBONDALE     PTSUNNY   80  57  45 S18G32    29.90F HX  80           
CAIRO*         MOSUNNY   81  57  43 SW17G25   29.94F HX  81           
EFFINGHAM*     PTSUNNY   77  56  49 SE14G25   29.91F                  
MARION         PTSUNNY   79  57  47 S22G29    29.92F HX  80           
MT. VERNON     MOSUNNY   79  57  46 S24       29.90F HX  80           
SALEM*         MOSUNNY   78  57  47 S17G28    29.89F                  
METROPOLIS*    SUNNY     79  51  36 S12G23    29.97S                  
$$

ILZ067-068-072-073-078-083-087-091-232200-
SOUTHEAST ILLINOIS
  
CITY           SKY/WX    TMP DP  RH WIND       PRES   REMARKS
LAWRENCEVILLE  MOSUNNY   78  48  34 S22G29    29.96F                  
FLORA*         MOSUNNY   79  55  44 S26G35    29.92F                  
FAIRFIELD*     MOSUNNY   79  52  38 S20G25    29.92S                  
HARRISBURG*    MOSUNNY   80  59  48 S16G24    29.95S HX  80           
ROBINSON*      MOSUNNY   76  50  38 S20G25    29.95F                  
CARMI*         MOSUNNY   81  48  32 S16G24    29.95F HX  80           
$$

ABBREVIATIONS USED IN REMARKS
   TC - TEMPERATURE IN CELSIUS
  WCI - WIND CHILL INDEX
   HX - HEAT INDEX
  VSB - VISIBILITY
$$

  
