ASUS43 KLOT 232001
RWRIL 

ILLINOIS REGIONAL WEATHER ROUNDUP
NATIONAL WEATHER SERVICE CHICAGO/ROMEOVILLE IL
300 PM CDT SUN OCT 23 2022

NOTE: "FAIR" INDICATES FEW OR NO CLOUDS BELOW 12,000 FEET WITH NO
SIGNIFICANT WEATHER AND/OR OBSTRUCTIONS TO VISIBILITY.

* THESE STATIONS ARE NOT UNDER NWS QUALITY CONTROL. THEY ALSO MAY NOT
  REPORT WEATHER SUCH AS PRECIPITATION OR FOG.

ILZ001-002-007-009-015-016-024-232100-
NORTHWEST ILLINOIS
  
CITY           SKY/WX    TMP DP  RH WIND       PRES   REMARKS
MOLINE         MOSUNNY   77  57  50 SE21G31   29.69F                  
STERLING*      MOSUNNY   78  58  49 S13G21    29.76F                  
SAVANNA*       SUNNY     79  55  44 S24G31    29.73F                  
$$

ILZ003-004-008-010-011-017-018-232100-
NORTH CENTRAL ILLINOIS
  
CITY           SKY/WX    TMP DP  RH WIND       PRES   REMARKS
ROCKFORD       MOSUNNY   76  57  51 S20G31    29.78F                  
FREEPORT*      SUNNY     75  61  61 S23G30    29.77F                  
ROCHELLE*      SUNNY     77  61  56 S24G30    29.79F                  
DE KALB*       SUNNY     75  59  57 S26G33    29.82F                  
PERU*          MOSUNNY   78  57  49 S28G35    29.79S                  
$$

ILZ005-006-012>014-019>023-232100-
NORTHEAST ILLINOIS
  
CITY           SKY/WX    TMP DP  RH WIND       PRES   REMARKS
CHICAGO-OHARE  MOSUNNY   78  55  44 S23G36    29.83F                  
CHICAGO-MIDWAY MOSUNNY   81  54  39 S21G38    29.85F HX  81           
AURORA         SUNNY     77  57  50 S22G38    29.80F                  
JOLIET*        SUNNY     79  56  45 S17G29    29.84F HX  80           
WAUKEGAN       SUNNY     70  55  59 SE9       29.83F                  
DUPAGE AIRPORT SUNNY     78  56  46 S22G39    29.82F                  
KANKAKEE*      SUNNY     78  54  43 S20G28    29.89F                  
WHEELING       MOSUNNY   78  56  46 S28G39    29.84F                  
MORRIS*        SUNNY     79  58  48 S23G32    29.82F HX  80           
ROMEOVILLE*    SUNNY     79  57  47 S31G38    29.84F HX  80           
LANSING*       SUNNY     78  55  45 S18G31    29.88F                  
$$

LMZ740>746-232100-
SOUTHERN LAKE MICHIGAN
  
STATION/POSITION SKY/WX   TEMP    WIND        PRES    VSBY  WAVE
                          AIR SEA DIR/SP/G                  HT/PER
                          (F)     (DEG/KT/KT) (MB)    (MI)  (FT/S)
S. MID LAKE BUOY           56 50  130/ 12/ 14 1012.5F
WINTHROP HARBOR            59 54  260/ 14/ 16   N/A           3/ 4
WAUKEGAN HARBOR            58 51              1011.1F         2/ 4
WILMETTE BUOY              61 54  140/ 10/ 12 1009.3F         3/ 4
CHICAGO BUOY               66 53  190/ 17/ 21 1011.9F         2/ 4
HARRISON CRIB              72     180/ 28/ 31   N/A
NORTHERLY ISL              76     200/ 16/ 22   N/A
CALUMET HARBOR                    160/ 12/ 23 1011.0
BURNS HARBOR               78     160/ 11/ 18 1012.5F
MICHIGAN CITY              78                 1011.1F
MICH CITY BUOY             71                   N/A           2/ 3
ST. JOSEPH BUOY            70 57  150/ 19/ 27 1012.8F         2/ 3
$$

ILZ025>027-034>036-040-047-049-050-058-095>099-232100-
WEST-CENTRAL ILLINOIS
  
CITY           SKY/WX    TMP DP  RH WIND       PRES   REMARKS
QUINCY         SUNNY     79  58  48 S16G31    29.70F HX  80           
GALESBURG*     MOSUNNY   75  60  59 S16       29.74F                  
$$

ILZ028>032-037-038-041>044-048-051>054-059>061-232100-
CENTRAL ILLINOIS
  
CITY           SKY/WX    TMP DP  RH WIND       PRES   REMARKS
PONTIAC        SUNNY     78  61  56 S25G39    29.84F                  
BLOOMINGTON    MOSUNNY   75  59  57 S29G36    29.84F                  
DECATUR        MOSUNNY   76  60  57 S25G40    29.86F                  
PEORIA         MOSUNNY   77  57  50 S22G37    29.77F                  
LACON*         SUNNY     76  61  59 S21G30    29.77F                  
LINCOLN*       SUNNY     75  59  55 S25G36    29.81F                  
SPRINGFIELD    MOSUNNY   75  57  53 S18G37    29.80F                  
TAYLORVILLE    NOT AVBL                                               
$$

ILZ033-039-045-046-055>057-062-063-232100-
EAST-CENTRAL ILLINOIS
  
CITY           SKY/WX    TMP DP  RH WIND       PRES   REMARKS
CHAMPAIGN      MOSUNNY   75  55  49 S29G39    29.89F                  
DANVILLE*      SUNNY     79  51  37 S26G35    29.92F                  
MATTOON        PTSUNNY   77  55  46 S22G40    29.89F                  
PARIS*         MOSUNNY   79  55  42 S31       29.94F                  
$$

ILZ079-100>102-232100-
SOUTHWEST ILLINOIS
  
CITY           SKY/WX    TMP DP  RH WIND       PRES   REMARKS
ALTON          MOSUNNY   75  57  53 S22G35    29.83F                  
CAHOKIA*       MOSUNNY   77  59  53 S18G30    29.81F                  
SPARTA*        MOSUNNY   76  59  55 S22G35    29.88F                  
$$

ILZ064>066-069>071-074>076-080>082-084>086-088>090-092>094-232100-
SOUTH-CENTRAL ILLINOIS
  
CITY           SKY/WX    TMP DP  RH WIND       PRES   REMARKS
CARBONDALE     MOSUNNY   79  57  46 S26G38    29.91F HX  80           
CAIRO*         PTSUNNY   81  58  45 SW17      29.96F HX  81           
EFFINGHAM*     MOSUNNY   76  57  51 SE18G25   29.92F                  
MARION         PTSUNNY   77  59  53 S24G32    29.93F                  
MT. VERNON     MOSUNNY   79  57  46 S21G35    29.92F HX  80           
SALEM*         PTSUNNY   78  57  49 S16G25    29.90F                  
METROPOLIS*    SUNNY     80  51  36 S9G24     29.97F HX  80           
$$

ILZ067-068-072-073-078-083-087-091-232100-
SOUTHEAST ILLINOIS
  
CITY           SKY/WX    TMP DP  RH WIND       PRES   REMARKS
LAWRENCEVILLE  MOSUNNY   81  51  35 S23G35    29.97F HX  80           
FLORA*         MOSUNNY   79  57  47 S22G29    29.93F HX  80           
FAIRFIELD*     PTSUNNY   78  54  42 S21G28    29.94F                  
HARRISBURG*    MOSUNNY   80  62  52 S22G29    29.96F HX  81           
ROBINSON*      MOSUNNY   79  51  37 S23G29    29.97S                  
$$

ABBREVIATIONS USED IN REMARKS
   TC - TEMPERATURE IN CELSIUS
  WCI - WIND CHILL INDEX
   HX - HEAT INDEX
  VSB - VISIBILITY
$$

  
