ASUS41 KAKQ 232111
RWRAKQ

REGIONAL WEATHER ROUNDUP
NATIONAL WEATHER SERVICE WAKEFIELD VA
500 PM EDT SUN OCT 23 2022

Note: "fair" indicates few or no clouds below 12,000 feet with no
significant weather and/or obstructions to visibility. * = Denotes
station may not report precipitation (e.g., rain,snow,etc.),
thunder or fog.

VAZ042-051-052>054-056-232200-
NORTHERN VIRGINIA
  
CITY           SKY/WX    TMP DP  RH WIND       PRES   REMARKS
WASH NATIONAL  CLOUDY    65  52  62 NE8       30.19F                  
DULLES         CLOUDY    66  51  58 N13       30.19F                  
FORT BELVOIR   CLOUDY    65  53  65 N3        30.16F                  
QUANTICO       CLOUDY    66  32  28 N8        30.18F                  
FREDERICKSBRG* CLOUDY    65  53  65 N6        30.16F                  
STAFFORD*      CLOUDY    67  53  62 N6        30.21S                  
WARRENTON      CLOUDY    66  51  57 N6        30.22F                  
CULPEPER*      CLOUDY    66  51  57 N5        30.20S                  
MANASSAS*      CLOUDY    65  53  65 N8        30.19F                  
LEESBURG*      CLOUDY    64  54  68 NE7       30.22S                  
WINCHESTER     CLOUDY    63  48  59 NE3       30.20F                  
FRONT ROYAL*   CLOUDY    63  46  55 CALM      30.21S                  
LURAY*         CLOUDY    63  46  55 NE3       30.21F                  
$$

VAZ048-049-060>072-079>083-232200-
CENTRAL AND SOUTH CENTRAL VIRGINIA
  
CITY           SKY/WX    TMP DP  RH WIND       PRES   REMARKS
RICHMOND       CLOUDY    59  57  93 N10       30.16S                  
CHESTERFIELD*  CLOUDY    57  57 100 NW9       30.17S                  
PETERSBURG*    CLOUDY    58  56  90 N9        30.16S                  
HANOVER        LGT RAIN  59  58  96 CALM      30.18S FOG              
TAPPAHANNOCK*  DRIZZLE   59  59 100 N6        30.16F                  
QUINTON*       CLOUDY    58  55  92 NW5       30.15F                  
CHARLOTTSVILLE CLOUDY    68  51  54 N7        30.18F                  
GORDONSVILLE*  NOT AVBL                                               
ORANGE*        CLOUDY    64  52  63 N5        30.20F                  
LOUISA*        CLOUDY    62  53  71 N7        30.19S HAZE             
BUMPASS*       CLOUDY    61  55  80 CALM      30.18F                  
FARMVILLE*     CLOUDY    65  52  61 N6        30.16S                  
CREWE*         CLOUDY    63  49  60 N5        30.16F                  
FORT PICKETT*  CLOUDY    63  53  69 N8        30.16S                  
CHASE CITY*    FAIR      68  53  59 N9        30.15S                  
CLARKSVILLE*   PTSUNNY   68  52  56 N3        30.14S                  
SOUTH HILL*    CLOUDY    66  55  66 N8        30.20S                  
LAWRENCEVILLE* CLOUDY    65  54  69 N3        30.15F                  
EMPORIA*       CLOUDY    60  55  85 NW10G16   30.15F                  
$$

VAZ088>098-232200-
SOUTHEAST VIRGINIA
  
CITY           SKY/WX    TMP DP  RH WIND       PRES   REMARKS
NORFOLK        CLOUDY    59  59 100 N15G24    30.09S                  
VIRGINIA BEACH CLOUDY    61  60  97 N15       30.07R                  
NORFOLK NAVAL  CLOUDY    61  57  87 N14       30.11S                  
WEST POINT*    PTSUNNY   60  55  85 N3        30.14F                  
SALUDA*        CLOUDY    58  56  94 NW7       30.13F                  
NEWPORT NEWS   LGT RAIN  58  57  97 N8G16     30.11S                  
LANGLEY AFB    DRIZZLE   59  59  99 N17       30.09                   
FORT EUSTIS    LGT RAIN  60  56  87 N9        30.09S                  
WILLIAMSBURG*  NOT AVBL                                               
HR EXEC AP*    CLOUDY    58  58 100 VRB6      30.12S                  
FRANKLIN*      CLOUDY    58  55  91 NW5       30.14S                  
US460-WAKEFLD  CLOUDY    58  55  90 NW5       30.13S                  
$$

VAZ020-022-025-037-045-232200-
WEST CENTRAL AND SOUTHWEST VIRGINIA
  
CITY           SKY/WX    TMP DP  RH WIND       PRES   REMARKS
STAUNTON*      CLOUDY    64  43  45 E3        30.23S                  
WAYNESBORO*    PTSUNNY   62  44  50 MISG      30.21F                  
HOT SPRINGS VA SUNNY     61  31  32 E7        30.25F                  
LYNCHBURG      SUNNY     70  37  29 NE10      30.17F                  
DANVILLE       SUNNY     70  38  31 NE5       30.16F                  
SOUTH BOSTON*  FAIR      69  42  38 NW6       30.16F                  
MARTINSVILLE   SUNNY     69  37  30 E6        30.19F                  
ROANOKE        SUNNY     71  38  29 NE7       30.20S                  
BLACKSBURG     SUNNY     67  40  37 E8        30.22S                  
DUBLIN*        SUNNY     68  41  37 CALM      30.18F                  
MARION*        SUNNY     69  32  25 SE6       30.21S                  
HILLSVILLE*    SUNNY     67   9  10 NW3       30.19S                  
RICHLANDS*     FAIR      69  33  27 NW3       30.19F                  
WISE*          SUNNY     68  37  32 N6        30.20S                  
ABINGDON*      SUNNY     76  27  16 CALM      30.17S                  
$$

MDZ021>025-VAZ099-100-232200-
SOUTHERN MARYLAND AND THE DELMARVA PENINSULA
  
CITY           SKY/WX    TMP DP  RH WIND       PRES   REMARKS
PATUXENT RIVER LGT RAIN  61  56  83 N9G21     30.16S                  
BAY BRIDGE APT NOT AVBL                                               
LEONARDTOWN    CLOUDY    55  54  94 N3        30.17F                  
DOVER          LGT RAIN  57  57 100 N14       30.14                   
GEORGETOWN     LGT RAIN  61  58  90 NE14G22   30.14F FOG              
EASTON         LGT RAIN  61  59  94 N7        30.21S                  
CAMBRIDGE      CLOUDY    59  59 100 N6G14     30.15F FOG              
SALISBURY      CLOUDY    61  59  93 N10       30.11F                  
TANGIER        CLOUDY    60  59  97 N16       30.11F                  
OCEAN CITY     NOT AVBL                                               
WALLOPS ISLAND LGT RAIN  61  59  93 N10       30.10F FOG              
ACCOMACK*      CLOUDY    57  56  95 N9G18     30.09F                  
$$

NCZ012>017-030>032-232200-
NORTH CENTRAL AND EASTERN NORTH CAROLINA
  
CITY           SKY/WX    TMP DP  RH WIND       PRES   REMARKS
ROANOKE RAPIDS CLOUDY    61  59  94 N7        30.14R                  
RALEIGH        MOSUNNY   70  44  39 VRB7      30.14F                  
ELIZABETH CITY CLOUDY    60  59  96 NW13      30.08R FOG              
AHOSKIE*       CLOUDY    59  57  94 N7        30.13S                  
EDENTON*       CLOUDY    63  61  96 N10G16    30.10S                  
CURRITUCK*     CLOUDY    60  60 100 NW9G17    30.07R FOG              
KILL DEVIL HLS CLOUDY    61  61 100 N8G21     30.04R FOG              
MANTEO         CLOUDY    62  60  95 N16G24    30.06R                  
CAPE HATTERAS  CLOUDY    63  62  97 N10G25    30.00S                  
TARBORO*       CLOUDY    64  57  80 NW8       30.12S                  
GOLDSBORO      CLOUDY    68  55  62 NW7       30.09R                  
WASHINGTON     NOT AVBL                                               
GREENVILLE     CLOUDY    64  61  88 N8        30.10F                  
NEW BERN       CLOUDY    66  58  75 NW9       30.09S                  
WILMINGTON     MOSUNNY   74  54  49 NW9       30.07S                  
$$

VAZ048-232200-
ELSEWHERE
  
CITY           SKY/WX    TMP DP  RH WIND       PRES   REMARKS
HARRISBURG PA  CLOUDY    63  50  62 NE3       30.23S                  
BALTIMORE      LGT RAIN  64  50  60 N10       30.19S                  
ANNAPOLIS      LGT RAIN  60  54  80 N8        30.19                   
ANDREWS AFB    CLOUDY    62  52  67 NE7       30.16F                  
PHILADELPHIA   LGT RAIN  59  56  89 NE10      30.21                   
HENDERSON NC   MOSUNNY   64  49  57 NW3       30.15S                  
GREENSBORO     MOSUNNY   70  41  34 N5        30.15F                  
ROCKY MOUNT    CLOUDY    68  55  63 N13       30.12S                  
$$

VAZ100-232200-
MARINE
  
STATION/POSITION TIME  TEMP    WIND        PRES    WAVE   SWELL
                       AIR SEA DIR/SP/G            HT/PER HT/PER
                 (UTC) (F)     (DEG/KT/KT) (MB)    (FT/S) (FT/S)
CAPE MAY NJ      2030      67   30/ 10/ 17 1020.5F
LEWES DE         2030      61   40/ 19/ 22 1020.9F
15NM E FENWICK I 2050   62 63   30/ 23/ 31 1018.7F   9/ 8   5/ 8
OCEAN-CITY-INLET 2030      62   40/ 15/ 23 1019.6F
44089 WALLOPS IS 2056      61                N/A     7/ 8   2/11
WACHAPREAGUE VA  2030      60  360/  8/ 15 1018.0F
THOMAS POINT MD  2100   60     360/ 19/ 22 1022.6F
GOOSES REEF MD   2048   55 61   10/ 23/ 35 1023.1R   2/ 4
COVE POINT MD    2024          310/ 13/ 19 1021.8
SOLOMONS ISLAND  2030      63  350/  9/ 11 1019.9F
BISHOPS HEAD MD  2030      59  350/  8/ 11 1020.7F
PINEY POINT MD   2024           30/ 10/ 12   N/A
POTOMAC MD       2048   56     360/ 16/ 21   N/A     1
CAMBRIDGE MD     2030      60  350/  9/ 10 1021.1F
LEWISETTA VA     2030      61   20/  7/ 13 1021.0F
RAPPAHANNOCK LGT 2024          340/ 23/ 26 1019.5
STINGRAY PT      2048   57 62  350/ 21/ 27   N/A     3/ 3
YORK RVR RNG VA  2024          350/ 20/ 22 1019.1
YORKTOWN VA      2030      63  350/ 15/ 17 1019.2F
JAMESTOWN VA     2048   58     330/ 12/ 14   N/A     0
DOMINION TERM VA 2024          350/  8/ 13 1019.0
KIPTOPEKE VA     2030      66  360/ 13/ 16   N/A
CHES BAY BRIDGE  2024          360/ 24/ 28 1017.3
CAPE HENRY VA    2024          350/ 28/ 33 1018.2
WILLOUBY STN VA  2024          350/ 16/ 19 1019.1
S CRANEY ISL VA  2024          340/ 11/ 17 1018.7
CAPE HENRY BUOY  2056      65                N/A     7/ 8   2/11
1ST LANDING BUOY 2048   59 63  360/ 25/ 33 1019.9S   4/ 5
DUCK PIER NC     2030      64  350/ 23/ 26 1016.6R
44100 DUCK FRF   2056      66                N/A     8/ 9   2/11
44056 DUCK FRF   2056      65                N/A     7/ 7   2/11
OREGON INLET NC  2024      65  360/ 16/ 22 1016.2R
HATTERAS NC      2024      64  360/ 24/ 29 1016.1
DIAMOND SHLS NC  2050      79  350/ 27/ 33 1014.7R
CAPE LOOKOUT NC  2000   61     330/ 13/ 16 1018.4R
$$
  
