ASUS41 KAKQ 232011
RWRAKQ

REGIONAL WEATHER ROUNDUP
NATIONAL WEATHER SERVICE WAKEFIELD VA
400 PM EDT SUN OCT 23 2022

Note: "fair" indicates few or no clouds below 12,000 feet with no
significant weather and/or obstructions to visibility. * = Denotes
station may not report precipitation (e.g., rain,snow,etc.),
thunder or fog.

VAZ042-051-052>054-056-232100-
NORTHERN VIRGINIA
  
CITY           SKY/WX    TMP DP  RH WIND       PRES   REMARKS
WASH NATIONAL  CLOUDY    65  54  67 NE10      30.20S                  
DULLES         PTSUNNY   66  52  60 N10       30.20F                  
FORT BELVOIR   CLOUDY    65  52  64 N3        30.17F                  
QUANTICO       CLOUDY    66  32  28 N9        30.19F                  
FREDERICKSBRG* CLOUDY    64  54  68 N7        30.17F                  
STAFFORD*      CLOUDY    67  54  61 N7        30.22S                  
WARRENTON      CLOUDY    65  51  60 N7        30.23F                  
CULPEPER*      CLOUDY    67  51  55 N7        30.20F                  
MANASSAS*      CLOUDY    65  53  65 N12       30.20F                  
LEESBURG*      PTSUNNY   64  55  72 N7        30.22F                  
WINCHESTER     CLOUDY    63  48  59 CALM      30.21F                  
FRONT ROYAL*   CLOUDY    63  45  51 CALM      30.22F                  
LURAY*         CLOUDY    63  46  55 NE7       30.22F                  
$$

VAZ048-049-060>072-079>083-232100-
CENTRAL AND SOUTH CENTRAL VIRGINIA
  
CITY           SKY/WX    TMP DP  RH WIND       PRES   REMARKS
RICHMOND       CLOUDY    58  55  90 N12       30.17S                  
CHESTERFIELD*  LGT RAIN  57  57 100 N7        30.18S                  
PETERSBURG*    LGT RAIN  58  56  93 N8        30.17S                  
HANOVER        LGT RAIN  58  57  97 NW6       30.19S FOG              
TAPPAHANNOCK*  CLOUDY    59  59 100 NW3       30.17F                  
QUINTON*       CLOUDY    57  55  94 NW6       30.16F                  
CHARLOTTSVILLE CLOUDY    69  51  52 NE7       30.19S                  
GORDONSVILLE*  NOT AVBL                                               
ORANGE*        CLOUDY    64  52  63 N7        30.21S                  
LOUISA*        CLOUDY    62  53  72 N7        30.20S                  
BUMPASS*       CLOUDY    60  55  84 CALM      30.19S                  
FARMVILLE*     CLOUDY    66  52  60 NE10      30.17S                  
CREWE*         CLOUDY    64  48  56 N6        30.16F                  
FORT PICKETT*  CLOUDY    64  52  67 N7        30.16R                  
CHASE CITY*    CLOUDY    67  52  58 N8        30.16F                  
CLARKSVILLE*   FAIR      68  50  52 N5        30.15F                  
SOUTH HILL*    CLOUDY    67  55  65 NE6       30.20S                  
LAWRENCEVILLE* CLOUDY    64  54  68 N3        30.16S                  
EMPORIA*       CLOUDY    59  56  91 NW7       30.16S                  
$$

VAZ088>098-232100-
SOUTHEAST VIRGINIA
  
CITY           SKY/WX    TMP DP  RH WIND       PRES   REMARKS
NORFOLK        LGT RAIN  59  59 100 N15G25    30.09R                  
VIRGINIA BEACH CLOUDY    61  60  97 N17       30.07F                  
NORFOLK NAVAL  LGT RAIN  61  57  87 N10G21    30.11R                  
WEST POINT*    CLOUDY    58  55  88 CALM      30.15F                  
SALUDA*        CLOUDY    58  56  94 NW8       30.14S                  
NEWPORT NEWS   LGT RAIN  58  57  97 N8        30.11F FOG              
LANGLEY AFB    RAIN      59  59  99 N14       30.09F                  
FORT EUSTIS    DRIZZLE  N/A N/A N/A N10       30.11                   
WILLIAMSBURG*  NOT AVBL                                               
HR EXEC AP*    LGT RAIN  58  58 100 VRB6      30.12R                  
FRANKLIN*      CLOUDY    58  55  89 N6        30.13R                  
US460-WAKEFLD  CLOUDY    59  55  87 N8        30.13F                  
$$

VAZ020-022-025-037-045-232100-
WEST CENTRAL AND SOUTHWEST VIRGINIA
  
CITY           SKY/WX    TMP DP  RH WIND       PRES   REMARKS
STAUNTON*      PTSUNNY   67  43  41 NE7       30.23F                  
WAYNESBORO*    PTSUNNY   63  42  46 MISG      30.22F                  
HOT SPRINGS VA SUNNY     62  30  29 E6        30.26F HAZE             
LYNCHBURG      MOSUNNY   71  33  24 NE10      30.19S                  
DANVILLE       SUNNY     71  39  31 NE6       30.17F                  
SOUTH BOSTON*  FAIR      67  42  39 N7        30.17F                  
MARTINSVILLE   SUNNY     70  37  29 E7        30.20F                  
ROANOKE        SUNNY     71  36  27 NE9       30.20F                  
BLACKSBURG     SUNNY     69  40  35 E7        30.22F                  
DUBLIN*        SUNNY     68  40  36 E7        30.19S                  
MARION*        SUNNY     70  33  25 SE6       30.21F                  
HILLSVILLE*    SUNNY     67   9  10 CALM      30.19F                  
RICHLANDS*     FAIR      70  35  27 E5        30.20F                  
WISE*          SUNNY     68  37  32 CALM      30.21S                  
ABINGDON*      SUNNY     76  28  16 CALM      30.18F                  
$$

MDZ021>025-VAZ099-100-232100-
SOUTHERN MARYLAND AND THE DELMARVA PENINSULA
  
CITY           SKY/WX    TMP DP  RH WIND       PRES   REMARKS
PATUXENT RIVER LGT RAIN  61  56  83 N14       30.16S                  
BAY BRIDGE APT NOT AVBL                                               
LEONARDTOWN    CLOUDY    59  54  82 N3        30.18S                  
DOVER          LGT RAIN  59  59 100 N13       30.16S                  
GEORGETOWN     LGT RAIN  61  59  93 NE14G21   30.15S FOG              
EASTON         LGT RAIN  61  61 100 N5        30.21S                  
CAMBRIDGE      CLOUDY    59  59 100 NW8       30.16S FOG              
SALISBURY      LGT RAIN  61  59  93 NE8       30.13S FOG              
TANGIER        CLOUDY    61  59  94 N17       30.12S                  
OCEAN CITY     NOT AVBL                                               
WALLOPS ISLAND HVY RAIN  61  59  93 N8        30.11R FOG              
ACCOMACK*      NOT AVBL                                               
$$

NCZ012>017-030>032-232100-
NORTH CENTRAL AND EASTERN NORTH CAROLINA
  
CITY           SKY/WX    TMP DP  RH WIND       PRES   REMARKS
ROANOKE RAPIDS CLOUDY    61  59  94 N10G16    30.13S                  
RALEIGH        PTSUNNY   69  44  40 NW10      30.15F                  
ELIZABETH CITY CLOUDY    62  59  90 NW15      30.07F                  
AHOSKIE*       CLOUDY    60  57  90 N7        30.13R                  
EDENTON*       CLOUDY    62  62  97 N13       30.09S                  
CURRITUCK*     CLOUDY    62  62 100 N10G16    30.06F                  
KILL DEVIL HLS CLOUDY    62  62 100 N10G21    30.03S FOG              
MANTEO         CLOUDY    62  61  97 N15G23    30.04S                  
CAPE HATTERAS  CLOUDY    63  62  97 N10G28    30.00F                  
TARBORO*       CLOUDY    64  57  76 N9        30.12S                  
GOLDSBORO      PTSUNNY   70  52  53 NW9       30.08S                  
WASHINGTON     NOT AVBL                                               
GREENVILLE     CLOUDY    64  61  88 N7        30.11S                  
NEW BERN       CLOUDY    66  58  75 N10       30.09S                  
WILMINGTON     PTSUNNY   75  54  47 NW12      30.07F                  
$$

VAZ048-232100-
ELSEWHERE
  
CITY           SKY/WX    TMP DP  RH WIND       PRES   REMARKS
HARRISBURG PA  CLOUDY    63  50  62 N6        30.23F                  
BALTIMORE      CLOUDY    66  50  56 N7        30.19S                  
ANNAPOLIS      LGT RAIN  63  52  67 N8        30.19                   
ANDREWS AFB    CLOUDY    63  51  67 N7        30.17S                  
PHILADELPHIA   RAIN      60  54  80 NE14G23   30.21F                  
HENDERSON NC   CLOUDY    64  48  56 N3        30.16S                  
GREENSBORO     MOSUNNY   69  43  38 NE8       30.16F                  
ROCKY MOUNT    CLOUDY    69  56  62 N9        30.12S                  
$$

VAZ100-232100-
MARINE
  
STATION/POSITION TIME  TEMP    WIND        PRES    WAVE   SWELL
                       AIR SEA DIR/SP/G            HT/PER HT/PER
                 (UTC) (F)     (DEG/KT/KT) (MB)    (FT/S) (FT/S)
CAPE MAY NJ      1924      67   30/  7/ 14 1020.8
LEWES DE         1930      61   40/ 16/ 20 1021.1
15NM E FENWICK I 1950   61 63   30/ 23/ 29 1019.0F  10/ 8   5/11
OCEAN-CITY-INLET 1930      62   40/ 12/ 18 1020.3
44089 WALLOPS IS 1956      61                N/A     7/ 8   2/11
WACHAPREAGUE VA  1930      60  360/  8/ 12 1017.9
THOMAS POINT MD  2000   60     340/ 15/ 17 1023.0R
GOOSES REEF MD   1942   56 61  350/ 19/ 25 1023.0F   2/ 4
COVE POINT MD    1930          300/ 14/ 18 1021.8
SOLOMONS ISLAND  1930      63  360/  9/ 14 1020.1
BISHOPS HEAD MD  1930      59  350/  8/ 12 1020.7
PINEY POINT MD   1930           10/ 10/ 13   N/A
POTOMAC MD       1942   57     350/ 14/ 17   N/A     1
CAMBRIDGE MD     1930      60  340/  8/ 11 1021.2
LEWISETTA VA     1930      61   10/  7/ 10 1021.0
RAPPAHANNOCK LGT 1930          340/ 23/ 26 1019.7
STINGRAY PT      1942   57 62  350/ 19/ 23   N/A     2/ 3
YORK RVR RNG VA  1930          350/ 20/ 24 1019.1
YORKTOWN VA      1930      63  330/ 12/ 13 1019.4
JAMESTOWN VA     1948   58     340/ 10/ 14   N/A     0
DOMINION TERM VA 1930          350/ 11/ 18 1018.6
KIPTOPEKE VA     1930      66  340/ 16/ 19   N/A
CHES BAY BRIDGE  1930          360/ 23/ 26 1017.5
CAPE HENRY VA    1930          350/ 25/ 28 1018.8
WILLOUBY STN VA  1930          350/ 20/ 23 1019.0
S CRANEY ISL VA  1930          350/ 12/ 16 1018.9
CAPE HENRY BUOY  1956      64                N/A     7/ 6   2/11
1ST LANDING BUOY 1948   58 63  350/ 23/ 29 1020.7F   4/ 8
DUCK PIER NC     1930      64  350/ 21/ 24 1016.7
44100 DUCK FRF   1956      66                N/A     8/ 6   2/13
44056 DUCK FRF   1926      65                N/A     7/ 7   2/11
OREGON INLET NC  1930      65  360/ 14/ 23 1016.2
HATTERAS NC      1930      64   10/ 24/ 28 1015.9
DIAMOND SHLS NC  1950      78  360/ 27/ 35 1013.9F
CAPE LOOKOUT NC  1900   61     330/ 14/ 17 1018.3F
$$
  
