ASUS41 KAKQ 231711
RWRAKQ

REGIONAL WEATHER ROUNDUP
NATIONAL WEATHER SERVICE WAKEFIELD VA
100 PM EDT SUN OCT 23 2022

Note: "fair" indicates few or no clouds below 12,000 feet with no
significant weather and/or obstructions to visibility. * = Denotes
station may not report precipitation (e.g., rain,snow,etc.),
thunder or fog.

VAZ042-051-052>054-056-231800-
NORTHERN VIRGINIA
  
CITY           SKY/WX    TMP DP  RH WIND       PRES   REMARKS
WASH NATIONAL  CLOUDY    64  53  67 N9        30.24F                  
DULLES         CLOUDY    62  51  67 N7        30.25F                  
FORT BELVOIR   CLOUDY    60  53  77 N3        30.22F                  
QUANTICO       CLOUDY    61 N/A N/A N8        30.24                   
FREDERICKSBRG* DRIZZLE   56  54  92 N7        30.22F                  
STAFFORD*      CLOUDY    59  54  84 N8        30.26F                  
WARRENTON      CLOUDY    64  46  53 NE10      30.28F                  
CULPEPER*      CLOUDY    65  45  48 N7        30.26F                  
MANASSAS*      CLOUDY    61  52  72 N12       30.24F                  
LEESBURG*      CLOUDY    59  52  77 NE6       30.28S                  
WINCHESTER     PTSUNNY   59  43  55 CALM      30.26F HAZE             
FRONT ROYAL*   FAIR      57  43  58 CALM      30.28F                  
LURAY*         FAIR      63  41  45 NE6       30.27F                  
$$

VAZ048-049-060>072-079>083-231800-
CENTRAL AND SOUTH CENTRAL VIRGINIA
  
CITY           SKY/WX    TMP DP  RH WIND       PRES   REMARKS
RICHMOND       CLOUDY    59  54  83 N9        30.19F                  
CHESTERFIELD*  CLOUDY    60  52  74 N8        30.20F                  
PETERSBURG*    CLOUDY    60  52  74 N10       30.20S                  
HANOVER        CLOUDY    60  53  77 VRB7      30.22F                  
TAPPAHANNOCK*  CLOUDY    56  56 100 NW9       30.20F FOG              
QUINTON*       CLOUDY    56  55  94 N3        30.19S                  
CHARLOTTSVILLE MOSUNNY   66  42  41 N12       30.24F                  
GORDONSVILLE*  NOT AVBL                                               
ORANGE*        CLOUDY    61  46  59 N7        30.25F                  
LOUISA*        CLOUDY    59  48  67 N8        30.23F                  
BUMPASS*       CLOUDY    61  50  67 N6        30.22F                  
FARMVILLE*     PTSUNNY   65  47  52 N6        30.20F                  
CREWE*         CLOUDY    62  45  53 N7        30.21S                  
FORT PICKETT*  CLOUDY    63  49  62 N8G17     30.20S                  
CHASE CITY*    FAIR      60  46  58 N7        30.21F                  
CLARKSVILLE*   FAIR      63  46  55 N8G16     30.20F                  
SOUTH HILL*    CLOUDY    66  53  63 N13       30.25S                  
LAWRENCEVILLE* CLOUDY    65  53  63 N7        30.20S                  
EMPORIA*       CLOUDY    62  53  73 NW10      30.19F                  
$$

VAZ088>098-231800-
SOUTHEAST VIRGINIA
  
CITY           SKY/WX    TMP DP  RH WIND       PRES   REMARKS
NORFOLK        LGT RAIN  60  59  96 N14G22    30.14R FOG              
VIRGINIA BEACH HVY RAIN  60  60 100 N14       30.11R VSB 1            
NORFOLK NAVAL  LGT RAIN  61  58  90 N10       30.15S FOG              
WEST POINT*    CLOUDY    57  55  94 CALM      30.19S                  
SALUDA*        CLOUDY    59  56  89 NW7       30.16F                  
NEWPORT NEWS   CLOUDY    58  57  97 N10       30.15F                  
LANGLEY AFB    DRIZZLE   61  61 100 N14       30.13                   
FORT EUSTIS    CLOUDY    58  56  91 N9        30.13F                  
WILLIAMSBURG*  NOT AVBL                                               
HR EXEC AP*    CLOUDY    57  57 100 VRB5      30.15S                  
FRANKLIN*      CLOUDY    58  55  89 NW8       30.16F                  
US460-WAKEFLD  CLOUDY    58  54  86 VRB5      30.17F                  
$$

VAZ020-022-025-037-045-231800-
WEST CENTRAL AND SOUTHWEST VIRGINIA
  
CITY           SKY/WX    TMP DP  RH WIND       PRES   REMARKS
STAUNTON*      MOSUNNY   54  41  61 CALM      30.29F                  
WAYNESBORO*    FAIR      58  42  54 MISG      30.27F                  
HOT SPRINGS VA SUNNY     59  32  35 CALM      30.29F                  
LYNCHBURG      MOSUNNY   67  40  37 NE7       30.23F                  
DANVILLE       MOSUNNY   65  41  41 NE8       30.22F                  
SOUTH BOSTON*  FAIR      62  41  46 N5        30.22F                  
MARTINSVILLE   SUNNY     67  37  33 NE6       30.25F                  
ROANOKE        MOSUNNY   66  41  40 CALM      30.25F                  
BLACKSBURG     SUNNY     64  39  40 N3        30.27F                  
DUBLIN*        SUNNY     62  41  46 N3        30.25F                  
MARION*        SUNNY     71  37  28 CALM      30.27F                  
HILLSVILLE*    SUNNY     62  23  22 NW6       30.24F                  
RICHLANDS*     FAIR      65  36  34 NW3       30.26F                  
WISE*          SUNNY     64  37  36 N6        30.27F                  
ABINGDON*      SUNNY     70  38  31 CALM      30.25F                  
$$

MDZ021>025-VAZ099-100-231800-
SOUTHERN MARYLAND AND THE DELMARVA PENINSULA
  
CITY           SKY/WX    TMP DP  RH WIND       PRES   REMARKS
PATUXENT RIVER PTSUNNY   65  54  67 N10       30.18F                  
BAY BRIDGE APT NOT AVBL                                               
LEONARDTOWN    CLOUDY    59  54  82 N8        30.19F                  
DOVER          PTSUNNY   63  56  78 N14       30.18F                  
GEORGETOWN     LGT RAIN  62  57  83 NE10      30.18F                  
EASTON         LGT RAIN  61  55  82 N10       30.23F                  
CAMBRIDGE      MOSUNNY   63  59  88 N10G16    30.17F                  
SALISBURY      CLOUDY    64  59  83 NE16G24   30.15F                  
TANGIER        CLOUDY    61  58  88 N17       30.14F                  
OCEAN CITY     NOT AVBL                                               
WALLOPS ISLAND LGT RAIN  63  60  90 NE17G28   30.12F                  
ACCOMACK*      NOT AVBL                                               
$$

NCZ012>017-030>032-231800-
NORTH CENTRAL AND EASTERN NORTH CAROLINA
  
CITY           SKY/WX    TMP DP  RH WIND       PRES   REMARKS
ROANOKE RAPIDS CLOUDY    61  59  94 N14       30.17F                  
RALEIGH        PTSUNNY   64  41  42 N10G18    30.20F                  
ELIZABETH CITY HVY RAIN  61  59  93 NW23      30.08F FOG              
AHOSKIE*       CLOUDY    58  56  92 N6        30.16F                  
EDENTON*       LGT RAIN  61  61 100 N13       30.12F                  
CURRITUCK*     RAIN      60  60 100 NW9G17    30.09F                  
KILL DEVIL HLS DRIZZLE   62  62 100 NW6       30.04S                  
MANTEO         CLOUDY    62  61  97 N16G23    30.06F FOG              
CAPE HATTERAS  LGT RAIN  63  63 100 N8        30.02F                  
TARBORO*       CLOUDY    64  56  77 N7        30.15F                  
GOLDSBORO      PTSUNNY   70  51  50 NW7       30.12F                  
WASHINGTON     CLOUDY    61  55  79 N9        30.13F                  
GREENVILLE     CLOUDY    63  59  88 N6        30.15S                  
NEW BERN       CLOUDY    63  56  78 N14       30.12F                  
WILMINGTON     MOSUNNY   70  56  61 NW12      30.11F                  
$$

VAZ048-231800-
ELSEWHERE
  
CITY           SKY/WX    TMP DP  RH WIND       PRES   REMARKS
HARRISBURG PA  CLOUDY    59  45  59 NW7       30.26F                  
BALTIMORE      CLOUDY    66  50  56 N10       30.22F                  
ANNAPOLIS      CLOUDY    62  51  67 N10       30.22F                  
ANDREWS AFB    PTSUNNY   63  52  67 N8        30.20F                  
PHILADELPHIA   CLOUDY    63  54  72 NE14      30.24F                  
HENDERSON NC   MOSUNNY   64  46  51 N8        30.19F                  
GREENSBORO     MOSUNNY   67  42  40 N8        30.21F                  
ROCKY MOUNT    CLOUDY    69  54  58 N14       30.16F                  
$$

VAZ100-231800-
MARINE
  
STATION/POSITION TIME  TEMP    WIND        PRES    WAVE   SWELL
                       AIR SEA DIR/SP/G            HT/PER HT/PER
                 (UTC) (F)     (DEG/KT/KT) (MB)    (FT/S) (FT/S)
CAPE MAY NJ      1624      67   50/ 12/ 19 1021.7
LEWES DE         1624      61   50/ 17/ 21 1022.3
15NM E FENWICK I 1650   62 63   40/ 21/ 27 1020.4F   9/ 8   3/12
OCEAN-CITY-INLET 1624      63   40/  7/ 16 1021.4
44089 WALLOPS IS 1656      62                N/A     7/ 7   2/11
WACHAPREAGUE VA  1624      60   30/ 12/ 19 1019.5
THOMAS POINT MD  1700   60     330/ 15/ 16 1023.7F
GOOSES REEF MD   1642   58 62  360/ 17/ 23 1024.6F   2/ 4
COVE POINT MD    1630          300/ 11/ 15 1022.9F
SOLOMONS ISLAND  1624      63  360/ 11/ 14 1021.2
BISHOPS HEAD MD  1624      59   10/  9/ 14 1021.5
PINEY POINT MD   1630           10/  9/ 11   N/A
POTOMAC MD       1642   59     360/ 14/ 17   N/A     1/ 3
CAMBRIDGE MD     1624      59   30/  7/  9 1022.1
LEWISETTA VA     1624      60   10/ 10/ 14 1022.1
RAPPAHANNOCK LGT 1630          350/ 22/ 25 1020.5F
STINGRAY PT      1642   58 62  360/ 19/ 23   N/A     3/ 3
YORK RVR RNG VA  1630          350/ 17/ 20 1020.3F
YORKTOWN VA      1624      62  340/  9/ 12 1020.6
JAMESTOWN VA     1642   57     330/ 12/ 17   N/A     1
DOMINION TERM VA 1630          350/  7/ 14 1020.4F
KIPTOPEKE VA     1624      66   10/ 10/ 14   N/A
CHES BAY BRIDGE  1630          360/ 20/ 23 1018.9R
CAPE HENRY VA    1630          340/ 20/ 23 1020.2R
WILLOUBY STN VA  1630          350/ 15/ 18 1020.6F
S CRANEY ISL VA  1630          360/ 13/ 18 1020.1F
CAPE HENRY BUOY  1656      64                N/A     6/ 6   2/11
1ST LANDING BUOY 1642   57 63  350/ 23/ 27 1022.0R   5/ 7
DUCK PIER NC     1624      64  330/ 18/ 22 1017.8
44100 DUCK FRF   1656      66                N/A     8/ 7   2/11
44056 DUCK FRF   1656      65                N/A     7/ 7   2/11
OREGON INLET NC  1624      65  360/  9/ 16 1017.2
HATTERAS NC      1630      64  340/ 22/ 26 1016.9F
DIAMOND SHLS NC  1650      79  350/ 21/ 27 1015.3F
CAPE LOOKOUT NC  1600   60     330/ 17/ 21 1018.8F
$$
  
