FTPA31 PHFO 212339
TAFHJH
TAF
PHJH 212339Z 2200/2224 33008KT P6SM FEW025
     FM220400 05005KT P6SM FEW025 SCT060
     FM222000 05013G20KT P6SM FEW025 SCT060=
