FTPA31 PHFO 212339
TAFHTO
TAF
PHTO 212339Z 2200/2224 12009KT P6SM -SHRA FEW030 BKN050 OVC090
     FM220500 21005KT P6SM VCSH BKN025 OVC050
      TEMPO 2205/2209 4SM -SHRA BR
     FM221500 25006KT P6SM VCSH SCT025 BKN050
     FM222100 08013G19KT P6SM SCT025 BKN050=
