FTPA31 PHFO 212339
TAFHKO
TAF
PHKO 212339Z 2200/2224 31011KT P6SM FEW030 FEW060
     FM220500 12009KT P6SM FEW030 SCT050
     FM221500 04009KT P6SM FEW030
     FM222100 21008KT P6SM FEW030 SCT060=
