FTPA31 PHFO 212339
TAFSTU
TAF
NSTU 212339Z 2200/2224 10012KT P6SM SCT020 BKN100 BKN220
     FM220600 09010KT P6SM VCSH SCT020 BKN040 BKN100=
