FTPA31 PHFO 212339
TAFHLI
TAF
PHLI 212339Z 2200/2224 16013KT P6SM VCSH SCT070 BKN080
     FM220500 11008KT P6SM VCSH SCT020 BKN040
     FM221500 05006KT P6SM SCT020 BKN040=
