FTPA31 PHFO 212349
TAFHOG
TAF
PHOG 212349Z 2200/2224 04015KT P6SM FEW045
     FM220600 08007KT P6SM VCSH SCT030
     FM221800 05010KT P6SM FEW030
     FM222100 05016G23KT P6SM SCT030=
