ASUS44 KFWD 212315
RWRFWD
NORTH TEXAS HOURLY WEATHER ROUNDUP
NATIONAL WEATHER SERVICE FORT WORTH TX
600 PM CDT FRI OCT 21 2022

NOTE: "FAIR" INDICATES FEW OR NO CLOUDS BELOW 12,000 FEET WITH NO
SIGNIFICANT WEATHER AND/OR OBSTRUCTIONS TO VISIBILITY.

TXZ118-119-220000-
DALLAS/FORT WORTH METROPLEX
  
CITY           SKY/WX    TMP DP  RH WIND       PRES   REMARKS
DFW AIRPORT    CLEAR     88  42  20 S15       29.78F                  
DALLAS LOVE    CLEAR     88  45  22 S15G23    29.79F                  
FTW MEACHAM    CLEAR     88  42  20 S17G24    29.78F                  
DAL-EXECUTIVE  CLEAR     86  46  24 S15G25    29.80F                  
FTW-ALLIANCE   CLEAR     88  40  18 S17G25    29.77F                  
FTW-NAS-JRB    CLEAR     90  45  21 S17       29.79S                  
FTW-SPINKS     CLEAR     88  41  19 S12G21    29.82F                  
ARLINGTON      CLEAR     88  43  20 S17G25    29.80F                  
GRAND PRAIRIE  CLEAR     88  43  20 S14G20    29.81F                  
ADDISON        CLEAR     88  39  18 S16G22    29.80S                  
MESQUITE       CLEAR     84  43  23 S14G23    29.82F                  
LANCASTER      CLEAR     86  45  23 S14       29.82F                  
$$

TXZ091>094-102>105-117-120-121-131>134-220000-
NORTH CENTRAL TEXAS
  
CITY           SKY/WX    TMP DP  RH WIND       PRES   REMARKS
SHRMAN/DENISON CLEAR     86  41  20 S15       29.80F                  
GAINESVILLE    CLEAR     86  38  17 S15       29.79F                  
BOWIE          CLEAR     88  34  14 S14G20    29.77S                  
BRIDGEPORT     CLEAR     89  37  16 S13       29.79F                  
DECATUR        CLEAR     89  32  13 S15G21    29.79S                  
DENTON         CLEAR     89  41  18 S17G23    29.78F                  
MCKINNEY       CLEAR     86  44  23 S15       29.79F                  
BONHAM         CLEAR     84  49  29 S8        29.80F                  
GREENVILLE     CLEAR     85  47  27 S10       29.82F                  
ROCKWALL       CLEAR     85  46  25 S17G23    29.82S                  
TERRELL        CLEAR     85  45  24 S13       29.83F                  
WAXAHACHIE     CLEAR     86  49  27 S13G18    29.84S                  
CLEBURNE       CLEAR     88  43  20 S14G22    29.82S                  
GRANBURY       CLEAR     89  37  16 SW16G24   29.82S                  
$$

TXZ083>090-098>101-113>116-127>130-139>142-154-155-220000-
WESTERN NORTH TEXAS
  
CITY           SKY/WX    TMP DP  RH WIND       PRES   REMARKS
WICHITA FALLS  CLEAR     90  32  12 SW24G35   29.72F                  
WF-KICKAPOO    CLEAR     91  31  12 SW10G22   29.75S                  
VERNON         SUNNY     89  35  14 SW23G29   29.73S                  
ABILENE        SUNNY     87  35  15 S21G33    29.82F                  
ABILENE-DYESS  SUNNY     86  29  13 S17G24    29.78F                  
GRAHAM         CLEAR     89  37  15 S13G21    29.76S                  
BRECKENRIDGE   SUNNY     90  37  15 S16       29.79F HAZE             
CISCO          SUNNY     86  34  15 S14G25    29.81F                  
EASTLAND       SUNNY     86  36  17 S16G24    29.82F                  
RANGER         SUNNY     86  39  19 S14       29.83S                  
MINERAL WELLS  CLEAR     89  39  17 S17G28    29.78F                  
STEPHENVILLE   CLEAR     87  35  15 S13G20    29.86S                  
COMANCHE       SUNNY     87  42  20 S17       29.85S                  
COLEMAN        SUNNY     87  35  15 SW10      29.84F                  
BRADY          SUNNY     84  34  16 S15       29.87F                  
SAN SABA       SUNNY     85  45  24 S8G21     29.88S                  
$$

TXZ143>147-156>162-174-175-220000-
CENTRAL TEXAS
  
CITY           SKY/WX    TMP DP  RH WIND       PRES   REMARKS
WACO           CLEAR     85  50  29 S15       29.85F                  
WACO-TSTC      CLEAR     86  45  23 S15       29.85F                  
WACO-MCGREGOR  CLEAR     85  48  27 S17G23    29.86F                  
HILLSBORO      CLEAR     87  47  24 S17G23    29.83F                  
CORSICANA      CLEAR     86  44  23 SW15      29.86F                  
MEXIA          CLEAR     85  48  28 S12G25    29.86F                  
HEARNE         CLEAR     84  51  31 S14G20    29.90F                  
CAMERON        CLEAR     84  50  31 S13       29.89S                  
TEMPLE         CLEAR     84  47  27 S20       29.87F                  
KILLEEN        SUNNY     84  42  22 S15G22    29.84S                  
KILLEEN-SKYLRK CLEAR     84  48  28 S17       29.87S                  
FORT HOOD      CLEAR     85  46  25 S15G23    29.87S                  
GATESVILLE     CLEAR     86  45  23 MISG      29.87S                  
HAMILTON       SUNNY     87  41  19 S14       29.87S                  
LAMPASAS       SUNNY     84  43  23 SW9G16      N/A                   
$$

TXZ095>097-106>112-122>126-135>138-148>153-164>167-220000-
EAST TEXAS
  
CITY           SKY/WX    TMP DP  RH WIND       PRES   REMARKS
PARIS          CLEAR     84  47  27 S14       29.82F                  
SULPHUR SPRNGS CLEAR     85  41  21 S9        29.85S                  
MOUNT PLEASANT CLEAR     82  50  31 S8        29.85F                  
GILMER         CLEAR     82  46  28 S7        29.86S                  
MINEOLA        CLEAR     82  52  34 S5        29.85F                  
TYLER          CLEAR     84  50  30 S9        29.86F                  
LONGVIEW       CLEAR     82  51  34 S12       29.86F                  
MARSHALL       CLEAR     82  51  33 CALM      29.85F                  
ATHENS         CLEAR     82  50  32 S5        29.84F                  
PALESTINE      CLEAR     84  46  26 S12       29.86F                  
JACKSONVILLE   CLEAR     82  49  32 SW9       29.91F                  
HENDERSON      CLEAR     85  39  20 S6        29.89F                  
CENTER         CLEAR     81  50  34 S13G18    29.92S                  
NACOGDOCHES    CLEAR     82  50  32 S12       29.91S                  
LUFKIN         CLEAR     82  50  32 S9G20     29.92S                  
$$

SUPPLEMENTAL OBSERVATIONS (NWS FORT WORTH AREA)
  
CITY           SKY/WX    TMP DP  RH WIND       PRES   REMARKS
CADDO GRASSLND   N/A     84  43  23 CALM        N/A                   
LBJ GRASSLAND    N/A     88  37  16 S7G20       N/A                   
GRANBURY         N/A     90  36  14 S14         N/A                   
COMANCHE         N/A     86  39  19 S17G24      N/A                   
MCGREGOR         N/A     84  46  26 S18G25      N/A                   
TEMPLE           N/A     88  46  23 S16G25      N/A                   
LAKE LIMESTONE   N/A     84  48  28 S12         N/A                   
$$

SUPPLEMENTAL OBSERVATIONS (NWS NORMAN AREA)
  
CITY           SKY/WX    TMP DP  RH WIND       PRES   REMARKS
GOODLETT         N/A     86  38  18 S24       29.71                   
ODELL            N/A     87  40  19 SW21      29.73S                  
CROWELL          N/A     86  40  20 SW16      29.74F                  
KNOX CITY        N/A     86  39  18 SW22      29.75                   
SEYMOUR          N/A     89  36  15 SW20      29.74S                  
MILLERS CREEK    N/A     88  34  14 S17G28      N/A                   
$$

SUPPLEMENTAL OBSERVATIONS (NWS SAN ANGELO AREA)
  
CITY           SKY/WX    TMP DP  RH WIND       PRES   REMARKS
WEINERT          N/A     87  36  16 SW20      29.76F                  
HASKELL          N/A     87  37  16 SW17      29.76                   
THROCKMORTON     N/A     88  35  15 S15       29.77                   
STAMFORD         N/A     87  35  15 SW22      29.78                   
CLYDE            N/A     85  39  19 SW22      29.85S                  
HAMBY            N/A     88  36  15 SW18G30     N/A                   
IVIE RESERVOIR   N/A     88  34  14 SW16G22     N/A                   
COLORADO BEND    N/A     84  41  21 S9G18       N/A                   
$$

SUPPLEMENTAL OBSERVATIONS (NWS SHREVEPORT AREA)
  
CITY           SKY/WX    TMP DP  RH WIND       PRES   REMARKS
TEXARKANA        N/A     81  52  36 S1          N/A                   
CADDO LAKE       N/A     79  52  38 SE1         N/A                   
LUFKIN           N/A     82  50  32 MISG        N/A                   
N SABINE NF      N/A     82  50  32 MISG        N/A                   
$$

SUPPLEMENTAL OBSERVATIONS ARE A COLLECTION OF AUTOMATED INSTRUMENTS
THAT ARE MAINTAINED BY A VARIETY OF FEDERAL AND STATE AGENCIES. 
CERTAIN ELEMENTS...SUCH AS HUMIDITY VALUES AND SUSTAINED WIND 
SPEEDS...MAY BE APPROXIMATED.

  
