ASUS44 KFWD 220201
RWRTX 
NORTH TEXAS HOURLY WEATHER ROUNDUP
NATIONAL WEATHER SERVICE FORT WORTH TX
900 PM CDT FRI OCT 21 2022

NOTE: "FAIR" INDICATES FEW OR NO CLOUDS BELOW 12,000 FEET WITH NO
SIGNIFICANT WEATHER AND/OR OBSTRUCTIONS TO VISIBILITY.

TXZ118-119-220300-
DALLAS/FORT WORTH METROPLEX
  
CITY           SKY/WX    TMP DP  RH WIND       PRES   REMARKS
DFW AIRPORT    FAIR      79  48  33 S16G26    29.81R                  
DALLAS LOVE    FAIR      80  48  32 S13G21    29.83R                  
FTW MEACHAM    FAIR      79  49  34 S18G33    29.82R                  
DAL-EXECUTIVE  FAIR      77  48  35 S13G26    29.84R                  
FTW-ALLIANCE   FAIR      79  48  33 S21       29.80R                  
FTW-NAS-JRB    FAIR      81  50  33 S18G32    29.82R                  
FTW-SPINKS     FAIR      78  46  32 S12       29.85R                  
ARLINGTON      FAIR      78  47  33 S16G25    29.84R                  
GRAND PRAIRIE  CLEAR     79  46  31 S9G18     29.85R                  
MESQUITE       FAIR      74  47  38 S9        29.86R                  
LANCASTER      FAIR      76  47  36 S9        29.86R                  
$$

TXZ091>094-102>105-117-120-121-131>134-220300-
NORTH CENTRAL TEXAS
  
CITY           SKY/WX    TMP DP  RH WIND       PRES   REMARKS
SHRMAN/DENISON FAIR      77  44  30 S15       29.82R                  
BOWIE          FAIR      74  39  29 S7        29.79S                  
DECATUR        FAIR      76  41  28 S12       29.81S                  
DENTON         FAIR      76  47  35 S14       29.81R                  
MCKINNEY       FAIR      75  47  36 S13       29.83R                  
BONHAM         FAIR      72  47  41 S10       29.84R                  
GREENVILLE     FAIR      73  52  46 S14       29.86R                  
ROCKWALL       FAIR      76  49  38 S16       29.85S                  
TERRELL        FAIR      73  51  46 S10       29.86R                  
WAXAHACHIE     FAIR      75  49  38 S10       29.87R                  
CLEBURNE       CLEAR     77  46  33 S17G25    29.86R                  
GRANBURY       FAIR      78  45  30 S12       29.84R                  
$$

TXZ083>090-098>101-113>116-127>130-139>142-154-155-220300-
WESTERN NORTH TEXAS
  
CITY           SKY/WX    TMP DP  RH WIND       PRES   REMARKS
WICHITA FALLS  FAIR      78  36  21 S14       29.72F                  
WF-KICKAPOO    FAIR      73  36  25 S16       29.75F                  
VERNON         FAIR      79  38  22 S15       29.73S                  
ABILENE        FAIR      75  42  30 S9        29.83R                  
ABILENE-DYESS  FAIR      72  39  30 S9        29.80R                  
GRAHAM         FAIR      78  38  24 VRB7      29.77R                  
BRECKENRIDGE   FAIR      78  39  24 S10       29.80S                  
CISCO          FAIR      72  36  26 S5        29.82R                  
MINERAL WELLS  FAIR      76  40  27 S10       29.79S                  
STEPHENVILLE   FAIR      73  40  29 S7        29.87S                  
COMANCHE       FAIR      75  44  32 S12       29.86S                  
COLEMAN        FAIR      74  39  28 S8        29.87R                  
SAN SABA       FAIR      74  47  38 S9        29.90S                  
$$

TXZ143>147-156>162-174-175-220300-
CENTRAL TEXAS
  
CITY           SKY/WX    TMP DP  RH WIND       PRES   REMARKS
WACO           FAIR      76  52  43 S13       29.88R                  
WACO-TSTC      CLEAR     73  46  38 S8        29.88R                  
WACO-MCGREGOR  FAIR      76  50  40 S14       29.89R                  
HILLSBORO      FAIR      78  48  35 S16       29.87R                  
CORSICANA      FAIR      73  49  42 S10       29.89R                  
MEXIA          FAIR      71  51  49 S9        29.90R                  
HEARNE         FAIR      73  53  49 CALM      29.94R                  
TEMPLE         FAIR      74  49  41 S12       29.91R                  
KILLEEN        NOT AVBL                                               
KILLEEN-SKYLRK FAIR      73  49  42 S10       29.91R                  
FORT HOOD      FAIR      74  47  38 S10       29.90R                  
GATESVILLE     FAIR      75  48  38 MISG      29.90S                  
HAMILTON       FAIR      74  44  33 S13       29.89R                  
$$

TXZ095>097-106>112-122>126-135>138-148>153-164>167-220300-
EAST TEXAS
  
CITY           SKY/WX    TMP DP  RH WIND       PRES   REMARKS
PARIS          FAIR      68  51  54 S9        29.86R                  
GILMER         FAIR      71  51  48 SE3       29.89R                  
MINEOLA        FAIR      73  52  46 S5        29.88R                  
TYLER          FAIR      71  52  50 S10       29.89R                  
LONGVIEW       FAIR      70  53  54 S10       29.90R                  
MARSHALL       FAIR      68  53  58 CALM      29.90R                  
ATHENS         FAIR      70  52  52 S5        29.89R                  
PALESTINE      FAIR      73  50  43 S6        29.90S                  
JACKSONVILLE   FAIR      72  51  48 S8        29.94S                  
HENDERSON      FAIR      76  45  33 S5        29.93R                  
CENTER         FAIR      72  54  53 S7        29.96R                  
NACOGDOCHES    FAIR      72  55  55 S8        29.96R                  
LUFKIN         FAIR      72  59  63 S12       29.96R                  
$$

SUPPLEMENTAL OBSERVATIONS (NWS FORT WORTH AREA)
  
CITY           SKY/WX    TMP DP  RH WIND       PRES   REMARKS
$$

SUPPLEMENTAL OBSERVATIONS (NWS NORMAN AREA)
  
CITY           SKY/WX    TMP DP  RH WIND       PRES   REMARKS
GOODLETT         N/A     75  40  28 S14       29.71                   
ODELL            N/A     74  41  30 S15       29.73S                  
CROWELL          N/A     75  41  29 S10       29.75S                  
KNOX CITY        N/A     72  40  31 S13       29.76                   
SEYMOUR          N/A     72  37  28 S9        29.76S                  
$$

SUPPLEMENTAL OBSERVATIONS (NWS SAN ANGELO AREA)
  
CITY           SKY/WX    TMP DP  RH WIND       PRES   REMARKS
WEINERT          N/A     74  38  26 SW12      29.78S                  
HASKELL          N/A     71  41  33 S8        29.78                   
THROCKMORTON     N/A     77  37  23 S10       29.79                   
STAMFORD         N/A     71  41  33 S8        29.81                   
CLYDE            N/A     74  42  31 S10       29.87R                  
$$

SUPPLEMENTAL OBSERVATIONS (NWS SHREVEPORT AREA)
  
CITY           SKY/WX    TMP DP  RH WIND       PRES   REMARKS
$$

SUPPLEMENTAL OBSERVATIONS ARE A COLLECTION OF AUTOMATED INSTRUMENTS
THAT ARE MAINTAINED BY A VARIETY OF FEDERAL AND STATE AGENCIES. 
CERTAIN ELEMENTS...SUCH AS HUMIDITY VALUES AND SUSTAINED WIND 
SPEEDS...MAY BE APPROXIMATED.

  
