ASUS44 KLUB 220100
RWRLUB
WEST TEXAS WEATHER ROUNDUP
NATIONAL WEATHER SERVICE LUBBOCK TX
800 PM CDT FRI OCT 21 2022

NOTE: "FAIR" INDICATES FEW OR NO CLOUDS BELOW 12,000 FEET WITH NO
SIGNIFICANT WEATHER AND/OR OBSTRUCTIONS TO VISIBILITY.

TXZ004-006>008-010-012-014-016-OKZ002-220200-
TEXAS PANHANDLE/OKLAHOMA PANHANDLE
  
CITY           SKY/WX    TMP DP  RH WIND       PRES   REMARKS
AMARILLO       CLEAR     70  32  24 SW13      29.73S                  
BORGER         CLEAR     76  28  17 S9        29.69F                  
CANADIAN       CLEAR     64  29  26 SW6       29.65S                  
DALHART        CLEAR     57  33  40 SW9       29.73S                  
GUYMON         CLEAR     72  20  14 S5        29.66R                  
HEREFORD       CLEAR     71  31  22 SW13      29.79R                  
PERRYTON       CLEAR     62  17  18 S10       29.66S                  
$$

TXZ026-029-035-045-048-220200-
SOUTHERN PANHANDLE/SOUTH PLAINS/ROLLING PLAINS
  
CITY           SKY/WX    TMP DP  RH WIND       PRES   REMARKS
CHILDRESS      CLEAR     73  40  30 S13       29.73R                  
LUBBOCK        CLEAR     73  36  25 SW13      29.81R                  
SNYDER         CLEAR     73  36  26 S8        29.83S                  
$$

TXZ052-054-060>062-072-078-127-140-154-169-220200-
PERMIAN BASIN/CONCHO VALLEY/BIG COUNTRY/EDWARDS PLATEAU  
  
CITY           SKY/WX    TMP DP  RH WIND       PRES   REMARKS
ABILENE        CLEAR     79  39  23 S9        29.82S                  
JUNCTION       CLEAR     74  46  36 S8        29.92R                  
MIDLAND        CLEAR     73  47  39 S8        29.86S                  
ODESSA         CLEAR     73  46  38 S6        29.88R                  
SAN ANGELO     CLEAR     75  47  36 S12       29.86R                  
SWEETWATER     CLEAR     74  39  28 SW12      29.87R                  
WINK           CLEAR     72  44  36 S8        29.85R                  
$$

TXZ055-058-074-075-080-082-220200-
FAR WEST/SOUTHWEST MOUNTAINS/TRANS PECOS
  
CITY           SKY/WX    TMP DP  RH WIND       PRES   REMARKS
DRYDEN           N/A     68  55  63 SE3       29.92R                  
EL PASO        PTCLDY    77  46  33 W7        29.95S                  
FORT STOCKTON  CLEAR     72  49  44 S7        29.90S                  
GUADALUPE PASS CLEAR     67  41  38 SW24G33   30.03R                  
MARFA          CLEAR     63  46  54 SW7       30.06R                  
PRESIDIO       FAIR      79  53  39 NE3       29.95R                  
$$

TXZ014-016-019-021>030-083-220200
TEXAS TECH WEST TEXAS MESONET/TEXAS PANHANDLE/NORTHERN SOUTH PLAINS
  
CITY           SKY/WX    TMP DP  RH WIND       PRES   REMARKS
ABERNATHY 5ENE   N/A     70  37  30 SW12      29.82R                  
AMARILLO 9NNE    N/A     67  31  26 S7        29.74R                  
AMARILLO 7SSE    N/A     68  33  26 SW8       29.77S                  
AMHERST 1NE      N/A     69  34  28 SW8       29.83R                  
BOOTLEG 11WNW    N/A     65  29  26 SW9       29.86R                  
CANADIAN 6E      N/A     70  32  24 S8        29.64S                  
CAPROCK CYN SP   N/A     74  33  22 SW10      29.74R                  
CHILDRESS 2NNE   N/A     76  40  27 S15       29.73R                  
CLARENDON 2WSW   N/A     64  36  35 S12       29.73S                  
CLAUDE 12SW      N/A     77  28  16 SW12      29.76S                  
DIMMITT 2NE      N/A     69  33  25 SW12      29.82R                  
FLOYDADA 2NNE    N/A     72  36  27 SW15      29.81R                  
FRIONA 2NE       N/A     68  33  27 SW12      29.82R                  
GOODLETT 3W      N/A     77  40  26 S12       29.71R                  
HART 3N          N/A     62  37  38 SW10      29.81R                  
HEREFORD 2NW     N/A     70  31  23 SW13      29.80R                  
MCLEAN 1E        N/A     72  36  27 S9        29.71R                  
MEMPHIS 1NE      N/A     77  37  23 S7        29.71R                  
MULESHOE 2SSW    N/A     66  31  27 SW10      29.83R                  
OLTON 6S         N/A     67  35  30 SW13      29.81R                  
PALO DURO SP     N/A     73  30  20 SW12      29.77S                  
PAMPA 2E         N/A     67  28  23 S9        29.73R                  
PLAINVIEW 1S     N/A     69  34  27 SW7       29.80R                  
SILVERTON 7ESE   N/A     69  32  25 SW9       29.77R                  
TULIA 2ENE       N/A     70  35  27 SW9       29.79S                  
TURKEY 2WSW      N/A     70  39  32 S9        29.73R                  
UMBARGER 3NNE    N/A     67  34  29 SW12      29.79R                  
$$

TXZ033>036-039>041-045>048-220200
TEXAS TECH WEST TEXAS MESONET/SOUTH PLAINS  
  
CITY           SKY/WX    TMP DP  RH WIND       PRES   REMARKS
AIKEN 3WSW       N/A     63  36  36 SW12      29.81R                  
ANDREWS 2NE      N/A     70  41  34 SW6       29.87S                  
ANTON 6SSW       N/A     69  37  30 SW10      29.83R                  
BROWNFIELD 2S    N/A     66  41  39 SW9       29.85S                  
DENVR CTY 7WNW   N/A     65  43  44 SW9       29.88R                  
GAIL 2ESE        N/A     69  42  38 S7        29.83R                  
LAMESA 2SE       N/A     65  41  41 SW7       29.86R                  
LUBBOCK 3WNW     N/A     73  35  24 SW10      29.82S                  
MORTON 1ENE      N/A     71  34  25 W13       29.86R                  
ODONNELL 1N      N/A     66  42  40 SW8       29.86R                  
PLAINS 3N        N/A     67  42  39 SW10      29.88R                  
RALLS 1SE        N/A     67  37  33 S10       29.81S                  
REESE CENTER     N/A     70  37  30 SW13      29.83R                  
SEAGRAVES 1SW    N/A     68  39  34 SW9       29.87R                  
SEMINOLE 2NNE    N/A     71  40  31 SW6       29.87S                  
SLATON 2NE       N/A     72  37  27 SW14      29.83R                  
SNYDER 3E        N/A     72  40  31 S10       29.82S                  
SUNDOWN 8SW      N/A     68  38  33 SW13      29.86R                  
TAHOKA 3NNE      N/A     66  41  39 SW10      29.84R                  
WOLFFORTH 6SSW   N/A     68  39  35 SW13      29.84S                  
$$

TXZ031-032-036>038-042>044-220200-
TEXAS TECH WEST TEXAS MESONET/ROLLING PLAINS 
  
CITY           SKY/WX    TMP DP  RH WIND       PRES   REMARKS
ASPERMONT 3NE    N/A     75  38  26 S9        29.78R                  
FLUVANNA 3WNW    N/A     72  41  32 S12       29.83R                  
GRAHAM 5SSW      N/A     74  36  25 SW10      29.83R                  
GUTHRIE 10WSW    N/A     75  35  23 S13       29.76S                  
HASKELL 1NW      N/A     76  39  25 SW8       29.77R                  
JAYTON 1SSE      N/A     73  35  24 S7        29.79R                  
KNOX CITY 3NW    N/A     75  40  28 S12       29.76R                  
LK A HENRY 1NW   N/A     74  42  32 SW7       29.80R                  
NORTHFIELD 1S    N/A     76  38  24 S15       29.71S                  
ODELL 4ENE       N/A     77  41  27 S10       29.73R                  
PADUCAH 10SW     N/A     71  41  34 S10       29.77R                  
POST 1NE         N/A     74  37  26 SW9       29.81R                  
RRING SPRGS 3N   N/A     71  37  28 S10       29.77R                  
SEYMOUR 3NW      N/A     76  35  23 SW7       29.75R                  
SPUR 1W          N/A     70  37  30 S7        29.77R                  
WEINERT 2NNE     N/A     77  37  24 S9        29.77R                  
WHITE RVR 6NE    N/A     70  40  33 S9        29.79R                  
$$

TXZ052-054-060>062-072-078-127-140-154-169-220200-
TEXAS TECH WEST TEXAS MESONET/PERMIAN BASIN/
CONCHO VALLEY/BIG COUNTRY/EDWARDS PLATEAU
  
CITY           SKY/WX    TMP DP  RH WIND       PRES   REMARKS
COYANOSA 2N      N/A     72  49  44 SW10      29.88R                  
JUNCTION 1SSW    N/A     73  46  38 S7        29.94R                  
MERTZON 3NNE     N/A     74  49  41 S8        29.90R                  
SAN ANGELO 7NW   N/A     76  50  40 S9        29.87R                  
STRLNG CT 4WSW   N/A     75  48  37 S12       29.88R                  
ST LAWRNCE 5SW   N/A     68  44  42 S9        29.89R                  
SWEETWATR 11SW   N/A     72  39  29 SW8       29.87R                  
WALL 1E          N/A     76  47  35 S12       29.88S                  
$$

TXZ055-058-074-075-080-082-220200-
TEXAS TECH WEST TEXAS MESONET/FAR WEST/SOUTHWEST MOUNTAINS/TRANS PECOS
  
CITY           SKY/WX    TMP DP  RH WIND       PRES   REMARKS
PRSMN GAP BBNP   N/A     77  45  31 SE6       29.93R                  
GUADLPE MTN NP   N/A     68  40  35 W15G36    30.03R                  
$$
  
