ASUS44 KLUB 212310
RWRLUB
WEST TEXAS WEATHER ROUNDUP
NATIONAL WEATHER SERVICE LUBBOCK TX
600 PM CDT FRI OCT 21 2022

NOTE: "FAIR" INDICATES FEW OR NO CLOUDS BELOW 12,000 FEET WITH NO
SIGNIFICANT WEATHER AND/OR OBSTRUCTIONS TO VISIBILITY.

TXZ004-006>008-010-012-014-016-OKZ002-220000-
TEXAS PANHANDLE/OKLAHOMA PANHANDLE
  
CITY           SKY/WX    TMP DP  RH WIND       PRES   REMARKS
AMARILLO       SUNNY     82  27  13 W18G25    29.74F                  
BORGER         SUNNY     85  19   9 SW15G23   29.71S                  
CANADIAN       SUNNY     87  28  11 SW16      29.66S                  
DALHART        SUNNY     82  22  11 SW6       29.74F                  
DUMAS          SUNNY     81  22  11 SW13      29.73F                  
GUYMON         SUNNY     85  19   9 S12       29.65F                  
HEREFORD       SUNNY     82  26  12 SW21G26   29.79F                  
PAMPA          SUNNY     84  32  15 SW14G22   29.73S                  
PERRYTON       SUNNY     83  19   9 SW12      29.68S                  
$$

TXZ026-029-035-045-048-220000-
SOUTHERN PANHANDLE/SOUTH PLAINS/ROLLING PLAINS
  
CITY           SKY/WX    TMP DP  RH WIND       PRES   REMARKS
CHILDRESS      SUNNY     85  34  16 S18G29    29.73F                  
SEMINOLE       SUNNY     80  35  19 SW16      29.92S                  
LUBBOCK        MOSUNNY   82  34  17 SW14G26   29.81F                  
PLAINVIEW      SUNNY     80  31  16 W17       29.79F                  
SNYDER         SUNNY     83  33  17 SW16      29.84S                  
$$

TXZ052-054-060>062-072-078-127-140-154-169-220000-
PERMIAN BASIN/CONCHO VALLEY/BIG COUNTRY/EDWARDS PLATEAU  
  
CITY           SKY/WX    TMP DP  RH WIND       PRES   REMARKS
ABILENE        SUNNY     87  35  15 S21G33    29.82F                  
BIG SPRING     SUNNY     82  38  20 SW15      29.86F                  
BRADY          SUNNY     84  34  16 S15       29.87F                  
JUNCTION       SUNNY     83  46  27 S12       29.91S                  
MIDLAND        SUNNY     82  40  22 W13       29.87F                  
ODESSA         SUNNY     83  41  22 W14       29.89F                  
SAN ANGELO     SUNNY     84  45  25 SW15      29.85F                  
SONORA           N/A     81  41  24 MISG        N/A                   
SWEETWATER     SUNNY     84  35  17 SW16      29.87S                  
WINK           SUNNY     85  40  20 W12       29.85F                  
$$

TXZ055-058-074-075-080-082-220000-
FAR WEST/SOUTHWEST MOUNTAINS/TRANS PECOS
  
CITY           SKY/WX    TMP DP  RH WIND       PRES   REMARKS
ALPINE         SUNNY     78  38  23 W12       30.07S                  
DRYDEN           N/A     79  54  41 SE9       29.92F                  
EL PASO        MOSUNNY   83  43  24 W13       29.96F                  
FORT STOCKTON  SUNNY     83  44  25 W8        29.90F                  
GUADALUPE PASS SUNNY     73  40  30 W33G44    30.02F                  
MARFA          SUNNY     76  40  27 W13       30.06F                  
PECOS          SUNNY     85  44  23 SW9       29.87F                  
PRESIDIO       FAIR      84  52  33 S3        29.96F                  
$$

TXZ014-016-019-021>030-083-220000
TEXAS TECH WEST TEXAS MESONET/TEXAS PANHANDLE/NORTHERN SOUTH PLAINS
  
CITY           SKY/WX    TMP DP  RH WIND       PRES   REMARKS
ABERNATHY 5ENE   N/A     81  35  19 SW16      29.82S                  
AMARILLO 9NNE    N/A     83  27  13 W15       29.74F                  
AMARILLO 7SSE    N/A     81  32  17 SW21      29.77F                  
AMHERST 1NE      N/A     80  32  17 W22       29.83S                  
BOOTLEG 11WNW    N/A     77  30  17 SW23      29.86S                  
CANADIAN 6E      N/A     87  28  12 SW10      29.65S                  
CAPROCK CYN SP   N/A     86  33  15 SW21      29.75S                  
CHILDRESS 2NNE   N/A     85  37  18 S18       29.73F                  
CLARENDON 2WSW   N/A     84  31  14 SW18      29.72F                  
CLAUDE 12SW      N/A     82  28  14 SW15G30   29.76S                  
DIMMITT 2NE      N/A     79  30  16 W16       29.82S                  
FLOYDADA 2NNE    N/A     82  36  19 SW13      29.81S                  
FRIONA 2NE       N/A     78  31  17 SW21      29.82F                  
GOODLETT 3W      N/A     86  38  18 S22       29.71F                  
HART 3N          N/A     80  32  17 SW14      29.81F                  
HEREFORD 2NW     N/A     80  29  16 W18       29.80F                  
MCLEAN 1E        N/A     84  35  17 SW17      29.71S                  
MEMPHIS 1NE      N/A     88  34  14 S13       29.70F                  
MULESHOE 2SSW    N/A     80  25  13 W17       29.83F                  
OLTON 6S         N/A     80  33  17 SW15      29.81S                  
PALO DURO SP     N/A     82  31  15 SW14      29.78S                  
PAMPA 2E         N/A     84  24  11 SW17      29.73S                  
PLAINVIEW 1S     N/A     82  30  15 SW14G33   29.80F                  
SILVERTON 7ESE   N/A     82  31  15 SW15      29.78S                  
TULIA 2ENE       N/A     82  27  13 SW18      29.79F                  
TURKEY 2WSW      N/A     85  37  18 SW16      29.73S                  
UMBARGER 3NNE    N/A     81  30  16 SW16      29.79S                  
$$

TXZ033>036-039>041-045>048-220000
TEXAS TECH WEST TEXAS MESONET/SOUTH PLAINS  
  
CITY           SKY/WX    TMP DP  RH WIND       PRES   REMARKS
AIKEN 3WSW       N/A     81  35  19 SW15      29.81F                  
ANDREWS 2NE      N/A     82  35  18 W14       29.88S                  
ANTON 6SSW       N/A     82  29  14 SW17      29.83S                  
BROWNFIELD 2S    N/A     79  37  22 W12       29.86S                  
DENVR CTY 7WNW   N/A     80  35  19 W18       29.88F                  
GAIL 2ESE        N/A     82  40  22 SW13      29.83F                  
LAMESA 2SE       N/A     82  35  18 W12       29.87S                  
LUBBOCK 3WNW     N/A     82  33  17 SW12      29.82F                  
MORTON 1ENE      N/A     80  31  17 W20       29.86S                  
ODONNELL 1N      N/A     80  37  21 SW10      29.86S                  
PLAINS 3N        N/A     79  35  20 W17       29.88F                  
RALLS 1SE        N/A     81  37  21 SW20      29.82F                  
REESE CENTER     N/A     81  31  15 W17       29.83F                  
SEAGRAVES 1SW    N/A     81  34  18 SW15      29.87F                  
SEMINOLE 2NNE    N/A     80  35  19 SW13      29.88F                  
SLATON 2NE       N/A     81  36  19 SW17      29.83F                  
SNYDER 3E        N/A     83  39  20 SW13      29.83F                  
SUNDOWN 8SW      N/A     80  36  20 W18G24    29.86F                  
TAHOKA 3NNE      N/A     80  39  23 SW13      29.85S                  
WOLFFORTH 6SSW   N/A     80  37  22 SW15      29.85S                  
$$

TXZ031-032-036>038-042>044-220000-
TEXAS TECH WEST TEXAS MESONET/ROLLING PLAINS 
  
CITY           SKY/WX    TMP DP  RH WIND       PRES   REMARKS
ASPERMONT 3NE    N/A     86  37  17 S17       29.78S                  
FLUVANNA 3WNW    N/A     81  38  21 SW15      29.84S                  
GRAHAM 5SSW      N/A     82  37  19 SW9       29.84F                  
GUTHRIE 10WSW    N/A     84  38  19 S18       29.77F                  
HASKELL 1NW      N/A     87  36  16 SW21      29.76F                  
JAYTON 1SSE      N/A     85  34  16 SW15      29.79S                  
KNOX CITY 3NW    N/A     86  38  18 SW22      29.75F                  
LK A HENRY 1NW   N/A     83  38  20 SW13      29.81S                  
NORTHFIELD 1S    N/A     84  38  19 S17       29.72F                  
ODELL 4ENE       N/A     87  39  18 S22       29.73S                  
PADUCAH 10SW     N/A     82  41  22 SW13      29.77F                  
POST 1NE         N/A     83  36  19 SW8       29.82S                  
RRING SPRGS 3N   N/A     82  36  19 S18       29.78F                  
SEYMOUR 3NW      N/A     89  35  15 SW21      29.74F                  
SPUR 1W          N/A     84  32  15 SW15      29.78F                  
WEINERT 2NNE     N/A     87  36  16 SW20      29.76F                  
WHITE RVR 6NE    N/A     82  37  20 S16       29.80F                  
$$

TXZ052-054-060>062-072-078-127-140-154-169-220000-
TEXAS TECH WEST TEXAS MESONET/PERMIAN BASIN/
CONCHO VALLEY/BIG COUNTRY/EDWARDS PLATEAU
  
CITY           SKY/WX    TMP DP  RH WIND       PRES   REMARKS
COYANOSA 2N      N/A     85  44  23 W10       29.88F                  
JUNCTION 1SSW    N/A     83  46  28 S9        29.92S                  
MERTZON 3NNE     N/A     83  47  29 S13       29.89S                  
SAN ANGELO 7NW   N/A     85  47  26 S10       29.86S                  
STRLNG CT 4WSW   N/A     84  35  17 SW12      29.88R                  
ST LAWRNCE 5SW   N/A     82  39  21 SW15      29.90S                  
SWEETWATR 11SW   N/A     82  41  23 SW17      29.86F                  
WALL 1E          N/A     85  45  24 SW14      29.87F                  
$$

TXZ055-058-074-075-080-082-220000-
TEXAS TECH WEST TEXAS MESONET/FAR WEST/SOUTHWEST MOUNTAINS/TRANS PECOS
  
CITY           SKY/WX    TMP DP  RH WIND       PRES   REMARKS
PRSMN GAP BBNP   N/A     85  46  26 S8        29.94S                  
GUADLPE MTN NP   N/A     71  38  30 W15G37    30.03S                  
$$
  
