ASUS44 KBMX 232010
RWRAL 
             
ALABAMA REGIONAL WEATHER ROUNDUP
NATIONAL WEATHER SERVICE BIRMINGHAM AL
300 PM CDT SUN OCT 23 2022

NOTE: "FAIR" INDICATES FEW OR NO CLOUDS BELOW 12,000 FEET
WITH NO SIGNIFICANT WEATHER AND/OR OBSTRUCTIONS TO VISIBILITY.

THE REMARK "TC" DENOTES TEMPERATURE IN DEGREES CELSIUS.

ALZ001>011-014-016>018-020-232100-
NORTH ALABAMA
  
CITY           SKY/WX    TMP DP  RH WIND       PRES   REMARKS
MUSCLE SHOALS  SUNNY     79  44  28 S15G21    30.07F                  
HUNTSVILLE     MOSUNNY   77  41  27 SE9       30.10F                  
DECATUR        SUNNY     76  41  28 VRB7      30.11F                  
HALEYVILLE     FAIR      76  44  32 S6        30.12F                  
GADSDEN        SUNNY     76  39  26 SE5       30.13F                  
$$
 
ALZ012-013-022-023-030>036-040>044-232100-
WEST CENTRAL ALABAMA
  
CITY           SKY/WX    TMP DP  RH WIND       PRES   REMARKS
TUSCALOOSA     SUNNY     78  44  29 S7        30.09F                  
DEMOPOLIS      FAIR      79  46  31 SE7       30.09F                  
$$
 
ALZ015-024>026-033>036-041>044-232100-
CENTRAL ALABAMA
  
CITY           SKY/WX    TMP DP  RH WIND       PRES   REMARKS
BIRMINGHAM     MOSUNNY   76  41  28 SE8       30.13F                  
MONTGOMERY     SUNNY     78  43  28 E6        30.11F                  
SHELBY CO ARPT SUNNY     76  42  29 SE3       30.12F                  
MAXWELL AFB    SUNNY     77  33  20 E5        30.09F                  
GREENVILLE     FAIR      78  38  23 VRB3      30.10F                  
SELMA          FAIR      79  39  24 CALM      30.10F                  
PRATTVILLE     FAIR      77  42  28 NE3       30.11F                  
BESSEMER       FAIR      77  43  29 VRB5      30.12F                  
TALLADEGA      FAIR      77  40  26 CALM      30.12F                  
PELL CITY      SUNNY     77  39  25 CALM      30.12F                  
SYLACAUGA      PTSUNNY   77  40  26 CALM      30.13F                  
JASPER         FAIR      77  45  31 E6        30.10F                  
$$
 
ALZ019-021-028-029-037-038-045>048-232100-
EAST CENTRAL ALABAMA
  
CITY           SKY/WX    TMP DP  RH WIND       PRES   REMARKS
ANNISTON       SUNNY     78  41  26 CALM      30.12F                  
ALEXANDER CITY SUNNY     74  40  28 CALM      30.13F                  
AUBURN         SUNNY     75  42  30 NE6       30.15F                  
$$
 
ALZ051>064-232100-
SOUTHWEST ALABAMA
  
CITY           SKY/WX    TMP DP  RH WIND       PRES   REMARKS
MOBILE         MOSUNNY   80  44  27 MISG      30.10F                  
BROOKLEY FIELD SUNNY     78  49  35 S10       30.11F                  
EVERGREEN      SUNNY     79  38  22 S6        30.10F                  
$$

ALZ049-050-065>069-232100-
SOUTHEAST ALABAMA
  
CITY           SKY/WX    TMP DP  RH WIND       PRES   REMARKS
DOTHAN         SUNNY     78  37  22 NE6       30.15F                  
OZARK          SUNNY     77  39  26 N3        30.10F                  
TROY           SUNNY     83  41  22 N6        30.12F                  
EUFAULA        FAIR      78  41  26 N7        30.13F                  
$$
  
