ASUS44 KHUN 231810
RWRHUN
       
WEATHER ROUNDUP FOR THE TENNESSEE VALLEY
NATIONAL WEATHER SERVICE HUNTSVILLE AL
100 PM CDT SUN OCT 23 2022

ALZ001>004-231900-
NORTHWEST ALABAMA
  
CITY           SKY/WX    TMP DP  RH WIND       PRES   REMARKS
BANKHEAD NF      N/A     73  46  37 W6          N/A                   
SHOALS AIRPORT SUNNY     77  45  32 S12       30.14F                  
6HR MIN TEMP:  52; 6HR MAX TEMP:  77;                                

$$

ALZ005>007-016-231900-
NORTH CENTRAL ALABAMA
  
CITY           SKY/WX    TMP DP  RH WIND       PRES   REMARKS
DECATUR AP     SUNNY     75  44  33 S10G16    30.17F                  
6HR MIN TEMP:  52; 6HR MAX TEMP:  75;                                

HUNTSVILLE AP  MOSUNNY   75  42  30 S9        30.17F                  
6HR MIN TEMP:  50; 6HR MAX TEMP:  76;                                

HUN NWS/UAH      N/A     75  45  33 SE6         N/A                   
MERIDIANVILLE  NOT AVBL                                               
VINEMONT AP    FAIR      73  39  29 S9        30.19F                  
$$
 
ALZ008>010-231900-
NORTHEAST ALABAMA
  
CITY           SKY/WX    TMP DP  RH WIND       PRES   REMARKS
ALBERTVILLE    SUNNY     72  39  30 S6        30.19F                  
FORT PAYNE     SUNNY     72  37  27 SW5       30.18F                  
SCOTTSBORO AP  SUNNY     73  43  33 SW6       30.18F                  
$$

TNZ076-096-097-231900-
SOUTHEASTERN MIDDLE TENNESSEE
  
CITY           SKY/WX    TMP DP  RH WIND       PRES   REMARKS
FAYETTEVILLE   SUNNY     72  41  33 S12G18    30.19F                  
TULLAHOMA      SUNNY     73  43  33 VRB6G14   30.17F                  
WINCHESTER     SUNNY     73  41  31 S9        30.16F                  
$$
 
...SURROUNDING SITES...
  
CITY           SKY/WX    TMP DP  RH WIND       PRES   REMARKS
ATLANTA        MOSUNNY   73  39  29 CALM      30.21F                  
ANNISTON       SUNNY     75  42  30 CALM      30.18F                  
BIRMINGHAM     MOSUNNY   74  40  29 S7        30.20F                  
CHATTANOOGA    MOSUNNY   73  38  27 SW8       30.19F                  
CORINTH        SUNNY     77  46  33 S15G22    30.10F                  
DALTON         SUNNY     72  37  28 S6        30.20F                  
GADSDEN        SUNNY     73  42  32 S7        30.19F                  
GOLDEN TRNGL   SUNNY     77  47  34 S14G21    30.14F                  
HALEYVILLE     FAIR      74  48  39 VRB7      30.18F                  
JACKSON TN     SUNNY     76  54  46 S12G22    30.07F                  
MEMPHIS        MOSUNNY   78  58  49 S15       30.04F                  
NASHVILLE      MOSUNNY   77  44  30 SW13G20   30.14F                  
OXFORD MS      MOSUNNY   77  55  47 SE10G21   30.09F                  
ROME           SUNNY     74  41  30 CALM      30.19F                  
SAVANNAH       SUNNY     75  48  38 SW17      30.11F                  
SELMER         SUNNY     73  46  38 S17G26    30.10F                  
TUPELO         SUNNY     78  51  38 S16       30.11F                  
TUSCALOOSA     SUNNY     76  45  33 SW6       30.16F                  
$$

  
