ASUS44 KBMX 231910
RWRAL 
             
ALABAMA REGIONAL WEATHER ROUNDUP
NATIONAL WEATHER SERVICE BIRMINGHAM AL
200 PM CDT SUN OCT 23 2022

NOTE: "FAIR" INDICATES FEW OR NO CLOUDS BELOW 12,000 FEET
WITH NO SIGNIFICANT WEATHER AND/OR OBSTRUCTIONS TO VISIBILITY.

THE REMARK "TC" DENOTES TEMPERATURE IN DEGREES CELSIUS.

ALZ001>011-014-016>018-020-232000-
NORTH ALABAMA
  
CITY           SKY/WX    TMP DP  RH WIND       PRES   REMARKS
MUSCLE SHOALS  SUNNY     77  44  30 S8        30.11F                  
HUNTSVILLE     MOSUNNY   77  41  27 S9        30.13F                  
DECATUR        SUNNY     75  42  30 VRB7      30.13F                  
HALEYVILLE     FAIR      75  47  36 S10G16    30.15F                  
GADSDEN        SUNNY     76  41  28 S5        30.16F                  
$$
 
ALZ012-013-022-023-030>036-040>044-232000-
WEST CENTRAL ALABAMA
  
CITY           SKY/WX    TMP DP  RH WIND       PRES   REMARKS
TUSCALOOSA     SUNNY     77  44  30 S7        30.13F                  
DEMOPOLIS      FAIR      78  44  30 S7        30.12F                  
$$
 
ALZ015-024>026-033>036-041>044-232000-
CENTRAL ALABAMA
  
CITY           SKY/WX    TMP DP  RH WIND       PRES   REMARKS
BIRMINGHAM     MOSUNNY   75  42  30 SE8       30.17F                  
MONTGOMERY     SUNNY     78  42  27 VRB5      30.14F                  
SHELBY CO ARPT SUNNY     76  41  28 SE7       30.14F                  
MAXWELL AFB    SUNNY     76  33  21 E6        30.12F                  
GREENVILLE     FAIR      76  38  25 VRB3      30.12F                  
SELMA          FAIR      79  39  24 VRB3      30.12F                  
PRATTVILLE     FAIR      75  42  30 CALM      30.13F                  
BESSEMER       FAIR      76  42  29 VRB5      30.15F                  
TALLADEGA      FAIR      76  40  27 NW5       30.15F                  
PELL CITY      SUNNY     75  41  29 CALM      30.16F                  
SYLACAUGA      FAIR      76  40  27 CALM      30.16F                  
JASPER         FAIR      77  46  33 VRB3      30.13F                  
$$
 
ALZ019-021-028-029-037-038-045>048-232000-
EAST CENTRAL ALABAMA
  
CITY           SKY/WX    TMP DP  RH WIND       PRES   REMARKS
ANNISTON       SUNNY     77  41  27 NE5       30.15F                  
ALEXANDER CITY PTSUNNY   74  38  27 CALM      30.16F                  
AUBURN         SUNNY     75  40  28 E3        30.17F                  
$$
 
ALZ051>064-232000-
SOUTHWEST ALABAMA
  
CITY           SKY/WX    TMP DP  RH WIND       PRES   REMARKS
MOBILE         MOSUNNY   79  49  34 SE10      30.11F                  
BROOKLEY FIELD SUNNY     79  47  32 S8        30.12F                  
EVERGREEN      SUNNY     78  40  25 MISG      30.13F                  
$$

ALZ049-050-065>069-232000-
SOUTHEAST ALABAMA
  
CITY           SKY/WX    TMP DP  RH WIND       PRES   REMARKS
DOTHAN         SUNNY     79  36  21 MISG      30.17F                  
OZARK          SUNNY     77  41  27 NW3       30.12F                  
TROY           SUNNY     80  39  23 E6        30.14F                  
EUFAULA        FAIR      78  41  26 VRB3      30.14F                  
$$
  
