ASUS44 KBMX 232110
RWRAL 
             
ALABAMA REGIONAL WEATHER ROUNDUP
NATIONAL WEATHER SERVICE BIRMINGHAM AL
400 PM CDT SUN OCT 23 2022

NOTE: "FAIR" INDICATES FEW OR NO CLOUDS BELOW 12,000 FEET
WITH NO SIGNIFICANT WEATHER AND/OR OBSTRUCTIONS TO VISIBILITY.

THE REMARK "TC" DENOTES TEMPERATURE IN DEGREES CELSIUS.

ALZ001>011-014-016>018-020-232200-
NORTH ALABAMA
  
CITY           SKY/WX    TMP DP  RH WIND       PRES   REMARKS
MUSCLE SHOALS  MOSUNNY   78  43  28 S12       30.06F                  
HUNTSVILLE     MOSUNNY   77  40  26 S8        30.09F                  
DECATUR        SUNNY     77  39  25 S9        30.09F                  
HALEYVILLE     FAIR      75  43  31 S7        30.10F                  
GADSDEN        SUNNY     76  39  26 SE6       30.11F                  
$$
 
ALZ012-013-022-023-030>036-040>044-232200-
WEST CENTRAL ALABAMA
  
CITY           SKY/WX    TMP DP  RH WIND       PRES   REMARKS
TUSCALOOSA     MOSUNNY   78  43  28 SW8       30.09S                  
DEMOPOLIS      FAIR      78  46  31 SE5       30.08F                  
$$
 
ALZ015-024>026-033>036-041>044-232200-
CENTRAL ALABAMA
  
CITY           SKY/WX    TMP DP  RH WIND       PRES   REMARKS
BIRMINGHAM     MOSUNNY   76  41  28 VRB7      30.12F                  
MONTGOMERY     SUNNY     78  42  27 VRB5      30.10F                  
SHELBY CO ARPT SUNNY     77  41  27 VRB6      30.10F                  
MAXWELL AFB    SUNNY     77  33  20 NE6       30.08F                  
GREENVILLE     FAIR      76  38  25 S5        30.08F                  
SELMA          FAIR      81  41  24 E5        30.08F                  
PRATTVILLE     FAIR      76  40  27 CALM      30.10F                  
BESSEMER       FAIR      77  42  28 VRB6      30.11F                  
TALLADEGA      FAIR      77  39  25 CALM      30.11F                  
PELL CITY      SUNNY     77  39  25 CALM      30.11F                  
SYLACAUGA      PTSUNNY   76  42  29 CALM      30.11F                  
JASPER         FAIR      77  43  29 CALM      30.09S                  
$$
 
ALZ019-021-028-029-037-038-045>048-232200-
EAST CENTRAL ALABAMA
  
CITY           SKY/WX    TMP DP  RH WIND       PRES   REMARKS
ANNISTON       SUNNY     77  41  27 CALM      30.11F                  
ALEXANDER CITY SUNNY     75  41  30 CALM      30.12F                  
AUBURN         SUNNY     74  42  31 E7        30.14F                  
$$
 
ALZ051>064-232200-
SOUTHWEST ALABAMA
  
CITY           SKY/WX    TMP DP  RH WIND       PRES   REMARKS
MOBILE         MOSUNNY   79  49  34 SE9       30.08F                  
BROOKLEY FIELD SUNNY     76  52  43 S9        30.09F                  
EVERGREEN      SUNNY     79  39  23 VRB5      30.09F                  
$$

ALZ049-050-065>069-232200-
SOUTHEAST ALABAMA
  
CITY           SKY/WX    TMP DP  RH WIND       PRES   REMARKS
DOTHAN         SUNNY     79  37  22 NE8       30.13F                  
OZARK          SUNNY     77  38  24 NE6       30.09F                  
TROY           SUNNY     82  42  24 VRB5      30.11F                  
EUFAULA        NOT AVBL                                               
$$
  
