ASUS44 KHUN 232010
RWRHUN
       
WEATHER ROUNDUP FOR THE TENNESSEE VALLEY
NATIONAL WEATHER SERVICE HUNTSVILLE AL
300 PM CDT SUN OCT 23 2022

ALZ001>004-232100-
NORTHWEST ALABAMA
  
CITY           SKY/WX    TMP DP  RH WIND       PRES   REMARKS
BANKHEAD NF      N/A     77  45  32 W3          N/A                   
SHOALS AIRPORT SUNNY     79  44  28 S15G21    30.07F                  
$$

ALZ005>007-016-232100-
NORTH CENTRAL ALABAMA
  
CITY           SKY/WX    TMP DP  RH WIND       PRES   REMARKS
CULLMAN AG STN   N/A     75 N/A N/A S5          N/A                   
DECATUR AP     SUNNY     76  41  28 VRB7      30.11F                  
HUNTSVILLE AP  MOSUNNY   77  41  27 SE9       30.10F                  
HUN NWS/UAH      N/A     77  43  29 S3          N/A                   
MERIDIANVILLE  NOT AVBL                                               
VINEMONT AP    FAIR      75  39  27 SW9       30.13F                  
$$
 
ALZ008>010-232100-
NORTHEAST ALABAMA
  
CITY           SKY/WX    TMP DP  RH WIND       PRES   REMARKS
ALBERTVILLE    SUNNY     73  37  27 SW6       30.12F                  
FORT PAYNE     SUNNY     74  37  25 E3        30.12F                  
SCOTTSBORO AP  SUNNY     75  45  33 VRB6      30.12F                  
$$

TNZ076-096-097-232100-
SOUTHEASTERN MIDDLE TENNESSEE
  
CITY           SKY/WX    TMP DP  RH WIND       PRES   REMARKS
FAYETTEVILLE   SUNNY     75  43  31 S14       30.13F                  
TULLAHOMA      SUNNY     73  41  31 S7        30.11F                  
WINCHESTER     SUNNY     73  41  31 SE7       30.11F                  
$$
 
...SURROUNDING SITES...
  
CITY           SKY/WX    TMP DP  RH WIND       PRES   REMARKS
ATLANTA        MOSUNNY   74  37  26 CALM      30.16F                  
ANNISTON       SUNNY     78  41  26 CALM      30.12F                  
BIRMINGHAM     MOSUNNY   76  41  28 SE8       30.13F                  
CHATTANOOGA    MOSUNNY   76  38  25 SE6       30.13F                  
CORINTH        MOSUNNY   79  45  29 S14G21    30.04F                  
DALTON         SUNNY     74  37  26 VRB3      30.14F                  
GADSDEN        SUNNY     76  39  26 SE5       30.13F                  
GOLDEN TRNGL   SUNNY     79  49  34 S10       30.08F                  
HALEYVILLE     FAIR      76  44  32 S6        30.12F                  
JACKSON TN     SUNNY     77  53  43 S14G23    30.02F                  
MEMPHIS        PTSUNNY   79  54  41 S15G24    29.98F                  
NASHVILLE      PTSUNNY   76  44  32 S16       30.09F                  
OXFORD MS      MOSUNNY   79  54  41 S12G18    30.03F                  
ROME           SUNNY     74  39  28 SE3       30.13F                  
SAVANNAH       SUNNY     77  45  31 S13       30.05F                  
SELMER         SUNNY     77  45  31 S10G18    30.04F                  
TUPELO         MOSUNNY   80  47  31 S12       30.05F                  
TUSCALOOSA     SUNNY     78  44  29 S7        30.09F                  
$$

  
