ASUS44 KMOB 232010
RWRMOB
REGIONAL WEATHER ROUNDUP
NATIONAL WEATHER SERVICE MOBILE AL
300 PM CDT SUN OCT 23 2022

NOTE: "FAIR" INDICATES FEW OR NO CLOUDS BELOW 12,000 FEET WITH NO
      SIGNIFICANT WEATHER AND/OR OBSTRUCTIONS TO VISIBILITY.

  * THESE STATIONS ARE PART OF THE UNIVERSITY OF SOUTH ALABAMA 
    MESONET AND ARE NOT UNDER NWS OR FAA QUALITY CONTROL. 

ALZ061>064-232100-
COASTAL ALABAMA
  
CITY           SKY/WX    TMP DP  RH WIND       PRES   REMARKS
MOBILE REG APT MOSUNNY   80  44  27 MISG      30.10F                  
BROOKLEY FIELD SUNNY     78  49  35 S10       30.11F                  
USA CAMPUS*    NOT AVBL                                               
DOG RIVER*     NOT AVBL                                               

  
CITY           SKY/WX    TMP DP  RH WIND       PRES   REMARKS
GULF SHORES    SUNNY     77  55  47 E10G16    30.11S                  

$$

ALZ051>060-232100-
INTERIOR SOUTHWEST AND SOUTH CENTRAL ALABAMA
  
CITY           SKY/WX    TMP DP  RH WIND       PRES   REMARKS
GREENVILLE     SUNNY     78  38  23 VRB3      30.10F                  
EVERGREEN      SUNNY     79  38  22 S6        30.10F                  
ATMORE*          N/A     81  43  26 CALM      30.07F                  
ANDALUSIA/OPP  SUNNY     84  39  20 VRB5      30.10F                  
ANDALUSIA*     NOT AVBL                                               
FLORALA APT    SUNNY     81  37  20 NE8       30.12F                  
FLORALA*       NOT AVBL                                               

$$

FLZ001>006-232100-
WESTERN FLORIDA PANHANDLE
  
CITY           SKY/WX    TMP DP  RH WIND       PRES   REMARKS
PENSACOLA      SUNNY     77  49  37 MISG      30.10F                  
NAS PENSACOLA  MOSUNNY   77  57  50 SE8       30.10F                  
MILTON         SUNNY     80  28  15 VRB5      30.09F                  
WHTNG S FIELD  SUNNY     80  44  27 VRB7      30.09F                  

  
CITY           SKY/WX    TMP DP  RH WIND       PRES   REMARKS
JAY*           NOT AVBL                                               
CRESTVIEW      SUNNY     81  40  23 VRB3      30.11F                  
VALPARAISO     SUNNY     77  50  38 S6        30.07F                  
DESTIN         SUNNY     79  49  34 VRB5      30.10F                  

$$

MSZ076-079-232100-
INTERIOR SOUTHEAST MISSISSIPPI
  
CITY           SKY/WX    TMP DP  RH WIND       PRES   REMARKS
LEAKESVILLE*   NOT AVBL                                               
AGRICOLA*        N/A     81  50  34 CALM      30.08                   

$$

MARINE OBSERVATIONS
  
STATION/POSITION TIME  TEMP    WIND        PRES    WAVE
                       AIR SEA DIR/SP/G            HT/PER
                 (UTC) (F)     (DEG/KT/KT) (MB)    (FT/S)
PETIT BOIS ISLND 1930           70/  8/ 11 1018.6
E DAUPHIN ISLAND NOT AVBL
USCG MOBILE BAY  1930      69  160/  6/ 10 1019.2
STATE DOCKS      1930      71              1017.8
WEEKS BAY        1845   78                 1020.0F
FORT MORGAN      1930          100/  9/ 11 1019.2
12 S ORANGE BCH  1950   73 76   90/ 12/ 14 1018.8F   2/ 5
PENSACOLA BAY    1930      68  110/  1/  3 1019.7
64 S DAUPHIN ISL 1950   75 78   90/ 10/ 14 1018.5F   2/ 5

$$

SELECTED LOCATIONS ACROSS THE REGION
  
CITY           SKY/WX    TMP DP  RH WIND       PRES   REMARKS
NEW ORLEANS    MOSUNNY   81  58  45 SE8G21    30.05F                  
GULFPORT       SUNNY     77  60  55 SE12      30.08F                  
PASCAGOULA AP  SUNNY     79  55  43 SE9       30.09F                  
PASCAGOULA*    NOT AVBL                                               
HATTIESBURG    SUNNY     83  48  29 S14       30.07F                  
LAUREL         NOT AVBL                                               
MERIDIAN       SUNNY     80  51  36 S9G20     30.08F                  
JACKSON        MOSUNNY   81  54  39 VRB5      30.03F                  
MONTGOMERY     SUNNY     78  43  28 E6        30.11F                  
TROY           SUNNY     83  41  22 N6        30.12F                  
ASHFORD*       NOT AVBL                                               
DOTHAN         SUNNY     78  37  22 NE6       30.15F                  
PANAMA CITY    SUNNY     83  39  21 NW8       30.09F                  

$$

  
