ASUS44 KHUN 231710
RWRHUN
       
WEATHER ROUNDUP FOR THE TENNESSEE VALLEY
NATIONAL WEATHER SERVICE HUNTSVILLE AL
1200 PM CDT SUN OCT 23 2022

ALZ001>004-231800-
NORTHWEST ALABAMA
  
CITY           SKY/WX    TMP DP  RH WIND       PRES   REMARKS
BANKHEAD NF      N/A     72  46  40 SW5         N/A                   
SHOALS AIRPORT SUNNY     75  47  36 S10G21    30.16F                  
$$

ALZ005>007-016-231800-
NORTH CENTRAL ALABAMA
  
CITY           SKY/WX    TMP DP  RH WIND       PRES   REMARKS
CULLMAN AG STN   N/A     72 N/A N/A S5          N/A                   
DECATUR AP     SUNNY     72  46  39 S9        30.19F                  
HUNTSVILLE AP  MOSUNNY   74  43  32 S8        30.19F                  
HUN NWS/UAH      N/A     74  44  34 S6          N/A                   
MERIDIANVILLE  NOT AVBL                                               
VINEMONT AP    FAIR      72  39  30 S10G17    30.21S                  
$$
 
ALZ008>010-231800-
NORTHEAST ALABAMA
  
CITY           SKY/WX    TMP DP  RH WIND       PRES   REMARKS
ALBERTVILLE    SUNNY     70  37  30 S8        30.21F                  
FORT PAYNE     SUNNY     71  40  31 S6        30.20F                  
SCOTTSBORO AP  SUNNY     72  43  35 CALM      30.21F                  
$$

TNZ076-096-097-231800-
SOUTHEASTERN MIDDLE TENNESSEE
  
CITY           SKY/WX    TMP DP  RH WIND       PRES   REMARKS
FAYETTEVILLE   SUNNY     72  41  33 SE13      30.20F                  
TULLAHOMA      SUNNY     72  41  33 SW7G16    30.18F                  
WINCHESTER     SUNNY     72  39  30 S9        30.19F                  
$$
 
...SURROUNDING SITES...
  
CITY           SKY/WX    TMP DP  RH WIND       PRES   REMARKS
ATLANTA        PTSUNNY   69  38  32 CALM      30.23F                  
ANNISTON       SUNNY     72  44  36 CALM      30.21F                  
BIRMINGHAM     MOSUNNY   72  40  31 S10       30.22F                  
CHATTANOOGA    MOSUNNY   70  41  34 CALM      30.22F                  
CORINTH        SUNNY     73  46  38 S15G26    30.13F                  
DALTON         SUNNY     68  39  34 SE5       30.22F                  
GADSDEN        SUNNY     71  45  39 CALM      30.22F                  
GOLDEN TRNGL   SUNNY     75  50  41 S15       30.17F                  
HALEYVILLE     FAIR      72  48  42 S13       30.20F                  
JACKSON TN     SUNNY     73  55  53 S15G24    30.10F                  
MEMPHIS        MOSUNNY   76  59  55 S15       30.07F                  
NASHVILLE      MOSUNNY   75  43  31 SW14G24   30.17F                  
OXFORD MS      MOSUNNY   75  57  53 SW9G16    30.12F                  
ROME           SUNNY     70  43  37 CALM      30.21F                  
SAVANNAH       SUNNY     73  54  49 S13       30.13F                  
SELMER         SUNNY     73  46  38 S13G23    30.12F                  
TUPELO         SUNNY     76  51  41 S16       30.14F                  
TUSCALOOSA     SUNNY     74  48  39 S12       30.19F                  
$$

  
