ASUS44 KMOB 232110
RWRMOB
REGIONAL WEATHER ROUNDUP
NATIONAL WEATHER SERVICE MOBILE AL
400 PM CDT SUN OCT 23 2022

NOTE: "FAIR" INDICATES FEW OR NO CLOUDS BELOW 12,000 FEET WITH NO
      SIGNIFICANT WEATHER AND/OR OBSTRUCTIONS TO VISIBILITY.

  * THESE STATIONS ARE PART OF THE UNIVERSITY OF SOUTH ALABAMA 
    MESONET AND ARE NOT UNDER NWS OR FAA QUALITY CONTROL. 

ALZ061>064-232200-
COASTAL ALABAMA
  
CITY           SKY/WX    TMP DP  RH WIND       PRES   REMARKS
MOBILE REG APT MOSUNNY   79  49  34 SE9       30.08F                  
BROOKLEY FIELD SUNNY     76  52  43 S9        30.09F                  
USA CAMPUS*    NOT AVBL                                               
DOG RIVER*     NOT AVBL                                               

  
CITY           SKY/WX    TMP DP  RH WIND       PRES   REMARKS
GULF SHORES    NOT AVBL                                               

$$

ALZ051>060-232200-
INTERIOR SOUTHWEST AND SOUTH CENTRAL ALABAMA
  
CITY           SKY/WX    TMP DP  RH WIND       PRES   REMARKS
GREENVILLE     SUNNY     76  38  25 S5        30.08F                  
EVERGREEN      SUNNY     79  39  23 VRB5      30.09F                  
ATMORE*          N/A     81  43  26 CALM      30.05F                  
ANDALUSIA/OPP  SUNNY     83  38  20 S3        30.09F                  
ANDALUSIA*     NOT AVBL                                               
FLORALA APT    SUNNY     80  35  19 VRB5      30.11F                  
FLORALA*       NOT AVBL                                               

$$

FLZ001>006-232200-
WESTERN FLORIDA PANHANDLE
  
CITY           SKY/WX    TMP DP  RH WIND       PRES   REMARKS
PENSACOLA      SUNNY     77  49  37 SE7       30.09F                  
NAS PENSACOLA  MOSUNNY   76  56  49 SE8       30.08F                  
MILTON         SUNNY     79  27  14 CALM      30.08F                  
WHTNG S FIELD  SUNNY     79  46  31 S6        30.08F                  

  
CITY           SKY/WX    TMP DP  RH WIND       PRES   REMARKS
JAY*           NOT AVBL                                               
CRESTVIEW      SUNNY     82  40  22 MISG      30.10F                  
VALPARAISO     SUNNY     76  50  39 S7        30.07S                  
DESTIN         SUNNY     79  52  38 S6        30.09F                  

$$

MSZ076-079-232200-
INTERIOR SOUTHEAST MISSISSIPPI
  
CITY           SKY/WX    TMP DP  RH WIND       PRES   REMARKS
LEAKESVILLE*   NOT AVBL                                               
AGRICOLA*        N/A     81  52  36 CALM      30.07                   

$$

MARINE OBSERVATIONS
  
STATION/POSITION TIME  TEMP    WIND        PRES    WAVE
                       AIR SEA DIR/SP/G            HT/PER
                 (UTC) (F)     (DEG/KT/KT) (MB)    (FT/S)
PETIT BOIS ISLND 2030           80/  8/ 11 1018.3S
E DAUPHIN ISLAND NOT AVBL
USCG MOBILE BAY  2030      69  170/  8/ 10 1018.7F
STATE DOCKS      2030      71              1017.4F
WEEKS BAY        1945   79                 1020.0S
FORT MORGAN      2030          100/ 11/ 14 1018.7F
12 S ORANGE BCH  2050   73 76   90/ 10/ 14 1018.4F   2/ 4
PENSACOLA BAY    2030      69  160/  2/  5 1019.1F
64 S DAUPHIN ISL 2050   76 78   80/ 12/ 14 1018.2F   2/ 6

$$

SELECTED LOCATIONS ACROSS THE REGION
  
CITY           SKY/WX    TMP DP  RH WIND       PRES   REMARKS
NEW ORLEANS    MOSUNNY   79  58  48 SE12G18   30.04F                  
GULFPORT       SUNNY     77  59  53 SE12      30.07F                  
PASCAGOULA AP  SUNNY     78  53  41 SE5       30.08F                  
PASCAGOULA*    NOT AVBL                                               
HATTIESBURG    SUNNY     82  50  32 S13       30.05F                  
LAUREL         SUNNY     81  52  36 S9G17     30.06                   
MERIDIAN       SUNNY     80  49  33 SE12      30.06F                  
JACKSON        SUNNY     82  50  32 S9        30.02F                  
MONTGOMERY     SUNNY     78  42  27 VRB5      30.10F                  
TROY           SUNNY     82  42  24 VRB5      30.11F                  
ASHFORD*       NOT AVBL                                               
DOTHAN         SUNNY     79  37  22 NE8       30.13F                  
PANAMA CITY    SUNNY     82  37  20 VRB3      30.08F                  

$$

  
