ASUS44 KBMX 231710
RWRAL 
             
ALABAMA REGIONAL WEATHER ROUNDUP
NATIONAL WEATHER SERVICE BIRMINGHAM AL
1200 PM CDT SUN OCT 23 2022

NOTE: "FAIR" INDICATES FEW OR NO CLOUDS BELOW 12,000 FEET
WITH NO SIGNIFICANT WEATHER AND/OR OBSTRUCTIONS TO VISIBILITY.

THE REMARK "TC" DENOTES TEMPERATURE IN DEGREES CELSIUS.

ALZ001>011-014-016>018-020-231800-
NORTH ALABAMA
  
CITY           SKY/WX    TMP DP  RH WIND       PRES   REMARKS
MUSCLE SHOALS  SUNNY     75  47  36 S10G21    30.16F                  
HUNTSVILLE     MOSUNNY   74  43  32 S8        30.19F                  
DECATUR        SUNNY     72  46  39 S9        30.19F                  
HALEYVILLE     FAIR      72  48  42 S13       30.20F                  
GADSDEN        SUNNY     71  45  39 CALM      30.22F                  
$$
 
ALZ012-013-022-023-030>036-040>044-231800-
WEST CENTRAL ALABAMA
  
CITY           SKY/WX    TMP DP  RH WIND       PRES   REMARKS
TUSCALOOSA     SUNNY     74  48  39 S12       30.19F                  
DEMOPOLIS      FAIR      74  46  36 SE6       30.18F                  
$$
 
ALZ015-024>026-033>036-041>044-231800-
CENTRAL ALABAMA
  
CITY           SKY/WX    TMP DP  RH WIND       PRES   REMARKS
BIRMINGHAM     MOSUNNY   72  40  31 S10       30.22F                  
MONTGOMERY     SUNNY     73  44  35 CALM      30.20F                  
SHELBY CO ARPT SUNNY     72  44  36 S5        30.20F                  
MAXWELL AFB    SUNNY     72  39  30 SE3       30.18F                  
GREENVILLE     FAIR      73  41  31 SE5       30.18F                  
SELMA          FAIR      75  37  25 SE8       30.19F                  
PRATTVILLE     FAIR      72  42  33 CALM      30.20F                  
BESSEMER       FAIR      72  42  34 VRB6      30.21F                  
TALLADEGA      FAIR      72  42  34 SE6       30.22F                  
PELL CITY      SUNNY     72  45  37 SW5       30.21F                  
SYLACAUGA      FAIR      73  41  31 CALM      30.21F                  
JASPER         FAIR      72  50  46 VRB5      30.19F                  
$$
 
ALZ019-021-028-029-037-038-045>048-231800-
EAST CENTRAL ALABAMA
  
CITY           SKY/WX    TMP DP  RH WIND       PRES   REMARKS
ANNISTON       SUNNY     72  44  36 CALM      30.21F                  
ALEXANDER CITY SUNNY     70  41  35 SE3       30.21F                  
AUBURN         SUNNY     71  42  35 SE6       30.22F                  
$$
 
ALZ051>064-231800-
SOUTHWEST ALABAMA
  
CITY           SKY/WX    TMP DP  RH WIND       PRES   REMARKS
MOBILE         MOSUNNY   76  50  40 VRB6G18   30.17F                  
BROOKLEY FIELD SUNNY     75  48  38 MISG      30.18F                  
EVERGREEN      SUNNY     75  42  30 VRB3      30.19F                  
$$

ALZ049-050-065>069-231800-
SOUTHEAST ALABAMA
  
CITY           SKY/WX    TMP DP  RH WIND       PRES   REMARKS
DOTHAN         SUNNY     75  37  25 E6        30.21F                  
OZARK          SUNNY     73  39  29 CALM      30.17F                  
TROY           SUNNY     77  41  27 CALM      30.20F                  
EUFAULA        FAIR      74  41  30 CALM      30.20F                  
$$
  
