ASUS44 KHUN 231910
RWRHUN
       
WEATHER ROUNDUP FOR THE TENNESSEE VALLEY
NATIONAL WEATHER SERVICE HUNTSVILLE AL
200 PM CDT SUN OCT 23 2022

ALZ001>004-232000-
NORTHWEST ALABAMA
  
CITY           SKY/WX    TMP DP  RH WIND       PRES   REMARKS
BANKHEAD NF      N/A     76  46  33 SW5         N/A                   
SHOALS AIRPORT SUNNY     77  44  30 S8        30.11F                  
$$

ALZ005>007-016-232000-
NORTH CENTRAL ALABAMA
  
CITY           SKY/WX    TMP DP  RH WIND       PRES   REMARKS
CULLMAN AG STN   N/A     75 N/A N/A S6          N/A                   
DECATUR AP     SUNNY     75  42  30 VRB7      30.13F                  
HUNTSVILLE AP  MOSUNNY   77  41  27 S9        30.13F                  
HUN NWS/UAH      N/A     75  44  32 SE6         N/A                   
MERIDIANVILLE  NOT AVBL                                               
VINEMONT AP    FAIR      75  39  27 SW7G14    30.15F                  
$$
 
ALZ008>010-232000-
NORTHEAST ALABAMA
  
CITY           SKY/WX    TMP DP  RH WIND       PRES   REMARKS
ALBERTVILLE    SUNNY     73  36  25 SW6       30.16F                  
FORT PAYNE     SUNNY     73  38  27 E6        30.15F                  
SCOTTSBORO AP  SUNNY     73  45  35 VRB7      30.16F                  
$$

TNZ076-096-097-232000-
SOUTHEASTERN MIDDLE TENNESSEE
  
CITY           SKY/WX    TMP DP  RH WIND       PRES   REMARKS
FAYETTEVILLE   SUNNY     73  45  35 S9G15     30.15F                  
TULLAHOMA      SUNNY     73  43  33 SW9G15    30.13F                  
WINCHESTER     SUNNY     75  41  29 SW8G15    30.13F                  
$$
 
...SURROUNDING SITES...
  
CITY           SKY/WX    TMP DP  RH WIND       PRES   REMARKS
ATLANTA        MOSUNNY   72  37  28 VRB5      30.17F                  
ANNISTON       SUNNY     77  41  27 NE5       30.15F                  
BIRMINGHAM     MOSUNNY   75  42  30 SE8       30.17F                  
CHATTANOOGA    MOSUNNY   75  39  27 SW7       30.16F                  
CORINTH        SUNNY     77  45  31 S17G25    30.06F                  
DALTON         SUNNY     73  37  26 SE5       30.17F                  
GADSDEN        SUNNY     76  41  28 S5        30.16F                  
GOLDEN TRNGL   SUNNY     78  47  33 S14G21    30.10F                  
HALEYVILLE     FAIR      75  47  36 S10G16    30.15F                  
JACKSON TN     SUNNY     77  53  43 S18G24    30.05F                  
MEMPHIS        MOSUNNY   79  56  45 S20G26    30.01F                  
NASHVILLE      MOSUNNY   78  44  29 S15G23    30.11F                  
OXFORD MS      MOSUNNY   77  54  44 S9G24     30.06F                  
ROME           SUNNY     74  38  27 CALM      30.16F                  
SAVANNAH       SUNNY     77  46  33 S12G21    30.07F                  
SELMER         SUNNY     75  48  38 S17G23    30.06F                  
TUPELO         SUNNY     79  48  33 S13G24    30.07F                  
TUSCALOOSA     SUNNY     77  44  30 S7        30.13F                  
$$

  
