ASUS43 KFSD 220002
RWRFSD

WEATHER ROUNDUP FOR SE SOUTH DAKOTA/SW MINNESOTA/NW IOWA
NATIONAL WEATHER SERVICE SIOUX FALLS SD
700 PM CDT FRI OCT 21 2022

NOTE: "FAIR" INDICATES FEW OR NO CLOUDS BELOW 12,000 FEET WITH NO
SIGNIFICANT WEATHER AND OR OBSTRUCTIONS TO VISIBILITY.


SDZ038>040-050-052>070-220100-
SOUTHEAST SOUTH DAKOTA
  
CITY           SKY/WX    TMP DP  RH WIND       PRES   REMARKS
BROOKINGS      CLEAR    N/A N/A N/A SE8       29.59F                  
CHAMBERLAIN    NOT AVBL                                               
HURON          PTCLDY    61  34  36 S5        29.55F                  
6HR MIN TEMP:  61; 6HR MAX TEMP:  67;                                

MADISON        CLEAR     59  32  36 SE6       29.60F                  
MITCHELL       CLEAR     59  32  36 SE5       29.57F                  
6HR MIN TEMP:  59; 6HR MAX TEMP:  69;                                

SIOUX FALLS    PTCLDY    55  36  48 NE5       29.60R                  
6HR MIN TEMP:  55; 6HR MAX TEMP:  73;                                

WINNER         CLEAR     61  34  36 E8        29.54F                  
YANKTON        HAZE      65  35  33 SE3       29.59S VSB 1/2          
$$

MNZ071-072-080-081-089-090-097-098-220100-
SOUTHWEST MINNESOTA
  
CITY           SKY/WX    TMP DP  RH WIND       PRES   REMARKS
FAIRMONT       PTCLDY    55  34  45 CALM      29.64R                  
JACKSON        PTCLDY    54  34  47 E3        29.64R                  
LUVERNE        CLEAR     57  34  41 CALM      29.62R                  
MARSHALL       PTCLDY    59  34  39 E7        29.61F                  
6HR MIN TEMP:  59; 6HR MAX TEMP:  65;                                

MONTEVIDEO     MOCLDY    55  34  44 CALM      29.61S HAZE             
REDWOOD FALLS  MOCLDY    59  35  40 CALM      29.63R                  
TRACY            N/A     54  32  43 CALM      29.62F                  
WINDOM         PTCLDY    52  34  50 CALM      29.63R                  
WORTHINGTON    PTCLDY    55  35  47 E5        29.64R                  
$$

IAZ001>003-012>014-020>022-031-032-NEZ013-014-SDZ071-220100-
NORTHWEST IOWA
  
CITY           SKY/WX    TMP DP  RH WIND       PRES   REMARKS
CHEROKEE       CLEAR     59  32  36 E5        29.60S                  
DENISON          N/A    N/A N/A N/A MISG        N/A                   
ESTHERVILLE    PTCLDY    59  37  44 E6        29.62R                  
LE MARS        CLEAR     61  34  36 NE5       29.58S                  
MAURICE        FAIR      63  34  34 E7        29.58S                  
SHELDON        PTCLDY    57  34  41 SE6       29.58F                  
SIOUX CITY     CLEAR     66  33  29 NE3       29.58F                  
6HR MIN TEMP:  66; 6HR MAX TEMP:  77;                                

SPENCER        PTCLDY    62  34  35 E7        29.62R                  
6HR MIN TEMP:  62; 6HR MAX TEMP:  74;                                

$$
 
ABBREVIATIONS USED IN REMARKS
   TC - TEMPERATURE IN CELSIUS
  WCI - WIND CHILL INDEX
   HX - HEAT INDEX
  VSB - VISIBILITY

  
