ASUS43 KFSD 220210
RWRSD 

WEATHER ROUNDUP FOR SOUTH DAKOTA
NATIONAL WEATHER SERVICE SIOUX FALLS SD
900 PM CDT FRI OCT 21 2022

NOTE: "FAIR" INDICATES FEW OR NO CLOUDS BELOW 12,000 FEET WITH NO
SIGNIFICANT WEATHER AND/OR OBSTRUCTIONS TO VISIBILITY.


SDZ001>005-009-010-012>017-220300-
NORTHWEST AND NORTH CENTRAL SOUTH DAKOTA
  
CITY           SKY/WX    TMP DP  RH WIND       PRES   REMARKS
BUFFALO          N/A     56  38  50 N16       29.50R                  
FAITH            N/A     57  34  41 SE15      29.45F                  
MOBRIDGE       MOCLDY    58  34  40 SE12      29.46F                  
$$
 
SDZ012>016-024>037-041>051-057-063-072>074-220300-
SOUTHWEST AND SOUTH CENTRAL SOUTH DAKOTA
  
CITY           SKY/WX    TMP DP  RH WIND       PRES   REMARKS
RAPID CTY ARPT PTCLDY    55  26  32 N12       29.47R                  
PIERRE         PTCLDY    57  36  45 SE12      29.46F                  
CUSTER         PTCLDY    55  17  22 NW5       29.58S                  
ELLSWORTH AFB  PTCLDY    61  24  24 N6        29.44F                  
PHILIP         PTCLDY    61  33  35 E6        29.43F                  
PINE RIDGE     CLEAR     57  21  24 VRB3      29.49F                  
SPEARFISH      FAIR      54  25  32 S13       29.52F                  
WINNER         CLEAR     53  34  48 SE13      29.51F                  
$$
 
SDZ004>011-016>023-039-040-220300-
NORTHEAST SOUTH DAKOTA
  
CITY           SKY/WX    TMP DP  RH WIND       PRES   REMARKS
ABERDEEN       PTCLDY    43  31  62 S9        29.54F                  
WATERTOWN      CLEAR     51  33  50 SE7       29.56F                  
BROOKINGS      CLEAR    N/A N/A N/A SE10      29.59                   
SISSETON         N/A     53  34  48 S8        29.55F                  
$$
 
SDZ017-020-022-023-036>040-048>070-220300-
SOUTHEAST SOUTH DAKOTA
  
CITY           SKY/WX    TMP DP  RH WIND       PRES   REMARKS
SIOUX FALLS    PTCLDY    53  35  50 E7        29.59F                  
HURON          CLEAR     53  33  46 SE7       29.54F                  
CHAMBERLAIN    CLEAR     53  35  51 SE12      29.52F                  
MADISON        CLEAR     52  32  46 SE7       29.59S                  
MITCHELL       CLEAR     49  32  52 SE6       29.56F                  
YANKTON        CLEAR     58  34  40 SE3       29.58F                  
$$
 
ABBREVIATIONS USED IN REMARKS
   TC - TEMPERATURE IN CELSIUS
  WCI - WIND CHILL INDEX
   HX - HEAT INDEX
  VSB - VISIBILITY

  
