ASUS43 KFSD 220110
RWRFSD

WEATHER ROUNDUP FOR SE SOUTH DAKOTA/SW MINNESOTA/NW IOWA
NATIONAL WEATHER SERVICE SIOUX FALLS SD
800 PM CDT FRI OCT 21 2022

NOTE: "FAIR" INDICATES FEW OR NO CLOUDS BELOW 12,000 FEET WITH NO
SIGNIFICANT WEATHER AND OR OBSTRUCTIONS TO VISIBILITY.


SDZ038>040-050-052>070-220200-
SOUTHEAST SOUTH DAKOTA
  
CITY           SKY/WX    TMP DP  RH WIND       PRES   REMARKS
BROOKINGS      PTCLDY   N/A N/A N/A E7          N/A                   
CHAMBERLAIN    CLEAR     55  35  46 SE9       29.55S                  
HURON          CLEAR     55  33  43 SE7       29.55S                  
MADISON        CLEAR     52  30  43 SE9       29.59F                  
MITCHELL       CLEAR     60  34  37 S5        29.57S                  
SIOUX FALLS    PTCLDY    51  35  54 E5        29.60S                  
WINNER         CLEAR     55  34  45 SE12      29.53F                  
YANKTON        PTCLDY    60  36  40 S5        29.59S                  
$$

MNZ071-072-080-081-089-090-097-098-220200-
SOUTHWEST MINNESOTA
  
CITY           SKY/WX    TMP DP  RH WIND       PRES   REMARKS
FAIRMONT       CLEAR     50  33  52 CALM      29.64S HAZE             
JACKSON        CLEAR     50  34  53 E5        29.65S                  
LUVERNE        CLEAR     52  34  50 E3        29.62F                  
MARSHALL       CLEAR     53  33  46 SE5       29.62R                  
MONTEVIDEO     PTCLDY    54  34  47 SE5       29.61S HAZE             
REDWOOD FALLS  PTCLDY    56  34  43 CALM      29.61F                  
TRACY            N/A     54  32  43 S7        29.61F                  
WINDOM         CLEAR     46  34  61 CALM      29.63S                  
WORTHINGTON    CLEAR     50  35  56 E5        29.64S                  
$$

IAZ001>003-012>014-020>022-031-032-NEZ013-014-SDZ071-220200-
NORTHWEST IOWA
  
CITY           SKY/WX    TMP DP  RH WIND       PRES   REMARKS
CHEROKEE       CLEAR     56  32  40 E3        29.60S                  
DENISON          N/A     59  32  36 MISG      29.60                   
ESTHERVILLE    CLEAR     50  35  56 NE7       29.64R                  
LE MARS        CLEAR     54  32  43 CALM      29.58S                  
MAURICE        FAIR      57  34  41 E8        29.59R                  
SHELDON        CLEAR     50  32  50 E6        29.59S                  
SIOUX CITY     CLEAR     54  33  45 CALM      29.59R HAZE             
SPENCER        CLEAR     50  31  48 NE8       29.62S                  
STORM LAKE     CLEAR     55  32  41 E9        29.61F                  
$$
 
ABBREVIATIONS USED IN REMARKS
   TC - TEMPERATURE IN CELSIUS
  WCI - WIND CHILL INDEX
   HX - HEAT INDEX
  VSB - VISIBILITY

  
