ASUS43 KFSD 220210
RWRFSD

WEATHER ROUNDUP FOR SE SOUTH DAKOTA/SW MINNESOTA/NW IOWA
NATIONAL WEATHER SERVICE SIOUX FALLS SD
900 PM CDT FRI OCT 21 2022

NOTE: "FAIR" INDICATES FEW OR NO CLOUDS BELOW 12,000 FEET WITH NO
SIGNIFICANT WEATHER AND OR OBSTRUCTIONS TO VISIBILITY.


SDZ038>040-050-052>070-220300-
SOUTHEAST SOUTH DAKOTA
  
CITY           SKY/WX    TMP DP  RH WIND       PRES   REMARKS
BROOKINGS      CLEAR    N/A N/A N/A SE10      29.59                   
CHAMBERLAIN    CLEAR     53  35  51 SE12      29.52F                  
HURON          CLEAR     53  33  46 SE7       29.54F                  
MADISON        CLEAR     52  32  46 SE7       29.59S                  
MITCHELL       CLEAR     49  32  52 SE6       29.56F                  
SIOUX FALLS    PTCLDY    53  35  50 E7        29.59F                  
WINNER         CLEAR     53  34  48 SE13      29.51F                  
YANKTON        CLEAR     58  34  40 SE3       29.58F                  
$$

MNZ071-072-080-081-089-090-097-098-220300-
SOUTHWEST MINNESOTA
  
CITY           SKY/WX    TMP DP  RH WIND       PRES   REMARKS
FAIRMONT       CLEAR     49  35  58 E3        29.64S                  
JACKSON        CLEAR     46  34  61 E6        29.64S                  
LUVERNE        CLEAR     50  34  53 CALM      29.60F                  
MARSHALL       CLEAR     48  33  56 S8        29.61F                  
MONTEVIDEO     CLEAR     46  34  61 SE7       29.59F HAZE             
REDWOOD FALLS  CLEAR     53  33  46 SE5       29.62R                  
TRACY            N/A     51  31  46 CALM      29.62F                  
WINDOM         CLEAR     46  34  61 SE3       29.62F                  
WORTHINGTON    CLEAR     48  35  60 E6        29.63F                  
$$

IAZ001>003-012>014-020>022-031-032-NEZ013-014-SDZ071-220300-
NORTHWEST IOWA
  
CITY           SKY/WX    TMP DP  RH WIND       PRES   REMARKS
CHEROKEE       CLEAR     53  32  45 CALM      29.60S                  
DENISON          N/A    N/A N/A N/A MISG        N/A                   
ESTHERVILLE    CLEAR     47  34  60 E7        29.63F                  
LE MARS        PTCLDY    48  32  53 CALM      29.58S                  
MAURICE        FAIR      55  34  44 E10       29.58S                  
SHELDON        CLEAR     50  34  53 NE10      29.59F                  
SIOUX CITY     CLEAR     52  32  46 CALM      29.58F HAZE             
SPENCER        CLEAR     47  29  49 NE8       29.62S                  
STORM LAKE     CLEAR     55  32  41 E7        29.61S                  
$$
 
ABBREVIATIONS USED IN REMARKS
   TC - TEMPERATURE IN CELSIUS
  WCI - WIND CHILL INDEX
   HX - HEAT INDEX
  VSB - VISIBILITY

  
