ASUS41 KLWX 231913
RWRLWX

REGIONAL WEATHER ROUNDUP
NATIONAL WEATHER SERVICE BALTIMORE MD/WASHINGTON DC
300 PM EDT SUN OCT 23 2022

Note: "FAIR" indicates few or no clouds below 12,000 feet
with no significant weather and/or obstructions to visibility.
 TC=TEMPERATURE CELSIUS

 * =Non NWS site. Station does not report precipitation (e.g. rain,
    snow, etc.), thunder, or fog.

DCZ001-MDZ009-015-VAZ040>042-051-053>054-232000-
WASHINGTON METRO
  
CITY           SKY/WX    TMP DP  RH WIND       PRES   REMARKS
WASHINGTON NAT PTSUNNY   67  53  61 N8        30.20F                  
DULLES         PTSUNNY   65  52  62 N12       30.21F                  
ANDREWS AFB    CLOUDY    63  51  66 NE9       30.17F                  
FT BELVOIR     MOSUNNY   65  53  65 N3        30.18F                  
QUANTICO       CLOUDY    65  32  29 N10       30.20F                  
LEESBURG*      PTSUNNY   64  55  72 NE8       30.23F                  
MANASSAS*      CLOUDY    66  54  65 N14       30.21F                  
GAITHERSBURG*  PTSUNNY   63  52  67 VRB3      30.22F                  

$$

MDZ006>007-011-014-232000-
BALTIMORE METRO
  
CITY           SKY/WX    TMP DP  RH WIND       PRES   REMARKS
BWI AIRPORT    CLOUDY    66  50  56 N7G17     30.19F                  
BALT INNER HAR   N/A     67  49  52 MISG      30.21F                  
MARTIN STATE   CLOUDY    64  52  63 N6        30.22S                  
ANNAPOLIS      PTSUNNY   63  51  65 N9        30.19F                  
FORT MEADE*    CLOUDY    63  46  55 N5        30.22F                  

$$

MDZ012-015-019>023-232000-
MARYLAND EASTERN SHORE
  
CITY           SKY/WX    TMP DP  RH WIND       PRES   REMARKS
OCEAN CITY     NOT AVBL                                               
SALISBURY      LGT RAIN  62  59  90 N9G18     30.13S FOG              
CAMBRIDGE*     CLOUDY    61  61 100 N8        30.16S                  
EASTON*        PTSUNNY   61  61 100 N5        30.21F                  

$$

MDZ017>025-232000-
SOUTHERN MARYLAND
  
CITY           SKY/WX    TMP DP  RH WIND       PRES   REMARKS
PATUXENT RIVER CLOUDY    64  54  69 N12       30.16F                  
ST INIGOES     CLOUDY    65  54  67 NE7       30.15F                  
LEONARDTOWN*   CLOUDY    59  52  77 N3        30.18F                  

$$

MDZ003>005-232000-
NORTH CENTRAL MARYLAND
  
CITY           SKY/WX    TMP DP  RH WIND       PRES   REMARKS
FREDERICK*     PTSUNNY   66  54  63 NE10      30.23F                  
HAGERSTOWN APT CLOUDY    64  50  60 N10       30.24F                  
WESTMINSTER*   CLOUDY    63  50  63 N3        30.23F                  

$$

MDZ501>502-232000-
WESTERN MARYLAND
  
CITY           SKY/WX    TMP DP  RH WIND       PRES   REMARKS
OAKLAND*       NOT AVBL                                               
CUMBERLAND*    MOSUNNY   64  42  45 SW5       30.29F                  

$$

VAZ025>031-232000-
SHENANDOAH VALLEY
  
CITY           SKY/WX    TMP DP  RH WIND       PRES   REMARKS
WINCHESTER*    CLOUDY    61  46  59 NE3       30.22F                  
FRONT ROYAL*   CLOUDY    61  45  55 CALM      30.23F                  
LURAY*         CLOUDY    63  48  59 NE7       30.22F                  
NEW MARKET*    MOSUNNY   67  33  28 N6        30.22F                  
STAUNTON*      CLOUDY    65  42  44 N6        30.24F                  
WAYNESBORO*    CLOUDY    60  42  50 MISG      30.23F                  

$$

WVZ021-048>050-054>055-232000-
EASTERN WEST VIRGINIA PANHANDLE
  
CITY           SKY/WX    TMP DP  RH WIND       PRES   REMARKS
MARTINSBURG    CLOUDY    64  46  52 N6        30.23F                  
PETERSBURG*    NOT AVBL                                               

$$

VAZ036>039-050-232000-
CENTRAL FOOTHILLS
  
CITY           SKY/WX    TMP DP  RH WIND       PRES   REMARKS
CHARLOTTESVILL CLOUDY    68  48  48 NE9       30.19F                  
CULPEPER*      CLOUDY    66  50  55 N8        30.22F                  
ORANGE*        CLOUDY    63  50  63 N6        30.22F                  
GORDONSVILLE*  NOT AVBL                                               
WARRENTON*     CLOUDY    66  51  58 N8        30.24F                  

$$

VAZ055>057-232000-
NORTH AND CENTRAL PIEDMONT
  
CITY           SKY/WX    TMP DP  RH WIND       PRES   REMARKS
FREDERICKSBRG* DRIZZLE   63  54  73 N3        30.18F                  
STAFFORD*      CLOUDY    67  53  61 NW8       30.22F                  

$$

NCZ024-NYZ072-PAZ021-071-VAZ022-071-232000-
OTHER REGIONAL OBSERVATIONS
  
CITY           SKY/WX    TMP DP  RH WIND       PRES   REMARKS
NEW YORK CITY  CLOUDY    61  46  57 NE7       30.28F                  
PHILADELPHIA   CLOUDY    62  55  77 NE14      30.22F                  
PITTSBURGH     MOSUNNY   70  39  32 E6        30.19F                  
ROANOKE        SUNNY     70  37  29 NE13      30.22F                  
RICHMOND       LGT RAIN  58  55  90 N10       30.17F FOG              
RALEIGH        PTSUNNY   69  43  38 N9        30.16F                  

$$

ANZ530>537-232000-
MARINE OBSERVATIONS
  
STATION/POSITION TIME  TEMP    WIND        PRES
                       AIR SEA DIR/SP/G
                 (UTC) (F)     (DEG/KT/KT) (MB)
THOMAS PT LIGHT  1900   61     340/ 17/ 19 1022.8F
TOLCHESTER       1830      58   30/  5/  8 1022.6
GOOSES REEF      1848   58 62  350/ 19/ 25 1023.5F
COVE POINT       1824          290/ 11/ 15 1022.0
BALT HARBOR      1830      62   40/  9/ 12 1022.1
BALT KEY BRIDGE  1824           20/  7/  8 1022.6
ANNAPOLIS USNA   1830      64  340/  9/ 13 1022.1
ANNAPOLIS CBIBS  1848   60 60   10/ 14/ 17 1023.4F
WASH DC CHANNEL  1830      60   10/  2/  8 1022.1
DAHLGREN         1830      61  350/  3/  7 1021.3
LEWISETTA        1830      61  360/  6/ 10 1021.3
SOLOMONS ISLAND  1830      63  350/ 10/ 13 1020.1
PINEY POINT      1824           10/ 11/ 14   N/A
POTOMAC BUOY     1848   58     350/ 12/ 17   N/A
CAMBRIDGE PIER   1830      59  350/  9/ 11 1021.1
BISHOPS HEAD     1830      59  350/  8/ 12 1020.7
CHESAPEAKE CITY  1830      59   70/  9/ 12 1022.9

$$

  
