ASUS43 KTOP 220059
RWRKS 

WEATHER ROUNDUP FOR KANSAS
NATIONAL WEATHER SERVICE GOODLAND KS
800 PM CDT FRI OCT 21 2022

NOTE:  "FAIR" INDICATES FEW OR NO CLOUDS BELOW 12,000 FEET WITH NO
SIGNIFICANT WEATHER AND/OR OBSTRUCTIONS TO VISIBILITY.

KSZ001>006-013>018-027>032-041>047-220200-
NORTHWEST KANSAS
  
CITY           SKY/WX    TMP DP  RH WIND       PRES   REMARKS
GOODLAND       CLEAR     54  19  25 S7        29.66S                  
HAYS           CLEAR     68  33  27 MISG      29.61R                  
HILL CITY      CLEAR     59  30  33 N8        29.62S                  
RUSSELL        CLEAR     69  33  26 S7        29.59R                  
$$

KSZ061>065-074>080-084>089-220200-
SOUTHWEST KANSAS
  
CITY           SKY/WX    TMP DP  RH WIND       PRES   REMARKS
DODGE CITY     CLEAR     71  26  18 SW3       29.64R                  
GARDEN CITY    CLEAR     68  25  19 S6        29.64S                  
GREAT BEND     PTCLDY    66  38  35 CALM      29.62R                  
LIBERAL        CLEAR     75  28  17 SE6       29.66R                  
$$

KSZ066>073-081>083-090>101-220200-
SOUTHEAST KANSAS
  
CITY           SKY/WX    TMP DP  RH WIND       PRES   REMARKS
CHANUTE        PTCLDY    76  42  29 S12       29.68R                  
COFFEYVILLE    MOCLDY    77  42  28 S13       29.68R                  
HUTCHINSON     MOCLDY    73  34  23 SE12      29.60S                  
NEWTON         MOCLDY    76  34  21 S15       29.63S                  
PARSONS        MOCLDY    77  40  26 S8        29.70R                  
WICHITA INTL   MOCLDY    78  28  16 S13       29.63R                  
WICHITA JABRA  MOCLDY    77  34  21 S10       29.64R                  
WICHITA MCCONL MOCLDY    77  32  19 S8        29.62R                  
WINFIELD       PTCLDY    81  35  19 S13       29.67R                  
$$

KSZ007>012-019>026-033>040-048>060-102>105-220200-
NORTHEAST KANSAS
  
CITY           SKY/WX    TMP DP  RH WIND       PRES   REMARKS
CONCORDIA      CLEAR     70  32  24 SE3       29.59R                  
EMPORIA        PTCLDY    73  39  29 S12       29.64R                  
LAWRENCE       PTCLDY    74  41  30 S9        29.63R                  
MANHATTAN      CLEAR     70  37  29 SW6       29.60R                  
OLATHE IND     PTCLDY    74  41  30 S10       29.67R                  
OLATHE EXE     PTCLDY    74  40  29 S9        29.67R                  
SALINA         PTCLDY    63  35  35 SE7       29.59S                  
TOPEKA BILLARD CLEAR     74  40  29 S6        29.61R                  
TOPEKA FORBES  CLEAR     76  44  32 S9        29.63R                  
$$
  
