ASUS43 KTOP 212359
RWRKS 

WEATHER ROUNDUP FOR KANSAS
NATIONAL WEATHER SERVICE GOODLAND KS
700 PM CDT FRI OCT 21 2022

NOTE:  "FAIR" INDICATES FEW OR NO CLOUDS BELOW 12,000 FEET WITH NO
SIGNIFICANT WEATHER AND/OR OBSTRUCTIONS TO VISIBILITY.

KSZ001>006-013>018-027>032-041>047-220100-
NORTHWEST KANSAS
  
CITY           SKY/WX    TMP DP  RH WIND       PRES   REMARKS
GOODLAND       CLEAR     63  20  19 SE9       29.66F                  
6HR MIN TEMP:  63; 6HR MAX TEMP:  80;                                

HAYS           CLEAR     71  30  21 S10       29.60S                  
HILL CITY      PTCLDY    66  31  27 N8        29.62S                  
6HR MIN TEMP:  66; 6HR MAX TEMP:  88;                                

RUSSELL        PTCLDY    72  33  24 S8        29.58S                  
6HR MIN TEMP:  72; 6HR MAX TEMP:  89;                                

$$

KSZ061>065-074>080-084>089-220100-
SOUTHWEST KANSAS
  
CITY           SKY/WX    TMP DP  RH WIND       PRES   REMARKS
DODGE CITY     PTCLDY    74  30  19 CALM      29.63F                  
6HR MIN TEMP:  74; 6HR MAX TEMP:  87;                                

GARDEN CITY    CLEAR     73  27  18 E5        29.64S                  
6HR MIN TEMP:  73; 6HR MAX TEMP:  86;                                

GREAT BEND     PTCLDY    76  38  25 S6        29.61F                  
LIBERAL        CLEAR     75  27  17 N5        29.65F                  
$$

KSZ066>073-081>083-090>101-220100-
SOUTHEAST KANSAS
  
CITY           SKY/WX    TMP DP  RH WIND       PRES   REMARKS
CHANUTE        PTCLDY    78  42  27 S13       29.67F                  
6HR MIN TEMP:  78; 6HR MAX TEMP:  88;                                

COFFEYVILLE    MOCLDY    78  43  28 SE13      29.67F                  
6HR MIN TEMP:  78; 6HR MAX TEMP:  87;                                

HUTCHINSON     PTCLDY    75  34  22 SE8       29.60F                  
6HR MIN TEMP:  75; 6HR MAX TEMP:  88;                                

NEWTON         PTCLDY    75  34  22 S10       29.63F                  
PARSONS        PTCLDY    78  41  26 S7        29.69S                  
6HR MIN TEMP:  78; 6HR MAX TEMP:  86;                                

WICHITA INTL   MOCLDY    79  34  19 SE10      29.61F                  
6HR MIN TEMP:  79; 6HR MAX TEMP:  88;                                

WICHITA JABRA  MOCLDY    77  35  21 SE7       29.63F                  
6HR MIN TEMP:  77; 6HR MAX TEMP:  88;                                

WICHITA MCCONL MOCLDY    79  35  20 S3        29.60F                  
WINFIELD       MOCLDY    84  32  15 S13G23    29.66R                  
6HR MIN TEMP:  84; 6HR MAX TEMP:  91;                                

$$

KSZ007>012-019>026-033>040-048>060-102>105-220100-
NORTHEAST KANSAS
  
CITY           SKY/WX    TMP DP  RH WIND       PRES   REMARKS
CONCORDIA      CLEAR     77  31  18 CALM      29.58F                  
6HR MIN TEMP:  75; 6HR MAX TEMP:  86;                                

EMPORIA        PTCLDY    77  38  24 S10       29.63R                  
6HR MIN TEMP:  77; 6HR MAX TEMP:  90;                                

LAWRENCE       PTCLDY    74  40  29 SE8       29.62S                  
6HR MIN TEMP:  74; 6HR MAX TEMP:  87;                                

MANHATTAN      CLEAR     70  38  31 S3        29.58S                  
6HR MIN TEMP:  70; 6HR MAX TEMP:  90;                                

OLATHE IND     PTCLDY    75  40  28 S9        29.66S                  
6HR MIN TEMP:  75; 6HR MAX TEMP:  86;                                

OLATHE EXE     PTCLDY    78  39  24 S12G18    29.65S                  
6HR MIN TEMP:  78; 6HR MAX TEMP:  86;                                

SALINA         CLEAR     74  35  24 S3        29.59S                  
6HR MIN TEMP:  74; 6HR MAX TEMP:  89;                                

TOPEKA BILLARD PTCLDY    79  40  24 S7        29.60R                  
6HR MIN TEMP:  79; 6HR MAX TEMP:  90;                                

TOPEKA FORBES  PTCLDY    75  44  33 S8        29.62R                  
6HR MIN TEMP:  75; 6HR MAX TEMP:  89;                                

$$
  
