ASUS43 KGLD 212259
RWRGLD

GOODLAND FORECAST AREA HOURLY WEATHER ROUNDUP
NATIONAL WEATHER SERVICE GOODLAND KS
500 PM MDT FRI OCT 21 2022

...OFFICIAL OBSERVATIONS...
  
CITY           SKY/WX    TMP DP  RH WIND       PRES   REMARKS
GOODLAND KS    SUNNY     76  18  11 SE6       29.68F                  
HILL CITY KS   CLEAR     83  29  14 N3        29.62F                  
IMPERIAL NEB   CLEAR     78  21  12 S14G20    29.62F                  
MCCOOK NEB     PTCLDY    77  24  14 S6        29.63F                  
AKRON CO       SUNNY     75  17  11 SW5       29.71F                  
BURLINGTON CO  SUNNY     77  17  10 SE10      29.71F                  
LIMON CO       SUNNY     74  10   8 SW5       29.75F                  
$$

...UNOFFICIAL OBSERVATIONS...
  
CITY           SKY/WX    TMP DP  RH WIND       PRES   REMARKS
COLBY KS       CLEAR     77  20  12 CALM      29.69F                  
$$
  
