ASUS44 KLUB 220210
RWRLUB
WEST TEXAS WEATHER ROUNDUP
NATIONAL WEATHER SERVICE LUBBOCK TX
900 PM CDT FRI OCT 21 2022

NOTE: "FAIR" INDICATES FEW OR NO CLOUDS BELOW 12,000 FEET WITH NO
SIGNIFICANT WEATHER AND/OR OBSTRUCTIONS TO VISIBILITY.

TXZ004-006>008-010-012-014-016-OKZ002-220300-
TEXAS PANHANDLE/OKLAHOMA PANHANDLE
  
CITY           SKY/WX    TMP DP  RH WIND       PRES   REMARKS
AMARILLO       CLEAR     63  33  32 SW10      29.74R                  
BORGER         CLEAR     75  29  18 S9G20     29.70R                  
CANADIAN       CLEAR     63  31  30 SW8       29.66S                  
DALHART        CLEAR     54  30  40 SW9       29.73S                  
DUMAS          CLEAR     65  28  24 SW13      29.72S                  
GUYMON         CLEAR     65  21  18 W3        29.66S                  
HEREFORD       CLEAR     71  32  23 SW20      29.79S                  
PAMPA          CLEAR     66  37  34 S10       29.72S                  
PERRYTON       CLEAR     58  19  21 SW6       29.66S                  
$$

TXZ026-029-035-045-048-220300-
SOUTHERN PANHANDLE/SOUTH PLAINS/ROLLING PLAINS
  
CITY           SKY/WX    TMP DP  RH WIND       PRES   REMARKS
CHILDRESS      CLEAR     72  38  29 S14       29.72F                  
SEMINOLE       CLEAR     67  44  42 SW7       29.92S                  
LUBBOCK        CLEAR     70  37  29 SW12      29.82R                  
PLAINVIEW      CLEAR     63  34  34 SW8       29.80S                  
SNYDER         CLEAR     72  39  30 S12       29.84S                  
$$

TXZ052-054-060>062-072-078-127-140-154-169-220300-
PERMIAN BASIN/CONCHO VALLEY/BIG COUNTRY/EDWARDS PLATEAU  
  
CITY           SKY/WX    TMP DP  RH WIND       PRES   REMARKS
ABILENE        CLEAR     75  42  30 S9        29.83R                  
BIG SPRING     CLEAR     70  43  37 S10       29.86R                  
BRADY          CLEAR     73  43  33 S12       29.89S                  
JUNCTION       CLEAR     70  46  42 S8        29.93R                  
MIDLAND        CLEAR     70  48  45 S9        29.88R                  
ODESSA         CLEAR     70  48  45 S5        29.89R                  
SAN ANGELO     CLEAR     72  46  39 S10       29.87R                  
SONORA           N/A     72  48  43 CALM      29.97S                  
SWEETWATER     CLEAR     72  38  29 SW14      29.87S                  
WINK           CLEAR     68  47  46 S7        29.86R                  
$$

TXZ055-058-074-075-080-082-220300-
FAR WEST/SOUTHWEST MOUNTAINS/TRANS PECOS
  
CITY           SKY/WX    TMP DP  RH WIND       PRES   REMARKS
ALPINE         CLEAR     61  45  55 SW5       30.09R                  
DRYDEN           N/A     66  55  67 E3        29.94R                  
EL PASO        CLEAR     74  47  38 SW5       29.96R                  
FORT STOCKTON  CLEAR     70  51  51 S7        29.92R                  
GUADALUPE PASS PTCLDY    65  43  44 SW25      30.04R                  
MARFA          CLEAR     58  46  64 CALM      30.08R                  
PECOS          CLEAR     72  48  42 SW10      29.89R                  
PRESIDIO       FAIR      71  54  54 N5        29.96R                  
$$

TXZ014-016-019-021>030-083-220300
TEXAS TECH WEST TEXAS MESONET/TEXAS PANHANDLE/NORTHERN SOUTH PLAINS
  
CITY           SKY/WX    TMP DP  RH WIND       PRES   REMARKS
ABERNATHY 5ENE   N/A     66  40  39 SW13      29.83S                  
AMARILLO 9NNE    N/A     70  34  26 SW12      29.73F                  
AMARILLO 7SSE    N/A     66  33  29 SW10      29.77S                  
AMHERST 1NE      N/A     66  34  30 SW12      29.84S                  
BOOTLEG 11WNW    N/A     62  35  35 SW14      29.85F                  
CANADIAN 6E      N/A     68  33  27 S8        29.65S                  
CAPROCK CYN SP   N/A     72  33  23 SW10      29.75S                  
CHILDRESS 2NNE   N/A     73  40  30 S15       29.72F                  
CLARENDON 2WSW   N/A     61  36  39 SW9       29.73S                  
CLAUDE 12SW      N/A     73  29  20 SW9       29.76S                  
DIMMITT 2NE      N/A     66  33  29 SW12      29.82S                  
FLOYDADA 2NNE    N/A     67  37  32 SW13      29.82S                  
FRIONA 2NE       N/A     68  33  27 SW16      29.82S                  
GOODLETT 3W      N/A     75  40  27 S15       29.71S                  
HART 3N          N/A     60  39  45 SW5       29.82S                  
HEREFORD 2NW     N/A     67  32  27 SW12      29.80S                  
MCLEAN 1E        N/A     66  36  33 SW12      29.71S                  
MEMPHIS 1NE      N/A     74  37  26 S6        29.71S                  
MULESHOE 2SSW    N/A     64  32  30 SW10      29.84S                  
OLTON 6S         N/A     64  36  35 SW12      29.82S                  
PALO DURO SP     N/A     69  30  23 SW10      29.77F                  
PAMPA 2E         N/A     62  33  33 S10       29.73S                  
PLAINVIEW 1S     N/A     65  35  33 SW9       29.81S                  
SILVERTON 7ESE   N/A     67  33  28 SW12      29.77F                  
TULIA 2ENE       N/A     65  36  33 SW14      29.80S                  
TURKEY 2WSW      N/A     64  38  37 SW8       29.73S                  
UMBARGER 3NNE    N/A     64  34  32 SW10      29.79S                  
$$

TXZ033>036-039>041-045>048-220300
TEXAS TECH WEST TEXAS MESONET/SOUTH PLAINS  
  
CITY           SKY/WX    TMP DP  RH WIND       PRES   REMARKS
AIKEN 3WSW       N/A     61  38  41 SW12      29.82S                  
ANDREWS 2NE      N/A     67  44  43 S7        29.88S                  
ANTON 6SSW       N/A     65  39  38 SW9       29.84R                  
BROWNFIELD 2S    N/A     64  40  41 SW12      29.86S                  
DENVR CTY 7WNW   N/A     62  45  52 SW9       29.89S                  
GAIL 2ESE        N/A     65  43  44 S7        29.85R                  
LAMESA 2SE       N/A     62  43  49 S8        29.87S                  
LUBBOCK 3WNW     N/A     70  36  28 SW7       29.84R                  
MORTON 1ENE      N/A     66  38  35 SW10      29.87S                  
ODONNELL 1N      N/A     65  40  39 SW8       29.86S                  
PLAINS 3N        N/A     62  45  53 SW5       29.89S                  
RALLS 1SE        N/A     63  39  41 SW9       29.83S                  
REESE CENTER     N/A     65  38  37 SW10      29.85R                  
SEAGRAVES 1SW    N/A     61  44  52 SW9       29.88R                  
SEMINOLE 2NNE    N/A     69  42  37 SW8       29.88S                  
SLATON 2NE       N/A     69  39  33 SW16      29.83S                  
SNYDER 3E        N/A     70  42  36 S12       29.84R                  
SUNDOWN 8SW      N/A     63  42  44 SW12      29.87S                  
TAHOKA 3NNE      N/A     63  42  46 SW9       29.85S                  
WOLFFORTH 6SSW   N/A     63  41  44 SW12      29.85S                  
$$

TXZ031-032-036>038-042>044-220300-
TEXAS TECH WEST TEXAS MESONET/ROLLING PLAINS 
  
CITY           SKY/WX    TMP DP  RH WIND       PRES   REMARKS
ASPERMONT 3NE    N/A     71  39  30 S10       29.79R                  
FLUVANNA 3WNW    N/A     67  42  39 S12       29.84S                  
GRAHAM 5SSW      N/A     71  38  30 SW14      29.84S                  
GUTHRIE 10WSW    N/A     73  36  26 S14       29.77S                  
HASKELL 1NW      N/A     71  40  32 S8        29.78S                  
JAYTON 1SSE      N/A     67  39  35 S8        29.80R                  
KNOX CITY 3NW    N/A     72  41  32 S13       29.76S                  
LK A HENRY 1NW   N/A     71  44  37 SW8       29.82R                  
NORTHFIELD 1S    N/A     72  37  28 S14       29.72F                  
ODELL 4ENE       N/A     74  41  30 S15       29.73S                  
PADUCAH 10SW     N/A     68  39  34 S12       29.78S                  
POST 1NE         N/A     71  38  29 SW9       29.81S                  
RRING SPRGS 3N   N/A     64  39  39 S10       29.79R                  
SEYMOUR 3NW      N/A     71  37  28 S9        29.76S                  
SPUR 1W          N/A     66  40  37 SW7       29.79R                  
WEINERT 2NNE     N/A     74  38  26 S13       29.78S                  
WHITE RVR 6NE    N/A     67  40  38 SW8       29.81R                  
$$

TXZ052-054-060>062-072-078-127-140-154-169-220300-
TEXAS TECH WEST TEXAS MESONET/PERMIAN BASIN/
CONCHO VALLEY/BIG COUNTRY/EDWARDS PLATEAU
  
CITY           SKY/WX    TMP DP  RH WIND       PRES   REMARKS
COYANOSA 2N      N/A     68  50  52 S9        29.89S                  
JUNCTION 1SSW    N/A     69  46  43 SW5       29.94S                  
MERTZON 3NNE     N/A     69  48  47 S8        29.91S                  
SAN ANGELO 7NW   N/A     73  49  43 SW8       29.88S                  
STRLNG CT 4WSW   N/A     73  48  42 S12       29.90R                  
ST LAWRNCE 5SW   N/A     69  51  54 S14       29.91R                  
SWEETWATR 11SW   N/A     69  40  34 S13       29.88S                  
WALL 1E          N/A     72  46  40 S12       29.90S                  
$$

TXZ055-058-074-075-080-082-220300-
TEXAS TECH WEST TEXAS MESONET/FAR WEST/SOUTHWEST MOUNTAINS/TRANS PECOS
  
CITY           SKY/WX    TMP DP  RH WIND       PRES   REMARKS
PRSMN GAP BBNP   N/A     76  44  32 SE3       29.95R                  
GUADLPE MTN NP   N/A     68  43  40 W20G31    30.05R                  
$$
  
