ASUS44 KFWD 220110
RWRFWD
NORTH TEXAS HOURLY WEATHER ROUNDUP
NATIONAL WEATHER SERVICE FORT WORTH TX
800 PM CDT FRI OCT 21 2022

NOTE: "FAIR" INDICATES FEW OR NO CLOUDS BELOW 12,000 FEET WITH NO
SIGNIFICANT WEATHER AND/OR OBSTRUCTIONS TO VISIBILITY.

TXZ118-119-220200-
DALLAS/FORT WORTH METROPLEX
  
CITY           SKY/WX    TMP DP  RH WIND       PRES   REMARKS
DFW AIRPORT    CLEAR     81  47  30 S15G26    29.80R                  
DALLAS LOVE    CLEAR     81  47  30 S14G21    29.81R                  
FTW MEACHAM    CLEAR     80  48  32 S15       29.80R                  
DAL-EXECUTIVE  CLEAR     79  48  33 S13       29.82R                  
FTW-ALLIANCE   CLEAR     80  46  30 S16       29.79R                  
FTW-NAS-JRB    CLEAR     83  49  30 S17G23    29.80R                  
FTW-SPINKS     CLEAR     79  46  30 S15       29.84R                  
ARLINGTON      CLEAR     81  47  30 S12       29.82R                  
GRAND PRAIRIE  CLEAR     81  46  30 S13G18    29.83R                  
ADDISON        CLEAR     81  45  28 S14G21    29.81R                  
MESQUITE       CLEAR     73  46  38 SE7       29.84R                  
LANCASTER      CLEAR     78  46  31 S8        29.84R                  
$$

TXZ091>094-102>105-117-120-121-131>134-220200-
NORTH CENTRAL TEXAS
  
CITY           SKY/WX    TMP DP  RH WIND       PRES   REMARKS
SHRMAN/DENISON CLEAR     78  44  29 S14       29.81R                  
GAINESVILLE    CLEAR     74  42  31 S8        29.80R                  
BOWIE          CLEAR     77  38  25 S7        29.78R                  
BRIDGEPORT     CLEAR     79  39  24 S7        29.80R                  
DECATUR        CLEAR     79  36  21 S8        29.80R                  
DENTON         CLEAR     79  44  28 S12       29.80R                  
MCKINNEY       CLEAR     78  46  32 S15       29.81R                  
BONHAM         CLEAR     74  47  38 S9        29.82R                  
GREENVILLE     CLEAR     71  49  46 S9        29.84R                  
ROCKWALL       CLEAR     77  48  35 S9        29.83S                  
TERRELL        CLEAR     74  46  36 SE9       29.85R                  
WAXAHACHIE     CLEAR     78  48  34 S12       29.85S                  
CLEBURNE       CLEAR     79  46  31 S14       29.84R                  
GRANBURY       CLEAR     80  40  23 S10       29.82R                  
$$

TXZ083>090-098>101-113>116-127>130-139>142-154-155-220200-
WESTERN NORTH TEXAS
  
CITY           SKY/WX    TMP DP  RH WIND       PRES   REMARKS
WICHITA FALLS  CLEAR     78  37  22 S14       29.73R                  
WF-KICKAPOO    CLEAR     82  35  18 S12G21    29.75R                  
VERNON         CLEAR     78  37  22 SW8       29.73R                  
ABILENE        CLEAR     79  39  23 S9        29.82S                  
ABILENE-DYESS  CLEAR     71  37  29 S9        29.79R                  
GRAHAM         CLEAR     80  36  20 VRB7      29.76R                  
BRECKENRIDGE   CLEAR     81  38  22 S7        29.79S                  
CISCO          CLEAR     75  36  23 S8        29.81R                  
EASTLAND       CLEAR     75  38  26 S7        29.83R                  
RANGER         CLEAR     76  39  26 S6        29.83R                  
MINERAL WELLS  CLEAR     80  40  23 S8        29.79R                  
STEPHENVILLE   PTCLDY    77  39  25 S5        29.87R                  
COMANCHE       CLEAR     76  43  30 S8        29.85R                  
COLEMAN        CLEAR     77  35  22 S7        29.85R                  
BRADY          CLEAR     75  37  25 S8        29.89R                  
SAN SABA       CLEAR     77  46  33 S9        29.89R                  
$$

TXZ143>147-156>162-174-175-220200-
CENTRAL TEXAS
  
CITY           SKY/WX    TMP DP  RH WIND       PRES   REMARKS
WACO           CLEAR     79  51  37 S15       29.86R                  
WACO-TSTC      CLEAR     77  46  33 S12       29.86S                  
WACO-MCGREGOR  CLEAR     77  49  37 S13       29.88R                  
HILLSBORO      CLEAR     79  47  32 S15       29.85R                  
CORSICANA      CLEAR     74  48  39 S9        29.88R                  
MEXIA          CLEAR     73  50  44 S7        29.89R                  
HEARNE         CLEAR     75  51  41 S6        29.92R                  
CAMERON        CLEAR     76  50  40 S6        29.90R                  
TEMPLE         CLEAR     75  49  39 S10       29.89R                  
KILLEEN        CLEAR     74  46  35 S8        29.86R                  
KILLEEN-SKYLRK CLEAR     76  48  37 S10       29.90R                  
FORT HOOD      CLEAR     76  47  34 S13       29.89R                  
GATESVILLE     CLEAR     75  46  35 MISG      29.89R                  
HAMILTON       CLEAR     76  42  29 S9        29.87R                  
LAMPASAS       CLEAR     74  46  36 S5        29.87R                  
$$

TXZ095>097-106>112-122>126-135>138-148>153-164>167-220200-
EAST TEXAS
  
CITY           SKY/WX    TMP DP  RH WIND       PRES   REMARKS
PARIS          CLEAR     70  50  49 SE9       29.85R                  
SULPHUR SPRNGS CLEAR     76  49  38 S8        29.87R                  
MOUNT PLEASANT CLEAR     70  53  54 S6        29.87R                  
GILMER         CLEAR     73  49  42 CALM      29.88R                  
MINEOLA        CLEAR     73  52  46 S6        29.87R                  
TYLER          CLEAR     72  53  51 S9        29.88R                  
LONGVIEW       CLEAR     68  53  58 S8        29.89R                  
MARSHALL       CLEAR     71  53  53 CALM      29.88R                  
ATHENS         CLEAR     75  52  43 S6        29.88R                  
PALESTINE      CLEAR     75  50  41 S7        29.90R                  
JACKSONVILLE   CLEAR     75  52  44 S8        29.94R                  
HENDERSON      CLEAR     77  45  32 S5        29.92R                  
CENTER         CLEAR     73  50  43 S6        29.94R                  
NACOGDOCHES    CLEAR     74  50  42 SE3       29.94R                  
LUFKIN         CLEAR     74  55  51 S9        29.94R                  
$$

SUPPLEMENTAL OBSERVATIONS (NWS FORT WORTH AREA)
  
CITY           SKY/WX    TMP DP  RH WIND       PRES   REMARKS
CADDO GRASSLND   N/A     75  46  35 CALM        N/A                   
LBJ GRASSLAND    N/A     77  39  25 SE7         N/A                   
POSSUM KINGDOM   N/A     79  39  24 S5          N/A                   
GRANBURY         N/A     81  39  22 S9          N/A                   
MCGREGOR         N/A     75  45  33 S10         N/A                   
TEMPLE           N/A     79  46  31 S6G17       N/A                   
PALESTINE        N/A     73  48  40 S3          N/A                   
$$

SUPPLEMENTAL OBSERVATIONS (NWS NORMAN AREA)
  
CITY           SKY/WX    TMP DP  RH WIND       PRES   REMARKS
GOODLETT         N/A     76  40  27 S13       29.71                   
ODELL            N/A     75  41  29 S13       29.73S                  
CROWELL          N/A     77  41  28 S8        29.74S                  
KNOX CITY        N/A     73  40  30 S12       29.76                   
SEYMOUR          N/A     75  36  24 SW7       29.75R                  
MILLERS CREEK    N/A     73  37  27 S7          N/A                   
$$

SUPPLEMENTAL OBSERVATIONS (NWS SAN ANGELO AREA)
  
CITY           SKY/WX    TMP DP  RH WIND       PRES   REMARKS
WEINERT          N/A     76  37  24 SW9       29.77S                  
HASKELL          N/A     75  39  28 S8        29.77                   
THROCKMORTON     N/A     79  36  21 S8        29.78                   
STAMFORD         N/A     75  40  29 SW12      29.80                   
CLYDE            N/A     77  40  26 S8        29.87R                  
HAMBY            N/A     77  37  24 S10         N/A                   
IVIE RESERVOIR   N/A     77  41  27 S10         N/A                   
COLORADO BEND    N/A     75  43  31 S8          N/A                   
$$

SUPPLEMENTAL OBSERVATIONS (NWS SHREVEPORT AREA)
  
CITY           SKY/WX    TMP DP  RH WIND       PRES   REMARKS
TEXARKANA        N/A     63  54  72 CALM        N/A                   
LINDEN           N/A     66  52  59 S1          N/A                   
LUFKIN           N/A     72  54  53 MISG        N/A                   
N SABINE NF      N/A     73  54  49 MISG        N/A                   
$$

SUPPLEMENTAL OBSERVATIONS ARE A COLLECTION OF AUTOMATED INSTRUMENTS
THAT ARE MAINTAINED BY A VARIETY OF FEDERAL AND STATE AGENCIES. 
CERTAIN ELEMENTS...SUCH AS HUMIDITY VALUES AND SUSTAINED WIND 
SPEEDS...MAY BE APPROXIMATED.

  
