ASUS44 KLUB 220000
RWRLUB
WEST TEXAS WEATHER ROUNDUP
NATIONAL WEATHER SERVICE LUBBOCK TX
700 PM CDT FRI OCT 21 2022

NOTE: "FAIR" INDICATES FEW OR NO CLOUDS BELOW 12,000 FEET WITH NO
SIGNIFICANT WEATHER AND/OR OBSTRUCTIONS TO VISIBILITY.

TXZ004-006>008-010-012-014-016-OKZ002-220100-
TEXAS PANHANDLE/OKLAHOMA PANHANDLE
  
CITY           SKY/WX    TMP DP  RH WIND       PRES   REMARKS
AMARILLO       CLEAR     76  30  18 SW14      29.73F                  
BORGER         CLEAR     80  23  12 S9        29.70F                  
CANADIAN       CLEAR     79  29  16 SW8       29.65S                  
DALHART        CLEAR     72  27  18 SW6       29.73F                  
GUYMON         CLEAR     80  18  10 SW6       29.65S                  
HEREFORD       CLEAR     78  29  16 SW16      29.79R                  
PERRYTON       CLEAR     74  18  12 S8        29.65F                  
$$

TXZ026-029-035-045-048-220100-
SOUTHERN PANHANDLE/SOUTH PLAINS/ROLLING PLAINS
  
CITY           SKY/WX    TMP DP  RH WIND       PRES   REMARKS
CHILDRESS      CLEAR     79  36  21 S15       29.72F                  
LUBBOCK        PTCLDY    76  33  21 W12       29.80F                  
SNYDER         CLEAR     79  33  18 SW7       29.83S                  
$$

TXZ052-054-060>062-072-078-127-140-154-169-220100-
PERMIAN BASIN/CONCHO VALLEY/BIG COUNTRY/EDWARDS PLATEAU  
  
CITY           SKY/WX    TMP DP  RH WIND       PRES   REMARKS
ABILENE        CLEAR     82  38  20 S10       29.82S                  
JUNCTION       CLEAR     79  45  29 S9        29.91S                  
MIDLAND        CLEAR     78  45  30 SW7       29.86F                  
ODESSA         CLEAR     78  45  30 SW7       29.87F                  
SAN ANGELO     CLEAR     80  46  30 S12G21    29.85S                  
SWEETWATER     CLEAR     80  40  24 SW13      29.86S                  
WINK           CLEAR     81  40  23 W7        29.84F                  
$$

TXZ055-058-074-075-080-082-220100-
FAR WEST/SOUTHWEST MOUNTAINS/TRANS PECOS
  
CITY           SKY/WX    TMP DP  RH WIND       PRES   REMARKS
DRYDEN           N/A     75  52  44 SE8       29.91F                  
EL PASO        PTCLDY    81  44  27 W10G25    29.95F                  
FORT STOCKTON  CLEAR     79  48  33 SW3       29.90S                  
GUADALUPE PASS CLEAR     71  41  33 W30G45    30.01F                  
MARFA          CLEAR     71  43  36 SW8       30.05F                  
PRESIDIO       FAIR      83  53  34 CALM      29.94F                  
$$

TXZ014-016-019-021>030-083-220100
TEXAS TECH WEST TEXAS MESONET/TEXAS PANHANDLE/NORTHERN SOUTH PLAINS
  
CITY           SKY/WX    TMP DP  RH WIND       PRES   REMARKS
ABERNATHY 5ENE   N/A     76  33  20 SW15      29.81S                  
AMARILLO 9NNE    N/A     79  28  15 SW7       29.74S                  
AMARILLO 7SSE    N/A     77  29  17 SW16      29.77S                  
AMHERST 1NE      N/A     76  33  21 SW14      29.82F                  
BOOTLEG 11WNW    N/A     73  30  20 SW13      29.85S                  
CANADIAN 6E      N/A     80  34  18 S6        29.64S                  
CAPROCK CYN SP   N/A     80  33  18 SW8       29.73F                  
CHILDRESS 2NNE   N/A     80  38  22 S15       29.72S                  
CLARENDON 2WSW   N/A     79  33  19 SW14      29.72S                  
CLAUDE 12SW      N/A     80  28  15 SW16      29.75F                  
DIMMITT 2NE      N/A     73  33  22 SW13      29.80F                  
FLOYDADA 2NNE    N/A     77  35  22 SW13      29.80S                  
FRIONA 2NE       N/A     74  32  21 W16       29.81F                  
GOODLETT 3W      N/A     82  39  21 S17       29.70F                  
HART 3N          N/A     73  35  25 SW10      29.80F                  
HEREFORD 2NW     N/A     76  30  18 SW14      29.80S                  
MCLEAN 1E        N/A     80  35  19 SW12      29.70S                  
MEMPHIS 1NE      N/A     83  35  17 S9        29.69F                  
MULESHOE 2SSW    N/A     75  33  21 SW13      29.82F                  
OLTON 6S         N/A     74  37  25 SW13      29.80F                  
PALO DURO SP     N/A     78  29  16 SW9       29.77S                  
PAMPA 2E         N/A     79  24  13 SW7       29.72F                  
PLAINVIEW 1S     N/A     77  31  19 SW7       29.79F                  
SILVERTON 7ESE   N/A     78  31  18 SW12      29.76F                  
TULIA 2ENE       N/A     77  33  19 SW10      29.78F                  
TURKEY 2WSW      N/A     79  38  23 S12       29.71F                  
UMBARGER 3NNE    N/A     76  33  20 SW17      29.78F                  
$$

TXZ033>036-039>041-045>048-220100
TEXAS TECH WEST TEXAS MESONET/SOUTH PLAINS  
  
CITY           SKY/WX    TMP DP  RH WIND       PRES   REMARKS
AIKEN 3WSW       N/A     75  34  22 SW12      29.80F                  
ANDREWS 2NE      N/A     78  37  23 W6        29.87F                  
ANTON 6SSW       N/A     77  36  22 SW10      29.81F                  
BROWNFIELD 2S    N/A     74  39  27 SW10      29.85S                  
DENVR CTY 7WNW   N/A     75  39  27 SW10      29.87F                  
GAIL 2ESE        N/A     78  42  27 S8        29.82F                  
LAMESA 2SE       N/A     74  40  29 SW7       29.86S                  
LUBBOCK 3WNW     N/A     78  31  17 SW9       29.81S                  
MORTON 1ENE      N/A     77  32  19 W15       29.85S                  
ODONNELL 1N      N/A     74  40  29 SW8       29.85S                  
PLAINS 3N        N/A     74  38  27 SW10      29.87F                  
RALLS 1SE        N/A     77  34  21 SW14      29.81S                  
REESE CENTER     N/A     76  37  23 W12       29.82S                  
SEAGRAVES 1SW    N/A     76  36  23 SW9       29.86F                  
SEMINOLE 2NNE    N/A     77  36  23 SW8       29.87F                  
SLATON 2NE       N/A     77  36  22 SW13      29.82F                  
SNYDER 3E        N/A     78  39  24 S8        29.82F                  
SUNDOWN 8SW      N/A     76  37  24 SW15      29.85S                  
TAHOKA 3NNE      N/A     72  42  34 SW8       29.83F                  
WOLFFORTH 6SSW   N/A     75  38  26 SW12      29.83F                  
$$

TXZ031-032-036>038-042>044-220100-
TEXAS TECH WEST TEXAS MESONET/ROLLING PLAINS 
  
CITY           SKY/WX    TMP DP  RH WIND       PRES   REMARKS
ASPERMONT 3NE    N/A     82  37  19 SW15      29.77S                  
FLUVANNA 3WNW    N/A     76  41  27 SW10      29.82F                  
GRAHAM 5SSW      N/A     79  35  20 SW13      29.82F                  
GUTHRIE 10WSW    N/A     81  37  20 S14       29.76S                  
HASKELL 1NW      N/A     83  38  19 SW16      29.76S                  
JAYTON 1SSE      N/A     81  35  19 SW7       29.78F                  
KNOX CITY 3NW    N/A     82  39  21 SW13      29.75S                  
LK A HENRY 1NW   N/A     79  42  26 SW6       29.80F                  
NORTHFIELD 1S    N/A     80  37  21 S13       29.71F                  
ODELL 4ENE       N/A     83  41  22 S13       29.72S                  
PADUCAH 10SW     N/A     78  41  26 S10       29.76F                  
POST 1NE         N/A     79  38  23 SW8       29.80F                  
RRING SPRGS 3N   N/A     78  36  22 S13       29.77S                  
SEYMOUR 3NW      N/A     85  34  16 SW13      29.73S                  
SPUR 1W          N/A     80  35  20 SW8       29.77F                  
WEINERT 2NNE     N/A     83  38  19 SW15      29.76S                  
WHITE RVR 6NE    N/A     78  38  23 S12       29.78F                  
$$

TXZ052-054-060>062-072-078-127-140-154-169-220100-
TEXAS TECH WEST TEXAS MESONET/PERMIAN BASIN/
CONCHO VALLEY/BIG COUNTRY/EDWARDS PLATEAU
  
CITY           SKY/WX    TMP DP  RH WIND       PRES   REMARKS
COYANOSA 2N      N/A     82  46  27 SW10      29.87F                  
JUNCTION 1SSW    N/A     79  46  31 S9        29.92S                  
MERTZON 3NNE     N/A     79  49  33 S12       29.89S                  
SAN ANGELO 7NW   N/A     82  48  31 SW12      29.85F                  
STRLNG CT 4WSW   N/A     80  38  22 SW7       29.87F                  
ST LAWRNCE 5SW   N/A     78  40  26 SW9       29.89S                  
SWEETWATR 11SW   N/A     78  42  27 SW12      29.86S                  
WALL 1E          N/A     81  46  29 S12       29.87S                  
$$

TXZ055-058-074-075-080-082-220100-
TEXAS TECH WEST TEXAS MESONET/FAR WEST/SOUTHWEST MOUNTAINS/TRANS PECOS
  
CITY           SKY/WX    TMP DP  RH WIND       PRES   REMARKS
PRSMN GAP BBNP   N/A     83  48  29 SW6       29.92F                  
GUADLPE MTN NP   N/A     69  40  34 W20G38    30.01F                  
$$
  
