ASUS44 KLUB 220010
RWRLUB
WEST TEXAS WEATHER ROUNDUP
NATIONAL WEATHER SERVICE LUBBOCK TX
700 PM CDT FRI OCT 21 2022

NOTE: "FAIR" INDICATES FEW OR NO CLOUDS BELOW 12,000 FEET WITH NO
SIGNIFICANT WEATHER AND/OR OBSTRUCTIONS TO VISIBILITY.

TXZ004-006>008-010-012-014-016-OKZ002-220100-
TEXAS PANHANDLE/OKLAHOMA PANHANDLE
  
CITY           SKY/WX    TMP DP  RH WIND       PRES   REMARKS
AMARILLO       CLEAR     76  30  18 SW14      29.73F                  
BORGER         CLEAR     80  23  12 S9        29.70F                  
CANADIAN       CLEAR     79  29  16 SW8       29.65S                  
DALHART        CLEAR     72  27  18 SW6       29.73F                  
DUMAS          CLEAR     73  28  19 S9        29.72F                  
GUYMON         CLEAR     80  18  10 SW6       29.65S                  
HEREFORD       CLEAR     78  29  16 SW16      29.79R                  
PAMPA          CLEAR     75  30  19 SW7       29.72F                  
PERRYTON       CLEAR     74  18  12 S8        29.65F                  
$$

TXZ026-029-035-045-048-220100-
SOUTHERN PANHANDLE/SOUTH PLAINS/ROLLING PLAINS
  
CITY           SKY/WX    TMP DP  RH WIND       PRES   REMARKS
CHILDRESS      CLEAR     79  36  21 S15       29.72F                  
SEMINOLE       CLEAR     75  38  26 SW6       29.91F                  
LUBBOCK        PTCLDY    76  33  21 W12       29.80F                  
PLAINVIEW      CLEAR     74  31  20 SW10      29.78F                  
SNYDER         CLEAR     79  33  18 SW7       29.83S                  
$$

TXZ052-054-060>062-072-078-127-140-154-169-220100-
PERMIAN BASIN/CONCHO VALLEY/BIG COUNTRY/EDWARDS PLATEAU  
  
CITY           SKY/WX    TMP DP  RH WIND       PRES   REMARKS
ABILENE        CLEAR     82  38  20 S10       29.82S                  
BIG SPRING     CLEAR     78  40  25 S10       29.85S                  
BRADY          CLEAR     81  37  21 S13G20    29.87S                  
JUNCTION       CLEAR     79  45  29 S9        29.91S                  
MIDLAND        CLEAR     78  45  30 SW7       29.86F                  
ODESSA         CLEAR     78  45  30 SW7       29.87F                  
SAN ANGELO     CLEAR     80  46  30 S12G21    29.85S                  
SONORA           N/A     77  45  31 S12       29.95S                  
SWEETWATER     CLEAR     80  40  24 SW13      29.86S                  
WINK           CLEAR     81  40  23 W7        29.84F                  
$$

TXZ055-058-074-075-080-082-220100-
FAR WEST/SOUTHWEST MOUNTAINS/TRANS PECOS
  
CITY           SKY/WX    TMP DP  RH WIND       PRES   REMARKS
ALPINE         CLEAR     73  41  31 W7        30.07S                  
DRYDEN           N/A     75  52  44 SE8       29.91F                  
EL PASO        PTCLDY    81  44  27 W10G25    29.95F                  
FORT STOCKTON  CLEAR     79  48  33 SW3       29.90S                  
GUADALUPE PASS CLEAR     71  41  33 W30G45    30.01F                  
MARFA          CLEAR     71  43  36 SW8       30.05F                  
PECOS          CLEAR     81  46  28 SW9       29.85F                  
PRESIDIO       FAIR      83  53  34 CALM      29.94F                  
$$

TXZ014-016-019-021>030-083-220100
TEXAS TECH WEST TEXAS MESONET/TEXAS PANHANDLE/NORTHERN SOUTH PLAINS
  
CITY           SKY/WX    TMP DP  RH WIND       PRES   REMARKS
ABERNATHY 5ENE   N/A     75  33  20 SW14      29.81S                  
AMARILLO 9NNE    N/A     76  29  17 SW6       29.73F                  
AMARILLO 7SSE    N/A     76  30  18 SW12      29.77S                  
AMHERST 1NE      N/A     75  33  21 SW12      29.82S                  
BOOTLEG 11WNW    N/A     71  31  22 SW8       29.85S                  
CANADIAN 6E      N/A     78  34  20 S7        29.64S                  
CAPROCK CYN SP   N/A     78  33  19 S8        29.74S                  
CHILDRESS 2NNE   N/A     80  39  23 S15       29.72S                  
CLARENDON 2WSW   N/A     78  33  19 SW13      29.72S                  
CLAUDE 12SW      N/A     79  28  15 SW10      29.75F                  
DIMMITT 2NE      N/A     72  33  23 SW14      29.81S                  
FLOYDADA 2NNE    N/A     75  35  22 SW12      29.80S                  
FRIONA 2NE       N/A     73  32  22 W14       29.81F                  
GOODLETT 3W      N/A     81  39  22 S15       29.71S                  
HART 3N          N/A     71  37  28 SW9       29.80S                  
HEREFORD 2NW     N/A     75  31  19 SW13      29.79S                  
MCLEAN 1E        N/A     78  35  21 S10       29.70S                  
MEMPHIS 1NE      N/A     82  36  19 S10       29.70R                  
MULESHOE 2SSW    N/A     73  31  21 W12       29.82S                  
OLTON 6S         N/A     73  36  26 SW12      29.80S                  
PALO DURO SP     N/A     77  29  17 SW12      29.77S                  
PAMPA 2E         N/A     77  24  14 SW7       29.72F                  
PLAINVIEW 1S     N/A     74  32  21 SW8       29.79S                  
SILVERTON 7ESE   N/A     76  31  19 SW9       29.76F                  
TULIA 2ENE       N/A     76  33  20 SW10      29.78S                  
TURKEY 2WSW      N/A     78  38  23 S13       29.72S                  
UMBARGER 3NNE    N/A     75  33  22 SW13      29.79R                  
$$

TXZ033>036-039>041-045>048-220100
TEXAS TECH WEST TEXAS MESONET/SOUTH PLAINS  
  
CITY           SKY/WX    TMP DP  RH WIND       PRES   REMARKS
AIKEN 3WSW       N/A     73  34  23 SW10      29.80S                  
ANDREWS 2NE      N/A     76  38  25 SW6       29.87F                  
ANTON 6SSW       N/A     75  36  24 SW13      29.81F                  
BROWNFIELD 2S    N/A     73  39  29 SW9       29.85S                  
DENVR CTY 7WNW   N/A     73  40  30 SW9       29.87F                  
GAIL 2ESE        N/A     76  42  28 SW8       29.82F                  
LAMESA 2SE       N/A     72  42  34 SW8       29.85F                  
LUBBOCK 3WNW     N/A     77  34  20 W12       29.81S                  
MORTON 1ENE      N/A     76  32  20 W21       29.84F                  
ODONNELL 1N      N/A     72  41  32 SW9       29.85S                  
PLAINS 3N        N/A     73  39  30 SW9       29.87F                  
RALLS 1SE        N/A     76  34  22 SW13      29.80F                  
REESE CENTER     N/A     74  37  25 W10       29.82S                  
SEAGRAVES 1SW    N/A     74  37  26 SW9       29.86F                  
SEMINOLE 2NNE    N/A     75  36  24 SW8       29.87F                  
SLATON 2NE       N/A     76  36  23 SW13      29.82S                  
SNYDER 3E        N/A     77  38  25 S9        29.82S                  
SUNDOWN 8SW      N/A     74  37  25 SW14      29.85S                  
TAHOKA 3NNE      N/A     70  43  37 SW10      29.83S                  
WOLFFORTH 6SSW   N/A     73  39  29 SW12      29.83S                  
$$

TXZ031-032-036>038-042>044-220100-
TEXAS TECH WEST TEXAS MESONET/ROLLING PLAINS 
  
CITY           SKY/WX    TMP DP  RH WIND       PRES   REMARKS
ASPERMONT 3NE    N/A     82  37  20 S13       29.77S                  
FLUVANNA 3WNW    N/A     76  41  28 SW10      29.82F                  
GRAHAM 5SSW      N/A     78  35  21 SW10      29.82F                  
GUTHRIE 10WSW    N/A     79  36  21 S15       29.76S                  
HASKELL 1NW      N/A     82  38  20 SW16      29.76S                  
JAYTON 1SSE      N/A     79  35  20 SW7       29.78S                  
KNOX CITY 3NW    N/A     81  39  22 S14       29.75S                  
LK A HENRY 1NW   N/A     78  41  26 SW7       29.79F                  
NORTHFIELD 1S    N/A     79  37  22 S14       29.71F                  
ODELL 4ENE       N/A     82  40  23 S12       29.72F                  
PADUCAH 10SW     N/A     77  41  28 S10       29.76F                  
POST 1NE         N/A     78  38  24 S8        29.80F                  
RRING SPRGS 3N   N/A     76  36  23 S12       29.77S                  
SEYMOUR 3NW      N/A     84  34  16 SW13      29.74R                  
SPUR 1W          N/A     78  35  20 SW8       29.77S                  
WEINERT 2NNE     N/A     83  38  19 SW15      29.76S                  
WHITE RVR 6NE    N/A     76  39  25 S9        29.78F                  
$$

TXZ052-054-060>062-072-078-127-140-154-169-220100-
TEXAS TECH WEST TEXAS MESONET/PERMIAN BASIN/
CONCHO VALLEY/BIG COUNTRY/EDWARDS PLATEAU
  
CITY           SKY/WX    TMP DP  RH WIND       PRES   REMARKS
COYANOSA 2N      N/A     81  46  29 SW9       29.87S                  
JUNCTION 1SSW    N/A     78  45  31 S7        29.92S                  
MERTZON 3NNE     N/A     78  49  35 S9        29.89S                  
SAN ANGELO 7NW   N/A     81  49  33 SW9       29.86S                  
STRLNG CT 4WSW   N/A     78  38  24 SW5       29.87S                  
ST LAWRNCE 5SW   N/A     76  41  28 SW8       29.88F                  
SWEETWATR 11SW   N/A     77  42  28 SW8       29.86S                  
WALL 1E          N/A     80  46  30 SW13      29.87S                  
$$

TXZ055-058-074-075-080-082-220100-
TEXAS TECH WEST TEXAS MESONET/FAR WEST/SOUTHWEST MOUNTAINS/TRANS PECOS
  
CITY           SKY/WX    TMP DP  RH WIND       PRES   REMARKS
PRSMN GAP BBNP   N/A     81  49  32 SW6       29.92F                  
GUADLPE MTN NP   N/A     69  40  34 W24G45    30.01F                  
$$
  
