ASUS44 KSJT 220010
RWRSJT
WEST CENTRAL TEXAS REGIONAL WEATHER ROUNDUP
NATIONAL WEATHER SERVICE SAN ANGELO TX
700 PM CDT FRI OCT 21 2022

NOTE: "FAIR" INDICATES FEW OR NO CLOUDS BELOW 12,000 FEET WITH NO
SIGNIFICANT WEATHER AND/OR OBSTRUCTIONS TO VISIBILITY.

TXZ049-054-064>066-071>073-076>078-098-099-113-114-127-128-139-140-
154-155-168>170-220100-
...LOCATIONS ACROSS WEST CENTRAL TEXAS...
  
CITY           SKY/WX    TMP DP  RH WIND       PRES   REMARKS
SAN ANGELO     CLEAR     80  46  30 S12G21    29.85S                  
ABILENE        CLEAR     82  38  20 S10       29.82S                  
DYESS AFB      CLEAR     83  36  19 S8        29.78S                  
JUNCTION       CLEAR     79  45  29 S9        29.91S                  
SWEETWATER     CLEAR     80  40  24 SW13      29.86S                  
BROWNWOOD      NOT AVBL                                               
COLEMAN        CLEAR     83  34  16 SW7       29.84S                  
SAN SABA       CLEAR     80  45  28 S9        29.87S                  
SONORA           N/A     77  45  31 S12       29.95S                  
OZONA          FAIR      75  45  33 S13G20    29.93S                  
BRADY          CLEAR     81  37  21 S13G20    29.87S                  
$$

TXZ001-004-007-008-010-012-014-016-OKZ002-220100-
TEXAS PANHANDLE/OKLAHOMA PANHANDLE
  
CITY           SKY/WX    TMP DP  RH WIND       PRES   REMARKS
AMARILLO       CLEAR     76  30  18 SW14      29.73F                  
BORGER         CLEAR     80  23  12 S9        29.70F                  
CANADIAN       CLEAR     79  29  16 SW8       29.65S                  
DALHART        CLEAR     72  27  18 SW6       29.73F                  
DUMAS          CLEAR     73  28  19 S9        29.72F                  
GUYMON         NOT AVBL                                               
HEREFORD       CLEAR     78  29  16 SW16      29.79R                  
PAMPA          CLEAR     75  30  19 SW7       29.72F                  
PERRYTON       CLEAR     74  18  12 S8        29.65F                  
$$

TXZ035-026-045-048-220100-
SOUTHERN PANHANDLE/SOUTH PLAINS/ROLLING PLAINS
  
CITY           SKY/WX    TMP DP  RH WIND       PRES   REMARKS
LUBBOCK        PTCLDY    76  33  21 W12       29.80F                  
SNYDER         CLEAR     79  33  18 SW7       29.83S                  
CHILDRESS      CLEAR     79  36  21 S15       29.72F                  
SEMINOLE       CLEAR     75  38  26 SW6       29.91F                  
$$

TXZ060>062-220100-
PERMIAN BASIN
  
CITY           SKY/WX    TMP DP  RH WIND       PRES   REMARKS
MIDLAND        CLEAR     78  45  30 SW7       29.86F                  
ODESSA         CLEAR     78  45  30 SW7       29.87F                  
WINK           CLEAR     81  40  23 W7        29.84F                  
$$

TXZ075-082-271-274-277-419-220100-
FAR WEST/SOUTHWEST MOUNTAINS/TRANS PECOS
  
CITY           SKY/WX    TMP DP  RH WIND       PRES   REMARKS
ALPINE         CLEAR     73  41  31 W7        30.07S                  
DRYDEN           N/A     75  52  44 SE8       29.91F                  
EL PASO        PTCLDY    81  44  27 W10G25    29.95F                  
FORT STOCKTON  CLEAR     79  48  33 SW3       29.90S                  
GUADALUPE PASS CLEAR     71  41  33 W30G45    30.01F                  
MARFA          CLEAR     71  43  36 SW8       30.05F                  
PECOS          CLEAR     81  46  28 SW9       29.85F                  
$$

TXZ118-119-220100-
DALLAS/FORT WORTH METROPLEX
  
CITY           SKY/WX    TMP DP  RH WIND       PRES   REMARKS
DFW AIRPORT    PTCLDY    84  46  26 S16       29.78S                  
FTW MEACHAM    CLEAR     84  44  24 S10G22    29.78S                  
DAL-EXECUTIVE  CLEAR     81  48  31 S12       29.81R                  
GRAND PRAIRIE  CLEAR     82  45  26 S8        29.82R                  
ADDISON        CLEAR     82  43  24 S12G17    29.80S                  
MESQUITE       CLEAR     79  45  29 SE6       29.83R                  
LANCASTER      CLEAR     82  45  27 S10       29.83R                  
$$

TXZ092-093-103-131-134-220100-
NORTH CENTRAL TEXAS
  
CITY           SKY/WX    TMP DP  RH WIND       PRES   REMARKS
SHRMAN/DENISON CLEAR     81  41  24 S10       29.79F                  
GAINESVILLE    CLEAR     78  42  28 S9        29.79R                  
BRIDGEPORT     CLEAR     83  36  19 S7        29.79S                  
DENTON         CLEAR     83  43  24 S14       29.78S                  
WAXAHACHIE     CLEAR     82  49  31 S12G18    29.84S                  
GRANBURY       CLEAR     85  39  20 S9        29.81S                  
$$

TXZ085-086-115-141-220100-
WESTERN NORTH TEXAS
  
CITY           SKY/WX    TMP DP  RH WIND       PRES   REMARKS
WICHITA FALLS  CLEAR     85  36  17 S17       29.71F                  
VERNON         NOT AVBL                                               
BRECKENRIDGE   CLEAR     86  37  17 S9        29.78F                  
COMANCHE       CLEAR     83  43  24 S12       29.83F                  
$$

TXZ145-158-159-173-191-192-194-205-207-220-223-220100-
CENTRAL AND SOUTH CENTRAL TEXAS
  
CITY           SKY/WX    TMP DP  RH WIND       PRES   REMARKS
AUSTIN/BERGSTM CLEAR     79  48  33 S9        29.89S                  
WACO           CLEAR     80  52  37 S15       29.85S                  
HILLSBORO      CLEAR     82  48  29 S17       29.84R                  
TEMPLE         CLEAR     80  47  31 S14       29.88R                  
KILLEEN-GRAY   CLEAR     80  45  28 S12       29.83F                  
FORT HOOD      CLEAR     80  46  30 S10       29.87S                  
GEORGETOWN     CLEAR     81  48  31 S12       29.91R                  
LAGO VISTA     FAIR      78  47  33 S9        29.92S                  
SAN MARCOS     CLEAR     81  46  30 S12       29.92S                  
NEW BRAUNFELS  CLEAR     80  49  33 S12       29.90S                  
RANDOLPH AFB   CLEAR     79  46  30 S9        29.89S                  
SAN ANTONIO    PTCLDY    81  47  30 S12       29.92S                  
STINSON        CLEAR     80  48  32 S8        29.89S                  
PLEASANTON     NOT AVBL                                               
LA GRANGE      NOT AVBL                                               
GIDDINGS       CLEAR     80  49  34 S7        29.92S                  
$$

TXZ095-096-136-137-148-152-220100-
EAST TEXAS
  
CITY           SKY/WX    TMP DP  RH WIND       PRES   REMARKS
PARIS          CLEAR     75  48  38 S9        29.83R                  
CLARKSVILLE    NOT AVBL                                               
TYLER          CLEAR     76  53  44 S8        29.86S                  
LONGVIEW       CLEAR     74  52  46 S8        29.87R                  
PALESTINE      CLEAR     79  50  36 S7        29.87R                  
NACOGDOCHES    CLEAR     76  50  40 S7        29.92R                  
$$

TXZ171-183-184-186-188-203-204-220100-
TEXAS HILL COUNTRY AND EDWARDS PLATEAU
  
CITY           SKY/WX    TMP DP  RH WIND       PRES   REMARKS
LLANO          CLEAR     81  43  26 S10G17    29.88S                  
HORSESHOE BAY  FAIR      80  43  26 S6        29.90S                  
KERRVILLE      CLEAR     76  47  35 S7        29.94S                  
FREDERICKSBRG  CLEAR     76  46  34 S7        29.93F                  
ROCKSPRINGS    CLEAR     72  48  43 S8        29.99F                  
HONDO          CLEAR     78  50  37 S9        29.92F                  
UVALDE         CLEAR     77  50  38 S6        29.93F                  
DEL RIO        CLEAR     79  55  43 SE10      29.88S                  
$$

TXZ163-177-195>197-199-213-226-237-220100-
SOUTHEAST TEXAS
  
CITY           SKY/WX    TMP DP  RH WIND       PRES   REMARKS
COLLEGE STN    CLEAR     80  50  34 S8        29.90S                  
CALDWELL       CLEAR     79  49  34 S9        29.91S                  
CROCKETT       CLEAR     77  48  36 S8        29.90R                  
BRENHAM        CLEAR     80  54  40 S9        29.92S                  
HUNTSVILLE     CLEAR     80  52  37 S5        29.91F                  
CONROE         CLEAR     77  55  46 S7        29.93S                  
HOUSTON BUSH   PTCLDY    78  58  49 S10G20    29.94R                  
HOUSTON HOBBY  PTCLDY    76  57  51 S13       29.96R                  
PERLAND        CLEAR     75  59  57 S8        29.99R                  
WHARTON        CLEAR     74  56  55 S10       29.98R                  
$$

TXZ215-216-236-237-438-220100-
THE UPPER TEXAS COAST
  
CITY           SKY/WX    TMP DP  RH WIND       PRES   REMARKS
ORANGE         CLEAR     75  61  62 S7        30.01R                  
PORT ARTHUR    CLEAR     69  60  73 S8        29.98S                  
GALVESTON      CLEAR     74  60  61 S13       30.00R                  
ANGLETON       CLEAR     71  59  65 S8        29.98S                  
BAY CITY       CLEAR     73  58  60 S7        29.99R                  
$$

TXZ229-232-234-239-242-243-245-247-249-250-
253-255-257-343-347-443-220100-
TEXAS COASTAL BEND, RIO GRANDE PLAINS DEEP SOUTH TEXAS
  
CITY           SKY/WX    TMP DP  RH WIND       PRES   REMARKS
VICTORIA       CLEAR     76  60  57 S12       29.96R                  
BEEVILLE       FAIR      74  56  52 SE12G17   29.94R                  
ROCKPORT       CLEAR     76  60  57 S9        29.96R                  
PORT ARANSAS   CLEAR    N/A N/A N/A SE12      29.98S                  
PORT LAVACA    CLEAR     77  58  53 S9        29.97S                  
CORPUS CHRISTI PTCLDY    76  61  59 SE12      29.96R                  
KINGSVILLE NAS CLEAR     75  62  64 SE14      29.94S                  
COTULLA        CLEAR     81  51  35 S5        29.91S                  
LAREDO         CLEAR     80  51  36 S9        29.91S                  
BROWNSVILLE    CLEAR     76  62  62 SE12      29.97R                  
PORT ISABEL    CLEAR     75  61  61 SE13      29.97R                  
HEBBRONVILLE   CLEAR     77  53  42 S5        29.94S HAZE             
MCALLEN        CLEAR     80  61  52 S10       29.94R                  
WESLACO        NOT AVBL                                          
