ASUS44 KLUB 220110
RWRLUB
WEST TEXAS WEATHER ROUNDUP
NATIONAL WEATHER SERVICE LUBBOCK TX
800 PM CDT FRI OCT 21 2022

NOTE: "FAIR" INDICATES FEW OR NO CLOUDS BELOW 12,000 FEET WITH NO
SIGNIFICANT WEATHER AND/OR OBSTRUCTIONS TO VISIBILITY.

TXZ004-006>008-010-012-014-016-OKZ002-220200-
TEXAS PANHANDLE/OKLAHOMA PANHANDLE
  
CITY           SKY/WX    TMP DP  RH WIND       PRES   REMARKS
AMARILLO       CLEAR     70  32  24 SW13      29.73S                  
BORGER         CLEAR     76  28  17 S9        29.69F                  
CANADIAN       CLEAR     64  29  26 SW6       29.65S                  
DALHART        CLEAR     57  33  40 SW9       29.73S                  
DUMAS          CLEAR     68  26  21 S9        29.72S                  
GUYMON         CLEAR     72  20  14 S5        29.66R                  
HEREFORD       CLEAR     71  31  22 SW13      29.79R                  
PAMPA          CLEAR     69  32  25 SW10      29.72S                  
PERRYTON       CLEAR     62  17  18 S10       29.66S                  
$$

TXZ026-029-035-045-048-220200-
SOUTHERN PANHANDLE/SOUTH PLAINS/ROLLING PLAINS
  
CITY           SKY/WX    TMP DP  RH WIND       PRES   REMARKS
CHILDRESS      CLEAR     73  40  30 S13       29.73R                  
SEMINOLE       CLEAR     71  40  32 SW6       29.91S                  
LUBBOCK        CLEAR     73  36  25 SW13      29.81R                  
PLAINVIEW      CLEAR     65  33  29 SW9       29.79R                  
SNYDER         CLEAR     73  36  26 S8        29.83S                  
$$

TXZ052-054-060>062-072-078-127-140-154-169-220200-
PERMIAN BASIN/CONCHO VALLEY/BIG COUNTRY/EDWARDS PLATEAU  
  
CITY           SKY/WX    TMP DP  RH WIND       PRES   REMARKS
ABILENE        CLEAR     79  39  23 S9        29.82S                  
BIG SPRING     CLEAR     72  43  35 S10       29.85S                  
BRADY          CLEAR     75  37  25 S8        29.89R                  
JUNCTION       CLEAR     74  46  36 S8        29.92R                  
MIDLAND        CLEAR     73  47  39 S8        29.86S                  
ODESSA         CLEAR     73  46  38 S6        29.88R                  
SAN ANGELO     CLEAR     75  47  36 S12       29.86R                  
SONORA           N/A     73  46  38 S7        29.96R                  
SWEETWATER     CLEAR     74  39  28 SW12      29.87R                  
WINK           CLEAR     72  44  36 S8        29.85R                  
$$

TXZ055-058-074-075-080-082-220200-
FAR WEST/SOUTHWEST MOUNTAINS/TRANS PECOS
  
CITY           SKY/WX    TMP DP  RH WIND       PRES   REMARKS
ALPINE         CLEAR     66  44  44 SW8       30.07S                  
DRYDEN           N/A     68  55  63 SE3       29.92R                  
EL PASO        PTCLDY    77  46  33 W7        29.95S                  
FORT STOCKTON  CLEAR     72  49  44 S7        29.90S                  
GUADALUPE PASS CLEAR     67  41  38 SW24G33   30.03R                  
MARFA          CLEAR     63  46  54 SW7       30.06R                  
PECOS          CLEAR     73  49  42 S5        29.86S                  
PRESIDIO       FAIR      79  53  39 NE3       29.95R                  
$$

TXZ014-016-019-021>030-083-220200
TEXAS TECH WEST TEXAS MESONET/TEXAS PANHANDLE/NORTHERN SOUTH PLAINS
  
CITY           SKY/WX    TMP DP  RH WIND       PRES   REMARKS
ABERNATHY 5ENE   N/A     67  38  35 SW9       29.82R                  
AMARILLO 9NNE    N/A     65  32  28 S7        29.74R                  
AMARILLO 7SSE    N/A     67  33  28 SW7       29.77S                  
AMHERST 1NE      N/A     69  35  28 SW13      29.83R                  
BOOTLEG 11WNW    N/A     66  30  26 SW14      29.85S                  
CANADIAN 6E      N/A     70  32  24 S7        29.65R                  
CAPROCK CYN SP   N/A     75  33  20 SW10      29.75R                  
CHILDRESS 2NNE   N/A     75  40  28 S14       29.73R                  
CLARENDON 2WSW   N/A     65  36  33 S13       29.73S                  
CLAUDE 12SW      N/A     77  29  17 SW12      29.76R                  
DIMMITT 2NE      N/A     68  33  27 SW10      29.82R                  
FLOYDADA 2NNE    N/A     71  36  28 SW12      29.81R                  
FRIONA 2NE       N/A     69  33  26 SW17      29.81S                  
GOODLETT 3W      N/A     76  40  27 S13       29.71R                  
HART 3N          N/A     62  36  38 SW9       29.82R                  
HEREFORD 2NW     N/A     70  32  24 SW10      29.80R                  
MCLEAN 1E        N/A     71  37  28 SW8       29.71R                  
MEMPHIS 1NE      N/A     76  37  24 S8        29.71S                  
MULESHOE 2SSW    N/A     65  32  29 SW12      29.83R                  
OLTON 6S         N/A     68  35  29 SW13      29.81R                  
PALO DURO SP     N/A     73  30  20 SW14      29.77S                  
PAMPA 2E         N/A     67  29  24 S9        29.72S                  
PLAINVIEW 1S     N/A     67  35  30 SW8       29.80S                  
SILVERTON 7ESE   N/A     69  33  25 SW12      29.77S                  
TULIA 2ENE       N/A     68  35  29 SW8       29.79S                  
TURKEY 2WSW      N/A     69  39  33 S8        29.73R                  
UMBARGER 3NNE    N/A     67  34  29 SW12      29.79S                  
$$

TXZ033>036-039>041-045>048-220200
TEXAS TECH WEST TEXAS MESONET/SOUTH PLAINS  
  
CITY           SKY/WX    TMP DP  RH WIND       PRES   REMARKS
AIKEN 3WSW       N/A     63  36  36 SW10      29.81S                  
ANDREWS 2NE      N/A     69  42  38 SW5       29.87S                  
ANTON 6SSW       N/A     68  37  32 SW13      29.83R                  
BROWNFIELD 2S    N/A     65  41  42 SW10      29.86R                  
DENVR CTY 7WNW   N/A     64  44  47 SW8       29.88R                  
GAIL 2ESE        N/A     68  43  40 S8        29.83R                  
LAMESA 2SE       N/A     64  42  44 SW6       29.86R                  
LUBBOCK 3WNW     N/A     74  35  23 SW13      29.83R                  
MORTON 1ENE      N/A     71  34  26 W15       29.86R                  
ODONNELL 1N      N/A     67  40  38 SW8       29.86R                  
PLAINS 3N        N/A     68  41  37 SW12      29.88R                  
RALLS 1SE        N/A     66  38  35 S12       29.82R                  
REESE CENTER     N/A     69  38  31 SW10      29.84R                  
SEAGRAVES 1SW    N/A     67  40  37 SW8       29.87R                  
SEMINOLE 2NNE    N/A     70  40  34 SW6       29.87S                  
SLATON 2NE       N/A     71  37  29 SW15      29.82S                  
SNYDER 3E        N/A     71  40  32 S10       29.83R                  
SUNDOWN 8SW      N/A     67  39  35 SW10      29.86R                  
TAHOKA 3NNE      N/A     66  42  41 SW12      29.84R                  
WOLFFORTH 6SSW   N/A     69  39  33 SW12      29.84S                  
$$

TXZ031-032-036>038-042>044-220200-
TEXAS TECH WEST TEXAS MESONET/ROLLING PLAINS 
  
CITY           SKY/WX    TMP DP  RH WIND       PRES   REMARKS
ASPERMONT 3NE    N/A     74  38  26 S9        29.78R                  
FLUVANNA 3WNW    N/A     70  42  35 S10       29.83R                  
GRAHAM 5SSW      N/A     73  36  25 SW7       29.84R                  
GUTHRIE 10WSW    N/A     75  35  23 S14       29.76S                  
HASKELL 1NW      N/A     75  39  28 S8        29.77S                  
JAYTON 1SSE      N/A     71  35  26 S7        29.79R                  
KNOX CITY 3NW    N/A     73  40  30 S12       29.76R                  
LK A HENRY 1NW   N/A     72  43  34 SW5       29.80R                  
NORTHFIELD 1S    N/A     75  38  25 S13       29.72R                  
ODELL 4ENE       N/A     75  41  29 S13       29.73S                  
PADUCAH 10SW     N/A     70  41  34 S10       29.77R                  
POST 1NE         N/A     74  37  26 SW9       29.81R                  
RRING SPRGS 3N   N/A     71  37  29 S10       29.77S                  
SEYMOUR 3NW      N/A     75  36  24 SW7       29.75R                  
SPUR 1W          N/A     69  38  32 S7        29.77S                  
WEINERT 2NNE     N/A     76  37  24 SW9       29.77S                  
WHITE RVR 6NE    N/A     69  40  35 S8        29.79S                  
$$

TXZ052-054-060>062-072-078-127-140-154-169-220200-
TEXAS TECH WEST TEXAS MESONET/PERMIAN BASIN/
CONCHO VALLEY/BIG COUNTRY/EDWARDS PLATEAU
  
CITY           SKY/WX    TMP DP  RH WIND       PRES   REMARKS
COYANOSA 2N      N/A     75  48  38 SW10      29.88R                  
JUNCTION 1SSW    N/A     73  46  39 S7        29.94R                  
MERTZON 3NNE     N/A     73  49  42 S8        29.90R                  
SAN ANGELO 7NW   N/A     75  50  40 S8        29.87R                  
STRLNG CT 4WSW   N/A     75  49  39 S10       29.88S                  
ST LAWRNCE 5SW   N/A     70  46  43 S10       29.89S                  
SWEETWATR 11SW   N/A     69  40  34 S8        29.88R                  
WALL 1E          N/A     75  46  36 S12       29.89R                  
$$

TXZ055-058-074-075-080-082-220200-
TEXAS TECH WEST TEXAS MESONET/FAR WEST/SOUTHWEST MOUNTAINS/TRANS PECOS
  
CITY           SKY/WX    TMP DP  RH WIND       PRES   REMARKS
PRSMN GAP BBNP   N/A     78  45  31 S6        29.93R                  
GUADLPE MTN NP   N/A     69  40  35 W16G35    30.03R                  
$$
  
