ASUS44 KMAF 212301
RWRMAF
MIDLAND AREA WEATHER ROUNDUP
NATIONAL WEATHER SERVICE MIDLAND TX
600 PM CDT FRI OCT 21 2022

...IN SOUTHWEST TEXAS AND SOUTHEAST NEW MEXICO...
  
CITY           SKY/WX    TMP DP  RH WIND       PRES   REMARKS
ALPINE         SUNNY     80  40  24 W14       30.07F                  
ANDREWS        FAIR      82  33  17 W12       29.89F                  
ARTESIA        SUNNY     82  45  26 E6        29.88F                  
BIG SPRING     SUNNY     82  38  20 SW15      29.86F                  
CARLSBAD       SUNNY     82  38  20 W16G26    29.86F                  
DRYDEN           N/A     79  54  41 SE9       29.92F                  
FORT STOCKTON  SUNNY     83  44  25 W8        29.90F                  
GUAD PASS      SUNNY     73  40  30 W33G44    30.02F                  
HOBBS          SUNNY     79  36  21 SW13      29.90F                  
LAMESA         NOT AVBL                                               
MARFA          SUNNY     76  40  27 W13       30.06F                  
MIDLAND AIRPK  SUNNY     83  35  17 W16       29.88S                  
MIDLAND INTL   SUNNY     82  40  22 W13       29.87F                  
ODESSA         SUNNY     83  41  22 W14       29.89F                  
PECOS          SUNNY     86  42  21 W14G23    29.87F                  
PRESIDIO       FAIR      84  52  33 S3        29.96F                  
SEMINOLE       SUNNY     81  35  19 W14       29.92F                  
SNYDER         SUNNY     83  33  17 SW16      29.84S                  
WINK           SUNNY     85  40  20 W12       29.85F                  
$$
...OTHER STATIONS IN TEXAS...
  
CITY           SKY/WX    TMP DP  RH WIND       PRES   REMARKS
ABILENE        SUNNY     87  35  15 S21G33    29.82F                  
AMARILLO       SUNNY     82  27  13 W18G25    29.74F                  
AUSTIN         SUNNY     83  49  30 S15       29.89S                  
BROWNSVILLE    SUNNY     80  62  54 SE16      29.96S                  
CORPUS CHRISTI MOSUNNY   79  61  53 SE18G28   29.95S                  
DALLAS FTW     CLEAR     88  42  20 S15       29.78F                  
DEL RIO        SUNNY     82  55  39 SE13      29.88F                  
EL PASO        MOSUNNY   83  43  24 W13       29.96F                  
HOUSTON INT    PTCLDY    81  57  43 S13       29.93F                  
LUBBOCK        MOSUNNY   82  34  17 SW14G26   29.81F                  
SAN ANGELO     SUNNY     84  45  25 SW15      29.85F                  
SAN ANTONIO    MOSUNNY   83  49  30 S12G20    29.92F                  
WACO           CLEAR     85  50  29 S15       29.85F                  
WICHITA FALLS  MOCLDY    84  33  16 S12       29.62F                  
$$
...OTHER LOCATIONS IN NEW MEXICO...
  
CITY           SKY/WX    TMP DP  RH WIND       PRES   REMARKS
ALAMOGORDO     SUNNY     77  39  25 E6        29.97F                  
ALBUQUERQUE    MOSUNNY   74  32  21 W15G21    29.98F                  
CANNON AFB     SUNNY     77  27  16 W23G36    29.83F                  
CLOVIS         SUNNY     77  28  16 W21G30    29.85S                  
HOLLOMAN AFB   SUNNY     78  40  25 SW5       29.99F                  
ROSWELL        SUNNY     84  38  19 NW9       29.87S                  
RUIDOSO          N/A     64  32  29 W13G22    30.10S                  
SANTA FE       SUNNY     68  26  20 W17G25    30.00S                  
TRUTH OR CONSE SUNNY     78  39  24 S10       29.96F                  
TUCUMCARI      SUNNY     79  28  15 W21G26    29.76F                  
$$
  
