ASUS44 KLUB 220200
RWRLUB
WEST TEXAS WEATHER ROUNDUP
NATIONAL WEATHER SERVICE LUBBOCK TX
900 PM CDT FRI OCT 21 2022

NOTE: "FAIR" INDICATES FEW OR NO CLOUDS BELOW 12,000 FEET WITH NO
SIGNIFICANT WEATHER AND/OR OBSTRUCTIONS TO VISIBILITY.

TXZ004-006>008-010-012-014-016-OKZ002-220300-
TEXAS PANHANDLE/OKLAHOMA PANHANDLE
  
CITY           SKY/WX    TMP DP  RH WIND       PRES   REMARKS
AMARILLO       CLEAR     63  33  32 SW10      29.74R                  
BORGER         CLEAR     75  29  18 S9G20     29.70R                  
CANADIAN       CLEAR     63  31  30 SW8       29.66S                  
DALHART        CLEAR     54  30  40 SW9       29.73S                  
GUYMON         CLEAR     65  21  18 W3        29.66S                  
HEREFORD       CLEAR     71  32  23 SW20      29.79S                  
PERRYTON       CLEAR     58  19  21 SW6       29.66S                  
$$

TXZ026-029-035-045-048-220300-
SOUTHERN PANHANDLE/SOUTH PLAINS/ROLLING PLAINS
  
CITY           SKY/WX    TMP DP  RH WIND       PRES   REMARKS
CHILDRESS      CLEAR     72  38  29 S14       29.72F                  
LUBBOCK        CLEAR     70  37  29 SW12      29.82R                  
SNYDER         CLEAR     72  39  30 S12       29.84S                  
$$

TXZ052-054-060>062-072-078-127-140-154-169-220300-
PERMIAN BASIN/CONCHO VALLEY/BIG COUNTRY/EDWARDS PLATEAU  
  
CITY           SKY/WX    TMP DP  RH WIND       PRES   REMARKS
ABILENE        CLEAR     75  42  30 S9        29.83R                  
BIG SPRING     CLEAR     70  43  37 S10       29.86R                  
JUNCTION       CLEAR     70  46  42 S8        29.93R                  
MIDLAND        CLEAR     70  48  45 S9        29.88R                  
ODESSA         CLEAR     70  48  45 S5        29.89R                  
SAN ANGELO     CLEAR     72  46  39 S10       29.87R                  
SWEETWATER     CLEAR     72  38  29 SW14      29.87S                  
WINK           CLEAR     68  47  46 S7        29.86R                  
$$

TXZ055-058-074-075-080-082-220300-
FAR WEST/SOUTHWEST MOUNTAINS/TRANS PECOS
  
CITY           SKY/WX    TMP DP  RH WIND       PRES   REMARKS
DRYDEN           N/A     66  55  67 E3        29.94R                  
EL PASO        CLEAR     74  47  38 SW5       29.96R                  
FORT STOCKTON  CLEAR     70  51  51 S7        29.92R                  
GUADALUPE PASS CLEAR     65  43  44 SW25      30.04R                  
MARFA          CLEAR     58  46  64 CALM      30.08R                  
PRESIDIO       FAIR      71  54  54 N5        29.96R                  
$$

TXZ014-016-019-021>030-083-220300
TEXAS TECH WEST TEXAS MESONET/TEXAS PANHANDLE/NORTHERN SOUTH PLAINS
  
CITY           SKY/WX    TMP DP  RH WIND       PRES   REMARKS
ABERNATHY 5ENE   N/A     66  40  39 SW13      29.84R                  
AMARILLO 9NNE    N/A     69  34  27 S12       29.74S                  
AMARILLO 7SSE    N/A     66  33  29 SW12      29.77S                  
AMHERST 1NE      N/A     67  34  28 SW13      29.84S                  
BOOTLEG 11WNW    N/A     63  34  33 SW14      29.85F                  
CANADIAN 6E      N/A     68  33  28 S8        29.65S                  
CAPROCK CYN SP   N/A     72  32  23 SW13      29.75S                  
CHILDRESS 2NNE   N/A     73  40  30 S15       29.73S                  
CLARENDON 2WSW   N/A     63  35  35 SW6       29.73S                  
CLAUDE 12SW      N/A     74  29  19 SW8       29.76S                  
DIMMITT 2NE      N/A     65  34  31 SW8       29.82R                  
FLOYDADA 2NNE    N/A     67  37  34 SW12      29.82R                  
FRIONA 2NE       N/A     68  33  26 SW18      29.82S                  
GOODLETT 3W      N/A     75  40  28 S14       29.71S                  
HART 3N          N/A     61  39  43 SW6       29.82S                  
HEREFORD 2NW     N/A     67  32  26 SW14      29.80S                  
MCLEAN 1E        N/A     67  36  32 SW10      29.71S                  
MEMPHIS 1NE      N/A     74  37  26 S8        29.71S                  
MULESHOE 2SSW    N/A     67  32  27 SW13      29.84R                  
OLTON 6S         N/A     65  35  33 SW13      29.82S                  
PALO DURO SP     N/A     71  30  22 SW13      29.77S                  
PAMPA 2E         N/A     63  33  32 S12       29.73S                  
PLAINVIEW 1S     N/A     63  36  37 SW7       29.81S                  
SILVERTON 7ESE   N/A     67  33  27 SW14      29.77F                  
TULIA 2ENE       N/A     64  35  33 SW12      29.80S                  
TURKEY 2WSW      N/A     65  38  37 SW8       29.73S                  
UMBARGER 3NNE    N/A     67  33  29 SW13      29.79S                  
$$

TXZ033>036-039>041-045>048-220300
TEXAS TECH WEST TEXAS MESONET/SOUTH PLAINS  
  
CITY           SKY/WX    TMP DP  RH WIND       PRES   REMARKS
AIKEN 3WSW       N/A     61  37  41 SW12      29.83R                  
ANDREWS 2NE      N/A     67  45  44 SW8       29.88S                  
ANTON 6SSW       N/A     65  39  37 SW10      29.84S                  
BROWNFIELD 2S    N/A     64  40  41 SW12      29.86S                  
DENVR CTY 7WNW   N/A     61  45  54 SW10      29.89R                  
GAIL 2ESE        N/A     65  42  43 S8        29.84R                  
LAMESA 2SE       N/A     62  43  50 SW6       29.87S                  
LUBBOCK 3WNW     N/A     71  36  27 SW10      29.83S                  
MORTON 1ENE      N/A     68  37  32 SW12      29.87R                  
ODONNELL 1N      N/A     65  40  39 SW8       29.86S                  
PLAINS 3N        N/A     63  45  51 SW5       29.89R                  
RALLS 1SE        N/A     64  39  39 SW9       29.83R                  
REESE CENTER     N/A     66  38  35 SW9       29.84S                  
SEAGRAVES 1SW    N/A     62  43  49 SW6       29.88R                  
SEMINOLE 2NNE    N/A     69  40  35 S7        29.88S                  
SLATON 2NE       N/A     70  39  32 SW17      29.83S                  
SNYDER 3E        N/A     71  42  35 S13       29.83S                  
SUNDOWN 8SW      N/A     64  41  43 SW12      29.87S                  
TAHOKA 3NNE      N/A     64  42  45 SW10      29.85R                  
WOLFFORTH 6SSW   N/A     64  40  40 SW12      29.85S                  
$$

TXZ031-032-036>038-042>044-220300-
TEXAS TECH WEST TEXAS MESONET/ROLLING PLAINS 
  
CITY           SKY/WX    TMP DP  RH WIND       PRES   REMARKS
ASPERMONT 3NE    N/A     72  39  30 S10       29.79R                  
FLUVANNA 3WNW    N/A     67  42  38 S10       29.85R                  
GRAHAM 5SSW      N/A     70  38  31 SW8       29.84S                  
GUTHRIE 10WSW    N/A     73  35  24 S14       29.77R                  
HASKELL 1NW      N/A     71  41  34 S8        29.78S                  
JAYTON 1SSE      N/A     68  38  34 S8        29.79S                  
KNOX CITY 3NW    N/A     72  40  31 S13       29.76S                  
LK A HENRY 1NW   N/A     70  44  38 SW7       29.81S                  
NORTHFIELD 1S    N/A     72  37  28 S14       29.72S                  
ODELL 4ENE       N/A     74  41  30 S15       29.73S                  
PADUCAH 10SW     N/A     69  39  33 S12       29.78R                  
POST 1NE         N/A     72  38  28 SW12      29.82R                  
RRING SPRGS 3N   N/A     64  38  37 S7        29.79R                  
SEYMOUR 3NW      N/A     72  37  28 S9        29.76S                  
SPUR 1W          N/A     67  39  36 SW7       29.78S                  
WEINERT 2NNE     N/A     74  38  26 SW12      29.78S                  
WHITE RVR 6NE    N/A     67  40  38 SW7       29.81R                  
$$

TXZ052-054-060>062-072-078-127-140-154-169-220300-
TEXAS TECH WEST TEXAS MESONET/PERMIAN BASIN/
CONCHO VALLEY/BIG COUNTRY/EDWARDS PLATEAU
  
CITY           SKY/WX    TMP DP  RH WIND       PRES   REMARKS
COYANOSA 2N      N/A     69  50  50 S7        29.89R                  
JUNCTION 1SSW    N/A     69  45  42 SW5       29.94S                  
MERTZON 3NNE     N/A     69  49  48 S7        29.91S                  
SAN ANGELO 7NW   N/A     74  49  42 SW9       29.88S                  
STRLNG CT 4WSW   N/A     73  48  41 S10       29.89S                  
ST LAWRNCE 5SW   N/A     69  51  53 S13       29.91R                  
SWEETWATR 11SW   N/A     67  40  36 S13       29.88S                  
WALL 1E          N/A     73  46  38 S14       29.89S                  
$$

TXZ055-058-074-075-080-082-220300-
TEXAS TECH WEST TEXAS MESONET/FAR WEST/SOUTHWEST MOUNTAINS/TRANS PECOS
  
CITY           SKY/WX    TMP DP  RH WIND       PRES   REMARKS
PRSMN GAP BBNP   N/A     76  44  32 SE6       29.95R                  
GUADLPE MTN NP   N/A     67  42  39 W15G32    30.05R                  
$$
  
