ASUS46 KSEW 231810
RWRWA 

WASHINGTON REGIONAL WEATHER ROUNDUP
NATIONAL WEATHER SERVICE SEATTLE WA
1100 AM PDT SUN OCT 23 2022

NOTE:"FAIR" INDICATES FEW OR NO CLOUDS BELOW 12,000 FEET WITH NO 
SIGNIFICANT WEATHER AND/OR OBSTRUCTIONS TO VISIBILITY.

WAZ507-509-555>559-231900-
SEATTLE, TACOMA, EVERETT, AND VICINITY
  
CITY           SKY/WX    TMP DP  RH WIND       PRES   REMARKS
EVERETT        CLOUDY    49  43  80 S7        30.13R                  
6HR MIN TEMP:  45; 6HR MAX TEMP:  49; 6HR PCP: TRACE;                

BOEING FIELD   PTSUNNY   49  46  90 SE6       30.15R                  
6HR MIN TEMP:  42; 6HR MAX TEMP:  49;                                

RENTON         PTSUNNY   49  44  83 S6        30.14R                  
6HR MIN TEMP:  42; 6HR MAX TEMP:  49;                                

SEATAC AIRPORT CLOUDY    47  44  90 SW5       30.14R                  
6HR MIN TEMP:  42; 6HR MAX TEMP:  48;                                

JBLM-MCCHORD   MOSUNNY   48  46  94 CALM      30.14R                  
6HR MIN TEMP:  35; 6HR MAX TEMP:  48;                                

PUYALLUP       DRIZZLE   50  45  81 CALM      30.15R                  
BREMERTON      FOG       44  44 100 S5        30.14R VSB 1/4          
6HR MIN TEMP:  32; 6HR MAX TEMP:  45;                                

JBLM-FT LEWIS  SUNNY     47  41  78 CALM      30.12R                  
6HR MIN TEMP:  31; 6HR MAX TEMP:  47;                                

TACOMA NARROWS PTSUNNY   48  44  86 VRB3      30.14R                  
6HR MIN TEMP:  43; 6HR MAX TEMP:  48;                                

$$
 
WAZ001-503-506-510-514-515-231900-
NORTH INTERIOR
  
CITY           SKY/WX    TMP DP  RH WIND       PRES   REMARKS
BELLINGHAM     CLOUDY    48  48 100 CALM      30.13R                  
6HR MIN TEMP:  34; 6HR MAX TEMP:  48;                                

FRIDAY HARBOR  MOSUNNY   51  48  89 VRB3      30.13R                  
6HR MIN TEMP:  39; 6HR MAX TEMP:  51;                                

EASTSOUND      PTSUNNY   50  48  93 S8        30.12R                  
PORT ANGELES   MOSUNNY   53  42  66 VRB5      30.12R                  
6HR MIN TEMP:  40; 6HR MAX TEMP:  53;                                

EDIZ HOOK      FAIR      50  44  77 CALM      30.12R                  
6HR MIN TEMP:  46; 6HR MAX TEMP:  51;                                

PORT TOWNSEND  FAIR      52  43  71 SE6       30.11R                  
NAS WHIDBEY    PTSUNNY   52  47  83 SE9       30.16R                  
6HR MIN TEMP:  42; 6HR MAX TEMP:  52;                                

ARLINGTON      CLOUDY    49  43  80 S6        30.14R                  
6HR MIN TEMP:  43; 6HR MAX TEMP:  49;                                

BURLINGTON     CLOUDY    50  46  87 S5        30.14R                  
$$
 
WAZ020-022-039-040-504-511-512-231900-
SOUTHWEST INTERIOR
  
CITY           SKY/WX    TMP DP  RH WIND       PRES   REMARKS
SHELTON        FOG       41  40  96 CALM      30.13R VSB 1/2          
6HR MIN TEMP:  30; 6HR MAX TEMP:  41;                                

OLYMPIA        PTSUNNY   42  42 100 CALM      30.15R FOG              
6HR MIN TEMP:  31; 6HR MAX TEMP:  42;                                

CHEHALIS       PTSUNNY   45  43  93 CALM      30.16R                  
KELSO          CLOUDY    51  46  83 S8        30.17R                  
6HR MIN TEMP:  45; 6HR MAX TEMP:  51;                                

VANCOUVER      MOSUNNY   52  44  74 SE5       30.17R                  
6HR MIN TEMP:  48; 6HR MAX TEMP:  53;                                

SCAPPOOSE, OR  CLOUDY    51  45  79 CALM      30.15R                  
6HR MIN TEMP:  44; 6HR MAX TEMP:  52;                                

PORTLAND, OR   PTSUNNY   53  44  71 CALM      30.16R                  
6HR MIN TEMP:  48; 6HR MAX TEMP:  53;                                

$$
 
WAZ021-516-517-231900-
WASHINGTON COAST
  
CITY           SKY/WX    TMP DP  RH WIND       PRES   REMARKS
FORKS          PTSUNNY   48  42  80 CALM      30.12R                  
6HR MIN TEMP:  31; 6HR MAX TEMP:  48;                                

HOQUIAM        MOSUNNY   48  45  89 E8        30.13S                  
6HR MIN TEMP:  39; 6HR MAX TEMP:  48;                                

ASTORIA, OR    CLOUDY    53  49  86 S3        30.14R                  
6HR MIN TEMP:  39; 6HR MAX TEMP:  53;                                

$$
 
WAZ019-023-024-040-567>569-231900-
CASCADE MOUNTAINS AND COLUMBIA GORGE
  
CITY           SKY/WX    TMP DP  RH WIND       PRES   REMARKS
STAMPEDE PASS  PTSUNNY   33  32  96 VRB5      30.04R FOG              
6HR MIN TEMP:  32; 6HR MAX TEMP:  33;                                

TROUTDALE, OR  CLOUDY    53  45  74 SW3       30.16R                  
6HR MIN TEMP:  47; 6HR MAX TEMP:  53;                                

HOOD RIVER, OR CLEAR     52  39  62 W5        30.11S                  
THE DALLES, OR SUNNY     57  37  47 NW14      30.10R                  
6HR MIN TEMP:  44; 6HR MAX TEMP:  57;                                

$$

WAZ026-027-041>044-520-521-231900-
EAST SLOPES
  
CITY           SKY/WX    TMP DP  RH WIND       PRES   REMARKS
OMAK           SUNNY     51  29  42 N8        30.04S                  
6HR MIN TEMP:  32; 6HR MAX TEMP:  51;                                

WENATCHEE      SUNNY     48  30  49 SW3       30.05R                  
6HR MIN TEMP:  36; 6HR MAX TEMP:  49;                                

ELLENSBURG     SUNNY     51  31  46 NW14      30.04R                  
6HR MIN TEMP:  37; 6HR MAX TEMP:  51;                                

YAKIMA         SUNNY     50  33  52 CALM      30.07R                  
6HR MIN TEMP:  29; 6HR MAX TEMP:  51;                                

SUNNYSIDE ARPT CLEAR     49  36  61 W7        30.09R                  
6HR MIN TEMP:  32; 6HR MAX TEMP:  47;                                

YAKIMA TC      FAIR      50  27  41 NE5       30.02R                  
6HR MIN TEMP:  34; 6HR MAX TEMP:  50;                                

$$

WAZ028-034-035-231900-
COLUMBIA BASIN
  
CITY           SKY/WX    TMP DP  RH WIND       PRES   REMARKS
EPHRATA          N/A     52  25  35 N16       30.02R                  
6HR MIN TEMP:  36; 6HR MAX TEMP:  52;                                

MOSES LAKE     SUNNY     51  29  42 N7        30.04R                  
6HR MIN TEMP:  34; 6HR MAX TEMP:  51;                                

PASCO          SUNNY     53  35  50 SW7       30.07R                  
6HR MIN TEMP:  39; 6HR MAX TEMP:  54;                                

RICHLAND ARPT  CLEAR     54  33  44 W6        30.08R                  
6HR MIN TEMP:  40; 6HR MAX TEMP:  55;                                

HERMISTON, OR  SUNNY     52  38  58 W9        30.09R                  
6HR MIN TEMP:  44; 6HR MAX TEMP:  52;                                

$$

WAZ036>038-231900-
NORTHEAST WASHINGTON
  
CITY           SKY/WX    TMP DP  RH WIND       PRES   REMARKS
SPOKANE GEIGER MOSUNNY   42  35  76 VRB3      30.00R                  
6HR MIN TEMP:  32; 6HR MAX TEMP:  42;                                

SPOKANE FELTS  MOSUNNY   43  35  73 CALM      30.01R                  
6HR MIN TEMP:  36; 6HR MAX TEMP:  43;                                

FAIRCHILD AFB  MOSUNNY   43  36  74 CALM      29.99R                  
6HR MIN TEMP:  30; 6HR MAX TEMP:  44; 6HR PCP: TRACE;                

COEURDALENE,ID MOSUNNY   42  36  79 SW6       30.00R                  
6HR MIN TEMP:  37; 6HR MAX TEMP:  42;                                

DEER PARK      SUNNY     44  37  76 S3        30.00R                  
6HR MIN TEMP:  34; 6HR MAX TEMP:  45;                                

$$

WAZ029>033-231900-
SOUTHEAST WASHINGTON
  
CITY           SKY/WX    TMP DP  RH WIND       PRES   REMARKS
PULLMAN        PTSUNNY   41  35  79 W13       30.02R                  
6HR MIN TEMP:  32; 6HR MAX TEMP:  42;                                

LEWISTON, ID   CLOUDY    43  38  82 N3        30.04R                  
6HR MIN TEMP:  36; 6HR MAX TEMP:  43;                                

WALLA WALLA    PTSUNNY   47  36  65 SW9       30.06R                  
6HR MIN TEMP:  41; 6HR MAX TEMP:  47;                                

PENDLETON, OR  MOSUNNY   49  36  61 W10       30.08R                  
6HR MIN TEMP:  42; 6HR MAX TEMP:  49; 6HR PCP: TRACE;                

$$
  
