ASUS46 KSEW 232020
RWRWA 

WASHINGTON REGIONAL WEATHER ROUNDUP
NATIONAL WEATHER SERVICE SEATTLE WA
100 PM PDT SUN OCT 23 2022

NOTE:"FAIR" INDICATES FEW OR NO CLOUDS BELOW 12,000 FEET WITH NO 
SIGNIFICANT WEATHER AND/OR OBSTRUCTIONS TO VISIBILITY.

WAZ507-509-555>559-232100-
SEATTLE, TACOMA, EVERETT, AND VICINITY
  
CITY           SKY/WX    TMP DP  RH WIND       PRES   REMARKS
EVERETT        CLOUDY    51  42  71 S5        30.15S                  
BOEING FIELD   PTSUNNY   51  44  77 S8        30.16F                  
RENTON         PTSUNNY   52  43  71 CALM      30.16S                  
SEATAC AIRPORT PTSUNNY   51  42  71 SW7       30.16S                  
JBLM-MCCHORD   PTSUNNY   52  45  78 CALM      30.16S                  
PUYALLUP       FAIR      54  41  62 CALM      30.16S                  
BREMERTON      CLOUDY    47  45  93 SW5       30.17R                  
JBLM-FT LEWIS  PTSUNNY   53  41  63 CALM      30.14S                  
TACOMA NARROWS PTSUNNY   51  43  74 S6        30.17S                  
$$
 
WAZ001-503-506-510-514-515-232100-
NORTH INTERIOR
  
CITY           SKY/WX    TMP DP  RH WIND       PRES   REMARKS
BELLINGHAM     CLOUDY    50  46  86 S7        30.15S                  
FRIDAY HARBOR  CLOUDY    51  45  79 SE5       30.15S                  
EASTSOUND      CLOUDY    52  46  82 S5        30.14S                  
PORT ANGELES   PTSUNNY   51  42  71 VRB6      30.15R                  
EDIZ HOOK      FAIR      50  46  86 NE7       30.15R                  
PORT TOWNSEND  FAIR      54  43  66 SE6G13    30.13S                  
NAS WHIDBEY    CLOUDY    53  43  68 SE7       30.19R                  
ARLINGTON      CLOUDY    52  43  71 SE8       30.16S                  
BURLINGTON     MOSUNNY   52  45  76 S8        30.15S                  
$$
 
WAZ020-022-039-040-504-511-512-232100-
SOUTHWEST INTERIOR
  
CITY           SKY/WX    TMP DP  RH WIND       PRES   REMARKS
SHELTON        PTSUNNY   48  44  86 SE3       30.14S                  
OLYMPIA        PTSUNNY   53  43  68 SW8       30.16F                  
CHEHALIS       FAIR      55  43  62 SW5       30.16S                  
KELSO          CLOUDY    56  45  66 S5        30.18R                  
VANCOUVER      CLOUDY    55  43  63 SW3       30.19R                  
SCAPPOOSE, OR  PTSUNNY   56  44  64 SE6       30.17R                  
PORTLAND, OR   PTSUNNY   56  44  64 SE5       30.18S                  
$$
 
WAZ021-516-517-232100-
WASHINGTON COAST
  
CITY           SKY/WX    TMP DP  RH WIND       PRES   REMARKS
FORKS          PTSUNNY   53  45  74 SW7       30.14R                  
HOQUIAM        MOSUNNY   55  46  71 E7        30.16R                  
ASTORIA, OR    MOSUNNY   55  44  66 SW9       30.17R                  
$$
 
WAZ019-023-024-040-567>569-232100-
CASCADE MOUNTAINS AND COLUMBIA GORGE
  
CITY           SKY/WX    TMP DP  RH WIND       PRES   REMARKS
STAMPEDE PASS  PTSUNNY   36  33  89 MISG      30.08                   
TROUTDALE, OR  CLOUDY    56  45  66 CALM      30.17F                  
HOOD RIVER, OR PTCLDY    54  34  47 NW5       30.14R                  
THE DALLES, OR SUNNY     60  35  39 NW10      30.11S                  
$$

WAZ026-027-041>044-520-521-232100-
EAST SLOPES
  
CITY           SKY/WX    TMP DP  RH WIND       PRES   REMARKS
OMAK           SUNNY     56  28  34 N12       30.04S                  
WENATCHEE      SUNNY     53  27  36 W8        30.05S                  
ELLENSBURG     SUNNY     54  28  36 SW3       30.05S                  
YAKIMA         SUNNY     54  29  38 W5        30.08R                  
SUNNYSIDE ARPT CLEAR     55  35  46 CALM      30.09S                  
YAKIMA TC      FAIR      53  24  32 CALM      30.03S                  
$$

WAZ028-034-035-232100-
COLUMBIA BASIN
  
CITY           SKY/WX    TMP DP  RH WIND       PRES   REMARKS
EPHRATA        SUNNY     55  25  31 NW8       30.05R                  
MOSES LAKE     SUNNY     56  27  32 VRB6      30.06R                  
PASCO          SUNNY     58  29  33 NW6       30.09R                  
RICHLAND ARPT  CLEAR     59  32  36 SW3       30.10R                  
HERMISTON, OR  SUNNY     56  36  47 W10       30.10S                  
$$

WAZ036>038-232100-
NORTHEAST WASHINGTON
  
CITY           SKY/WX    TMP DP  RH WIND       PRES   REMARKS
SPOKANE GEIGER PTSUNNY   46  32  58 CALM      30.02S                  
SPOKANE FELTS  CLOUDY    50  36  58 N3        30.04R                  
FAIRCHILD AFB  PTSUNNY   45  33  64 S5        30.01R                  
COEURDALENE,ID PTSUNNY   48  34  57 S5        30.03R                  
DEER PARK      MOSUNNY   50  33  52 S5        30.02S                  
$$

WAZ029>033-232100-
SOUTHEAST WASHINGTON
  
CITY           SKY/WX    TMP DP  RH WIND       PRES   REMARKS
PULLMAN        PTSUNNY   44  36  73 W9        30.05R                  
LEWISTON, ID   MOSUNNY   50  37  61 SW5       30.05S                  
WALLA WALLA    CLOUDY    50  34  54 SW7       30.08S                  
PENDLETON, OR  SUNNY     52  37  56 W14       30.09R                  
$$
  
