ASUS41 KOKX 231905
RWROKX

Regional Weather Roundup
National Weather Service New York NY
300 PM EDT SUN OCT 23 2022

Note: "FAIR" indicates few or no clouds below 12,000 feet with no
significant weather and/or obstructions to visibility.

NYZ071-072-176-178-NJZ106-104-232000-
New York City Metro Area
  
CITY           SKY/WX    TMP DP  RH WIND       PRES   REMARKS
Central Park   CLOUDY    61  46  57 NE7       30.28F                  
World Trd Ctr  NOT AVBL                                               
Bronx Lehman C   N/A     61  43  51 E10         N/A                   
LaGuardia Arpt CLOUDY    62  45  53 NE12      30.25F                  
Queens College   N/A     59  48  67 NE8         N/A                   
Kennedy Intl   CLOUDY    61  51  70 NE10      30.25F                  
Breezy Point     N/A     59 N/A N/A NE12        N/A                   
Brooklyn Coll    N/A     59  46  63 N8          N/A                   
Staten Island    N/A     61  46  59 NE6         N/A                   
Newark/Liberty CLOUDY    62  48  60 N10       30.25F                  
Teterboro      CLOUDY    61  49  64 N5        30.25F                  
$$
 
NYZ177-179-078>081-232000-
Long Island New York
  
CITY           SKY/WX    TMP DP  RH WIND       PRES   REMARKS
Jones Beach      N/A     57 N/A N/A NE15        N/A                   
Wantagh          N/A     59  52  77 NE7         N/A                   
Hempstead      NOT AVBL                                               
Matinecock Pt    N/A     61 N/A N/A NE20        N/A                   
Farmingdale    CLOUDY    59  50  72 NE8       30.25F                  
MacArthur/ISP  CLOUDY    59  51  75 NE15      30.25S                  
Stony Brook      N/A     59  50  72 E2          N/A                   
Shirley        HVY RAIN  55  51  86 N6        30.25F FOG              
Mt Sinai Harb    N/A     59 N/A N/A NE8G15      N/A                   
Westhampton    RAIN      56  55  97 NE12      30.26F FOG              
East Hampton   LGT RAIN  56  56 100 NE8       30.25S                  
Southold         N/A     55  54  94 NE7         N/A                   
Montauk          N/A     59  54  83 NE9G20    30.26F                  
$$
 
NYZ052-065-067-232000-
Hudson Valley
  
CITY           SKY/WX    TMP DP  RH WIND       PRES   REMARKS
White Plains   LGT RAIN  60  45  57 NE9       30.26S                  
Larchmont Harb   N/A     59 N/A N/A NE14        N/A                   
Croton On Huds   N/A     61 N/A N/A N2          N/A                   
Somers           N/A     59  48  67 E1          N/A                   
Brewster         N/A     59  46  63 NE2         N/A                   
Newburgh       PTSUNNY   55  48  76 VRB5      30.28S                  
Montgomery     CLOUDY    57  45  64 N5        30.28S                  
Otisville        N/A     57  43  58 NE2         N/A                   
Warwick          N/A     59  48  67 E3          N/A                   
Suffern          N/A     59  48  67 NE2         N/A                   
Poughkeepsie   CLOUDY    56  47  71 W3        30.28S                  
Albany         CLOUDY    61  45  55 NW3       30.30F                  
$$
 
NJZ001-105-106-008-010-013-015-019>022-104-232000-
New Jersey
  
CITY           SKY/WX    TMP DP  RH WIND       PRES   REMARKS
Newark/Liberty CLOUDY    62  48  60 N10       30.25F                  
Teterboro      CLOUDY    61  49  64 N5        30.25F                  
Caldwell       CLOUDY    62  45  53 NE6       30.27S                  
Somerville     CLOUDY    65  47  52 E3        30.24S                  
Linden         PTSUNNY   62  45  53 E12       30.26S                  
Perth Amboy      N/A     61 N/A N/A NE8G15      N/A                   
Sussex         CLOUDY    61  46  57 NE7       30.29R                  
Andover          N/A     64  48  56 N5        30.27S                  
Trenton        PTSUNNY   62  50  64 NE18      30.23F                  
Millville      CLOUDY    60  59  96 N12       30.17F FOG              
Atlantic City  RAIN      59  58  96 NE12G21   30.18S FOG              
Wrightstown    PTSUNNY   61  54  76 NE15      30.20F                  
Toms River     NOT AVBL                                               
Belmar         LGT RAIN  58  58 100 N10G17    30.23F                  
$$
 
PAZ047>061-062-071-232000-
Eastern Pennsylvania
  
CITY           SKY/WX    TMP DP  RH WIND       PRES   REMARKS
Philadelphia   CLOUDY    62  55  77 NE14      30.22F                  
Allentown      PTSUNNY   62  48  60 E14       30.25F                  
Scranton         N/A    N/A N/A N/A MISG      30.27S                  
$$

CTZ002-004>006-009-010-012-RIZ004-006-007-MAZ004-011-015-232000-
Southern New England

 In CT
  
CITY           SKY/WX    TMP DP  RH WIND       PRES   REMARKS
Bradley Intl   CLOUDY    57  44  62 N5        30.30F                  
Hartford       LGT RAIN  56  46  69 N5        30.30S                  
Danbury        LGT RAIN  61  45  55 CALM      30.30R                  
Wtrbury/Oxford LGT RAIN  56  45  66 NE8       30.29R                  
Norwalk Harbor   N/A     57 N/A N/A N12         N/A                   
Bridgeport     LGT RAIN  57  48  72 NE9       30.27S                  
Meriden        LGT RAIN  54  46  74 NE5       30.29R                  
New Haven      CLOUDY    56  50  80 N7        30.27S                  
Chester        LGT RAIN  55  50  82 N6        30.28S                  
Groton         LGT RAIN  58  51  78 N6        30.27S                  
Willimantic    LGT RAIN  59  44  57 NE7       30.31R                  

 In RI
  
CITY           SKY/WX    TMP DP  RH WIND       PRES   REMARKS
Providence     LGT RAIN  57  53  86 N8        30.30F                  
Block Island   LGT RAIN  57  53  86 NE15G22   30.27R                  
Westerly       LGT RAIN  57  54  89 NE6       30.28S                  
 
In MA
  
CITY           SKY/WX    TMP DP  RH WIND       PRES   REMARKS
Boston         CLOUDY    58  51  78 NE10      30.33F                  
Worcester      CLOUDY    56  43  61 NE7       30.32F                  
Westfield      CLOUDY    55  44  66 N7        30.31S                  
Provincetown   CLOUDY    57  55  93 NE9       30.30F                  
Nantucket      RAIN      59  57  93 N20       30.24F FOG              
$$

ANZ330-335-338-340-345-350-353-355-232000-
Coastal Marine Observations

  
STATION/POSITION TIME  SKY/WX   TEMP    WIND        PRES    VSBY  WAVE
                                AIR SEA DIR/SP/G                  HT/PER
                 (UTC)          (F)     (DEG/KT/KT) (MB)    (MI)  (FT/S)
NY Harb Entrance 1840               62   40/ 17/ 23 1022.5
20 S Fire Island 1840               62              1021.9
Great South Bay  1815            58      50/ 12/ 14   N/A
23 SSW Montauk P 1840            59      60/ 23/ 27 1023.0
15 E Barnegat Li 1826               62                N/A           9/ 8
Hudson Canyon    1840            60 63   60/ 25/ 31 1020.2
Kings Point      1830               61   40/  6/  9 1024.7
Execution Rocks  NOT AVBL
Western LI Sound NOT AVBL
Central LI Sound NOT AVBL
Robbins Reef     1824                    50/ 13/ 17 1024.2
$$


>>>>>>>>>>>>>>>>>>>>>>>>>>>> KEY <<<<<<<<<<<<<<<<<<<<<<<<<<<
>                                                          <
>     SKY/WX - Sky Condition/Present Weather               <
>     TMP    - Temperature in Fahrenheit                   <
>     DP     - Dew Point in Fahrenheit                     <
>     RH     - Relative Humidity in Percent                <
>     WIND   - Direction (from) and Speed in MPH           <
>     PRES   - Mean Sea Level Pressure (inches of Hg)      <
>     WCI    - Wind Chill Index                            <
>     VSB    - Visibility in Miles                         <
>     HX     - Heat Index                                  <
>     TC     - Temperature in Celsius                      <
>     VRB    - Variable Wind Direction                     <
>                                                          <
>>>>>>>>>>>>>>>>>>>>>>>>>>>> KEY <<<<<<<<<<<<<<<<<<<<<<<<<<<
  
