ASUS41 KOKX 232005
RWROKX

Regional Weather Roundup
National Weather Service New York NY
400 PM EDT SUN OCT 23 2022

Note: "FAIR" indicates few or no clouds below 12,000 feet with no
significant weather and/or obstructions to visibility.

NYZ071-072-176-178-NJZ106-104-232100-
New York City Metro Area
  
CITY           SKY/WX    TMP DP  RH WIND       PRES   REMARKS
Central Park   CLOUDY    61  46  57 E8        30.28S                  
World Trd Ctr  NOT AVBL                                               
Bronx Lehman C   N/A     61  43  51 E9          N/A                   
LaGuardia Arpt LGT RAIN  61  46  57 NE14      30.25S                  
Queens College   N/A     59  48  67 NE12        N/A                   
Kennedy Intl   LGT RAIN  59  50  72 NE14      30.25S                  
Breezy Point     N/A     59 N/A N/A NE12        N/A                   
Brooklyn Coll    N/A     59  46  63 N12         N/A                   
Staten Island    N/A     61  46  59 NE8         N/A                   
Newark/Liberty LGT RAIN  63  47  55 N13       30.25S                  
Teterboro      CLOUDY    62  46  55 NE7       30.25S                  
$$
 
NYZ177-179-078>081-232100-
Long Island New York
  
CITY           SKY/WX    TMP DP  RH WIND       PRES   REMARKS
Jones Beach      N/A     59 N/A N/A NE15        N/A                   
Wantagh          N/A     59  50  72 NE10        N/A                   
Hempstead      NOT AVBL                                               
Matinecock Pt    N/A     59 N/A N/A NE21        N/A                   
Farmingdale    CLOUDY    59  49  69 NE10      30.25S                  
MacArthur/ISP  CLOUDY    57  52  83 NE13      30.25S                  
Stony Brook      N/A     57  50  77 E3          N/A                   
Shirley        LGT RAIN  55  52  89 N8        30.26S                  
Mt Sinai Harb    N/A     57 N/A N/A NE7G14      N/A                   
Westhampton    LGT RAIN  57  55  93 N12G20    30.25S                  
East Hampton   LGT RAIN  55  55 100 NE7       30.26R                  
Southold         N/A     54  52  94 NE7         N/A                   
Montauk          N/A     59  55  87 NE9       30.26S                  
$$
 
NYZ052-065-067-232100-
Hudson Valley
  
CITY           SKY/WX    TMP DP  RH WIND       PRES   REMARKS
White Plains   PTSUNNY   60  44  55 NE7       30.26S                  
Larchmont Harb   N/A     59 N/A N/A NE17        N/A                   
Croton On Huds   N/A     61 N/A N/A E2          N/A                   
Somers           N/A     59  46  63 E2          N/A                   
Brewster         N/A     59  46  63 E2          N/A                   
Newburgh       PTSUNNY   57  48  72 CALM      30.28S                  
Montgomery     MOSUNNY   58  44  60 N6        30.28S                  
Otisville        N/A     59  43  55 NE2         N/A                   
Warwick          N/A     59  48  67 E3          N/A                   
Suffern          N/A     59  46  63 NE3         N/A                   
Poughkeepsie   MOSUNNY   57  46  66 CALM      30.28S                  
Albany         PTSUNNY   61  46  57 NW3       30.30S                  
$$
 
NJZ001-105-106-008-010-013-015-019>022-104-232100-
New Jersey
  
CITY           SKY/WX    TMP DP  RH WIND       PRES   REMARKS
Newark/Liberty LGT RAIN  63  47  55 N13       30.25S                  
Teterboro      CLOUDY    62  46  55 NE7       30.25S                  
Caldwell       CLOUDY    62  46  55 NE7       30.26F                  
Somerville     PTSUNNY   65  47  52 NE8       30.23F                  
Linden         CLOUDY    62  45  54 NE8       30.25S                  
Perth Amboy      N/A     61 N/A N/A NE9G15      N/A                   
Sussex         NOT AVBL                                               
Andover          N/A     66  49  54 CALM      30.27S                  
Trenton        CLOUDY    62  50  64 NE13      30.21F                  
Millville      RAIN      59  58  96 NE7       30.18R FOG              
Atlantic City  CLOUDY    59  57  94 NE16G26   30.17F                  
Wrightstown    LGT RAIN  57  55  94 N13       30.21R FOG              
Toms River     NOT AVBL                                               
Belmar         LGT RAIN  57  57 100 N10       30.23S                  
$$
 
PAZ047>061-062-071-232100-
Eastern Pennsylvania
  
CITY           SKY/WX    TMP DP  RH WIND       PRES   REMARKS
Philadelphia   RAIN      60  54  80 NE14G23   30.21F                  
Allentown      PTSUNNY   62  48  60 NE10      30.25S                  
Scranton         N/A    N/A N/A N/A MISG      30.26F                  
$$

CTZ002-004>006-009-010-012-RIZ004-006-007-MAZ004-011-015-232100-
Southern New England

 In CT
  
CITY           SKY/WX    TMP DP  RH WIND       PRES   REMARKS
Bradley Intl   LGT RAIN  55  46  71 N6        30.30S                  
Hartford       LGT RAIN  54  48  80 N3        30.30S                  
Danbury        CLOUDY    61  44  53 E6        30.29F                  
Wtrbury/Oxford MOSUNNY   55  47  74 NE5       30.28F                  
Norwalk Harbor   N/A     59 N/A N/A NE14        N/A                   
Bridgeport     CLOUDY    58  48  69 NE13      30.26F                  
Meriden        LGT RAIN  53  47  79 N7        30.29S                  
New Haven      RAIN      55  51  86 NE7       30.28R FOG              
Chester        LGT RAIN  54  52  94 N6        30.28S                  
Groton         LGT RAIN  57  52  83 N7        30.27S                  
Willimantic    LGT RAIN  56  47  71 N6        30.30F                  

 In RI
  
CITY           SKY/WX    TMP DP  RH WIND       PRES   REMARKS
Providence     CLOUDY    58  50  75 NE10      30.30S                  
Block Island   LGT RAIN  55  50  83 NE14G22   30.27S                  
Westerly       LGT RAIN  57  54  89 NE8       30.27F                  
 
In MA
  
CITY           SKY/WX    TMP DP  RH WIND       PRES   REMARKS
Boston         NOT AVBL                                               
Worcester      CLOUDY    55  43  63 NE5       30.32S                  
Westfield      CLOUDY    55  44  66 N6        30.31S                  
Provincetown   CLOUDY    58  54  86 NE10      30.30S                  
Nantucket      LGT RAIN  60  59  96 NE22G30   30.23S FOG              
$$

ANZ330-335-338-340-345-350-353-355-232100-
Coastal Marine Observations

  
STATION/POSITION TIME  SKY/WX   TEMP    WIND        PRES    VSBY  WAVE
                                AIR SEA DIR/SP/G                  HT/PER
                 (UTC)          (F)     (DEG/KT/KT) (MB)    (MI)  (FT/S)
NY Harb Entrance 1950               62   40/ 21/ 27 1022.3          7/ 9
20 S Fire Island 1950               62              1021.6          9/ 8
Great South Bay  1930            57      60/ 14/ 19   N/A
23 SSW Montauk P 1950            58      50/ 21/ 27 1023.6          7/ 6
15 E Barnegat Li 1926               62                N/A          10/ 9
Hudson Canyon    1940            60 63   50/ 23/ 29 1020.1
Kings Point      1930               61   40/  6/ 13 1024.7
Execution Rocks  NOT AVBL
Western LI Sound NOT AVBL
Central LI Sound NOT AVBL
Robbins Reef     1930                    50/ 15/ 18 1024.0
$$


>>>>>>>>>>>>>>>>>>>>>>>>>>>> KEY <<<<<<<<<<<<<<<<<<<<<<<<<<<
>                                                          <
>     SKY/WX - Sky Condition/Present Weather               <
>     TMP    - Temperature in Fahrenheit                   <
>     DP     - Dew Point in Fahrenheit                     <
>     RH     - Relative Humidity in Percent                <
>     WIND   - Direction (from) and Speed in MPH           <
>     PRES   - Mean Sea Level Pressure (inches of Hg)      <
>     WCI    - Wind Chill Index                            <
>     VSB    - Visibility in Miles                         <
>     HX     - Heat Index                                  <
>     TC     - Temperature in Celsius                      <
>     VRB    - Variable Wind Direction                     <
>                                                          <
>>>>>>>>>>>>>>>>>>>>>>>>>>>> KEY <<<<<<<<<<<<<<<<<<<<<<<<<<<
  
