ASUS41 KOKX 232105
RWROKX

Regional Weather Roundup
National Weather Service New York NY
500 PM EDT SUN OCT 23 2022

Note: "FAIR" indicates few or no clouds below 12,000 feet with no
significant weather and/or obstructions to visibility.

NYZ071-072-176-178-NJZ106-104-232200-
New York City Metro Area
  
CITY           SKY/WX    TMP DP  RH WIND       PRES   REMARKS
Central Park   CLOUDY    58  48  69 NE12G17   30.27F                  
World Trd Ctr  NOT AVBL                                               
Bronx Lehman C   N/A     59  45  58 E10G24      N/A                   
LaGuardia Arpt LGT RAIN  60  46  59 NE16      30.24F                  
Queens College   N/A     57  48  72 NE12        N/A                   
Kennedy Intl   LGT RAIN  58  50  75 NE13      30.24F                  
Breezy Point     N/A     57 N/A N/A NE13G18     N/A                   
Brooklyn Coll    N/A     59  46  63 NE9         N/A                   
Staten Island    N/A     59  50  72 NE5         N/A                   
Newark/Liberty LGT RAIN  60  48  64 NE13      30.23F                  
Teterboro      LGT RAIN  59  46  62 NE7       30.24F                  
$$
 
NYZ177-179-078>081-232200-
Long Island New York
  
CITY           SKY/WX    TMP DP  RH WIND       PRES   REMARKS
Jones Beach      N/A     57 N/A N/A NE18G26     N/A                   
Wantagh          N/A     59  50  72 NE12        N/A                   
Hempstead      NOT AVBL                                               
Matinecock Pt    N/A     59 N/A N/A NE26        N/A                   
Farmingdale    CLOUDY    59  49  69 NE8G18    30.24F                  
MacArthur/ISP  CLOUDY    56  53  90 NE14      30.23F                  
Stony Brook      N/A     55  50  82 E5          N/A                   
Shirley        LGT RAIN  56  51  84 VRB7      30.24F                  
Mt Sinai Harb    N/A     57 N/A N/A NE8G14      N/A                   
Westhampton    CLOUDY    56  54  93 N12       30.26R                  
East Hampton   LGT RAIN  56  55  98 NE9       30.24S                  
Southold         N/A     55  54  94 NE9         N/A                   
Montauk          N/A     57  51  80 NE12G24   30.25F                  
$$
 
NYZ052-065-067-232200-
Hudson Valley
  
CITY           SKY/WX    TMP DP  RH WIND       PRES   REMARKS
White Plains   DRIZZLE   59  45  59 NE13      30.25F                  
Larchmont Harb   N/A     59 N/A N/A NE18        N/A                   
Croton On Huds   N/A     61 N/A N/A NE2         N/A                   
Somers           N/A     59  46  63 NE2         N/A                   
Brewster         N/A     59  43  55 NE5         N/A                   
Newburgh       CLOUDY    57  48  72 CALM      30.28S                  
Montgomery     CLOUDY    57  43  59 NE5       30.27F                  
Otisville        N/A     57  46  67 N1          N/A                   
Warwick          N/A     59  48  67 NE3         N/A                   
Suffern          N/A     59  46  63 NE3         N/A                   
Poughkeepsie   CLOUDY    57  47  69 CALM      30.27F                  
Albany         CLOUDY    61  46  57 NW3       30.30S                  
$$
 
NJZ001-105-106-008-010-013-015-019>022-104-232200-
New Jersey
  
CITY           SKY/WX    TMP DP  RH WIND       PRES   REMARKS
Newark/Liberty LGT RAIN  60  48  64 NE13      30.23F                  
Teterboro      LGT RAIN  59  46  62 NE7       30.24F                  
Caldwell       CLOUDY    62  45  53 NE10      30.24F                  
Somerville     CLOUDY    63  46  54 NE6       30.21F                  
Linden         LGT RAIN  61  45  56 NE13G20   30.23F                  
Perth Amboy      N/A     59 N/A N/A NE3         N/A                   
Sussex         CLOUDY    61  47  59 NE6       30.27                   
Andover          N/A     63  48  58 NE7       30.26F                  
Trenton        CLOUDY    60  48  64 NE12      30.22R                  
Millville      CLOUDY    59  57  93 NE16G22   30.17S                  
Atlantic City  LGT RAIN  59  57  94 NE17G25   30.17  FOG              
Wrightstown    LGT RAIN  56  54  92 NE14      30.20F FOG              
Toms River     NOT AVBL                                               
Belmar         LGT RAIN  56 N/A N/A NE8       30.22F                  
$$
 
PAZ047>061-062-071-232200-
Eastern Pennsylvania
  
CITY           SKY/WX    TMP DP  RH WIND       PRES   REMARKS
Philadelphia   LGT RAIN  59  56  89 NE10      30.21S                  
Allentown      CLOUDY    61  48  62 NE10      30.24F                  
Scranton         N/A    N/A N/A N/A MISG      30.26S                  
$$

CTZ002-004>006-009-010-012-RIZ004-006-007-MAZ004-011-015-232200-
Southern New England

 In CT
  
CITY           SKY/WX    TMP DP  RH WIND       PRES   REMARKS
Bradley Intl   LGT RAIN  53  47  79 N5        30.30S                  
Hartford       RAIN      53  49  86 CALM      30.29F FOG              
Danbury        CLOUDY    61  43  51 E9        30.28F                  
Wtrbury/Oxford CLOUDY    55  46  71 NE8       30.28S                  
Norwalk Harbor   N/A     57 N/A N/A NE20        N/A                   
Bridgeport     CLOUDY    57  47  69 NE9       30.27R                  
Meriden        LGT RAIN  53  48  83 N5        30.28F                  
New Haven      CLOUDY    55  52  89 N7        30.27F                  
Chester        LGT RAIN  52  50  93 N5        30.26F                  
Groton         LGT RAIN  57  52  83 NE15      30.23F                  
Willimantic    LGT RAIN  52  50  93 CALM      30.31R                  

 In RI
  
CITY           SKY/WX    TMP DP  RH WIND       PRES   REMARKS
Providence     LGT RAIN  56  52  86 NE12      30.30S                  
Block Island   CLOUDY    55  49  80 NE17G29   30.23F                  
Westerly       LGT RAIN  56  53  90 VRB6      30.26F                  
 
In MA
  
CITY           SKY/WX    TMP DP  RH WIND       PRES   REMARKS
Boston         LGT RAIN  56  48  74 NE8       30.33R                  
Worcester      LGT RAIN  54  45  71 NE5       30.32S                  
Westfield      LGT RAIN  53  47  79 N8        30.29F                  
Provincetown   LGT RAIN  57  55  93 NE10      30.30S                  
Nantucket      RAIN      61  59  93 NE21G29   30.21F FOG              
$$

ANZ330-335-338-340-345-350-353-355-232200-
Coastal Marine Observations

  
STATION/POSITION TIME  SKY/WX   TEMP    WIND        PRES    VSBY  WAVE
                                AIR SEA DIR/SP/G                  HT/PER
                 (UTC)          (F)     (DEG/KT/KT) (MB)    (MI)  (FT/S)
NY Harb Entrance 2050               62   30/ 21/ 25 1021.9          7/ 8
20 S Fire Island 2040               62              1021.4
Great South Bay  2030            56      50/ 16/ 19   N/A
23 SSW Montauk P 2050            58      40/ 21/ 27 1023.4          6/ 6
15 E Barnegat Li 2026               62                N/A          11/ 8
Hudson Canyon    2040            60 62   50/ 23/ 29 1019.9
Kings Point      2030               61   30/  8/ 13 1024.4
Execution Rocks  NOT AVBL
Western LI Sound NOT AVBL
Central LI Sound NOT AVBL
Robbins Reef     2024                    50/ 14/ 17 1023.7
$$


>>>>>>>>>>>>>>>>>>>>>>>>>>>> KEY <<<<<<<<<<<<<<<<<<<<<<<<<<<
>                                                          <
>     SKY/WX - Sky Condition/Present Weather               <
>     TMP    - Temperature in Fahrenheit                   <
>     DP     - Dew Point in Fahrenheit                     <
>     RH     - Relative Humidity in Percent                <
>     WIND   - Direction (from) and Speed in MPH           <
>     PRES   - Mean Sea Level Pressure (inches of Hg)      <
>     WCI    - Wind Chill Index                            <
>     VSB    - Visibility in Miles                         <
>     HX     - Heat Index                                  <
>     TC     - Temperature in Celsius                      <
>     VRB    - Variable Wind Direction                     <
>                                                          <
>>>>>>>>>>>>>>>>>>>>>>>>>>>> KEY <<<<<<<<<<<<<<<<<<<<<<<<<<<
  
