ASUS41 KALY 231810
RWRALY

NEW YORK STATE HOURLY WEATHER ROUNDUP
NATIONAL WEATHER SERVICE ALBANY NY
200 PM EDT SUN OCT 23 2022

NOTE: "FAIR" INDICATES FEW OR NO CLOUDS BELOW 12,000 FEET WITH NO
SIGNIFICANT WEATHER AND/OR NO OBSTRUCTIONS TO VISIBILITY.

NYZ032-033-038>043-046>054-057>066-NYZ062>081-082-084-231900-
EAST

  
CITY           SKY/WX    TMP DP  RH WIND       PRES   REMARKS
ALBANY         PTSUNNY   61  43  51 CALM      30.31F                  
GLENS FALLS    MOSUNNY   63  43  48 CALM      30.31F                  
POUGHKEEPSIE   MOSUNNY   56  47  71 NW5       30.28F                  
NEWBURGH       PTSUNNY   55  48  76 VRB5      30.28                   
MONTGOMERY     CLOUDY    56  44  64 N8        30.28F                  
WHITE PLAINS   LGT RAIN  60  45  57 NE8       30.26F                  
ISLIP          CLOUDY    58  52  80 NE12      30.25S                  
NEW YORK CITY  LGT RAIN  62  44  51 NE12      30.27R                  
CENTRAL PARK   LGT RAIN  57  51  80 E9        30.29S                  
$$

NYZ005>009-017-018-044>046-055-056-231900-
CENTRAL

  
CITY           SKY/WX    TMP DP  RH WIND       PRES   REMARKS
SYRACUSE       PTSUNNY   68  43  40 VRB3      30.26F                  
ROME           MOSUNNY   62  43  49 SE7       30.30F                  
ELMIRA         MOSUNNY   67  40  37 CALM      30.25F                  
BINGHAMTON     MOSUNNY   61  47  59 VRB3      30.29F                  
MONTICELLO     CLOUDY    61  49  64 E6        30.29F                  
$$

NYZ026>034-041>043-087-231900-
NORTH

  
CITY           SKY/WX    TMP DP  RH WIND       PRES   REMARKS
WATERTOWN      MOSUNNY   71  44  37 W10       30.25F                  
FORT DRUM      NOT AVBL                                               
OGDENSBURG     FAIR      72  39  30 VRB3      30.24F                  
MASSENA        SUNNY     71  43  36 NE6       30.29F                  
SARANAC LAKE   MOSUNNY   66  37  34 CALM      30.29F                  
PLATTSBURGH    SUNNY     60  42  51 SE7       30.30F                  
$$

NYZ001>004-010>016-019>021-085-231900-
WEST

  
CITY           SKY/WX    TMP DP  RH WIND       PRES   REMARKS
NIAGARA FALLS  SUNNY     74  46  36 CALM      30.21F                  
BUFFALO        MOSUNNY   75  41  29 NE8       30.21F                  
DUNKIRK        SUNNY     68  45  43 NW7       30.21F                  
JAMESTOWN      SUNNY     68  40  35 VRB3      30.24F                  
WELLSVILLE     MOSUNNY   67  35  30 S5        30.27F                  
ROCHESTER      PTSUNNY   69  44  40 E3        30.23F                  
PENN YAN       MOSUNNY   68  39  34 SW6       30.26F                  
$$

             KEY
       WCI = WIND CHILL INDEX
       VSB = VISIBILITY
       HX  = HEAT INDEX
$$
  
