ASUS41 KBGM 232010
RWRBGM

REGIONAL WEATHER ROUNDUP
NATIONAL WEATHER SERVICE BINGHAMTON NY
400 PM EDT SUN OCT 23 2022

Note: "fair" indicates few or no clouds below 12,000 feet with no
significant weather and/or obstructions to visibility.

* = Station(s) that does not report precipitation, such as rain, 
snow, etc, also no thunder or fog.

NYZ009-015>018-022>025-036-037-044>046-055>057-062-232100
...Central New York...
  
CITY           SKY/WX    TMP DP  RH WIND       PRES   REMARKS
Binghamton     PTSUNNY   60  49  66 E5        30.27F                  
Cortland       FAIR      64  43  45 SE6       30.26F                  
Dansville      MOSUNNY   70  40  33 E7        30.21F                  
Elmira         MOSUNNY   67  42  40 SE7       30.24S                  
Endicott       CLEAR     64  46  52 CALM      30.25                   
Ithaca         MOSUNNY   67  45  45 SE8       30.26F                  
Hamilton       SUNNY     63  43  48 CALM      30.28S                  
Monticello     CLOUDY    61  49  64 E8        30.29F                  
Norwich        SUNNY     63  48  59 CALM      30.29S                  
Oneonta          N/A     63  46  55 CALM      30.29S                  
Penn Yan       MOSUNNY   67  39  35 SE7       30.25S                  
Rome           MOSUNNY   65  41  41 SE8       30.29F                  
Seneca Falls   CLEAR     70  32  24 S7        30.24F                  
Sidney         SUNNY     64  50  59 CALM      30.27F                  
Skaneateles    FAIR      68  32  26 SE6G12    30.25F                  
Syracuse       PTSUNNY   71  39  31 E8        30.24F                  
$$
 
PAZ038>040-043-044-047-048-072-232100
...Northeast Pennsylvania...
  
CITY           SKY/WX    TMP DP  RH WIND       PRES   REMARKS
Hazleton       CLOUDY    61  46  59 CALM      30.29S                  
Scranton         N/A    N/A N/A N/A MISG      30.26F                  
$$
&&
KEY
WCI = Wind Chill Index
VSB = Visibility
HX  = Heat Index
$$
  
