ASUS41 KALY 231910
RWRALY

NEW YORK STATE HOURLY WEATHER ROUNDUP
NATIONAL WEATHER SERVICE ALBANY NY
300 PM EDT SUN OCT 23 2022

NOTE: "FAIR" INDICATES FEW OR NO CLOUDS BELOW 12,000 FEET WITH NO
SIGNIFICANT WEATHER AND/OR NO OBSTRUCTIONS TO VISIBILITY.

NYZ032-033-038>043-046>054-057>066-NYZ062>081-082-084-232000-
EAST

  
CITY           SKY/WX    TMP DP  RH WIND       PRES   REMARKS
ALBANY         PTSUNNY   61  45  55 NW3       30.30F                  
GLENS FALLS    MOSUNNY   63  43  48 CALM      30.30F                  
POUGHKEEPSIE   PTSUNNY   56  47  71 W3        30.28S                  
NEWBURGH       PTSUNNY   55  48  76 VRB5      30.28S                  
MONTGOMERY     CLOUDY    57  45  64 N5        30.28S                  
WHITE PLAINS   LGT RAIN  60  45  57 NE9       30.26S                  
ISLIP          CLOUDY    59  51  75 NE15      30.25S                  
NEW YORK CITY  CLOUDY    62  45  53 NE12      30.25F                  
CENTRAL PARK   CLOUDY    61  46  57 NE7       30.28F                  
$$

NYZ005>009-017-018-044>046-055-056-232000-
CENTRAL

  
CITY           SKY/WX    TMP DP  RH WIND       PRES   REMARKS
SYRACUSE       PTSUNNY   69  43  38 NE7       30.25F                  
ROME           MOSUNNY   65  41  41 SE9       30.30S                  
ELMIRA         MOSUNNY   69  37  30 VRB5      30.24F                  
BINGHAMTON     MOSUNNY   60  47  61 SE3       30.28F                  
MONTICELLO     CLOUDY    61  49  64 E8        30.30R                  
$$

NYZ026>034-041>043-087-232000-
NORTH

  
CITY           SKY/WX    TMP DP  RH WIND       PRES   REMARKS
WATERTOWN      MOSUNNY   70  43  37 W7        30.25S                  
FORT DRUM      NOT AVBL                                               
OGDENSBURG     FAIR      72  39  30 VRB3      30.23F                  
MASSENA        SUNNY     70  41  34 N7        30.28F                  
SARANAC LAKE   MOSUNNY   68  37  32 CALM      30.28F                  
PLATTSBURGH    SUNNY     61  42  49 SE3       30.29F                  
$$

NYZ001>004-010>016-019>021-085-232000-
WEST

  
CITY           SKY/WX    TMP DP  RH WIND       PRES   REMARKS
NIAGARA FALLS  SUNNY     74  47  38 N9        30.20F                  
BUFFALO        PTSUNNY   74  41  30 CALM      30.20F                  
DUNKIRK        SUNNY     70  42  36 N7        30.20F                  
JAMESTOWN      SUNNY     69  40  34 E5        30.23F HAZE             
WELLSVILLE     MOSUNNY   69  33  26 SE7       30.26F                  
ROCHESTER      PTSUNNY   70  43  37 E6        30.23S                  
PENN YAN       MOSUNNY   67  40  37 SE8       30.25F                  
$$

             KEY
       WCI = WIND CHILL INDEX
       VSB = VISIBILITY
       HX  = HEAT INDEX
$$
  
