ASUS41 KBGM 231910
RWRBGM

REGIONAL WEATHER ROUNDUP
NATIONAL WEATHER SERVICE BINGHAMTON NY
300 PM EDT SUN OCT 23 2022

Note: "fair" indicates few or no clouds below 12,000 feet with no
significant weather and/or obstructions to visibility.

* = Station(s) that does not report precipitation, such as rain, 
snow, etc, also no thunder or fog.

NYZ009-015>018-022>025-036-037-044>046-055>057-062-232000
...Central New York...
  
CITY           SKY/WX    TMP DP  RH WIND       PRES   REMARKS
Binghamton     MOSUNNY   60  47  61 SE3       30.28F                  
Cortland       FAIR      64  41  42 SE5       30.28S                  
Dansville      MOSUNNY   74  40  29 CALM      30.22F                  
Elmira         MOSUNNY   69  37  30 VRB5      30.24F                  
Endicott       CLEAR     64  46  52 CALM      30.26                   
Ithaca         MOSUNNY   68  43  40 S12       30.27S                  
Hamilton       SUNNY     63  43  48 S7        30.29S                  
Monticello     CLOUDY    61  49  64 E8        30.30R                  
Norwich        SUNNY     63  46  55 CALM      30.30F                  
Oneonta          N/A     63  45  51 CALM      30.29F                  
Penn Yan       MOSUNNY   67  40  37 SE8       30.25F                  
Rome           MOSUNNY   65  41  41 SE9       30.30S                  
Seneca Falls   CLEAR     68  36  30 S9        30.26S                  
Sidney         SUNNY     64  48  55 CALM      30.28F                  
Skaneateles    FAIR      68  37  32 E8        30.26S                  
Syracuse       PTSUNNY   69  43  38 NE7       30.25F                  
$$
 
PAZ038>040-043-044-047-048-072-232000
...Northeast Pennsylvania...
  
CITY           SKY/WX    TMP DP  RH WIND       PRES   REMARKS
Hazleton       CLOUDY    61  48  63 CALM      30.29F                  
Scranton         N/A    N/A N/A N/A MISG      30.27S                  
$$
&&
KEY
WCI = Wind Chill Index
VSB = Visibility
HX  = Heat Index
$$
  
