ASUS44 KMEG 232000
RWRTN 
TENNESSEE HOURLY STATE WEATHER ROUNDUP
NATIONAL WEATHER SERVICE MEMPHIS TN
300 PM CDT SUN OCT 23 2022

TNZ002-004-019-021-049-052-054-088>092-232100-
WEST TENNESSEE
  
CITY           SKY/WX    TMP DP  RH WIND       PRES   REMARKS
MEMPHIS INTL   MOSUNNY   79  54  41 S15G24    29.98F                  
NWS MEMPHIS      N/A     80 N/A N/A MISG        N/A                   
JACKSON        SUNNY     77  53  43 S14G23    30.02F                  
DYERSBURG      SUNNY     81  56  42 S10G17    29.99F                  
SOMERVILLE     SUNNY     77  55  47 S9G17     29.99F                  
COVINGTON      MOSUNNY   81  54  39 SW16G25   29.98F                  
UNION CITY     SUNNY     81  52  36 S17G26    29.97F                  
BOLIVAR        SUNNY     79  54  41 SE17G24   30.01F                  
PARIS          SUNNY     79  41  25 S14G23    30.01F                  
HUNTINGDON     SUNNY     79  43  27 S13G22    30.01F                  
SELMER         SUNNY     77  45  31 S10G18    30.04F                  
SAVANNAH       SUNNY     77  45  31 S13       30.05F                  
$$

TNZ008-025-027-028-033-062-065-066-232100-
NORTH MIDDLE TENNESSEE
  
CITY           SKY/WX    TMP DP  RH WIND       PRES   REMARKS
NASHVILLE      PTSUNNY   76  44  32 S16       30.09F                  
DICKSON          N/A     77  43  29 SW13G21   30.05F                  
PORTLAND       SUNNY     75  45  33 S12G18    30.06F                  
LEBANON        SUNNY     77  45  31 S13       30.07S                  
SMYRNA         MOSUNNY   76  47  35 S12       30.10F                  
MURFREESBORO   SUNNY     75  43  31 S9        30.07F                  
COOKEVILLE     SUNNY     77  43  29 CALM      30.10F                  
LIVINGSTON     SUNNY     73  41  31 VRB5      30.11F                  
GALLATIN       SUNNY     77  43  29 S12G22    30.10F                  
CROSSVILLE     NOT AVBL                                               
$$

TNZ061-075-076-078-094-096-097-232100-
SOUTH MIDDLE TENNESSEE
  
CITY           SKY/WX    TMP DP  RH WIND       PRES   REMARKS
LAWRENCEBURG   SUNNY     75  43  31 S8G16     30.08F                  
LEWISBURG      SUNNY     75  45  33 S10G16    30.08F                  
FAYETTEVILLE   SUNNY     75  43  31 S14       30.13F                  
TULLAHOMA      SUNNY     73  41  31 S7        30.11F                  
WINCHESTER     SUNNY     73  41  31 SE7       30.11F                  
MCMINNVILLE    SUNNY     75  41  29 SW8G14    30.11F                  
COLUMBIA       SUNNY     77  41  27 S12       30.06F                  
SHELBYVILLE    SUNNY     77  45  31 S12       30.10F                  
$$

TNZ017-018-042-046-047-232100-
NORTHEAST TENNESSEE
  
CITY           SKY/WX    TMP DP  RH WIND       PRES   REMARKS
TRI CITIES     SUNNY     73  38  27 S3        30.16F                  
ELIZABETHTON   SUNNY     73  39  29 W7        30.15S                  
GREENEVILLE    SUNNY     72  37  28 N5        30.15F                  
$$

TNZ012-013-036-069-073-074-232100-
CENTRAL EAST TENNESSEE
  
CITY           SKY/WX    TMP DP  RH WIND       PRES   REMARKS
KNOXVILLE      SUNNY     75  42  30 CALM      30.13F                  
OAK RIDGE      SUNNY     73  37  27 VRB3      30.15F                  
DOWNTOWN KNOXV SUNNY     75  39  27 CALM      30.14F                  
GATLINBURG     SUNNY     73  41  31 CALM      30.14F                  
MORRISTOWN     SUNNY     72  39  30 CALM      30.14F                  
JACKSBORO      SUNNY     73  34  23 S8        30.18F                  
ONEIDA         CLEAR     73  36  25 VRB7      30.13F                  
$$

TNZ083-085-099-232100-
SOUTHEAST TENNESSEE
  
CITY           SKY/WX    TMP DP  RH WIND       PRES   REMARKS
CHATTANOOGA    MOSUNNY   76  38  25 SE6       30.13F                  
DAYTON         SUNNY     75  39  27 W5        30.12F                  
$$

SKY/WX REPORTED AS FAIR MEANS FEW OR NO CLOUDS BELOW
12 THOUSAND FEET.

  
