ASUS44 KMEG 231810
RWRTN 
TENNESSEE HOURLY STATE WEATHER ROUNDUP
NATIONAL WEATHER SERVICE MEMPHIS TN
100 PM CDT SUN OCT 23 2022

TNZ002-004-019-021-049-052-054-088>092-231900-
WEST TENNESSEE
  
CITY           SKY/WX    TMP DP  RH WIND       PRES   REMARKS
MEMPHIS INTL   MOSUNNY   78  58  49 S15       30.04F                  
JACKSON        SUNNY     76  54  46 S12G22    30.07F                  
DYERSBURG      MOSUNNY   79  58  48 SW10G16   30.04F                  
SOMERVILLE     MOSUNNY   77  57  50 S13G20    30.05F                  
COVINGTON      MOSUNNY   77  59  53 SW17      30.04F                  
UNION CITY     SUNNY     79  55  44 S17G25    30.02F                  
BOLIVAR        MOSUNNY   77  55  47 SE12G20   30.07F                  
PARIS          SUNNY     77  50  38 S16G25    30.06F                  
HUNTINGDON     SUNNY     77  48  36 S15G24    30.06F                  
SELMER         SUNNY     73  46  38 S17G26    30.10F                  
$$

TNZ008-025-027-028-033-062-065-066-231900-
NORTH MIDDLE TENNESSEE
  
CITY           SKY/WX    TMP DP  RH WIND       PRES   REMARKS
NASHVILLE      MOSUNNY   77  44  30 SW13G20   30.14F                  
DICKSON          N/A     75  45  33 S15       30.11F                  
PORTLAND       SUNNY     75  46  35 S16       30.13F                  
CLARKSVILLE    MOSUNNY   79  47  32 S15G21    30.08F                  
SMYRNA         SUNNY     77  47  34 S10       30.15F                  
MURFREESBORO   SUNNY     75  43  31 S13       30.13F                  
COOKEVILLE     SUNNY     75  43  31 SE8G16    30.16F                  
LIVINGSTON     SUNNY     72  41  33 SW8       30.16F                  
GALLATIN       SUNNY     79  45  29 S9        30.15F                  
CROSSVILLE     SUNNY     69  40  34 VRB3      30.20F                  
$$

TNZ061-075-076-078-094-096-097-231900-
SOUTH MIDDLE TENNESSEE
  
CITY           SKY/WX    TMP DP  RH WIND       PRES   REMARKS
LAWRENCEBURG   SUNNY     73  45  35 S12       30.14F                  
LEWISBURG      SUNNY     73  46  38 S13       30.14F                  
FAYETTEVILLE   SUNNY     72  41  33 S12G18    30.19F                  
WINCHESTER     SUNNY     73  41  31 S9        30.16F                  
MCMINNVILLE    SUNNY     73  41  31 S6G13     30.17F                  
SHELBYVILLE    SUNNY     73  43  33 S12G18    30.16F                  
$$

TNZ017-018-042-046-047-231900-
NORTHEAST TENNESSEE
  
CITY           SKY/WX    TMP DP  RH WIND       PRES   REMARKS
TRI CITIES     SUNNY     71  39  31 CALM      30.21F                  
ELIZABETHTON   SUNNY     70  39  32 SW8       30.19F                  
GREENEVILLE    SUNNY     68  39  34 CALM      30.20F                  
$$

TNZ012-013-036-069-073-074-231900-
CENTRAL EAST TENNESSEE
  
CITY           SKY/WX    TMP DP  RH WIND       PRES   REMARKS
KNOXVILLE      SUNNY     72  41  32 SW3       30.19F                  
OAK RIDGE      SUNNY     69  42  37 CALM      30.21F                  
DOWNTOWN KNOXV SUNNY     72  39  30 SW7       30.20F                  
GATLINBURG     SUNNY     72  41  33 VRB5      30.20F                  
MORRISTOWN     SUNNY     70  39  32 VRB5      30.19F                  
JACKSBORO      SUNNY     70  45  40 SW6       30.25F                  
ONEIDA         CLEAR     72  37  28 S7        30.19F                  
$$

TNZ083-085-099-231900-
SOUTHEAST TENNESSEE
  
CITY           SKY/WX    TMP DP  RH WIND       PRES   REMARKS
CHATTANOOGA    MOSUNNY   73  38  27 SW8       30.19F                  
DAYTON         SUNNY     72  43  35 VRB7      30.18F                  
$$

SKY/WX REPORTED AS FAIR MEANS FEW OR NO CLOUDS BELOW
12 THOUSAND FEET.

  
