ASUS44 KOHX 232015
RWROHX
MIDDLE TENNESSEE HOURLY WEATHER ROUNDUP
NATIONAL WEATHER SERVICE NASHVILLE TN
300 PM CDT SUN OCT 23 2022

NOTE: "FAIR" INDICATES FEW OR NO CLOUDS BELOW 12,000 FEET WITH
NO SIGNIFICANT WEATHER AND/OR OBSTRUCTIONS TO VISIBILITY.

* THESE REPORTS ARE NOT UNDER NWS QUALITY CONTROL AND MAY NOT
  REPORT WEATHER SUCH AS PRECIPITATION AND FOG.


TNZ005>011-023>034-057-059-062>066-078-080-232100
...NORTHERN MIDDLE TENNESSEE...
  
CITY           SKY/WX    TMP DP  RH WIND       PRES   REMARKS
CLARKSVILLE    MOSUNNY   80  44  27 SE12G25   30.03F                  
CROSSVILLE     SUNNY     70  39  32 VRB6      30.15F                  
DICKSON          N/A     77  43  29 SW13G21   30.05F                  
GALLATIN       SUNNY     77  43  29 S12G22    30.10F                  
LEBANON        SUNNY     77  45  31 S13       30.07S                  
LIVINGSTON     SUNNY     73  41  31 VRB5      30.11F                  
NASHVILLE      PTSUNNY   76  44  32 S16       30.09F                  
PORTLAND       SUNNY     75  45  33 S12G18    30.06F                  
SMYRNA         PTSUNNY   76  47  35 S12       30.10F                  
SPARTA         SUNNY     77  43  29 CALM      30.10F                  
SPRINGFIELD    SUNNY     75  46  35 S12G17    30.05F                  
WEST NASHVILLE SUNNY     79  46  31 S13G21    30.05F                  
$$
TNZ056-058-060-061-075>077-079-093>097-232100
...SOUTHERN MIDDLE TENNESSEE...
  
CITY           SKY/WX    TMP DP  RH WIND       PRES   REMARKS
COLUMBIA       SUNNY     77  41  27 S12       30.06F                  
FAYETTEVILLE   SUNNY     75  43  31 S14       30.13F                  
LAWRENCEBURG   SUNNY     75  43  31 S8G16     30.08F                  
LEWISBURG      SUNNY     75  45  33 S10G16    30.08F                  
MCMINNVILLE    SUNNY     75  41  29 SW8G14    30.11F                  
MURFREESBORO   SUNNY     75  43  31 S9        30.07F                  
PULASKI        SUNNY     77  46  33 S14       30.09F                  
SHELBYVILLE    SUNNY     77  45  31 S12       30.10F                  
TULLAHOMA      SUNNY     73  41  31 S7        30.11F                  
WINCHESTER     SUNNY     73  41  31 SE7       30.11F                  
$$


...KEY TO REMARKS...
VSB - VISIBILITY IN MILES
WCI - WIND CHILL INDEX
HX  - HEAT INDEX

  
