ASUS44 KMEG 232110
RWRTN 
TENNESSEE HOURLY STATE WEATHER ROUNDUP
NATIONAL WEATHER SERVICE MEMPHIS TN
400 PM CDT SUN OCT 23 2022

TNZ002-004-019-021-049-052-054-088>092-232200-
WEST TENNESSEE
  
CITY           SKY/WX    TMP DP  RH WIND       PRES   REMARKS
MEMPHIS INTL   PTSUNNY   80  54  40 S18G25    29.97F                  
NWS MEMPHIS      N/A     78 N/A N/A MISG        N/A                   
JACKSON        PTSUNNY   76  51  41 S9        30.01F                  
DYERSBURG      MOSUNNY   80  56  43 S12G18    29.98F                  
SOMERVILLE     SUNNY     77  55  47 VRB7G15   29.98F                  
COVINGTON      SUNNY     77  54  44 S9G18     29.97F                  
UNION CITY     SUNNY     81  52  36 S18       29.97S                  
BOLIVAR        SUNNY     75  54  46 SE14      30.00F                  
PARIS          SUNNY     79  43  27 S15       30.01S                  
HUNTINGDON     SUNNY     79  41  25 S14G20    30.00S                  
SELMER         SUNNY     75  43  31 S8G14     30.03S                  
SAVANNAH       SUNNY     79  43  27 S14       30.03F                  
$$

TNZ008-025-027-028-033-062-065-066-232200-
NORTH MIDDLE TENNESSEE
  
CITY           SKY/WX    TMP DP  RH WIND       PRES   REMARKS
NASHVILLE      MOSUNNY   78  43  28 SE13      30.07F                  
DICKSON          N/A     77  39  25 S12G18    30.03F                  
PORTLAND       SUNNY     73  46  38 S7G15     30.06S                  
CLARKSVILLE    SUNNY     80  43  26 S10G22    30.03S                  
LEBANON        SUNNY     77  45  31 S13       30.05S                  
SMYRNA         SUNNY     77  47  34 S10       30.08F                  
MURFREESBORO   SUNNY     77  43  29 S9G16     30.06S                  
COOKEVILLE     SUNNY     75  41  29 S7G14     30.09F                  
LIVINGSTON     SUNNY     73  39  29 VRB7      30.10S                  
GALLATIN       SUNNY     79  43  27 S10G17    30.09S                  
CROSSVILLE     MOSUNNY   70  39  32 VRB6      30.14F                  
$$

TNZ061-075-076-078-094-096-097-232200-
SOUTH MIDDLE TENNESSEE
  
CITY           SKY/WX    TMP DP  RH WIND       PRES   REMARKS
LAWRENCEBURG   SUNNY     75  41  29 S10       30.07F                  
LEWISBURG      SUNNY     75  43  31 S13       30.07F                  
FAYETTEVILLE   SUNNY     75  41  29 S9        30.10F                  
TULLAHOMA      SUNNY     73  43  33 S9        30.09F                  
WINCHESTER     SUNNY     73  41  31 SW10      30.09F                  
MCMINNVILLE    SUNNY     75  41  29 SW6       30.09F                  
COLUMBIA       SUNNY     77  39  25 S12G20    30.04F                  
SHELBYVILLE    SUNNY     75  45  33 S12       30.08F                  
$$

TNZ017-018-042-046-047-232200-
NORTHEAST TENNESSEE
  
CITY           SKY/WX    TMP DP  RH WIND       PRES   REMARKS
TRI CITIES     SUNNY     74  37  26 CALM      30.15F                  
ELIZABETHTON   SUNNY     73  39  29 VRB6      30.14S                  
GREENEVILLE    SUNNY     72  36  26 CALM      30.14S                  
$$

TNZ012-013-036-069-073-074-232200-
CENTRAL EAST TENNESSEE
  
CITY           SKY/WX    TMP DP  RH WIND       PRES   REMARKS
KNOXVILLE      MOSUNNY   74  41  30 CALM      30.12F                  
OAK RIDGE      MOSUNNY   74  37  26 CALM      30.13F                  
DOWNTOWN KNOXV   N/A     75  39  27 CALM      30.13S                  
GATLINBURG     SUNNY     75  43  31 VRB5      30.13S                  
MORRISTOWN     SUNNY     72  39  30 CALM      30.13S                  
JACKSBORO      SUNNY     73  36  25 VRB7      30.17F                  
ONEIDA         CLEAR     72  36  26 S7        30.12F                  
$$

TNZ083-085-099-232200-
SOUTHEAST TENNESSEE
  
CITY           SKY/WX    TMP DP  RH WIND       PRES   REMARKS
CHATTANOOGA    MOSUNNY   76  38  25 S5        30.12F                  
DAYTON         SUNNY     75  39  27 W5        30.11S                  
$$

SKY/WX REPORTED AS FAIR MEANS FEW OR NO CLOUDS BELOW
12 THOUSAND FEET.

  
