ASUS44 KMEG 231700
RWRMEG
MEMPHIS CWA HOURLY WEATHER ROUNDUP
NATIONAL WEATHER SERVICE MEMPHIS TN
1200 PM CDT SUN OCT 23 2022

...WEST TENNESSEE...
  
CITY           SKY/WX    TMP DP  RH WIND       PRES   REMARKS
MEMPHIS INTL   MOSUNNY   76  59  55 S15       30.07F                  
NWS MEMPHIS      N/A     75 N/A N/A MISG        N/A                   
JACKSON        SUNNY     73  55  53 S15G24    30.10F                  
COVINGTON      SUNNY     77  59  53 S21       30.06F                  
SOMERVILLE     MOSUNNY   77  57  50 S13G21    30.07F                  
BOLIVAR        SUNNY     75  55  50 VRB7G17   30.09F                  
SELMER         SUNNY     73  46  38 S13G23    30.12F                  
SAVANNAH       SUNNY     73  54  49 S13       30.13F                  
DYERSBURG      MOSUNNY   76  59  55 S12G22    30.07F                  
UNION CITY     MOSUNNY   77  57  50 S16G23    30.05S                  
PARIS          SUNNY     75  52  43 S16G25    30.09S                  
HUNTINGDON     SUNNY     75  54  46 S14G20    30.09S                  


...EASTERN ARKANSAS...
  
CITY           SKY/WX    TMP DP  RH WIND       PRES   REMARKS
JONESBORO      CLOUDY    75  57  53 S20G30    30.01F                  
WEST MEMPHIS   SUNNY     78  58  49 S21G29    30.04F                  
BATESVILLE     CLOUDY    72  60  66 SW10G22   29.99S                  
NEWPORT        CLOUDY    76  59  55 S23G33    29.98F                  
WALNUT RIDGE   CLOUDY    76  59  55 S25G32    29.98S                  
BLYTHEVILLE    SUNNY     77  58  51 S18G30    30.03F                  
SEARCY         CLOUDY    75  60  59 S16G28    30.00F                  
STUTTGART      PTSUNNY   77  59  53 S24G30    30.03F                  
PINE BLUFF     SUNNY     80  59  48 S20       30.01F                  
MONTICELLO     SUNNY     78  59  51 S12       30.04F                  


...NORTH MISSISSIPPI...
  
CITY           SKY/WX    TMP DP  RH WIND       PRES   REMARKS
TUPELO         SUNNY     76  51  41 S16       30.14F                  
OXFORD         MOSUNNY   75  57  53 SW9G16    30.12F                  
OLIVE BRANCH   MOSUNNY   75  59  57 SW17G26   30.07F                  
TUNICA         SUNNY     78  61  54 S20       30.06F                  
CLARKSDALE     SUNNY     79  59  50 S17G23    30.07S                  
CORINTH        SUNNY     73  46  38 S15G26    30.13F                  
IUKA           FAIR      73  47  40 S15G21    30.16F                  
GREENWOOD      MOSUNNY   80  58  46 S15G23    30.10F                  
STARKVILLE     SUNNY     73  55  53 SE9G16    30.13F                  
GOLDEN TRIANGL SUNNY     75  50  41 S15       30.17F                  


...SOUTHEAST MISSOURI...
  
CITY           SKY/WX    TMP DP  RH WIND       PRES   REMARKS
KENNETT        CLOUDY    77  59  53 S16G26    30.00F                  
MALDEN         CLOUDY    77  55  47 S22G30    30.01F                  
WEST PLAINS    CLOUDY    72  59  63 S15G26    29.92F                  
POPLAR BLUFF   LGT RAIN  75  58  55 S21G36    29.97F                  
CAPE GIRARDEAU PTSUNNY   76  59  55 S17G28    29.99F                  


...NORTHWEST ALABAMA...
  
CITY           SKY/WX    TMP DP  RH WIND       PRES   REMARKS
MUSCLE SHOALS  SUNNY     75  47  36 S10G21    30.16F                  


...MIDDLE TENNESSEE...
  
CITY           SKY/WX    TMP DP  RH WIND       PRES   REMARKS
NASHVILLE      MOSUNNY   75  43  31 SW14G24   30.17F                  
DICKSON          N/A     73  45  35 S15G23    30.12F                  
COLUMBIA       SUNNY     73  45  35 S15       30.14F                  
LAWRENCEBURG   SUNNY     72  46  40 S12       30.16F                  
LEWISBURG      SUNNY     72  46  40 S15G21    30.17S                  


...WESTERN KENTUCKY...
  
CITY           SKY/WX    TMP DP  RH WIND       PRES   REMARKS
PADUCAH        PTSUNNY   76  56  49 S14G30    30.03F                  
FORT CAMPBELL  SUNNY     77  46  32 S13       30.09F                  


...CENTRAL ARKANSAS...
  
CITY           SKY/WX    TMP DP  RH WIND       PRES   REMARKS
LITTLE ROCK    PTSUNNY   78  60  53 S21       29.99F                  


SKY/WX REPORTED AS FAIR MEANS FEW OR NO CLOUDS BELOW
12 THOUSAND FEET.

  
