ASUS44 KOHX 231615
RWROHX
MIDDLE TENNESSEE HOURLY WEATHER ROUNDUP
NATIONAL WEATHER SERVICE NASHVILLE TN
1100 AM CDT SUN OCT 23 2022

NOTE: "FAIR" INDICATES FEW OR NO CLOUDS BELOW 12,000 FEET WITH
NO SIGNIFICANT WEATHER AND/OR OBSTRUCTIONS TO VISIBILITY.

* THESE REPORTS ARE NOT UNDER NWS QUALITY CONTROL AND MAY NOT
  REPORT WEATHER SUCH AS PRECIPITATION AND FOG.


TNZ005>011-023>034-057-059-062>066-078-080-231700
...NORTHERN MIDDLE TENNESSEE...
  
CITY           SKY/WX    TMP DP  RH WIND       PRES   REMARKS
CLARKSVILLE    SUNNY     75  49  39 S14       30.13F                  
CROSSVILLE     SUNNY     66  39  37 MISG      30.24F                  
DICKSON          N/A     72  48  43 S14G22    30.14F                  
GALLATIN       SUNNY     73  41  31 S12       30.20F                  
LEBANON        SUNNY     73  43  33 S18       30.16S                  
LIVINGSTON     SUNNY     70  37  30 S12G20    30.20F                  
NASHVILLE      MOSUNNY   73  43  33 S13       30.18S                  
PORTLAND       SUNNY     72  45  37 SW13G18   30.16F                  
SMYRNA         SUNNY     73  45  36 SW12G17   30.19F                  
SPARTA         SUNNY     72  41  33 S12       30.21S                  
SPRINGFIELD    SUNNY     72  50  46 S13G22    30.14F                  
WEST NASHVILLE SUNNY     72  48  43 S15G23    30.15F                  
$$
TNZ056-058-060-061-075>077-079-093>097-231700
...SOUTHERN MIDDLE TENNESSEE...
  
CITY           SKY/WX    TMP DP  RH WIND       PRES   REMARKS
COLUMBIA       SUNNY     70  48  46 S13       30.16S                  
FAYETTEVILLE   SUNNY     68  45  42 S8        30.22F                  
LAWRENCEBURG   SUNNY     66  48  52 VRB7G15   30.18F                  
LEWISBURG      SUNNY     70  48  46 S15       30.18F                  
MCMINNVILLE    SUNNY     72  39  30 S9        30.20F                  
MURFREESBORO   SUNNY     72  41  33 S16       30.17S                  
PULASKI        SUNNY     68  50  52 S7        30.19F                  
SHELBYVILLE    SUNNY     72  43  35 SW13      30.19S                  
TULLAHOMA      SUNNY     70  41  35 SW9G16    30.20F                  
WINCHESTER     SUNNY     70  39  32 SW9G16    30.21S                  
$$


...KEY TO REMARKS...
VSB - VISIBILITY IN MILES
WCI - WIND CHILL INDEX
HX  - HEAT INDEX

  
