ASUS44 KMEG 232000
RWRMEG
MEMPHIS CWA HOURLY WEATHER ROUNDUP
NATIONAL WEATHER SERVICE MEMPHIS TN
300 PM CDT SUN OCT 23 2022

...WEST TENNESSEE...
  
CITY           SKY/WX    TMP DP  RH WIND       PRES   REMARKS
MEMPHIS INTL   MOSUNNY   79  54  41 S15G24    29.98F                  
NWS MEMPHIS      N/A     80 N/A N/A MISG        N/A                   
JACKSON        SUNNY     77  53  43 S14G23    30.02F                  
COVINGTON      MOSUNNY   81  54  39 SW16G25   29.98F                  
SOMERVILLE     SUNNY     77  55  47 S9G17     29.99F                  
BOLIVAR        SUNNY     79  54  41 SE17G24   30.01F                  
SELMER         SUNNY     77  45  31 S10G18    30.04F                  
SAVANNAH       SUNNY     77  45  31 S13       30.05F                  
DYERSBURG      SUNNY     81  56  42 S10G17    29.99F                  
UNION CITY     SUNNY     81  52  36 S17G26    29.97F                  
PARIS          SUNNY     79  41  25 S14G23    30.01F                  
HUNTINGDON     SUNNY     79  43  27 S13G22    30.01F                  


...EASTERN ARKANSAS...
  
CITY           SKY/WX    TMP DP  RH WIND       PRES   REMARKS
JONESBORO      MOSUNNY   80  57  45 S20G29    29.94F                  
WEST MEMPHIS   MOSUNNY   81  56  42 S23G29    29.96F                  
BATESVILLE     PTSUNNY   77  60  55 S16G26    29.92F                  
NEWPORT        MOSUNNY   80  59  48 S29       29.91F                  
WALNUT RIDGE   MOSUNNY   80  59  48 S23G30    29.90F                  
BLYTHEVILLE    MOSUNNY   81  56  42 S17G26    29.96F                  
SEARCY         PTSUNNY   80  60  50 S16       29.92F                  
STUTTGART      CLOUDY    81  58  45 S18G29    29.93F                  
PINE BLUFF     MOSUNNY   85  56  37 S21G28    29.92F                  
MONTICELLO     SUNNY     83  54  36 S14G22    29.95F                  


...NORTH MISSISSIPPI...
  
CITY           SKY/WX    TMP DP  RH WIND       PRES   REMARKS
TUPELO         SUNNY     80  47  31 S12       30.05F                  
OXFORD         SUNNY     79  54  41 S12G18    30.03F                  
OLIVE BRANCH   MOSUNNY   79  54  41 SE16G25   29.99F                  
TUNICA         PTSUNNY   82  57  42 S18       29.97F                  
CLARKSDALE     MOSUNNY   81  55  41 S15G23    29.98F                  
CORINTH        SUNNY     79  45  29 S14G21    30.04F                  
IUKA           FAIR      77  43  29 S10       30.07F                  
GREENWOOD      MOSUNNY   84  55  36 S18G24    30.00F                  
COLUMBUS       SUNNY     79  45  29 S12       30.09F                  
STARKVILLE       N/A    N/A N/A N/A MISG        N/A                   
GOLDEN TRIANGL SUNNY     79  49  34 S10       30.08F                  


...SOUTHEAST MISSOURI...
  
CITY           SKY/WX    TMP DP  RH WIND       PRES   REMARKS
KENNETT        MOSUNNY   82  59  44 S20G29    29.93F                  
MALDEN         PTSUNNY   82  55  39 S18G28    29.95S                  
WEST PLAINS    SUNNY     77  57  50 S21G32    29.87F                  
POPLAR BLUFF   CLOUDY    78  58  49 S14G28    29.92F                  
CAPE GIRARDEAU PTSUNNY   80  59  48 S23G33    29.93F                  


...NORTHWEST ALABAMA...
  
CITY           SKY/WX    TMP DP  RH WIND       PRES   REMARKS
MUSCLE SHOALS  SUNNY     79  44  28 S15G21    30.07F                  


...MIDDLE TENNESSEE...
  
CITY           SKY/WX    TMP DP  RH WIND       PRES   REMARKS
NASHVILLE      PTSUNNY   76  44  32 S16       30.09F                  
DICKSON          N/A     77  43  29 SW13G21   30.05F                  
COLUMBIA       SUNNY     77  41  27 S12       30.06F                  
LAWRENCEBURG   SUNNY     75  43  31 S8G16     30.08F                  
LEWISBURG      SUNNY     75  45  33 S10G16    30.08F                  


...WESTERN KENTUCKY...
  
CITY           SKY/WX    TMP DP  RH WIND       PRES   REMARKS
PADUCAH        SUNNY     80  51  36 S17G29    29.96F                  
FORT CAMPBELL  MOSUNNY   79  42  26 SE14      30.01F                  


...CENTRAL ARKANSAS...
  
CITY           SKY/WX    TMP DP  RH WIND       PRES   REMARKS
LITTLE ROCK    PTSUNNY   84  59  42 S13G20    29.90F                  


SKY/WX REPORTED AS FAIR MEANS FEW OR NO CLOUDS BELOW
12 THOUSAND FEET.

  
