ASUS44 KOHX 231715
RWROHX
MIDDLE TENNESSEE HOURLY WEATHER ROUNDUP
NATIONAL WEATHER SERVICE NASHVILLE TN
1200 PM CDT SUN OCT 23 2022

NOTE: "FAIR" INDICATES FEW OR NO CLOUDS BELOW 12,000 FEET WITH
NO SIGNIFICANT WEATHER AND/OR OBSTRUCTIONS TO VISIBILITY.

* THESE REPORTS ARE NOT UNDER NWS QUALITY CONTROL AND MAY NOT
  REPORT WEATHER SUCH AS PRECIPITATION AND FOG.


TNZ005>011-023>034-057-059-062>066-078-080-231800
...NORTHERN MIDDLE TENNESSEE...
  
CITY           SKY/WX    TMP DP  RH WIND       PRES   REMARKS
CLARKSVILLE    SUNNY     78  47  33 S12G25    30.10F                  
CROSSVILLE     SUNNY     68  40  35 VRB3      30.23F                  
DICKSON          N/A     73  45  35 S15G23    30.12F                  
GALLATIN       SUNNY     75  43  31 SW12G17   30.18F                  
LEBANON        SUNNY     75  43  31 SW17      30.14F                  
LIVINGSTON     SUNNY     70  41  35 S5G14     30.19F                  
NASHVILLE      MOSUNNY   75  43  31 SW14G24   30.17F                  
PORTLAND       SUNNY     73  46  38 S13G20    30.15F                  
SMYRNA         SUNNY     74  45  35 S8G17     30.18F                  
SPARTA         SUNNY     73  41  31 S9        30.19F                  
SPRINGFIELD    SUNNY     75  48  38 SW15G28   30.12F                  
WEST NASHVILLE SUNNY     75  48  38 S14       30.13F                  
$$
TNZ056-058-060-061-075>077-079-093>097-231800
...SOUTHERN MIDDLE TENNESSEE...
  
CITY           SKY/WX    TMP DP  RH WIND       PRES   REMARKS
COLUMBIA       SUNNY     73  45  35 S15       30.14F                  
FAYETTEVILLE   SUNNY     72  41  33 SE13      30.20F                  
LAWRENCEBURG   SUNNY     72  46  40 S12       30.16F                  
LEWISBURG      SUNNY     72  46  40 S15G21    30.17S                  
MCMINNVILLE    SUNNY     72  39  30 SW9       30.18F                  
MURFREESBORO   SUNNY     73  43  33 S12       30.15F                  
PULASKI        SUNNY     72  50  46 SE9G16    30.17F                  
SHELBYVILLE    SUNNY     73  43  33 S14G20    30.17F                  
TULLAHOMA      SUNNY     72  41  33 SW7G16    30.18F                  
WINCHESTER     SUNNY     72  39  30 S9        30.19F                  
$$


...KEY TO REMARKS...
VSB - VISIBILITY IN MILES
WCI - WIND CHILL INDEX
HX  - HEAT INDEX

  
