ASUS44 KMEG 231910
RWRMEG
MEMPHIS CWA HOURLY WEATHER ROUNDUP
NATIONAL WEATHER SERVICE MEMPHIS TN
200 PM CDT SUN OCT 23 2022

...WEST TENNESSEE...
  
CITY           SKY/WX    TMP DP  RH WIND       PRES   REMARKS
MEMPHIS INTL   MOSUNNY   79  56  45 S20G26    30.01F                  
NWS MEMPHIS      N/A     80 N/A N/A MISG        N/A                   
JACKSON        SUNNY     77  53  43 S18G24    30.05F                  
COVINGTON      MOSUNNY   79  55  44 S14G21    30.00F                  
SOMERVILLE     MOSUNNY   79  55  44 S12G23    30.01F                  
BOLIVAR        MOSUNNY   77  54  44 S13G20    30.04F                  
SELMER         SUNNY     75  48  38 S17G23    30.06F                  
SAVANNAH       SUNNY     77  46  33 S12G21    30.07F                  
DYERSBURG      MOSUNNY   78  57  48 S14G22    30.01F                  
UNION CITY     MOSUNNY   79  55  44 S16G29    29.99F                  
PARIS          SUNNY     79  45  29 S16G25    30.03F                  
HUNTINGDON     SUNNY     79  45  29 S14G23    30.03F                  


...EASTERN ARKANSAS...
  
CITY           SKY/WX    TMP DP  RH WIND       PRES   REMARKS
JONESBORO      PTSUNNY   80  58  46 S24G31    29.96F                  
WEST MEMPHIS   MOSUNNY   82  57  42 S18       29.97F                  
BATESVILLE     CLOUDY    75  60  59 S14G21    29.93F                  
NEWPORT        CLOUDY    78  59  51 S29G35    29.92F                  
WALNUT RIDGE   CLOUDY    78  59  51 S22G32    29.93F                  
BLYTHEVILLE    SUNNY     80  57  45 S20G29    29.97F                  
SEARCY         CLOUDY    78  60  53 S14       29.93F                  
STUTTGART      CLOUDY    79  59  50 S17       29.96F                  
PINE BLUFF     MOSUNNY   85  58  39 S17G29    29.95F                  
MONTICELLO     MOSUNNY   83  57  41 S14G21    29.98F                  


...NORTH MISSISSIPPI...
  
CITY           SKY/WX    TMP DP  RH WIND       PRES   REMARKS
TUPELO         SUNNY     79  48  33 S13G24    30.07F                  
OXFORD         MOSUNNY   77  54  44 S9G24     30.06F                  
BATESVILLE     MOSUNNY   81  55  41 S13       30.02F                  
OLIVE BRANCH   MOSUNNY   79  55  44 SW16G26   30.01F                  
TUNICA         MOSUNNY   82  58  43 S16G26    29.99F                  
CLARKSDALE     MOSUNNY   81  57  44 S15G23    30.01F                  
CORINTH        SUNNY     77  45  31 S17G25    30.06F                  
IUKA           FAIR      76  44  32 S10       30.09F                  
GREENWOOD      MOSUNNY   83  56  39 SW14G22   30.04F                  
COLUMBUS       SUNNY     79  45  29 S14G26    30.11F                  
STARKVILLE     SUNNY     79  50  36 VRB6G15   30.07F                  
GOLDEN TRIANGL SUNNY     78  47  33 S14G21    30.10F                  


...SOUTHEAST MISSOURI...
  
CITY           SKY/WX    TMP DP  RH WIND       PRES   REMARKS
KENNETT        MOSUNNY   81  59  47 S20G26    29.95F                  
MALDEN         PTSUNNY   81  55  41 S22G30    29.96F                  
WEST PLAINS    MOSUNNY   76  58  53 S15G26    29.89F                  
POPLAR BLUFF   LGT RAIN  77  58  51 S20G31    29.93F                  
CAPE GIRARDEAU CLOUDY    80  59  48 S18G30    29.95F                  


...NORTHWEST ALABAMA...
  
CITY           SKY/WX    TMP DP  RH WIND       PRES   REMARKS
MUSCLE SHOALS  SUNNY     77  44  30 S8        30.11F                  


...MIDDLE TENNESSEE...
  
CITY           SKY/WX    TMP DP  RH WIND       PRES   REMARKS
NASHVILLE      MOSUNNY   78  44  29 S15G23    30.11F                  
CLARKSVILLE    PTSUNNY   78  46  32 S12G23    30.05F                  
DICKSON          N/A     75  43  31 S14G21    30.08S                  
COLUMBIA       SUNNY     77  41  27 SW8G16    30.08F                  
LAWRENCEBURG   SUNNY     75  46  35 S10       30.11F                  
LEWISBURG      SUNNY     75  46  35 S12       30.11F                  


...WESTERN KENTUCKY...
  
CITY           SKY/WX    TMP DP  RH WIND       PRES   REMARKS
PADUCAH        MOSUNNY   79  54  41 SW15G29   29.98F                  
FORT CAMPBELL  MOSUNNY   76  44  30 S13       30.04F                  


...CENTRAL ARKANSAS...
  
CITY           SKY/WX    TMP DP  RH WIND       PRES   REMARKS
LITTLE ROCK    CLOUDY    83  60  45 S14       29.92F                  


SKY/WX REPORTED AS FAIR MEANS FEW OR NO CLOUDS BELOW
12 THOUSAND FEET.

  
