ASUS44 KOHX 231915
RWROHX
MIDDLE TENNESSEE HOURLY WEATHER ROUNDUP
NATIONAL WEATHER SERVICE NASHVILLE TN
200 PM CDT SUN OCT 23 2022

NOTE: "FAIR" INDICATES FEW OR NO CLOUDS BELOW 12,000 FEET WITH
NO SIGNIFICANT WEATHER AND/OR OBSTRUCTIONS TO VISIBILITY.

* THESE REPORTS ARE NOT UNDER NWS QUALITY CONTROL AND MAY NOT
  REPORT WEATHER SUCH AS PRECIPITATION AND FOG.


TNZ005>011-023>034-057-059-062>066-078-080-232000
...NORTHERN MIDDLE TENNESSEE...
  
CITY           SKY/WX    TMP DP  RH WIND       PRES   REMARKS
CLARKSVILLE    PTSUNNY   78  46  32 S12G23    30.05F                  
CROSSVILLE     SUNNY     69  39  33 S8        30.18F                  
DICKSON          N/A     75  43  31 S14G21    30.08S                  
GALLATIN       SUNNY     79  43  27 SE10G21   30.12F                  
LEBANON        SUNNY     77  45  31 S10G18    30.09F                  
LIVINGSTON     SUNNY     73  41  31 VRB5G12   30.13F                  
NASHVILLE      MOSUNNY   78  44  29 S15G23    30.11F                  
PORTLAND       SUNNY     75  46  35 S13G18    30.09F                  
SMYRNA         MOSUNNY   78  47  33 SE10      30.12F                  
SPARTA         SUNNY     75  43  31 SW10      30.13F                  
SPRINGFIELD    SUNNY     77  48  36 S15G21    30.07F                  
WEST NASHVILLE SUNNY     77  46  33 S13G21    30.08F                  
$$
TNZ056-058-060-061-075>077-079-093>097-232000
...SOUTHERN MIDDLE TENNESSEE...
  
CITY           SKY/WX    TMP DP  RH WIND       PRES   REMARKS
COLUMBIA       SUNNY     77  41  27 SW8G16    30.08F                  
FAYETTEVILLE   SUNNY     73  45  35 S9G15     30.15F                  
LAWRENCEBURG   SUNNY     75  46  35 S10       30.11F                  
LEWISBURG      SUNNY     75  46  35 S12       30.11F                  
MCMINNVILLE    SUNNY     75  41  29 VRB7G13   30.13F                  
MURFREESBORO   SUNNY     77  43  29 S10G18    30.10F                  
PULASKI        SUNNY     75  46  35 S13       30.11F                  
SHELBYVILLE    SUNNY     75  45  33 S10G17    30.12F                  
TULLAHOMA      SUNNY     73  43  33 SW9G15    30.13F                  
WINCHESTER     SUNNY     75  41  29 SW8G15    30.13F                  
$$


...KEY TO REMARKS...
VSB - VISIBILITY IN MILES
WCI - WIND CHILL INDEX
HX  - HEAT INDEX

  
