ASUS44 KMEG 231810
RWRMEG
MEMPHIS CWA HOURLY WEATHER ROUNDUP
NATIONAL WEATHER SERVICE MEMPHIS TN
100 PM CDT SUN OCT 23 2022

...WEST TENNESSEE...
  
CITY           SKY/WX    TMP DP  RH WIND       PRES   REMARKS
MEMPHIS INTL   MOSUNNY   78  58  49 S15       30.04F                  
6HR MIN TEMP:  61; 6HR MAX TEMP:  78;                                

JACKSON        SUNNY     76  54  46 S12G22    30.07F                  
6HR MIN TEMP:  61; 6HR MAX TEMP:  76;                                

COVINGTON      MOSUNNY   77  59  53 SW17      30.04F                  
SOMERVILLE     MOSUNNY   77  57  50 S13G20    30.05F                  
BOLIVAR        MOSUNNY   77  55  47 SE12G20   30.07F                  
SELMER         SUNNY     73  46  38 S17G26    30.10F                  
DYERSBURG      MOSUNNY   79  58  48 SW10G16   30.04F                  
6HR MIN TEMP:  62; 6HR MAX TEMP:  79;                                

UNION CITY     SUNNY     79  55  44 S17G25    30.02F                  
PARIS          SUNNY     77  50  38 S16G25    30.06F                  
HUNTINGDON     SUNNY     77  48  36 S15G24    30.06F                  


...EASTERN ARKANSAS...
  
CITY           SKY/WX    TMP DP  RH WIND       PRES   REMARKS
JONESBORO      CLOUDY    77  57  50 S20G29    29.99F                  
6HR MIN TEMP:  63; 6HR MAX TEMP:  78;                                

WEST MEMPHIS   SUNNY     80  58  46 S17G25    30.01F                  
6HR MIN TEMP:  63; 6HR MAX TEMP:  80;                                

BATESVILLE     CLOUDY    75  60  59 S13G18    29.96F                  
6HR MIN TEMP:  65; 6HR MAX TEMP:  75;                                

NEWPORT        PTSUNNY   77  59  53 S24G32    29.96F                  
6HR MIN TEMP:  63; 6HR MAX TEMP:  77;                                

WALNUT RIDGE   CLOUDY    76  59  55 S26G32    29.96F                  
6HR MIN TEMP:  65; 6HR MAX TEMP:  77;                                

BLYTHEVILLE    SUNNY     79  58  48 S21G28    30.01F                  
6HR MIN TEMP:  63; 6HR MAX TEMP:  79;                                

SEARCY         CLOUDY    77  60  55 S17G24    29.97F                  
6HR MIN TEMP:  64; 6HR MAX TEMP:  78;                                

STUTTGART      PTSUNNY   80  59  48 S21G30    30.00F                  
6HR MIN TEMP:  64; 6HR MAX TEMP:  80;                                

PINE BLUFF     MOSUNNY   81  59  47 S15G25    29.99F                  
6HR MIN TEMP:  65; 6HR MAX TEMP:  82;                                

MONTICELLO     MOSUNNY   81  58  45 S17G24    30.01F                  
6HR MIN TEMP:  63; 6HR MAX TEMP:  82;                                



...NORTH MISSISSIPPI...
  
CITY           SKY/WX    TMP DP  RH WIND       PRES   REMARKS
TUPELO         SUNNY     78  51  38 S16       30.11F                  
6HR MIN TEMP:  55; 6HR MAX TEMP:  78;                                

OXFORD         MOSUNNY   77  55  47 SE10G21   30.09F                  
BATESVILLE     MOSUNNY   81  55  41 S14       30.05F                  
OLIVE BRANCH   MOSUNNY   79  57  47 S16G26    30.04F                  
TUNICA         MOSUNNY   80  59  48 S16G28    30.03F                  
CLARKSDALE     SUNNY     81  59  47 S15G23    30.04F                  
CORINTH        SUNNY     77  46  33 S15G22    30.10F                  
IUKA           FAIR      73  46  37 S9        30.14F                  
GREENWOOD      MOSUNNY   82  56  40 SW12G22   30.06F                  
6HR MIN TEMP:  60; 6HR MAX TEMP:  83;                                

COLUMBUS       SUNNY     77  46  33 S14G22    30.15F                  
6HR MIN TEMP:  48; 6HR MAX TEMP:  77;                                

STARKVILLE     SUNNY     75  55  50 SE9G20    30.11F                  
GOLDEN TRIANGL SUNNY     77  47  34 S14G21    30.14F                  
6HR MIN TEMP:  53; 6HR MAX TEMP:  77;                                



...SOUTHEAST MISSOURI...
  
CITY           SKY/WX    TMP DP  RH WIND       PRES   REMARKS
KENNETT        PTSUNNY   82  59  44 S21G29    29.98F                  
MALDEN         CLOUDY    81  55  41 S22G30    29.99F                  
WEST PLAINS    PTSUNNY   73  58  59 S18G29    29.91F                  
6HR MIN TEMP:  62; 6HR MAX TEMP:  74;                                

POPLAR BLUFF   CLOUDY    77  59  53 S21G36    29.96F                  
6HR MIN TEMP:  63; 6HR MAX TEMP:  77; 6HR PCP: TRACE;                

CAPE GIRARDEAU CLOUDY    77  59  53 S15G26    29.98F                  
6HR MIN TEMP:  64; 6HR MAX TEMP:  77;                                



...NORTHWEST ALABAMA...
  
CITY           SKY/WX    TMP DP  RH WIND       PRES   REMARKS
MUSCLE SHOALS  SUNNY     77  45  32 S12       30.14F                  
6HR MIN TEMP:  52; 6HR MAX TEMP:  77;                                



...MIDDLE TENNESSEE...
  
CITY           SKY/WX    TMP DP  RH WIND       PRES   REMARKS
NASHVILLE      MOSUNNY   77  44  30 SW13G20   30.14F                  
6HR MIN TEMP:  55; 6HR MAX TEMP:  77;                                

CLARKSVILLE    MOSUNNY   79  47  32 S15G21    30.08F                  
6HR MIN TEMP:  56; 6HR MAX TEMP:  80;                                

DICKSON          N/A     75  45  33 S15       30.11F                  
LAWRENCEBURG   SUNNY     73  45  35 S12       30.14F                  
LEWISBURG      SUNNY     73  46  38 S13       30.14F                  


...WESTERN KENTUCKY...
  
CITY           SKY/WX    TMP DP  RH WIND       PRES   REMARKS
PADUCAH        MOSUNNY   78  55  44 S17G28    30.01F                  
6HR MIN TEMP:  64; 6HR MAX TEMP:  79;                                

FORT CAMPBELL  MOSUNNY   78  45  30 S15G21    30.07F                  
6HR MIN TEMP:  60; 6HR MAX TEMP:  78;                                



...CENTRAL ARKANSAS...
  
CITY           SKY/WX    TMP DP  RH WIND       PRES   REMARKS
LITTLE ROCK    PTSUNNY   80  60  50 S15       29.96F                  
6HR MIN TEMP:  67; 6HR MAX TEMP:  81;                                



SKY/WX REPORTED AS FAIR MEANS FEW OR NO CLOUDS BELOW
12 THOUSAND FEET.

  
