ASUS44 KHUN 220110
RWRHUN
       
WEATHER ROUNDUP FOR THE TENNESSEE VALLEY
NATIONAL WEATHER SERVICE HUNTSVILLE AL
800 PM CDT FRI OCT 21 2022

ALZ001>004-220200-
NORTHWEST ALABAMA
  
CITY           SKY/WX    TMP DP  RH WIND       PRES   REMARKS
BANKHEAD NF      N/A     60  52  73 CALM        N/A                   
SHOALS AIRPORT CLEAR     63  51  65 SE6       30.01R                  
$$

ALZ005>007-016-220200-
NORTH CENTRAL ALABAMA
  
CITY           SKY/WX    TMP DP  RH WIND       PRES   REMARKS
CULLMAN AG STN   N/A     63 N/A N/A CALM        N/A                   
DECATUR AP     CLEAR     62  47  57 SE7       30.04R                  
HUNTSVILLE AP  CLEAR     60  46  59 SE7       30.04R                  
HUN NWS/UAH      N/A     63  44  50 SE5         N/A                   
MERIDIANVILLE  CLEAR     62  38  40 CALM      30.05S                  
VINEMONT AP    FAIR      64  45  48 S9        30.07R                  
$$
 
ALZ008>010-220200-
NORTHEAST ALABAMA
  
CITY           SKY/WX    TMP DP  RH WIND       PRES   REMARKS
ALBERTVILLE    CLEAR     59  36  41 S5        30.08R                  
FORT PAYNE     CLEAR     48  40  75 N3        30.09R                  
SCOTTSBORO AP  MOCLDY    54  41  62 CALM      30.08R                  
$$

TNZ076-096-097-220200-
SOUTHEASTERN MIDDLE TENNESSEE
  
CITY           SKY/WX    TMP DP  RH WIND       PRES   REMARKS
FAYETTEVILLE   PTCLDY    57  39  51 S8        30.06R                  
TULLAHOMA      PTCLDY    59  37  44 S8        30.04R                  
WINCHESTER     CLEAR     59  36  41 SE6       30.05R                  
$$
 
...SURROUNDING SITES...
  
CITY           SKY/WX    TMP DP  RH WIND       PRES   REMARKS
ATLANTA        PTCLDY    58  38  47 SE5       30.12R                  
ANNISTON       CLEAR     51  44  77 CALM      30.10R                  
BIRMINGHAM     CLEAR     63  41  44 SE5       30.10R                  
CHATTANOOGA    CLEAR     56  38  50 CALM      30.09R                  
CORINTH        CLEAR     64  48  55 S7        29.97S                  
DALTON         CLEAR     49  39  69 CALM      30.11R                  
GADSDEN        CLEAR     51  41  68 CALM      30.09R                  
GOLDEN TRNGL   CLEAR     67  55  65 SE8       30.02R                  
HALEYVILLE     FAIR      64  52  64 S8        30.06R                  
JACKSON TN     CLEAR     67  50  54 S7        29.95R                  
MEMPHIS        CLEAR     70  51  51 S9        29.92R                  
NASHVILLE      PTCLDY    65  37  35 S12       30.00R                  
OXFORD MS      PTCLDY    66  50  55 SE8       29.97S                  
ROME           CLEAR     51  43  74 CALM      30.09R                  
SAVANNAH       PTCLDY    63  52  67 S6        29.96S                  
SELMER         CLEAR     68  50  52 S10       29.96S                  
TUPELO         CLEAR     69  51  52 S8        29.99R                  
TUSCALOOSA     CLEAR     67  53  61 SE8       30.05R                  
$$

  
