ASGM40 PGUM 220010
RWRGUM
WEATHER ROUNDUP FOR THE MARIANAS
NATIONAL WEATHER SERVICE TIYAN GU
1000 AM CHST SAT OCT 22 2022

GUZ001>004-220100-
MARIANA ISLANDS-
  
CITY           SKY/WX    TMP DP  RH WIND       PRES   REMARKS
GUAM AIRPORT   NOT AVBL                                               
ANDERSEN AFB   PTSUNNY   84  75  74 SE15      29.90S HX  92           
ROTA AIRPORT   PTSUNNY   82  75  78 E14       29.87R                  
TINIAN AP      MOSUNNY   84  77  79 E14         N/A  HX  94           
SAIPAN AP      PTSUNNY   88  77  70 E15       29.91R HX 100           

$$

  
