ASGM40 PGUM 212310
RWRGUM
WEATHER ROUNDUP FOR THE MARIANAS
NATIONAL WEATHER SERVICE TIYAN GU
900 AM CHST SAT OCT 22 2022

GUZ001>004-220000-
MARIANA ISLANDS-
  
CITY           SKY/WX    TMP DP  RH WIND       PRES   REMARKS
GUAM AIRPORT   SUNNY     84  75  74 E12       29.90R HX  92           
ANDERSEN AFB   PTSUNNY   82  73  74 SE13      29.90R                  
ROTA AIRPORT   CLOUDY    81  75  83 E12       29.86R                  
TINIAN AP      MOSUNNY   84  77  79 E14         N/A  HX  94           
SAIPAN AP      MOSUNNY   88  75  66 E15       29.90R HX  97           

$$

  
