ASGM40 PGUM 220210
RWRGUM
WEATHER ROUNDUP FOR THE MARIANAS
NATIONAL WEATHER SERVICE TIYAN GU
1200 PM CHST SAT OCT 22 2022

GUZ001>004-220300-
MARIANA ISLANDS-
  
CITY           SKY/WX    TMP DP  RH WIND       PRES   REMARKS
GUAM AIRPORT   MOSUNNY   88  77  70 E15       29.86  HX 100           
ANDERSEN AFB   MOSUNNY   84  75  74 E13       29.86F HX  92           
ROTA AIRPORT   LGT RAIN  82  77  83 E16       29.83F HX  91           
TINIAN AP      MOSUNNY   86  77  74 E14         N/A  HX  97           
SAIPAN AP      MOSUNNY   86  79  79 E14       29.87F HX  99           

$$

  
