FTPQ31 PGUM 212331
TAFGSN
TAF
PGSN 212331Z 2200/2224 09010KT P6SM VCSH SCT018 SCT040 BKN090
      TEMPO 2200/2202 4SM SHRA BKN018=
