FTPA32 KWBC 212351
TAF
TAF NFNA 212305Z 2200/2224 13006KT 8000 -RA SCT010 BKN016 OVC040
      PROB40
      TEMPO 2200/2224 5000 RA BKN015=
