FTPA32 KWBC 212309
TAF
TAF NCRG 212304Z 2200/2224 06012KT 9999 BKN015 BKN030 PROB40
      TEMPO 2208/2218 5000 TSRA BKN015 FEW018CB=
TAF NFFN 212303Z 2200/2224 31010KT 9999 SCT028 SCT050
      TEMPO 2202/2206 5000 TSRA FEW018CB
      BECMG 2204/2206 12006KT=
TAF NFTF 212304Z 2200/2224 14012KT 9999 FEW008 SCT016 BKN040
      PROB40
      TEMPO 2200/2224 14015G25KT 5000 SHRA BKN015=
TAF NGFU 212305Z 2200/2224 08005KT 9999 SCT020=
TAF NGTA 212305Z 2200/2224 12008KT 9999 SCT020=
TAF NSFA 212305Z 2200/2224 06009KT 9999 FEW020=
TAF NTAA 212300Z 2200/2306 VRB05KT 9999 FEW020 SCT040 BKN070
      PROB30
      TEMPO 2200/2302 06015G25KT 3000 SHRA SCT016 BKN040
      BECMG 2203/2205 FEW023
      TEMPO 2222/2302 06015KT=
