FTPQ31 PGUM 212331
TAFTKK
TAF
PTKK 212331Z 2200/2224 VRB06KT P6SM VCSH SCT015 BKN120=
