FTNZ31 NZKL 212300
TAF NZAA 212304Z 2200/2306 22010KT 9999 SCT050
BECMG 2205/2207 VRB02KT
BECMG 2221/2223 24010KT=
TAF NZWN 212304Z 2200/2306 20005KT CAVOK
BECMG 2205/2207 34010KT
BECMG 2219/2221 34018G28KT=
TAF NZCH 212301Z 2200/2306 06012KT CAVOK
BECMG 2210/2212 VRB02KT
PROB30 2212/2220 2000 BR
BECMG 2223/2301 31010KT
BECMG 2301/2303 31015G25KT=