SAUS80 KWBC 220000 CCA
METAR
KNYC 212351Z AUTO VRB03KT 10SM CLR 14/05 A3017 RMK AO2 SLP207
     T01390050 10167 20133 53010 $=
