SAUS70 KWBC 212300
METAR
KUES 212245Z 21007G16KT 10SM CLR 21/03 A2962=
KNQA 212250Z 17010KT 10SM CLR 25/10 A2988=
KDLL 212255Z AUTO 00000KT 10SM CLR 20/02 A2960 RMK AO2
     T01960019=
KW13 212255Z AUTO 10SM CLR 12/00 A3011 RMK AO1 T01241002=
