SAUS70 KWBC 220100 RRV
METAR
K0F2 220055Z AUTO 17006KT 10SM CLR 25/04 A2978 RMK AO2
     T02480036=
K1V6 220055Z AUTO 28007KT 10SM CLR 19/M10 A2976 RMK AO2=
K3S8 220055Z AUTO VRB05KT 10SM BKN070 OVC100 19/11 A2985 RMK
     AO2=
K46U 220055Z AUTO 30010KT 10SM FEW040 FEW100 15/M06 A2974 RMK
     A01=
K82V 220055Z AUTO 27010KT 10SM CLR 17/M11 A2970 RMK AO2=
KAJO 220056Z AUTO 27011G14KT 10SM CLR 23/17 A2982 RMK AO2 SLP093
     T02330172=
KAWO 220056Z AUTO 04004KT 7SM -RA SCT030 BKN039 OVC047 08/07 A2973
     RMK AO2 SLP072 P0003 T00830072=
KAZC 220055Z AUTO 29005KT 10SM CLR 18/00 A2996 RMK AO2=
KBAM 220055Z AUTO 24009KT 10SM CLR 21/M07 A2978 RMK AO1=
KBKD 220055Z AUTO 17006KT 10SM CLR 27/04 A2979 RMK AO2
     T02700036=
KBOK 220056Z AUTO 12003KT 6SM -RA OVC014 13/10 A2991 RMK AO2 RAB32
     SLP129 P0000 T01280100 $=
KSZT 220055Z AUTO 21003KT 7SM -RA SCT009 BKN022 OVC030 03/02 A2965
     RMK AO2=
KT89 220055Z AUTO 10004KT 10SM CLR 24/08 A2991 RMK A01=
KUVA 220055Z AUTO 15003KT 10SM CLR 21/10 A2994 RMK AO2
     T02100103=
KGOV 220058Z AUTO 00000KT 10SM CLR 10/04 A2966 RMK AO2 SLP056
     T00980035 $=
KNFE 220056Z AUTO 00000KT 10SM CLR 11/07 A3016 RMK AO2 SLP216
     T01060067=
K0A0 220055Z AUTO 19009KT 10SM CLR 22/03 A2996 RMK AO2=
K5T9 220050Z AUTO 12006KT 10SM CLR 22/12 A2989 RMK A01=
K65S 220055Z AUTO 21008G13KT 10SM UP SCT035 BKN043 OVC049 04/02
     A2959 RMK AO2=
KANK 220050Z AUTO 24007KT 10SM CLR 14/M12 A3001 RMK AO1
     T01411121=
KAXH 220055Z AUTO 18003KT 10SM CLR 21/15 A3001 RMK AO2
     T02140145=
KBDU 220055Z AUTO 23006KT 10SM CLR 21/M08 A2973 RMK AO2=
KBMC 220050Z AUTO 10SM CLR 17/M03 A2973 RMK AO1 T01721030=
KBPC 220055Z AUTO 20009KT 10SM CLR 20/M06 A2967 RMK AO2=
KC99 220049Z AUTO 25009KT 210V320 10SM CLR 04/M13 A3005 RMK
     AO2=
KDWX 220050Z AUTO 20011G16KT 180V250 10SM CLR 08/M18 A2987 RMK AO2
     T00771178=
KE11 220050Z AUTO 22004KT 10SM CLR 22/05 A2987 RMK AO2
     T02150051=
KEAN 220050Z AUTO 26012G20KT 10SM CLR 20/M12 A2962 RMK AO2
     T02041118=
KEDC 220055Z AUTO 19005KT 10SM CLR 23/08 A2990 RMK AO2=
KEFD 220054Z 16008KT 10SM CLR 20/15 A2999=
KEMM 220055Z AUTO 10SM CLR 11/M12 A2986 RMK AO2=
KGLE 220055Z AUTO 17007KT 10SM CLR 24/06 A2980 RMK AO2
     T02350056=
KHBV 220050Z AUTO 15005KT 7SM CLR 23/12 A2995 RMK AO2
     T02270120=
KHSG 220050Z AUTO 23021G25KT 10SM CLR 18/M05 A2955 RMK AO2
     T01841053=
KOSA 220050Z AUTO 16005KT 10SM CLR 21/12 A2987 RMK AO2
     T02100116=
KPEQ 220055Z AUTO 18004KT 10SM CLR 23/09 A2986 RMK AO2
     T02260092=
KPVW 220050Z AUTO 23008KT 10SM CLR 19/00 A2979 RMK AO2
     T01850004=
KSLR 220050Z AUTO 17007KT 10SM CLR 25/10 A2987 RMK AO2
     T02470095=
KTXW 220050Z AUTO 15009KT 10SM CLR 25/17 A2997 RMK AO2
     T02490166=
TISX 220053Z 06008KT 10SM CLR 28/23 A2992 RMK AO2 SLP130 T02780228
     $=
K4V0 220055Z AUTO 20010KT 10SM CLR 18/M09 A2981 RMK AO2
     T01791088=
KAEJ 220055Z AUTO 25008KT 10SM 12/M13 A2997 RMK AO2 T01171129=
KARM 220055Z AUTO 18007KT 10SM CLR 21/14 A2999 RMK AO2 T02120140
     TSNO=
KAVQ 220055Z AUTO 26006KT 10SM CLR 30/06 A2983 RMK AO2
     T02970060=
KC83 220055Z AUTO 25012G19KT 10SM CLR 23/10 A2977 RMK AO2=
KCMA 220055Z 27010KT 6SM HZ OVC014 19/16 A2984 RMK AO2 SLP113
     T01940161=
KCWC 220055Z AUTO 19010G18KT 10SM CLR 28/02 A2975 RMK AO2
     T02750016=
KDTA 220055Z AUTO 18011KT 10SM CLR 19/M10 A2981 RMK AO1=
KDZB 220055Z AUTO 18005KT 10SM CLR 24/07 A2991 RMK AO2
     T02400067=
KECS 220055Z AUTO 02008KT 5SM HZ CLR 15/M10 A2952 RMK AO2=
KEIK 220055Z AUTO 25014G22KT 10SM CLR 22/M11 A2972 RMK AO2
     T02151115 PWINO=
