SAUS70 KWBC 220020 RRG
METAR
K1R8 220015Z AUTO 18004KT 10SM BKN042 BKN048 17/08 A3008 RMK
     AO2=
K33V 220015Z AUTO 24009KT 10SM CLR 10/M10 A2994 RMK AO1=
K3K3 220015Z AUTO 18003KT 10SM CLR 23/M05 A2967 RMK AO2=
K4O4 220015Z AUTO 15008KT 10SM CLR 23/09 A2984 RMK AO2=
K66R 220015Z AUTO 17008KT 10SM CLR 24/15 A2997 RMK AO2
     T02370147=
KAJZ 220015Z AUTO 19004KT 10SM CLR 21/M07 A2987 RMK AO2 T02131068
     PWINO=
KAPS 220016Z AUTO 16008KT 10SM CLR 19/14 A3006 RMK AO2=
KAQO 220015Z AUTO 17007KT 10SM CLR 26/06 A2988 RMK AO2=
KAUN 220015Z AUTO 19006KT 9SM CLR 26/06 A2982 RMK A01=
KBBP 220015Z AUTO 00000KT 10SM CLR 07/03 A3013 RMK AO2=
KBJI 220015Z AUTO 00000KT 10SM CLR 10/01 A2956 RMK AO2
     T01030007=
KBQK 220015Z AUTO 00000KT 10SM CLR 10/06 A3011 RMK AO2
     T01010065=
KBUU 220015Z AUTO 20005KT 10SM CLR 17/05 A2967 RMK AO2 T01700045
     PWINO=
KBVS 220015Z AUTO 00000KT 10SM BKN019 OVC024 09/09 A2973 RMK
     A01=
KBYY 220015Z AUTO 19006KT 10SM SCT042 21/14 A2999 RMK AO2
     T02140145=
KC65 220015Z AUTO 19007KT 10SM CLR 18/03 A2980 RMK A01=
KCBF 220015Z AUTO 14003KT 4SM HZ CLR 20/M05 A2957 RMK AO2=
KCCU 220015Z AUTO 25017G22KT 10SM CLR 05/M11 A3016 RMK AO2=
KCIN 220015Z AUTO 13005KT 2 1/2SM HZ CLR 16/00 A2961 RMK AO2=
KCKF 220015Z AUTO 00000KT 10SM CLR 12/04 A3012 RMK AO2
     T01150037=
KCMD 220015Z AUTO 16006KT 10SM CLR 18/07 A3006 RMK AO2=
KCNC 220015Z AUTO 17006KT 10SM CLR 20/03 A2961 RMK AO2=
KCOM 220015Z AUTO 21007KT CLR 28/01 A2984 RMK AO2 T02750012
     PWINO=
KCPW 220015Z AUTO 22021G29KT 10SM CLR 02/M06 A3025 RMK AO2=
KCUH 220015Z AUTO 19004KT 10SM CLR 25/03 A2970 RMK AO2
     T02470030=
KCWV 220015Z AUTO 00000KT 10SM CLR 10/06 A3011 RMK AO2
     T01030063=
KD73 220015Z AUTO 00000KT 10SM CLR 09/05 A3012 RMK AO2
     T00880049=
KDKB 220015Z AUTO 18008KT 10SM CLR 14/06 A2971 RMK AO2
     T01380055=
KDKR 220015Z AUTO 16006KT 10SM CLR 25/09 A2990 RMK AO2=
KDNS 220015Z AUTO RMK AO2 PNO PWINO=
KDNV 220015Z AUTO 18009G14KT 10SM CLR 20/03 A2982 RMK AO2
     T01960027=
KDVO 220015Z AUTO VRB04G10KT 10SM CLR 19/11 A2983 RMK AO2=
KE11 220015Z AUTO 24004KT 10SM CLR 24/03 A2987 RMK AO2
     T02420026=
KE16 220015Z AUTO 13011KT 10SM CLR 19/10 A2987 RMK AO2 PWINO
     PNO=
KE41 220015Z AUTO 18010G14KT 10SM CLR 24/09 A2990 RMK AO2
     T02350093=
KRCV 220015Z AUTO 26013G19KT 10SM CLR 14/M05 A2998 RMK AO2
     T01371051=
KRDK 220015Z AUTO 01004KT CLR 15/00 A2959 RMK AO2=
KREG 220015Z AUTO 20004KT 10SM CLR 22/14 A3004 RMK AO2
     T02150137=
KRQO 220015Z AUTO 18009KT CLR 23/03 A2971 RMK AO2 PWINO
     T02320031=
KSBO 220015Z AUTO 00000KT 10SM CLR 11/06 A3012 RMK AO2=
KSBS 220015Z AUTO 28010KT 10SM CLR 14/M09 A2986 RMK AO1
     T01431095=
KSDA 220015Z AUTO 04005KT 10SM CLR 18/01 A2957 RMK AO2=
KSEF 220015Z AUTO 03005KT 10SM CLR 18/12 A3004 RMK AO2
     T01850118=
KSHL 220015Z AUTO 08005KT 6SM HZ CLR 14/01 A2959 RMK AO2=
KSJS 220015Z AUTO 16003KT 10SM CLR 14/01 A3005 RMK AO2
     T01410011=
KSLB 220015Z AUTO 08007KT 7SM CLR 14/00 A2962 RMK AO2=
KSUT 220015Z AUTO 00000KT 10SM OVC040 16/10 A3011 RMK AO2
     T01560096=
KT35 220015Z AUTO 17005KT 10SM CLR 26/10 A2989 RMK AO2
     T02550098=
KTIP 220015Z AUTO 19010KT 10SM CLR 18/03 A2980 RMK AO2
     T01820028=
KUNI 220015Z AUTO 00000KT 7SM CLR 12/00 A3001 RMK AO2
     T01191001=
KVPC 220015Z AUTO 00000KT 10SM CLR 12/05 A3010 RMK AO2=
KW22 220015Z AUTO 00000KT 10SM CLR 10/M01 A3007 RMK AO2=
KWDR 220015Z AUTO 00000KT 10SM CLR 11/01 A3014 RMK AO2=
KZER 220015Z AUTO 15005KT 10SM CLR 08/M02 A3012 RMK AO2=
KK88 220015Z AUTO 16008KT 10SM CLR 23/04 A2969 RMK AO1
     T02260040=
