SAUS70 KWBC 220000 RRX
METAR
PAPH 212356Z AUTO 25011KT 10SM CLR 07/03 A3010 RMK AO2 SLP193
     60001 T00720033 10083 20044 51002=
PAPM 212356Z AUTO 30008KT 10SM BKN024 BKN030 OVC038 04/02 A2998
     RMK AO2 WSHFT 2330 SLP154 60004 T00440022 10067 20044
     51007=
PARC 212356Z AUTO 21003KT 10SM CLR M08/M11 A2973 RMK AO2 SLP131
     60000 T10831111 11067 21106 51012 FZRANO=
PARS 212356Z AUTO 25006KT 10SM SCT018 BKN036 A2984 RMK AO2
     UPB07E10RAB10E24 SLPNO P0001 60001 51010 FZRANO $=
PARY 212356Z AUTO 07003KT 10SM -RA OVC011 01/00 A2980 RMK AO2
     UPB39E41RAB41 CIG 007V013 SLP104 P0000 60000 T00060000 10006
     21006 51004 FZRANO=
PASA 212356Z AUTO 22015G20KT 10SM SCT055 03/01 A2964 RMK AO2
     SLP037 60000 T00330006 10033 20011 51010=
PASD 212356Z 00000KT 10SM FEW030 SCT042 OVC100 08/02 A3014 RMK AO2
     SLP209 6//// T00830022 10083 20072 58008 PNO $=
PASH 212356Z AUTO 12004KT 10SM OVC060 01/01 A2965 RMK AO2 SLP040
     6//// T00110006 10017 21006 51011 FZRANO PNO $=
PASK 212356Z AUTO 11004KT 10SM -RA OVC046 02/01 A2975 RMK AO2
     RAB56 SLP071 P0000 60001 T00170006 10017 20000 51007
     FZRANO=
KJPX 212355Z AUTO 21004KT 10SM CLR 13/07 A3016 RMK AO2 T01300068
     10170 20128=
KJTC 212355Z AUTO 26013KT 10SM CLR 18/M01 A3012 RMK AO2=
KJWG 212355Z AUTO 19015KT 10SM CLR 28/01 A2970 RMK AO2 T02800014
     10322 20279 403220115=
KJWY 212355Z AUTO 18010G16KT 10SM CLR 28/09 A2984 RMK AO2
     T02750093 10323 20275=
KJYG 212356Z AUTO 00000KT 7SM CLR 13/02 A2963 RMK AO2=
KJYL 212355Z AUTO 00000KT 10SM CLR 11/05 A3011 RMK AO2 T01130052
     10222 20106=
KK70 212355Z AUTO 03008KT 350V050 10SM SCT050 BKN060 24/22 A2993
     RMK AO2=
KLCG 212355Z AUTO 00000KT 10SM CLR 14/M01 A2960 RMK AO2 T01431015
     10242 20139=
KLNA 212355Z AUTO 34009KT 10SM SCT039 SCT049 SCT055 23/19 A2997
     RMK AO2 6//// T02310190 10279 20230 PNO=
KLNC 212355Z AUTO 17009KT 10SM CLR 28/07 A2983 RMK AO2 T02760071
     10327 20276=
KLNQ 212355Z AUTO 12003KT 10SM CLR 19/11 A3009 RMK AO2 T01930112
     10262 20193=
KLUA 212355Z AUTO 00000KT 10SM CLR 11/00 A3011 RMK AO2=
KLUG 212355Z AUTO 00000KT 10SM CLR 15/06 A3000 RMK A01=
KLUX 212355Z AUTO 00000KT 10SM CLR 10/01 A3012 RMK AO2=
KLVN 212355Z AUTO 00000KT 10SM CLR 14/01 A2963 RMK AO2=
KLXY 212355Z AUTO 17008G17KT 10SM CLR 27/10 A2987 RMK AO2
     T02650097 10318 20265=
KLYO 212355Z AUTO 16006KT 4SM HZ CLR 22/00 A2960 RMK AO2 T02231000
     10318 20220 403180049=
KLZU 212356Z 00000KT 10SM CLR 12/03 A3011 RMK AO2 SLP209 T01170033
     10200 20117 53007=
KM02 212355Z AUTO 17006KT 10SM 20/08 A2995 RMK A01=
KM04 212355Z AUTO 17005KT 10SM CLR 22/10 A2990 RMK A01=
KM08 212355Z AUTO 13004KT 10SM CLR 20/10 A2993 RMK A01=
KM30 212355Z AUTO 16003KT 10SM CLR 21/07 A2989 RMK AO2 T02110066
     10254 20211=
KM54 212350Z AUTO 16005KT 10SM CLR 18/02 A2998 RMK A01=
KM75 212355Z AUTO 07005KT 10SM SCT035 SCT047 OVC055 08/05 A2954
     RMK A01=
KM91 212355Z AUTO 15005KT 10SM FEW050 18/04 A2995 RMK A01=
KMBT 212355Z AUTO 16005KT 10SM FEW046 17/03 A2999 RMK A01=
KMEV 212355Z AUTO 24018KT 10SM CLR 23/M07 A2991 RMK AO2=
KMHV 220000Z AUTO 23014KT 10SM CLR 28/01 A2987 RMK A01=
KMMI 212355Z AUTO 00000KT 10SM CLR 12/01 A3009 RMK A01=
KMNE 212355Z AUTO 17003KT 10SM CLR 25/14 A2990 RMK AO2 T02490135
     10290 20249=
KMNV 212355Z AUTO 00000KT 10SM 12/01 A3007 RMK A01=
KMNZ 212355Z AUTO 18011KT 10SM CLR 28/05 A2986 RMK AO2 T02760050
     10322 20276=
K05U 212355Z AUTO 25012KT 10SM 22/M13 A2992 RMK A01=
K0A0 212355Z AUTO 22011KT 10SM CLR 25/02 A2994 RMK AO2=
K0A9 212355Z AUTO 00000KT 10SM CLR 08/02 A3009 RMK A01=
