SAUS70 KWBC 220028
METAR
KEZS 220035Z AUTO 00000KT 10SM CLR 13/06 A2962 RMK AO2
     T01270058=
KANK 220010Z AUTO 28005KT 10SM CLR A3001 RMK AO1=
KBMC 220010Z AUTO 10SM CLR 21/M04 A2975 RMK AO1 T02051036=
KBMT 220015Z AUTO 17006KT 10SM CLR 22/15 A2998 RMK AO2
     T02150147=
KDUB 220014Z AUTO 29022G27KT 10SM CLR 12/M08 A2970 RMK AO2=
KDUX 220015Z AUTO 20008KT 10SM CLR 21/M02 A2972 RMK AO2
     T02091021=
KDWX 220010Z AUTO 23010KT 190V270 10SM CLR A2987 RMK AO2=
KEAN 220010Z AUTO 27009G20KT 10SM CLR 21/M12 A2962 RMK AO2
     T02091121=
KEDC 220015Z AUTO 20005KT 10SM CLR 24/09 A2989 RMK AO2=
KETN 220015Z AUTO 18008KT 10SM CLR 26/03 A2981 RMK AO2
     T02570034=
KGLE 220015Z AUTO 16008KT 10SM CLR 25/06 A2979 RMK AO2
     T02450057=
KGNB 220015Z AUTO 24015G20KT 10SM CLR 12/M11 A2995 RMK AO2
     T01221115=
KGNC 220015Z AUTO 23004KT 10SM CLR 22/05 A2991 RMK AO2
     T02240045=
KHBV 220010Z AUTO 15004KT 5SM HZ CLR 24/12 A2994 RMK AO2
     T02410120=
KHSG 220010Z AUTO 24011G19KT 10SM CLR 18/M04 A2955 RMK AO2
     T01831043=
KHVE 220015Z AUTO 17003KT 10SM CLR 23/M06 A2983 RMK AO2=
KMMH 220014Z AUTO 29014G17KT 10SM CLR 17/M06 A3007 RMK AO2=
KOSA 220010Z AUTO 16005KT 10SM CLR 23/11 A2985 RMK AO2
     T02290107=
KOZA 220015Z AUTO 19009G16KT 10SM CLR 23/06 A2993 RMK AO2=
KPVW 220010Z AUTO 23007KT 10SM CLR 22/00 A2978 RMK AO2
     T02151003=
KSLR 220010Z AUTO 17006KT 10SM CLR 26/09 A2986 RMK AO2
     T02560089=
KT20 220015Z AUTO 17009G16KT 10SM CLR 26/13 A2992 RMK AO2
     T02570130=
KTMK 220015Z AUTO 00000KT 2 1/2SM BR BKN010 OVC016 11/10 A2970 RMK
     AO2=
KTXW 220010Z AUTO 16011G16KT 10SM CLR 26/17 A2995 RMK AO2
     T02580165=
K1S5 220035Z AUTO 07004KT 10SM -RA SCT041 SCT047 BKN060 09/08
     A2967 RMK AO2 P0003 T00900079=
KCPF 220035Z AUTO 00000KT 10SM CLR 14/00 A3007 RMK AO2=
KEMV 220035Z AUTO 00000KT 10SM CLR 06/05 A3016 RMK AO2
     T00570045=
KFFA 220035Z AUTO 05003KT 10SM SCT070 16/10 A3013 RMK AO2
     T01620099=
KMCJ 220035Z AUTO 18017KT 10SM CLR 24/14 A2995 RMK A01=
KSUW 220035Z AUTO 00000KT 10SM CLR 06/01 A2959 RMK AO2
     T00600013=
