SAUS70 KWBC 220100 RRP
METAR
KHND 220056Z 17011KT 10SM CLR 27/03 A2982 RMK AO2 SLP092
     T02720028=
KIFP 220055Z AUTO 18011KT 10SM CLR 31/03 A2973 RMK AO2=
KINJ 220055Z AUTO 17013G16KT 10SM CLR 26/09 A2985 RMK AO2
     T02610086=
KJTC 220050Z AUTO 24005KT 10SM CLR 12/01 A3012 RMK AO2=
KLLJ 220055Z AUTO 30023G30KT 10SM OVC080 13/M02 A2967 RMK AO2 PK
     WND 29032/0019 PRESRR SLP018 T01331022=
KLXY 220055Z AUTO 16006KT 10SM CLR 23/10 A2989 RMK AO2
     T02290102=
KMEV 220055Z AUTO 22014G26KT 10SM CLR 20/M07 A2990 RMK AO2=
KRAS 220055Z AUTO 15012KT 10SM CLR A2999 RMK AO2=
KRCV 220055Z AUTO 25014G20KT 10SM CLR 13/M05 A2999 RMK AO2
     T01251051=
KRYW 220055Z AUTO 20008KT 10SM CLR 25/09 A2993 RMK AO2
     T02450086=
KS33 220055Z AUTO 03011KT 10SM SCT040 OVC060 10/08 A2968 RMK
     AO2=
KSAA 220055Z AUTO 21012G16KT 10SM CLR 12/M11 A2985 RMK AO2=
KSTK 220055Z AUTO 00000KT 10SM CLR 16/M05 A2964 RMK AO2=
KT41 220055Z AUTO 10SM CLR 22/15 A3000 RMK AO2 T02240153=
KTEX 220055Z AUTO 00000KT 10SM CLR 10/M10 A3012 RMK AO2=
KVHN 220055Z AUTO 25008KT 10SM CLR 23/07 A3001 RMK AO2
     T02260068=
KANK 220050Z AUTO 24007KT 10SM CLR 14/M12 A3001 RMK AO1
     T01411121=
KBMC 220050Z AUTO 10SM CLR 17/M03 A2973 RMK AO1 T01721030=
KC29 220055Z AUTO 00000KT 10SM CLR 10/05 A2966 RMK AO1
     T00980047=
KC99 220049Z AUTO 25009KT 210V320 10SM CLR 04/M13 A3005 RMK
     AO2=
KCHK 220050Z AUTO 16008KT 10SM CLR 23/04 A2969 RMK AO2
     T02270039=
KCPC 220055Z AUTO 00000KT 10SM CLR 10/06 A3014 RMK AO2
     T00990058=
KDCM 220055Z AUTO 00000KT 10SM CLR 08/00 A3014 RMK AO2=
KDWX 220050Z AUTO 20011G16KT 180V250 10SM CLR 08/M18 A2987 RMK AO2
     T00771178=
KE11 220050Z AUTO 22004KT 10SM CLR 22/05 A2987 RMK AO2
     T02150051=
KEAN 220050Z AUTO 26012G20KT 10SM CLR 20/M12 A2962 RMK AO2
     T02041118=
KEDC 220055Z AUTO 19005KT 10SM CLR 23/08 A2990 RMK AO2=
KGLE 220055Z AUTO 17007KT 10SM CLR 24/06 A2980 RMK AO2
     T02350056=
KHBV 220050Z AUTO 15005KT 7SM CLR 23/12 A2995 RMK AO2
     T02270120=
KHHW 220054Z AUTO 16005KT 10SM CLR 22/08 A2982 RMK AO2=
KHSG 220050Z AUTO 23021G25KT 10SM CLR 18/M05 A2955 RMK AO2
     T01841053=
KMPZ 220050Z AUTO 17004KT 10SM CLR 18/07 A2967 RMK AO2=
KMYZ 220050Z AUTO 00000KT 10SM CLR 20/03 A2959 RMK AO2=
KOSA 220050Z AUTO 16005KT 10SM CLR 21/12 A2987 RMK AO2
     T02100116=
KPVW 220050Z AUTO 23008KT 10SM CLR 19/00 A2979 RMK AO2
     T01850004=
KRBW 220055Z AUTO 00000KT 10SM CLR 08/06 A3014 RMK AO2=
KRGA 220058Z AUTO 17005KT 10SM CLR 15/02 A3004 RMK AO2=
KSLR 220050Z AUTO 17007KT 10SM CLR 25/10 A2987 RMK AO2
     T02470095=
KTXW 220050Z AUTO 15009KT 10SM CLR 25/17 A2997 RMK AO2
     T02490166=
KWWR 220050Z AUTO 17010KT 10SM CLR 22/M02 A2967 RMK AO2=
K06C 220055Z AUTO 20009G14KT 10SM CLR 20/08 A2971 RMK AO2
     T01960078=
K2W6 220059Z AUTO 00000KT 10SM CLR 08/07 A3017 RMK AO1=
KAAA 220055Z AUTO 18012KT 10SM CLR 19/05 A2976 RMK AO2
     T01870050=
KADU 220055Z AUTO 00000KT 7SM SCT007 SCT018 BKN080 06/M01 A2962
     RMK AO2=
KAFK 220055Z AUTO 00000KT 10SM CLR 20/00 A2959 RMK AO2
     T02000000=
KAIO 220055Z AUTO 01006KT 1 1/2SM HZ CLR 10/01 A2959 RMK AO2=
KAUH 220055Z AUTO 00000KT 7SM CLR 15/M01 A2960 RMK AO2
     T01471013=
KAXA 220055Z AUTO 07004KT 8SM CLR 16/03 A2962 RMK A01=
KBBB 220057Z AUTO 18004KT 10SM CLR 08/01 A2961 RMK AO2=
KBIE 220055Z AUTO 00000KT 10SM CLR 16/02 A2959 RMK AO2
     T01610015=
KC65 220055Z AUTO 19010G16KT 10SM CLR 18/03 A2980 RMK A01=
KCGE 220055Z AUTO 14004KT 10SM CLR 08/06 A3016 RMK A01=
KCKC 220057Z AUTO 00000KT 10SM CLR 08/02 A2956 RMK AO2=
