SAUS70 KWBC 220228
METAR
K1S5 220235Z AUTO 07005KT 10SM -RA SCT070 BKN085 OVC110 08/07
     A2963 RMK AO2 T00830071=
KCPF 220235Z AUTO 00000KT 10SM CLR 11/01 A3008 RMK AO2=
KEMV 220235Z AUTO 00000KT 10SM CLR 04/04 A3020 RMK AO2
     T00380036=
KFFA 220235Z AUTO 02003KT 10SM SCT070 16/10 A3015 RMK AO2
     T01620104=
KMCJ 220235Z AUTO 17011KT 10SM BKN038 22/15 A2999 RMK A01=
KSUW 220235Z AUTO 00000KT 10SM CLR 06/02 A2961 RMK AO2
     T00590017=
