SAUS80 KWBC 220238
METAR
KM21 220235Z AUTO 16005KT 10SM 16/04 A2996 RMK AO2 T01580041=
KPTS 220235Z AUTO 17011KT 10SM CLR 22/06 A2972 RMK AO2 T02180061
     PWINO=
KSMS 220235Z AUTO 00000KT 10SM CLR 06/04 A3016 RMK AO2=
KSNC 220235Z AUTO 21005KT 10SM CLR 10/08 A3019 RMK AO2=
KSOW 220235Z AUTO 21011KT 10SM CLR 14/05 A3010 RMK AO2=
KSYN 220235Z AUTO 00000KT 7SM CLR 09/02 A2964 RMK AO2
     T00870017=
KY23 220235Z AUTO 00000KT 10SM CLR 07/05 A2964 RMK AO2
     T00680048=
KEKX 220235Z AUTO 16005KT 10SM CLR 13/01 A2999 RMK AO2
     T01260007=
KCLI 220235Z AUTO 00000KT 10SM CLR 08/04 A2967 RMK AO2
     T00840036=
KIKW 220235Z AUTO 19006KT 10SM CLR 16/05 A2974 RMK AO2
     T01560047=
KLYV 220235Z AUTO 00000KT 10SM CLR 09/01 A2961 RMK AO2=
KPOV 220235Z AUTO 19004KT 10SM CLR 11/M02 A2999 RMK AO2 T01121020
     PWINO=
KPZQ 220235Z AUTO 22004KT 10SM CLR 15/06 A2966 RMK AO2
     T01540055=
KSOW 220235Z AUTO 21011KT 10SM CLR 14/05 A3010 RMK AO2=
KSVE 220235Z AUTO 26012G21KT 10SM CLR M01/M17 A2980 RMK AO2=
KSNC 220235Z AUTO 21005KT 10SM CLR 10/08 A3019 RMK AO2=
KSYN 220235Z AUTO 00000KT 7SM CLR 09/02 A2964 RMK AO2
     T00870017=
KY23 220235Z AUTO 00000KT 10SM CLR 07/05 A2964 RMK AO2
     T00680048=
KEDU 220240Z AUTO 21007KT 10SM CLR 18/11 A2974 RMK AO1=
KCIR 220235Z AUTO 19004KT 10SM CLR 17/09 A2990 RMK AO2
     T01660091=
KGNG 220235Z AUTO 24004KT 10SM BKN050 BKN075 OVC110 15/02 A2967
     RMK AO2=
K9MN 220235Z AUTO 00000KT 10SM CLR 13/03 A2965 RMK AO1
     T01320026=
KVTI 220235Z AUTO 16004KT 7SM CLR 11/01 A2964 RMK AO2
     T01050007=
KJNX 220235Z AUTO 00000KT 10SM CLR 06/05 A3017 RMK AO2=
KMKN 220235Z AUTO 19014G19KT 10SM CLR 24/08 A2986 RMK AO2
     T02410075=
KRFI 220235Z AUTO 16006KT 10SM CLR 24/07 A2993 RMK AO2
     T02360072=
KRLD 220235Z AUTO 00000KT 10SM -RA SCT060 BKN100 BKN120 10/09
     A2963 RMK AO2 P0001 T00970090=
KS39 220235Z AUTO 27006KT 10SM -DZ FEW032 BKN045 OVC055 12/09
     A2963 RMK AO2=
KSEP 220235Z AUTO 16006KT 10SM CLR 22/05 A2987 RMK AO2
     T02220047=
KTKC 220235Z AUTO 00000KT 10SM 11/00 A2961 RMK AO2 T01091003=
KTKV 220235Z AUTO 00000KT 10SM CLR 05/02 A2967 RMK AO2 T00500022
     PWINO=
