SAUS70 KWBC 220138 RRC
METAR
KPAN 220135Z AUTO 18003KT 10SM CLR 16/04 A3005 RMK AO2 PWINO
     TSNO=
KPCM 220135Z AUTO 33003KT 10SM CLR 18/07 A3009 RMK AO2=
KPGV 220135Z AUTO 00000KT 10SM SCT049 SCT060 09/08 A3015 RMK
     AO2=
KPLR 220135Z AUTO 00000KT 10SM BKN037 OVC044 10/07 A3010 RMK
     A01=
KPNM 220135Z AUTO 00000KT 10SM CLR 07/02 A2962 RMK A=
KPVB 220135Z AUTO 00000KT 10SM CLR 19/01 A2966 RMK AO1
     T01940005=
KPVF 220135Z AUTO 21004KT 10SM CLR 20/04 A2989 RMK AO1=
KRCE 220135Z AUTO 16011KT 10SM CLR 23/01 A2971 RMK AO2=
KRMN 220135Z AUTO 00000KT 10SM CLR 08/05 A3019 RMK AO2
     T00830050=
KRNH 220135Z AUTO 00000KT 10SM CLR 06/04 A2964 RMK AO2
     T00640044=
KRNP 220135Z AUTO 19009G18KT 10SM CLR 17/03 A2977 RMK AO2
     T01710025=
KRPH 220135Z AUTO 17006KT 9SM CLR 26/04 A2976 RMK AO2 T02600035
     $=
KRQB 220135Z AUTO 17005KT 10SM CLR 16/05 A2971 RMK AO2
     T01590051=
KRUG 220135Z AUTO 01004KT 10SM FEW028 OVC050 06/06 A2955 RMK
     AO2=
KRUQ 220135Z AUTO 00000KT 10SM CLR 06/03 A3015 RMK AO2
     T00550033=
KRVL 220135Z AUTO 00000KT 10SM CLR 05/00 A3012 RMK AO2=
KRYV 220135Z AUTO 00000KT 10SM CLR 10/03 A2967 RMK AO2
     T00950030=
KRZL 220135Z AUTO 17009KT 10SM CLR 16/02 A2983 RMK AO2=
KRZN 220135Z AUTO 00000KT 10SM CLR 07/01 A2962 RMK AO2
     T00690012=
KS25 220135Z AUTO 01006KT 9SM BKN036 OVC055 06/06 A2957 RMK
     AO2=
KS32 220135Z AUTO 00000KT 10SM FEW055 BKN065 OVC100 09/M01 A2955
     RMK AO2 TSNO=
KSCR 220135Z AUTO 00000KT 10SM CLR 06/04 A3016 RMK AO2
     T00550039=
KSFQ 220135Z AUTO 00000KT 10SM CLR 09/08 A3018 RMK AO2
     T00920078=
KSIF 220135Z AUTO 00000KT 10SM CLR 05/03 A3016 RMK AO2
     T00450028=
KSIK 220135Z AUTO 17004KT 10SM CLR 20/10 A2989 RMK AO2=
KSJX 220135Z AUTO 23007KT 10SM CLR 11/08 A2964 RMK AO2
     T01070078=
KSLH 220135Z AUTO 24003KT 10SM CLR 11/07 A2962 RMK AO2=
KSPF 220135Z AUTO 21009KT 10SM CLR 11/M04 A2953 RMK AO2=
KSTF 220135Z AUTO 16007KT 10SM CLR 18/13 A3000 RMK AO2=
KSUZ 220135Z AUTO 16003KT 10SM FEW040 19/10 A2989 RMK A01=
KSVC 220135Z AUTO 33008KT 10SM CLR 14/09 A3005 RMK AO2
     T01430091=
KSVH 220135Z AUTO 00000KT 10SM CLR 07/03 A3014 RMK AO2
     T00730028=
KSXU 220135Z AUTO 27008KT 10SM CLR 19/00 A2988 RMK AO2
     T01850000=
KT69 220135Z AUTO 18007KT 10SM CLR 22/16 A2997 RMK A01=
KTKX 220135Z AUTO 18006KT 7SM BKN046 17/10 A2988 RMK AO2 TSNO=
KTME 220135Z AUTO 19010KT 10SM CLR 22/15 A3000 RMK AO2=
KTOB 220135Z AUTO 00000KT 5SM HZ CLR 09/01 A2966 RMK AO2=
KTSP 220135Z AUTO 29005KT 10SM CLR 19/M01 A2997 RMK AO2=
KTTF 220135Z AUTO 18005KT 10SM CLR 15/02 A2986 RMK AO2
     T01480021=
KTWT 220135Z AUTO 15005KT 10SM CLR 16/06 A2991 RMK AO2=
KU42 220135Z AUTO 22005KT 10SM CLR 16/M01 A2979 RMK AO1
     T01591009=
KUBE 220135Z AUTO 00000KT 10SM CLR 09/05 A2964 RMK AO2=
KULM 220135Z AUTO 00000KT 10SM CLR 11/01 A2962 RMK AO2=
KUOX 220135Z AUTO 15007KT 10SM CLR 19/10 A2998 RMK AO2 PWINO=
KUTA 220135Z AUTO 16008KT 10SM CLR 20/10 A2992 RMK AO2 T01990099
     $=
KUXL 220135Z AUTO 16005KT 10SM CLR 18/15 A3004 RMK AO2
     T01780150=
KVGC 220135Z AUTO 14007KT 10SM CLR 07/M03 A3007 RMK AO2=
KVJI 220135Z AUTO 00000KT 10SM CLR 07/00 A3012 RMK AO2
     T00671001=
KVLL 220135Z AUTO 19006KT 10SM CLR 16/02 A2985 RMK AO2
     T01630021=
KVWU 220135Z AUTO 18004KT 10SM SCT110 11/02 A2954 RMK AO2=
KW78 220135Z AUTO 00000KT 10SM CLR 06/03 A3016 RMK AO1
     T00550031=
KW81 220135Z AUTO 00000KT 10SM CLR 06/03 A3016 RMK AO1
     T00600025=
KX07 220135Z AUTO 04004KT 10SM CLR 17/10 A3007 RMK A01=
KXNX 220135Z AUTO 13004KT 10SM FEW038 BKN048 BKN055 15/02 A3002
     RMK A01=
