SAUS70 KWBC 212300 RRX
METAR
KGZN 212300Z AUTO 21018G23KT 10SM CLR 30/01 A2980 RMK AO2=
