SAUS80 KWBC 220200
METAR
K77S 220155Z AUTO 21006KT 9SM BKN015 OVC021 15/15 A2972 RMK A01
     P0001=
