SAUS70 KWBC 220000 RRG
METAR
KJAQ 212355Z AUTO 27005KT 10SM CLR 27/06 A2985 RMK AO1 T02680058
     10281 20262=
KEFD 212354Z 17012KT 10SM CLR 23/15 A2996=
KFMH 212356Z 00000KT 10SM CLR 10/07 A3017=
KJKL 212353Z AUTO 00000KT 10SM CLR 16/00 A3004 RMK AO2 SLP171
     T01560000 10200 20156 53002=
KLAA 212353Z AUTO 16006KT 10SM CLR 23/M09 A2966 RMK AO2 SLP018
     T02281089 10283 20228 58015=
KLAR 212353Z AUTO 26021G31KT 10SM CLR 14/M12 A2980 RMK AO2 PK WND
     25033/2326 SLP017 T01441117 10189 20144 56006=
KLAW 212353Z AUTO 20009KT 10SM CLR 28/02 A2970 RMK AO2 SLP051
     T02830022 10333 20283 56010=
KLBX 212353Z AUTO 19007KT 10SM CLR 22/15 A2998 RMK AO2 SLP153
     T02170150 10289 20217 53000=
KLCH 212353Z 19006KT 10SM CLR 20/14 A3000 RMK AO2 SLP167 T02000144
     10272 20200 55001=
KLEB 212353Z 18005KT 10SM CLR 05/01 A3009 RMK AO2 SLP196 T00500011
     10156 20039 52013=
KLFK 212353Z AUTO 18004KT 10SM CLR 24/11 A2992 RMK AO2 SLP130
     T02440111 10294 20244 55001=
KLFT 212353Z 18008KT 10SM CLR 23/13 A3002 RMK AO2 SLP165 T02280133
     10294 20228 53003=
KLHQ 212353Z AUTO 17003KT 10SM CLR 11/01 A2999 RMK AO2 SLP160
     T01060011 10200 20100 53010=
KLOU 212353Z 16007KT 10SM CLR 17/01 A2996 RMK AO2 SLP145 T01670006
     10228 20167 53004=
KLOZ 212353Z AUTO 17003KT 10SM CLR 14/01 A3005 RMK AO2 SLP176
     T01440011 10194 20144 53003=
KLSE 212353Z 00000KT 10SM CLR 13/04 A2961 RMK AO2 SLP028 T01330044
     10244 20133 53016 $=
KLUK 212353Z 23004KT 10SM CLR 14/01 A2997 RMK AO2 SLP148 T01440006
     10228 20139 53007=
KLVJ 212353Z AUTO 17007KT 10SM CLR 24/15 A2999 RMK AO2 SLP153
     T02390150 10289 20239 53004=
KLWV 212353Z AUTO 17009KT 10SM CLR 17/00 A2988 RMK AO2 SLP116
     T01670000 10256 20167 53003=
KMAF 212353Z 21006KT 10SM CLR 26/07 A2986 RMK AO2 SLP078 T02560072
     10278 20244 58011=
KMCB 212353Z AUTO 17010KT 10SM CLR 21/13 A3002 RMK AO2 SLP163
     T02110128 10272 20206 53003=
KMCI 212353Z 19012KT 10SM BKN250 24/03 A2963 RMK AO2 SLP028
     T02390033 10311 20233 53001=
KMCK 212353Z AUTO 16004KT 10SM CLR 22/M04 A2962 RMK AO2 SLP017
     T02221044 10261 20222 56013=
KMDW 212353Z 20010KT 10SM CLR 23/03 A2971 RMK AO2 SLP059 T02280033
     10256 20217 53010=
KMFE 212353Z 16009KT 10SM CLR 27/16 A2994 RMK AO2 SLP136 T02670161
     10306 20267 53001 $=
KMGW 212353Z 17004KT 10SM CLR 11/01 A3006 RMK AO2 SLP184 T01110006
     10189 20111 53007=
KMGY 212353Z AUTO 18006KT 10SM CLR 13/01 A2995 RMK AO2 SLP143
     T01330011 10217 20133 53008=
KMHE 212353Z AUTO 12004KT 10SM CLR 15/00 A2957 RMK AO2 SLP015
     T01500000 10206 20150 58009=
KBRL 212353Z AUTO 18011KT 10SM CLR 22/03 A2965 RMK AO2 SLP039
     T02170033 10272 20211 53002=
KCQX 212352Z AUTO 20005KT 10SM CLR 14/08 A3018 RMK AO2 SLP222
     T01390083 10172 20133 53008=
KD50 212355Z AUTO 00000KT 10SM OVC035 06/03 A2956 RMK AO2=
KIJD 212352Z AUTO 00000KT 10SM CLR 08/05 A3016 RMK AO2 SLP215
     T00830050 10178 20083 53017=
KLNL 212355Z AUTO 00000KT 10SM CLR 07/02 A2962 RMK AO2 T00660023
     10177 20066=
KMCW 212353Z AUTO 00000KT 2 1/2SM HZ CLR 12/01 A2964 RMK AO2
     SLP033 T01170011 10222 20106 51004=
KMLI 212352Z 21008KT 10SM CLR 23/03 A2964 RMK AO2 SLP037 T02330033
     10272 20228 53010=
KOXC 212351Z 17005KT 10SM CLR 09/01 A3015 RMK AO2 SLP228 T00890011
     10161 20089 53014=
KPYM 212352Z AUTO 17003KT 10SM CLR 11/07 A3016 RMK AO2 SLP216
     T01060067 10183 20106 53015=
KRAP 212352Z 13004KT 10SM CLR 18/M03 A2947 RMK AO2 SLP971
     T01781028 10233 20178 56009=
KSUX 212352Z 04003KT 9SM CLR 19/01 A2958 RMK AO2 SLP019 T01890006
     10250 20189 58004=
