SAUS70 KWBC 220000
METAR
KC62 212355Z AUTO 20009KT 10SM CLR 17/03 A2981 RMK AO2
     T01790034=
