SAUS70 KWBC 220100 RRF
METAR
KCEU 220054Z AUTO 00000KT 10SM CLR 12/05 A3013 RMK AO2 SLP204
     T01170050=
KCEY 220055Z AUTO 15007KT 10SM CLR 20/09 A2993 RMK A01=
KCFJ 220055Z AUTO 16007KT 10SM CLR 13/M01 A2987 RMK AO2
     T01321015=
KCGC 220055Z AUTO 00000KT 10SM CLR 12/04 A3009 RMK AO2=
KCJR 220055Z AUTO 00000KT 10SM CLR 06/02 A3015 RMK AO2
     T00610021=
KCKM 220055Z AUTO 15006KT 9SM FEW036 FEW045 BKN055 21/10 A2993 RMK
     A01=
KCKZ 220055Z AUTO 00000KT 10SM CLR 05/03 A3016 RMK AO2=
KCLS 220055Z AUTO 00000KT 6SM -RA BKN015 OVC048 08/07 A2970 RMK
     AO2=
KCLW 220055Z AUTO 36003KT 10SM CLR 17/08 A3007 RMK AO2=
KCMR 220055Z AUTO 22006KT 10SM CLR 14/02 A3008 RMK AO2=
KCPT 220055Z AUTO 17012KT 10SM CLR 26/08 A2984 RMK A01=
KCTZ 220055Z AUTO 00000KT 10SM CLR 10/07 A3014 RMK AO2
     T01010069=
KCXE 220055Z AUTO 00000KT 10SM CLR 07/03 A3015 RMK AO1
     T00730029=
KD57 220055Z AUTO 05006KT 10SM OVC070 10/M02 A2950 RMK AO2=
KD60 220055Z AUTO 04005KT 10SM FEW033 BKN040 OVC045 05/05 A2957
     RMK AO2=
KDNA 220055Z AUTO 00000KT 10SM CLR 24/08 A2997 RMK AO2=
KDNN 220055Z AUTO 00000KT 10SM CLR 09/04 A3011 RMK AO2
     T00950041=
KDRI 220055Z AUTO 17006KT 10SM CLR 22/16 A3001 RMK AO2 T02200159
     $=
KDYB 220055Z AUTO 00000KT 10SM CLR 10/08 A3013 RMK AO2=
KEKM 220055Z AUTO 20007KT 10SM CLR 18/03 A2980 RMK AO2
     T01790033=
KELK 220055Z AUTO 19010KT 10SM CLR 22/02 A2970 RMK AO2 SLP347
     T02230023 $=
KEUG 220054Z 22009KT 10SM SCT023 BKN048 OVC100 14/12 A2974 RMK AO2
     RAB2359E15B38E47 SLP071 P0000 T01390122=
KRNH 220055Z AUTO 00000KT 10SM CLR 08/05 A2963 RMK AO2
     T00800051=
KRPH 220055Z AUTO VRB06KT 10SM CLR 27/02 A2976 RMK AO2 T02670020
     $=
KRUG 220055Z AUTO 34006KT 10SM FEW025 SCT048 OVC055 07/05 A2955
     RMK AO2=
KRUQ 220055Z AUTO 00000KT 10SM CLR 07/03 A3014 RMK AO2
     T00670031=
KRYV 220055Z AUTO 00000KT 10SM CLR 12/03 A2965 RMK AO2
     T01170029=
KRZL 220055Z AUTO 17007KT 10SM CLR 16/02 A2982 RMK AO2=
KRZN 220055Z AUTO 00000KT 10SM CLR 08/02 A2963 RMK AO2
     T00760016=
KS25 220055Z AUTO 36005KT 10SM OVC070 07/07 A2955 RMK AO2=
KS32 220055Z AUTO 00000KT 10SM SCT075 BKN100 OVC120 09/M01 A2955
     RMK AO2 TSNO=
KSCR 220055Z AUTO 00000KT 10SM CLR 07/04 A3015 RMK AO2
     T00650040=
KSFQ 220055Z AUTO 00000KT 10SM CLR 10/08 A3018 RMK AO2
     T01010078=
KSIF 220055Z AUTO 00000KT 10SM CLR 06/03 A3015 RMK AO2
     T00550032=
KSIK 220055Z AUTO 18004KT 10SM CLR 20/09 A2988 RMK AO2=
KSLC 220054Z 20006KT 10SM FEW140 FEW230 21/M07 A2975 RMK AO2
     SLP037 T02061072=
KSMO 220051Z COR 23008KT 10SM OVC010 19/16 A2984 RMK AO2 SLP103
     T01890161=
KSPF 220055Z AUTO 24004KT 10SM CLR 12/M04 A2952 RMK AO2=
KSTF 220055Z AUTO 15005KT 10SM CLR 18/12 A2999 RMK AO2=
KSUZ 220055Z AUTO 17005KT 10SM CLR 19/10 A2988 RMK A01=
KSVC 220055Z AUTO 32006KT 10SM CLR 17/09 A3005 RMK AO2
     T01690086=
KSVH 220055Z AUTO 00000KT 10SM CLR 09/03 A3013 RMK AO2
     T00850032=
KSXU 220055Z AUTO 27012G18KT 10SM CLR 20/00 A2987 RMK AO2
     T02020001=
KT69 220055Z AUTO 17007KT 10SM CLR 22/16 A2997 RMK A01=
KTKX 220055Z AUTO 18007KT 7SM SCT043 SCT048 17/10 A2988 RMK AO2
     TSNO=
KTME 220055Z AUTO 19010KT 10SM CLR 23/15 A2999 RMK AO2=
KTSP 220055Z AUTO 31012KT 9SM CLR 21/M03 A2996 RMK AO2=
KTWT 220055Z AUTO 00000KT 10SM CLR 17/05 A2991 RMK AO2=
KU42 220055Z AUTO 18005KT 10SM CLR 17/M01 A2979 RMK AO1
     T01731007=
KUBE 220055Z AUTO 00000KT 10SM CLR 10/05 A2963 RMK AO2=
KUOX 220055Z AUTO 15007KT 10SM SCT065 19/10 A2997 RMK AO2
     PWINO=
KUTA 220055Z AUTO 17008KT 10SM CLR 20/10 A2991 RMK AO2 T01980097
     $=
