SAUS70 KWBC 220138 RRD
METAR
KY19 220135Z AUTO 09008KT 10SM OVC100 11/02 A2952 RMK AO2=
KY70 220135Z AUTO 20011KT 10SM CLR 16/03 A2974 RMK AO2
     T01620033=
KDNA 220135Z AUTO 00000KT 10SM CLR 23/08 A2998 RMK AO2=
KDNN 220135Z AUTO 00000KT 10SM CLR 09/04 A3011 RMK AO2
     T00860040=
KDRI 220135Z AUTO 18009KT 10SM CLR 21/16 A3002 RMK AO2 T02120157
     $=
KDTL 220135Z AUTO 00000KT 10SM OVC055 10/01 A2956 RMK AO2=
KDUH 220135Z AUTO 19007KT 10SM CLR 17/00 A2987 RMK AO2
     T01670000=
KDYB 220135Z AUTO 00000KT 10SM CLR 09/08 A3013 RMK AO2=
KEDJ 220135Z AUTO 18010KT 10SM CLR 14/01 A2996 RMK A01=
KEKM 220135Z AUTO 19010KT 10SM CLR 17/03 A2982 RMK AO2
     T01740033=
KELK 220135Z AUTO 19011KT 10SM CLR 22/03 A2970 RMK AO2 SLP348
     T02240029 $=
KEVU 220135Z AUTO 18009KT 10SM CLR 21/05 A2960 RMK AO2
     T02100052=
KEXX 220135Z AUTO 00000KT 10SM CLR 06/04 A3014 RMK AO2
     T00640037=
KEZF 220135Z AUTO 00000KT 10SM CLR 08/05 A3015 RMK AO2
     T00750045=
KEZM 220135Z AUTO 00000KT 10SM CLR 07/04 A3014 RMK AO2=
KF70 220135Z AUTO 21006KT 10SM CLR 20/15 A2987 RMK AO2=
KFFX 220135Z AUTO 21010G17KT 10SM CLR 19/05 A2971 RMK AO2
     T01920046=
KFGN 220135Z AUTO 22004KT 10SM OVC100 09/03 A2951 RMK AO2=
KFGX 220135Z AUTO 19005KT 10SM CLR 13/00 A3003 RMK AO2
     T01250003=
KFKA 220135Z AUTO 00000KT 7SM CLR 13/02 A2966 RMK AO2
     T01330020=
KFKS 220135Z AUTO 21005KT 10SM CLR 14/07 A2964 RMK AO2
     T01400067=
KFPK 220135Z AUTO 19009KT 10SM CLR 16/04 A2977 RMK AO2
     T01560035=
KFVX 220135Z AUTO 00000KT 10SM CLR 06/03 A3015 RMK AO2
     T00610025=
KFWB 220135Z AUTO VRB05G10KT 10SM CLR 21/03 A2982 RMK AO2=
KGLY 220135Z AUTO 17007KT 10SM CLR 21/03 A2971 RMK AO2=
KGWR 220135Z AUTO 17006KT 7SM BKN025 OVC048 11/01 A2955 RMK
     A01=
KHAF 220135Z AUTO 5SM BR OVC011 14/13 A2988 RMK AO2=
KHAI 220135Z AUTO 18007KT 10SM CLR 16/03 A2981 RMK AO2
     T01560034=
KHOB 220135Z AUTO 23008KT 10SM CLR 19/07 A2989 RMK AO2=
KHRJ 220135Z AUTO 00000KT 10SM CLR 08/06 A3016 RMK AO2
     T00850061=
KHVS 220135Z AUTO 00000KT 10SM SCT042 BKN048 SCT055 07/01 A3014
     RMK AO2=
KHWY 220135Z AUTO 00000KT 10SM CLR 03/01 A3019 RMK AO2
     T00250012=
KHYW 220135Z AUTO 00000KT 10SM CLR 07/06 A3014 RMK AO2=
KHZE 220135Z AUTO 04005KT 10SM FEW043 BKN050 OVC075 10/04 A2955
     RMK AO2=
KI23 220135Z AUTO 16004KT 10SM CLR 10/M01 A2999 RMK AO1=
KI67 220135Z AUTO 00000KT 10SM CLR 13/00 A2996 RMK AO1=
KI68 220135Z AUTO 16007KT 10SM CLR 14/01 A2998 RMK AO1
     T01350012=
KIDI 220135Z AUTO 00000KT 10SM BKN055 06/02 A3010 RMK A01=
KINF 220135Z AUTO 00000KT 10SM CLR 12/07 A3010 RMK AO2=
KIOB 220135Z AUTO 20005KT 10SM CLR 10/02 A3004 RMK AO2 PWINO=
KIRS 220135Z AUTO 20009G18KT 10SM CLR 16/01 A2982 RMK AO2
     T01620008=
KISQ 220135Z AUTO 00000KT 1/4SM FG VV002 05/05 A2963 RMK AO2
     T00470047=
KJFZ 220135Z AUTO 14004KT 10SM CLR 10/00 A3012 RMK AO2
     T01000000=
KJVW 220135Z AUTO 00000KT 10SM CLR 18/14 A3000 RMK AO2=
KJYG 220135Z AUTO 00000KT 7SM CLR 07/01 A2963 RMK AO2=
KJYM 220135Z AUTO 17007KT 10SM CLR 15/01 A2984 RMK AO2
     T01470008=
KJZI 220135Z AUTO 32003KT 10SM CLR 11/09 A3013 RMK AO2=
KKY8 220135Z AUTO 15004KT 10SM FEW036 17/04 A2993 RMK A01=
KL08 220135Z AUTO 00000KT 10SM CLR 27/08 A2975 RMK AO2=
KL35 220135Z AUTO 22003KT 10SM CLR 11/02 A3010 RMK AO2=
KL52 220135Z AUTO 00000KT 7SM SCT011 15/14 A2989 RMK A01=
KLBO 220135Z AUTO 17010KT 10SM CLR 20/00 A2980 RMK AO2=
KLKR 220135Z AUTO 00000KT 10SM FEW045 BKN060 07/03 A3015 RMK
     AO2=
KLKU 220135Z AUTO 00000KT 10SM CLR 04/03 A3016 RMK AO2
     T00390027=
