SAUS70 KWBC 220218 RRG
METAR
KOXV 220215Z AUTO 17006KT 10SM CLR 19/02 A2962 RMK AO2=
KP08 220215Z AUTO 27004KT 10SM CLR 25/11 A2984 RMK AO2=
KPCD 220215Z AUTO 18005KT 10SM CLR 17/10 A2986 RMK AO2
     T01720098=
KPCW 220215Z AUTO 21011G16KT 10SM CLR 15/02 A2990 RMK AO2=
KPEX 220215Z AUTO 00000KT 10SM CLR 09/03 A2962 RMK AO2=
KPHT 220215Z AUTO 17009KT 10SM CLR 17/10 A2994 RMK A01=
KPKV 220215Z AUTO 16006KT 10SM CLR 20/15 A3000 RMK AO2
     T02020147=
KPMH 220215Z AUTO 00000KT 10SM CLR 08/01 A3004 RMK AO2
     T00800007=
KPRO 220215Z AUTO 10003KT 5SM HZ CLR 12/00 A2960 RMK AO2
     T01200000=
KPRS 220215Z AUTO 35006KT 10SM CLR 21/12 A2997 RMK AO2
     T02100118=
KPTD 220215Z AUTO 17011G19KT 10SM SCT033 BKN043 OVC050 13/M02
     A2998 RMK AO2=
KPUJ 220215Z AUTO 19003KT 7SM CLR 11/02 A3013 RMK AO2=
KPVB 220215Z AUTO 14005KT 10SM CLR 16/01 A2967 RMK AO1
     T01590014=
KPVJ 220215Z AUTO 16004KT 10SM CLR 22/06 A2975 RMK AO2
     T02220063=
KPYX 220215Z AUTO 21007KT 10SM CLR 15/M07 A2965 RMK AO2
     T01491066=
KPZZ 220215Z AUTO 14011G17KT 10SM CLR 23/13 A3008 RMK A01=
KRKR 220215Z AUTO 20004KT 10SM CLR 18/05 A2983 RMK AO2=
KRMY 220215Z AUTO 19006G15KT 10SM CLR 17/03 A2981 RMK AO2
     T01650030=
KRNC 220215Z AUTO 00000KT 10SM FEW044 09/04 A3005 RMK A01=
KRNH 220215Z AUTO 14003KT 10SM CLR 07/05 A2964 RMK AO2
     T00650050=
KRRT 220215Z AUTO 25007KT 10SM BKN070 BKN080 12/03 A2954 RMK
     AO2=
KRSN 220215Z AUTO 19007KT 10SM CLR 21/12 A2999 RMK AO2
     T02070124=
KRTS 220215Z AUTO 24013KT 10SM FEW120 18/M06 A2990 RMK AO2=
KRUQ 220215Z AUTO 00000KT 10SM CLR 05/03 A3016 RMK AO2
     T00520031=
KRZL 220215Z AUTO 17011G15KT 10SM CLR 16/02 A2983 RMK AO2=
KRZN 220215Z AUTO 00000KT 10SM CLR 06/02 A2963 RMK AO2
     T00580017=
KRZR 220210Z AUTO 00000KT 10SM CLR 06/04 A3009 RMK A01=
KS33 220215Z AUTO 07005KT 10SM DZ BKN060 OVC075 09/08 A2964 RMK
     AO2 P0001=
KSAR 220215Z AUTO 17007KT 10SM CLR 19/08 A2987 RMK AO2
     T01860082=
KSCD 220215Z AUTO 00000KT 10SM CLR 09/07 A3011 RMK AO2
     T00920067=
KSCX 220215Z AUTO 18004KT 10SM FEW046 09/00 A3008 RMK A01=
KFKN 220215Z AUTO 00000KT 10SM CLR 07/06 A3019 RMK AO2
     T00670062=
KFLY 220215Z AUTO 31010G17KT 10SM CLR 13/M12 A2985 RMK AO2
     T01291120=
KFOT 220210Z AUTO 00000KT 10SM OVC022 14/08 A2991 RMK AO1=
KFTN 220215Z AUTO 14007KT 10SM CLR 21/11 A2995 RMK A01=
KFWS 220215Z AUTO 16013G18KT 7SM CLR 25/08 A2985 RMK AO2
     T02490076=
KFYE 220215Z AUTO 16006KT 10SM FEW055 19/11 A2993 RMK A01=
KFYM 220220Z AUTO 17007KT 10SM FEW030 SCT036 14/04 A3007 RMK
     A01=
KGAO 220215Z AUTO 00000KT 10SM CLR 13/11 A3010 RMK AO2
     T01250105=
KGCY 220215Z AUTO 00000KT 10SM CLR 09/01 A3010 RMK A01=
KGDJ 220215Z AUTO 17013G17KT 10SM CLR 25/08 A2984 RMK AO2
     T02540077=
KGGI 220215Z AUTO 11003KT 10SM CLR 15/03 A2965 RMK AO2
     T01450025=
KGHB 220215Z AUTO VRB05G10KT 9SM BKN044 24/14 A3008 RMK A01=
KGKT 220215Z AUTO 00000KT 10SM CLR 07/03 A3011 RMK A01=
KGLX 220215Z AUTO 08008G14KT 10SM CLR 22/13 A3011 RMK A01=
KGOO 220215Z AUTO 14004KT 10SM CLR 19/04 A2987 RMK A01=
KGPM 220215Z AUTO 17010G16KT 10SM CLR 26/08 A2985 RMK AO2
     T02570077=
KGRY 220215Z AUTO 11008KT 10SM FEW034 BKN041 BKN048 22/14 A3010
     RMK A01=
KGYB 220215Z AUTO 18008KT 10SM CLR 23/15 A2997 RMK AO2
     T02260145=
KGYI 220215Z AUTO 17015KT 10SM CLR 25/07 A2982 RMK AO2 T02480070
     TSNO=
KGZS 220215Z AUTO 00000KT 10SM SCT040 BKN048 BKN055 11/09 A3003
     RMK A01=
KH71 220210Z AUTO 16010G18KT 10SM CLR 25/06 A2974 RMK AO2=
KHCD 220215Z AUTO 00000KT 10SM CLR 08/00 A2964 RMK AO2
     T00791001=
