SAUS70 KWBC 220120 RRB
METAR
KIDI 220115Z AUTO 00000KT 10SM OVC050 07/02 A3010 RMK A01=
KMDS 220115Z AUTO 16004KT 10SM CLR 12/M01 A2959 RMK AO2=
KN38 220115Z AUTO 19007KT 10SM CLR 08/M02 A3007 RMK AO2=
KOCQ 220115Z AUTO 00000KT 10SM CLR 08/04 A2962 RMK AO1
     T00750043=
KRYV 220115Z AUTO 00000KT 10SM CLR 10/03 A2966 RMK AO2
     T00990030=
KRZL 220115Z AUTO 17007KT 10SM CLR 16/02 A2983 RMK AO2=
KS25 220115Z AUTO 35006KT 10SM BKN060 OVC070 07/07 A2956 RMK
     AO2=
KSPF 220115Z AUTO 21006KT 10SM CLR 10/M04 A2953 RMK AO2=
KY19 220115Z AUTO 08007KT 10SM BKN095 BKN120 11/02 A2951 RMK
     AO2=
KY70 220115Z AUTO 19009KT 10SM CLR 16/03 A2973 RMK AO2
     T01640033=
K18A 220115Z AUTO 11004KT 10SM CLR 10/00 A3013 RMK AO2
     T00961000=
K1H2 220115Z AUTO 12005KT 10SM CLR 16/03 A2988 RMK AO2
     T01620031=
K4A9 220115Z AUTO 00000KT 10SM CLR 08/05 A3009 RMK AO2
     T00830048=
K57C 220115Z AUTO 20006KT 10SM CLR 19/04 A2967 RMK AO2
     T01890042=
K9A5 220115Z AUTO 00000KT 10SM CLR 08/05 A3011 RMK AO2
     T00750052=
KAHQ 220115Z AUTO 00000KT 7SM CLR 12/M01 A2958 RMK AO2
     T01151009=
KAUH 220115Z AUTO 00000KT 10SM CLR 14/M01 A2960 RMK AO2
     T01401014=
KBCK 220115Z AUTO 00000KT 10SM CLR 05/02 A2964 RMK AO2
     T00450018=
KBGE 220115Z AUTO 00000KT 10SM CLR 12/03 A3012 RMK AO2
     T01190035=
KBIE 220115Z AUTO 00000KT 10SM CLR 14/02 A2960 RMK AO2
     T01430016=
KBPG 220115Z AUTO 18009KT 10SM CLR 22/06 A2985 RMK AO2
     T02210062=
KBQP 220115Z AUTO 00000KT 10SM CLR 21/12 A2995 RMK AO2
     T02100117=
KBVN 220115Z AUTO 00000KT 7SM CLR 10/M01 A2960 RMK AO2
     T01041014=
KC07 220115Z AUTO 26006KT 10SM CLR 04/M08 A3007 RMK AO2=
KC35 220115Z AUTO 00000KT 10SM CLR 11/04 A2965 RMK AO2 T01120035
     PWINO=
KCBK 220115Z AUTO 12005KT 10SM CLR 17/M07 A2967 RMK AO2
     T01661066=
KCFD 220115Z AUTO 17007KT 10SM CLR 25/12 A2995 RMK AO2
     T02450115=
KCQF 220115Z AUTO 00000KT 10SM CLR 12/09 A3011 RMK AO2=
KDCM 220115Z AUTO 00000KT 10SM CLR 08/00 A3015 RMK AO2 LTG DSNT
     SE=
KDUC 220115Z AUTO 16010KT 10SM CLR 22/04 A2975 RMK AO2
     T02210039=
KDZJ 220115Z AUTO 08003KT 10SM CLR 10/00 A3015 RMK AO2
     T00960005=
KE42 220115Z AUTO 20009KT 10SM CLR 19/M04 A2968 RMK AO2
     T01871040=
KEBA 220115Z AUTO 00000KT 10SM CLR 09/01 A3013 RMK AO2
     T00890015=
KEBG 220115Z AUTO 14009KT 10SM CLR 24/17 A2997 RMK AO2 T02360168
     PWINO=
KEGV 220115Z AUTO 00000KT 10SM CLR 04/01 A2963 RMK AO2
     T00440013=
KELA 220115Z AUTO 18007KT 10SM CLR 22/15 A2998 RMK AO2
     T02210145=
KEMM 220115Z AUTO 10SM CLR 11/M12 A2986 RMK AO2=
KETC 220115Z AUTO 00000KT 10SM BKN055 07/06 A3016 RMK AO2
     T00700062=
KEZZ 220115Z AUTO 17008KT 10SM CLR 22/04 A2965 RMK AO2
     T02160035=
KF00 220115Z AUTO 16008KT 10SM CLR 23/08 A2983 RMK AO2
     T02310084=
KFET 220115Z AUTO 00000KT 10SM CLR 14/01 A2959 RMK AO2
     T01350014=
KFHB 220115Z AUTO 02004KT 10SM CLR 15/05 A3011 RMK AO2 LTG DSNT
     E=
K1V6 220115Z AUTO 27007KT 10SM CLR 18/M11 A2976 RMK AO2=
K3N8 220115Z AUTO 18004KT 10SM OVC100 09/00 A2956 RMK AO2
     T00900000=
K3S8 220115Z AUTO VRB04KT 10SM FEW070 OVC100 19/11 A2985 RMK
     AO2=
K5T9 220110Z AUTO 13005KT 10SM CLR 21/12 A2990 RMK A01=
KATA 220115Z AUTO 00000KT 10SM CLR 16/13 A2988 RMK AO2 SLP016
     T01600126 $=
KATS 220115Z AUTO 24007KT 10SM CLR 22/09 A2990 RMK AO2=
KBPC 220115Z AUTO 21009KT 10SM CLR 19/M04 A2967 RMK AO2 PNO=
KDSF 220110Z AUTO 05009KT 10SM CLR 22/13 A3010 RMK A01=
KDTA 220115Z AUTO 17011KT 10SM CLR 16/M10 A2982 RMK AO1=
KEIK 220115Z AUTO 25011G21KT 10SM CLR 21/M11 A2972 RMK AO2
     T02121115 PWINO=
