SAUS70 KWBC 220018 RRC
METAR
K82C 220015Z AUTO 00000KT 10SM CLR 11/04 A2963 RMK AO2
     T01050039=
K96D 220015Z AUTO 24007KT 10SM FEW055 OVC065 12/02 A2952 RMK
     AO2=
K9D7 220015Z AUTO 31008KT 9SM BKN038 BKN045 OVC070 10/03 A2956 RMK
     AO2 TSNO=
KACJ 220015Z AUTO 00000KT 10SM CLR 12/04 A3010 RMK AO2
     T01160038=
KAEL 220015Z AUTO 00000KT 10SM CLR 12/04 A2964 RMK AO2=
KAGO 220015Z AUTO 00000KT 10SM CLR 19/13 A2987 RMK A01=
KAIG 220015Z AUTO 24005KT 10SM CLR 09/03 A2963 RMK AO2
     T00940030=
KAIK 220015Z AUTO 00000KT 7SM HZ CLR 11/03 A3012 RMK AO2
     T01080026=
KALM 220015Z AUTO 13006KT 10SM CLR 21/06 A2995 RMK AO2=
KANQ 220015Z AUTO 18008KT 10SM FEW027 SCT048 BKN060 17/03 A2982
     RMK AO2=
KAQX 220015Z AUTO 00000KT 10SM CLR 12/03 A3011 RMK AO2=
KARW 220015Z AUTO 00000KT 10SM CLR 12/07 A3011 RMK AO2=
KASJ 220015Z AUTO 00000KT 10SM CLR 08/06 A3015 RMK AO2
     T00830061=
KATS 220015Z AUTO 00000KT 10SM CLR 25/10 A2988 RMK AO2=
KAVC 220015Z AUTO 00000KT 10SM CLR 08/07 A3020 RMK AO2
     T00820073=
KBAC 220015Z AUTO 18004KT 10SM CLR 12/01 A2955 RMK AO2=
KBBB 220015Z AUTO 00000KT 5SM HZ CLR 10/01 A2961 RMK AO2=
KBCB 220015Z AUTO 10003KT 10SM CLR 07/00 A3016 RMK AO2
     T00700002=
KBKS 220015Z AUTO 13009KT 9SM CLR 24/16 A2993 RMK AO2 SLP096
     T02420164 $=
KBKT 220015Z AUTO 00000KT 10SM CLR 11/03 A3014 RMK AO1
     T01100031=
KSIK 220015Z AUTO 17004KT 10SM CLR 21/09 A2988 RMK AO2=
KSLH 220015Z AUTO 25003KT 10SM CLR 13/06 A2961 RMK AO2=
KSPF 220015Z AUTO 25003KT 10SM CLR 13/M04 A2952 RMK AO2=
KSTF 220015Z AUTO 15005KT 10SM CLR 19/11 A2998 RMK AO2=
KSUZ 220015Z AUTO 18004KT 10SM CLR 21/10 A2987 RMK A01=
KSYM 220015Z AUTO 19003KT 10SM CLR 15/M01 A3003 RMK AO2=
KT69 220015Z AUTO 17008G14KT 10SM CLR 23/16 A2996 RMK A01=
KTKX 220015Z AUTO 18006KT 7SM SCT046 19/10 A2987 RMK AO2 TSNO=
KTME 220015Z AUTO 19012KT 10SM CLR 24/15 A2997 RMK AO2=
KTSP 220015Z AUTO 31011G17KT 9SM CLR 23/M04 A2996 RMK AO2=
KTTF 220015Z AUTO 19007KT 10SM CLR 16/03 A2983 RMK AO2
     T01550025=
KTWT 220015Z AUTO 15003KT 10SM CLR 17/05 A2990 RMK AO2=
KU42 220015Z AUTO 21005KT 10SM CLR 21/01 A2981 RMK AO1
     T02090010=
KUOX 220015Z AUTO 15006KT 10SM CLR 20/10 A2997 RMK AO2 PWINO=
KUTA 220015Z AUTO 17007KT 10SM CLR 21/09 A2990 RMK AO2 T02090091
     $=
KVGC 220015Z AUTO 16006KT 10SM CLR 10/M03 A3007 RMK AO2=
KVJI 220015Z AUTO 00000KT 10SM CLR 09/00 A3010 RMK AO2
     T00851002=
KVLL 220015Z AUTO 17004KT 10SM CLR 14/02 A2983 RMK AO2
     T01430024=
KW78 220015Z AUTO 00000KT 10SM CLR 07/04 A3014 RMK AO1
     T00740035=
KW81 220015Z AUTO 00000KT 10SM CLR 07/03 A3014 RMK AO1
     T00720029=
KX07 220015Z AUTO 35005KT 10SM SCT046 SCT050 19/09 A3004 RMK
     A01=
KXNX 220015Z AUTO 16005KT 10SM FEW050 17/02 A3002 RMK A01=
KY19 220015Z AUTO 07006KT 10SM CLR 11/02 A2952 RMK AO2=
KFFX 220015Z AUTO 21006KT 10SM CLR 17/04 A2969 RMK AO2
     T01730040=
KFKA 220015Z AUTO 00000KT 7SM CLR 16/02 A2964 RMK AO2
     T01600017=
KFKS 220015Z AUTO 22010G16KT 10SM CLR 16/06 A2962 RMK AO2
     T01610055=
KFPK 220015Z AUTO 19007KT 10SM CLR 15/04 A2976 RMK AO2
     T01460041=
KFSO 220015Z AUTO 17009G14KT 140V200 10SM CLR 13/M03 A3003 RMK AO2
     T01271032=
KFVX 220015Z AUTO 00000KT 10SM CLR 08/02 A3013 RMK AO2
     T00830017=
KFWB 220015Z AUTO VRB05G13KT 10SM CLR 23/03 A2981 RMK AO2=
KGLY 220015Z AUTO 17005KT 10SM CLR 22/03 A2970 RMK AO2=
KGWR 220015Z AUTO 16007KT 4SM HZ BKN024 12/01 A2954 RMK A01=
KHAI 220015Z AUTO 19008G14KT 10SM CLR 18/03 A2979 RMK AO2
     T01750032=
KHOB 220015Z AUTO 21006KT 10SM CLR 22/07 A2988 RMK AO2=
