SAUS70 KWBC 220200 RRX
METAR
KSEE 220159Z 22006KT 10SM BKN021 19/16 A2988=
KGZN 220200Z AUTO 18008KT 10SM CLR 20/02 A2982 RMK AO2=
