SAUS70 KWBC 220000 RRJ
METAR
PAIL 212353Z 27009KT 10SM SCT013 BKN023 BKN031 04/02 A2996 RMK AO2
     SLP147 T00390022 10044 21011 50004=
PAKT 212353Z 29008KT 10SM FEW030 BKN050 09/03 A2973 RMK AO2 SLP070
     HARBOR WND 30014KT T00940033 10111 20089 55003=
PAKV 212353Z AUTO VRB03KT 10SM BKN009 OVC014 02/01 A2980 RMK AO2
     SLP096 T00170011 10017 20000 51010 TSNO=
PAMR 212353Z 30004KT 10SM CLR 04/01 A2984 RMK AO2 SLP108 T00440011
     10050 20006 51015=
PAPB 212353Z AUTO 20008KT 8SM FEW037 BKN055 06/ A2998 RMK AO2
     RAB2254E35 SLP140 P0000 60000 T0061 10078 20050 58008 TSNO
     $=
PASC 212353Z 09017KT 9SM BLSN BKN011 BKN033 M03/M04 A2985 RMK AO2
     SLP109 60000 T10281044 11028 21033 53007=
K10G 212355Z AUTO 18005KT 10SM CLR 15/M02 A2999 RMK AO2=
K1P1 212355Z AUTO 00000KT 10SM CLR 03/01 A3012 RMK AO2 T00280009
     10150 20028=
K20U 212355Z AUTO 00000KT 10SM OVC075 10/03 A2954 RMK AO2=
K24A 212355Z AUTO 12007KT 10SM CLR 12/M01 A3013 RMK AO2 T01171012
     10187 20115 401871011=
K27K 212355Z AUTO 17003KT 10SM CLR 13/00 A3000 RMK AO1=
K2P2 212355Z AUTO 00000KT 10SM CLR 10/10 A2957 RMK AO2 T00990099
     10122 20098=
K35A 212355Z AUTO 00000KT 10SM CLR 11/01 A3016 RMK A02 T01110013
     10203 20109 402031020=
K4S2 212355Z AUTO 32003KT 7SM -RA SCT012 BKN019 OVC070 08/07 A2973
     RMK AO2 P0002=
K6L4 212355Z AUTO 00000KT 10SM VCTS CLR 15/M00 A3006 RMK AO2 LTG
     DSNT N=
K6S2 212355Z AUTO 20012G20KT 2SM UP BR OVC005 12/12 A2980 RMK AO2
     P0003=
KAAO 212354Z AUTO 15006KT 10SM CLR 25/02 A2963 RMK AO2 SLP024
     T02500017 10311 20250 57009=
KACV 212353Z AUTO 00000KT 10SM OVC024 14/10 A2994 RMK AO2 SLP145
     T01390100 10156 20117 55003=
KADG 212353Z AUTO 22010KT 10SM CLR 16/03 A2983 RMK AO2 SLP106
     T01610028 10217 20161 53009=
KAGC 212353Z AUTO 19007KT 10SM CLR 13/M01 A3003 RMK AO2 SLP176
     T01331011 10172 20133 53008=
KAGS 212353Z 00000KT 10SM CLR 10/04 A3010 RMK AO2 SLP194 T01000039
     10211 20089 53007=
KALW 212353Z 18014KT 7SM -RA HZ OVC055 08/06 A2971 RMK AO2 SLP063
     P0006 60018 T00830061 10139 20078 58021=
KANB 212353Z AUTO 00000KT 10SM CLR 12/06 A3008 RMK AO2 SLP193
     T01220061 10233 20122 53007=
KAPF 212353Z AUTO 01003KT 10SM BKN050 23/16 A2998 RMK AO2 SLP151
     T02280156 10261 20228 53006 PWINO $=
KARB 212353Z 19007KT 10SM CLR 16/03 A2980 RMK AO2 SLP095 T01610028
     10206 20161 53005=
KAWM 212353Z AUTO 17004KT 10SM CLR 19/09 A2988 RMK AO2 SLP118
     T01890094 10272 20189 55001=
KBCE 212353Z AUTO 25014G20KT 10SM CLR 15/M04 A3004 RMK AO2 SLP102
     T01501044 10178 20144 56013=
KBFI 212353Z 18005KT 10SM -RA FU BKN019 OVC026 09/07 A2973 RMK AO2
     SLP068 P0003 60005 T00890072 10111 20089 56028=
KBGM 212353Z AUTO 21006KT 10SM CLR 09/M04 A3007 RMK AO2 SLP192
     T00941039 10133 20094 53016=
KBHM 212353Z 14004KT 10SM CLR 18/06 A3008 RMK AO2 SLP184 T01780061
     10228 20178 53004=
KBKE 212353Z AUTO 06006KT 10SM -RA BKN065 OVC085 09/06 A2969 RMK
     AO2 SLP059 P0000 60000 T00940061 10150 20094 58026=
KBKL 212353Z 16014KT 10SM CLR 17/02 A2991 RMK AO2 SLP130 T01720017
     10206 20172 53015=
KBKV 212353Z 29009KT 10SM CLR 17/09 A3006 RMK AO2 SLP178 T01720089
     10250 20172 53011=
KLPR 212353Z AUTO 18011KT 10SM CLR 16/02 A2993 RMK AO2 SLP135
     T01560022 10206 20156 53016=
KLVK 212353Z 30011KT 10SM CLR 20/11 A2982 RMK AO2 SLP095 T02000106
     10267 20172 56002=
KLVM 212353Z AUTO 29015G20KT 10SM OVC095 16/00 A2948 RMK AO2
     SLP954 T01610000 10217 20161 56012=
KLXT 212353Z AUTO 17009KT 10SM CLR 25/03 A2966 RMK AO2 SLP037
     T02500033 10294 20250 55002=
