SAUS70 KWBC 220018 RRL
METAR
KCFJ 220015Z AUTO 16007KT 10SM CLR 15/M01 A2986 RMK AO2
     T01501015=
KCKC 220015Z AUTO 00000KT 10SM CLR 08/02 A2956 RMK AO2=
KCNB 220015Z AUTO 12003KT 7SM CLR 11/00 A2961 RMK AO2
     T01140000=
KCVX 220015Z AUTO 20005KT 10SM CLR 15/06 A2962 RMK AO2
     T01500057=
KD57 220015Z AUTO 04008KT 10SM FEW095 10/M02 A2949 RMK AO2=
KD60 220015Z AUTO VRB04KT 10SM BKN008 OVC047 05/05 A2957 RMK
     AO2=
KDTL 220015Z AUTO 13004KT 10SM FEW060 BKN110 11/00 A2957 RMK
     AO2=
KDUH 220015Z AUTO 19006KT 10SM CLR 18/00 A2985 RMK AO2
     T01810000=
KEFK 220015Z AUTO 11007KT 10SM CLR 09/M01 A3006 RMK AO2
     T00851015=
KEKM 220015Z AUTO 19007KT 7SM CLR 18/03 A2980 RMK AO2
     T01830033=
KONZ 220015Z AUTO 19008KT 10SM OVC100 11/07 A2982 RMK AO2
     T01140067=
KRNP 220015Z AUTO 18007KT 10SM CLR 17/03 A2975 RMK AO2
     T01710026=
KRUG 220015Z AUTO 27005KT 10SM BKN044 BKN055 OVC065 09/04 A2954
     RMK AO2=
KTME 220015Z AUTO 19012KT 10SM CLR 24/15 A2997 RMK AO2=
KBTN 220015Z AUTO 15006KT 5SM HZ BKN024 BKN042 12/M01 A2954 RMK
     AO2=
KOAR 220015Z AUTO 29008KT 10SM OVC011 05/00 A2990 RMK AO2
     PWINO=
