SAUS70 KWBC 220200
METAR
KCNW 220155Z 16007KT 10SM SKC 23/08 A2988=
KRYN 220145Z 21004KT 10SM CLR 26/10 A2988=
KFMH 220145Z 00000KT 10SM CLR 07/06 A3020=
KANE 220145Z VRB04KT 10SM SCT250 09/03 A2961=
KBAK 220145Z 19008KT 10SM CLR 14/M01 A2993 RMK LAST=
KDLL 220155Z AUTO 00000KT 10SM CLR 09/03 A2965 RMK AO2
     T00940025=
KFMH 220145Z 00000KT 10SM CLR 07/06 A3020=
KGAF 220155Z AUTO 23004KT 7SM SCT080 11/01 A2955 RMK AO2=
KMTN 220154Z 00000KT 10SM CLR 07/06 A3018 RMK LAST=
KSWF 220145Z 00000KT 10SM SKC 08/01 A3015=
KFMH 220145Z 00000KT 10SM CLR 07/06 A3020=
KBCT 220153Z 35010G17KT 10SM VCTS FEW026 22/16 A3000 RMK LTG DSNT
     NE AND SE.=
KEVB 220147Z 36004KT 10SM FEW042 17/11 A3007 RMK LAST=
KCWA 220147Z 26004KT 10SM CLR 12/03 A2967=
KOUN 220147Z 14009KT 10SM CLR 24/04 A2971=
KWDG 220145Z 16012KT 10 SM SCT200 22/02 A2965 RMK LAST=
PAKU 220146Z 10018KT 8SM R06/P6000FT OVC011 M03/M04 A2987=
PAKU 220146Z 10018KT 8SM R06/P6000FT OVC011 M03/M04 A2987=
K1S5 220155Z AUTO 06004KT 10SM OVC120 09/08 A2964 RMK AO2 P0001
     T00860076=
KCHD 220147Z 28005KT 10SM CLR 28/09 A2981=
KCPF 220155Z AUTO 00000KT 10SM CLR 12/01 A3007 RMK AO2=
KEMV 220155Z AUTO 00000KT 10SM CLR 05/03 A3019 RMK AO2
     T00450031=
KFFA 220155Z AUTO 03004KT 10SM CLR 16/10 A3015 RMK AO2
     T01620103=
KGYY 220145Z 18008G14KT 10SM CLR 19/03 A2977=
KMCJ 220155Z AUTO 17012G19KT 10SM CLR 22/15 A2999 RMK A01=
KSUW 220155Z AUTO 22003KT 10SM CLR 05/02 A2961 RMK AO2
     T00530019=
