SACA33 KWBC 220100 RRC
METAR
TFFF 220130Z AUTO 07003KT CAVOK 27/24 Q1012=
TFFR 220130Z AUTO 00000KT CAVOK 24/23 Q1012=
