SAUS70 KWBC 220200 RRA
METAR
KLDM 220155Z AUTO 22016G22KT 10SM CLR 18/05 A2966 RMK AO2
     T01780051=
KLJF 220155Z AUTO 00000KT 10SM CLR 08/01 A2961 RMK AO2=
KLNK 220154Z 00000KT 6SM HZ CLR 10/00 A2960 RMK AO2 SLP022
     T01000000=
KLVS 220153Z AUTO 18005KT 10SM CLR 12/M03 A2997 RMK AO2 SLP071
     T01221033=
KLWM 220154Z 24003KT 10SM CLR 09/06 A3018 RMK AO2 SLP221
     T00890056=
KMEM 220154Z 17008KT 10SM CLR 21/11 A2992 RMK AO2 SLP129
     T02060106=
K14Y 220155Z AUTO 15003KT 7SM CLR 07/00 A2960 RMK AO2=
K21D 220155Z AUTO 00000KT 10SM CLR 07/01 A2964 RMK AO2=
K4I3 220155Z AUTO 16005KT 10SM CLR 11/01 A3000 RMK AO2=
KACQ 220155Z AUTO 13004KT 10SM CLR 07/01 A2965 RMK AO2=
KAIT 220155Z AUTO 00000KT 10SM CLR 05/02 A2959 RMK AO2=
KALO 220154Z AUTO 00000KT 8SM CLR 09/01 A2963 RMK AO2 SLP034
     T00890006=
KAMN 220155Z AUTO 17006KT 10SM CLR 14/04 A2974 RMK AO2
     T01420036=
KAUW 220154Z AUTO 00000KT 8SM CLR 09/03 A2964 RMK AO2 SLP046
     T00940033 $=
KAXV 220155Z AUTO 19012G17KT 10SM CLR 15/00 A2993 RMK AO2=
KBOS 220154Z 19008KT 10SM CLR 12/07 A3018 RMK AO2 SLP219
     T01220072=
KBUY 220154Z AUTO 00000KT 10SM CLR 07/03 A3015 RMK AO2 SLP211
     T00720033=
KBWI 220154Z 00000KT 10SM CLR 08/03 A3016 RMK AO2 SLP212 T00830028
     $=
KCBG 220155Z AUTO 00000KT 10SM CLR 09/00 A2961 RMK AO2=
KCOQ 220155Z AUTO 00000KT 10SM CLR 07/00 A2960 RMK AO2 TSNO=
KCVH 220155Z AUTO 27005KT 10SM CLR 13/11 A2987 RMK A01=
KD95 220155Z AUTO 20012G18KT 10SM CLR 17/M02 A2980 RMK AO2
     T01741019=
KDEC 220154Z 18011KT 10SM CLR 17/05 A2981 RMK AO2 SLP093
     T01670050=
KDLZ 220155Z AUTO 19008KT 10SM CLR 13/00 A2998 RMK AO2=
KDRM 220155Z AUTO 00000KT 10SM CLR 06/06 A2965 RMK AO2
     T00640058=
KDXR 220153Z 00000KT 10SM CLR 08/03 A3018 RMK AO2 SLP219
     T00780028=
KDXX 220155Z AUTO 15007KT 7SM CLR 09/00 A2960 RMK AO2=
KDYL 220154Z AUTO 20004KT 10SM CLR 08/02 A3016 RMK AO2 SLP216
     T00780022=
KDYT 220155Z AUTO 20005KT A2959 RMK AO2 PWINO=
KECG 220154Z 01004KT 10SM BKN060 13/10 A3018 RMK AO2 SLP218
     T01330100=
KELO 220155Z AUTO 00000KT 10SM CLR 08/00 A2959 RMK AO2=
KEVV 220154Z 15004KT 10SM CLR 17/03 A2992 RMK AO2 SLP131
     T01670028=
KFBL 220155Z AUTO 14003KT 10SM CLR 08/03 A2963 RMK AO2=
KFFM 220155Z AUTO 16004KT 10SM CLR 11/01 A2956 RMK AO2=
KABR 220153Z AUTO 16008KT 10SM CLR 06/M01 A2954 RMK AO2 SLP009
     T00611006=
KAIA 220153Z AUTO 22009KT 10SM CLR 11/M07 A2958 RMK AO2 SLP011
     T01061072=
KASX 220153Z AUTO 21004KT 10SM CLR 04/02 A2961 RMK AO2 SLP032
     T00390022=
KAZO 220153Z 19011KT 10SM CLR 17/04 A2979 RMK AO2 SLP089
     T01670039=
KBFD 220153Z AUTO 15005KT 10SM CLR 08/M01 A3005 RMK AO2 SLP182
     T00781011=
KFCM 220153Z 00000KT 10SM CLR 13/02 A2962 RMK AO2 SLP031
     T01330017=
KFLD 220153Z AUTO 18007KT 10SM CLR 09/03 A2965 RMK AO2 SLP043
     T00940028=
KFVE 220153Z AUTO 18008KT 10SM CLR 07/M01 A3004 RMK AO2 SLP175
     T00671006=
KGEZ 220153Z AUTO 16006KT 10SM CLR 15/01 A2992 RMK AO2 SLP132
     T01500011=
KGFK 220153Z 24004KT 6SM HZ FU OVC085 12/00 A2954 RMK AO2 SLP008
     T01220000=
KGLR 220153Z AUTO 21007KT 10SM CLR 14/04 A2966 RMK AO2 SLP047
     T01390039=
KGRB 220153Z 33003KT 10SM CLR 11/04 A2965 RMK AO2 SLP043
     T01060044=
KGRI 220153Z AUTO 17004KT 9SM CLR 13/M01 A2960 RMK AO2 SLP026
     T01331006 $=
KGSH 220153Z AUTO 20013G23KT 10SM CLR 17/03 A2983 RMK AO2 SLP100
     T01670033=
KSAZ 220155Z AUTO 00000KT 10SM CLR 10/02 A2958 RMK AO2=
KSBY 220154Z 11003KT 10SM CLR 08/06 A3019 RMK AO2 SLP224
     T00780056=
KSET 220154Z AUTO 18013KT 10SM CLR 21/06 A2978 RMK AO2 SLP082
     T02110056 $=
