SAUS70 KWBC 220020 RRA
METAR
KAIO 220015Z AUTO 01005KT 7SM CLR 12/01 A2959 RMK AO2=
KAJG 220015Z AUTO 18006KT 10SM CLR 17/01 A2988 RMK AO2
     T01710013=
KAJR 220015Z AUTO 00000KT 10SM CLR 11/02 A3012 RMK AO2
     T01110021=
KASL 220015Z AUTO 00000KT 10SM CLR 23/11 A2987 RMK AO2 T02310113
     TSNO $=
KASW 220015Z AUTO 19005KT 10SM CLR 17/02 A2982 RMK AO2
     T01800029=
KAUH 220015Z AUTO 00000KT 7SM CLR 15/M01 A2960 RMK AO2
     T01511013=
KAWG 220015Z AUTO 18006KT 10SM CLR 21/03 A2963 RMK AO2=
KAXA 220015Z AUTO 10004KT 8SM CLR 17/03 A2962 RMK A01=
KAZE 220015Z AUTO 00000KT 10SM CLR 12/06 A3010 RMK AO2
     T01190061=
KBBD 220015Z AUTO 20011KT 10SM CLR 26/03 A2988 RMK AO2=
KBDG 220015Z AUTO 18005G16KT 10SM 18/M03 A3003 RMK AO1
     T01771034=
KBEC 220015Z AUTO 15008KT 10SM CLR 24/01 A2963 RMK AO2
     T02420009=
KBGE 220015Z AUTO 00000KT 10SM CLR 15/03 A3011 RMK AO2
     T01470026=
KBIE 220015Z AUTO 00000KT 10SM CLR 18/01 A2958 RMK AO2
     T01790008=
KBPG 220015Z AUTO 19008KT 10SM CLR 24/05 A2985 RMK AO2
     T02430051=
KBQP 220015Z AUTO 00000KT 10SM CLR 23/12 A2993 RMK AO2
     T02250119=
KBVN 220015Z AUTO 00000KT 10SM CLR 16/M01 A2960 RMK AO2
     T01641015=
KC07 220015Z AUTO 28006KT 240V320 10SM CLR 05/M08 A3007 RMK
     AO2=
KC35 220015Z AUTO 00000KT 10SM CLR 15/04 A2964 RMK AO2 T01450035
     PWINO=
KC75 220015Z AUTO 19009G15KT 10SM CLR 21/07 A2969 RMK AO2
     T02140069=
KCAV 220015Z AUTO 06005KT 2SM HZ 13/02 A2962 RMK A01=
KCFD 220015Z AUTO 17005KT 10SM CLR 26/10 A2992 RMK AO2
     T02570100=
KLUD 220015Z AUTO 18007KT 10SM CLR 28/02 A2978 RMK AO2
     T02830015=
KLUL 220015Z AUTO 17007KT 10SM CLR 22/11 A3004 RMK A02
     T02160109=
KMDD 220015Z AUTO 21006KT 10SM CLR 26/05 A2986 RMK AO2
     T02570052=
KMGR 220015Z AUTO 00000KT 10SM CLR 13/03 A3011 RMK AO2=
KMKS 220015Z AUTO 00000KT 10SM CLR 10/06 A3012 RMK AO2=
KMNH 220015Z AUTO 27004KT 10SM CLR 13/M14 A2985 RMK AO2=
KMPR 220015Z AUTO 14008KT 10SM CLR 23/00 A2960 RMK AO2
     T02271000=
KMWA 220015Z AUTO 18003KT 10SM CLR 17/07 A2988 RMK AO2
     T01740068=
KMWK 220015Z AUTO 00000KT 10SM CLR 09/03 A3015 RMK AO2
     T00900027=
KMWO 220015Z AUTO 23003KT 10SM CLR 13/01 A2996 RMK AO2
     T01280006=
KMZZ 220015Z AUTO 20011KT 7SM CLR 16/03 A2988 RMK AO2
     T01610025=
KN03 220015Z AUTO 22004KT 10SM CLR 08/M02 A3006 RMK AO2=
KOLE 220015Z AUTO 20008KT 10SM CLR 10/M02 A3001 RMK AO2=
KOLY 220015Z AUTO 16006KT 10SM CLR 17/01 A2987 RMK AO2
     T01730010=
KONX 220015Z AUTO 00000KT 10SM CLR 12/07 A3015 RMK AO2
     T01200072=
KOQN 220015Z AUTO 00000KT 10SM CLR 12/00 A3015 RMK AO2=
KPCD 220015Z AUTO 17005KT 10SM CLR 19/09 A2984 RMK AO2
     T01870089=
KPEZ 220015Z AUTO 15004KT 10SM CLR 26/11 A2992 RMK AO2
     T02550105=
KPMV 220015Z AUTO 00000KT 10SM CLR 20/M01 A2959 RMK AO2 T01991008
     PWINO=
KPPO 220015Z AUTO 19007KT 10SM SCT110 18/07 A2978 RMK AO2
     T01780066=
KPRG 220015Z AUTO 17007KT 10SM CLR 14/04 A2986 RMK AO2
     T01400035=
KPSO 220015Z AUTO 23009G15KT 10SM CLR 15/M05 A3005 RMK AO2
     T01471048=
KRAS 220015Z AUTO 15012G17KT 10SM CLR A2998 RMK AO2=
KRPJ 220015Z AUTO 17006KT 7SM CLR 15/07 A2969 RMK AO2 T01540065
     TSNO=
KRSV 220015Z AUTO 18003KT 10SM CLR 15/02 A2988 RMK AO2
     T01500015=
KRVJ 220015Z AUTO 00000KT 10SM CLR 10/03 A3011 RMK AO2
     T01000032=
KRWV 220015Z AUTO 18007KT 10SM CLR 25/10 A2991 RMK AO2
     T02490096=
KRYW 220015Z AUTO 19009KT 10SM CLR 25/08 A2992 RMK AO2
     T02510080=
KS33 220015Z AUTO 23010G14KT 10SM SCT043 BKN049 OVC060 15/07 A2968
     RMK AO2=
