SAUS70 KWBC 220200
METAR
KMCX 220155Z AUTO 18009G14KT 10SM CLR 18/01 A2984 RMK AO2
     T01780012=
KRID 220155Z AUTO 18007KT 10SM CLR 11/02 A2996 RMK AO2=
KFMH 220145Z 00000KT 10SM CLR 07/06 A3020=
