SAUS70 KWBC 212340 RRH
METAR
KOPL 212335Z AUTO 21007KT 10SM CLR 23/13 A3000 RMK AO2
     T02290132=
KOPN 212335Z AUTO 00000KT 10SM CLR 15/03 A3011 RMK AO2=
KOQN 212335Z AUTO 00000KT 10SM CLR 11/02 A3014 RMK AO2=
KOWP 212335Z AUTO 18005KT 10SM CLR 30/00 A2973 RMK AO2
     T03010002=
KOWX 212335Z AUTO 20009KT 10SM CLR 17/M01 A2989 RMK AO1=
KPBX 212335Z AUTO 15003KT 10SM CLR 16/00 A3006 RMK AO2
     T01600001=
KPEA 212335Z AUTO 00000KT 10SM CLR 21/03 A2961 RMK AO2
     T02100029=
KPIM 212335Z AUTO 00000KT 10SM CLR 12/04 A3010 RMK AO2
     T01210043=
KPLU 212335Z AUTO 00000KT 8SM -DZ FEW050 09/08 A2973 RMK AO2=
KPMU 212335Z AUTO 16004KT 10SM CLR 23/09 A2992 RMK AO2=
KPNA 212335Z AUTO 28012G17KT 10SM CLR 13/M07 A2982 RMK AO2=
KPNT 212335Z AUTO 19014KT 10SM CLR 20/07 A2974 RMK AO2
     T02010073=
KPOY 212335Z AUTO 27014G23KT 10SM SCT110 18/M06 A2953 RMK AO2=
KPPA 212335Z AUTO 24009KT 10SM CLR 26/00 A2972 RMK AO2
     T02630000=
KPPQ 212335Z AUTO 16007KT 10SM CLR 20/03 A2973 RMK AO2
     T02020034=
K0R4 212335Z AUTO 15006KT 10SM CLR 24/12 A2996 RMK AO2
     T02440115=
K49A 212335Z AUTO 00000KT 10SM CLR 12/02 A3012 RMK AO2
     T01210024=
K74V 212335Z AUTO 28012KT 10SM 22/M10 A2983 RMK AO2=
KAAA 212335Z AUTO 19008KT 10SM CLR 21/05 A2975 RMK AO2
     T02090051=
KADU 212335Z AUTO 00000KT 10SM SCT006 SCT075 15/M02 A2963 RMK AO2
     PWINO=
KAFK 212335Z AUTO 24004KT 10SM CLR 23/00 A2958 RMK AO2
     T02320000=
KAIO 212335Z AUTO 36003KT 2 1/2SM HZ CLR 17/01 A2958 RMK AO2=
KAJG 212335Z AUTO 18006KT 10SM CLR 18/02 A2987 RMK AO2
     T01820016=
KAJR 212335Z AUTO 14003KT 10SM CLR 14/00 A3010 RMK AO2
     T01401001=
KAPS 212336Z AUTO 17011KT 10SM CLR 20/14 A3004 RMK AO2=
KASW 212335Z AUTO 18004KT 10SM CLR 18/02 A2981 RMK AO2
     T01880028=
KAWG 212335Z AUTO 19006KT 10SM CLR 22/03 A2961 RMK AO2=
KAXA 212335Z AUTO 09004KT 8SM CLR 18/03 A2961 RMK A01=
KAZE 212335Z AUTO 00000KT 10SM CLR 14/05 A3009 RMK AO2
     T01360053=
KBBD 212335Z AUTO 18011G17KT 10SM CLR 28/02 A2987 RMK AO2=
KBBP 212335Z AUTO 00000KT 10SM CLR 09/04 A3012 RMK AO2=
KBDG 212335Z AUTO 19012G18KT 10SM 19/M03 A3004 RMK AO1
     T01891035=
KBEC 212335Z AUTO 15007KT 10SM CLR 26/01 A2963 RMK AO2
     T02590010=
KBHC 212335Z AUTO 00000KT 10SM CLR A3010 RMK AO2=
KBIJ 212335Z AUTO 00000KT 10SM CLR 13/06 A3009 RMK AO2=
KBJI 212335Z AUTO 00000KT 10SM CLR 12/01 A2957 RMK AO2
     T01150006=
KBUU 212335Z AUTO 20005KT 10SM CLR 18/04 A2966 RMK AO2 T01820042
     PWINO=
KC75 212335Z AUTO 19008G15KT 10SM CLR 22/07 A2968 RMK AO2
     T02190068=
KCAV 212335Z AUTO 02005KT 2 1/2SM HZ CLR 15/01 A2962 RMK A01=
KCBF 212335Z AUTO 00000KT 3SM HZ CLR 21/M05 A2957 RMK AO2=
KCCO 212335Z AUTO 00000KT 10SM CLR 14/03 A3010 RMK AO2
     T01370031=
KCIN 212335Z AUTO 00000KT 4SM HZ CLR 17/01 A2959 RMK AO2=
KCKF 212335Z AUTO 00000KT 10SM CLR 13/04 A3010 RMK AO2
     T01330035=
KCMD 212335Z AUTO 14005KT 10SM CLR 19/08 A3005 RMK AO2=
KCNC 212335Z AUTO 19007KT 4SM HZ CLR 22/03 A2960 RMK AO2=
KCNI 212335Z AUTO 00000KT 10SM CLR 15/00 A3010 RMK AO2
     T01510000=
KCOM 212335Z AUTO 21009G19KT 10SM CLR 30/01 A2984 RMK AO2
     T02960010=
KCQB 212335Z AUTO 18007KT 10SM CLR 28/03 A2972 RMK AO2
     T02800032=
KCWV 212335Z AUTO 00000KT 10SM CLR 12/07 A3010 RMK AO2
     T01180065=
KCZT 212335Z AUTO 18004KT 10SM CLR 26/10 A2990 RMK AO2=
KDKB 212335Z AUTO 19008KT 10SM CLR 15/06 A2969 RMK AO2
     T01500057=
KDKR 212335Z AUTO 16009KT 10SM CLR 26/09 A2989 RMK AO2=
KDNS 212335Z AUTO 00000KT 8SM 20/01 A2961 RMK AO2=
KDNV 212335Z AUTO 18008KT 10SM CLR 20/03 A2981 RMK AO2
     T02010025=
