SAUS70 KWBC 212324
METAR
KW75 212335Z AUTO 00000KT 10SM CLR 10/07 A3015 RMK AO1
     T01020066=
KW99 212320Z AUTO 00000KT 10SM CLR 11/03 A3008 RMK AO2=
KWWR 212310Z AUTO 20012G17KT 10SM CLR 30/00 A2967 RMK AO2=
K19S 212315Z AUTO 16007KT 10SM CLR 27/M05 A2965 RMK AO2
     T02701046=
K3I2 212310Z AUTO 00000KT 10SM CLR 13/01 A3003 RMK AO2
     T01300013=
KADH 212315Z AUTO 19009G14KT 10SM CLR 28/03 A2976 RMK AO2=
KANK 212310Z AUTO 24015G22KT 10SM CLR 18/M13 A3002 RMK AO1
     T01791128=
KBMC 212310Z AUTO 10SM CLR 22/M07 A2978 RMK AO1 T02201068=
KC99 212311Z AUTO 28013G20KT 10SM CLR 06/M13 A3006 RMK AO2=
KCHK 212310Z AUTO 18009KT 10SM CLR 29/03 A2968 RMK AO2
     T02910033=
KCPC 212315Z AUTO 00000KT 10SM CLR 13/06 A3012 RMK AO2
     T01270061=
KDUB 212314Z AUTO 28028G40KT 10SM CLR 13/M08 A2970 RMK AO2=
KDWX 212310Z AUTO 21012G19KT 10SM CLR 15/ A2988 RMK AO2 T0152=
KE11 212310Z AUTO 27008KT 10SM CLR 27/01 A2989 RMK AO2
     T02710006=
KEAN 212310Z AUTO 27012G18KT 10SM CLR 23/M12 A2961 RMK AO2
     T02301125=
KEBS 212315Z AUTO 01005KT 8SM CLR 18/00 A2960 RMK AO2=
KEDC 212315Z AUTO 20009KT 10SM CLR 28/08 A2989 RMK AO2=
KGLE 212315Z AUTO 17011G15KT 10SM CLR 29/02 A2978 RMK AO2
     T02920023=
KGNC 212315Z AUTO 23009KT 10SM CLR 26/01 A2992 RMK AO2
     T02630006=
KHBV 212310Z AUTO 16006KT 5SM HZ CLR 28/11 A2994 RMK AO2
     T02800109=
KHHW 212314Z AUTO 17008KT 10SM CLR 27/07 A2980 RMK AO2=
KHSG 212310Z AUTO 25018G26KT 10SM CLR 20/M03 A2955 RMK AO2
     T02011031=
KHVS 212315Z AUTO 00000KT 10SM FEW050 11/02 A3011 RMK AO2=
KMMH 212314Z AUTO 26015KT 10SM CLR 19/M09 A3007 RMK AO2=
KMPZ 212310Z AUTO 19006KT 10SM CLR 24/09 A2963 RMK AO2=
KMYZ 212310Z AUTO 00000KT 10SM CLR 26/01 A2958 RMK AO2=
KOSA 212310Z AUTO 18006KT 10SM CLR 27/10 A2985 RMK AO2
     T02660102=
KOZA 212315Z AUTO 19013G22KT 10SM CLR 26/07 A2993 RMK AO2=
KPAN 212315Z AUTO 20009KT 10SM CLR 22/04 A3005 RMK AO2 PWINO
     TSNO=
KPVW 212310Z AUTO 25012KT 10SM CLR 26/00 A2979 RMK AO2 T02601001
     TSNO=
KRBW 212315Z AUTO 00000KT 10SM CLR 11/06 A3011 RMK AO2=
KSLR 212310Z AUTO 18008KT 10SM CLR 28/07 A2985 RMK AO2
     T02830066=
KTOC 212315Z AUTO 00000KT 10SM CLR 13/03 A3011 RMK AO2
     T01280030=
KTXW 212310Z AUTO 16011KT 10SM CLR 28/15 A2994 RMK AO2
     T02800153=
KEVM 212321Z AUTO 25004KT 10SM CLR 11/02 A2958 RMK AO2=
KBYL 212315Z AUTO 16004KT 10SM CLR 14/M01 A3004 RMK AO1=
KDLL 212335Z AUTO 00000KT 10SM CLR 18/02 A2961 RMK AO2
     T01770015=
KGAF 212335Z AUTO 27009KT 9SM FEW095 13/01 A2952 RMK AO2=
KGPH 212335Z AUTO 17007KT 10SM CLR 27/01 A2963 RMK AO2=
KUKF 212315Z AUTO 00000KT 10SM CLR 11/01 A3017 RMK AO2=
KUYF 212315Z AUTO 18007KT 10SM CLR 12/M01 A2995 RMK AO2=
KW13 212335Z AUTO 10SM CLR 10/00 A3012 RMK AO1 T00990001=
