SAUS70 KWBC 220000 RRP
METAR
KIWD 212356Z AUTO 00000KT 10SM CLR 07/04 A2960 RMK AO2 SLP030
     T00670044 10161 20067 53018=
KJAC 212356Z 21013G28KT 10SM OVC090 14/M08 A2974 RMK AO2 PK WND
     24039/2332 SLP049 6//// T01441078 10167 20144 58012 PNO $=
KJHW 212356Z AUTO 19009KT 10SM CLR 11/M01 A2999 RMK AO2 SLP171
     T01111006 10161 20111 53012=
KJRB 212356Z AUTO 00000KT 10SM CLR A3016 RMK AO2 SLPNO 60001 53010
     FZRANO $=
KJYM 212355Z AUTO 19008KT 10SM CLR 17/00 A2981 RMK AO2 T01650003
     10202 20165=
KKLS 212356Z AUTO 15005KT 9SM -RA OVC017 10/08 A2974 RMK AO2
     SLP073 P0002 60020 T01000083 10106 20100 56040=
KLBL 212356Z AUTO 02004KT 10SM CLR 24/M03 A2965 RMK AO2 SLP026
     T02391028 10306 20239 56012=
KLCI 212356Z AUTO 00000KT 10SM CLR 06/01 A3012 RMK AO2 SLP207
     T00560011 10150 20050 52015=
KLEW 212356Z AUTO 16004KT 10SM CLR 07/03 A3014 RMK AO2 SLP215
     T00670028 10144 20067 53016=
KLGD 212356Z AUTO 14005KT 10SM -RA OVC045 09/08 A2969 RMK AO2
     SLP058 P0004 60008 T00890078 10156 20089 58023=
KLLJ 212355Z AUTO 10SM BKN090 OVC110 16/M06 A2963 RMK AO2 PK WND
     23028/2307 SLP000 T01611061 10200 20161 55009=
KLPC 212356Z AUTO 27008KT 10SM SCT012 16/13 A2989 RMK AO2 SLP123
     T01610133 10206 20150 55000=
KLRD 212356Z 18008KT 10SM CLR 27/11 A2991 RMK AO2 SLP127 T02670106
     10306 20267 56006=
KLWA 212355Z AUTO 19007KT 10SM SCT120 20/03 A2972 RMK AO2
     T02000025 10230 20200=
KLXL 212355Z AUTO 00000KT 10SM CLR 09/01 A2961 RMK AO2=
KCDA 212355Z AUTO 00000KT 10SM 08/M02 A3009 RMK AO2 T00821024
     10118 20076=
KCDD 212353Z AUTO 00000KT 10SM CLR 08/01 A2958 RMK AO2=
KCDI 212355Z AUTO 00000KT 10SM CLR 07/03 A3001 RMK AO2 T00740034
     10188 20074=
KCGZ 212356Z AUTO 31007KT 10SM CLR 30/11 A2982 RMK AO2 SLP086
     6//// T03000106 10317 20272 56011 $=
KCIU 212356Z AUTO 25006KT 10SM CLR 11/07 A2961 RMK AO2 SLP031
     T01060067 10189 20106 51029=
KCMA 212355Z 25007KT 7SM CLR 21/17 A2984 RMK AO2 SLP112 T02110167
     10233 20211 56010=
KCNB 212355Z AUTO 04003KT 7SM CLR 12/00 A2962 RMK AO2 T01241001
     10187 20124=
KCOD 212356Z AUTO VRB04KT 10SM OVC100 19/M03 A2956 RMK AO2 SLP963
     T01891028 10217 20183 56004=
KCOE 212356Z AUTO 00000KT 6SM -RA BR OVC016 03/02 A2969 RMK AO2
     SLP079 6//// T00280022 10100 20022 58008 PNO $=
KCVN 212356Z AUTO 26019KT 10SM CLR 23/M01 A2983 RMK AO2 PK WND
     25027/2310 SLP076 T02281006 10267 20228 57009=
KCVO 212356Z AUTO 23006KT 10SM FEW022 BKN032 OVC040 14/10 A2976
     RMK AO2 SLP079 60000 T01390100 10150 20111 55019=
KCVX 212355Z AUTO 21005KT 10SM CLR 14/06 A2961 RMK AO2 T01360060
     10198 20130=
KCWI 212356Z AUTO 18009KT 10SM CLR 17/04 A2965 RMK AO2 SLP045
     T01670039 10261 20156 53008=
KD95 212355Z AUTO 17005KT 10SM CLR 16/00 A2978 RMK AO2 T01581004
     10205 20156=
KDTL 212355Z AUTO 00000KT 10SM CLR 12/M00 A2957 RMK AO2=
KDUH 212355Z AUTO 19007KT 10SM CLR 18/00 A2983 RMK AO2 T01840002
     10224 20182=
KDYR 212356Z AUTO 16003KT 10SM CLR 21/10 A2991 RMK AO2 SLP134
     T02110100 10267 20211 53004=
KEAT 212355Z AUTO 31009KT 3SM HZ CLR 13/01 A2961 RMK AO2 SLP026
     T01280006 10139 20122 58015=
KEDJ 212355Z AUTO 19008KT 10SM CLR 15/01 A2994 RMK A01=
KEEN 212356Z AUTO 00000KT 10SM CLR 06/02 A3013 RMK AO2 SLP211
     T00560022 10156 20056 52015 $=
KEFK 212355Z AUTO 13006KT 10SM CLR 09/M01 A3006 RMK AO2 T00851015
     10130 20083=
KEGE 212356Z 28014G21KT 10SM CLR 17/M10 A2991 RMK AO2 SLP048
     T01721100 10189 20144 56013=
KEHR 212356Z AUTO 15005KT 10SM CLR 18/02 A2990 RMK AO2 SLP124
     T01830017 10250 20178 55001=
