SAUS70 KWBC 220120 RRC
METAR
KF17 220115Z AUTO 16003KT 10SM CLR 22/10 A2994 RMK AO2=
KF44 220115Z AUTO 18004KT 10SM CLR 22/11 A2988 RMK AO2=
KJTC 220115Z AUTO VRB04G10KT 10SM CLR 12/M00 A3013 RMK AO2=
KJWY 220115Z AUTO 17009G15KT 10SM CLR 25/09 A2986 RMK AO2
     T02510090=
KPRS 220115Z AUTO 00000KT 10SM CLR 25/12 A2995 RMK AO2
     T02500115=
KRTS 220115Z AUTO 25018G25KT 10SM CLR 19/M06 A2990 RMK AO2=
K0A0 220115Z AUTO 20009KT 10SM CLR 21/03 A2996 RMK AO2=
K0S9 220115Z AUTO 29003KT 5SM -RA BKN039 OVC044 09/08 A2971 RMK
     AO2=
KALM 220115Z AUTO 15008KT 10SM CLR 18/06 A2995 RMK AO2=
KBKS 220115Z AUTO 13008KT 10SM CLR 23/17 A2995 RMK AO2 SLP103
     T02270165 $=
KBVU 220115Z AUTO 16011KT 10SM CLR 26/02 A2979 RMK AO2=
KBXK 220115Z AUTO 00000KT 10SM CLR 26/12 A2979 RMK A01=
KC83 220115Z AUTO 24012G18KT 10SM CLR 22/10 A2978 RMK AO2=
KCMR 220115Z AUTO 23006KT 10SM CLR 13/02 A3008 RMK AO2=
KCPT 220115Z AUTO 17011G16KT 10SM CLR 25/09 A2985 RMK A01=
KDNA 220115Z AUTO 00000KT 10SM CLR 23/08 A2998 RMK AO2=
KHOB 220115Z AUTO 22008KT 10SM CLR 18/08 A2989 RMK AO2=
KL35 220115Z AUTO 23004KT 10SM CLR 12/03 A3010 RMK AO2=
KL52 220115Z AUTO 26004KT 6SM BR BKN011 15/14 A2990 RMK A01=
KLRU 220115Z AUTO 25008KT 10SM CLR 22/05 A3000 RMK AO2
     T02150052=
KO22 220115Z AUTO 00000KT 10SM CLR 24/03 A2985 RMK A01=
KORS 220115Z AUTO 00000KT 7SM -RA SCT043 BKN048 OVC055 10/ A2970
     RMK AO2=
KPAN 220115Z AUTO 00000KT 10SM CLR 17/04 A3004 RMK AO2 PWINO
     TSNO=
KPVF 220115Z AUTO 21004KT 10SM CLR 21/04 A2988 RMK AO1=
KRPH 220115Z AUTO VRB06KT 9SM CLR 26/03 A2976 RMK AO2 T02620033
     $=
KSVC 220115Z AUTO 33007KT 10SM CLR 15/09 A3005 RMK AO2
     T01510090=
KSXU 220115Z AUTO 27009KT 10SM CLR 20/00 A2988 RMK AO2
     T01960000=
KT69 220115Z AUTO 18007KT 10SM CLR 22/16 A2997 RMK A01=
KTSP 220115Z AUTO 30008KT 9SM CLR 20/M01 A2997 RMK AO2=
K2R9 220115Z AUTO 10SM CLR 23/15 A2997 RMK AO2 T02250146=
K46U 220115Z AUTO 32010KT 10SM FEW001 SCT039 BKN060 15/M06 A2974
     RMK A01=
K4V0 220115Z AUTO 20009KT 10SM CLR 17/M08 A2982 RMK AO2
     T01701081=
K5SM 220115Z AUTO 24012G20KT 10SM CLR 02/M11 A3015 RMK AO2=
K65S 220115Z AUTO 22011KT 10SM BKN032 OVC043 04/02 A2959 RMK
     AO2=
K81R 220115Z AUTO 18007KT 10SM CLR 24/08 A2990 RMK AO2
     T02420082=
KAXH 220115Z AUTO 00000KT 10SM CLR 21/15 A3001 RMK AO2
     T02060147=
KBDU 220115Z AUTO 22009KT 10SM CLR 20/M08 A2973 RMK AO2=
KCWC 220115Z AUTO 19013KT 10SM CLR 25/02 A2976 RMK AO2
     T02480015=
KDZB 220115Z AUTO 17004KT 10SM CLR 23/07 A2992 RMK AO2
     T02300069=
KECS 220115Z AUTO 35003KT 10SM CLR 14/M09 A2953 RMK AO2=
KEKS 220110Z AUTO 19013G22KT 10SM FEW044 BKN050 OVC075 16/M01
     A2958 RMK AO2=
KERV 220115Z AUTO 15004KT 10SM CLR 21/09 A2996 RMK AO2
     T02090087=
KF46 220115Z AUTO 19009G15KT 10SM CLR 25/09 A2985 RMK AO2
     T02500093=
KINJ 220115Z AUTO 17013KT 10SM CLR 26/09 A2986 RMK AO2
     T02570087=
KLNC 220115Z AUTO 17007KT 10SM CLR 25/08 A2985 RMK AO2
     T02500080=
KSEZ 220115Z AUTO 21007KT 10SM 20/05 A2999 RMK AO2=
KT89 220115Z AUTO 11003KT 10SM CLR 24/08 A2992 RMK A01=
KU68 220115Z AUTO 05011G15KT 10SM OVC110 16/M01 A2948 RMK AO2=
KVCV 220115Z AUTO 18013KT 9SM CLR 24/07 A2990 RMK AO2=
K05U 220115Z AUTO 26008KT 10SM 16/M12 A2990 RMK A01=
K0F2 220115Z AUTO 17005KT 10SM CLR 24/04 A2979 RMK AO2
     T02360037=
K7BM 220115Z AUTO 34004G15KT 10SM CLR 08/M12 A3005 RMK AO2=
K82V 220115Z AUTO 25008KT 10SM CLR 15/M11 A2970 RMK AO2=
KAEJ 220115Z AUTO 27010KT 220V280 10SM 11/M12 A2997 RMK AO2
     T01071121=
KARM 220115Z AUTO 17006KT 10SM SCT042 21/14 A3000 RMK AO2
     T02060140 TSNO=
