SAPA31 KWBC 212300 RRC
METAR
PKWA 212340Z AUTO 08011KT 10SM CLR 30/25 A2981 RMK AO2
     T03020246=
