SAUS70 KWBC 220000 RRG
METAR
KLEW 212356Z AUTO 16004KT 10SM CLR 07/03 A3014 RMK AO2 SLP215
     T00670028 10144 20067 53016=
KMML 212356Z AUTO 11006KT 10SM CLR 15/01 A2961 RMK AO2 SLP030
     T01500011 10183 20150 58001=
KMTW 212356Z AUTO 00000KT 10SM CLR 12/09 A2962 RMK AO2 SLP031
     T01170089 10239 20117 53029=
KONZ 212355Z AUTO 19006KT 10SM OVC100 11/08 A2982 RMK AO2
     T01060077 10165 20106=
KTNU 212355Z AUTO 00000KT 10SM CLR 22/01 A2961 RMK A01=
KY49 212355Z AUTO 00000KT 10SM CLR 11/00 A2958 RMK AO2 T01110000
     10151 20104=
KCFD 212355Z AUTO 17006KT 10SM CLR 26/10 A2992 RMK AO2 T02640101
     10300 20264=
KCFS 212355Z AUTO 17007KT 10SM CLR 16/03 A2974 RMK AO2 T01600029
     10207 20160=
KCKC 212357Z AUTO 00000KT 10SM CLR 09/02 A2955 RMK AO2=
KCKN 212355Z AUTO 22005KT 10SM CLR 12/M02 A2954 RMK AO2=
KCQF 212355Z AUTO 00000KT 10SM CLR 14/08 A3009 RMK AO2=
KDUC 212355Z AUTO 19010KT 10SM CLR 27/03 A2974 RMK AO2 T02670034
     10321 20265 403210075=
KDZJ 212355Z AUTO 09003KT 10SM CLR 12/00 A3012 RMK AO2 T01200004
     10201 20119 402011032=
KE42 212355Z AUTO 20009KT 10SM CLR 22/M05 A2968 RMK AO2 T02251047
     10312 20222 403120082=
KEBA 212355Z AUTO 00000KT 10SM CLR 11/01 A3011 RMK AO2 T01150007
     10208 20114 402080006=
KEBG 212355Z AUTO 14008KT 10SM CLR 26/15 A2994 RMK AO2 T02640150
     10306 20264 PWINO=
KELA 212355Z AUTO 19010G15KT 10SM CLR 25/15 A2995 RMK AO2
     T02460145 10303 20246=
KEMM 212355Z AUTO 10SM CLR 14/M12 A2987 RMK AO2=
KEQA 212355Z AUTO 16008KT 10SM CLR 26/00 A2964 RMK AO2=
KETC 212355Z AUTO 00000KT 10SM CLR 08/07 A3014 RMK AO2 T00840066
     10211 20083 402111010=
KEZZ 212355Z AUTO 18008KT 10SM CLR 24/03 A2964 RMK AO2 T02410030
     10296 20240 402960103=
KF00 212355Z AUTO 17007KT 10SM CLR 26/08 A2981 RMK AO2 T02580080
     10319 20257=
KFET 212355Z AUTO 15003KT 10SM CLR 20/03 A2959 RMK AO2 T01980026
     10266 20198=
KFHB 212355Z AUTO 04004KT 10SM CLR 16/05 A3009 RMK AO2=
KFOA 212355Z AUTO 17007KT 10SM CLR 15/02 A2986 RMK AO2=
KFSW 212355Z AUTO 18009KT 10SM OVC001 22/04 A2964 RMK AO2=
KFWC 212355Z AUTO 16003KT CLR 19/01 A2986 RMK AO1 T01850013 10250
     20185 PWINO=
KGDB 212355Z AUTO 13003KT 10SM CLR 15/02 A2962 RMK AO2 T01480016
     10191 20141=
KGPC 212355Z AUTO 17008KT 10SM CLR 15/02 A2987 RMK AO2 T01520018
     10234 20149 402340068=
KGRD 212356Z AUTO 00000KT 10SM CLR 10/00 A3013 RMK AO2 SLP203
     T01000000 10200 20100 53007=
KGRN 212355Z AUTO 19003KT 10SM CLR 17/M08 A2953 RMK AO2 T01651082
     10236 20165=
KGWB 212355Z AUTO 20006KT 10SM CLR 17/03 A2984 RMK AO2=
KHJH 212355Z AUTO 00000KT 7SM CLR 20/00 A2958 RMK AO2 T01961004
     10270 20196=
KHMP 212355Z AUTO 00000KT 10SM CLR 09/06 A3014 RMK AO2 T00910055
     10212 20089 402121010=
KHQU 212355Z AUTO 00000KT 10SM CLR 11/04 A3011 RMK AO2 T01110038
     10212 20107 402121002=
K0CO 212355Z AUTO 28025G36KT 10SM CLR 01/M16 A3012 RMK AO2=
K13K 212355Z AUTO 16010KT 10SM CLR 25/04 A2965 RMK AO2 T02460036
     10319 20246 403190105=
K18A 212355Z AUTO 00000KT 10SM CLR 11/00 A3011 RMK AO2 T01121000
     10212 20112 402121002=
K1F0 212355Z AUTO 15006KT 10SM CLR 25/09 A2976 RMK AO2 T02550089
     10327 20253 403270065=
K1H2 212355Z AUTO 15005KT 10SM CLR 19/03 A2986 RMK AO2 T01850027
     10249 20185=
K2J3 212355Z AUTO 00000KT 10SM CLR 12/05 A3011 RMK AO2 T01200046
     10215 20118 402150007=
K2R9 212355Z AUTO 15013G18KT 10SM CLR 26/14 A2994 RMK AO2
     T02550144 10297 20254 402970139=
K2V5 212355Z AUTO 18005KT 10SM CLR 21/M08 A2965 RMK AO2=
K3F3 212355Z AUTO 16011KT 10SM CLR 25/12 A2995 RMK AO2 T02450121
     10297 20245=
