SAUS70 KWBC 220100 RRX
METAR
KJVY 220055Z AUTO 19004KT 10SM CLR 15/01 A2996 RMK AO2 PWINO=
