SACA32 KWBC 220100
METAR
MDLR NIL=
MDPC NIL=
MDPP NIL=
MDSD NIL=
MDST NIL=
MTCH NIL=
MTPP 220059Z AUTO 26004KT 220V280 9000 ////// 28/24 Q1012 A2990
     NOSIG=
TAPA NIL=
TIST 220053Z 08007KT 10SM CLR 28/23 A2992 RMK AO2 RAB14E25 SLP131
     P0000 T02780233=
TJBQ 220050Z 11004KT 10SM CLR 25/22 A2995=
TJMZ NIL=
TJNR 220053Z AUTO 06006KT 10SM SCT026 28/22 A2994 RMK AO2 SLP140
     T02780222=
TJPS NIL=
TJSJ 220056Z 10005KT 10SM FEW028 27/23 A2994 RMK AO2 SLP138
     T02720233=
TKPK 220100Z 04010KT 9999 FEW018 26/24 Q1013=
TKPN NIL=
TQPF NIL=
TRPM NIL=
TUPJ 220100Z 08010KT 10SM SCT019 27/25 A2993 RMK Q1013 VIS16KM=
TUPW NIL=
