SAUS70 KWBC 220218 RRB
METAR
KPGV 220215Z AUTO 00000KT 10SM SCT055 BKN065 09/08 A3017 RMK
     AO2=
KPLR 220215Z AUTO 00000KT 10SM FEW033 SCT039 BKN047 09/06 A3011
     RMK A01=
KPVF 220215Z AUTO 15004KT 10SM CLR 19/04 A2989 RMK AO1=
KRCE 220215Z AUTO 17011KT 10SM CLR 21/03 A2971 RMK AO2=
KRMN 220215Z AUTO 00000KT 10SM CLR 08/05 A3020 RMK AO2
     T00760050=
KRPH 220215Z AUTO VRB05KT 9SM CLR 25/04 A2977 RMK AO2 T02490041
     $=
KRUG 220215Z AUTO 03003KT 8SM OVC048 06/06 A2956 RMK AO2=
KRVL 220215Z AUTO 00000KT 10SM CLR 06/01 A3013 RMK AO2=
KRYV 220215Z AUTO 00000KT 10SM CLR 08/03 A2968 RMK AO2
     T00750027=
KS25 220215Z AUTO 02007KT 10SM FEW027 SCT033 BKN050 06/06 A2956
     RMK AO2=
KS32 220215Z AUTO 12003KT 10SM SCT038 BKN050 OVC075 08/M00 A2955
     RMK AO2 TSNO=
KSCR 220215Z AUTO 00000KT 10SM CLR 05/04 A3017 RMK AO2
     T00460040=
K06D 220215Z AUTO 00000KT 10SM BKN042 OVC055 05/05 A2957 RMK
     AO2=
K0S9 220215Z AUTO 28003KT 7SM -RA BKN008 BKN013 OVC050 09/08 A2969
     RMK AO2=
K0VG 220215Z AUTO 00000KT 10SM CLR 05/02 A3013 RMK AO2=
K15M 220215Z AUTO 18003KT 10SM CLR 16/11 A3002 RMK AO2 T01590111
     $=
K1R7 220215Z AUTO 16007KT 10SM CLR 19/17 A3006 RMK AO2 PWINO=
K24J 220215Z AUTO 00000KT 10SM 08/04 A3013 RMK A01=
K28J 220215Z AUTO 00000KT 10SM FEW039 08/07 A3011 RMK AO2 TSNO=
K2D5 220215Z AUTO 15007KT 5SM HZ OVC021 10/00 A2955 RMK AO2=
K42J 220215Z AUTO 00000KT 10SM FEW030 SCT035 BKN050 10/07 A3011
     RMK A01=
K46D 220215Z AUTO 03003KT 10SM FEW043 SCT049 BKN075 10/03 A2957
     RMK AO2=
K4A6 220215Z AUTO 00000KT 10SM SCT041 10/05 A3009 RMK AO2=
K4M9 220215Z AUTO 16005KT 6SM HZ CLR 14/10 A2988 RMK AO2 PWINO=
K5H4 220215Z AUTO 03003KT 10SM SCT047 BKN060 OVC070 08/06 A2957
     RMK AO2=
K6B9 220215Z AUTO 20010G15KT 10SM FEW049 12/M02 A3004 RMK AO2=
K7L2 220215Z AUTO 09006KT 10SM SCT110 12/M00 A2952 RMK AO2=
K82C 220215Z AUTO 00000KT 10SM CLR 06/03 A2965 RMK AO2
     T00640033=
K96D 220215Z AUTO 30005KT 10SM OVC070 09/08 A2957 RMK AO2=
KACJ 220215Z AUTO 00000KT 10SM CLR 08/03 A3013 RMK AO2
     T00840033=
KAGO 220215Z AUTO 00000KT 10SM CLR 16/13 A2990 RMK A01=
KAIG 220215Z AUTO 00000KT 10SM CLR 06/03 A2966 RMK AO2
     T00630026=
KAIK 220215Z AUTO 00000KT 10SM CLR 08/02 A3015 RMK AO2
     T00800023=
KALM 220215Z AUTO 14008KT 10SM CLR 17/07 A2997 RMK AO2=
KANQ 220215Z AUTO 19008KT 10SM FEW024 SCT046 BKN055 15/03 A2985
     RMK AO2=
KAQX 220215Z AUTO 00000KT 10SM CLR 08/03 A3014 RMK AO2=
KARW 220215Z AUTO 00000KT 10SM CLR 11/10 A3014 RMK AO2 LTG DSNT
     SE=
KATS 220215Z AUTO 24010KT 10SM CLR 19/08 A2991 RMK AO2=
KAVC 220215Z AUTO 00000KT 10SM CLR 07/06 A3023 RMK AO2
     T00660062=
KBAC 220215Z AUTO 00000KT 9SM BKN095 OVC120 10/02 A2955 RMK
     AO2=
KBCB 220215Z AUTO 00000KT 10SM CLR 06/00 A3020 RMK AO2
     T00600002=
KBKS 220215Z AUTO 14009KT 10SM CLR 22/17 A2996 RMK AO2 SLP107
     T02180165 $=
KBOW 220215Z AUTO 03006KT 10SM CLR 18/09 A3008 RMK AO2=
KBRY 220215Z AUTO 13004KT 10SM CLR 13/01 A2997 RMK AO2
     T01260007=
KBVU 220215Z AUTO 32006KT 10SM CLR 25/02 A2980 RMK AO2=
KBWW 220215Z AUTO 02006KT 10SM OVC110 11/03 A2955 RMK AO2=
KBXK 220215Z AUTO 00000KT 10SM CLR 24/13 A2981 RMK A01=
KC29 220215Z AUTO 00000KT 10SM CLR 08/05 A2968 RMK AO1
     T00760045=
K14Y 220215Z AUTO 00000KT 7SM CLR 07/00 A2959 RMK AO2=
K4I3 220215Z AUTO 17006KT 10SM CLR 11/01 A3001 RMK AO2=
KAMN 220215Z AUTO 17007KT 10SM CLR 15/04 A2975 RMK AO2
     T01450035=
KANE 220215Z AUTO 00000KT 10SM CLR 09/03 A2961 RMK AO2=
KCBG 220215Z AUTO 00000KT 10SM CLR 09/01 A2962 RMK AO2=
