SAUS70 KWBC 220200 RRV
METAR
KOCW 220155Z AUTO 00000KT 10SM 13/07 A3017 RMK AO2 T01300068=
