SAUS70 KWBC 212300 RRN
METAR
KELM 212253Z 21007KT 10SM CLR 12/M03 A3003 RMK AO2 SLP176
     T01221028=
KFCM 212253Z 28004KT 10SM CLR 17/02 A2960 RMK AO2 SLP023
     T01720017=
KFMH 212256Z 21005KT 10SM CLR 12/07 A3016=
KFOK 212253Z 21003KT 10SM CLR 13/08 A3016 RMK AO2 SLP213 T01330083
     $=
KGFK 212253Z 24004KT 10SM FEW000 BKN110 OVC220 15/M01 A2952 RMK
     AO2 SLP999 FU FEW000 T01501006=
KMSP 212253Z 28006KT 10SM FEW200 BKN250 18/01 A2960 RMK AO2 SLP022
     T01780006=
KPKD 212253Z AUTO 25005KT 10SM CLR 11/01 A2957 RMK AO2 SLP020
     T01110006=
KTTN 212253Z 21003KT 10SM CLR 13/M01 A3012 RMK AO2 SLP195
     T01331006=
KBUR 212253Z 19009KT 10SM CLR 27/16 A2984 RMK AO2 SLP091
     T02670156=
KCXO 212253Z 20010KT 10SM CLR 27/12 A2993 RMK AO2 SLP132
     T02720122=
KDEN 212253Z 28015G21KT 10SM FEW130 FEW200 24/M11 A2973 RMK AO2
     SLP997 ACSL OMTNS DSNT NW T02391111=
KDFW 212253Z 19013KT 10SM CLR 31/06 A2978 RMK AO2 SLP077
     T03110056=
KDHT 212253Z AUTO 23005KT 10SM CLR 28/M06 A2974 RMK AO2 SLP031
     T02781056=
KDRO 212253Z AUTO 26017KT 10SM CLR 18/M03 A3001 RMK AO2 PK WND
     25026/2208 SLP128 T01781033=
KDVT 212253Z 25008KT 10SM CLR 31/07 A2983 RMK AO2 SLP081
     T03060072=
KEPH 212253Z AUTO 10005KT 10SM CLR 12/06 A2964 RMK AO2 SLP040
     T01220056 $=
KMFE 212253Z 17011KT 10SM CLR 29/16 A2993 RMK AO2 SLP133 T02890156
     $=
KODO 212253Z AUTO 27012KT 10SM CLR 28/05 A2989 RMK AO2 SLP084
     T02830050=
KOGD 212253Z 23010G18KT 10SM CLR 24/M08 A2979 RMK AO2 SLP045
     T02391083=
KONO 212253Z AUTO 06003KT 10SM CLR 20/05 A2969 RMK AO2 SLP052
     T02000050=
KONT 212253Z 26010KT 10SM FEW100 FEW250 28/11 A2983 RMK AO2 SLP088
     T02830111=
KPIL 212253Z AUTO 13012KT 10SM CLR 26/17 A2996 RMK AO2 SLP145
     T02560167=
KUTS 212253Z AUTO 17008G17KT 10SM CLR 29/11 A2992 RMK AO2 SLP126
     T02890106=
KWRL 212253Z AUTO 06005KT 10SM CLR 21/M03 A2950 RMK AO2 SLP961
     T02061028=
PAMK 212256Z AUTO 22012KT 10SM OVC010 03/02 A2976 RMK AO2
     RAE00UPB00E11 SLP078 P0000 T00280017=
PANA 212256Z AUTO 26006G15KT 10SM FEW013 06/02 A2990 RMK AO2
     SLP124 T00560022 TSNO $=
PANI 212256Z AUTO 24006KT 10SM OVC010 04/02 A2991 RMK AO2 CIG
     009V014 SLP121 T00390022 $=
PANV 212256Z AUTO 23005KT 10SM OVC007 02/02 A2978 RMK AO2 RAE35
     CIG 005V011 SLP173 P0000 T00220017 FZRANO TSNO=
PANW 212256Z AUTO 25012KT 10SM BKN019 06/02 A2995 RMK AO2 SLP148
     T00610022=
PAOH 212256Z AUTO VRB05KT 10SM FEW030 BKN046 10/04 A2967 RMK AO2
     SLP047 T01000039 PNO $=
PAOO 212256Z AUTO 19010KT CLR 05/02 A2988 RMK AO2 SLP122 T00500022
     PWINO TSNO $=
PAOU 212256Z AUTO 23012G19KT 10SM FEW023 06/04 A3013 RMK AO2
     SLP202 T00610039 PNO $=
PAPG 212256Z 25004KT 10SM -RA SCT013 SCT025 BKN047 07/04 A2974 RMK
     AO2 SLP074 P0000 T00670044=
PAPH 212256Z AUTO 26013KT 10SM FEW025 SCT044 08/04 A3010 RMK AO2
     SLP192 T00830039=
PAPM 212256Z AUTO 28005KT 10SM SCT026 BKN035 BKN050 07/03 A2998
     RMK AO2 RAE14 SLP153 P0001 T00670033=
PARC 212256Z AUTO 00000KT 1/2SM FZFG BKN003 M09/M10 A2972 RMK AO2
     SNE12 SLP128 P0000 T10891100 FZRANO=
PARS 212256Z AUTO 26008KT 10SM FEW017 BKN026 BKN039 A2984 RMK AO2
     SLPNO FZRANO $=
PARY 212256Z AUTO 07003KT M1/4SM FG OVC010 00/M01 A2980 RMK AO2
     UPB21E43SNE21 CIG 006V011 SLP103 P0000 T00001006 FZRANO=
PASA 212256Z AUTO 22013KT 10SM CLR 03/01 A2964 RMK AO2 SLP036
     T00330011=
PASD 212256Z 26006KT 10SM FEW030 SCT045 BKN100 08/03 A3015 RMK AO2
     SLP213 T00830028 PNO $=
PASH 212256Z AUTO 15004KT 10SM OVC070 01/00 A2965 RMK AO2 SLP040
     T00060000 FZRANO PNO $=
