SACA35 KWBC 220000 RRC
METAR
MSLP 212350Z 26006KT 999 FEW020 BKN033 28/25 Q1010 A2982=
MSSS 212350Z 03504KT 9999 SCT047 FEW040CB 26/20 Q1014 A2995=
