SAUS80 KWBC 220100 RRE
METAR
KLZZ 220055Z AUTO 19004KT 10SM CLR 23/08 A2987 RMK AO2
     T02330076=
