SAUS80 KWBC 220200
METAR
KAID 220155Z AUTO 18008KT 10SM CLR 15/M02 A2992 RMK AO2
     T01471017=
KESN 220145Z 00000KT 10SM CLR 09/05 A3021=
