SAPA31 KWBC 211900 RRF
METAR
PTKK 211851Z 04007KT 15SM FEW014 BKN120 OVC280 27/24 A2980 RMK
     SLP093 T02720239=
