SACA42 KWBC 212300
METAR
TIST 212253Z 05008KT 10SM CLR 28/22 A2989=
TJBQ 212250Z 13003KT 10SM SCT023 SCT036 SCT050 26/23 A2991=
TJMZ NIL=
TJNR 212253Z AUTO 05007KT 10SM CLR 27/22 A2991=
TJPS NIL=
TJSJ 212256Z 08008KT 10SM FEW028 FEW050 28/23 A2990=
