SAUS70 KWBC 220000 RRH
METAR
KLFK 212353Z AUTO 18004KT 10SM CLR 24/11 A2992 RMK AO2 SLP130
     T02440111 10294 20244 55001=
KLMT 212353Z 27014KT 10SM FEW120 17/04 A2985 RMK AO2 SLP092
     T01670044 10194 20144 58013=
KLVJ 212353Z AUTO 17007KT 10SM CLR 24/15 A2999 RMK AO2 SLP153
     T02390150 10289 20239 53004=
KMAF 212353Z 21006KT 10SM CLR 26/07 A2986 RMK AO2 SLP078 T02560072
     10278 20244 58011=
KODO 212353Z AUTO 21006KT 10SM CLR 26/07 A2987 RMK AO2 SLP082
     T02560072 10289 20250 58011=
KTOA 212347Z 00000KT 10SM FEW015 22/18 A2984=
KTWT 212355Z AUTO 16005KT 10SM CLR 18/04 A2989 RMK AO2=
KU42 212355Z AUTO 22006KT 10SM CLR 22/02 A2981 RMK AO1 T02180015
     10232 20192=
KUOX 212355Z AUTO 15006KT 10SM CLR 20/10 A2996 RMK AO2 PWINO=
KUTA 212355Z AUTO 18006KT 10SM CLR 22/09 A2989 RMK AO2 T02250093
     $=
KUZA 212354Z AUTO 00000KT 10SM CLR 09/02 A3013 RMK AO2 SLP207
     T00890017 10200 20083 53008=
KVAY 212354Z AUTO VRB03KT 10SM CLR 11/03 A3015 RMK AO2 SLP209
     T01060028 10189 20100 53012=
KVGC 212355Z AUTO 17007KT 10SM CLR 10/M03 A3006 RMK AO2=
KVJI 212355Z AUTO 00000KT 10SM CLR 09/00 A3010 RMK AO2 T00920000
     10181 20092=
KW78 212355Z AUTO 00000KT 10SM CLR 08/04 A3014 RMK AO1 T00760036
     10199 20076=
KW81 212355Z AUTO 00000KT 10SM CLR 07/03 A3013 RMK AO1 T00740029
     10191 20074=
KX07 212355Z AUTO 35005KT 10SM FEW043 19/09 A3003 RMK A01=
KXNX 212355Z AUTO 13003KT 10SM CLR 17/02 A3002 RMK A01=
KY19 212355Z AUTO 05006KT 10SM FEW110 11/03 A2951 RMK AO2=
KJZI 212355Z AUTO 00000KT 10SM CLR 14/09 A3011 RMK AO2=
KKY8 212355Z AUTO 13004KT 10SM CLR 18/05 A2993 RMK A01=
KL08 212355Z AUTO 12006KT 10SM CLR 32/05 A2976 RMK AO2=
KL35 212355Z AUTO 28009KT 10SM CLR 16/02 A3010 RMK AO2=
KL52 212355Z AUTO VRB06KT 7SM SCT010 16/14 A2990 RMK A01=
KLBO 212355Z AUTO 15005KT 10SM CLR 21/M02 A2979 RMK AO2=
KLKR 212355Z AUTO 00000KT 10SM FEW044 SCT050 SCT065 11/04 A3013
     RMK AO2=
KLNP 212355Z AUTO 20003KT 10SM CLR 09/00 A3011 RMK AO2=
KLRO 212355Z AUTO 00000KT 10SM CLR 12/10 A3011 RMK AO2=
KLRU 212355Z AUTO 27015G22KT 10SM CLR 25/04 A2998 RMK AO2
     T02500036 10265 20222=
KLRY 212355Z AUTO 19005KT 10SM CLR 25/02 A2970 RMK AO2=
KLVL 212355Z AUTO 00000KT 10SM CLR 11/05 A3015 RMK AO1 T01130049
     10210 20112=
KLWT 212354Z AUTO 31003KT 6SM -RA BKN043 OVC055 08/05 A2956 RMK
     AO2 SLP999 P0002 60003 T00780050 10161 20078 58002=
KM40 212355Z AUTO 14005KT 10SM CLR 20/12 A3000 RMK AO2=
KMAN 212355Z AUTO 00000KT 10SM CLR 20/03 A2966 RMK A01=
KMAO 212355Z AUTO 00000KT 10SM CLR 11/04 A3012 RMK AO2=
KMBO 212355Z AUTO 00000KT 9SM CLR 20/12 A2997 RMK AO2=
KMDS 212355Z AUTO 14005KT 10SM CLR 15/00 A2960 RMK AO2=
KMEZ 212355Z AUTO 00000KT 9SM CLR 20/06 A2986 RMK AO2
     T02030061=
KMGJ 212354Z AUTO 00000KT 10SM CLR 06/01 A3011 RMK AO2 SLP199
     T00610011 10156 20061 53012=
KMIV 212354Z AUTO 00000KT 10SM CLR 07/04 A3016 RMK AO2 SLP212
     T00720039 10189 20067 53009=
KMKJ 212355Z AUTO 00000KT 10SM CLR 08/00 A3014 RMK AO2 T00750000
     10196 20075=
KMRY 212354Z 28008KT 8SM BKN009 14/11 A2991 RMK AO2 SLP141
     T01440111 10167 20144 53002=
KMTV 212355Z AUTO 00000KT 10SM CLR 08/01 A3015 RMK AO2 T00750010
     10186 20075=
KN38 212355Z AUTO 19010KT 10SM CLR 09/M02 A3005 RMK AO2=
KO22 212355Z AUTO 21004KT 10SM CLR 28/M00 A2986 RMK A01=
KO32 212355Z AUTO 00000KT 8SM CLR 30/07 A2977 RMK AO2 T03020072
     $=
KOCQ 212355Z AUTO 00000KT 12/05 A2959 RMK AO1 T01230050 10220
     20117=
KOEO 212355Z AUTO 00000KT 10SM CLR 10/04 A2965 RMK AO2 T01020042
     10199 20102=
KOKV 212355Z AUTO 16005KT 10SM CLR 09/00 A3009 RMK AO2=
