SAPA32 KWBC 212300
METAR
NCRG 212300Z AUTO 06010KT 9999 BKN013/// 27/24 Q1015=
NFFN 212300Z 15011KT 9999 VCSH SCT026 SCT050 29/21 Q1012 NOSIG=
NFNA NIL=
NFTF 212300Z 13011G24KT 9999 FEW010 SCT016 BKN100 25/21 Q1014=
NFTV 212300Z 08005KT 9999 FEW016 SCT110 BKN290 27/24 Q1012=
NGFU 212300Z 08008KT 9999 FEW018TCU SCT020 31/26 Q1009=
NSFA 212300Z 03016KT 9999 FEW018TCU SCT026 33/26 Q1011 RMK TCU TO
     WSW=
NSTU 212250Z 10012KT 12SM SCT020 BKN100 BKN220 31/26 A2987 RMK
     SLP117 T03090261=
NTAA NIL=
NWWW 212300Z AUTO 07007KT 320V130 CAVOK 29/14 Q1015 NOSIG=
