SAUS80 KWBC 212300 RRE
METAR
KMEH 212256Z AUTO 00000KT 3SM -RA BR BKN008 BKN013 OVC021 06/05
     A2972 RMK AO2 SLP070 P0004 T00610050=
KLZZ 212255Z AUTO 21008G14KT 10SM CLR 29/06 RMK AO2 T02910060=
KN60 212252Z AUTO 04003KT 10/06 A2952 RMK AO1 SLP006 T01000061=
