SAPA31 KWBC 212200 RRE
METAR
PTPN 212153Z 06005KT 15SM SCT018TCU BKN130 OVC300 29/26 A2984 RMK
     TCU N-NE AND S=
