SAUS70 KWBC 212200 RRX
METAR
PAHC 212156Z AUTO 19006KT 6SM -RA BR OVC006 03/02 A2981 RMK AO2
     RAB39 CIG 005V010 SLP100 P0000 T00280022 $=
