SAUS70 KWBC 220200 RRG
METAR
KMAN 220155Z AUTO 12004KT 10SM CLR 17/04 A2960 RMK A01=
KMAO 220155Z AUTO 00000KT 10SM CLR 08/05 A3015 RMK AO2=
KMBO 220155Z AUTO 00000KT 10SM CLR 16/13 A3000 RMK AO2=
KMDS 220155Z AUTO 15006KT 10SM CLR 11/M00 A2959 RMK AO2=
KMEZ 220155Z AUTO VRB04KT 10SM 20/08 A2989 RMK AO2 T02000081 $=
KMKJ 220155Z AUTO 00000KT 10SM CLR 05/00 A3017 RMK AO2
     T00531005=
KMRY 220154Z 28007KT 8SM OVC009 14/11 A2989 RMK AO2 SLP134
     T01390111=
KMTV 220155Z AUTO 00000KT 10SM CLR 04/02 A3019 RMK AO2
     T00390019=
KN38 220155Z AUTO 19009KT 10SM CLR 08/M02 A3007 RMK AO2=
KO22 220155Z AUTO 05004KT 10SM CLR 20/03 A2984 RMK A01=
KO32 220155Z AUTO 00000KT 8SM CLR 25/11 A2975 RMK AO2 T02490114
     $=
KOCQ 220155Z AUTO 26003KT 10SM CLR 07/05 A2963 RMK AO1
     T00700048=
KOEO 220155Z AUTO 00000KT 10SM CLR 06/04 A2965 RMK AO2
     T00580037=
KOKV 220155Z AUTO 00000KT 10SM CLR 06/00 A3012 RMK AO2=
KOLF 220153Z AUTO 07005KT 10SM OVC019 07/05 A2957 RMK AO2 SLP025
     T00670050=
KOLG 220155Z AUTO 00000KT 10SM CLR 05/00 A2961 RMK AO1=
KONM 220155Z AUTO 26004KT 10SM OVC090 17/06 A2997 RMK AO2
     T01720063=
KORS 220155Z AUTO 00000KT 8SM -RA SCT044 OVC060 09/ A2969 RMK
     AO2=
KOZS 220155Z AUTO 16008KT 10SM CLR 20/00 A2977 RMK AO2=
KPAN 220155Z AUTO 18003KT 10SM CLR 17/04 A3004 RMK AO2 PWINO
     TSNO=
KPGV 220155Z AUTO 00000KT 10SM SCT049 BKN065 10/08 A3016 RMK
     AO2=
KELK 220155Z AUTO 19012KT 10SM CLR 22/03 A2970 RMK AO2 SLP348
     T02180029 $=
KEUG 220154Z 22008KT 5SM -RA BR SCT018 BKN028 OVC060 14/12 A2973
     RMK AO2 RAB27E36B52 SLP067 P0000 T01390122=
KEVU 220155Z AUTO 19008KT 10SM CLR 20/05 A2961 RMK AO2
     T02060052=
KEWN 220154Z AUTO 03005KT 10SM OVC070 16/10 A3016 RMK AO2 SLP213
     T01560100=
KEXX 220155Z AUTO 00000KT 10SM CLR 07/04 A3015 RMK AO2
     T00680038=
KEZF 220155Z AUTO 00000KT 10SM CLR 07/04 A3015 RMK AO2
     T00700040=
KEZM 220155Z AUTO 00000KT 10SM CLR 07/04 A3015 RMK AO2=
KFGX 220155Z AUTO 19005KT 10SM CLR 12/00 A3003 RMK AO2
     T01200004=
KFIG 220154Z AUTO 34003KT 10SM CLR 06/M01 A3009 RMK AO2 SLP197
     T00611006=
KFVX 220155Z AUTO 00000KT 10SM CLR 06/02 A3015 RMK AO2
     T00560023=
KFWB 220155Z AUTO VRB04KT 10SM CLR 21/03 A2982 RMK AO2=
KGCN 220154Z 00000KT 10SM CLR 08/01 A3007 RMK AO2 SLP152
     T00780006=
KGGW 220153Z AUTO 08007KT 10SM OVC032 07/05 A2955 RMK AO2 RAE15
     SLP016 P0000 T00720050=
KGLY 220155Z AUTO 18008G14KT 10SM CLR 22/03 A2971 RMK AO2=
KGWR 220155Z AUTO 19004KT 6SM HZ BKN023 OVC048 10/00 A2955 RMK
     A01=
KHOB 220155Z AUTO 24010KT 10SM CLR 17/07 A2990 RMK AO2=
KHRJ 220155Z AUTO 00000KT 10SM CLR 08/06 A3017 RMK AO2
     T00770059=
KHVS 220155Z AUTO 00000KT 10SM SCT040 BKN047 08/M00 A3015 RMK
     AO2=
KHWD 220154Z 32009KT 10SM CLR 14/12 A2985 RMK AO2 SLP118
     T01440122=
KHWY 220155Z AUTO 00000KT 10SM CLR 02/01 A3019 RMK AO2
     T00240011=
KHYW 220155Z AUTO 00000KT 10SM CLR 07/06 A3015 RMK AO2=
KHZE 220155Z AUTO 04005KT 10SM -RA FEW042 OVC050 09/04 A2955 RMK
     AO2=
KI67 220155Z AUTO 00000KT 10SM CLR 12/01 A2997 RMK AO1=
KI68 220155Z AUTO 15005KT 10SM CLR 13/01 A2998 RMK AO1
     T01310012=
KIDI 220155Z AUTO 00000KT 10SM FEW045 BKN055 05/02 A3010 RMK
     A01=
KINF 220155Z AUTO 04004KT 7SM CLR 14/07 A3010 RMK AO2=
KINT 220154Z AUTO 00000KT 10SM CLR 09/02 A3016 RMK AO2 SLP212
     T00890017=
KIOB 220155Z AUTO 19005KT 10SM CLR 11/01 A3004 RMK AO2 PWINO=
KISO 220155Z AUTO 00000KT 10SM OVC050 13/08 A3017 RMK AO2
     T01270082=
KJFZ 220155Z AUTO 15003KT 10SM CLR 11/00 A3012 RMK AO2
     T01050000=
