SAUS80 KWBC 220000 RRI
METAR
KMWN 212359Z 25029KT 70SM SCT045 02/M05 RMK 10015 21010=
KP58 212355Z AUTO 16008KT 14/06 A2971 RMK AO1 SLP063 T01390056
     10189 20139 53010=
