SAUS80 KWBC 212300
METAR
KABI 212252Z 20018G29KT 10SM CLR 31/02 A2982 RMK AO2 PK WND
     21031/2208 SLP074 T03060017=
KABQ 212252Z 29013G18KT 10SM FEW090 23/00 A2998 RMK AO2 SLP094
     T02330000=
KALB 212251Z 13006KT 10SM CLR 12/M01 A3008 RMK AO2 SLP186
     T01221011=
KALS 212252Z AUTO VRB05G15KT 10SM CLR 19/M11 A2995 RMK AO2 SLP087
     T01941111=
KCID 212252Z 22007KT 7SM CLR 22/02 A2960 RMK AO2 SLP021
     T02220017=
KCNU 212252Z AUTO 17009KT 10SM CLR 28/06 A2968 RMK AO2 SLP042
     T02780056=
KLND 212253Z AUTO 28019G24KT 10SM CLR 19/M05 A2962 RMK AO2 PK WND
     25037/2154 SLP978 T01941050=
KMHK 212252Z 20011KT 10SM CLR 30/03 A2958 RMK AO2 SLP013
     T03000028=
KMLF 212252Z AUTO 20021G29KT 10SM CLR 24/M06 A2988 RMK AO2 PK WND
     20029/2250 SLP077 T02391061 $=
KSAV 212253Z 10005KT 10SM FEW250 17/01 A3009 RMK AO2 SLP188
     T01670011=
KSPS 212252Z 21021G30KT 10SM CLR 32/00 A2972 RMK AO2 PK WND
     20030/2248 SLP053 T03220000=
KVTN 212252Z AUTO 15011KT 10SM CLR 22/M01 A2956 RMK AO2 SLP006
     T02171011=
KP59 212251Z AUTO VRB05KT 13/04 A2952 RMK AO1 SLP998 T01330044=
KP69 212252Z AUTO 00000KT 09/07 A2977 RMK AO1 SLP083 P0006
     T00890067=
KTOL 212252Z 20006KT 10SM CLR 21/02 A2982 RMK AO2 SLP098
     T02110022=
KBLU 212252Z AUTO 21007KT 170V240 10SM CLR 20/00 A3002 RMK AO2
     SLP088 T02000000=
KCDJ 212251Z AUTO 18007G16KT 27/03 A2963 RMK AO1 SLP028 T02720033
     $=
KMBG 212252Z AUTO 20010KT 10SM CLR 18/01 A2949 RMK AO2 SLP985
     T01830011=
KMFD 212252Z 17010KT 10SM CLR 16/01 A2993 RMK AO2 SLP139
     T01560011=
KNYC 212251Z AUTO VRB04KT 10SM CLR 14/00 A3016 RMK AO2 SLP204
     T01390000 $=
KGDP 212251Z AUTO 25029G38KT 9SM CLR 23/04 A3002 RMK AO2 PK WND
     25041/2209 SLP104 T02280044=
KATT 212251Z AUTO 20007KT 160V220 10SM CLR 28/09 A2991 RMK AO2
     SLP118 T02830089=
KP68 212253Z AUTO 28012G20KT 22/M13 A2990 RMK AO1 SLP069
     T02171133=
KDRA 212253Z AUTO 23013G19KT 10SM CLR 27/M03 A2987 RMK AO2 SLP079
     T02721033=
KOQT 212253Z AUTO 00000KT 10SM CLR 16/02 A3007 RMK AO2 SLP186
     T01560017=
KSDB 212253Z AUTO CLR 23/03 A3000 RMK AO2 SLP106 T02330033 $=
KMWT 212253Z AUTO 00000KT 10SM CLR 26/06 A2983 RMK AO2 SLP099
     T02610056=
KFMN 212253Z 29009KT 10SM CLR 21/M03 A2998 RMK AO2 SLP119
     T02111028=
KFNB 212253Z AUTO 21005KT 10SM CLR 28/06 A2957 RMK AO2 SLP008
     T02780056=
KGCC 212253Z AUTO 34007KT 10SM CLR 21/M04 A2952 RMK AO2 SLP971
     T02061044=
KGRR 212253Z 18009KT 10SM FEW150 FEW250 18/05 A2970 RMK AO2 SLP059
     T01780050=
KHLC 212253Z AUTO 01003KT 10SM CLR 28/M02 A2962 RMK AO2 SLP017
     T02831017=
KHSV 212253Z 19005KT 10SM CLR 21/08 A3002 RMK AO2 SLP165
     T02060078=
KHVR 212253Z AUTO 30010KT -RA SCT011 OVC046 08/07 A2956 RMK AO2
     SLP018 P0003 T00780067 $=
KCUT 212253Z AUTO 23006KT 10SM CLR 18/M08 A2959 RMK AO2 SLP971
     T01831083=
KDAB 212253Z 35009KT 10SM CLR 20/09 A3004 RMK AO2 SLP172
     T02000094=
KDAL 212253Z 18013G20KT 10SM CLR 31/07 A2979 RMK AO2 SLP083
     T03110072=
KDBQ 212253Z 21005KT 10SM CLR 21/04 A2961 RMK AO2 SLP029
     T02110039=
KDMN 212253Z AUTO 27014G20KT 10SM CLR 27/07 A2999 RMK AO2 SLP100
     T02670067=
KDRT 212253Z AUTO 13011KT 10SM CLR 28/13 A2988 RMK AO2 SLP112
     T02780128=
KEMP 212253Z AUTO 18018G24KT 10SM CLR 29/03 A2962 RMK AO2 PK WND
     19029/2156 SLP024 T02940028=
KBTR 212253Z 19013KT 10SM BKN065 26/13 A3001 RMK AO2 SLP160
     T02560128=
KCDR 212253Z AUTO 19007KT 10SM CLR 24/M08 A2949 RMK AO2 SLP980
     T02441083=
KCLL 212253Z 17015G20KT 10SM CLR 29/10 A2990 RMK AO2 SLP119
     T02890100=
