SAUS70 KWBC 220012
METAR
KDYA 220015Z AUTO 00000KT 10SM CLR 15/13 A3004 RMK AO2
     T01500130=
KFRH 220015Z AUTO 17003KT 10SM CLR 17/00 A2993 RMK AO1=
KGWW 220015Z AUTO 00000KT 10SM CLR 10/07 A3013 RMK AO2
     T00950065=
KIPJ 220015Z AUTO 00000KT 10SM CLR 07/05 A3013 RMK AO2
     T00740045=
KJYO 220015Z AUTO 18004KT 10SM CLR 12/02 A3014 RMK AO2=
KMRN 220015Z AUTO 00000KT 10SM CLR 07/05 A3016 RMK AO2
     T00690051=
KMYJ 220015Z AUTO 15006KT 10SM CLR 17/03 A2972 RMK AO2=
KOIC 220015Z AUTO 20003KT 10SM CLR 06/M01 A3010 RMK AO2
     T00631014=
KPBH 220015Z AUTO 00000KT 10SM CLR 07/02 A2961 RMK AO2
     T00650018=
KPTB 220015Z AUTO 00000KT 10SM CLR 07/04 A3015 RMK AO2
     T00680044=
KVNW 220015Z AUTO 19010KT 10SM CLR 16/00 A2988 RMK AO2=
