SAUS70 KWBC 212318 RRI
METAR
KSZT 212315Z AUTO 20008KT 168V228 7SM -RA SCT010 OVC018 04/03
     A2966 RMK AO2=
KSZY 212315Z AUTO 17006KT 10SM CLR 21/10 A2994 RMK A01=
KT89 212315Z AUTO 15005KT 10SM CLR 30/07 A2991 RMK A01=
KTBX 212315Z AUTO 10SM CLR 14/M08 A2977 RMK AO2=
KTHA 212315Z AUTO 16005KT 10SM CLR 18/02 A3002 RMK A01=
KTNU 212315Z AUTO 27004KT 10SM CLR 23/01 A2960 RMK A01=
KTQH 212315Z AUTO 16007KT 10SM CLR 27/M01 A2977 RMK AO2=
KTQV 212315Z AUTO 09004KT 10SM CLR 17/M01 A3012 RMK A01=
KU68 212315Z AUTO 25008KT 10SM BKN120 21/M03 A2950 RMK AO2=
KUCY 212315Z AUTO 16006KT 10SM CLR 21/09 A2987 RMK A01=
KUSE 212315Z AUTO 20010KT 10SM CLR 18/02 A2982 RMK AO2=
KUVA 212315Z AUTO 19006KT 10SM CLR 27/09 A2994 RMK AO2
     T02710088=
KVCV 212315Z AUTO VRB06KT 180V260 10SM CLR 28/M04 A2991 RMK
     AO2=
KWBF 212315Z AUTO 00000KT 10SM 24/14 A3006 RMK A01=
KXLL 212315Z AUTO 17003KT 10SM CLR 12/01 A3013 RMK AO2=
PAAD 212315Z AUTO 10020KT 10SM OVC012 M04/M06 A2985 RMK AO2
     T10421058=
PAUT 212315Z AUTO 19009KT 10SM SCT009 BKN120 06/05 A3011 RMK
     AO2=
PAAD 212315Z AUTO 10020KT 10SM OVC012 M04/M06 A2985 RMK AO2
     T10421058=
PAUT 212315Z AUTO 19009KT 10SM SCT009 BKN120 06/05 A3011 RMK
     AO2=
KBTN 212310Z AUTO 15005KT 6SM HZ CLR 15/M00 A2954 RMK AO2=
KOAR 212315Z AUTO 29009KT 10SM OVC009 05/01 A2990 RMK AO2
     PWINO=
