SAUS70 KWBC 220000
METAR
KLBT 212356Z AUTO 00000KT 10SM CLR 11/06 A3012 RMK AO2 SLP198
     T01110061 10222 20111 53010 TSNO=
KNFE 212356Z AUTO 00000KT 10SM CLR 11/07 A3015 RMK AO2 SLP212
     T01060067 10206 20106 53007=
KGRY 212355Z AUTO 10008KT 10SM FEW040 22/13 A3007 RMK A01=
KHFF 212355Z AUTO 00000KT 10SM CLR 10/04 A3010 RMK AO2 SLP198
     T00950035 10212 20095 52010=
KHVN 212353Z 20005KT 10SM CLR 15/07 A3015 RMK AO2 SLP210 T01500072
     10178 20094 53012=
KHWV 212356Z AUTO 00000KT 10SM CLR 09/07 A3016 RMK AO2 SLP213
     T00940067 10172 20094 53010=
KHYA 212356Z 21006KT 10SM CLR 13/07 A3017 RMK AO2 SLP216 T01330067
     10161 20133 53013=
KIWA 212357Z 20004KT 10SM CLR 30/11 A2982=
KJMS 212356Z AUTO 17003KT 10SM FEW110 12/00 A2952 RMK AO2 SLP004
     T01170000 10167 20117 55008=
KJXN 212356Z 17009KT 10SM CLR 16/04 A2978 RMK AO2 SLP088 T01610039
     10211 20150 53004=
KLAS 212356Z 16007KT 10SM FEW220 29/M02 A2980 RMK AO2 SLP072
     T02941017 10294 20244 56026=
KLNR 212356Z AUTO 00000KT 9SM CLR 16/03 A2962 RMK AO2 SLP028
     T01560028 10272 20144 53018=
KMDT 212356Z 08003KT 10SM CLR 11/04 A3011 RMK AO2 SLP198 T01060044
     10183 20089 53010=
KPZZ 212355Z AUTO 14008KT 10SM CLR 22/13 A3007 RMK A01=
KSBP 212356Z 31011KT 10SM CLR 19/13 A2988 RMK AO2 SLP116 T01890128
     10239 20172 55000=
KSDF 212356Z 17009KT 10SM SCT250 19/00 A2996 RMK AO2 SLP143
     T01940000 10239 20194 53005=
KTPH 212356Z AUTO 23008KT 10SM CLR 22/M08 A2994 RMK AO2 SLP094
     T02221078 10239 20161 56017=
KTTS 212355Z AUTO 35005KT 10SM FEW070 18/13 A3001 RMK AO2 SLP167
     T01810127 10242 20181 53003 $=
KUKI 212356Z AUTO 28005KT 10SM CLR 25/08 A2980 RMK AO2 SLP084
     T02500083 10294 20194 56011=
KVOA 220000Z AUTO 09006KT 10SM FEW050 21/10 A3010 RMK A01=
KVPZ 212356Z AUTO 20010G19KT 10SM CLR 21/03 A2977 RMK AO2 SLP082
     T02060028 10250 20206 53010 $=
KWJF 212356Z 24016KT 10SM CLR 28/08 A2985 RMK AO2 SLP096 T02780078
     10311 20244 56010=
KADS 212347Z 16010G15KT 10SM SKC 28/06 A2980=
KATP 212355Z AUTO 10010KT 060V130 10SM BKN042 23/14 A3007 RMK
     A01=
KBAF 212353Z 21003KT 10SM CLR 07/01 A3013 RMK AO2 SLP207 T00720011
     10172 20072 51016=
KBJJ 212356Z AUTO 18006KT 10SM CLR 12/02 A2998 RMK AO2 SLP156
     T01170017 10183 20117 53015=
KBQX 212355Z AUTO 17015KT 10SM 24/14 A3000 RMK A01=
KCEC 212356Z AUTO 11004KT 7SM OVC020 16/09 A2993 RMK AO2 RAB22E33
     SLP135 P0000 60000 T01560089 10172 20144 58012=
KCTB 212356Z AUTO 09004KT 10SM FEW008 BKN075 OVC090 04/03 A2954
     RMK AO2 RAE11 SLP015 P0000 60001 T00390033 10094 20039
     58006=
KCXY 212356Z 00000KT 10SM CLR 12/02 A3012 RMK AO2 SLP202 T01170022
     10189 20111 53010=
KDAY 212356Z 20010KT 10SM BKN250 18/00 A2995 RMK AO2 SLP141
     T01780000 10222 20178 53011=
KDDH 212354Z AUTO 00000KT 10SM CLR 07/M04 A3009 RMK AO2 SLP197
     T00671039 10156 20067 53009 $=
KDIK 212356Z AUTO 02007KT 10SM OVC100 12/02 A2949 RMK AO2 SLP994
     T01170022 10172 20117 52012=
KEAU 212356Z 00000KT 10SM CLR 12/03 A2961 RMK AO2 SLP030 T01170033
     10200 20117 53013=
KEED 212356Z AUTO 00000KT 10SM CLR 32/04 A2977 RMK AO2 SLP052
     T03220039 10328 20278 56020=
KEKO 212356Z AUTO 26020KT 10SM -RA CLR 22/M10 A2981 RMK AO2 PK WND
     24028/2305 SLP068 P0000 60000 T02171100 10244 20161 56016=
KELZ 212356Z AUTO 19008KT 10SM CLR 12/M03 A3003 RMK AO2 SLP177
     T01221028 10161 20122 51012=
KFDR 212353Z AUTO 22013KT 10SM CLR 28/01 A2968 RMK AO2 PK WND
     21030/2304 SLP035 60000 T02830006 10339 20283 56009=
KGHB 212355Z AUTO VRB06KT 8SM BKN044 23/13 A3005 RMK A01=
KGLX 212355Z AUTO 05009KT 10SM CLR 21/12 A3008 RMK A01=
