SACA41 KWBC 220200 RRA
METAR
MUCL 220150Z AUTO VRB09KT 25/19 Q1015=
