SAUS70 KWBC 220200 RRW
METAR
KOLF 220153Z AUTO 07005KT 10SM OVC019 07/05 A2957 RMK AO2 SLP025
     T00670050=
KORS 220155Z AUTO 00000KT 8SM -RA SCT044 OVC060 09/ A2969 RMK
     AO2=
KRKS 220154Z AUTO 27018G28KT 10SM CLR 13/M09 A2982 RMK AO2 PK WND
     27029/0101 SLP055 T01281094=
KRPH 220155Z AUTO VRB06KT 10SM CLR 26/03 A2977 RMK AO2 T02550035
     $=
KSVC 220155Z AUTO 34008KT 10SM CLR 14/09 A3006 RMK AO2
     T01370091=
KTME 220155Z AUTO 18007KT 10SM CLR 22/15 A3001 RMK AO2=
K6B9 220155Z AUTO 18008G20KT 150V220 10SM CLR 12/M02 A3003 RMK
     AO2=
K9D7 220155Z AUTO 01005KT 6SM BR SCT029 BKN047 OVC060 07/06 A2958
     RMK AO2 TSNO=
KC29 220155Z AUTO 00000KT 10SM CLR 10/05 A2967 RMK AO1
     T00980046=
KCFJ 220155Z AUTO 16008KT 10SM CLR 12/M01 A2988 RMK AO2
     T01201014=
KCKZ 220155Z AUTO 00000KT 10SM CLR 04/03 A3017 RMK AO2=
KD60 220155Z AUTO 00000KT 10SM SCT028 OVC035 05/05 A2958 RMK
     AO2=
KGED 220154Z AUTO 00000KT 10SM CLR 09/06 A3019 RMK AO2 SLP222
     T00890061=
KGHW 220155Z AUTO 13005KT 10SM CLR 10/01 A2959 RMK AO2=
KI68 220155Z AUTO 15005KT 10SM CLR 13/01 A2998 RMK AO1
     T01310012=
KIDI 220155Z AUTO 00000KT 10SM FEW045 BKN055 05/02 A3010 RMK
     A01=
KIMT 220154Z AUTO 00000KT 10SM CLR 04/02 A2962 RMK AO2 SLP040
     T00440017=
KMVE 220155Z AUTO 14006KT 5SM HZ CLR 08/01 A2959 RMK AO2=
KN38 220155Z AUTO 19009KT 10SM CLR 08/M02 A3007 RMK AO2=
KOCQ 220155Z AUTO 26003KT 10SM CLR 07/05 A2963 RMK AO1
     T00700048=
KOEO 220155Z AUTO 00000KT 10SM CLR 06/04 A2965 RMK AO2
     T00580037=
KPSF 220154Z AUTO 00000KT 10SM CLR 03/M01 A3013 RMK AO2 SLP205
     T00281011=
KROX 220155Z AUTO 25006KT 10SM OVC090 13/01 A2953 RMK AO2=
KRVL 220155Z AUTO 00000KT 10SM CLR 05/02 A3013 RMK AO2=
KS32 220155Z AUTO 00000KT 9SM FEW037 SCT050 BKN060 09/M00 A2956
     RMK AO2 TSNO=
KSPF 220155Z AUTO 20011KT 10SM CLR 12/M04 A2952 RMK AO2=
K06D 220155Z AUTO 00000KT 10SM SCT038 BKN044 OVC055 05/05 A2956
     RMK AO2=
K2D5 220155Z AUTO 15009KT 5SM HZ BKN022 BKN026 OVC049 10/00 A2955
     RMK AO2=
K5H4 220155Z AUTO 00000KT 10SM OVC060 09/05 A2957 RMK AO2=
K82C 220155Z AUTO 00000KT 10SM CLR 07/04 A2964 RMK AO2
     T00740038=
K96D 220155Z AUTO 30004KT 10SM FEW044 FEW060 OVC070 09/08 A2956
     RMK AO2=
KAKR 220154Z AUTO 18010KT 10SM CLR 14/M01 A2998 RMK AO2 SLP154
     T01441011=
KD57 220155Z AUTO 00000KT 10SM FEW040 SCT050 OVC070 10/M02 A2952
     RMK AO2=
KEKM 220155Z AUTO 19009KT 10SM CLR 17/03 A2982 RMK AO2
     T01680034=
KFIG 220154Z AUTO 34003KT 10SM CLR 06/M01 A3009 RMK AO2 SLP197
     T00611006=
KGAI 220156Z AUTO 13006KT 10SM CLR 10/02 A3016 RMK AO2 SLP229
     T01000022=
KGWR 220155Z AUTO 19004KT 6SM HZ BKN023 OVC048 10/00 A2955 RMK
     A01=
KI67 220155Z AUTO 00000KT 10SM CLR 12/01 A2997 RMK AO1=
KIZG 220154Z AUTO 29003KT 10SM CLR 00/M01 A3014 RMK AO2 SLP212
     T00001011=
KLWA 220155Z AUTO 20011G17KT 10SM CLR 20/02 A2976 RMK AO2
     T01950020=
KRYV 220155Z AUTO 00000KT 10SM CLR 08/03 A2968 RMK AO2
     T00840031=
KRZN 220155Z AUTO 17003KT 10SM CLR 07/02 A2962 RMK AO2
     T00660020=
KY19 220155Z AUTO 09009KT 10SM FEW041 BKN110 11/02 A2951 RMK
     AO2=
KPTV 220156Z AUTO 00000KT 10SM CLR 25/09 A2978 RMK AO2 SLP081
     T02500094=
KPUJ 220155Z AUTO 19004KT 7SM CLR 11/02 A3013 RMK AO2=
KPVJ 220155Z AUTO 16005KT 10SM CLR 23/06 A2975 RMK AO2
     T02260060=
KPVU 220156Z 06004KT 10SM CLR 13/01 A2980 RMK AO2 SLP075
     T01330006=
KPWT 220156Z AUTO 00000KT 10SM -RA OVC011 08/08 A2970 RMK AO2
     SLP061 P0006 T00780078=
KPYX 220155Z AUTO 22005KT 10SM CLR 14/M07 A2966 RMK AO2
     T01421075=
