SACA35 KWBC 212300 RRB
METAR
MGPB 212300Z 27006KT 9999 FEW018 BKN080 24/23 Q1012 A2988=
MNPC 212300Z 06004KT 6000 VCRA SCT016TCU SCT300 28/25 Q1009
     TCURA/SE/SW/W=
