SACA32 KWBC 212300 CCA
METAR
TISX 212253Z 05006KT 10SM SCT023 28/23 A2989 RMK AO2 SLP121
     T02780228 $=
