SAUS70 KWBC 220000 RRB
METAR
KDYT 212355Z AUTO 28006KT 10SM FEW043 FEW050 13/04 A2957 RMK
     AO2=
KECG 212354Z 07005KT 10SM CLR 13/08 A3014 RMK AO2 SLP207 T01330083
     10206 20128 53008=
KBIV 212353Z AUTO 19011KT 10SM CLR 18/04 A2970 RMK AO2 SLPNO
     T01830044 10222 20183 53005=
KCPS 212353Z 16006KT 10SM CLR 21/03 A2979 RMK AO2 SLP086 T02060028
     10278 20206 53006 $=
KD55 212355Z AUTO 27012KT 240V300 10SM BKN055 OVC070 11/02 A2952
     RMK AO2=
KDVN 212352Z AUTO 18006KT 10SM CLR 21/04 A2966 RMK AO2 SLP041
     T02060039 10267 20206 53008=
KFIT 212352Z AUTO 00000KT 10SM CLR 07/02 A3014 RMK AO2 SLP211
     T00670017 10172 20067 53016=
KFLD 212353Z AUTO 21004KT 10SM CLR 18/03 A2962 RMK AO2 SLP031
     T01780028 10250 20178 51026=
KHEI 212353Z AUTO 17006KT 10SM CLR 17/00 A2947 RMK AO2 SLP976
     T01670000 10206 20150 56009=
KHGR 212353Z 14005KT 10SM CLR 13/M01 A3010 RMK AO2 SLP207
     T01281011 10178 20128 53007 $=
KHSI 212353Z AUTO 00000KT 9SM CLR 17/M01 A2961 RMK AO2 SLP023
     T01721011 10256 20172 55006=
KIOW 212352Z AUTO 19006KT 10SM CLR 22/02 A2963 RMK AO2 SLP034
     T02170022 10294 20206 53010=
KMSS 212353Z AUTO 17007KT 10SM CLR 11/M02 A2996 RMK AO2 SLP151
     T01061017 10161 20100 53004=
KOMA 212352Z 00000KT 10SM SCT250 18/02 A2959 RMK AO2 SLP018
     T01780017 10250 20178 55003=
KRPD 212355Z AUTO 00000KT 7SM CLR 10/05 A2963 RMK AO2 T00990048
     10192 20099=
PAHN 212354Z AUTO 08007KT 10SM BKN017 OVC035 09/05 A2963 RMK AO2
     SLP037 60000 T00890050 10094 20078 53002 TSNO=
PAKN 212354Z 25012KT 10SM FEW085 07/03 A2997 RMK AO2 PK WND
     27027/2304 RAB10E23 SLP147 P0000 60000 T00720028 10078 20017
     51004=
PASC 212353Z COR 09017KT 6SM BLSN BKN011 BKN033 M03/M04 A2985 RMK
     AO2 SLP109 60000 T10281044 11028 21033 53007=
KCLM 212353Z AUTO 31007KT 4SM -RA BR OVC007 09/07 A2975 RMK AO2
     CIG 004V011 SLP075 P0007 60012 T00940072 10122 20094
     56014=
KDEW 212353Z AUTO 16007KT 10SM BKN004 OVC016 04/03 A2966 RMK AO2
     RAE34 SLP053 P0002 60021 T00390028 10100 20039 56010=
KOAK 212353Z 29011KT 10SM FEW010 SCT160 SCT240 17/12 A2986 RMK AO2
     SLP110 T01670117 10178 20150 56012=
KRXE 212353Z AUTO 20015G26KT 10SM CLR 18/M03 A2963 RMK AO2 PK WND
     20037/2259 SLP004 T01831028 10206 20161 58023=
KSFF 212353Z VRB04KT 10SM FEW009 BKN018 OVC027 06/03 A2968 RMK AO2
     RAE33 SLP053 P0001 60031 T00560033 10106 20050 58012=
KSHN 212353Z AUTO 00000KT 6SM -RA BR OVC021 09/08 A2970 RMK AO2
     SLP060 P0005 60026 T00890083 10100 20089 56031=
KTKI 212353Z 17012KT 10SM CLR 27/08 A2980 RMK AO2 SLP093 T02720078
     10317 20272 55006=
KTRL 212353Z AUTO 18007KT 10SM CLR 26/07 A2983 RMK AO2 SLP099
     T02610072 10317 20261 55004=
KTYR 212353Z 18007KT 10SM CLR 24/12 A2986 RMK AO2 SLP107 T02440117
     10306 20244 55008 $=
KUTS 212353Z AUTO 17004KT 10SM CLR 27/11 A2991 RMK AO2 SLP125
     T02670111 10300 20267 56002=
KBYI 212353Z AUTO 21006KT 10SM CLR 15/03 A2970 RMK AO2 SLP038
     T01500033 10211 20150 58017=
KCAG 212353Z AUTO 27011KT 10SM CLR 16/M08 A2984 RMK AO2 PK WND
     26030/2254 SLP089 T01611083 10211 20161 56017=
KCNM 212353Z AUTO 25013KT 10SM CLR 26/03 A2985 RMK AO2 SLP069
     T02610033 10289 20261 56010=
KGLS 212352Z AUTO 18011KT 10SM CLR 23/16 A3000 RMK AO2 SLP157
     T02330156 10272 20233 55003=
KGYI 212350Z 16009KT 10SM SKC 27/05 A2979=
KHRL 212352Z 13012KT 10SM CLR 25/16 A2995 RMK AO2 SLP141 T02500161
     10311 20250 53003=
KINK 212353Z AUTO 26006KT 10SM CLR 27/04 A2984 RMK AO2 SLP073
     6//// T02720044 10300 20250 56013=
