SAZS31 NSTU 220159
MTRPPG
METAR NSTU 220150Z 10013KT 12SM SCT018 BKN040 BKN120 30/26 A2980 RMK
 SLP093 T03010257=