SAUS80 KWBC 220042
METAR
K40U 220035Z AUTO 32005KT 10SM CLR 15/M09 A2982 RMK AO2
     T01461092=
K4BM 220035Z AUTO 17008G20KT 150V210 10SM CLR 05/M17 A3012 RMK
     AO2=
K9V9 220035Z AUTO 13006KT 10SM CLR 12/01 A2955 RMK AO2
     T01210014=
KGIC 220035Z AUTO 09004KT 10SM SCT033 OVC041 06/06 A2968 RMK AO1
     P0002=
KCKP 220035Z AUTO 07004KT 7SM CLR 13/00 A2960 RMK AO2
     T01340000=
KIZA 220035Z AUTO 27009KT 10SM CLR 19/13 A2987 RMK AO2=
KPSN 220035Z AUTO 17005KT 10SM CLR 24/10 A2989 RMK AO2=
KSOA 220035Z AUTO 19008KT 10SM 24/07 A2996 RMK AO2=
KCBE 220035Z AUTO 32003KT 10SM CLR 11/01 A3013 RMK AO2
     T01070012=
