SAUS70 KWBC 212326
METAR
K2W6 212319Z AUTO 00000KT 10SM CLR 10/07 A3016 RMK AO1=
K3I2 212310Z AUTO 00000KT 10SM CLR 13/01 A3003 RMK AO2
     T01300013=
KCGE 212315Z AUTO 00000KT 10SM CLR 10/06 A3014 RMK A01=
KDCY 212315Z AUTO 18008KT 10SM CLR 17/02 A2989 RMK AO2
     T01670017=
KDLL 212335Z AUTO 00000KT 10SM CLR 18/02 A2961 RMK AO2
     T01770015=
KDNS 212315Z AUTO 9SM 22/M00 RMK AO2=
KEBS 212315Z AUTO 01005KT 8SM CLR 18/00 A2960 RMK AO2=
KEVM 212321Z AUTO 25004KT 10SM CLR 11/02 A2958 RMK AO2=
KFME 212319Z AUTO 00000KT 10SM CLR 07/02 A3016 RMK AO1=
KGAF 212335Z AUTO 27009KT 9SM FEW095 13/01 A2952 RMK AO2=
KGGF 212315Z AUTO 22011G19KT 10SM CLR 26/M09 A2961 RMK AO2=
KIIB 212315Z AUTO 29003KT 5SM HZ CLR 18/02 A2963 RMK AO2
     T01790023=
KIJX 212315Z AUTO 17007KT 10SM CLR 22/03 A2973 RMK AO2
     T02160027=
KJYR 212315Z AUTO 17005KT 9SM CLR 21/M01 A2959 RMK AO2=
KLOT 212315Z AUTO 18010KT 10SM CLR 21/04 A2971 RMK AO2=
KMGC 212315Z AUTO 19009G14KT 10SM CLR 20/02 A2974 RMK AO2=
KMLE 212315Z AUTO 00000KT 10SM CLR 21/04 A2958 RMK AO2
     T02050035=
KMPZ 212310Z AUTO 19006KT 10SM CLR 24/09 A2963 RMK AO2=
KMQB 212315Z AUTO 19009KT 10SM CLR 22/00 A2970 RMK AO2
     T02180001=
KRCR 212315Z AUTO 20007KT 10SM CLR 19/03 A2981 RMK AO2=
KTAZ 212315Z AUTO 18009KT 10SM CLR 21/03 A2979 RMK AO2
     T02080032=
KTIF 212315Z AUTO 15005KT 10SM CLR 21/M02 A2959 RMK AO2
     T02051023=
KUYF 212315Z AUTO 18007KT 10SM CLR 12/M01 A2995 RMK AO2=
KVES 212315Z AUTO 20006KT 10SM CLR 17/M02 A2991 RMK AO2=
KW99 212320Z AUTO 00000KT 10SM CLR 11/03 A3008 RMK AO2=
KEZS 212335Z AUTO 00000KT 10SM CLR 17/04 A2958 RMK AO2
     T01710043=
KJVY 212315Z AUTO 18005KT 10SM CLR 18/01 A2994 RMK AO2 PWINO=
KTNB 212310Z AUTO 00000KT 10SM CLR 09/M02 A3014 RMK AO2
     T00861021=
KW63 212335Z AUTO 00000KT 10SM CLR 11/06 A3012 RMK AO1=
K20V 212315Z AUTO 24012G26KT 10SM CLR 16/M09 A2992 RMK AO2=
KANK 212310Z AUTO 24015G22KT 10SM CLR 18/M13 A3002 RMK AO1
     T01791128=
KBMC 212310Z AUTO 10SM CLR 22/M07 A2978 RMK AO1 T02201068=
KC99 212311Z AUTO 28013G20KT 10SM CLR 06/M13 A3006 RMK AO2=
KDUB 212314Z AUTO 28028G40KT 10SM CLR 13/M08 A2970 RMK AO2=
KDWX 212310Z AUTO 21012G19KT 10SM CLR 15/ A2988 RMK AO2 T0152=
KE11 212310Z AUTO 27008KT 10SM CLR 27/01 A2989 RMK AO2
     T02710006=
KEAN 212310Z AUTO 27012G18KT 10SM CLR 23/M12 A2961 RMK AO2
     T02301125=
KEDC 212315Z AUTO 20009KT 10SM CLR 28/08 A2989 RMK AO2=
KGLE 212315Z AUTO 17011G15KT 10SM CLR 29/02 A2978 RMK AO2
     T02920023=
KGNB 212315Z AUTO 24013G26KT 10SM CLR 14/M10 A2995 RMK AO2
     T01441100=
KGNC 212315Z AUTO 23009KT 10SM CLR 26/01 A2992 RMK AO2
     T02630006=
KGOP 212315Z AUTO 10SM CLR 29/07 A2987 RMK AO2=
KHBV 212310Z AUTO 16006KT 5SM HZ CLR 28/11 A2994 RMK AO2
     T02800109=
KHEQ 212315Z AUTO 24005KT 10SM CLR 26/M06 A2965 RMK AO2=
KHSG 212310Z AUTO 25018G26KT 10SM CLR 20/M03 A2955 RMK AO2
     T02011031=
KLUV 212315Z AUTO 25011KT 10SM CLR 27/M01 A2986 RMK AO2=
KMMH 212314Z AUTO 26015KT 10SM CLR 19/M09 A3007 RMK AO2=
KORG 212315Z AUTO 19009KT 10SM CLR 25/16 A3000 RMK AO2
     T02500162=
KOSA 212310Z AUTO 18006KT 10SM CLR 27/10 A2985 RMK AO2
     T02660102=
KOZA 212315Z AUTO 19013G22KT 10SM CLR 26/07 A2993 RMK AO2=
KPAN 212315Z AUTO 20009KT 10SM CLR 22/04 A3005 RMK AO2 PWINO
     TSNO=
KPEQ 212315Z AUTO 24008KT 10SM CLR 29/06 A2986 RMK AO2
     T02930059=
KPVW 212310Z AUTO 25012KT 10SM CLR 26/00 A2979 RMK AO2 T02601001
     TSNO=
KSLR 212310Z AUTO 18008KT 10SM CLR 28/07 A2985 RMK AO2
     T02830066=
KTXW 212310Z AUTO 16011KT 10SM CLR 28/15 A2994 RMK AO2
     T02800153=
