SAKA31 PTSA 220200
METAR PTSA 220150Z 04010KT 10SM BKN020TCU BKN130 BKN300 31/24 A2975
RMK TCU NE
