SATO31 NFTF 220100
METAR NFTV 220100Z 07003KT 9999 FEW018 SCT100 28/24 Q1011=

METAR NFTL 220100Z 00000KT 9999 SCT016TCU BKN100 26/22 Q1011=

METAR NFTF 220100Z 13010G22KT 9999 -RA FEW009 SCT016 BKN100 25/22 Q1013=



