SAUS80 KWBC 220200
METAR
KP53 220156Z AUTO 19005KT 06/04 A2962 RMK AO1 SLP035 T00560039=
KINW 220156Z AUTO 22008KT 10SM CLR 17/04 A2999 RMK AO2 SLP119
     T01720044=
KJAX 220156Z 00000KT 10SM CLR 11/07 A3011 RMK AO2 SLP197
     T01060067=
KMOB 220156Z 17004KT 10SM CLR 16/09 A3011 RMK AO2 SLP193 T01610089
     $=
KOFK 220156Z AUTO 13004KT 10SM CLR 10/M02 A2959 RMK AO2 SLP021
     T01001017=
KSDM 220153Z COR 28004KT 10SM FEW015 18/15 A2988 RMK AO2 SLP114
     T01830150=
KTKC 220155Z AUTO 00000KT 10SM 11/00 A2962 RMK AO2 T01071004=
TJSJ 220156Z 14003KT 10SM SCT028 28/23 A2996 RMK AO2
     RAB12E21B52E56 SLP142 P0000 T02780228=
K9MN 220155Z AUTO 13005KT 10SM CLR 14/03 A2966 RMK AO1
     T01370025=
KCAE 220156Z 00000KT 10SM CLR 08/04 A3014 RMK AO2 SLP206
     T00830039=
KCHS 220156Z 33003KT 10SM CLR 10/07 A3014 RMK AO2 SLP205
     T01000072=
KFSD 220156Z 11006KT 10SM FEW250 12/02 A2959 RMK AO2 SLP022
     T01170017=
KGNR 220156Z AUTO 16004KT 07/M02 A3008 RMK AO1 SLP195
     T00721017=
KSMP 220156Z AUTO VRB04KT 1/2SM -SN FG VV002 01/00 A2963 RMK AO2
     SLP047 P0002 T00110000=
KALK 220156Z AUTO 23008KT 10SM CLR 19/11 A3006 RMK AO2 SLP107
     T01940106=
KGNA 220156Z AUTO 31004KT 13/02 A2957 RMK AO1 SLP013 T01330022=
K2WX 220156Z AUTO 02014KT 13/03 A2950 RMK AO1 PK WND 36030/0110
     SLP991 T01330033=
K40U 220155Z AUTO 23007KT 10SM CLR 10/M09 A2983 RMK AO2
     T01001088=
K48A 220155Z AUTO 00000KT 10SM CLR 07/04 A3014 RMK AO2
     T00740038=
KBIH 220156Z AUTO 17009KT 10SM CLR 18/M06 A2985 RMK AO2 SLP083
     T01831061=
KBZN 220156Z 32007KT 10SM -RA OVC055 09/05 A2959 RMK AO2 SLP010
     P0000 T00940050=
KWMC 220156Z AUTO 24012KT 10SM CLR 22/M06 A2975 RMK AO2 SLP057
     T02171061 $=
KCTY 220155Z AUTO 00000KT 10SM CLR 08/05 A3011 RMK AO2
     T00830049=
KLWS 220156Z 07008KT 9SM -RA OVC046 07/05 A2965 RMK AO2 SLP045
     P0004 T00720050=
KSFO 220156Z 29008KT 10SM FEW009 FEW180 BKN200 15/12 A2985 RMK AO2
     SLP107 T01500117=
KD07 220156Z AUTO 13013KT 14/01 A2945 RMK AO1 SLP979 T01390011=
KMWN 220155Z 26030KT 70SM SCT040 02/M15 RMK=
KAAT 220155Z AUTO 24009KT 10SM CLR 17/M01 A2980 RMK AO2 SLP080
     T01671006=
KRLD 220155Z AUTO 00000KT 10SM UP SCT075 OVC100 10/09 A2965 RMK
     AO2 P0005 T00990090=
KPHP 220155Z AUTO 11005KT 10SM CLR 16/01 A2943 RMK AO2 SLP964
     T01610006=
KSYN 220155Z AUTO 20004KT 5SM HZ CLR 09/02 A2963 RMK AO2
     T00920019=
KAST 220155Z AUTO 06013KT 2 1/2SM RA BR OVC017 10/09 A2960 RMK AO2
     SLP023 P0008 T01000089=
KMKN 220155Z AUTO 18010KT 10SM CLR 24/07 A2986 RMK AO2
     T02400067=
KS39 220155Z AUTO 29007KT 7SM -RA FEW018 SCT027 BKN034 12/09 A2965
     RMK AO2 P0002=
KEDU 220200Z AUTO 20009KT 10SM CLR 18/11 A2974 RMK AO1=
KGNG 220155Z AUTO 21007KT 10SM SCT042 BKN050 OVC110 16/02 A2967
     RMK AO2=
KRNO 220155Z 29012KT 10SM SCT110 BKN220 21/M05 A2985 RMK AO2
     SLP073 ACSL ALQDS T02111050=
KSEP 220155Z AUTO 17006KT 10SM SCT120 23/04 A2987 RMK AO2
     T02280043=
KGPI 220155Z 14007KT 10SM -RA FEW024 SCT034 OVC042 04/03 A2959 RMK
     AO2 RAB52 SLP023 P0000 T00440028=
KSCK 220155Z 32008KT 3SM HZ CLR 21/10 A2977 RMK AO2 SLP079
     T02060100=
KCIR 220155Z AUTO 20004KT 10SM CLR 17/09 A2989 RMK AO2
     T01710088=
KVTI 220155Z AUTO 00000KT 7SM CLR 13/01 A2964 RMK AO2
     T01320005=
K8D3 220156Z AUTO 18007KT 12/01 A2955 RMK AO1 SLP005 T01170011=
K9MN 220155Z AUTO 13005KT 10SM CLR 14/03 A2966 RMK AO1
     T01370025=
KFSD 220156Z 11006KT 10SM FEW250 12/02 A2959 RMK AO2 SLP022
     T01170017=
KMTP 220154Z AUTO VRB04KT 15/09 A3020 RMK AO1 SLP227 T01500094=
