SAUS70 KWBC 220000 RRP
METAR
K2R9 212355Z AUTO 15013G18KT 10SM CLR 26/14 A2994 RMK AO2
     T02550144 10297 20254 402970139=
K2V5 212355Z AUTO 18005KT 10SM CLR 21/M08 A2965 RMK AO2=
K5SM 212355Z AUTO 24009G19KT 10SM CLR 05/M11 A3015 RMK AO2=
KBPG 212355Z AUTO 20009KT 10SM CLR 26/05 A2985 RMK AO2 T02580047
     10287 20253 402870088=
KE42 212355Z AUTO 20009KT 10SM CLR 22/M05 A2968 RMK AO2 T02251047
     10312 20222 403120082=
KEBG 212355Z AUTO 14008KT 10SM CLR 26/15 A2994 RMK AO2 T02640150
     10306 20264 PWINO=
KELA 212355Z AUTO 19010G15KT 10SM CLR 25/15 A2995 RMK AO2
     T02460145 10303 20246=
KFFZ 212354Z 22005KT 10SM CLR 30/09 A2980 RMK AO2 SLP070 T03000094
     10306 20272 58015=
KPEZ 212355Z AUTO 16004KT 10SM CLR 26/10 A2992 RMK AO2 T02630102
     10308 20263=
KSAA 212355Z AUTO 23015G22KT 10SM CLR 15/M11 A2985 RMK AO2=
KSTK 212355Z AUTO 16003KT 10SM CLR 20/M04 A2963 RMK AO2=
KT41 212355Z AUTO 10SM CLR 23/15 A2998 RMK AO2 T02330153 10294
     20232 402940137=
KT74 212355Z AUTO 18006KT 10SM CLR 26/10 A2990 RMK AO2 T02570098
     10301 20255 403010139=
KBAF 212353Z 21003KT 10SM CLR 07/01 A3013 RMK AO2 SLP207 T00720011
     10172 20072 51016=
KGLW 212355Z AUTO 00000KT 10SM CLR 16/03 A2999 RMK AO2 T01630026
     10220 20163=
KHCR 212355Z AUTO 21009G20KT 10SM CLR 19/M10 A2984 RMK AO2=
KHDL 212355Z AUTO 00000KT 10SM FEW031 FEW037 15/05 A3009 RMK
     AO2=
KIIB 212355Z AUTO 00000KT 5SM HZ CLR 14/02 A2964 RMK AO2 T01390016
     10246 20139=
KIJX 212355Z AUTO 16007KT CLR 20/03 A2974 RMK AO2 T02000029 10267
     20200=
KJAS 212355Z AUTO 19009KT 9SM CLR 24/14 A2994 RMK AO2=
KJSV 212358Z AUTO RMK AO2 PWINO TSNO=
KJYR 212355Z AUTO 00000KT 9SM CLR 18/M02 A2960 RMK AO2=
KLLN 212355Z AUTO 25011KT 10SM CLR 24/02 A2984 RMK AO2=
KLMO 212355Z AUTO 24008G15KT 10SM CLR 23/M09 A2972 RMK AO2
     T02321086 10270 20228=
KLOT 212355Z AUTO 18011KT 10SM CLR 20/04 A2973 RMK AO2=
KLUV 212355Z AUTO 24009KT 10SM SCT100 SCT120 25/02 A2985 RMK
     AO2=
KMEI 212358Z 00000KT 10SM CLR 18/14 A3002 RMK AO2 SLP164 T01830139
     10261 20183 53002=
KMJD 212355Z AUTO 15004KT 10SM CLR 17/11 A3006 RMK AO2=
KMLE 212355Z AUTO 00000KT 10SM CLR 17/03 A2959 RMK AO2 T01680026
     10248 20168=
KMQB 212355Z AUTO 17009KT 10SM CLR 20/01 A2970 RMK AO2 T01980010
     10269 20198=
KMRH 212358Z AUTO 01003KT 10SM SCT065 OVC080 15/11 A3011 RMK AO2
     SLP196 T01500111 10206 20150 53008=
KNOW 212355Z AUTO 31010KT 7SM RA SCT017 BKN023 OVC048 09/09 A2974
     RMK AO2 P0004 60008 T00900086 10114 20090=
KNRN 212355Z AUTO 00000KT 10SM CLR 20/M02 A2965 RMK AO2=
KOBE 212355Z AUTO 02008KT 10SM BKN080 BKN085 21/15 A3000 RMK
     AO2=
KORG 212355Z AUTO 20006KT 10SM CLR 24/16 A3001 RMK AO2 T02380163
     10297 20238=
KPPA 212355Z AUTO 23006KT 10SM CLR 24/M01 A2972 RMK AO2 T02381011
     10311 20238=
KPTT 212355Z AUTO 14004KT 10SM CLR 26/M03 A2961 RMK AO2 T02641027
     10303 20264=
KRBO 212355Z AUTO 10SM CLR 24/16 A2995 RMK AO2 T02430157 10293
     20243=
KRCR 212355Z AUTO 19010KT 10SM CLR 19/03 A2981 RMK AO2=
KRGA 212357Z AUTO 00000KT 10SM CLR 16/01 A3002 RMK AO2=
KSLB 212355Z AUTO 08007KT 8SM CLR 15/M00 A2961 RMK AO2=
KSNL 212355Z AUTO 18007KT 10SM CLR 24/00 A2972 RMK AO2 T02381001
     10312 20238=
KT35 212355Z AUTO 18006KT 10SM CLR 26/10 A2989 RMK AO2 T02610100
     10303 20261=
KTAZ 212355Z AUTO 17009G15KT 10SM CLR 20/03 A2980 RMK AO2
     T01970033 10257 20197=
KTBR 212355Z AUTO 00000KT 10SM CLR 11/05 A3010 RMK AO2 T01050050
     10213 20101=
KTIF 212355Z AUTO 16008KT 10SM CLR 18/M02 A2958 RMK AO2 T01791022
     10241 20179=
