SAUS80 KWBC 220144
METAR
KGIC 220135Z AUTO 07003KT 10SM SCT037 BKN043 OVC050 06/06 A2964
     RMK AO1 P0002=
KSOA 220135Z AUTO 00000KT 10SM 22/08 A2997 RMK AO2=
KCUL 220133Z AUTO 17008KT 10SM CLR 13/04 A2989 RMK AO2=
KDVK 220130Z AUTO 00000KT 10SM CLR 09/01 A3003 RMK AO2=
KNY0 220134Z AUTO 16004KT 10SM CLR 07/M02 A3010 RMK AO2=
K9V9 220135Z AUTO 14009KT 10SM CLR 12/02 A2953 RMK AO2
     T01190016=
KCBE 220135Z AUTO 00000KT 10SM CLR 08/02 A3015 RMK AO2
     T00800015=
KNY0 220134Z AUTO 16004KT 10SM CLR 07/M02 A3010 RMK AO2=
