SAUS80 KWBC 220200 RRC
METAR
KCUL 220153Z AUTO 17006KT 10SM CLR 14/04 A2989 RMK AO2=
KDVK 220150Z AUTO 00000KT 10SM CLR 08/01 A3004 RMK AO2=
KNY0 220154Z AUTO 17003KT 10SM CLR 07/M02 A3011 RMK AO2=
KCHS 220156Z 33003KT 10SM CLR 10/07 A3014 RMK AO2 SLP205
     T01000072=
PHTO 220153Z COR 12009KT 10SM FEW013 SCT019 BKN046 26/23 A2997 RMK
     AO2 RAB05E16 SLP148 P0000 T02610233=
