SAUS70 KWBC 220000 RRX
METAR
K0F2 212355Z AUTO 18009KT 10SM CLR 28/03 A2976 RMK AO2 60001
     T02800025 10331 20280=
K0R0 212355Z AUTO 17008KT 10SM CLR 22/11 A3005 RMK AO2=
K1A9 212355Z AUTO 00000KT 10SM CLR 14/09 A3007 RMK AO2 T01360087
     10225 20136=
K1K1 212355Z AUTO 16005KT 10SM CLR 25/M01 A2963 RMK AO2 T02511015
     10305 20251=
K1M5 212355Z AUTO 15006KT 10SM CLR 17/03 A2998 RMK A01=
K1V6 212355Z AUTO 27014KT 10SM CLR 23/M10 A2975 RMK AO2=
K2A0 212355Z AUTO 00000KT 10SM CLR 12/03 A3006 RMK A01=
K2G2 212345Z AUTO 18005KT 10SM CLR 13/M02 A3001 RMK A01=
K2M2 212355Z AUTO 15004KT 10SM FEW037 FEW055 18/09 A2999 RMK
     A01=
K33N 212355Z AUTO 00000KT 10SM FEW048 10/06 A3014 RMK A01=
K36K 212350Z AUTO 14004KT 10SM CLR 25/M04 A2968 RMK AO2=
K3I2 212355Z AUTO 00000KT 10SM CLR 11/01 A3003 RMK AO2 T01080012
     10209 20108=
K3J7 212355Z AUTO 00000KT 10SM CLR 13/01 A3011 RMK AO2=
K3LF 212355Z AUTO 15009KT 10SM CLR 19/03 A2981 RMK AO2 T01910030
     10254 20191=
K3S8 212355Z AUTO VRB05G14KT 10SM FEW044 BKN050 OVC065 20/11 A2986
     RMK AO2=
K46U 212355Z AUTO 27004G14KT 10SM BKN100 17/M06 A2975 RMK A01=
K4V0 212355Z AUTO 24012G16KT 10SM CLR 21/M09 A2982 RMK AO2
     T02061088 10232 20153=
K54A 212355Z AUTO 35004KT 10SM CLR 20/13 A3000 RMK AO2=
K5T9 212355Z AUTO 13005KT 10SM CLR 24/13 A2988 RMK A01=
K65S 212355Z AUTO VRB06G13KT 10SM CLR 05/03 A2960 RMK AO2
     P0002=
K6A2 212355Z AUTO 00000KT 10SM CLR 10/03 A3011 RMK AO2=
K82V 212355Z AUTO 25005KT 10SM CLR 17/M11 A2969 RMK AO2=
K8A3 212355Z AUTO 20004KT 10SM CLR 15/01 A3002 RMK A01=
KAAS 212355Z AUTO 18005KT 10SM CLR 15/00 A3006 RMK AO1=
KACP 212355Z AUTO 18004KT 10SM CLR 23/14 A2998 RMK AO2=
KAEJ 212355Z AUTO 22011KT 10SM 15/M14 A2996 RMK AO2 T01451145
     10186 20145=
KAGI 212355Z AUTO 12009KT 10SM CLR 24/12 A3004 RMK AO2 T02390124
     10291 20238 402910199=
KALX 212355Z AUTO 00000KT 10SM CLR 14/08 A3009 RMK AO2 T01350076
     10208 20135=
KANW 212355Z AUTO 14008KT 10SM CLR 15/00 A2956 RMK AO2 T01451005
     10225 20145=
KARM 212355Z AUTO 19009KT 10SM CLR 23/14 A2998 RMK AO2 T02310136
     10288 20231 TSNO=
KASN 212355Z AUTO 00000KT 10SM CLR 14/06 A3008 RMK AO2 T01420060
     10228 20142=
KAUM 212357Z AUTO 00000KT 10SM CLR 15/03 A2963 RMK AO2=
KAUO 212356Z AUTO 00000KT 10SM CLR 15/06 A3011 RMK AO2 SLP224
     T01500056 10217 20150 53007=
KAVK 212355Z AUTO 18016KT 10SM CLR 29/M03 A2962 RMK AO2 PWINO=
KAVQ 212355Z AUTO 26008KT 10SM CLR 32/05 A2983 RMK AO2
     T03220045=
KAXH 212355Z AUTO 19004KT 10SM CLR 24/15 A2998 RMK AO2 T02350146
     10298 20235=
KAXS 212355Z AUTO 20014KT 10SM CLR 29/01 A2972 RMK AO2 T02860010
     10338 20286=
KAZC 212355Z AUTO 31006KT 10SM CLR 23/00 A2998 RMK AO2=
KBAM 212355Z AUTO 24016G21KT 10SM CLR 24/M07 A2982 RMK AO1=
KBAX 212355Z AUTO 19011KT 10SM CLR 14/04 A2973 RMK AO2 T01400040
     10188 20135=
KBCK 212355Z AUTO 00000KT 10SM CLR 08/03 A2962 RMK AO2 T00760030
     10222 20076=
KBDN 212355Z AUTO 22021G27KT 6SM HZ CLR 16/07 A2969 RMK AO2=
KBDU 212355Z AUTO 24011G17KT 10SM CLR 22/M08 A2972 RMK AO2=
KBGF 212355Z AUTO 17004KT 10SM CLR 16/02 A3004 RMK A01=
KBKD 212355Z AUTO 19008KT 7SM CLR 30/03 A2978 RMK AO2 T02990025
     10335 20299=
KBNW 212355Z AUTO 00000KT 8SM CLR 18/00 A2963 RMK AO2=
KBPC 212355Z AUTO 24007KT 10SM CLR 25/M06 A2968 RMK AO2=
KBTA 212355Z AUTO 00000KT 10SM CLR 20/01 A2959 RMK AO2 T01980007
     10256 20198=
KBTN 212355Z AUTO 15006KT 5SM HZ FEW025 12/M01 A2954 RMK AO2=
KBXA 212355Z AUTO 16009KT 10SM CLR 22/13 A3005 RMK AO2 T02150127
     10283 20215=
