SAUS70 KWBC 220140 RRH
METAR
K5SM 220135Z AUTO 24012G21KT 10SM CLR 02/M11 A3014 RMK AO2=
K7BM 220135Z AUTO 27003KT 10SM CLR 08/M12 A3004 RMK AO2=
KASL 220135Z AUTO 00000KT 10SM CLR 20/12 A2989 RMK AO2 T02040116
     TSNO $=
KBPG 220135Z AUTO 17010KT 10SM CLR 21/06 A2986 RMK AO2
     T02120064=
KC07 220135Z AUTO 25006KT 10SM CLR 04/M08 A3007 RMK AO2=
KE42 220135Z AUTO 20010KT 10SM CLR 19/M04 A2969 RMK AO2
     T01911042=
KEBG 220135Z AUTO 14010KT 10SM CLR 24/17 A2998 RMK AO2 T02350170
     PWINO=
KELA 220135Z AUTO 18009KT 10SM CLR 22/15 A2999 RMK AO2
     T02170145=
KERV 220135Z AUTO 16004KT 10SM CLR 20/09 A2996 RMK AO2
     T02010087=
KFOT 220130Z AUTO 30005KT 10SM OVC024 14/09 A2992 RMK AO1=
KGDJ 220135Z AUTO 17010KT 10SM CLR 26/06 A2984 RMK AO2
     T02600063=
KPSO 220135Z AUTO 00000KT 10SM CLR 11/M05 A3007 RMK AO2
     T01131046=
KRWV 220135Z AUTO 17012G17KT 10SM CLR 23/13 A2994 RMK AO2
     T02320132=
KSAA 220135Z AUTO 21008KT 10SM CLR 11/M11 A2985 RMK AO2=
KT74 220135Z AUTO 17006KT 10SM CLR 21/10 A2992 RMK AO2
     T02100102=
KT82 220135Z AUTO 00000KT 10SM CLR 21/08 A2996 RMK AO2
     T02070079=
KVHN 220135Z AUTO 24005KT 10SM CLR 20/07 A3002 RMK AO2
     T02030073=
KVTP 220135Z AUTO 24014G22KT 10SM CLR 06/M09 A3006 RMK AO2=
