SAUS70 KWBC 220100 RRI
METAR
KBPI 220053Z AUTO 28016KT 10SM CLR 11/M07 A2981 RMK AO2 PK WND
     29029/0010 SLP064 T01061072=
KCLM 220053Z AUTO 30006KT 5SM -RA BR OVC008 09/07 A2973 RMK AO2
     SLP070 P0004 T00890072=
KCNO 220053Z 24010KT 10SM CLR 24/15 A2983 RMK AO2 SLP099
     T02390150=
KDEW 220053Z AUTO 15006KT 10SM FEW003 OVC032 04/03 A2965 RMK AO2
     SLP048 T00390033=
KDVT 220053Z 22006KT 10SM CLR 28/08 A2981 RMK AO2 SLP075
     T02780078=
KLOL 220053Z AUTO 26013KT 10SM CLR 23/M05 A2977 RMK AO2 SLPNO
     T02331050 $=
KMFR 220053Z 30008G17KT 10SM BKN060 OVC100 21/10 A2979 RMK AO2
     SLP082 T02060100=
KPRB 220053Z AUTO 19017KT 10SM CLR 20/09 A2986 RMK AO2 SLP107
     T02000094=
KSAC 220053Z 18007KT 10SM CLR 21/12 A2976 RMK AO2 SLP076
     T02060117=
KSFF 220053Z VRB03KT 10SM FEW047 OVC055 06/04 A2966 RMK AO2 SLP045
     T00560039=
KSMF 220053Z 18015KT 10SM BKN240 22/12 A2973 RMK AO2 SLP066
     T02220117=
KSNA 220053Z 20009KT 10SM FEW012 FEW020 22/16 A2983 RMK AO2 SLP099
     T02170161=
KTIW 220053Z 16003KT 5SM -RA BR SCT009 BKN014 OVC023 08/07 A2971
     RMK AO2 SLP060 P0006 T00830067=
KTVY 220055Z AUTO 16009KT 10SM CLR 16/M03 A2976 RMK AO2=
KBFI 220053Z 17005KT 4SM -RA BR FU BKN012 OVC019 09/07 A2972 RMK
     AO2 SLP063 P0003 T00890072=
KBLI 220053Z 18005KT 5SM -RA BR BKN009 OVC013 09/09 A2971 RMK AO2
     SLP066 P0002 T00940094=
KLMT 220053Z 28013KT 10SM BKN100 16/06 A2982 RMK AO2 SLP084
     T01560061=
KLVM 220053Z AUTO 28014KT 10SM FEW060 OVC075 17/00 A2948 RMK AO2
     SLP949 T01670000=
KMCE 220053Z AUTO 00000KT 10SM CLR 30/06 A2975 RMK AO2 SLP074
     T03000056=
KMLP 220053Z AUTO 3/4SM -SN BR VV001 M03/M03 A2960 RMK AO2 SLP986
     P0002 T10281033=
KMYF 220053Z 21007KT 10SM CLR 20/16 A2986 RMK AO2 SLP106
     T02000161=
KOAK 220053Z 28013KT 10SM FEW010 FEW140 BKN180 BKN240 16/12 A2985
     RMK AO2 PK WND 30028/0039 SLP109 T01560117=
KOGD 220053Z 18007KT 10SM CLR 19/M07 A2975 RMK AO2 SLP038
     T01891067=
KONO 220053Z AUTO 08003KT 9SM SCT080 BKN090 BKN110 18/04 A2963 RMK
     AO2 PRESFR SLP034 T01830039=
KOVE 220053Z AUTO 18007KT 10SM CLR 27/08 A2974 RMK AO2 SLP072
     T02720083=
KPDT 220053Z 17011KT 5SM -RA BR SCT003 SCT034 OVC041 08/06 A2969
     RMK AO2 SLP050 P0002 T00780061=
KPIH 220053Z 22012KT 10SM CLR 17/M03 A2970 RMK AO2 SLP035
     T01671028=
KSTS 220053Z AUTO 18008KT 8SM CLR 14/11 A2984 RMK AO2 SLP097
     T01390106=
KTTD 220053Z 11003KT 2 1/2SM BR BKN026 BKN036 OVC048 11/08 A2971
     RMK AO2 RAE48 SLP060 P0005 T01060083=
KTWF 220053Z 28004KT 10SM CLR 14/01 A2970 RMK AO2 SLP020
     T01440006=
KBUR 220053Z 17009KT 10SM CLR 24/16 A2983 RMK AO2 SLP090
     T02390156=
KGUR 220055Z AUTO 27012KT 9SM CLR 21/M10 A2958 RMK AO2 SLP997
     T02051099=
PASC 220053Z 09019KT 6SM BLSN OVC011 M03/M05 A2986 RMK AO2 PK WND
     09026/0040 SLP112 T10331050=
TIST 220053Z 08007KT 10SM CLR 28/23 A2992 RMK AO2 RAB14E25 SLP131
     P0000 T02780233=
KCOT 220053Z AUTO 13006KT 9SM CLR 23/12 A2992 RMK AO2 SLP125
     T02330122=
KCRS 220053Z AUTO 16008KT 10SM CLR 23/09 A2988 RMK AO2 SLP115
     T02330089=
KDEN 220053Z 27007KT 10SM FEW130 SCT200 19/M11 A2973 RMK AO2
     SLP006 T01891106=
KGTF 220053Z 23003KT 10SM OVC055 08/03 A2953 RMK AO2 SLP995
     T00830028=
KGUR 220055Z AUTO 27012KT 9SM CLR 21/M10 A2958 RMK AO2 SLP997
     T02051099=
KHHR 220053Z 25007KT 10SM BKN010 21/17 A2984 RMK AO2 SLP103
     T02060167 $=
KHQM 220053Z AUTO 04005KT 9SM -RA OVC041 11/09 A2969 RMK AO2
     SLP057 P0000 T01060089=
KPSP 220053Z 11006KT 10SM CLR 32/07 A2976 RMK AO2 SLP073
     T03170067=
