SACA41 KWBC 220100 RRA
METAR
MUCL 220050Z AUTO VRB08KT 25/19 Q1014=
