SAUS70 KWBC 220100 RRQ
METAR
KCKN 220055Z AUTO 23003KT 10SM CLR 12/M02 A2955 RMK AO2=
KDIK 220056Z AUTO 36004KT 10SM BKN100 OVC110 11/02 A2951 RMK AO2
     SLP003 T01060017=
KDMW 220055Z AUTO 15005KT 10SM CLR 12/00 A3014 RMK AO2=
KEAU 220056Z 16003KT 7SM CLR 09/03 A2963 RMK AO2 SLP037
     T00890028=
KEGV 220055Z AUTO 00000KT 10SM CLR 05/02 A2963 RMK AO2
     T00450015=
KFME 220059Z AUTO 00000KT 10SM CLR 05/03 A3018 RMK AO1=
KJXN 220056Z 18011G20KT 10SM CLR 17/03 A2981 RMK AO2 SLP095
     T01720033=
KLNN 220055Z AUTO 20011G16KT 10SM CLR 15/M02 A2992 RMK AO1
     T01501025=
KMWA 220055Z AUTO 20003KT 10SM CLR 17/07 A2989 RMK AO2
     T01740072=
KMWO 220055Z AUTO 25004KT 10SM CLR 10/01 A2997 RMK AO2
     T01000013=
KOLY 220055Z AUTO 16006KT 10SM CLR 16/01 A2988 RMK AO2
     T01600013=
K2R9 220055Z AUTO 15011KT 10SM CLR 23/15 A2996 RMK AO2
     T02310146=
K2V5 220055Z AUTO 18003KT 10SM CLR 18/M08 A2965 RMK AO2=
K5SM 220055Z AUTO 23010G22KT 10SM CLR 02/M11 A3015 RMK AO2=
K7BM 220055Z AUTO 29009G27KT 260V330 10SM CLR 09/M12 A3005 RMK
     AO2=
K81R 220055Z AUTO 17008KT 10SM CLR 25/08 A2989 RMK AO2
     T02480077=
KASL 220055Z AUTO 00000KT 10SM CLR 22/12 A2988 RMK AO2 T02160117
     TSNO $=
KBQX 220055Z AUTO 18019KT 10SM 24/14 A3000 RMK A01=
KEKO 220056Z AUTO 24013G21KT 10SM -RA CLR 19/M08 A2978 RMK AO2
     SLP063 P0000 T01941083=
KOTH 220056Z 21009KT 2 1/2SM -RA BR OVC008 14/13 A2982 RMK AO2 CIG
     006V012 SLP097 P0001 T01390133=
KRWV 220055Z AUTO 17006KT 10SM CLR 24/10 A2993 RMK AO2
     T02350099=
KSGU 220056Z AUTO 26007KT 10SM CLR 25/01 A2983 RMK AO2 SLP076
     T02500006=
KSMN 220056Z AUTO 26009KT 10SM OVC075 13/01 A2965 RMK AO2 PK WND
     23028/0010 SLP748 T01330006=
KT74 220055Z AUTO 17006KT 10SM CLR 23/10 A2991 RMK AO2
     T02250100=
KT82 220055Z AUTO 00000KT 10SM CLR 22/08 A2995 RMK AO2
     T02200079=
KTYL 220055Z AUTO 20008G17KT 10SM CLR 17/03 A3006 RMK AO2=
K1H2 220055Z AUTO 14006KT 10SM CLR 17/03 A2987 RMK AO2
     T01710030=
K57C 220055Z AUTO 21005KT 10SM CLR 19/04 A2967 RMK AO2
     T01850043=
KAHQ 220055Z AUTO 00000KT 10SM CLR 17/00 A2959 RMK AO2
     T01701002=
KHDE 220055Z AUTO 20003KT 10SM CLR 15/M01 A2962 RMK AO2
     T01461012=
KHHG 220055Z AUTO 20005KT 10SM CLR A2987 RMK AO2=
KHLB 220055Z AUTO 18004KT 10SM CLR 14/00 A2994 RMK A01=
KHSB 220055Z AUTO 00000KT 10SM CLR 16/07 A2989 RMK AO2
     T01560074=
KHYA 220056Z 20005KT 10SM CLR 13/07 A3017 RMK AO2 SLP218
     T01280067=
KI74 220055Z AUTO 18005KT 10SM CLR 12/01 A2996 RMK AO2=
KIFA 220055Z AUTO 00000KT 10SM CLR 15/01 A2964 RMK AO2
     T01460010=
KIGQ 220055Z AUTO 20010G14KT 10SM CLR 18/04 A2976 RMK AO2
     T01810043=
KJPX 220055Z AUTO 00000KT 10SM CLR 09/08 A3017 RMK AO2
     T00920075=
KLCG 220055Z AUTO 00000KT 10SM CLR 09/M02 A2960 RMK AO2
     T00921022=
KM30 220055Z AUTO 00000KT 10SM CLR 16/07 A2991 RMK AO2
     T01600071=
KPRG 220055Z AUTO 18010KT 10SM CLR 14/04 A2986 RMK AO2
     T01400037=
KRSV 220055Z AUTO 17005KT 10SM CLR 15/02 A2989 RMK AO2
     T01450015=
KRVL 220055Z AUTO 00000KT 10SM CLR 08/01 A3010 RMK AO2=
KSTE 220055Z AUTO 00000KT 10SM CLR 09/03 A2966 RMK AO2
     T00940027=
KVVS 220055Z AUTO 09003KT 10SM CLR 09/01 A3006 RMK AO2
     T00850011=
KBAF 220053Z 00000KT 10SM CLR 04/02 A3014 RMK AO2 SLP212
     T00440017=
KWJF 220056Z 24013G21KT 10SM CLR 26/07 A2986 RMK AO2 SLP101
     T02560067=
PAGA 220056Z AUTO 10SM FEW017 BKN060 03/01 A2981 RMK AO2 SLP095
     T00280006 $=
TISX 220053Z 06008KT 10SM CLR 28/23 A2992 RMK AO2 SLP130 T02780228
     $=
K0CO 220055Z AUTO 29020G31KT 10SM CLR 00/M13 A3012 RMK AO2=
