SAUS70 KWBC 220000 RRF
METAR
KBDE 212353Z AUTO 19004KT 10SM BKN120 11/00 A2953 RMK AO2 SLP004
     T01110000 10167 20106 52005=
KCDW 212353Z 19003KT 10SM CLR 13/01 A3014 RMK AO2 SLP213 T01280011
     10183 20128 53011=
KCKB 212353Z 00000KT 10SM CLR 13/M01 A3005 RMK AO2 SLP176
     T01281006 10189 20128 53005=
KDFI 212353Z AUTO 19010KT 10SM CLR 18/02 A2984 RMK AO2 SLP107
     T01830022 10228 20178 53013=
KENW 212353Z 22008KT 10SM CLR 21/04 A2966 RMK AO2 SLP045 T02060039
     10250 20206 53019=
KGSH 212353Z AUTO 19011KT 10SM CLR 17/03 A2979 RMK AO2 SLP090
     T01720033 10228 20172 53010=
KHIB 212353Z AUTO 00000KT 10SM CLR 07/03 A2957 RMK AO2 SLP022
     T00720028 10156 20072 51012=
KOQU 212350Z 23008KT 10SM SKC 14/05 A3017=
KOTM 212353Z AUTO 18007KT 10SM CLR 19/02 A2962 RMK AO2 SLP029
     T01940022 10289 20194 53006=
KPCZ 212355Z AUTO 00000KT 10SM CLR 16/03 A2961 RMK AO2 T01560027
     10228 20156=
KSEG 212353Z AUTO 32003KT 10SM CLR 06/02 A3011 RMK AO2 SLP198
     T00560017 10172 20050 53010=
KSTP 212353Z 00000KT 10SM CLR 14/02 A2962 RMK AO2 SLP030 T01440017
     10206 20133 53011=
KTVC 212353Z 21009G20KT 10SM FEW180 18/04 A2961 RMK AO2 SLP026
     T01780044 10222 20178 53027=
KXVG 212353Z AUTO 00000KT 10SM CLR 08/01 A2958 RMK AO2=
KAQP 212353Z AUTO 00000KT 7SM 11/00 A2960 RMK AO2=
KASE 212353Z 29004KT 10SM CLR 14/M08 A2996 RMK AO2 SLP075
     T01391078 10172 20139 56010=
KAUS 212353Z 19008KT 10SM CLR 26/09 A2989 RMK AO2 SLP116 T02610089
     10306 20261 55005=
KBMQ 212353Z AUTO 18008KT 10SM CLR 27/08 A2992 RMK AO2 SLP117
     T02670078 10306 20267 56003=
KCPR 212353Z 23019G27KT 10SM CLR 18/M08 A2960 RMK AO2 PK WND
     25038/2257 SLP984 T01831078 10228 20183 58008=
KDEN 212353Z 30013KT 10SM FEW130 FEW200 22/M11 A2972 RMK AO2
     SLP997 T02221106 10256 20222 56011=
KDRO 212353Z AUTO 25015KT 10SM CLR 16/M03 A3001 RMK AO2 SLP132
     T01611033 10200 20150 55006=
KDWH 212353Z 19009G19KT 10SM CLR 25/14 A2994 RMK AO2 SLP136
     T02500139 10300 20250 55001=
KFTW 212353Z 16009G19KT 10SM CLR 29/07 A2978 RMK AO2 SLP077
     T02890067 10333 20289 56009 $=
KGJT 212353Z 00000KT 10SM CLR 21/M02 A2985 RMK AO2 SLP064
     T02061022 10217 20167 56022=
KGUP 212353Z AUTO 24012G21KT 10SM CLR 18/03 A3005 RMK AO2 SLP101
     T01830028 10206 20172 58013=
KHOU 212353Z 18011KT 10SM FEW045 24/14 A2996 RMK AO2 SLP151
     T02440139 10294 20244 53004=
KIDA 212353Z 22022G36KT 10SM CLR 18/M04 A2967 RMK AO2 PK WND
     21038/2340 SLP021 T01831044 10206 20178 58023=
KLBX 212353Z AUTO 19007KT 10SM CLR 22/15 A2998 RMK AO2 SLP153
     T02170150 10289 20217 53000=
KMFE 212353Z 16009KT 10SM CLR 27/16 A2994 RMK AO2 SLP136 T02670161
     10306 20267 53001 $=
KMTJ 212353Z AUTO 23009KT 10SM CLR 19/M06 A2991 RMK AO2 SLP080
     T01941056 10217 20172 56013=
KMWL 212353Z AUTO 18009KT 10SM CLR 29/04 A2977 RMK AO2 SLP073
     T02940039 10344 20294 56009=
KPIL 212353Z AUTO 14011KT 10SM CLR 24/16 A2997 RMK AO2 SLP147
     T02390161 10278 20239 53001=
KPRC 212353Z 25008KT 10SM CLR 21/04 A3001 RMK AO2 SLP106 T02060039
     10228 20200 58011=
KRKS 212354Z AUTO 26020G32KT 10SM CLR 16/M09 A2983 RMK AO2 PK WND
     26035/2303 SLP049 T01561094 10189 20156 56010=
KSHR 212353Z AUTO 31003KT 10SM CLR 16/02 A2952 RMK AO2 SLP984
     T01560017 10233 20150 53003=
KSIY 212353Z AUTO 31016G21KT 10SM CLR 22/04 A2982 RMK AO2 SLP098
     T02220044 10239 20178 56020=
KSJC 212353Z 31008KT 10SM SCT250 19/12 A2985 RMK AO2 SLP106
     T01940117 10222 20183 57003=
KSNS 212353Z AUTO 31009KT 8SM OVC012 16/12 A2990 RMK AO2 SLP132
     T01610117 10189 20144 53001 TSNO=
