SAUS80 KWBC 212336
METAR
KLYV 212335Z AUTO 00000KT 5SM HZ CLR 14/01 A2961 RMK AO2=
KPOV 212335Z AUTO 00000KT 10SM CLR 12/M02 A2996 RMK AO2 T01231019
     PWINO=
KPZQ 212335Z AUTO 19006KT 10SM CLR 16/06 A2961 RMK AO2
     T01610056=
