SAUS70 KWBC 220118 RRB
METAR
K22N 220115Z AUTO 00000KT 10SM CLR 02/00 A3016 RMK AO2=
K24J 220115Z AUTO 00000KT 10SM 10/04 A3010 RMK A01=
K28J 220115Z AUTO 00000KT 10SM BKN035 BKN041 09/07 A3010 RMK AO2
     TSNO=
K2D5 220115Z AUTO 15006KT 4SM HZ SCT020 OVC050 10/00 A2956 RMK
     AO2=
K2P2 220115Z AUTO 00000KT 5SM BR CLR 06/06 A2961 RMK AO2
     T00610061=
K3AU 220115Z AUTO 18011G16KT 10SM CLR 25/M06 A2965 RMK AO2=
K3N8 220115Z AUTO 18004KT 10SM OVC100 09/00 A2956 RMK AO2
     T00900000=
K42J 220115Z AUTO 08004KT 10SM SCT035 SCT042 SCT055 13/04 A3010
     RMK A01=
K46D 220115Z AUTO 00000KT 7SM FEW039 SCT047 OVC070 10/02 A2956 RMK
     AO2=
K4A6 220115Z AUTO 00000KT 10SM BKN038 BKN044 11/05 A3008 RMK
     AO2=
K4M9 220115Z AUTO 15006KT 10SM CLR 17/10 A2988 RMK AO2 PWINO=
K5H4 220115Z AUTO 34004KT 10SM OVC065 09/05 A2956 RMK AO2=
K6B9 220115Z AUTO 18008G19KT 150V220 10SM 12/M02 A3003 RMK AO2=
K7L2 220115Z AUTO 02007KT 10SM CLR 12/M01 A2953 RMK AO2=
K7W4 220115Z AUTO 00000KT 10SM CLR 08/04 A3015 RMK AO1
     T00780042=
K82C 220115Z AUTO 00000KT 10SM CLR 09/04 A2964 RMK AO2
     T00870040=
K96D 220115Z AUTO 32010G15KT 9SM -RA SCT026 BKN030 OVC039 09/07
     A2955 RMK AO2=
K9D7 220115Z AUTO 36007KT 6SM -DZ BKN039 OVC047 07/06 A2957 RMK
     AO2 TSNO=
KACB 220115Z AUTO 00000KT 10SM CLR 09/07 A2964 RMK AO2
     T00920072=
KACJ 220115Z AUTO 00000KT 10SM CLR 10/03 A3012 RMK AO2
     T01000026=
KAFP 220115Z AUTO 00000KT 10SM CLR 07/02 A3014 RMK AO2
     T00670022=
KAGO 220115Z AUTO 00000KT 10SM CLR 17/13 A2989 RMK A01=
KAIG 220115Z AUTO 24005KT 10SM CLR 09/03 A2965 RMK AO2
     T00860027=
KAIK 220115Z AUTO 07003KT 10SM CLR 09/02 A3013 RMK AO2
     T00910024=
KALM 220115Z AUTO 15008KT 10SM CLR 18/06 A2995 RMK AO2=
KANQ 220115Z AUTO 18008KT 10SM SCT037 SCT046 BKN055 15/03 A2983
     RMK AO2=
KAQX 220115Z AUTO 00000KT 10SM CLR 10/03 A3013 RMK AO2=
KARW 220115Z AUTO 00000KT 10SM CLR 12/08 A3013 RMK AO2=
KASJ 220115Z AUTO 00000KT 10SM SCT065 07/07 A3017 RMK AO2
     T00700070=
KATA 220115Z AUTO 00000KT 10SM CLR 16/13 A2988 RMK AO2 SLP016
     T01600126 $=
KATS 220115Z AUTO 24007KT 10SM CLR 22/09 A2990 RMK AO2=
KAVC 220115Z AUTO 00000KT 10SM CLR 07/07 A3021 RMK AO2
     T00710065=
KBAC 220115Z AUTO 00000KT 10SM SCT110 11/00 A2955 RMK AO2=
KLKU 220115Z AUTO 00000KT 10SM CLR 05/03 A3015 RMK AO2
     T00460025=
KLNP 220115Z AUTO 21004KT 10SM CLR 08/00 A3011 RMK AO2=
KLRO 220115Z AUTO 00000KT 10SM CLR 11/10 A3013 RMK AO2=
KLRU 220115Z AUTO 25008KT 10SM CLR 22/05 A3000 RMK AO2
     T02150052=
KLRY 220115Z AUTO 20006KT 10SM CLR 22/02 A2971 RMK AO2=
KLUX 220115Z AUTO 16003KT 10SM CLR 09/01 A3014 RMK AO2=
KLVL 220115Z AUTO 00000KT 10SM CLR 09/05 A3016 RMK AO1
     T00920052=
KM40 220115Z AUTO 15007KT 10SM CLR 19/13 A3002 RMK AO2=
KMAN 220115Z AUTO 00000KT 10SM CLR 18/04 A2964 RMK A01=
KMAO 220115Z AUTO 00000KT 10SM CLR 08/06 A3014 RMK AO2=
KMBO 220115Z AUTO 00000KT 10SM CLR 17/13 A2999 RMK AO2=
KMBY 220115Z AUTO 17006KT 10SM CLR 21/00 A2970 RMK AO2=
KMDS 220115Z AUTO 16004KT 10SM CLR 12/M01 A2959 RMK AO2=
KMEZ 220115Z AUTO 00000KT 10SM 18/07 A2988 RMK AO2 T01810067 $=
KMKJ 220115Z AUTO 00000KT 10SM CLR 07/00 A3016 RMK AO2
     T00651005=
KMNI 220115Z AUTO 00000KT 10SM TS CLR 07/05 A3014 RMK AO2=
KMTV 220115Z AUTO 00000KT 10SM CLR 04/02 A3018 RMK AO2
     T00440016=
KN38 220115Z AUTO 19007KT 10SM CLR 08/M02 A3007 RMK AO2=
KO22 220115Z AUTO 00000KT 10SM CLR 24/03 A2985 RMK A01=
KO32 220115Z AUTO 00000KT 7SM CLR 27/11 A2976 RMK AO2 T02720109
     $=
KOCQ 220115Z AUTO 00000KT 10SM CLR 08/04 A2962 RMK AO1
     T00750043=
