SACA32 KWBC 212300
METAR
MDLR NIL=
MDPC 212300Z 06008KT 9999 SCT020 SCT300 28/23 Q1012=
MDPP NIL=
MDSD 212300Z 03004KT 9999 FEW018CB BKN018 28/24 Q1012 CB/NE/E=
MDST NIL=
MTCH NIL=
MTPP 212259Z AUTO 28006KT 9000 ////// 28/24 Q1011 A2985 NOSIG=
TAPA NIL=
TIST 212253Z 05008KT 10SM CLR 28/22 A2989 RMK AO2 SLP121
     T02830222=
TJBQ 212250Z 13003KT 10SM SCT023 SCT036 SCT050 26/23 A2991=
TJMZ NIL=
TJNR 212253Z AUTO 05007KT 10SM CLR 27/22 A2991 RMK AO2 SLP127
     T02720217=
TJPS NIL=
TJSJ 212256Z 08008KT 10SM FEW028 FEW050 28/23 A2990 RMK AO2 SLP123
     T02780233=
TKPK 212300Z VRB02KT 9999 -SHRA SCT016 26/23 Q1012=
TKPN NIL=
TQPF 212300Z 07008KT 9999 FEW016 28/24 Q1012=
TRPM NIL=
TUPJ 212300Z 08010KT 10SM SCT019 28/25 A2990 RMK Q1012 VIS16KM=
TUPW NIL=
