SAUS80 KWBC 220028
METAR
KLZZ 220015Z AUTO 18004KT 10SM CLR 25/07 A2985 RMK AO2
     T02490072=
