SAUS70 KWBC 220238 RRK
METAR
KTNU 220235Z AUTO 12005KT 10SM CLR 13/02 A2962 RMK A01=
KTQH 220235Z AUTO 16007KT 10SM CLR 22/02 A2980 RMK AO2=
KTQV 220235Z AUTO 10003KT 10SM CLR 14/02 A3017 RMK A01=
KTYL 220235Z AUTO 24008KT 10SM CLR 13/03 A3006 RMK AO2=
