SAUS70 KWBC 220122 RRD
METAR
KRCR 220115Z AUTO 19009G14KT 10SM BKN055 18/03 A2984 RMK AO2=
KRDK 220115Z AUTO 00000KT CLR 11/01 A2959 RMK AO2=
KSLB 220115Z AUTO 08007KT 9SM CLR 13/00 A2961 RMK AO2=
KTAZ 220115Z AUTO 17010KT 10SM CLR 18/04 A2980 RMK AO2
     T01780040=
KTIP 220115Z AUTO 19010G15KT 10SM CLR 17/03 A2982 RMK AO2
     T01700028=
KW22 220115Z AUTO 00000KT 10SM BKN050 08/00 A3007 RMK AO2=
K11R 220115Z AUTO 19010G15KT 10SM CLR 25/15 A2996 RMK AO2
     T02450145=
K6I2 220115Z AUTO 16007KT 10SM CLR 14/00 A3001 RMK AO2=
K8A0 220115Z AUTO 17005KT 10SM CLR 15/03 A3008 RMK AO2=
KAXX 220115Z AUTO 25014G20KT 10SM CLR 10/M06 A3007 RMK AO2
     T01031064=
KBMT 220115Z AUTO 00000KT 10SM CLR 20/14 A3001 RMK AO2
     T01970144=
KCTJ 220115Z AUTO 00000KT 10SM CLR 09/04 A3015 RMK AO2
     T00860044=
KDED 220115Z AUTO 33008KT 10SM CLR 17/10 A3009 RMK AO2 LTG DSNT NE
     T01660097=
KDUB 220116Z AUTO 30012G19KT 10SM CLR 10/M08 A2968 RMK AO2=
KDUX 220115Z AUTO 20009KT 10SM CLR 19/M03 A2972 RMK AO2
     T01921028=
KETN 220115Z AUTO 19004KT 10SM CLR 23/03 A2983 RMK AO2
     T02300033=
KFQD 220115Z AUTO 00000KT 10SM CLR 08/01 A3016 RMK AO2=
KHVE 220115Z AUTO 18007KT 10SM CLR 20/M05 A2983 RMK AO2=
KHZR 220115Z AUTO 19006KT 10SM CLR 20/13 A3004 RMK AO2
     T02030130=
KJES 220115Z AUTO 00000KT 10SM CLR 10/03 A3015 RMK AO2=
KK62 220115Z AUTO 19006KT 10SM CLR 13/00 A2999 RMK AO2=
KMQW 220115Z AUTO 00000KT 10SM CLR 08/05 A3013 RMK AO2
     T00780045=
KPXE 220115Z AUTO 00000KT 7SM BR CLR 08/06 A3013 RMK AO2
     T00780059=
KTMK 220115Z AUTO 19011G16KT 10SM OVC014 14/12 A2964 RMK AO2
     P0001=
KTRK 220115Z AUTO 23008G14KT 10SM CLR 16/M04 A2998 RMK AO2=
KUKL 220115Z AUTO 17009KT 10SM CLR A2967 RMK AO2=
KVES 220115Z AUTO 19006KT 10SM CLR 13/M02 A2993 RMK AO2=
