SAUS70 KWBC 220300
METAR
KMCX 220255Z AUTO 18010G15KT 10SM CLR 17/01 A2985 RMK AO2
     T01670010=
KRID 220255Z AUTO 17007KT 10SM CLR 08/01 A2997 RMK AO2=
KGYY 220245Z 18006G14KT 10SM CLR 19/03 A2978=
