SAUS80 KWBC 212300 CCA
METAR
K2WX 212256Z AUTO 16008KT 20/M01 A2944 RMK AO1 SLP962
     T02001006=
