SAUS70 KWBC 212300 RRB
METAR
KPWG 212256Z AUTO 18015G20KT 10SM CLR 29/09 A2986 RMK AO2 SLP106
     T02940089=
KASH 212256Z 00000KT 10SM CLR 09/04 A3012 RMK AO2 SLP206 T00890044
     $=
KBHB 212256Z AUTO 22005KT 10SM CLR 10/05 A3014 RMK AO2 SLP209
     T01000050 PNO $=
KBKX 212256Z AUTO 00000KT 5SM HZ CLR A2961 RMK AO2 SLPNO FZRANO
     $=
KCDA 212255Z AUTO 13005KT 10SM 09/M02 A3008 RMK AO2 T00871025=
KCNB 212255Z AUTO 11003KT 5SM HZ CLR 17/00 A2961 RMK AO2
     T01691004=
KD95 212255Z AUTO 17005KT 10SM CLR 17/M01 A2976 RMK AO2
     T01691015=
KEEN 212256Z AUTO 00000KT 10SM CLR 08/02 A3012 RMK AO2 SLP207
     T00780022 $=
KESC 212256Z AUTO 00000KT 10SM CLR 13/08 A2955 RMK AO2 SLP012
     T01330083 PNO $=
KFRM 212256Z AUTO 04003KT 10SM CLR 18/03 A2962 RMK AO2 SLP033
     T01780028=
KHAI 212255Z AUTO 20010KT 10SM CLR 20/03 A2975 RMK AO2
     T01990029=
KHNB 212256Z AUTO 16006KT 10SM CLR 20/02 A2991 RMK AO2 SLP127
     T02000022=
KI23 212255Z AUTO 18006KT 10SM CLR 15/M01 A2996 RMK AO1=
KIRS 212255Z AUTO 20008KT 10SM CLR 18/02 A2977 RMK AO2
     T01780016=
KJHW 212256Z AUTO 19009KT 10SM CLR 12/M01 A2998 RMK AO2 SLP167
     T01221006=
KLCI 212256Z AUTO 00000KT 10SM CLR 07/02 A3011 RMK AO2 SLP203
     T00720017=
KMNM 212256Z AUTO 32007KT 10SM CLR 18/04 A2957 RMK AO2 SLP014
     T01780044 PNO $=
KOXD 212255Z AUTO 19008KT 10SM CLR 20/M05 A2993 RMK AO2
     T01991055=
KRQB 212255Z AUTO 23007KT 10SM CLR 19/03 A2965 RMK AO2
     T01870034=
KAFJ 212256Z AUTO 20004KT 10SM CLR 13/00 A3004 RMK AO2 SLP176
     T01330000=
KBID 212256Z AUTO 22007KT 10SM CLR 14/07 A3016 RMK AO2 SLP215
     T01390067=
KCAD 212255Z AUTO 21011G19KT 10SM CLR 16/04 A2964 RMK AO2
     T01620035=
KFFX 212255Z AUTO 21011KT 10SM CLR 20/03 A2964 RMK AO2
     T01970031=
KFKS 212255Z AUTO 20010G18KT 10SM CLR 16/05 A2960 RMK AO2
     T01570050=
KMML 212256Z AUTO 05005KT 10SM CLR 16/01 A2962 RMK AO2 SLP033
     T01610011=
KMSV 212256Z AUTO 16006KT 10SM CLR 10/M02 A3010 RMK AO2 SLP204
     T01001017=
KOTG 212256Z AUTO 09005KT 10SM CLR 16/03 A2962 RMK AO2 SLP033
     T01560028=
KXIF 212255Z AUTO 00000KT 10SM CLR 10/01 A3009 RMK AO2 SLP199
     T01010012 $=
KNFE 212256Z AUTO 00000KT 10SM CLR 13/07 A3014 RMK AO2 SLP207
     T01280072=
KBLM 212256Z AUTO 15004KT 10SM CLR 12/06 A3016 RMK AO2 SLP212
     T01220056=
KBMI 212256Z 20014KT 10SM CLR 21/04 A2975 RMK AO2 SLP069
     T02110039=
KCDI 212255Z AUTO 17003KT 10SM CLR 12/02 A3000 RMK AO2
     T01240022=
KCFE 212255Z AUTO 00000KT 10SM CLR 16/02 A2960 RMK AO2=
KFKL 212256Z AUTO 18006KT 10SM CLR 12/M01 A3000 RMK AO2 SLP169
     T01171006=
KJYM 212255Z AUTO 19007KT 10SM CLR 18/01 A2979 RMK AO2
     T01750005=
KLEW 212256Z AUTO 16005KT 10SM CLR 08/02 A3012 RMK AO2 SLP209
     T00830022=
KMBL 212256Z AUTO 19009G15KT 150V220 10SM CLR 18/05 A2961 RMK AO2
     SLP028 T01780050=
KOKK 212256Z AUTO 20011KT 10SM CLR 19/02 A2985 RMK AO2 SLP106
     T01940022 PNO $=
KSFM 212256Z AUTO 00000KT 10SM CLR 06/03 A3013 RMK AO2 SLP209
     T00560033=
KSJX 212255Z AUTO 22011G18KT 10SM CLR 12/07 A2959 RMK AO2
     T01150072=
KSQI 212256Z AUTO VRB03KT 10SM CLR 23/03 A2965 RMK AO2 SLP907
     T02330033=
KTOB 212255Z AUTO 33004KT 10SM 17/01 A2962 RMK AO2=
KUGN 212255Z 21013KT 10SM CLR 21/04 A2964 RMK AO2 PK WND
     20027/2159 SLP035 T02110039=
KY50 212256Z AUTO 24003KT 10SM CLR 19/03 A2960 RMK AO2 SLP025
     T01890028 $=
KGDV 212256Z AUTO 12004KT 10SM OVC070 09/06 A2953 RMK AO2 SLP004
     T00940056=
KJAC 212256Z 23019G27KT 10SM OVC085 16/M07 A2976 RMK AO2 PK WND
     24035/2210 SLP045 T01611072 PNO $=
