SAUS80 KWBC 220000 RRB
METAR
TJSJ 212356Z 09006KT 10SM FEW028 FEW043 27/23 A2992 RMK AO2 SLP129
     T02720228 10311 20272 53007=
KFSD 212356Z 03004KT 10SM FEW080 FEW250 13/02 A2960 RMK AO2 SLP028
     T01280022 10228 20128 55002=
KOFK 212356Z AUTO 00000KT 10SM CLR 18/M01 A2960 RMK AO2 SLP023
     T01831011 10256 20178 55001=
K4BM 212355Z AUTO 17013G21KT 10SM CLR 08/M16 A3013 RMK AO2=
KD07 212356Z AUTO 15010KT 16/01 A2948 RMK AO1 SLP984 T01560006
     10194 20150 56008=
KCKP 212355Z AUTO 09004KT 10SM CLR 15/00 A2960 RMK AO2 T01480000
     10238 20148=
KDBN 212355Z AUTO 00000KT 10SM CLR 10/06 A3013 RMK AO2=
KEHA 212355Z AUTO 00000KT 10SM CLR 26/M08 A2971 RMK AO2 T02581082
     10300 20257 403000103=
