SACA35 KWBC 220200 RRA
METAR
MRLB 220200Z VRB01KT 9999 FEW030 SCT150 24/24 A2988=
