SAUS70 KWBC 220000 RRX
METAR
KGKT 212355Z AUTO 00000KT 10SM CLR 12/02 A3007 RMK A01=
KGOO 212355Z AUTO 00000KT 10SM CLR 23/03 A2989 RMK A01=
KGTR 212356Z 14007KT 10SM CLR 21/12 A3000 RMK AO2 SLP166 T02110117
     10267 20211 53001=
KGYB 212355Z AUTO 19006KT 10SM CLR 26/10 A2992 RMK AO2 60003
     T02640095 10295 20264=
KGZS 212355Z AUTO 00000KT 10SM FEW044 SCT050 BKN060 15/09 A3001
     RMK A01=
KH71 212355Z AUTO 16007KT 10SM CLR 26/03 A2971 RMK AO2=
KHCD 212355Z AUTO 00000KT 10SM CLR 12/00 A2964 RMK AO2 T01200001
     10189 20120=
KHEZ 212356Z AUTO 13007KT 10SM CLR 21/12 A2998 RMK AO2 SLP153
     T02110122 10278 20211 55002=
KHFJ 212355Z AUTO 17010KT 10SM CLR 22/03 A2977 RMK AO2=
KHHF 212355Z AUTO 21007KT 10SM CLR 26/M01 A2965 RMK AO2 T02611015
     10330 20261=
KHHV 212355Z AUTO 16014G21KT 10SM BKN041 24/14 A2999 RMK A01=
KHLB 212355Z AUTO 18005KT 10SM CLR 14/00 A2993 RMK A01=
KHLX 212355Z AUTO 18004KT 10SM CLR 10/M07 A3013 RMK AO2 T01001075
     10154 20100=
KHOE 212355Z AUTO 00000KT 10SM CLR 11/06 A3010 RMK AO2
     T01160069=
KHQG 212355Z AUTO 29007KT 10SM CLR 24/M08 A2966 RMK AO2 6////
     T02351082=
KHRX 212355Z AUTO 24014KT 10SM CLR 26/M02 A2979 RMK AO2 T02561016
     10297 20256=
KHSB 212355Z AUTO 16003KT 10SM CLR 17/06 A2987 RMK AO2 T01650063
     10251 20165=
KHSD 212355Z AUTO 17011KT 10SM CLR 27/02 A2969 RMK A01=
KHYW 212355Z AUTO 00000KT 10SM CLR 09/08 A3012 RMK AO2=
KHYX 212355Z AUTO 17007KT 10SM CLR 15/04 A2973 RMK AO2 T01500041
     10205 20150=
KHZD 212355Z AUTO 15004KT 10SM CLR 19/10 A2992 RMK A01=
KHZX 212355Z AUTO 00000KT 10SM CLR 10/01 A2960 RMK AO2=
KI35 212355Z AUTO 00000KT 10SM CLR 12/00 A3008 RMK AO2 T01230002
     10186 20121=
KI67 212355Z AUTO 00000KT 10SM CLR 17/00 A2995 RMK AO1=
KI74 212355Z AUTO 18005KT 10SM CLR 13/01 A2995 RMK AO2=
KIER 212355Z AUTO 20004KT 10SM CLR 24/13 A2993 RMK AO2 T02380129
     10306 20238=
KIFA 212355Z AUTO 00000KT 10SM CLR 17/01 A2964 RMK AO2 T01650011
     10251 20165=
KIGQ 212355Z AUTO 20010KT 10SM CLR 19/05 A2974 RMK AO2 T01930048
     10239 20192=
KIMS 212355Z AUTO 15005KT 10SM CLR 16/01 A2997 RMK AO2=
KINJ 212355Z AUTO 18015KT 10SM CLR 28/09 A2984 RMK AO2 T02800088
     10324 20280=
KIOB 212355Z AUTO 19005KT 10SM CLR 14/01 A3003 RMK AO2 PWINO=
KJAU 212355Z AUTO 00000KT 10SM CLR 10/02 A3011 RMK A01=
PAAD 212355Z AUTO 10022G25KT 10SM OVC012 M04/M06 A2986 RMK AO2
     T10441058 11041 21048=
PAAK 212356Z AUTO 09003KT 10SM -RA BKN024 BKN031 OVC042 A2999 RMK
     AO2 UPE18RAB18 SLPNO P0001 60001 56020 FZRANO $=
PABL 212356Z AUTO 13008KT 10SM UP CLR 02/01 A2971 RMK AO2
     RAE42UPB53 SLP064 P0001 60001 T00220011 10022 20006 51006
     FZRANO $=
PABV 212356Z AUTO 31003KT 10SM FEW005 04/03 A2986 RMK AO2 SLP117
     T00390033 10044 20011 51009=
PADL 212356Z VRB03KT 10SM OVC039 07/02 A2997 RMK AO2 SLP153
     T00670022 10078 20011 50005=
PADM 212356Z AUTO 17008KT 10SM FEW013 SCT041 04/02 A2989 RMK AO2
     SLP125 60001 T00390017 10044 20011 53002=
PADU 212356Z 15004KT 10SM OVC200 07/01 A3007 RMK AO2 SLPNO 6////
     T00720011 10078 20067 58026=
PAFE 212356Z AUTO 00000KT 10SM SCT060 OVC095 09/03 A2973 RMK AO2
     SLP081 T00890033 10100 20072 58005=
PAGA 212356Z AUTO 10SM OVC022 03/01 A2980 RMK AO2 SLP094 T00330011
     10033 20006 51008 $=
PAGL 212356Z AUTO 24005KT 10SM FEW024 OVC040 03/02 A2972 RMK AO2
     SLP059 60003 T00330017 10039 20022 51011 PWINO $=
PAGN 212356Z AUTO 00000KT 10SM SCT060 BKN110 07/06 A2973 RMK AO2
     RAB14E38 SLP056 P0000 6//// T00670056 10083 20067 55001=
