SAUS70 KWBC 220120
METAR
K0E0 220115Z AUTO 28005KT 10SM CLR 14/00 A3002 RMK AO2 T01400000
     TSNO=
K4S2 220115Z AUTO 00000KT 5SM -RA BKN023 BKN030 OVC070 08/07 A2968
     RMK AO2=
K6S2 220115Z AUTO 20010G16KT 10SM BKN003 OVC008 13/13 A2976 RMK
     AO2=
KAQP 220113Z AUTO 19006KT 10SM 12/00 A2958 RMK AO2=
KBEA 220115Z AUTO 15008KT 10SM CLR 21/14 A2996 RMK AO2 T02090135
     PWINO=
KCLS 220115Z AUTO VRB04KT 9SM -RA OVC014 08/07 A2969 RMK AO2=
KCVH 220115Z AUTO 25008KT 9SM CLR 14/11 A2987 RMK A01=
KF70 220115Z AUTO 21005KT 10SM CLR 21/15 A2986 RMK AO2=
KHAF 220115Z AUTO 15008KT 5SM BR OVC011 14/13 A2987 RMK AO2=
KJAQ 220115Z AUTO 27005KT 10SM CLR 24/08 A2983 RMK AO1
     T02360076=
KJSO 220115Z AUTO 20006KT 10SM CLR 23/11 A2994 RMK AO2 T02280110
     TSNO=
KL08 220115Z AUTO 00000KT 10SM CLR 28/08 A2975 RMK AO2=
KL18 220115Z AUTO 22005KT 10SM SCT010 19/16 A2986 RMK AO2=
KMAN 220115Z AUTO 00000KT 10SM CLR 18/04 A2964 RMK A01=
KO32 220115Z AUTO 00000KT 7SM CLR 27/11 A2976 RMK AO2 T02720109
     $=
KONM 220115Z AUTO 18003KT 10SM BKN090 19/05 A2996 RMK AO2
     T01880047=
KSNK 220115Z AUTO 20009KT 10SM CLR 23/03 A2984 RMK AO2
     T02250027=
KSRR 220115Z AUTO 14004KT 10SM 14/02 A3008 RMK AO2=
KTME 220115Z AUTO 18007KT 10SM CLR 22/15 A3000 RMK AO2=
KTVY 220115Z AUTO 16009KT 10SM CLR 13/M03 A2976 RMK AO2=
KU42 220115Z AUTO 17006KT 10SM CLR 17/M01 A2979 RMK AO1
     T01681006=
K21D 220115Z AUTO 00000KT 10SM CLR 08/02 A2964 RMK AO2=
K6L4 220115Z AUTO 16004KT 10SM CLR 13/00 A3006 RMK AO2=
KAMN 220115Z AUTO 17009KT 10SM CLR 15/04 A2973 RMK AO2
     T01520035=
KAUM 220115Z AUTO 00000KT 10SM CLR 10/03 A2964 RMK AO2=
KAXV 220115Z AUTO 18012G16KT 10SM CLR 16/00 A2991 RMK AO2=
KCBG 220115Z AUTO 00000KT 10SM CLR 10/01 A2962 RMK AO2=
KCDA 220115Z AUTO 00000KT 10SM 08/M02 A3011 RMK AO2 T00821020=
KCOQ 220115Z AUTO 00000KT 10SM CLR 07/00 A2959 RMK AO2 TSNO=
KDRM 220115Z AUTO 00000KT 10SM CLR 06/05 A2963 RMK AO2
     T00620052=
KDYT 220115Z AUTO 00000KT 10SM FEW036 FEW043 11/04 A2958 RMK
     AO2=
KELO 220115Z AUTO 00000KT 10SM CLR 09/01 A2958 RMK AO2=
KGYL 220115Z AUTO 00000KT 5SM HZ CLR 12/02 A2962 RMK AO2
     T01200015=
KI69 220115Z AUTO 00000KT 10SM CLR 15/01 A2999 RMK AO2
     T01460005=
KLDM 220115Z AUTO 21012G18KT 10SM CLR 17/06 A2965 RMK AO2
     T01700055=
KLJF 220115Z AUTO 00000KT 10SM CLR 09/01 A2962 RMK AO2=
KMGG 220115Z AUTO 00000KT 10SM CLR 07/02 A2963 RMK AO2 T00700024
     PWINO=
KMGN 220115Z AUTO 00000KT 10SM CLR 08/06 A2963 RMK AO2
     T00890066=
KMQJ 220115Z AUTO 16005KT 10SM CLR 14/02 A2992 RMK AO1=
KOZW 220115Z AUTO 18009KT 10SM CLR 17/04 A2980 RMK AO2
     T01650036=
KPNM 220115Z AUTO 00000KT 10SM CLR 08/03 A2962 RMK AO2 TSNO=
KROX 220115Z AUTO 23006KT 10SM BKN110 12/01 A2952 RMK AO2=
KRUG 220115Z AUTO 36004KT 10SM SCT026 BKN030 OVC055 07/06 A2955
     RMK AO2=
KSAZ 220115Z AUTO 00000KT 10SM CLR 09/01 A2959 RMK AO2=
KTME 220115Z AUTO 18007KT 10SM CLR 22/15 A3000 RMK AO2=
KTWM 220115Z AUTO 30003KT 10SM CLR 09/02 A2958 RMK AO2=
K22N 220115Z AUTO 00000KT 10SM CLR 02/00 A3016 RMK AO2=
K2P2 220115Z AUTO 00000KT 5SM BR CLR 06/06 A2961 RMK AO2
     T00610061=
K9D7 220115Z AUTO 36007KT 6SM -DZ BKN039 OVC047 07/06 A2957 RMK
     AO2 TSNO=
KBAC 220115Z AUTO 00000KT 10SM SCT110 11/00 A2955 RMK AO2=
KBDH 220115Z AUTO 00000KT 10SM CLR 08/02 A2964 RMK AO2=
KCKZ 220115Z AUTO 00000KT 10SM CLR 05/03 A3017 RMK AO2=
KD60 220115Z AUTO 04004KT 10SM SCT031 OVC039 05/05 A2958 RMK
     AO2=
KFGN 220115Z AUTO 00000KT 10SM BKN100 11/01 A2950 RMK AO2=
KGWR 220115Z AUTO 17006KT 8SM FEW021 BKN025 BKN034 11/01 A2956 RMK
     A01=
