SAUS70 KWBC 220100 RRC
METAR
KAUG 220053Z AUTO 19003KT 10SM CLR 08/03 A3014 RMK AO2 SLP210
     T00780033=
KAUS 220053Z 18007KT 10SM CLR 21/09 A2991 RMK AO2 SLP123
     T02110094=
KAZO 220053Z 19011KT 10SM CLR 17/04 A2978 RMK AO2 SLP084
     T01720039=
KBBW 220053Z AUTO 00000KT 10SM CLR 08/M03 A2959 RMK AO2 SLP021
     T00831033=
KBEH 220053Z AUTO 19009G16KT 10SM CLR 19/04 A2974 RMK AO2 SLP072
     T01890044=
KBFD 220053Z AUTO 15004KT 10SM CLR 09/M02 A3004 RMK AO2 SLP179
     T00891017=
KBFM 220053Z 20003KT 10SM CLR 16/11 A3011 RMK AO2 SLP196
     T01560106=
KBGR 220053Z 19007KT 10SM CLR 08/02 A3014 RMK AO2 SLP207
     T00830017=
KBIV 220053Z AUTO 20008KT 10SM CLR 17/04 A2973 RMK AO2 SLP047
     T01720044=
KBMG 220053Z 17006KT 10SM CLR 16/02 A2990 RMK AO2 SLP125
     T01560017=
KBMQ 220053Z AUTO 18007KT 10SM CLR 24/09 A2993 RMK AO2 SLP124
     T02440089=
KBPT 220053Z 17011G17KT 10SM CLR 20/16 A2999 RMK AO2 SLP155
     T02000156=
KBRO 220053Z 13007KT 10SM CLR 23/16 A2998 RMK AO2 SLP151
     T02280161=
KBTL 220053Z 19013KT 10SM CLR 18/03 A2978 RMK AO2 SLP084
     T01780033=
KBVY 220053Z 19005KT 10SM CLR 11/06 A3015 RMK AO2 SLP205 T01110061
     $=
KBYG 220053Z AUTO 30005KT 10SM CLR 14/M02 A2955 RMK AO2 SLP975
     T01441022=
KLHQ 220053Z AUTO 17003KT 10SM CLR 07/02 A3001 RMK AO2 SLP164
     T00720017=
KLHX 220053Z AUTO 14007KT 10SM CLR 19/M10 A2969 RMK AO2 SLP019
     T01941100=
KLOU 220053Z 16006KT 10SM CLR 15/01 A2996 RMK AO2 SLP145
     T01500006=
KLOZ 220053Z AUTO 00000KT 10SM CLR 12/01 A3006 RMK AO2 SLP180
     T01220011=
KLUK 220053Z 00000KT 10SM CLR 10/02 A2998 RMK AO2 SLP154
     T01000022=
KLVJ 220053Z AUTO 18006KT 10SM CLR 23/16 A3001 RMK AO2 SLP162
     T02280156=
KLWV 220053Z AUTO 17008KT 10SM CLR 13/00 A2989 RMK AO2 SLP121
     T01280000=
KLXT 220053Z AUTO 18012G19KT 10SM CLR 23/04 A2967 RMK AO2 SLP042
     T02330039=
KMAF 220053Z 17007KT 10SM CLR 23/08 A2986 RMK AO2 SLP081
     T02280083=
KMCB 220053Z AUTO 17011KT 10SM CLR 19/12 A3004 RMK AO2 SLP169
     T01940122=
KMCI 220053Z 18012KT 10SM CLR 22/04 A2964 RMK AO2 SLP030
     T02170039=
KMCK 220053Z AUTO 18006KT 10SM CLR 17/M05 A2962 RMK AO2 SLP023
     T01671050=
KMCW 220053Z AUTO 00000KT 7SM CLR 08/01 A2965 RMK AO2 SLP037
     T00830006=
KMDW 220053Z 20013G22KT 10SM CLR 22/03 A2973 RMK AO2 SLP066
     T02170033=
KMFE 220053Z 15010KT 10SM CLR 25/17 A2996 RMK AO2 SLP144 T02500167
     $=
KMGW 220053Z 17003KT 10SM CLR 09/01 A3006 RMK AO2 SLP185
     T00940006=
KMGY 220053Z AUTO 17007KT 10SM CLR 13/01 A2996 RMK AO2 SLP147
     T01280006=
KMHT 220053Z 00000KT 10SM CLR 06/02 A3013 RMK AO2 SLP219
     T00610022=
KMIE 220053Z 19012KT 10SM CLR 18/00 A2989 RMK AO2 SLP119
     T01780000=
KMIW 220053Z AUTO 36003KT 10SM CLR 13/01 A2963 RMK AO2 SLP033
     T01280006=
KMKO 220053Z AUTO 16008KT 10SM CLR 24/07 A2978 RMK AO2 SLP080
     T02390067=
KMLB 220053Z 33008KT 10SM CLR 19/13 A3003 RMK AO2 SLP170
     T01940133=
KMLC 220053Z AUTO VRB06KT 10SM SCT110 25/06 A2978 RMK AO2 SLP080
     T02500061=
KMLT 220053Z AUTO 00000KT 10SM CLR 04/02 A3011 RMK AO2 SLP204
     T00390022=
KMMK 220053Z AUTO 00000KT 10SM CLR 06/02 A3016 RMK AO2 SLP214
     T00560022=
KMNN 220053Z AUTO 18008KT 9SM CLR 13/01 A2995 RMK AO2 SLP144
     T01330011=
KMRB 220053Z 00000KT 10SM CLR 08/00 A3011 RMK AO2 SLP199 T00830000
     $=
KMSS 220053Z AUTO 18007KT 10SM CLR 11/M02 A2997 RMK AO2 SLP151
     T01111017=
KMSY 220053Z 16006KT 10SM CLR 19/13 A3008 RMK AO2 SLP188
     T01940128=
KMTJ 220053Z AUTO 20007KT 10SM CLR 16/M05 A2991 RMK AO2 SLP085
     T01611050=
