SAUS70 KWBC 220000 RRM
METAR
KLBF 212353Z AUTO 15005KT 10SM CLR 20/M01 A2959 RMK AO2 SLP013
     T02001006 10261 20200 56019=
KLNS 212353Z 17005KT 10SM CLR 12/01 A3012 RMK AO2 SLP202 T01170006
     10178 20117 53009=
KPLN 212354Z AUTO 36003KT 10SM CLR 13/06 A2962 RMK AO2 SLP033
     T01280061 10211 20128 53036=
KPOU 212353Z 00000KT 10SM CLR 07/02 A3012 RMK AO2 SLP196 T00720022
     10172 20067 53013=
KPTK 212353Z 17005KT 10SM FEW085 FEW230 16/03 A2980 RMK AO2 SLP095
     T01560028 10189 20156 53008=
KTHV 212353Z AUTO 00000KT 10SM CLR 07/01 A3012 RMK AO2 SLP205
     T00670011 10183 20056 53008=
K1P1 212355Z AUTO 00000KT 10SM CLR 03/01 A3012 RMK AO2 T00280009
     10150 20028=
KARB 212353Z 19007KT 10SM CLR 16/03 A2980 RMK AO2 SLP095 T01610028
     10206 20161 53005=
KDTW 212353Z 17008KT 10SM FEW250 16/03 A2982 RMK AO2 SLP098
     T01560028 10211 20150 53004=
KELM 212353Z 27004KT 10SM CLR 07/M01 A3005 RMK AO2 SLP185
     T00721011 10167 20067 53019=
KFRG 212353Z 00000KT 10SM CLR 12/06 A3016 RMK AO2 SLP212 T01220061
     10172 20122 53010 $=
KLPR 212353Z AUTO 18011KT 10SM CLR 16/02 A2993 RMK AO2 SLP135
     T01560022 10206 20156 53016=
KMBS 212353Z 18009KT 10SM CLR 17/04 A2972 RMK AO2 SLP066 T01670039
     10206 20161 53008=
KMTO 212353Z AUTO 17009KT 10SM CLR 20/02 A2983 RMK AO2 SLP099
     T02000022 10244 20200 53007=
KPKB 212353Z 16005KT 10SM CLR 12/01 A3003 RMK AO2 SLP171 T01220006
     10189 20117 53004=
KPKD 212353Z AUTO 00000KT 10SM CLR 11/M01 A2958 RMK AO2 SLP021
     T01111006 10161 20106 51007=
KRAC 212353Z AUTO 22009KT 10SM CLR 20/04 A2967 RMK AO2 SLP048
     T02000039 10239 20200 53019=
KRHI 212353Z AUTO 00000KT 10SM CLR 10/02 A2962 RMK AO2 SLP036
     T01000017 10189 20100 53020=
KRWF 212353Z AUTO 00000KT 10SM CLR 15/02 A2963 RMK AO2 SLP033
     T01500017 10194 20150 53006=
KTTN 212353Z 00000KT 10SM CLR 11/01 A3013 RMK AO2 SLP199 T01110011
     10172 20106 53009=
KZZV 212353Z AUTO 17007KT 10SM CLR 13/00 A3000 RMK AO2 SLP161
     T01280000 10189 20128 53009=
KTOI 212353Z AUTO 00000KT 10SM CLR 14/07 A3010 RMK AO2 SLP191
     T01440072 10239 20144 53006=
KACV 212353Z AUTO 00000KT 10SM OVC024 14/10 A2994 RMK AO2 SLP145
     T01390100 10156 20117 55003=
KELN 212353Z AUTO 32017G23KT 10SM CLR 11/01 A2964 RMK AO2 SLP037
     T01060011 10133 20106 58024=
KEPH 212353Z AUTO 05004KT 10SM CLR 12/05 A2962 RMK AO2 SLP033
     6//// T01170050 10122 20094 56023 $=
KFHR 212353Z AUTO 00000KT 6SM -RA BR BKN026 OVC040 09/08 A2973 RMK
     AO2 SLP068 P0004 60007 T00940083 10111 20094 56019=
KLVK 212353Z 30011KT 10SM CLR 20/11 A2982 RMK AO2 SLP095 T02000106
     10267 20172 56002=
KLVM 212353Z AUTO 29015G20KT 10SM OVC095 16/00 A2948 RMK AO2
     SLP954 T01610000 10217 20161 56012=
KMFR 212353Z VRB03KT 10SM OVC055 22/08 A2980 RMK AO2 SLP085
     T02170083 10222 20156 56032=
KMLS 212353Z AUTO 36018KT 10SM FEW055 SCT075 OVC110 13/04 A2955
     RMK AO2 SLP006 T01280044 10217 20128 51022=
KRKP 212353Z AUTO 16008KT 10SM CLR 24/16 A2996 RMK AO2 SLP147
     T02440156 10289 20244 58003=
KRWL 212353Z AUTO 26021G35KT 10SM CLR 17/M11 A2979 RMK AO2 PK WND
     26038/2324 RAB11E35 SLP021 P0000 60000 T01671106 10189 20156
     56008=
KVEL 212353Z AUTO 24010KT 10SM CLR 21/M12 A2979 RMK AO2 SLP054
     T02061117 10233 20150 56022=
KWRL 212353Z AUTO 07005KT 10SM CLR 16/M01 A2950 RMK AO2 SLP976
     T01561011 10222 20156 55005=
KBCE 212353Z AUTO 25014G20KT 10SM CLR 15/M04 A3004 RMK AO2 SLP102
     T01501044 10178 20144 56013=
KBFI 212353Z 18005KT 10SM -RA FU BKN019 OVC026 09/07 A2973 RMK AO2
     SLP068 P0003 60005 T00890072 10111 20089 56028=
