SAUS70 KWBC 220100 RRN
METAR
KPVG 220056Z AUTO 00000KT 10SM CLR 05/04 A3018 RMK AO2 SLP220
     T00500044 PNO $=
KPWG 220056Z AUTO 17011KT 10SM CLR 25/09 A2988 RMK AO2 SLP112
     T02500094=
KRKD 220056Z AUTO 00000KT 10SM CLR 05/04 A3016 RMK AO2 SLP214
     T00500039=
KRNP 220055Z AUTO 17008KT 10SM CLR 17/03 A2975 RMK AO2
     T01700026=
KRQB 220055Z AUTO 17003KT 10SM CLR 16/05 A2970 RMK AO2
     T01630050=
KRUT 220056Z AUTO 12010KT 10SM CLR 06/M01 A3010 RMK AO2 SLP197
     T00611011 $=
KSDY 220056Z AUTO 01006KT 10SM OVC090 08/06 A2957 RMK AO2 SLP028
     T00780061 PNO $=
KSFM 220056Z AUTO 00000KT 10SM CLR 02/01 A3015 RMK AO2 SLP214
     T00170011 FZRANO=
KSFZ 220056Z AUTO 00000KT 10SM CLR 10/07 A3017 RMK AO2 SLP218
     T01000067=
KSGH 220056Z AUTO 19006KT 10SM CLR 14/01 A2997 RMK AO2 SLP152
     T01390006=
KSGJ 220056Z AUTO 32005KT 10SM CLR 16/10 A3011 RMK AO2 SLP194
     T01610100=
KSGT 220056Z AUTO 18006KT 10SM CLR 21/09 A2990 RMK AO2 SLP126
     T02060094=
KSJX 220055Z AUTO 22007KT 10SM CLR 11/08 A2962 RMK AO2
     T01050077=
KSKX 220056Z AUTO 26009KT 10SM CLR 13/M06 A3004 RMK AO2 SLP157
     T01281056=
KSLG 220056Z AUTO 16007KT 10SM CLR 20/06 A2981 RMK AO2 SLP089
     T02000061=
KSLH 220055Z AUTO 23004KT 10SM CLR 11/06 A2962 RMK AO2=
KSOP 220056Z AUTO 00000KT 10SM CLR 08/04 A3015 RMK AO2 SLP217
     T00780039 TSNO=
KSQI 220056Z AUTO VRB03KT 10SM CLR 19/04 A2969 RMK AO2 SLP921
     T01940039=
KSRC 220056Z AUTO 19005KT 10SM CLR 19/10 A2988 RMK AO2 SLP119
     T01890100=
KSUE 220056Z AUTO 23003KT 10SM CLR 12/06 A2961 RMK AO2 SLP030
     T01170061=
KTOB 220055Z AUTO 00000KT 10SM CLR 10/01 A2965 RMK AO2=
KTTF 220055Z AUTO 19010G17KT 10SM CLR 15/03 A2984 RMK AO2
     T01510025=
KTTS 220055Z AUTO 34005KT 10SM CLR 17/13 A3003 RMK AO2 SLP173
     T01710134 $=
KUDG 220056Z AUTO 00000KT 10SM CLR 09/03 A3014 RMK AO2 SLP208
     T00890028=
KUGN 220055Z 22015G24KT 10SM CLR 20/04 A2968 RMK AO2 SLP048 LAST
     T02000039=
KULM 220055Z AUTO 00000KT 10SM CLR 13/M01 A2962 RMK AO2=
KVBT 220056Z AUTO 15007KT 10SM CLR 19/05 A2982 RMK AO2 SLP098
     T01940050=
KVLL 220055Z AUTO 19007KT 10SM CLR 16/02 A2984 RMK AO2
     T01560020=
KVWU 220055Z AUTO 00000KT 10SM CLR 08/03 A2955 RMK AO2=
KWVL 220056Z AUTO 19003KT 10SM CLR 07/03 A3011 RMK AO2 SLP227
     T00670028=
KWWD 220056Z AUTO 00000KT 10SM 09/08 A3018 RMK AO2 SLP222
     T00940078 $=
KY50 220056Z AUTO 00000KT 6SM HZ CLR 09/03 A2964 RMK AO2 SLP042
     T00940033 $=
KY70 220055Z AUTO 19010KT 10SM CLR 16/04 A2972 RMK AO2
     T01630035=
PAAK 220056Z AUTO 00000KT 10SM -RA OVC035 A2997 RMK AO2 SLPNO
     P0001 FZRANO $=
PABV 220056Z AUTO 07003KT 10SM OVC005 03/02 A2987 RMK AO2 SLP122
     T00330022=
PAFE 220056Z AUTO 00000KT 10SM FEW029 OVC090 08/05 A2973 RMK AO2
     SLP080 T00830050=
PAFM 220056Z AUTO 13007KT 10SM -RA OVC004 01/00 A2980 RMK AO2
     RAB32SNE32 SLPNO P0000 T00060000 FZRANO=
PAGL 220056Z AUTO 23004KT 10SM SCT015 BKN020 OVC036 03/02 A2973
     RMK AO2 SLP062 T00330017 PWINO $=
PAGN 220056Z AUTO 00000KT 10SM CLR 06/05 A2973 RMK AO2 SLP055
     T00560050=
PAKP 220056Z AUTO 20007KT 10SM CLR M08/M10 A2975 RMK AO2 SLP125
     T10831100 FZRANO=
PANI 220056Z AUTO 24005KT 10SM SCT016 SCT022 OVC040 04/02 A2992
     RMK AO2 RAE10 SLP125 P0000 T00440017 $=
PANV 220056Z AUTO 25005KT 10SM BKN007 OVC015 02/02 A2981 RMK AO2
     RAE49 CIG 003V011 SLP184 P0002 T00220017 FZRANO TSNO=
KHYI 220056Z 18008KT 10SM CLR 24/08 A2994 RMK AO2 SLP132 T02400080
     $=
KHYS 220056Z AUTO 10SM CLR 20/01 A2961 RMK AO2 SLP022 T02000006
     $=
