SAUS70 KWBC 220200
METAR
KMFI 220154Z AUTO 00000KT 10SM CLR 09/03 A2965 RMK AO2 SLP048
     T00940028=
KMGG 220155Z AUTO 00000KT 10SM CLR 09/03 A2963 RMK AO2 T00900027
     PWINO=
KMGJ 220154Z AUTO 00000KT 10SM CLR 03/01 A3015 RMK AO2 SLP212
     T00330006=
KMGN 220155Z AUTO 00000KT 10SM CLR 08/07 A2964 RMK AO2
     T00880069=
KMIV 220154Z AUTO 00000KT 10SM CLR 05/04 A3018 RMK AO2 SLP219
     T00500039=
KMKC 220154Z 19010KT 10SM CLR 23/05 A2965 RMK AO2 SLP033
     T02280050=
KMOT 220154Z 34006KT 10SM -RA FEW050 OVC070 07/05 A2956 RMK AO2
     RAB32 SLP023 P0000 T00670050=
KMQJ 220155Z AUTO 16005KT 10SM CLR 13/02 A2992 RMK AO1=
KMVE 220155Z AUTO 14006KT 5SM HZ CLR 08/01 A2959 RMK AO2=
KOFP 220154Z AUTO 00000KT 10SM CLR 08/06 A3018 RMK AO2 SLP220
     T00830061=
KOLS 220154Z AUTO 18004KT 10SM CLR 21/12 A3000 RMK AO2 SLP110
     T02110122=
KOVL 220155Z AUTO 00000KT 5SM HZ CLR 09/00 A2962 RMK AO2=
KOZW 220155Z AUTO 18009KT 10SM CLR 16/04 A2981 RMK AO2
     T01620035=
KPHF 220154Z 00000KT 10SM CLR 07/07 A3018 RMK AO2 SLP219
     T00720067=
KPHL 220154Z 22003KT 10SM CLR 12/05 A3018 RMK AO2 SLP219
     T01220050=
KPIR 220153Z AUTO 13010KT 10SM CLR 14/02 A2946 RMK AO2 SLP976
     T01390022=
KPLN 220154Z AUTO 31004KT 10SM CLR 06/04 A2965 RMK AO2 SLP044
     T00610039=
KPNE 220154Z 00000KT 10SM CLR 10/01 A3019 RMK AO2 SLP222
     T01000011=
KPSF 220154Z AUTO 00000KT 10SM CLR 03/M01 A3013 RMK AO2 SLP205
     T00281011=
KPTW 220154Z AUTO 18004KT 10SM CLR 09/01 A3018 RMK AO2 SLP217
     T00940006=
KPVG 220155Z 00000KT 10SM CLR 04/04 A3019 RMK AO2 SLP302 PWINO PNO
     FZRANO RVRNO=
KPWC 220155Z AUTO 00000KT 10SM CLR 08/02 A2963 RMK AO2=
KRDG 220154Z 20004KT 10SM CLR 11/00 A3015 RMK AO2 SLP217
     T01110000=
KRGK 220155Z AUTO 00000KT 10SM CLR 11/03 A2962 RMK AO2=
KRHV 220147Z 30005KT 10SM SKC 17/12 A2985=
KROX 220155Z AUTO 25006KT 10SM OVC090 13/01 A2953 RMK AO2=
KRST 220154Z 01004KT 10SM CLR 14/02 A2967 RMK AO2 SLP048
     T01390022=
KRZT 220155Z AUTO 17003KT 10SM CLR 12/00 A3000 RMK AO2 PWINO=
KFGN 220155Z AUTO 24008KT 10SM BKN085 OVC100 11/02 A2951 RMK
     AO2=
KFSE 220155Z AUTO 18005KT 10SM BKN110 08/M01 A2957 RMK AO2=
KFSO 220155Z AUTO 18009G14KT 10SM CLR 12/M02 A3004 RMK AO2
     T01231025=
KFXE 220153Z 33009KT 10SM FEW046 SCT065 BKN080 23/17 A2999 RMK AO2
     SLP159 T02280167 $=
KGCK 220154Z 16003KT 10SM CLR 19/M04 A2964 RMK AO2 SLP014
     T01941039=
KGED 220154Z AUTO 00000KT 10SM CLR 09/06 A3019 RMK AO2 SLP222
     T00890061=
KGHW 220155Z AUTO 13005KT 10SM CLR 10/01 A2959 RMK AO2=
KGYL 220155Z AUTO 00000KT 7SM CLR 11/01 A2962 RMK AO2
     T01050012=
KHCO 220155Z AUTO 28009KT 10SM BKN055 OVC070 13/02 A2954 RMK
     AO2=
KI69 220155Z AUTO 17004KT 10SM CLR 14/01 A3000 RMK AO2
     T01410007=
KICT 220153Z 17014KT 10SM OVC240 26/02 A2963 RMK AO2 SLP024
     T02560017=
KILN 220154Z AUTO 19006KT 10SM CLR 12/00 A2999 RMK AO2 SLP163
     T01170000=
KIML 220153Z AUTO 18010KT 10SM CLR 15/M04 A2962 RMK AO2 SLP021
     T01501039=
KIMT 220154Z AUTO 00000KT 10SM CLR 04/02 A2962 RMK AO2 SLP040
     T00440017=
KIND 220154Z 15007KT 10SM FEW250 13/02 A2991 RMK AO2 SLP126
     T01330017=
KIPT 220154Z AUTO 00000KT 10SM CLR 07/00 A3012 RMK AO2 SLP202
     T00670000=
KISW 220154Z AUTO 00000KT 10SM CLR 08/03 A2967 RMK AO2 SLP052
     T00830033=
KJKJ 220155Z AUTO 00000KT 10SM CLR 11/M01 A2957 RMK AO2 TSNO=
KJMR 220155Z AUTO 00000KT 10SM CLR 05/01 A2964 RMK AO2=
KLAF 220154Z AUTO 18006KT 10SM CLR 17/02 A2985 RMK AO2 SLP108
     T01670022=
KLBF 220153Z AUTO 00000KT 10SM CLR 11/M02 A2959 RMK AO2 SLP020
     T01061017=
