SAUS70 KWBC 220100 RRJ
METAR
KRXE 220053Z AUTO 21018G25KT 10SM CLR 17/M03 A2962 RMK AO2 PK WND
     21039/0022 SLP001 T01721033=
K4S2 220055Z AUTO 00000KT 10SM -RA SCT023 OVC070 08/07 A2970 RMK
     AO2 P0005=
K6S2 220055Z AUTO 21012G23KT 4SM -RA BR BKN003 OVC009 12/12 A2977
     RMK AO2 P0003=
KACV 220053Z AUTO 21004KT 10SM OVC023 15/10 A2992 RMK AO2 SLP138
     T01500100=
KALW 220053Z 18012KT 10SM -RA HZ OVC055 08/06 A2968 RMK AO2 SLP051
     P0006 T00780061=
KBCE 220053Z AUTO 24010KT 10SM CLR 12/M06 A3004 RMK AO2 SLP113
     T01171056=
KBKE 220053Z AUTO 10008KT 10SM OVC055 09/05 A2963 RMK AO2 RAE16
     SLP042 P0000 T00940050=
KJSO 220055Z AUTO 20007KT 10SM CLR 24/11 A2994 RMK AO2 T02370109
     TSNO=
KLGB 220053Z 19006KT 10SM CLR 22/17 A2983 RMK AO2 SLP101
     T02170167=
KLVK 220053Z 29010KT 10SM CLR 18/11 A2981 RMK AO2 SLP092
     T01780111=
KMAE 220053Z AUTO 00000KT 10SM SCT110 28/09 A2977 RMK AO2 SLP078
     T02830089=
KMLS 220053Z AUTO 35016KT 10SM -RA OVC080 10/06 A2954 RMK AO2
     RAB34 SLP008 P0000 T01000061=
KMMV 220053Z AUTO 12003KT 1 1/4SM -RA BR BKN007 OVC014 09/08 A2971
     RMK AO2 SLP059 P0003 T00890083=
KMOD 220053Z 31007KT 10SM CLR 27/08 A2975 RMK AO2 SLP075
     T02720078=
KMYV 220053Z AUTO 16009KT 10SM CLR 26/04 A2972 RMK AO2 SLP068
     T02560044 $=
KONT 220053Z 24010KT 10SM CLR 24/15 A2983 RMK AO2 SLP088
     T02390150=
KABR 220053Z AUTO 15007KT 10SM CLR 07/M01 A2956 RMK AO2 SLP015
     T00721006=
KATY 220053Z AUTO 00000KT 10SM CLR 11/00 A2958 RMK AO2 SLP022
     T01060000=
KBKL 220053Z 16013KT 10SM CLR 16/01 A2992 RMK AO2 SLP132
     T01610011=
KBRD 220053Z AUTO 00000KT 8SM CLR 08/01 A2960 RMK AO2 SLP028
     T00830006=
KCKB 220053Z 00000KT 10SM CLR 09/01 A3006 RMK AO2 SLP180
     T00940011=
KD25 220055Z AUTO 00000KT 10SM CLR 04/02 A2962 RMK AO2
     T00440022=
KDET 220053Z 18011KT 9SM CLR 17/03 A2983 RMK AO2 SLP101
     T01720033=
KDFI 220053Z AUTO 19010KT 10SM CLR 17/03 A2986 RMK AO2 SLP112
     T01670028=
KDTW 220053Z 17009KT 10SM FEW250 14/03 A2984 RMK AO2 SLP106
     T01440028=
KHSI 220053Z AUTO 00000KT 9SM CLR 14/00 A2962 RMK AO2 SLP027
     T01390000=
KHYR 220053Z AUTO 00000KT 10SM CLR 06/02 A2962 RMK AO2 SLP038
     T00610017=
KICR 220053Z AUTO 12010KT CLR 13/01 A2953 RMK AO2 SLP002
     T01280011=
KPHD 220053Z AUTO 15004KT 10SM CLR 13/00 A3002 RMK AO2 SLP167
     T01280000=
KPTK 220053Z 18006KT 10SM FEW230 16/03 A2981 RMK AO2 SLP098
     T01560028=
KRCX 220055Z AUTO 00000KT 10SM CLR 07/04 A2964 RMK AO2
     T00710043=
KRHI 220053Z AUTO 26003KT 10SM CLR 06/01 A2965 RMK AO2 SLP048
     T00560011=
KRWF 220053Z AUTO 00000KT 10SM CLR 13/01 A2961 RMK AO2 SLP030
     T01330011=
KSEG 220053Z AUTO 00000KT 10SM CLR 03/01 A3012 RMK AO2 SLP202
     T00280011=
PABA 220052Z AUTO 09020G24KT 10SM OVC016 M04/M06 A2993 RMK AO2
     SLP140 T10391061 FZRANO PNO $=
K06D 220055Z AUTO 33006KT 10SM -RA SCT021 BKN032 OVC038 06/05
     A2956 RMK AO2=
K0S9 220055Z AUTO 00000KT 5SM -RA BKN035 OVC041 09/08 A2971 RMK
     AO2 P0003=
K0VG 220055Z AUTO 00000KT 10SM CLR 07/01 A3010 RMK AO2=
K15M 220055Z AUTO 18003KT 10SM CLR 18/10 A3000 RMK AO2 T01800101
     $=
K1R7 220055Z AUTO 16007KT 10SM CLR 20/17 A3003 RMK AO2 PWINO=
K24J 220055Z AUTO 00000KT 10SM 11/04 A3010 RMK A01=
K28J 220055Z AUTO 00000KT 10SM BKN034 11/07 A3010 RMK AO2 TSNO=
K2D5 220055Z AUTO 14006KT 4SM HZ FEW018 FEW025 OVC050 11/00 A2955
     RMK AO2=
K2P2 220055Z AUTO 00000KT 10SM CLR 07/07 A2959 RMK AO2
     T00740074=
K3AU 220055Z AUTO 17008KT 10SM CLR 23/M05 A2965 RMK AO2=
