SAUS70 KWBC 212300 RRL
METAR
KVEL 212253Z AUTO 25013G23KT 10SM CLR 23/M11 A2981 RMK AO2 PK WND
     23026/2236 WSHFT 2214 SLP052 T02281111=
K20U 212255Z AUTO 36007KT 10SM CLR 11/02 A2954 RMK AO2=
KHYR 212253Z AUTO 27003KT 10SM CLR 17/02 A2958 RMK AO2 SLP020
     T01670017=
KHZY 212253Z AUTO 17010KT 10SM CLR 16/01 A2995 RMK AO2 SLP143
     T01560006=
KIMT 212254Z AUTO 26003KT 7SM CLR 17/03 A2954 RMK AO2 SLP010
     T01670033=
KLNL 212255Z AUTO 00000KT 10SM CLR 13/02 A2959 RMK AO2
     T01290021=
KLPR 212253Z AUTO 19012KT 10SM CLR 17/02 A2991 RMK AO2 SLP129
     T01720017=
KMBS 212253Z 18008KT 10SM CLR 17/04 A2971 RMK AO2 SLP062
     T01720039=
KMPO 212253Z AUTO 18004KT 10SM CLR 09/M02 A3010 RMK AO2 SLP208
     T00891017=
KPBG 212253Z AUTO 17012G16KT 10SM CLR 12/M01 A3001 RMK AO2 SLP163
     T01171006=
KPCZ 212255Z AUTO 26005KT 10SM CLR 19/02 A2959 RMK AO2
     T01900021=
KPOU 212253Z 00000KT 10SM CLR 09/02 A3010 RMK AO2 SLP191
     T00940022=
KRWF 212253Z AUTO 00000KT 10SM CLR 17/01 A2962 RMK AO2 SLP030
     T01720011=
KSPW 212253Z AUTO 10005KT 10SM CLR 21/02 A2961 RMK AO2 SLP027
     T02060017=
KTHV 212253Z AUTO 00000KT 10SM CLR 08/02 A3010 RMK AO2 SLP199
     T00780022=
KTVC 212253Z 20006G15KT 10SM FEW180 FEW240 19/04 A2958 RMK AO2
     SLP017 T01890044=
KYIP 212253Z 19009KT 10SM CLR 19/03 A2979 RMK AO2 SLP088
     T01890028=
KCDW 212253Z 20003KT 10SM CLR 14/01 A3013 RMK AO2 SLP208
     T01390006=
KDKK 212253Z AUTO 19007KT 10SM CLR 16/00 A2992 RMK AO2 SLP135
     T01560000=
KFDY 212253Z AUTO 19012KT 10SM CLR 18/02 A2986 RMK AO2 SLP108
     T01830022=
KFRG 212253Z 19005KT 10SM CLR 12/06 A3015 RMK AO2 SLP209 T01220056
     $=
KFWN 212253Z AUTO 00000KT 10SM CLR 10/02 A3012 RMK AO2 SLP200
     T01000022=
KMDW 212253Z 20014G20KT 10SM FEW250 24/03 A2968 RMK AO2 PK WND
     18027/2203 SLP049 T02390028=
KMLT 212253Z AUTO 00000KT 10SM CLR 07/03 A3010 RMK AO2 SLP200
     T00670028=
KMMK 212253Z AUTO 00000KT 10SM CLR 09/02 A3014 RMK AO2 SLP205
     T00890017=
KMNN 212253Z AUTO 20011KT 8SM CLR 17/01 A2992 RMK AO2 SLP136
     T01670011=
KMSS 212253Z AUTO 17005KT 10SM CLR 11/M02 A2996 RMK AO2 SLP149
     T01061022=
KMVY 212253Z 20005KT 10SM CLR 12/07 A3016 RMK AO2 SLP214
     T01170067=
KOSH 212253Z 00000KT 10SM CLR 19/04 A2958 RMK AO2 SLP016
     T01940039=
KOTM 212253Z AUTO 19007KT 9SM CLR 25/03 A2960 RMK AO2 SLP021
     T02500028=
KPKB 212253Z 17003KT 10SM CLR 15/M01 A3002 RMK AO2 SLP169
     T01501006=
KUUU 212253Z AUTO 20005KT 10SM CLR 13/07 A3015 RMK AO2 SLP209
     T01280067=
KXVG 212253Z AUTO 00000KT 10SM CLR 12/00 A2957 RMK AO2=
K6S2 212255Z AUTO 18009G16KT 140V210 3SM UP BR OVC016 12/12 A2982
     RMK AO2 P0002=
KBKE 212253Z AUTO 04006KT 10SM -RA BKN060 OVC075 11/03 A2973 RMK
     AO2 RAB2159 SLP074 P0000 T01060033=
KHJO 212253Z AUTO 00000KT 9SM CLR 32/08 A2978 RMK AO2 SLP083
     T03170083=
KMAE 212253Z AUTO 00000KT 10SM SCT110 32/07 A2978 RMK AO2 SLP082
     T03170067=
KMFR 212253Z 33004KT 10SM OVC060 22/08 A2983 RMK AO2 SLP095
     T02170083=
KMLP 212253Z AUTO VRB04KT 1/4SM -SN FZFG VV002 M02/M03 A2962 RMK
     AO2 SLP991 P0005 T10221028=
KRDD 212253Z 17009KT 10SM CLR 28/05 A2974 RMK AO2 SLP065
     T02830050=
KSJC 212253Z 32013KT 10SM FEW250 21/12 A2985 RMK AO2 SLP108
     T02060117=
KSMF 212253Z 17012KT 10SM BKN250 28/05 A2976 RMK AO2 SLP077
     T02780050=
KSPB 212253Z AUTO 15004KT 2 1/2SM -RA BR BKN044 OVC060 09/09 A2976
     RMK AO2 SLP079 P0004 T00940089=
KSTS 212253Z AUTO 16013KT 8SM CLR 18/11 A2984 RMK AO2 SLP097
     T01780106=
