SAUS70 KWBC 212312
METAR
KEFT 212315Z AUTO 22012KT 10SM CLR 21/03 A2962 RMK AO2
     T02050025=
KEVM 212302Z AUTO 24005KT 10SM CLR 12/02 A2958 RMK AO2=
KEZS 212315Z AUTO 00000KT 10SM CLR 18/04 A2957 RMK AO2
     T01820039=
KGAF 212315Z AUTO 26009KT 8SM CLR 13/01 A2952 RMK AO2=
KPDC 212315Z AUTO 00000KT 10SM CLR 21/01 A2960 RMK AO2
     T02130007=
KSUW 212315Z AUTO 27003KT 10SM CLR 14/03 A2956 RMK AO2
     T01400025=
KDYA 212315Z AUTO 00000KT 10SM CLR 18/14 A3003 RMK AO2
     T01790141=
KFRH 212315Z AUTO 17003KT 10SM CLR 18/M01 A2991 RMK AO1=
KGWW 212315Z AUTO 00000KT 10SM CLR 12/06 A3012 RMK AO2
     T01210058=
KJYO 212315Z AUTO 17005KT 10SM CLR 15/01 A3013 RMK AO2=
KMRN 212315Z AUTO 00000KT 10SM CLR 09/07 A3015 RMK AO2
     T00920065=
KMYJ 212315Z AUTO 17005KT 10SM CLR 22/03 A2972 RMK AO2=
KOIC 212315Z AUTO 16003KT 10SM CLR 10/M01 A3009 RMK AO2
     T00961015=
KPBH 212315Z AUTO 00000KT 10SM CLR 13/02 A2958 RMK AO2
     T01300019=
KPTB 212315Z AUTO 00000KT 10SM CLR 09/05 A3013 RMK AO2
     T00870047=
KTGI 212315Z AUTO 14006KT 10SM CLR 15/07 A3015 RMK AO1
     T01450070=
KVNW 212315Z AUTO 19008KT 10SM CLR 18/00 A2986 RMK AO2=
