SAUS70 KWBC 220100 RRN
METAR
KLRJ 220055Z AUTO 00000KT 10SM CLR 12/00 A2958 RMK AO2=
KLVN 220055Z AUTO 00000KT 10SM CLR 12/01 A2963 RMK AO2=
KLWB 220055Z AUTO 00000KT 10SM CLR 07/01 A3013 RMK AO2
     T00680007=
KMLE 220055Z AUTO 00000KT 10SM CLR 13/03 A2959 RMK AO2
     T01330030=
KN03 220055Z AUTO 23004KT 10SM CLR 08/M02 A3007 RMK AO2=
KOLE 220055Z AUTO 20008G16KT 10SM CLR 10/M02 A3002 RMK AO2=
KONL 220055Z AUTO 12007KT 10SM CLR 15/00 A2958 RMK AO2
     T01450000=
KPEA 220055Z AUTO 00000KT 10SM CLR 16/04 A2963 RMK AO2
     T01630037=
KPMH 220055Z AUTO 00000KT 10SM CLR 10/00 A3003 RMK AO2
     T01010003=
KPPQ 220055Z AUTO 16006KT 10SM CLR 17/03 A2975 RMK AO2
     T01650032=
KWBF 220055Z AUTO VRB04KT 10SM 23/14 A3008 RMK A01=
KY49 220055Z AUTO 00000KT 10SM CLR 10/00 A2958 RMK AO2
     T01020000=
KZER 220055Z AUTO 16006KT 10SM CLR 08/M01 A3013 RMK AO2=
K04V 220055Z AUTO 30007KT 10SM 11/M09 A3000 RMK AO2=
K5C1 220055Z AUTO 21003KT 10SM CLR 20/08 A2995 RMK AO1=
KAFO 220055Z AUTO 16008KT 10SM CLR 10/M07 A2978 RMK AO2=
KAXX 220055Z AUTO 26018G25KT 10SM CLR 11/M06 A3007 RMK AO2
     T01061059=
KBMT 220055Z AUTO 17004KT 10SM CLR 20/15 A3000 RMK AO2
     T02020145=
KCOM 220055Z AUTO 20006KT 10SM CLR 25/02 A2985 RMK AO2
     T02480019=
KDKB 220055Z AUTO 18008KT 10SM CLR 13/05 A2972 RMK AO2
     T01270052=
KDKR 220055Z AUTO 00000KT 10SM CLR 23/09 A2992 RMK AO2=
KE41 220055Z AUTO 18008KT 10SM CLR 22/09 A2991 RMK AO2
     T02190095=
KECU 220055Z AUTO 17007KT 10SM CLR 19/09 A3001 RMK AO2=
KETN 220055Z AUTO 18006KT 10SM CLR 24/03 A2983 RMK AO2
     T02390033=
KFMM 220055Z AUTO 00000KT 10SM CLR 19/M08 A2968 RMK AO2=
KHCR 220055Z AUTO 22009G15KT 10SM CLR 17/M11 A2983 RMK AO2=
KLLN 220055Z AUTO 23010KT 10SM CLR 17/04 A2985 RMK AO2=
KOAR 220055Z AUTO 28008KT 7SM OVC011 04/00 A2989 RMK AO2 PWINO=
KPLU 220055Z AUTO 00000KT 3SM -DZ BKN029 OVC036 08/08 A2971 RMK
     AO2=
KPOC 220047Z 23008KT 10SM CLR A2985=
KPOY 220055Z AUTO 28013KT 10SM CLR 16/M06 A2951 RMK AO2=
KSBP 220056Z 31011KT 7SM CLR 16/12 A2989 RMK AO2 SLP120
     T01610122=
KSLE 220056Z 15005KT 2SM BR OVC008 11/10 A2970 RMK AO2 RAB08E46
     SLP057 P0003 T01060100=
KUKI 220056Z AUTO VRB06G18KT 10SM CLR 23/08 A2981 RMK AO2 SLP091
     T02280078=
KWBF 220055Z AUTO VRB04KT 10SM 23/14 A3008 RMK A01=
KWJF 220056Z 24013G21KT 10SM CLR 26/07 A2986 RMK AO2 SLP101
     T02560067=
KXBP 220055Z AUTO 18006KT 10SM CLR 26/04 A2980 RMK AO2
     T02610040=
