SAUS70 KWBC 212356
METAR
K6S8 212340Z AUTO 07013G20KT 10SM 13/04 A2952 RMK A01 LAUREL=
KTFP 212315Z AUTO 18009KT 10SM CLR 24/16 A2995 RMK AO2
     T02430159=
KRID 220015Z AUTO 17007KT 10SM CLR 11/02 A2995 RMK AO2=
KMCX 220015Z AUTO 17007KT 10SM CLR 19/01 A2981 RMK AO2
     T01900013=
KMCX 220015Z AUTO 17007KT 10SM CLR 19/01 A2981 RMK AO2
     T01900013=
KRID 220015Z AUTO 17007KT 10SM CLR 11/02 A2995 RMK AO2=
