SAUS70 KWBC 212300 RRT
METAR
KGNB 212255Z AUTO 24015G22KT 10SM CLR 15/M10 A2995 RMK AO2
     T01501104=
KGNC 212255Z AUTO 24014KT 10SM CLR 27/02 A2992 RMK AO2
     T02680017=
KHBV 212250Z AUTO 16006KT 4SM HZ CLR 29/11 A2994 RMK AO2
     T02850105=
KHEQ 212255Z AUTO 25009KT 10SM CLR 27/M07 A2965 RMK AO2=
KHHW 212254Z AUTO 17006KT 10SM CLR 28/07 A2980 RMK AO2=
KHSG 212250Z AUTO 25022G28KT 10SM CLR 20/M03 A2954 RMK AO2
     T02021035=
KMHP 212255Z AUTO 00000KT 10SM CLR 15/02 A3009 RMK AO2
     T01520025=
KMPZ 212250Z AUTO 19007KT 10SM CLR 26/09 A2963 RMK AO2=
KMYZ 212250Z AUTO 00000KT 10SM CLR 27/01 A2958 RMK AO2=
KNSE 212256Z 18008KT 10SM CLR 19/07 A3007 RMK AO2 SLP170 T01890067
     $=
KOSA 212250Z AUTO 19007KT 10SM CLR 28/10 A2985 RMK AO2
     T02800098=
KOZA 212255Z AUTO 20013G20KT 10SM CLR 27/07 A2994 RMK AO2=
KPEQ 212255Z AUTO 23008KT 10SM CLR 30/07 A2987 RMK AO2
     T02960066=
KPVW 212250Z AUTO 25015KT 10SM CLR 27/M01 A2979 RMK AO2 T02671006
     TSNO=
KRGA 212258Z AUTO 00000KT 10SM CLR 18/01 A3002 RMK AO2=
KSLR 212250Z AUTO 18008KT 10SM CLR 29/05 A2985 RMK AO2
     T02920052=
KTOC 212255Z AUTO 00000KT 10SM CLR 14/03 A3010 RMK AO2
     T01400030=
KTXW 212250Z AUTO 16011KT 10SM CLR 29/14 A2994 RMK AO2
     T02850143=
KULS 212255Z AUTO 23005KT 10SM CLR 28/M09 A2965 RMK AO2=
KWWR 212250Z AUTO 19017KT 10SM CLR 30/00 A2967 RMK AO2=
KX26 212255Z AUTO 35008KT 10SM CLR 21/14 A3000 RMK AO2
     T02120143=
TISX 212253Z 05006KT 10SM SCT023 28/23 A2989 RMK AO2 SLP121
     T02780228 $=
TISX 212253Z 05006KT 10SM SCT023 28/23 A2989 RMK AO2 SLP121
     T02780228 $=
K11R 212255Z AUTO 19007KT 10SM CLR 29/11 A2992 RMK AO2
     T02900110=
K6S8 212255Z AUTO 04008G16KT 10SM 16/M00 A2951 RMK A01 LAUREL=
KAXX 212255Z AUTO 26020G27KT 10SM CLR 14/M06 A3006 RMK AO2
     T01391057=
KBMT 212255Z AUTO 19007KT 10SM CLR 25/15 A2997 RMK AO2
     T02470147=
KDUB 212256Z AUTO 28026G36KT 10SM CLR 14/M07 A2970 RMK AO2=
KDUX 212255Z AUTO 22011KT 10SM CLR 27/M05 A2973 RMK AO2
     T02741055=
KE38 212255Z AUTO 27010KT 10SM CLR 26/03 A3007 RMK AO2
     T02580033=
KEDC 212255Z AUTO 19011KT 10SM CLR 28/08 A2989 RMK AO2=
KETN 212255Z AUTO 19014G21KT 10SM CLR 30/02 A2982 RMK AO2
     T02990024=
KFMM 212255Z AUTO 24008G13KT 10SM CLR 25/M09 A2969 RMK AO2=
KFWZ 212255Z AUTO 24016G28KT 10SM CLR 12/M08 A2981 RMK AO2=
KGLE 212255Z AUTO 18013G17KT 10SM CLR 30/03 A2979 RMK AO2
     T03020031 PWINO=
KHCR 212255Z AUTO 22010G20KT 190V250 10SM CLR 21/M09 A2986 RMK
     AO2=
KHVE 212255Z AUTO 14008KT 10SM CLR 25/M05 A2986 RMK AO2=
KJAS 212255Z AUTO 19011G17KT 9SM CLR 26/11 A2993 RMK AO2=
KTMK 212255Z AUTO 11003KT 2 1/2SM BR BKN017 OVC024 11/10 A2976 RMK
     AO2 P0001=
KBQP 212300Z AUTO 19004KT 10SM CLR 26/11 A2992 RMK AO2
     T02620112=
KCPC 212255Z AUTO 00000KT 10SM CLR 14/06 A3011 RMK AO2
     T01370062=
KUYF 212255Z AUTO 19007KT 10SM CLR 14/M02 A2995 RMK AO2=
