SAUS70 KWBC 220200 RRX
METAR
KKLS 220156Z AUTO 00000KT 6SM -RA BR SCT019 SCT029 OVC040 09/08
     A2966 RMK AO2 SLP046 P0013 T00890083=
KLCG 220155Z AUTO 00000KT 7SM CLR 07/M03 A2959 RMK AO2
     T00701029=
KLGD 220156Z AUTO 30006KT 8SM -RA SCT019 OVC047 08/08 A2965 RMK
     AO2 SLP047 P0015 T00830078=
KLLJ 220155Z AUTO 31007KT 10SM BKN048 BKN065 OVC075 09/02 A2968
     RMK AO2 PK WND 29033/0101 RAB05E49 SLP035 P0000 T00940017=
KLNA 220155Z AUTO 34010G16KT 10SM CLR 22/19 A3000 RMK AO2 LTG DSNT
     NE T02210191 PNO=
KLNC 220155Z AUTO 17008KT 10SM CLR 24/09 A2986 RMK AO2
     T02420085=
KLNQ 220155Z AUTO 13003KT 10SM CLR 18/14 A3012 RMK AO2
     T01780136=
KLPC 220156Z AUTO 01004KT 10SM OVC012 15/13 A2990 RMK AO2 SLP125
     T01500133=
KLUA 220155Z AUTO 00000KT 10SM CLR 06/01 A3014 RMK AO2=
KLUG 220155Z AUTO 00000KT 10SM FEW036 FEW044 12/06 A3001 RMK
     A01=
KLXY 220155Z AUTO 17008KT 10SM CLR 22/11 A2990 RMK AO2
     T02170106=
KLYO 220155Z AUTO 14007KT 10SM CLR 21/00 A2960 RMK AO2
     T02100000=
KLZU 220156Z AUTO 00000KT 10SM CLR 08/04 A3013 RMK AO2 SLP216
     T00830039=
KM02 220155Z AUTO 19008G13KT 160V220 8SM 18/09 A2997 RMK A01=
KM04 220155Z AUTO 19005KT 10SM FEW050 20/10 A2991 RMK A01=
KM08 220155Z AUTO 15008KT 10SM CLR 19/10 A2995 RMK A01=
KM30 220155Z AUTO 16003KT 10SM CLR 18/08 A2991 RMK AO2
     T01810077=
KM54 220150Z AUTO 15006KT 10SM FEW045 FEW050 16/02 A2999 RMK
     A01=
KM75 220155Z AUTO 07005KT 10SM SCT028 OVC034 07/05 A2954 RMK
     A01=
KM91 220155Z AUTO 15006KT 10SM SCT046 SCT055 18/05 A2997 RMK
     A01=
KLBT 220156Z AUTO 00000KT 10SM CLR 08/06 A3015 RMK AO2 SLP209
     T00830056 TSNO=
KBTN 220155Z AUTO 15007KT 3SM HZ FEW027 OVC042 11/M00 A2954 RMK
     AO2=
KOAR 220155Z AUTO 28005KT 10SM OVC011 03/00 A2988 RMK AO2
     PWINO=
