SAUS80 KWBC 220046
METAR
KROS 220043Z AUTO 00000KT 10SM CLR 12/04 A2962 RMK AO2=
