SACA35 KWBC 220000
METAR
MGGI NIL=
MGPB 220000Z 27004KT 9999 SCT018 OVC080 24/23 Q1013 A2991=
MGSJ 220000Z 36004KT 9999 SCT026 27/24 Q1011 A2985 FEW200=
MHLC 220000Z 30004KT 4000 RA FEW007 BKN020 OVC070 23/23 Q1013
     A2992 NOSIG=
MHLM 220000Z 07008KT 9999 SCT022 OVC070 24/22 Q1013 A2993
     NOSIG=
MHTG 220000Z 03008KT 9999 FEW022 BKN032 21/18 Q1017 A3003
     NOSIG=
MNPC NIL=
MPBO NIL=
MPCH NIL=
MPDA 220000Z 27004KT 3000 TSRA BKN003 SCT012CB 25/24 Q1010=
MPMG NIL=
MPSA NIL=
MPTO 220000Z 29004KT 9999 SCT016 BKN080 25/23 Q1009 NOSIG=
MRLB NIL=
MRLM 220000Z 21004KT CAVOK 25/24 A2985=
MROC 220000Z 12003KT 9999 3000SW BCFG FEW010 BKN100 21/20 A3002
     NOSIG=
MRPV 220000Z 11001KT 6000 -RA FEW030 SCT060 20/20 A3000 NOSIG=
MSLP 212350Z 26006KT 9999 FEW020 BKN033 28/25 Q1010 A2982
     NOSIG=
MSSS NIL=
MZBZ 220000Z 01005KT 9999 FEW020 BKN045 27/21 A2995 Q1014
     NOSIG=
