SAUS70 KWBC 220120 RRD
METAR
KASL 220115Z AUTO 00000KT 10SM CLR 21/12 A2989 RMK AO2 T02100116
     TSNO $=
KAVQ 220115Z AUTO 26005KT 10SM CLR 29/06 A2984 RMK AO2
     T02850060=
KBDN 220115Z AUTO 22016KT 10SM FEW055 SCT070 15/07 A2966 RMK
     AO2=
KBQX 220110Z AUTO 17019KT 10SM 24/14 A3001 RMK A01=
KF05 220115Z AUTO 20009KT 10SM CLR 25/03 A2973 RMK AO2
     T02540030=
KIFP 220115Z AUTO 17009KT 10SM CLR 31/03 A2973 RMK AO2=
KPYX 220115Z AUTO 20007KT 10SM CLR 15/M09 A2966 RMK AO2
     T01511086=
KSZT 220115Z AUTO 20004KT 7SM -DZ SCT008 BKN016 OVC028 03/02 A2964
     RMK AO2=
KUVA 220115Z AUTO 13003KT 10SM CLR 20/10 A2995 RMK AO2
     T02020100=
KVAF 220115Z AUTO 16013G18KT 10SM BKN044 24/13 A3004 RMK A01=
KWBF 220115Z AUTO 12004KT 10SM 24/13 A3008 RMK A01=
K04W 220115Z AUTO 00000KT 10SM CLR 05/02 A2960 RMK AO2=
K6B0 220115Z AUTO 14003KT 10SM CLR 08/00 A3010 RMK AO2
     T00770000=
KAEL 220115Z AUTO 00000KT 10SM CLR 09/03 A2965 RMK AO2=
KANW 220115Z AUTO 15006KT 10SM CLR 12/M01 A2956 RMK AO2
     T01221013=
KBTA 220115Z AUTO 00000KT 10SM CLR 17/01 A2959 RMK AO2
     T01670005=
KC09 220115Z AUTO 18005KT 10SM CLR 17/05 A2973 RMK AO2
     T01720048=
KCKC 220115Z AUTO 00000KT 10SM CLR 09/02 A2956 RMK AO2=
KCNB 220115Z AUTO 14004KT 10SM CLR 11/01 A2961 RMK AO2
     T01050005=
KDEH 220115Z AUTO 00000KT 10SM SCT018 14/01 A2963 RMK AO2=
KDTL 220115Z AUTO 13005KT 10SM OVC055 10/01 A2956 RMK AO2=
KHYX 220115Z AUTO 19010G15KT 10SM CLR 16/04 A2973 RMK AO2
     T01590040=
KI74 220115Z AUTO 18006KT 10SM CLR 12/01 A2996 RMK AO2=
KIFA 220115Z AUTO 08003KT 10SM CLR 13/01 A2964 RMK AO2
     T01340011=
KIGQ 220115Z AUTO 20011KT 10SM CLR 18/04 A2976 RMK AO2
     T01770042=
KJPX 220115Z AUTO 21004KT 10SM CLR 12/08 A3017 RMK AO2
     T01240077=
KLXL 220115Z AUTO 00000KT 10SM CLR 06/01 A2961 RMK AO2=
KMWM 220115Z AUTO 08003KT 10SM CLR 07/00 A2963 RMK AO2=
KONA 220115Z AUTO 00000KT 10SM CLR 10/04 A2965 RMK AO2=
KONZ 220115Z AUTO 20012KT 10SM OVC100 14/02 A2985 RMK AO2
     T01370021=
KOXD 220115Z AUTO 00000KT 10SM CLR 16/M02 A2995 RMK AO2
     T01601025=
KPCW 220115Z AUTO 20011G17KT 10SM CLR 15/02 A2988 RMK AO2=
KPRO 220115Z AUTO 00000KT 10SM CLR 14/00 A2961 RMK AO2
     T01391001=
KTNU 220115Z AUTO 07005KT 10SM CLR 17/01 A2962 RMK A01=
KTTF 220115Z AUTO 19007G17KT 10SM CLR 16/02 A2985 RMK AO2
     T01570021=
KULM 220115Z AUTO 00000KT 10SM CLR 10/M01 A2962 RMK AO2=
KY49 220115Z AUTO 00000KT 10SM CLR 10/00 A2957 RMK AO2
     T00990000=
K33N 220115Z AUTO 00000KT 10SM CLR 07/06 A3016 RMK A01=
K3I2 220115Z AUTO 00000KT 10SM CLR 09/02 A3006 RMK AO2
     T00860018=
K46D 220115Z AUTO 00000KT 7SM FEW039 SCT047 OVC070 10/02 A2956 RMK
     AO2=
KADC 220116Z AUTO 16003KT 10SM CLR 10/01 A2958 RMK AO2 TSNO=
KAIG 220115Z AUTO 24005KT 10SM CLR 09/03 A2965 RMK AO2
     T00860027=
KBAX 220115Z AUTO 19012KT 10SM CLR 15/04 A2974 RMK AO2
     T01460038=
KCAD 220115Z AUTO 19006KT 10SM CLR 14/04 A2968 RMK AO2
     T01350041=
KCCY 220115Z AUTO 03005KT 7SM CLR 11/00 A2963 RMK AO2=
KCVX 220115Z AUTO 21004KT 10SM CLR 14/06 A2962 RMK AO2
     T01410055=
KDSF 220110Z AUTO 05009KT 10SM CLR 22/13 A3010 RMK A01=
KERY 220115Z AUTO 22003KT 5SM BR CLR 05/05 A2962 RMK AO2
     T00510047=
KFFX 220115Z AUTO 21010G18KT 10SM CLR 19/04 A2971 RMK AO2
     T01920043=
KHZX 220115Z AUTO 00000KT 10SM CLR 07/02 A2961 RMK AO2=
KIMS 220115Z AUTO 15005KT 10SM CLR 14/01 A2998 RMK AO2=
KLVN 220115Z AUTO 00000KT 10SM CLR 11/02 A2963 RMK AO2=
KLWA 220115Z AUTO 20011G20KT 10SM CLR 20/02 A2974 RMK AO2
     T01960022=
KM30 220115Z AUTO 00000KT 10SM CLR 16/07 A2991 RMK AO2
     T01550071=
