SAUS70 KWBC 220132
METAR
K1S5 220135Z AUTO 00000KT 10SM -DZ SCT070 OVC120 09/08 A2965 RMK
     AO2 T00870077=
KJXI 220135Z AUTO 16004KT 10SM CLR 22/10 A2989 RMK AO2
     T02200101=
KMCJ 220135Z AUTO 18015G20KT 10SM CLR 23/15 A2997 RMK A01=
KDYA 220135Z AUTO 14004KT 10SM CLR 17/13 A3006 RMK AO2
     T01700130=
KFRH 220135Z AUTO 16005KT 10SM CLR 16/00 A2993 RMK AO1=
KGWW 220135Z AUTO 00000KT 10SM SCT055 08/06 A3015 RMK AO2
     T00820064=
KIPJ 220135Z AUTO 00000KT 10SM CLR 06/04 A3015 RMK AO2
     T00560040=
KJYO 220135Z AUTO 20004KT 10SM CLR 10/03 A3016 RMK AO2=
KMRN 220135Z AUTO 00000KT 10SM CLR 06/04 A3019 RMK AO2
     T00600040=
KMYJ 220135Z AUTO 17007KT 10SM CLR 17/02 A2973 RMK AO2=
KOIC 220135Z AUTO 19003KT 10SM CLR 04/00 A3012 RMK AO2
     T00431005=
KPBH 220135Z AUTO 00000KT 10SM CLR 05/01 A2963 RMK AO2
     T00500012=
KPTB 220135Z AUTO 00000KT 10SM CLR 06/04 A3017 RMK AO2
     T00570040=
KTGI 220135Z AUTO 14006KT 10SM CLR 15/10 A3017 RMK AO1
     T01480101=
KVNW 220135Z AUTO 19009KT 10SM CLR 15/00 A2990 RMK AO2=
K6S8 220125Z AUTO 07010KT 10SM 11/04 A2955 RMK A01 Laurel=
KEFT 220135Z AUTO 21012KT 10SM CLR 17/03 A2966 RMK AO2
     T01670026=
KETB 220135Z AUTO 00000KT 10SM CLR 11/03 A2967 RMK AO2=
KEZS 220135Z AUTO 00000KT 10SM CLR 10/06 A2964 RMK AO2
     T00990059=
KJVY 220115Z AUTO 19004KT 10SM CLR 15/01 A2996 RMK AO2 PWINO=
KPDC 220135Z AUTO 00000KT 10SM CLR 11/03 A2964 RMK AO2
     T01120031=
KRRL 220135Z AUTO 00000KT 10SM CLR 07/03 A2964 RMK AO2 T00710029
     TSNO=
KSUW 220135Z AUTO 19003KT 10SM CLR 05/01 A2959 RMK AO2
     T00530010=
KUNU 220135Z AUTO 18004KT 10SM CLR 15/04 A2967 RMK AO2
     T01530040=
