SAUS70 KWBC 220000 RRN
METAR
KDLS 212353Z AUTO 28007KT 10SM -RA OVC080 11/07 A2972 RMK AO2
     RAE12B40 SLP063 P0000 60000 T01110067 10161 20111 58024=
KDVT 212353Z 25005KT 10SM CLR 29/09 A2982 RMK AO2 SLP076 T02940089
     10306 20272 56013=
KF70 212355Z AUTO 22008KT 10SM CLR 24/15 A2985 RMK AO2=
KFUL 212353Z 24005KT 10SM CLR 24/16 A2982 RMK AO2 SLP098 T02390161
     10261 20222 56012=
KMAE 212353Z AUTO 00000KT 10SM BKN110 32/06 A2977 RMK AO2 SLP079
     T03170056 10322 20250 56013=
KMCE 212353Z AUTO 34003KT 10SM CLR 32/04 A2976 RMK AO2 SLP077
     T03220044 10328 20250 56013=
KMYF 212353Z 22008KT 10SM FEW017 22/16 A2986 RMK AO2 SLP107
     T02170161 10239 20211 56009=
KPSX 212353Z AUTO 17008KT 10SM SCT042 23/17 A2997 RMK AO2 SLP148
     T02330167 10267 20233 55002=
KRIL 212353Z AUTO 25012KT 10SM CLR 19/M08 A2987 RMK AO2 PK WND
     26026/2315 SLP083 T01941083 10217 20144 57015=
KRTN 212353Z AUTO 26011KT 10SM CLR 19/M08 A2985 RMK AO2 PK WND
     27026/2328 SLP062 T01941078 10256 20194 56005=
KSDL 212353Z 23006KT 10SM CLR 30/08 A2983 RMK AO2 SLP078 T03000083
     10311 20278 58014=
KTTD 212353Z 09005KT 2 1/2SM -RA BR BKN035 BKN050 OVC060 10/08
     A2975 RMK AO2 SLP073 P0013 60035 T01000083 10128 20100
     58041=
KUAO 212353Z 00000KT 2SM BR BKN003 OVC012 09/08 A2976 RMK AO2
     RAE36 SLP077 P0002 60044 T00890083 10111 20089 56039=
KPTN 212356Z AUTO 17004KT 10SM CLR 19/16 A3006 RMK AO2 SLP178
     T01890156 10261 20189 55000 $=
KPTV 212356Z AUTO 30004KT 10SM CLR 32/08 A2979 RMK AO2 SLP084
     T03170078 10322 20261 56015=
KPVC 212356Z AUTO 20008KT 10SM CLR 14/09 A3018 RMK AO2 SLP217
     T01390089 10172 20133 53014=
KPVG 212356Z AUTO 00000KT 10SM CLR 07/06 A3016 RMK AO2 SLP215
     6//// T00670061 10206 20067 53011 PNO $=
KPVU 212356Z 22008KT 6SM CLR 20/03 A2983 RMK AO2 SLP076 T02000033
     10239 20172 56019=
KPWG 212356Z AUTO 17011KT 10SM CLR 27/09 A2987 RMK AO2 SLP107
     6//// T02720089 10322 20272 55003=
KPWT 212356Z AUTO 18005KT 10SM -RA FEW008 SCT028 BKN037 08/08
     A2972 RMK AO2 SLP069 P0002 60005 T00830083 10094 20083
     58007=
KRKD 212356Z AUTO 00000KT 10SM CLR 05/04 A3015 RMK AO2 SLP211
     T00500039 10144 20050 53014=
KRNP 212355Z AUTO 18007KT 10SM CLR 17/03 A2975 RMK AO2 T01710027
     10210 20171=
KRQB 212355Z AUTO 13004KT 10SM CLR 16/05 A2968 RMK AO2 T01640045
     10205 20164=
KRUT 212356Z AUTO 13009KT 10SM CLR 08/M02 A3009 RMK AO2 SLP190
     T00781017 10144 20078 53009 $=
KSDY 212356Z AUTO 36007KT 10SM OVC110 08/07 A2955 RMK AO2 RAE2257
     SLP023 6//// T00780067 10100 20078 53006 PNO $=
KSFM 212356Z AUTO 00000KT 10SM CLR 03/03 A3014 RMK AO2 SLP211
     T00330028 10161 20033 51014=
KSFZ 212356Z AUTO 00000KT 10SM CLR 11/06 A3016 RMK AO2 SLP214
     T01060061 10178 20106 53016=
KSGH 212356Z AUTO 18004KT 10SM CLR 15/01 A2996 RMK AO2 SLP148
     T01500006 10211 20150 53012=
KSGJ 212356Z 33005KT 10SM CLR 16/10 A3009 RMK AO2 SLP189 T01610100
     10211 20161 53008=
KSGT 212356Z AUTO 18007KT 10SM CLR 23/09 A2988 RMK AO2 SLP119
     T02280089 10278 20228 55001=
KSGU 212356Z AUTO 27008KT 10SM CLR 27/M01 A2984 RMK AO2 SLP080
     T02671006 10272 20183 56021=
KSJX 212355Z AUTO 23010G15KT 10SM CLR 11/08 A2962 RMK AO2
     T01090077 10180 20106=
KSKX 212356Z AUTO 27011KT 10SM CLR 16/M06 A3002 RMK AO2 SLP142
     T01611061 10194 20161 57007=
KSLG 212356Z AUTO 16007KT 10SM CLR 22/06 A2980 RMK AO2 SLP085
     T02220061 10283 20217 55003=
KSLH 212355Z AUTO 26005KT 10SM CLR 14/06 A2960 RMK AO2=
