SAUS70 KWBC 220224
METAR
K19S 220215Z AUTO 16006KT 7SM CLR 17/M04 A2965 RMK AO2
     T01711041=
KADH 220215Z AUTO 16008KT 10SM CLR 22/07 A2978 RMK AO2=
KANK 220210Z AUTO 24007KT 10SM CLR 13/M11 A3001 RMK AO1
     T01261107=
KBBG 220215Z AUTO 16007KT 10SM CLR 19/05 A2984 RMK AO2=
KBMC 220210Z AUTO 10SM CLR 17/M09 A2971 RMK AO1 T01651090=
KCHK 220210Z AUTO 18004KT 10SM CLR 20/05 A2969 RMK AO2
     T02000046=
KCPC 220215Z AUTO 00000KT 10SM CLR 09/06 A3016 RMK AO2
     T00850060=
KDUB 220214Z AUTO 29019G24KT 10SM CLR 11/M08 A2968 RMK AO2=
KDWX 220210Z AUTO 20006KT 10SM CLR 08/M17 A2987 RMK AO2
     T00801173=
KEAN 220210Z AUTO 24009G15KT 10SM CLR 19/M11 A2962 RMK AO2
     T01861115=
KEBS 220215Z AUTO 05003KT 7SM CLR 08/M00 A2960 RMK AO2=
KEDC 220215Z AUTO 18006KT 10SM CLR 22/09 A2993 RMK AO2=
KGLE 220215Z AUTO 18012KT 10SM CLR 24/07 A2981 RMK AO2
     T02370067=
KGNC 220215Z AUTO 22007KT 10SM CLR 19/07 A2992 RMK AO2
     T01930068=
KHBV 220210Z AUTO 15007KT 5SM HZ CLR 21/15 A2998 RMK AO2
     T02080154=
KHHW 220214Z AUTO 17007KT 10SM CLR 22/09 A2983 RMK AO2=
KHSG 220210Z AUTO 24017G22KT 10SM CLR 18/M06 A2956 RMK AO2
     T01771060=
KLOT 220215Z AUTO 18010KT 10SM CLR 18/04 A2977 RMK AO2=
KMMH 220216Z AUTO 25004G19KT 10SM CLR 14/M08 A3004 RMK AO2=
KMPZ 220210Z AUTO 17007KT 10SM CLR 17/07 A2969 RMK AO2=
KMYZ 220210Z AUTO 00000KT 10SM CLR 17/03 A2960 RMK AO2=
KOSA 220210Z AUTO 14005KT 10SM CLR 18/12 A2988 RMK AO2
     T01850117=
KOZA 220215Z AUTO 19010G18KT 10SM CLR 21/08 A2995 RMK AO2=
KPBX 220210Z AUTO 15004KT 10SM CLR 14/01 A3007 RMK AO2
     T01350006=
KPVW 220210Z AUTO 24009KT 10SM CLR 17/01 A2980 RMK AO2
     T01740011=
KRBW 220215Z AUTO 00000KT 10SM CLR 07/05 A3016 RMK AO2=
KRGA 220218Z AUTO 00000KT 10SM CLR 14/01 A3005 RMK AO2=
KSLR 220210Z AUTO 18008KT 10SM CLR 24/10 A2988 RMK AO2
     T02350100=
KTOC 220215Z AUTO 33004KT 10SM CLR 07/03 A3015 RMK AO2
     T00740029=
KTXW 220210Z AUTO 14012KT 10SM CLR 23/16 A2999 RMK AO2
     T02340164=
KW75 220235Z AUTO 00000KT 10SM CLR 09/07 A3019 RMK AO1
     T00850069=
KWWR 220210Z AUTO 17014KT 10SM CLR 22/00 A2967 RMK AO2=
KOAR 220215Z AUTO 26007KT 10SM OVC011 03/00 A2988 RMK AO2
     PWINO=
KOSC 220215Z AUTO 20008KT 10SM CLR 15/05 A2970 RMK AO2
     T01450047=
KBYL 220215Z AUTO 15005KT 10SM CLR 11/00 A3007 RMK AO1=
KDLL 220235Z AUTO 00000KT 10SM CLR 07/03 A2965 RMK AO2
     T00680026=
KGAF 220235Z AUTO VRB04KT 7SM FEW016 SCT034 BKN047 10/02 A2956 RMK
     AO2=
KGPH 220235Z AUTO 18005KT 10SM CLR 22/02 A2966 RMK AO2=
KHDC 220222Z AUTO 16006KT 10SM CLR 17/13 A3008 RMK AO2 TSNO=
KUKF 220215Z AUTO 00000KT 10SM CLR 05/02 A3022 RMK AO2=
KUYF 220215Z AUTO 18009KT 10SM CLR 09/M01 A2999 RMK AO2=
KW13 220235Z AUTO 10SM CLR 06/01 A3016 RMK AO1 T00570011=
