SAUS80 KWBC 220122
METAR
KSFY 220122Z AUTO 17007KT 10SM CLR 15/03 A2966 RMK AO2=
KSOA 220115Z AUTO 17008KT 10SM 23/08 A2997 RMK AO2=
K77S 220135Z AUTO 21009KT 10SM BKN015 OVC022 15/15 A2973 RMK
     A01=
K9V9 220115Z AUTO 12009KT 10SM CLR 11/02 A2954 RMK AO2
     T01090015=
KAYS 220115Z AUTO 00000KT 10SM CLR 11/10 A3012 RMK AO2
     T01050096=
KGIC 220115Z AUTO 09005KT 7SM SCT035 BKN044 OVC050 06/05 A2966 RMK
     AO1 P0001=
KCKP 220115Z AUTO 00000KT 10SM CLR 13/00 A2960 RMK AO2
     T01260001=
K4BM 220115Z AUTO 17014G23KT 10SM CLR 04/M17 A3012 RMK AO2=
KIZA 220115Z AUTO 27011KT 10SM CLR 17/13 A2988 RMK AO2=
KCBE 220115Z AUTO 00000KT 10SM CLR 09/01 A3014 RMK AO2
     T00910014=
K77S 220135Z AUTO 21009KT 10SM BKN015 OVC022 15/15 A2973 RMK
     A01=
KGIC 220115Z AUTO 09005KT 7SM SCT035 BKN044 OVC050 06/05 A2966 RMK
     AO1 P0001=
KPSN 220115Z AUTO 16004KT 10SM CLR 23/10 A2990 RMK AO2=
KSOA 220115Z AUTO 17008KT 10SM 23/08 A2997 RMK AO2=
KSFY 220122Z AUTO 17007KT 10SM CLR 15/03 A2966 RMK AO2=
