SAKA31 PTYA 220200
METAR PTYA 220151Z VRB03KT 12SM SCT016 BKN300 30/26 A2981 RMK SLP095
T02990263=
