SAUS70 KWBC 212258
METAR
KRID 212315Z AUTO 20008KT 10SM CLR 16/03 A2993 RMK AO2=
KMCX 212315Z AUTO 19007KT 10SM CLR 20/01 A2979 RMK AO2
     T02030010=
KGZN 212240Z AUTO 20012G22KT 10SM CLR 30/01 A2981 RMK AO2=
