SAUS70 KWBC 212338 RRE
METAR
KBNW 212335Z AUTO 00000KT 10SM CLR 20/00 A2963 RMK AO2=
KBPC 212335Z AUTO 26010G15KT 10SM CLR 28/M06 A2968 RMK AO2 PNO=
KBTA 212335Z AUTO 12003KT 7SM CLR 21/01 A2959 RMK AO2
     T02100008=
KBTN 212335Z AUTO 16006KT 5SM HZ CLR 14/M00 A2954 RMK AO2=
KBXA 212335Z AUTO 19007KT 10SM CLR 22/13 A3004 RMK AO2
     T02240125=
KC09 212335Z AUTO 19009KT 10SM CLR 21/05 A2970 RMK AO2
     T02070048=
KC83 212335Z AUTO 24013KT 10SM CLR 27/07 A2979 RMK AO2=
KCBK 212335Z AUTO 12003KT 10SM CLR 22/M06 A2967 RMK AO2
     T02251063=
KCCY 212335Z AUTO 36005KT 6SM HZ CLR 17/00 A2963 RMK AO2=
KCKZ 212335Z AUTO 00000KT 10SM CLR 08/02 A3014 RMK AO2=
KCRX 212335Z AUTO 16006KT 10SM CLR 20/09 A2995 RMK AO2=
KCSQ 212335Z AUTO 00000KT 2SM HZ CLR 23/01 A2960 RMK AO2=
KCVC 212335Z AUTO 00000KT 10SM CLR 12/02 A3009 RMK AO2=
KCWC 212335Z AUTO 19018G23KT 140V210 10SM CLR 31/01 A2974 RMK AO2
     T03110011=
KCXE 212335Z AUTO 00000KT 10SM CLR 09/03 A3013 RMK AO1
     T00930033=
KCXP 212335Z AUTO 20015G23KT 10SM CLR 23/M05 A2992 RMK AO2=
KCXU 212335Z AUTO 00000KT 10SM CLR 12/05 A3009 RMK AO1
     T01230045=
KCXW 212330Z AUTO 16006KT 7SM CLR 22/08 A2983 RMK A01=
K05U 212330Z AUTO 26012G18KT 10SM 22/M13 A2993 RMK A01=
K0A0 212335Z AUTO 22011G19KT 10SM CLR 26/02 A2994 RMK AO2=
K0A9 212335Z AUTO 00000KT 9SM CLR 09/02 A3008 RMK A01=
K0F2 212335Z AUTO 18009G17KT 10SM CLR 29/03 A2977 RMK AO2
     T02930025=
K0R0 212335Z AUTO 17007KT 10SM FEW070 23/11 A3004 RMK AO2=
K1A9 212335Z AUTO 00000KT 10SM CLR 15/08 A3007 RMK AO2
     T01480082=
K1K1 212335Z AUTO 16005KT 10SM CLR 26/M02 A2964 RMK AO2
     T02641017=
K1M5 212335Z AUTO 17004KT 10SM CLR 18/03 A2997 RMK A01=
K1V6 212335Z AUTO 27015G19KT 10SM CLR 24/M10 A2976 RMK AO2=
K2A0 212335Z AUTO 00000KT 10SM CLR 13/03 A3005 RMK A01=
K2G2 212335Z AUTO 19005KT 10SM CLR 13/M02 A3001 RMK A01=
K2M2 212335Z AUTO 15006KT 7SM CLR 18/09 A2999 RMK A01=
K33N 212335Z AUTO 00000KT 10SM CLR 10/06 A3014 RMK A01=
K36K 212330Z AUTO 14003KT 10SM CLR 26/M06 A2968 RMK AO2=
K3I2 212335Z AUTO 00000KT 10SM CLR 12/02 A3003 RMK AO2
     T01150017=
K3J7 212335Z AUTO 00000KT 10SM CLR 14/00 A3010 RMK AO2=
K3LF 212335Z AUTO 15009KT 10SM CLR 20/03 A2981 RMK AO2
     T01960030=
K3S8 212335Z AUTO 27007G17KT 220V310 10SM BKN049 BKN055 OVC075
     21/11 A2986 RMK AO2=
K46U 212335Z AUTO 26009KT 10SM FEW100 17/M06 A2975 RMK A01=
K4V0 212335Z AUTO 25014KT 10SM CLR 22/M09 A2982 RMK AO2
     T02151089=
K54A 212335Z AUTO 35004KT 10SM CLR 21/13 A2999 RMK AO2=
K5T9 212330Z AUTO 14005KT 10SM CLR 26/13 A2988 RMK A01=
K65S 212330Z AUTO VRB06G13KT 9SM FEW022 SCT032 05/04 A2960 RMK
     AO2=
K6A2 212335Z AUTO 00000KT 10SM CLR 10/03 A3010 RMK AO2=
K7W4 212335Z AUTO 00000KT 10SM CLR 10/04 A3013 RMK AO1
     T01010044=
K82V 212335Z AUTO 24006KT 10SM CLR 18/M11 A2970 RMK AO2=
K8A3 212335Z AUTO 21004KT 10SM CLR 16/01 A3002 RMK A01=
KAAS 212335Z AUTO 17004KT 10SM CLR 15/00 A3004 RMK AO1=
KACP 212335Z AUTO 18004KT 10SM CLR 24/14 A2998 RMK AO2=
KAEJ 212335Z AUTO 24007G17KT 10SM 16/M15 A2997 RMK AO2
     T01571147=
KAFP 212335Z AUTO 00000KT 10SM CLR 11/02 A3013 RMK AO2
     T01070015=
KAGI 212335Z AUTO 13013KT 10SM CLR 25/12 A3003 RMK AO2
     T02460123=
KALX 212335Z AUTO 00000KT 10SM CLR 14/08 A3009 RMK AO2
     T01400082=
KLUX 212335Z AUTO 00000KT 10SM CLR 11/02 A3011 RMK AO2=
KLVN 212335Z AUTO 00000KT 7SM CLR 12/01 A2962 RMK AO2=
KLXY 212335Z AUTO 18010G21KT 10SM CLR 28/10 A2986 RMK AO2
     T02750096=
KLYO 212335Z AUTO 17006KT 10SM CLR 25/00 A2960 RMK AO2
     T02521003=
KM02 212335Z AUTO 17005KT 9SM 20/08 A2994 RMK A01=
