SAUS80 KWBC 220106
METAR
KROS 220103Z AUTO 00000KT 10SM CLR 11/04 A2962 RMK AO2=
