SAUS70 KWBC 220000 RRL
METAR
KLAS 212356Z 16007KT 10SM FEW220 29/M02 A2980 RMK AO2 SLP072
     T02941017 10294 20244 56026=
KSBP 212356Z 31011KT 10SM CLR 19/13 A2988 RMK AO2 SLP116 T01890128
     10239 20172 55000=
KTPH 212356Z AUTO 23008KT 10SM CLR 22/M08 A2994 RMK AO2 SLP094
     T02221078 10239 20161 56017=
KUKI 212356Z AUTO 28005KT 10SM CLR 25/08 A2980 RMK AO2 SLP084
     T02500083 10294 20194 56011=
KWJF 212356Z 24016KT 10SM CLR 28/08 A2985 RMK AO2 SLP096 T02780078
     10311 20244 56010=
KBYS 212355Z AUTO 17008KT 9SM CLR 28/M03 A2981 RMK AO2 SLP075
     T02811029 10287 20247 57021=
PPIZ 212356Z AUTO 04005KT 10SM SCT037 OVC047 M03/M04 A2970 RMK AO2
     SLP061 60000 T10281044 11011 21044 51009 FZRANO=
KWJF 212356Z 24016KT 10SM CLR 28/08 A2985 RMK AO2 SLP096 T02780078
     10311 20244 56010=
KBAF 212353Z 21003KT 10SM CLR 07/01 A3013 RMK AO2 SLP207 T00720011
     10172 20072 51016=
KBJJ 212356Z AUTO 18006KT 10SM CLR 12/02 A2998 RMK AO2 SLP156
     T01170017 10183 20117 53015=
KCXY 212356Z 00000KT 10SM CLR 12/02 A3012 RMK AO2 SLP202 T01170022
     10189 20111 53010=
KDAY 212356Z 20010KT 10SM BKN250 18/00 A2995 RMK AO2 SLP141
     T01780000 10222 20178 53011=
KDDH 212354Z AUTO 00000KT 10SM CLR 07/M04 A3009 RMK AO2 SLP197
     T00671039 10156 20067 53009 $=
KEAU 212356Z 00000KT 10SM CLR 12/03 A2961 RMK AO2 SLP030 T01170033
     10200 20117 53013=
KGON 212356Z 22010KT 10SM CLR 16/09 A3015 RMK AO2 SLP210 T01560094
     10178 20156 53012=
KHWV 212356Z AUTO 00000KT 10SM CLR 09/07 A3016 RMK AO2 SLP213
     T00940067 10172 20094 53010=
KHYA 212356Z 21006KT 10SM CLR 13/07 A3017 RMK AO2 SLP216 T01330067
     10161 20133 53013=
KJMS 212356Z AUTO 17003KT 10SM FEW110 12/00 A2952 RMK AO2 SLP004
     T01170000 10167 20117 55008=
KJXN 212356Z 17009KT 10SM CLR 16/04 A2978 RMK AO2 SLP088 T01610039
     10211 20150 53004=
KLNR 212356Z AUTO 00000KT 9SM CLR 16/03 A2962 RMK AO2 SLP028
     T01560028 10272 20144 53018=
KVPZ 212356Z AUTO 20010G19KT 10SM CLR 21/03 A2977 RMK AO2 SLP082
     T02060028 10250 20206 53010 $=
KGVT 212355Z AUTO 17009KT 10SM CLR 25/09 A2983 RMK AO2 TSNO
     T02470085 10319 20246 403190056=
KGZL 212355Z AUTO 18007KT 10SM CLR 25/05 A2976 RMK AO2=
KHDE 212355Z AUTO 17005KT 10SM CLR 18/M02 A2961 RMK AO2 T01811017
     10236 20180=
KHHG 212355Z AUTO 19006KT 10SM CLR A2984 RMK AO2=
KHII 212355Z AUTO 21005KT 10SM CLR 32/04 A2976 RMK AO2=
KHMZ 212355Z AUTO 18003KT 10SM CLR 08/M01 A3008 RMK AO2 T00831011
     10168 20083=
KHNR 212355Z AUTO 00000KT 10SM CLR 13/00 A2960 RMK A01=
KHPT 212355Z AUTO 35003KT 10SM CLR 12/00 A2963 RMK AO2=
KHUM 212355Z AUTO 14006KT 7SM CLR 18/14 A3007 RMK AO2 T01800142
     10246 20180=
KI63 212355Z AUTO 17007KT 10SM CLR 18/02 A2970 RMK AO2 T01830018
     10269 20183=
KI75 212355Z AUTO 18004KT 7SM CLR 20/03 A2961 RMK AO2 T01960030
     10283 20187=
KIBM 212355Z AUTO 26006KT 10SM CLR 16/M10 A2968 RMK AO2 T01621099
     10250 20162=
KICL 212355Z AUTO 00000KT 9SM CLR 18/03 A2960 RMK AO2=
KIKK 212355Z AUTO 19008KT 10SM CLR 19/03 A2977 RMK AO2 T01890025
     10245 20189=
KIKV 212355Z AUTO 02003KT 10SM CLR 16/03 A2961 RMK AO2=
KJOT 212355Z AUTO 19007KT 10SM CLR 21/05 A2972 RMK AO2 T02110047
     10249 20211=
KK88 212355Z AUTO 16008KT 10SM CLR 24/04 A2969 RMK AO1 T02350040
     10294 20235=
KLAM 212355Z AUTO 25008G14KT 10SM CLR 16/M04 A3005 RMK AO2
     T01631042 10184 20128=
KLCQ 212355Z AUTO 00000KT 10SM CLR 12/05 A3009 RMK AO2=
KLGC 212355Z AUTO 00000KT 10SM CLR 11/04 A3010 RMK AO2 T01100041
     10218 20110=
KLOM 212355Z AUTO 00000KT 10SM CLR 06/04 A3014 RMK AO2 T00650045
     10182 20064 401821005=
