SAUS70 KWBC 220000 RRS
METAR
KY50 212356Z AUTO 00000KT 10SM CLR 13/04 A2963 RMK AO2 SLP037
     T01280039 10233 20122 52026 $=
KY70 212355Z AUTO 18010KT 10SM CLR 16/04 A2971 RMK AO2 T01630037
     10206 20158=
KYKN 212356Z AUTO 14003KT 1/2SM HZ CLR 18/02 A2959 RMK AO2 SLP031
     T01830017 10222 20183 55008=
PAAK 212356Z AUTO 09003KT 10SM -RA BKN024 BKN031 OVC042 A2999 RMK
     AO2 UPE18RAB18 SLPNO P0001 60001 56020 FZRANO $=
PABV 212356Z AUTO 31003KT 10SM FEW005 04/03 A2986 RMK AO2 SLP117
     T00390033 10044 20011 51009=
PAFE 212356Z AUTO 00000KT 10SM SCT060 OVC095 09/03 A2973 RMK AO2
     SLP081 T00890033 10100 20072 58005=
PAGL 212356Z AUTO 24005KT 10SM FEW024 OVC040 03/02 A2972 RMK AO2
     SLP059 60003 T00330017 10039 20022 51011 PWINO $=
PAGN 212356Z AUTO 00000KT 10SM SCT060 BKN110 07/06 A2973 RMK AO2
     RAB14E38 SLP056 P0000 6//// T00670056 10083 20067 55001=
PAKP 212356Z AUTO 20006KT 10SM CLR M06/M09 A2974 RMK AO2 SLP120
     60000 T10611089 11050 21067 52009 FZRANO=
PANI 212356Z AUTO 25008KT 8SM -RA BKN012 OVC021 04/02 A2991 RMK
     AO2 RAB44 SLP122 P0000 60006 T00390022 10044 20017 51011
     $=
KHFF 212355Z AUTO 00000KT 10SM CLR 10/04 A3010 RMK AO2 SLP198
     T00950035 10212 20095 52010=
PABA 212352Z AUTO 09019KT 10SM OVC016 M03/M06 A2991 RMK AO2 SLP134
     6//// T10331056 11028 21033 51013 FZRANO PNO $=
KTDR 212355Z AUTO 00000KT 10SM CLR 17/08 A3005 RMK AO2 SLP180
     T01720078 10253 20171 50006 $=
K10G 212355Z AUTO 18005KT 10SM CLR 15/M02 A2999 RMK AO2=
K20U 212355Z AUTO 00000KT 10SM OVC075 10/03 A2954 RMK AO2=
K6L4 212355Z AUTO 00000KT 10SM VCTS CLR 15/M00 A3006 RMK AO2 LTG
     DSNT N=
KADG 212353Z AUTO 22010KT 10SM CLR 16/03 A2983 RMK AO2 SLP106
     T01610028 10217 20161 53009=
KBGM 212353Z AUTO 21006KT 10SM CLR 09/M04 A3007 RMK AO2 SLP192
     T00941039 10133 20094 53016=
KBKL 212353Z 16014KT 10SM CLR 17/02 A2991 RMK AO2 SLP130 T01720017
     10206 20172 53015=
KFWN 212353Z AUTO 00000KT 10SM CLR 08/02 A3013 RMK AO2 SLP207
     T00780022 10183 20078 53013=
KGKJ 212353Z AUTO VRB03KT 10SM CLR 13/M01 A2999 RMK AO2 SLP159
     T01281006 10172 20128 53014=
KMDH 212352Z 17007KT 10SM CLR 19/07 A2986 RMK AO2 SLP109 T01890067
     10250 20189 53002=
KMPO 212353Z AUTO 17003KT 10SM CLR 07/M02 A3011 RMK AO2 SLP214
     T00721017 10133 20072 53008=
KRME 212353Z 10006KT 10SM CLR 11/M02 A3006 RMK AO2 SLP180
     T01061017 10161 20089 53014=
KSBM 212353Z AUTO 22004KT 10SM CLR 13/05 A2962 RMK AO2 SLP032
     T01330050 10256 20133 53027=
KSNY 212353Z AUTO 23009KT 10SM CLR 17/M07 A2964 RMK AO2 SLP005
     T01671072 10272 20167 56006=
KSPW 212353Z AUTO 11006KT 10SM CLR 17/01 A2962 RMK AO2 SLP030
     T01670011 10233 20167 55001=
KYIP 212353Z 19007KT 10SM CLR 17/03 A2981 RMK AO2 SLP094 T01720028
     10228 20172 53005=
KTTS 212355Z AUTO 35005KT 10SM FEW070 18/13 A3001 RMK AO2 SLP167
     T01810127 10242 20181 53003 $=
K2DP 212355Z AUTO 36005KT 10SM FEW075 11/11 A3011 RMK AO2 SLPNO
     T01110111 10208 20108 52007 $=
KBRO 212353Z 14010KT 10SM CLR 24/17 A2997 RMK AO2 SLP147 T02440167
     10300 20244 53002=
KFLL 212353Z 36008KT 10SM FEW045 BKN070 24/18 A2995 RMK AO2 SLP140
     T02390178 10283 20239 53011 $=
KJFK 212351Z 18008KT 10SM CLR 13/06 A3016 RMK AO2 SLP212 T01330061
     10178 20122 53009=
KMCO 212353Z 02010KT 10SM FEW060 19/09 A3004 RMK AO2 SLP171
     T01940094 10256 20194 53012=
KPBI 212353Z 34010KT 10SM SCT030 BKN070 22/18 A2997 RMK AO2 LTG
     DSNT N RAE2258 SLP148 VCSH SE CB DSNT N P0000 60001 T02220178
     10272 20217 53005 $=
TIST 212353Z 07007KT 10SM CLR 28/23 A2990 RMK AO2 SLP125 T02830228
     10317 20278 53008=
