SAUS70 KWBC 212300 RRB
METAR
KSUX 212252Z 02005KT 8SM CLR 22/01 A2959 RMK AO2 SLP019
     T02170011=
PATA 212252Z 10004KT 10SM OVC012 01/M02 A2983 RMK AO2 SNE49 SLP107
     P0000 T00061017=
KESF 212253Z AUTO 20006KT 10SM CLR 26/13 A2994 RMK AO2 SLP139
     T02610133=
KEVW 212253Z AUTO 25024G32KT 10SM CLR 17/M11 A2990 RMK AO2 PK WND
     24037/2201 SLP063 T01671106=
KEWB 212253Z 00000KT 10SM CLR 10/07 A3015 RMK AO2 SLP209
     T01000072=
KEYE 212253Z AUTO 18007G17KT 10SM CLR 21/02 A2986 RMK AO2 SLP110
     T02060017=
KEYW 212253Z 36009KT 10SM SCT048 SCT055 23/18 A2996 RMK AO2 SLP146
     T02330178=
KFAY 212253Z 00000KT 10SM CLR 16/04 A3010 RMK AO2 SLP188
     T01560044=
KFFT 212253Z AUTO 18005KT 10SM CLR 18/00 A2997 RMK AO2 SLP147
     T01830000=
KFLD 212253Z AUTO 24006KT 10SM CLR 21/02 A2959 RMK AO2 SLP022
     T02110022=
KFLL 212253Z 36006KT 10SM SCT045 BKN070 BKN130 24/18 A2993 RMK AO2
     SLP135 CB DSNT NE-SE T02390178 $=
KFLO 212253Z 00000KT 10SM CLR 14/05 A3011 RMK AO2 SLP194
     T01440050=
KFMY 212253Z AUTO 02007KT 10SM CLR 24/13 A2997 RMK AO2 SLP150
     T02390133=
KFOE 212253Z 19015KT 10SM CLR 29/07 A2961 RMK AO2 SLP021 T02890072
     $=
KFOZ 212253Z AUTO 26003KT 10SM CLR 14/00 A2961 RMK AO2=
KFPR 212253Z 34005KT 10SM FEW075 22/14 A2997 RMK AO2 SLP149
     T02170144=
KFSM 212253Z 19009KT 10SM CLR 29/06 A2978 RMK AO2 SLP079
     T02890056=
KFST 212253Z AUTO 29007KT 10SM CLR 28/07 A2990 RMK AO2 SLP086
     T02830067=
KFTW 212253Z 17015G21KT 10SM CLR 31/06 A2978 RMK AO2 SLP077
     T03110056 $=
KFUL 212253Z 21007KT 10SM CLR 24/16 A2983 RMK AO2 SLP099
     T02440156=
KFVE 212253Z AUTO 20005KT 10SM CLR 08/M01 A3003 RMK AO2 SLP173
     T00781011=
KFYV 212253Z 17008KT 10SM CLR 24/05 A2981 RMK AO2 SLP090
     T02440050=
KGEU 212252Z 21006KT 10SM FEW250 30/10 A2980=
KGEY 212253Z AUTO 09005KT 10SM CLR 22/M06 A2949 RMK AO2 SLP963
     T02221061=
KGEZ 212253Z AUTO 18009KT 10SM CLR 20/02 A2988 RMK AO2 SLP118
     T02000017=
KGFL 212253Z AUTO 00000KT 10SM CLR 06/01 A3007 RMK AO2 SLP188
     T00560006=
KGGG 212253Z 19010KT 10SM CLR 28/11 A2986 RMK AO2 SLP108
     T02780106=
KGIF 212253Z AUTO 34006KT 10SM CLR A3003 RMK AO2 SLPNO=
KGJT 212253Z 00000KT 10SM CLR 21/M02 A2987 RMK AO2 SLP071
     T02111022=
KGKY 212253Z 16015G22KT 10SM CLR 31/06 A2980 RMK AO2 SLP084
     T03110061=
KGLD 212253Z AUTO 12005KT 10SM CLR 24/M08 A2968 RMK AO2 SLP020
     T02441078=
KGLH 212253Z 19014KT 10SM CLR 28/11 A2990 RMK AO2 SLP130
     T02780106=
KGNV 212253Z 01003KT 10SM CLR 19/02 A3008 RMK AO2 SLP186
     T01890022=
KGOK 212253Z AUTO 20014G22KT 10SM CLR 30/02 A2969 RMK AO2 PK WND
     20027/2210 SLP046 T03000017=
KGPT 212253Z VRB04KT 10SM CLR 21/12 A3007 RMK AO2 SLP181
     T02060117=
KGSH 212253Z AUTO 20014G21KT 10SM CLR 19/03 A2978 RMK AO2 SLP083
     T01940033=
KGTF 212253Z 23007KT 10SM -RA BKN050 OVC070 09/05 A2955 RMK AO2
     RAB04 SLP002 P0000 T00890050=
KGUP 212253Z AUTO 26018G22KT 10SM CLR 19/03 A3007 RMK AO2 SLP104
     T01940028=
KGUY 212253Z AUTO 20010KT 10SM CLR 29/M07 A2965 RMK AO2 SLP005
     T02941072=
KGWO 212253Z AUTO 19011KT 10SM CLR 26/10 A2993 RMK AO2 SLP134
     T02610100=
KGZH 212253Z AUTO 00000KT 10SM CLR 20/08 A3006 RMK AO2 SLP178
     T02000083=
KHAO 212253Z AUTO 19004KT 10SM CLR 19/00 A2995 RMK AO2 SLP142
     T01890000=
KHBG 212253Z AUTO 17007KT 10SM CLR 24/11 A3003 RMK AO2 SLP166
     T02440111=
KHBR 212253Z AUTO 21023G33KT 10SM CLR 30/03 A2970 RMK AO2 PK WND
     21038/2201 SLP043 T03000028=
KHFD 212253Z 18005KT 10SM CLR 12/02 A3013 RMK AO2 SLP201
     T01170022=
