SAUS70 KWBC 220300
METAR
KATW 220245Z 27005KT 10SM CLR 12/02 A2966=
KBJC 220245Z 25016KT 10SM SCT120 19/M11 A2976=
KCHD 220247Z 27005KT 10SM CLR 26/10 A2982=
KEZS 220255Z AUTO 00000KT 10SM CLR 08/05 A2966 RMK AO2
     T00780052=
K1S5 220255Z AUTO 07005KT 10SM DZ BKN075 OVC090 08/07 A2961 RMK
     AO2 60005 T00820072=
KCPF 220255Z AUTO 00000KT 10SM CLR 11/01 A3008 RMK AO2=
KCWA 220247Z 00000KT 10SM CLR 07/03 A2966=
KEMV 220255Z AUTO 00000KT 10SM CLR 04/04 A3020 RMK AO2
     T00370036=
KFFA 220255Z AUTO 03003KT 10SM SCT070 16/11 A3016 RMK AO2
     T01620106=
KMCJ 220255Z AUTO 17010G16KT 10SM OVC038 21/15 A2999 RMK A01=
KSUW 220255Z AUTO 18004KT 10SM CLR 05/01 A2961 RMK AO2
     T00470010=
