SAUS70 KWBC 220200 RRX
METAR
KRKR 220155Z AUTO 20004KT 10SM CLR 18/05 A2982 RMK AO2=
KRNC 220155Z AUTO 00000KT 10SM FEW041 10/04 A3005 RMK A01=
KRSN 220155Z AUTO 19007KT 10SM CLR 20/12 A2998 RMK AO2
     T02000122=
KRTS 220155Z AUTO 23011G18KT 10SM CLR 18/M06 A2991 RMK AO2=
KRZR 220155Z AUTO 00000KT 10SM CLR 07/04 A3009 RMK A01=
KS33 220155Z AUTO 08006KT 10SM DZ SCT047 BKN060 OVC070 09/08 A2966
     RMK AO2 P0002=
KSAR 220155Z AUTO 17005KT 10SM CLR 19/08 A2987 RMK AO2
     T01900081=
KSCD 220155Z AUTO 00000KT 10SM CLR 10/07 A3011 RMK AO2
     T00990069=
KSCX 220155Z AUTO 19003KT 10SM FEW035 SCT044 SCT049 09/00 A3008
     RMK A01=
KSEM 220155Z AUTO 14006KT 10SM SCT036 BKN045 SCT050 12/10 A3009
     RMK AO2=
KSEZ 220155Z AUTO 20007KT 10SM 19/05 A3000 RMK AO2=
KSGU 220156Z AUTO 22004KT 10SM CLR 23/01 A2984 RMK AO2 SLP083
     T02280006=
KSLO 220155Z AUTO 16006KT 10SM CLR 19/05 A2986 RMK AO2
     T01870047=
KSMN 220156Z AUTO 27005KT 10SM -RA OVC050 12/02 A2966 RMK AO2
     RAB56 SLP750 P0000 T01220017=
KSNH 220150Z AUTO 16005KT 10SM FEW050 17/10 A2997 RMK A01=
KSRB 220155Z AUTO 16006KT 10SM CLR 14/02 A3005 RMK A01=
KSRE 220155Z AUTO 10SM CLR 24/04 A2975 RMK AO2=
KSTE 220155Z AUTO 00000KT 10SM CLR 07/02 A2967 RMK AO2
     T00730022=
KSWW 220155Z AUTO 21012KT 10SM CLR 22/04 A2987 RMK AO2
     T02200035=
KSYF 220155Z AUTO 14010KT 10SM CLR 12/M06 A2965 RMK AO2 T01211057
     PWINO=
KSYI 220155Z AUTO 15006KT 10SM CLR 16/03 A3003 RMK A01=
K3N8 220155Z AUTO 16004KT 10SM SCT100 SCT120 10/00 A2956 RMK AO2
     T00970000=
KAPC 220154Z 27014KT 9SM CLR 15/11 A2982 RMK AO2 SLP090
     T01500111=
KATS 220155Z AUTO 24008KT 10SM CLR 20/07 A2991 RMK AO2=
KBKS 220155Z AUTO 13008KT 10SM CLR 22/17 A2996 RMK AO2 SLP106
     T02190165 $=
KBVU 220155Z AUTO 16011KT 10SM CLR 26/02 A2980 RMK AO2=
KCMR 220155Z AUTO 18004KT 10SM CLR 10/03 A3009 RMK AO2=
KCVN 220156Z AUTO 25012KT 10SM CLR 19/00 A2986 RMK AO2 SLP086
     T01890000=
KDNA 220155Z AUTO 00000KT 10SM CLR 22/08 A2999 RMK AO2=
KGCN 220154Z 00000KT 10SM CLR 08/01 A3007 RMK AO2 SLP152
     T00780006=
KGDV 220156Z AUTO 36005KT 10SM FEW070 BKN095 08/07 A2955 RMK AO2
     RAE14 SLP016 P0000 T00780067=
KGUC 220156Z AUTO 20004KT 10SM CLR 09/M08 A3000 RMK AO2 SLP156
     T00891078=
KGXY 220156Z VRB03KT 9SM CLR 14/M04 A2970 RMK AO2 SLP052 T01441044
     $=
KHAF 220155Z AUTO 15005KT 6SM BR OVC012 14/13 A2989 RMK AO2=
KILE 220156Z AUTO 17009KT 10SM CLR 23/09 A2991 RMK AO2 SLP119
     T02280094=
KJAC 220156Z 18016KT 10SM SCT110 13/M07 A2970 RMK AO2 SLP033
     T01281067 PNO $=
KPVF 220155Z AUTO 22003KT 10SM CLR 20/04 A2989 RMK AO1=
KRBL 220154Z AUTO 19005KT 10SM CLR 25/08 A2973 RMK AO2 SLP063
     T02500078=
KSXU 220155Z AUTO 27006KT 10SM CLR 18/00 A2989 RMK AO2
     T01780000=
KU42 220155Z AUTO 21006KT 10SM CLR 14/M02 A2978 RMK AO1
     T01421021=
K04W 220155Z AUTO 00000KT 10SM CLR 05/02 A2961 RMK AO2=
KACB 220155Z AUTO 00000KT 10SM CLR 08/07 A2965 RMK AO2
     T00790067=
KADC 220155Z AUTO 00000KT 10SM CLR 10/01 A2957 RMK AO2 TSNO=
KAEL 220155Z AUTO 00000KT 7SM CLR 08/03 A2965 RMK AO2=
KBID 220156Z AUTO 21008KT 10SM CLR 13/07 A3021 RMK AO2 SLP229
     T01330067=
KBMI 220156Z 18013KT 10SM CLR 16/04 A2979 RMK AO2 SLP084
     T01610039=
KCAD 220155Z AUTO 20007KT 10SM CLR 13/04 A2968 RMK AO2
     T01290041=
KCDA 220155Z AUTO 13006KT 10SM 07/M02 A3012 RMK AO2 T00711018=
KCFE 220155Z AUTO 00000KT 10SM FEW021 FEW028 OVC055 08/01 A2962
     RMK AO2=
KCIU 220156Z AUTO 25006KT 10SM CLR 09/07 A2965 RMK AO2 SLP043
     T00890067=
KCWI 220156Z AUTO 18008KT 10SM CLR 17/04 A2968 RMK AO2 SLP054
     T01670044=
