SAUS70 KWBC 220118 RRD
METAR
KW78 220115Z AUTO 00000KT 10SM CLR 06/03 A3016 RMK AO1
     T00610034=
KW81 220115Z AUTO 00000KT 10SM CLR 06/03 A3015 RMK AO1
     T00580033=
KX07 220115Z AUTO 00000KT 10SM CLR 17/10 A3006 RMK A01=
KXNX 220115Z AUTO 15003KT 10SM SCT050 16/02 A3003 RMK A01=
KY19 220115Z AUTO 08007KT 10SM BKN095 BKN120 11/02 A2951 RMK
     AO2=
KY70 220115Z AUTO 19009KT 10SM CLR 16/03 A2973 RMK AO2
     T01640033=
KRMN 220115Z AUTO 00000KT 10SM CLR 08/05 A3018 RMK AO2
     T00800048=
KRNH 220115Z AUTO 00000KT 10SM CLR 07/04 A2964 RMK AO2
     T00660041=
KRPH 220115Z AUTO VRB06KT 9SM CLR 26/03 A2976 RMK AO2 T02620033
     $=
KRQB 220115Z AUTO 17006KT 10SM CLR 16/05 A2970 RMK AO2
     T01620051=
KRUG 220115Z AUTO 36004KT 10SM SCT026 BKN030 OVC055 07/06 A2955
     RMK AO2=
KRUQ 220115Z AUTO 00000KT 10SM CLR 06/03 A3014 RMK AO2
     T00600031=
KRYV 220115Z AUTO 00000KT 10SM CLR 10/03 A2966 RMK AO2
     T00990030=
KRZL 220115Z AUTO 17007KT 10SM CLR 16/02 A2983 RMK AO2=
KRZN 220115Z AUTO 00000KT 10SM CLR 08/02 A2962 RMK AO2
     T00780021=
KRZT 220115Z AUTO 17003KT 10SM CLR 06/00 A3000 RMK AO2 PWINO=
KS25 220115Z AUTO 35006KT 10SM BKN060 OVC070 07/07 A2956 RMK
     AO2=
KS32 220115Z AUTO 00000KT 10SM SCT080 OVC100 09/M01 A2955 RMK AO2
     TSNO=
KSCR 220115Z AUTO 00000KT 10SM CLR 06/04 A3015 RMK AO2
     T00550040=
KSFQ 220115Z AUTO 00000KT 10SM CLR 10/08 A3018 RMK AO2
     T00980082=
KSIF 220115Z AUTO 00000KT 10SM CLR 05/03 A3015 RMK AO2
     T00480029=
KSIK 220115Z AUTO 18004KT 10SM CLR 20/10 A2989 RMK AO2=
KSLH 220115Z AUTO 24004KT 10SM CLR 11/06 A2962 RMK AO2=
KSPF 220115Z AUTO 21006KT 10SM CLR 10/M04 A2953 RMK AO2=
KSTF 220115Z AUTO 16006KT 10SM CLR 18/12 A2999 RMK AO2=
KSUZ 220115Z AUTO 00000KT 10SM CLR 19/10 A2988 RMK A01=
KSVC 220115Z AUTO 33007KT 10SM CLR 15/09 A3005 RMK AO2
     T01510090=
KSVH 220115Z AUTO 00000KT 10SM CLR 08/03 A3014 RMK AO2
     T00770033=
KSXU 220115Z AUTO 27009KT 10SM CLR 20/00 A2988 RMK AO2
     T01960000=
KT69 220115Z AUTO 18007KT 10SM CLR 22/16 A2997 RMK A01=
KTKX 220115Z AUTO 19006KT 7SM SCT046 18/10 A2988 RMK AO2 TSNO=
KTME 220115Z AUTO 18007KT 10SM CLR 22/15 A3000 RMK AO2=
KTOB 220115Z AUTO 00000KT 5SM HZ CLR 08/01 A2965 RMK AO2=
KTSP 220115Z AUTO 30008KT 9SM CLR 20/M01 A2997 RMK AO2=
KTWT 220115Z AUTO 00000KT 10SM CLR 17/06 A2991 RMK AO2=
KU42 220115Z AUTO 17006KT 10SM CLR 17/M01 A2979 RMK AO1
     T01681006=
KUOX 220115Z AUTO 16007KT 10SM CLR 20/10 A2998 RMK AO2 PWINO=
KUTA 220115Z AUTO 16008KT 10SM CLR 20/10 A2991 RMK AO2 T01960100
     $=
KUXL 220115Z AUTO 16005KT 10SM CLR 18/15 A3003 RMK AO2
     T01800150=
KVGC 220115Z AUTO 14007KT 10SM CLR 06/M02 A3008 RMK AO2=
KS24 220115Z AUTO 20012G18KT 10SM CLR 16/02 A2990 RMK AO2=
K04W 220115Z AUTO 00000KT 10SM CLR 05/02 A2960 RMK AO2=
K05U 220115Z AUTO 26008KT 10SM 16/M12 A2990 RMK A01=
K0A0 220115Z AUTO 20009KT 10SM CLR 21/03 A2996 RMK AO2=
K0A9 220115Z AUTO 00000KT 9SM CLR 07/02 A3011 RMK A01=
K0F2 220115Z AUTO 17005KT 10SM CLR 24/04 A2979 RMK AO2
     T02360037=
K0R0 220115Z AUTO 17007KT 10SM CLR 20/12 A3008 RMK AO2=
K13K 220115Z AUTO 17012KT 10SM CLR 24/05 A2966 RMK AO2
     T02370046=
K1A9 220115Z AUTO 00000KT 10SM CLR 11/08 A3010 RMK AO2
     T01090080=
K1F0 220115Z AUTO 16007KT 10SM CLR 23/08 A2977 RMK AO2
     T02340079=
K1K1 220115Z AUTO 18009G14KT 10SM CLR 25/M02 A2964 RMK AO2
     T02451018=
K1M5 220115Z AUTO 17009KT 10SM FEW046 FEW050 17/02 A2998 RMK
     A01=
K1V6 220115Z AUTO 27007KT 10SM CLR 18/M11 A2976 RMK AO2=
K2A0 220115Z AUTO 00000KT 10SM CLR 09/03 A3008 RMK A01=
