SAUS70 KWBC 220300
METAR
KRYN 220245Z 21005KT 10SM CLR 24/10 A2989=
