SAUS70 KWBC 220000 RRX
METAR
KFLY 212355Z AUTO 21003KT 10SM CLR 19/M09 A2984 RMK AO2 T01861095
     10216 20176=
KFOT 212350Z AUTO 29011KT 10SM OVC020 15/09 A2995 RMK AO1=
KFTN 212355Z AUTO 16005KT 10SM CLR 26/10 A2992 RMK A01=
KFYE 212350Z AUTO 15003KT 10SM CLR 22/10 A2991 RMK A01=
KFYM 220000Z AUTO 15006KT 10SM FEW043 15/04 A3004 RMK A01=
KGAD 212356Z AUTO 00000KT 10SM CLR 13/05 A3007 RMK AO2 SLP191
     T01280050 10228 20128 53003 $=
KGAO 212355Z AUTO 00000KT 10SM CLR 19/13 A3008 RMK AO2 T01850127
     10255 20185=
KGCY 212355Z AUTO 00000KT 10SM CLR 12/01 A3007 RMK A01=
KGDJ 212355Z AUTO 17008KT 10SM CLR 29/04 A2981 RMK AO2 T02920040
     10330 20292=
K14Y 212355Z AUTO 00000KT 10SM CLR 10/00 A2961 RMK AO2=
KCFE 212355Z AUTO 00000KT 7SM SCT029 BKN070 12/02 A2961 RMK
     AO2=
KDXR 212353Z 00000KT 10SM CLR 08/02 A3015 RMK AO2 SLP212 T00830022
     10178 20078 53014=
KDYL 212354Z AUTO 00000KT 10SM CLR 11/01 A3013 RMK AO2 SLP206
     T01110011 10178 20111 53009=
KFIG 212354Z AUTO 00000KT 10SM CLR 12/M02 A3005 RMK AO2 SLP187
     T01171022 10172 20117 53013=
KGWR 212355Z AUTO 15006KT 6SM HZ CLR 12/01 A2955 RMK A01=
KHZE 212355Z AUTO 05004KT 10SM OVC065 11/03 A2952 RMK AO2=
KIDI 212355Z AUTO 12004KT 10SM BKN050 BKN060 09/02 A3007 RMK
     A01=
KMDS 212355Z AUTO 14005KT 10SM CLR 15/00 A2960 RMK AO2=
KMGJ 212354Z AUTO 00000KT 10SM CLR 06/01 A3011 RMK AO2 SLP199
     T00610011 10156 20061 53012=
KN38 212355Z AUTO 19010KT 10SM CLR 09/M02 A3005 RMK AO2=
KOEO 212355Z AUTO 00000KT 10SM CLR 10/04 A2965 RMK AO2 T01020042
     10199 20102=
KOLG 212355Z AUTO 00000KT 10SM CLR 10/00 A2958 RMK AO1=
KRVL 212355Z AUTO 00000KT 10SM CLR 10/M00 A3009 RMK AO2=
KRYM 212355Z AUTO 24003KT 10SM CLR 11/M00 A2959 RMK AO2 SLP027
     T01071005 10178 20107 53009 $=
KMOP 212355Z AUTO 18007KT 10SM CLR 17/04 A2969 RMK AO2 T01660044
     10201 20165=
KMOR 212355Z AUTO 04003KT 10SM BKN047 12/00 A3006 RMK A01=
KMOX 212355Z AUTO 16003KT 10SM CLR 14/M04 A2961 RMK AO2=
KMRC 212355Z AUTO 15004KT 10SM CLR 19/08 A2996 RMK A01=
KMUT 212355Z AUTO 16006KT 10SM CLR 21/03 A2964 RMK AO2=
KMVH 212355Z AUTO 31009KT 6SM BR 07/06 A2957 RMK AO2 P0003
     PWINO=
KMZH 212355Z AUTO 00000KT 10SM CLR 11/01 A2959 RMK AO2=
KO69 212355Z AUTO 29008KT 9SM CLR 15/11 A2986 RMK A01=
KOEL 212355Z AUTO 04006KT 10SM CLR 20/M13 A2966 RMK AO1 T01981129
     10295 20198=
KOJA 212355Z AUTO 20011G20KT 10SM CLR 28/02 A2969 RMK AO2
     T02770023 10318 20271 403180117=
KONA 212355Z AUTO 00000KT 10SM CLR 13/05 A2963 RMK AO2=
KOSC 212355Z AUTO 21011G15KT 10SM CLR 16/05 A2967 RMK AO2
     T01620047 10175 20142=
KOXI 212355Z AUTO 19010KT 10SM CLR 18/02 A2978 RMK AO1=
KP08 212355Z AUTO 34006KT 10SM CLR 30/11 A2982 RMK AO2=
KPCW 212355Z AUTO 20010KT 10SM CLR 16/02 A2986 RMK AO2=
KPEX 212355Z AUTO 00000KT 10SM CLR 11/01 A2962 RMK AO2=
KPHT 212355Z AUTO 16007KT 10SM CLR 19/09 A2992 RMK A01=
KPIB 212356Z AUTO 18005KT 10SM CLR 20/13 A3004 RMK AO2 SLP174
     6//// T02000128 10272 20200 53004 PNO $=
KPKV 212355Z AUTO 18008KT 10SM CLR 25/15 A2997 RMK AO2 T02480147
     10295 20248=
KPMH 212355Z AUTO 00000KT 10SM CLR 13/00 A3002 RMK AO2 T01270000
     10220 20125=
KPRO 212355Z AUTO 20006KT 10SM CLR 17/00 A2961 RMK AO2 T01701005
     10272 20170=
KPRS 212355Z AUTO 00000KT 10SM CLR 28/11 A2994 RMK AO2 T02830114
     10292 20232=
KPTD 212355Z AUTO 18008KT 10SM SCT040 BKN046 OVC060 12/M02 A2996
     RMK AO2=
KPUJ 212355Z AUTO 00000KT 7SM CLR 14/01 A3009 RMK AO2=
KPVB 212355Z AUTO 00000KT 10SM CLR 20/01 A2964 RMK AO1 T02040005
     10250 20202=
