SAUS70 KWBC 220154
METAR
K6S8 220140Z AUTO 04010KT 10SM 11/04 A2956 RMK A01 LAUREL=
KTFP 220115Z AUTO 18008KT 10SM CLR 23/17 A2997 RMK AO2
     T02300165=
