SAUS80 KWBC 212300
METAR
KM25 212255Z AUTO 19006KT 10SM CLR 23/07 A2990 RMK AO2 PWINO=
