SAUS80 KWBC 220200 RRG
METAR
PHTO 220153Z COR 12009KT 10SM FEW013 SCT019 BKN046 26/23 A2997 RMK
     AO2 RAB05E16 SLP148 P0000 T02610233=
KFAR 220155Z 15003KT 10SM CLR 11/M02 A2956=
