SAUS70 KWBC 220000 RRX
METAR
KGZN 220000Z AUTO 19006KT 10SM CLR 27/02 A2980 RMK AO2=
