SAUS70 KWBC 212300 RRW
METAR
KOCW 212255Z AUTO 00000KT 10SM 14/08 A3013 RMK AO2 T01350075=
