SAUS70 KWBC 212300 RRQ
METAR
KRBD 212253Z 19013G22KT 10SM CLR 30/08 A2980 RMK AO2 SLP086
     T03000078=
KRTN 212253Z AUTO 27017G25KT 10SM CLR 22/M08 A2985 RMK AO2 PK WND
     27026/2231 SLP050 T02221078=
KRWL 212253Z AUTO 26024G33KT 10SM CLR 18/M11 A2979 RMK AO2 PK WND
     27044/2221 RAE43 SLP018 P0000 T01781106=
KRXE 212253Z AUTO 22021G32KT 10SM FEW023 19/M03 A2967 RMK AO2 PK
     WND 22041/2212 SLP018 T01891028=
KSAF 212253Z 27015G22KT 10SM CLR 20/M03 A3000 RMK AO2 SLP088
     T02001033=
KSDL 212253Z 10SM CLR 31/08 A2984 RMK AO2 SLP084 T03060083=
KAPA 212253Z 35007KT 10SM FEW200 23/M11 A2976 RMK AO2 SLP017
     T02281106=
KBMQ 212253Z AUTO 18014G22KT 10SM CLR 28/07 A2992 RMK AO2 SLP115
     T02830072=
KBPT 212253Z 18010KT 10SM CLR 24/16 A2998 RMK AO2 SLP151
     T02390156=
KBRO 212253Z 14014KT 10SM CLR 27/17 A2996 RMK AO2 SLP144
     T02670167=
KBYG 212253Z AUTO 26003KT 10SM CLR 18/M03 A2955 RMK AO2 SLP964
     T01781028=
KCAG 212253Z AUTO 26021G33KT 10SM CLR 19/M10 A2986 RMK AO2 PK WND
     25033/2250 SLP086 T01891100=
KCOT 212253Z AUTO 20007KT 8SM CLR 30/10 A2991 RMK AO2 SLP121
     T03000100=
KGKY 212253Z 16015G22KT 10SM CLR 31/06 A2980 RMK AO2 SLP084
     T03110061=
KIDA 212253Z 23023G37KT 10SM CLR 20/M03 A2970 RMK AO2 PK WND
     22041/2203 SLP029 T02001033=
KITR 212253Z AUTO 14009KT 10SM CLR 25/M08 A2971 RMK AO2 SLP021
     T02501083=
KLFK 212253Z AUTO 19008G17KT 10SM CLR 28/10 A2992 RMK AO2 SLP128
     T02780100=
KLGB 212253Z 19005KT 10SM CLR 23/17 A2984 RMK AO2 SLP104
     T02330167=
KPUB 212253Z AUTO 28015KT 10SM CLR 27/M12 A2971 RMK AO2 SLP015
     T02721117=
KRIL 212253Z AUTO 26018KT 10SM CLR 21/M08 A2989 RMK AO2 PK WND
     26027/2215 SLP083 T02111078=
KSGR 212253Z 20012KT 10SM FEW055 27/14 A2994 RMK AO2 SLP141
     T02670144=
KFLL 212253Z 36006KT 10SM SCT045 BKN070 BKN130 24/18 A2993 RMK AO2
     SLP135 CB DSNT NE-SE T02390178 $=
KJFK 212251Z 16006KT 10SM FEW250 12/06 A3015 RMK AO2 SLP208
     T01220061=
KMCO 212253Z 04009KT 10SM FEW060 21/10 A3002 RMK AO2 SLP164
     T02060100=
KPBI 212253Z 36009KT 10SM -RA SCT030 BKN050 BKN070 22/19 A2995 RMK
     AO2 RAB05 SLP143 VCSH E-SE CB DSNT NE P0001 T02220189 $=
TIST 212253Z 05008KT 10SM CLR 28/22 A2989 RMK AO2 SLP121
     T02830222=
KACK 212253Z 17008KT 10SM CLR 14/09 A3018 RMK AO2 SLP218
     T01440089=
KAIA 212253Z AUTO 24015G26KT 10SM CLR 23/M08 A2958 RMK AO2 PK WND
     26031/2212 SLP996 T02331078=
KAOO 212253Z AUTO 18005KT 10SM CLR 11/M01 A3006 RMK AO2 SLP190
     T01111011=
KAZO 212253Z 18008KT 10SM CLR 17/04 A2974 RMK AO2 SLP073
     T01720044=
KBBW 212253Z AUTO 16008KT 10SM CLR 23/M03 A2961 RMK AO2 SLP011
     T02281028=
KBEH 212253Z AUTO 18008G16KT 10SM CLR 21/04 A2970 RMK AO2 SLP058
     T02110044=
KBFD 212253Z AUTO 17004KT 10SM CLR 13/M02 A3001 RMK AO2 SLP168
     T01281017=
KBGR 212253Z 19005KT 10SM CLR 10/03 A3012 RMK AO2 SLP199
     T01000028=
KBRL 212253Z AUTO 19014G23KT 10SM CLR 24/04 A2964 RMK AO2 PK WND
     20026/2154 SLP035 T02390039=
KBTL 212253Z 19011KT 10SM CLR 19/04 A2974 RMK AO2 SLP073
     T01890039=
KGEZ 212253Z AUTO 18009KT 10SM CLR 20/02 A2988 RMK AO2 SLP118
     T02000017=
KMGW 212253Z 00000KT 10SM CLR 14/M01 A3004 RMK AO2 SLP177
     T01441006=
KRAC 212253Z AUTO 22009G19KT 10SM CLR 22/04 A2964 RMK AO2 SLP037
     T02170039=
KRME 212253Z 09005KT 10SM CLR 11/M02 A3004 RMK AO2 SLP175
     T01111017=
KSBM 212253Z AUTO 24008KT 10SM CLR 21/04 A2959 RMK AO2 SLP021
     T02110044=
KSNY 212253Z AUTO 22014KT 10SM CLR 24/M08 A2964 RMK AO2 PK WND
     24027/2208 SLP995 T02391083=
