SAUS70 KWBC 220100 RRS
METAR
PAEL 220056Z COR VRB06KT 20SM SCT022 SCT070 08/06 A2966 RMK
     NOSPECI LAST=
KEFD 220054Z 16008KT 10SM CLR 20/15 A2999=
PASI 220053Z 10004KT 10SM FEW025 BKN055 BKN070 07/04 A2972=
KBYL 220055Z AUTO 15005KT 10SM CLR 12/00 A3007 RMK AO1=
KMMH 220057Z AUTO 27008KT 10SM CLR 14/M06 A3007 RMK AO2=
KMTN 220054Z 00000KT 10SM CLR 08/06 A3016=
KSBD 220058Z 28006KT 5SM HZ CLR 27/08 A2984=
KUKF 220055Z AUTO 00000KT 10SM CLR 07/01 A3019 RMK AO2=
KUYF 220055Z AUTO 18007KT 10SM CLR 10/M01 A2998 RMK AO2=
