SAUS70 KWBC 220222 RRD
METAR
KLOM 220215Z AUTO 00000KT 10SM CLR 05/03 A3019 RMK AO2
     T00480033=
KLWB 220215Z AUTO 00000KT 10SM CLR 05/01 A3015 RMK AO2
     T00500005=
KLXN 220215Z AUTO 16008KT 10SM CLR 12/M01 A2959 RMK AO2
     T01171009=
KMLE 220215Z AUTO 00000KT 10SM CLR 11/03 A2959 RMK AO2
     T01070025=
KN03 220215Z AUTO 22005KT 10SM CLR 08/M02 A3009 RMK AO2=
KOGA 220215Z AUTO 27004KT 10SM CLR 16/M04 A2960 RMK AO2
     T01561043=
KOGS 220215Z AUTO 17009KT 10SM FEW055 12/M01 A2995 RMK AO2=
KOLE 220215Z AUTO 20007KT 10SM CLR 08/M02 A3004 RMK AO2=
KOQN 220215Z AUTO 00000KT 10SM CLR 10/03 A3018 RMK AO2=
KOWX 220215Z AUTO 19009KT 10SM CLR 15/M01 A2993 RMK AO1=
KPEA 220215Z AUTO 14003KT 10SM CLR 18/03 A2964 RMK AO2
     T01840030=
KPPQ 220215Z AUTO 17008KT 10SM CLR 18/03 A2975 RMK AO2
     T01770032=
KRCR 220215Z AUTO 19011G18KT 10SM CLR 17/03 A2985 RMK AO2=
KSLB 220215Z AUTO 08007KT 9SM CLR 11/00 A2961 RMK AO2=
KTIF 220215Z AUTO 17012KT 10SM CLR 17/M02 A2957 RMK AO2
     T01651022=
KUNI 220215Z AUTO 00000KT 7SM -SN CLR 05/02 A3003 RMK AO2
     T00470017=
K11R 220215Z AUTO 18010G15KT 10SM CLR 23/15 A2996 RMK AO2
     T02300150=
K20V 220215Z AUTO 25006G09KT 10SM CLR 11/M08 A2994 RMK AO2=
K2J5 220215Z AUTO 00000KT 10SM CLR 07/03 A3016 RMK AO2
     T00710030=
K6I2 220215Z AUTO 15008KT 10SM CLR 14/00 A3001 RMK AO2=
K8A0 220215Z AUTO 16004KT 10SM CLR 14/03 A3009 RMK AO2=
KADT 220215Z AUTO 18003KT 10SM CLR 15/M06 A2968 RMK AO2
     T01511056=
KCTJ 220215Z AUTO 00000KT 10SM CLR 07/04 A3017 RMK AO2
     T00740040=
KDCY 220215Z AUTO 18009KT 10SM CLR 14/03 A2991 RMK AO2
     T01410025=
KGNB 220215Z AUTO 27010G16KT 10SM CLR 09/M10 A2999 RMK AO2
     T00941102=
KHEQ 220215Z AUTO 20009KT 10SM CLR 15/M05 A2964 RMK AO2=
KHVE 220215Z AUTO 17008KT 10SM CLR 18/M05 A2983 RMK AO2=
KJES 220215Z AUTO 00000KT 10SM CLR 07/03 A3016 RMK AO2=
KJSV 220220Z AUTO RMK AO2 PWINO TSNO=
KK62 220215Z AUTO 18007KT 10SM CLR 12/00 A3000 RMK AO2=
KMHP 220215Z AUTO 00000KT 10SM CLR 08/05 A3014 RMK AO2
     T00810047=
KPEQ 220215Z AUTO 22009KT 10SM CLR 21/09 A2989 RMK AO2
     T02120090=
KPXE 220215Z AUTO 00000KT 7SM CLR 06/06 A3014 RMK AO2
     T00630056=
KTRK 220215Z AUTO 21005KT 10SM CLR 14/M03 A2999 RMK AO2=
KTZR 220215Z AUTO 17004KT 10SM CLR 11/01 A3001 RMK AO2
     T01070005=
KULS 220215Z AUTO 00000KT 10SM CLR 15/M07 A2964 RMK AO2=
KW99 220219Z AUTO 00000KT 10SM CLR 04/02 A3014 RMK AO2=
KX26 220215Z AUTO 32006KT 10SM CLR 19/14 A3004 RMK AO2 LTG DSNT E
     AND SE T01880138=
