SAUS70 KWBC 220226
METAR
KEVM 220221Z AUTO 00000KT 10SM CLR 05/02 A2960 RMK AO2=
K2G9 220215Z AUTO 16004KT 10SM CLR 08/M02 A3011 RMK AO2=
KBUU 220215Z AUTO 21005KT 10SM CLR 16/05 A2971 RMK AO2 T01550045
     PWINO=
KC62 220235Z AUTO 20011KT 10SM CLR 15/03 A2986 RMK AO2
     T01520040=
KCGE 220215Z AUTO 14004KT 10SM CLR 07/06 A3019 RMK A01=
KDCY 220215Z AUTO 18009KT 10SM CLR 14/03 A2991 RMK AO2
     T01410025=
KDMW 220215Z AUTO 17004KT 10SM CLR 12/02 A3016 RMK AO2=
KEBS 220215Z AUTO 05003KT 7SM CLR 08/M00 A2960 RMK AO2=
KFDK 220220Z AUTO 00000KT 10SM CLR 06/05 A3016 RMK AO2=
KFME 220219Z AUTO 00000KT 10SM CLR 03/03 A3020 RMK AO1=
KFXY 220215Z AUTO 00000KT 10SM CLR 06/03 A2964 RMK AO2=
KIIB 220215Z AUTO 00000KT 7SM CLR 08/02 A2965 RMK AO2
     T00830020=
KIJX 220215Z AUTO 16013G18KT CLR 19/03 A2975 RMK AO2 T01910034=
KMGC 220215Z AUTO 19010G17KT 10SM CLR 17/02 A2979 RMK AO2=
KMQB 220215Z AUTO 19010KT 10SM CLR 17/01 A2972 RMK AO2
     T01740011=
KSAW 220218Z AUTO 00000KT 10SM CLR 03/01 A2963 RMK AO2
     T00330009=
KSHL 220215Z AUTO 06009KT 10SM CLR 10/01 A2959 RMK AO2=
KTAZ 220215Z AUTO 17010KT 10SM CLR 17/04 A2981 RMK AO2
     T01700042=
KTIP 220215Z AUTO 18009KT 10SM CLR 15/03 A2983 RMK AO2
     T01480025=
KTZR 220215Z AUTO 17004KT 10SM CLR 11/01 A3001 RMK AO2
     T01070005=
KUMP 220215Z AUTO 18007KT 10SM CLR 16/03 A2992 RMK AO2
     T01610026=
KUYF 220215Z AUTO 18009KT 10SM CLR 09/M01 A2999 RMK AO2=
KVES 220215Z AUTO 19004KT 10SM CLR 13/M02 A2995 RMK AO2=
KW22 220215Z AUTO 00000KT 10SM FEW047 07/00 A3008 RMK AO2=
KW99 220219Z AUTO 00000KT 10SM CLR 04/02 A3014 RMK AO2=
KZER 220215Z AUTO 20005KT 10SM CLR 08/M02 A3016 RMK AO2=
K11R 220215Z AUTO 18010G15KT 10SM CLR 23/15 A2996 RMK AO2
     T02300150=
K20V 220215Z AUTO 25006G09KT 10SM CLR 11/M08 A2994 RMK AO2=
KANK 220210Z AUTO 24007KT 10SM CLR 13/M11 A3001 RMK AO1
     T01261107=
KBMC 220210Z AUTO 10SM CLR 17/M09 A2971 RMK AO1 T01651090=
KCZT 220215Z AUTO 18004KT 10SM CLR 17/11 A2992 RMK AO2=
KDUB 220214Z AUTO 29019G24KT 10SM CLR 11/M08 A2968 RMK AO2=
KDUX 220215Z AUTO 21010KT 10SM CLR 18/M02 A2972 RMK AO2
     T01751017=
KDWX 220210Z AUTO 20006KT 10SM CLR 08/M17 A2987 RMK AO2
     T00801173=
KE38 220215Z AUTO 23005KT 10SM CLR 15/08 A3009 RMK AO2
     T01540077=
KEAN 220210Z AUTO 24009G15KT 10SM CLR 19/M11 A2962 RMK AO2
     T01861115=
KEDC 220215Z AUTO 18006KT 10SM CLR 22/09 A2993 RMK AO2=
KETN 220215Z AUTO 19007KT 10SM CLR 22/04 A2983 RMK AO2
     T02240040=
KFWZ 220215Z AUTO 22011G20KT 10SM CLR 08/M11 A2980 RMK AO2=
KGLE 220215Z AUTO 18012KT 10SM CLR 24/07 A2981 RMK AO2
     T02370067=
KGNB 220215Z AUTO 27010G16KT 10SM CLR 09/M10 A2999 RMK AO2
     T00941102=
KGNC 220215Z AUTO 22007KT 10SM CLR 19/07 A2992 RMK AO2
     T01930068=
KHBV 220210Z AUTO 15007KT 5SM HZ CLR 21/15 A2998 RMK AO2
     T02080154=
KHCR 220215Z AUTO 00000KT 10SM CLR 13/M11 A2982 RMK AO2=
KHEQ 220215Z AUTO 20009KT 10SM CLR 15/M05 A2964 RMK AO2=
KHSG 220210Z AUTO 24017G22KT 10SM CLR 18/M06 A2956 RMK AO2
     T01771060=
KHVE 220215Z AUTO 17008KT 10SM CLR 18/M05 A2983 RMK AO2=
KMMH 220216Z AUTO 25004G19KT 10SM CLR 14/M08 A3004 RMK AO2=
KOSA 220210Z AUTO 14005KT 10SM CLR 18/12 A2988 RMK AO2
     T01850117=
KPEQ 220215Z AUTO 22009KT 10SM CLR 21/09 A2989 RMK AO2
     T02120090=
KSLR 220210Z AUTO 18008KT 10SM CLR 24/10 A2988 RMK AO2
     T02350100=
KTMK 220215Z AUTO 22012G18KT 10SM OVC014 14/12 A2962 RMK AO2=
KTRK 220215Z AUTO 21005KT 10SM CLR 14/M03 A2999 RMK AO2=
KTXW 220210Z AUTO 14012KT 10SM CLR 23/16 A2999 RMK AO2
     T02340164=
