SAUS70 KWBC 220142
METAR
KBJI 220135Z AUTO 00000KT 10SM OVC110 10/01 A2956 RMK AO2
     T01000006=
KOWX 220135Z AUTO 19010KT 10SM CLR 15/M01 A2992 RMK AO1=
KIIB 220135Z AUTO 12005KT 2 1/2SM HZ CLR 09/02 A2965 RMK AO2
     T00880015=
KIJX 220135Z AUTO 16011G15KT CLR 19/03 A2975 RMK AO2 T01940027=
KJES 220135Z AUTO 00000KT 10SM CLR 09/04 A3016 RMK AO2=
KLMO 220135Z AUTO 25013G20KT 7SM CLR 22/M09 A2973 RMK AO2
     T02211095=
KLOT 220135Z AUTO 18011G17KT 10SM CLR 19/04 A2976 RMK AO2=
KLUV 220135Z AUTO 23007KT 10SM OVC110 18/04 A2987 RMK AO2=
KMGC 220135Z AUTO 19011G16KT 10SM CLR 18/02 A2978 RMK AO2=
KMLE 220135Z AUTO 00000KT 10SM CLR 12/03 A2958 RMK AO2
     T01190028=
KMMH 220135Z AUTO 22004KT 10SM CLR 13/M07 A3006 RMK AO2=
KMQB 220135Z AUTO 18013KT 10SM CLR 18/02 A2970 RMK AO2
     T01780015=
KNOW 220135Z AUTO 29008KT 10SM -RA OVC011 09/09 A2971 RMK AO2
     P0002 T00860085=
KNRN 220135Z AUTO 00000KT 10SM CLR 12/M03 A2965 RMK AO2=
KORG 220135Z AUTO 19006KT 10SM CLR 23/16 A3004 RMK AO2
     T02300163=
KPPA 220135Z AUTO 20009KT 10SM CLR 19/02 A2972 RMK AO2
     T01870015=
KPTT 220135Z AUTO 18006KT 10SM CLR 21/M02 A2962 RMK AO2
     T02081023=
KPXE 220135Z AUTO 00000KT 5SM BR CLR 07/06 A3013 RMK AO2
     T00710057=
KRBO 220135Z AUTO 10SM CLR 22/16 A2998 RMK AO2 T02240158=
KSBO 220135Z AUTO 00000KT 10SM CLR 09/06 A3014 RMK AO2=
KSBS 220135Z AUTO 00000KT 10SM CLR 11/M10 A2988 RMK AO1
     T01121097=
KSDA 220135Z AUTO 00000KT 8SM CLR 12/02 A2958 RMK AO2=
KSEF 220135Z AUTO 36007KT 10SM SCT060 18/13 A3006 RMK AO2 LTG DSNT
     E T01810130=
KSHL 220135Z AUTO 07007KT 9SM CLR 10/00 A2959 RMK AO2=
KSJS 220135Z AUTO 18005KT 10SM CLR 14/01 A3006 RMK AO2
     T01370014=
KSLB 220135Z AUTO 08007KT 9SM CLR 13/00 A2961 RMK AO2=
KSNL 220135Z AUTO 17011G16KT 10SM CLR 23/00 A2974 RMK AO2
     T02330003=
KT35 220135Z AUTO 17006KT 10SM CLR 24/10 A2991 RMK AO2
     T02350102=
KTAZ 220135Z AUTO 17011G15KT 10SM CLR 18/04 A2980 RMK AO2
     T01750040=
KTBR 220135Z AUTO 00000KT 10SM CLR 08/05 A3013 RMK AO2
     T00830049=
KTIF 220135Z AUTO 17011KT 10SM CLR 18/M02 A2958 RMK AO2
     T01751020=
KTIP 220135Z AUTO 19008KT 10SM CLR 16/03 A2982 RMK AO2
     T01630027=
KTQK 220135Z AUTO 03005KT 10SM CLR 18/M09 A2967 RMK AO2
     T01801086=
KTVI 220135Z AUTO 00000KT 10SM CLR 09/06 A3014 RMK AO2=
KUNI 220135Z AUTO 00000KT 7SM -SN CLR 06/01 A3002 RMK AO2
     T00610013=
KVDI 220135Z AUTO 00000KT 10SM CLR 10/05 A3013 RMK AO2=
KVKS 220135Z AUTO 17008KT 10SM BKN055 BKN065 22/12 A2998 RMK
     A01=
K04V 220135Z AUTO 29009KT 10SM 10/M08 A3001 RMK AO2=
K11R 220135Z AUTO 18011G16KT 10SM CLR 24/15 A2996 RMK AO2
     T02400149=
K17J 220135Z AUTO 00000KT 10SM CLR 11/04 A3013 RMK AO2
     T01060036=
K1A6 220135Z AUTO 00000KT 10SM CLR 06/03 A3011 RMK AO2
     T00560026=
K2G9 220135Z AUTO 17006KT 10SM CLR 09/M02 A3009 RMK AO2=
K2W6 220139Z AUTO 00000KT 10SM CLR 08/06 A3018 RMK AO1=
K5C1 220135Z AUTO 20004KT 10SM CLR 18/08 A2996 RMK AO1=
K5R8 220135Z AUTO 16005KT 10SM CLR 19/15 A3003 RMK AO2
     T01900145=
K6P9 220135Z AUTO 18008KT 10SM CLR 24/05 A2984 RMK AO2
     T02400050=
K8A0 220135Z AUTO 16004KT 10SM CLR 14/03 A3008 RMK AO2=
KAFO 220135Z AUTO 18006KT 10SM CLR 11/M12 A2977 RMK AO2=
KAPS 220136Z AUTO 15007KT 10SM CLR 17/13 A3008 RMK AO2=
KBHC 220135Z AUTO 00000KT 10SM CLR A3012 RMK AO2=
KBIJ 220135Z AUTO 00000KT 10SM CLR 08/06 A3013 RMK AO2=
KBUU 220135Z AUTO 20005KT 10SM CLR 15/05 A2969 RMK AO2 T01540045
     PWINO=
KCCO 220135Z AUTO 00000KT 10SM CLR 11/04 A3013 RMK AO2
     T01060044=
KCGE 220135Z AUTO 00000KT 10SM CLR 08/06 A3017 RMK A01=
