SAUS70 KWBC 220000 RRX
METAR
KJKA 212359Z 00000KT 10SM CLR 14/10 A3010=
