SAUS70 KWBC 220100
METAR
KW13 220055Z AUTO 10SM CLR 07/00 A3013 RMK AO1 T00710004=
KCNW 220055Z 17010KT 10SM SKC 25/08 A2986=
KDLL 220055Z AUTO 00000KT 10SM CLR 12/03 A2965 RMK AO2
     T01200025=
KANE 220045Z 00000KT 10SM SCT250 11/02 A2962=
KGYY 220045Z 18006KT 10SM CLR 20/04 A2975=
