SAUS70 KWBC 212300 RRH
METAR
KVBT 212256Z AUTO 19009KT 10SM CLR 26/03 A2981 RMK AO2 SLP089
     T02560033=
KVIS 212256Z AUTO 14004KT 10SM CLR 31/09 A2979 RMK AO2 SLP091
     T03110094=
KVLL 212255Z AUTO 18005KT 10SM CLR 18/01 A2980 RMK AO2
     T01800007=
KVWU 212255Z AUTO 23003KT 10SM CLR 13/03 A2954 RMK AO2=
KWVL 212256Z AUTO 19003KT 10SM CLR 09/02 A3010 RMK AO2 SLP221
     T00890017=
KWWD 212256Z AUTO 00000KT 10SM 12/08 A3016 RMK AO2 SLP213
     T01170083 $=
KY50 212256Z AUTO 24003KT 10SM CLR 19/03 A2960 RMK AO2 SLP025
     T01890028 $=
KY70 212255Z AUTO 18008KT 10SM CLR 17/03 A2970 RMK AO2
     T01730034=
KYKN 212256Z AUTO 07004KT 10SM CLR 20/02 A2959 RMK AO2 SLP030
     T02000017=
PAAK 212256Z AUTO 15006KT 10SM UP OVC046 A3000 RMK AO2
     RAB21E32UPB32 SLPNO P0000 FZRANO $=
KS24 212255Z AUTO 19009KT 10SM CLR 18/02 A2987 RMK AO2=
PABV 212256Z AUTO 25005KT 10SM OVC005 03/03 A2985 RMK AO2 SLP114
     T00330028=
PAFE 212256Z AUTO 00000KT 10SM FEW110 09/03 A2974 RMK AO2 SLP083
     T00890033=
PAFM 212256Z AUTO 11007KT 2SM -SN BR OVC004 00/00 A2979 RMK AO2
     SLP095 P0004 T00000000 FZRANO=
PAGL 212256Z AUTO 26003KT 10SM BKN015 OVC030 04/02 A2971 RMK AO2
     SLP056 T00390017 PWINO $=
PAGN 212256Z AUTO 00000KT 10SM FEW045 BKN060 BKN075 07/06 A2973
     RMK AO2 SLP055 P0001 T00720056=
PAKK 212256Z AUTO 19005KT 5SM -SN BR SCT006 OVC013 01/00 A2968 RMK
     AO2 UPB43E50RAB50E53SNE43B53 SLP062 P0005 T00060000
     FZRANO=
PAKP 212256Z AUTO 19006KT 10SM CLR M06/M08 A2973 RMK AO2 SLP115
     T10561083 FZRANO=
PANA 212256Z AUTO 26006G15KT 10SM FEW013 06/02 A2990 RMK AO2
     SLP124 T00560022 TSNO $=
PANI 212256Z AUTO 24006KT 10SM OVC010 04/02 A2991 RMK AO2 CIG
     009V014 SLP121 T00390022 $=
PANV 212256Z AUTO 23005KT 10SM OVC007 02/02 A2978 RMK AO2 RAE35
     CIG 005V011 SLP173 P0000 T00220017 FZRANO TSNO=
PAOH 212256Z AUTO VRB05KT 10SM FEW030 BKN046 10/04 A2967 RMK AO2
     SLP047 T01000039 PNO $=
PATQ 212256Z AUTO 11018KT 10SM FEW015 OVC070 M04/M05 A2978 RMK AO2
     SLP089 T10391050 FZRANO TSNO=
PAZK 212256Z AUTO 22009KT 10SM FEW030 SCT035 SCT110 M01/M04 A2965
     RMK AO2 UPB03E07SNE03 SLP090 P0000 T10111039 FZRANO=
PFCL 212256Z AUTO 29006KT 9SM -RA FEW022 BKN029 BKN039 06/04 A2999
     RMK AO2 RAB47 SLPNO P0000 T00560039 TSNO=
PFKW 212256Z AUTO 23011KT 10SM FEW014 BKN040 05/02 A2989 RMK AO2
     SLP122 T00500017=
PFSH 212256Z AUTO 21016KT 10SM BKN010 BKN014 OVC021 03/02 A2975
     RMK AO2 SLP073 T00330022=
PFWS 212256Z AUTO 26013G16KT 10SM -RA FEW015 SCT036 BKN050 07/03
     A3000 RMK AO2 RAB36 SLP203 P0000 T00670028=
KMCD 212255Z AUTO 24010G17KT 10SM CLR 13/06 A2958 RMK AO2
     T01260064=
KMKT 212256Z AUTO 00000KT 10SM CLR 18/03 A2962 RMK AO2 SLP033
     T01780033=
KMML 212256Z AUTO 05005KT 10SM CLR 16/01 A2962 RMK AO2 SLP033
     T01610011=
KMNM 212256Z AUTO 32007KT 10SM CLR 18/04 A2957 RMK AO2 SLP014
     T01780044 PNO $=
KMQY 212256Z 16005KT 10SM CLR 20/03 A3000 RMK AO2 SLP167
     T02000033=
KMRF 212256Z AUTO 28011KT 10SM CLR 24/04 A3006 RMK AO2 SLP133
     T02440044=
KMSV 212256Z AUTO 16006KT 10SM CLR 10/M02 A3010 RMK AO2 SLP204
     T01001017=
KMTW 212256Z AUTO 00000KT 10SM CLR 14/09 A2959 RMK AO2 SLP023
     T01390089=
KMVN 212256Z AUTO 19008KT 9SM CLR 21/03 A2984 RMK AO2 SLP107
     T02110028=
KMWM 212255Z AUTO 00000KT 10SM CLR 16/02 A2962 RMK AO2=
KMYR 212256Z 00000KT 10SM CLR 15/09 A3010 RMK AO2 SLP193
     T01500094=
KOAJ 212256Z 00000KT 10SM BKN049 14/10 A3011 RMK AO2 SLP199
     T01440100=
KOCH 212256Z AUTO 18010KT 10SM CLR 28/10 A2991 RMK AO2 SLP130
     T02780100=
