SAUS70 KWBC 220000 RRD
METAR
KFCM 212353Z 00000KT 10SM CLR 15/02 A2961 RMK AO2 SLP028 T01500017
     10200 20150 53010=
KGLR 212353Z AUTO 21008KT 10SM CLR 15/04 A2963 RMK AO2 SLP040
     T01500039 10194 20150 53024=
KHAO 212353Z AUTO 00000KT 10SM CLR 14/01 A2996 RMK AO2 SLP147
     T01440006 10228 20144 53006=
KHFD 212353Z 17004KT 10SM CLR 10/04 A3014 RMK AO2 SLP207 T01000039
     10183 20094 53015=
KHUF 212353Z 18008KT 10SM CLR 18/03 A2986 RMK AO2 SLP111 T01830028
     10250 20178 53004=
KHUL 212353Z AUTO 20003KT 10SM CLR 05/00 A3008 RMK AO2 SLP193
     T00500000 10139 20044 53017=
KLEB 212353Z 18005KT 10SM CLR 05/01 A3009 RMK AO2 SLP196 T00500011
     10156 20039 52013=
KLHQ 212353Z AUTO 17003KT 10SM CLR 11/01 A2999 RMK AO2 SLP160
     T01060011 10200 20100 53010=
KLSE 212353Z 00000KT 10SM CLR 13/04 A2961 RMK AO2 SLP028 T01330044
     10244 20133 53016 $=
KLWV 212353Z AUTO 17009KT 10SM CLR 17/00 A2988 RMK AO2 SLP116
     T01670000 10256 20167 53003=
KMGW 212353Z 17004KT 10SM CLR 11/01 A3006 RMK AO2 SLP184 T01110006
     10189 20111 53007=
KMHE 212353Z AUTO 12004KT 10SM CLR 15/00 A2957 RMK AO2 SLP015
     T01500000 10206 20150 58009=
KMIE 212353Z 20010KT 10SM CLR 19/00 A2988 RMK AO2 SLP114 T01890000
     10233 20189 53009=
KMIW 212353Z AUTO 00000KT 10SM CLR 19/01 A2962 RMK AO2 SLP028
     T01940006 10256 20194 53009=
KMLT 212353Z AUTO 11003KT 10SM CLR 05/02 A3011 RMK AO2 SLP205
     T00500022 10144 20050 53015=
KMNN 212353Z AUTO 19010KT 9SM CLR 16/01 A2994 RMK AO2 SLP143
     T01560011 10211 20150 53015=
KMOT 212354Z 34013KT 10SM -RA OVC048 09/05 A2954 RMK AO2 RAB43
     SLP014 P0000 60000 T00890050 10117 20089 53001=
KMSP 212353Z 34004KT 10SM FEW160 FEW190 BKN250 14/01 A2961 RMK AO2
     SLP028 T01440011 10200 20144 53011=
KMTJ 212353Z AUTO 23009KT 10SM CLR 19/M06 A2991 RMK AO2 SLP080
     T01941056 10217 20172 56013=
KOSH 212353Z 00000KT 10SM CLR 18/04 A2961 RMK AO2 SLP026 T01780039
     10239 20172 53025=
KOWD 212353Z 18004KT 10SM CLR 11/07 A3016 RMK AO2 SLP211 T01110067
     10194 20111 53018 $=
KAIA 212353Z AUTO 23010KT 10SM CLR 19/M08 A2957 RMK AO2 SLP001
     T01941078 10250 20194 56012=
KAMW 212353Z AUTO 23004KT 3SM HZ CLR 14/01 A2961 RMK AO2 SLP027
     T01390011 10267 20139 53006=
KAOO 212353Z AUTO 21006KT 10SM CLR 10/M01 A3008 RMK AO2 SLP195
     T01001011 10172 20094 53010=
KASX 212353Z AUTO 00000KT 10SM CLR 09/04 A2959 RMK AO2 SLP023
     T00890039 10194 20089 53018=
KATY 212353Z AUTO 12003KT 10SM CLR 14/00 A2958 RMK AO2 SLP020
     T01390000 10161 20133 58003=
KAZO 212353Z 19010KT 10SM CLR 18/04 A2976 RMK AO2 SLP081 T01780044
     10217 20172 53005=
KBBW 212353Z AUTO 13005KT 10SM CLR 18/M02 A2959 RMK AO2 SLP010
     T01831022 10244 20183 58015=
KBGR 212353Z 18005KT 10SM CLR 09/01 A3013 RMK AO2 SLP204 T00890011
     10156 20089 51019=
KCMI 212353Z 18015KT 10SM CLR 19/03 A2981 RMK AO2 SLP093 T01890028
     10256 20183 53007=
KEYE 212353Z AUTO 17005KT 10SM CLR 18/02 A2987 RMK AO2 SLP115
     T01830017 10233 20183 53009=
KGFK 212353Z 20004KT 5SM FU HZ BKN080 OVC140 12/01 A2952 RMK AO2
     SLP002 FU FEW000 T01220006 10183 20122 58001=
KMCK 212353Z AUTO 16004KT 10SM CLR 22/M04 A2962 RMK AO2 SLP017
     T02221044 10261 20222 56013=
KMWC 212345Z 21011G15KT 10SM CLR 20/01 A2964=
KSMQ 212353Z AUTO 00000KT 10SM CLR 07/03 A3012 RMK AO2 SLP202
     T00720033 10183 20072 53010=
KANE 212345Z 00000KT 10SM SCT250 13/02 A2962=
KAQP 212353Z AUTO 00000KT 7SM 11/00 A2960 RMK AO2=
KAUG 212353Z AUTO 19003KT 10SM CLR 08/03 A3014 RMK AO2 SLP209
     T00830028 10156 20083 51016=
