SAUS70 KWBC 220118 RRI
METAR
KOXD 220115Z AUTO 00000KT 10SM CLR 16/M02 A2995 RMK AO2
     T01601025=
KOXI 220115Z AUTO 19009KT 10SM CLR 16/02 A2980 RMK AO1=
KOXV 220115Z AUTO 18007KT 10SM CLR 21/02 A2962 RMK AO2=
KP08 220115Z AUTO 33003KT 10SM CLR 28/12 A2982 RMK AO2=
KPCW 220115Z AUTO 20011G17KT 10SM CLR 15/02 A2988 RMK AO2=
KPEX 220115Z AUTO 00000KT 10SM CLR 07/01 A2962 RMK AO2=
KPHT 220115Z AUTO 18008KT 10SM CLR 18/10 A2993 RMK A01=
KPKV 220115Z AUTO 17006KT 10SM CLR 22/15 A2999 RMK AO2
     T02170148=
KPMH 220115Z AUTO 00000KT 10SM CLR 09/01 A3003 RMK AO2
     T00910007=
KPRO 220115Z AUTO 00000KT 10SM CLR 14/00 A2961 RMK AO2
     T01391001=
PAAD 220115Z AUTO 10020KT 10SM OVC010 M05/M06 A2988 RMK AO2
     T10461060=
PAUT 220115Z AUTO 17006KT 10SM OVC100 06/05 A3004 RMK AO2=
KBTN 220115Z AUTO 16007KT 5SM HZ SCT016 BKN024 BKN045 11/00 A2954
     RMK AO2=
KOAR 220115Z AUTO 28006KT 7SM OVC011 03/00 A2988 RMK AO2 PWINO=
KTHA 220115Z AUTO 16007KT 10SM FEW040 FEW048 15/03 A3004 RMK
     A01=
KTNU 220115Z AUTO 07005KT 10SM CLR 17/01 A2962 RMK A01=
KTQH 220115Z AUTO 17004KT 10SM CLR 22/00 A2979 RMK AO2=
KTQV 220115Z AUTO 00000KT 10SM CLR 15/02 A3014 RMK A01=
KTTF 220115Z AUTO 19007G17KT 10SM CLR 16/02 A2985 RMK AO2
     T01570021=
KU68 220115Z AUTO 05011G15KT 10SM OVC110 16/M01 A2948 RMK AO2=
KUCY 220115Z AUTO 16008KT 10SM CLR 19/10 A2990 RMK A01=
KULM 220115Z AUTO 00000KT 10SM CLR 10/M01 A2962 RMK AO2=
KUSE 220115Z AUTO 20009KT 10SM CLR 15/02 A2985 RMK AO2=
KUVA 220115Z AUTO 13003KT 10SM CLR 20/10 A2995 RMK AO2
     T02020100=
KVAF 220115Z AUTO 16013G18KT 10SM BKN044 24/13 A3004 RMK A01=
KVCV 220115Z AUTO 18013KT 9SM CLR 24/07 A2990 RMK AO2=
KVLL 220115Z AUTO 19008KT 10SM CLR 16/02 A2984 RMK AO2
     T01600020=
KVOA 220120Z AUTO 11006KT 10SM BKN055 BKN065 21/10 A3012 RMK
     A01=
KVWU 220115Z AUTO 18003KT 10SM CLR 10/02 A2954 RMK AO2=
KWBF 220115Z AUTO 12004KT 10SM 24/13 A3008 RMK A01=
KXLL 220115Z AUTO 19003KT 10SM CLR 10/01 A3016 RMK AO2=
KY31 220115Z AUTO 21004KT 10SM CLR 15/04 A2970 RMK AO2
     T01450035=
KY49 220115Z AUTO 00000KT 10SM CLR 10/00 A2957 RMK AO2
     T00990000=
PAAD 220115Z AUTO 10020KT 10SM OVC010 M05/M06 A2988 RMK AO2
     T10461060=
PAUT 220115Z AUTO 17006KT 10SM OVC100 06/05 A3004 RMK AO2=
