SAUS70 KWBC 220000 RRE
METAR
KBEH 212353Z AUTO 17008KT 10SM CLR 19/04 A2973 RMK AO2 SLP067
     T01890044 10228 20189 53006=
KBRD 212353Z AUTO 16003KT 10SM CLR 09/M01 A2959 RMK AO2 SLP026
     T00941006 10178 20089 53007=
KBTL 212353Z 19014KT 10SM CLR 18/04 A2976 RMK AO2 SLP079 T01830039
     10211 20183 53004=
KFOZ 212353Z AUTO 00000KT 10SM CLR 12/01 A2962 RMK AO2=
KFVE 212353Z AUTO 17005KT 10SM CLR 07/M01 A3002 RMK AO2 SLP170
     T00721006 10111 20072 50007=
KGFL 212353Z AUTO 00000KT 10SM CLR 04/01 A3008 RMK AO2 SLP195
     T00390006 10139 20033 53008=
KGRB 212353Z 00000KT 10SM CLR 16/04 A2960 RMK AO2 SLP026 T01560039
     10244 20156 51026=
KHIE 212352Z AUTO 00000KT 10SM CLR 01/M02 A3009 RMK AO2 SLP203
     T00111017 10133 20011 51013=
KHLG 212353Z 16007KT 10SM CLR 13/M01 A3002 RMK AO2 SLP171
     T01331011 10178 20133 53006=
KHYR 212353Z AUTO 00000KT 10SM CLR 09/03 A2960 RMK AO2 SLP029
     T00940028 10189 20094 53015=
KICR 212353Z AUTO 11007KT CLR 16/01 A2954 RMK AO2 SLP003 T01610011
     10228 20161 56016=
KAKO 212353Z AUTO 15003KT 10SM CLR 22/M07 A2969 RMK AO2 SLP009
     T02171072 10250 20217 58015=
KALI 212353Z AUTO 14012KT 10SM CLR 24/16 A2993 RMK AO2 SLP135
     T02390161 10300 20239 53001=
KAMA 212353Z 23012KT 10SM CLR 24/M01 A2973 RMK AO2 SLP030
     T02441011 10289 20244 57008=
KAPA 212353Z 00000KT 10SM FEW120 FEW200 21/M11 A2976 RMK AO2
     SLP027 T02111111 10239 20194 56008=
KBRO 212353Z 14010KT 10SM CLR 24/17 A2997 RMK AO2 SLP147 T02440167
     10300 20244 53002=
KCDS 212353Z AUTO 20013KT 10SM CLR 26/02 A2972 RMK AO2 SLP044
     T02610022 10322 20261 58009=
KCEZ 212353Z AUTO 28008KT 10SM CLR 18/M04 A2999 RMK AO2 SLP119
     T01831039 10211 20172 56011=
KCXO 212353Z 18006KT 10SM CLR 25/13 A2993 RMK AO2 SLP133 T02500128
     10289 20250 55003=
KCYS 212353Z 25019G26KT 10SM CLR 18/M11 A2974 RMK AO2 PK WND
     25031/2340 SLP008 T01831111 10228 20183 56006=
KDFW 212353Z 17014KT 10SM FEW250 29/08 A2978 RMK AO2 SLP077
     T02890078 10333 20283 55007=
KDTO 212353Z 16012KT 10SM CLR 28/06 A2978 RMK AO2 SLP079 T02830061
     10333 20283 56009=
KEEO 212353Z AUTO 21015G25KT 10SM CLR 17/M08 A2988 RMK AO2 SLP074
     T01671078 10200 20161 56012=
KGGG 212353Z 19007KT 10SM CLR 23/11 A2987 RMK AO2 SLP111 T02330111
     10300 20233 55005=
KBLI 212353Z 5SM -RA BR FEW007 BKN012 OVC050 09/09 A2972 RMK AO2
     SLP070 P0000 60005 T00940094 10100 20089 56015=
KBPI 212353Z AUTO 28020G32KT 10SM CLR 14/M08 A2982 RMK AO2 PK WND
     27032/2348 SLP055 T01391078 10178 20122 56010=
KBUR 212353Z 18008KT 10SM CLR 26/16 A2983 RMK AO2 SLP088 T02610156
     10278 20233 56014=
KCCR 212353Z 21010KT 10SM CLR 21/10 A2981 RMK AO2 SLP082 T02060100
     10233 20183 58005=
KCDC 212353Z AUTO 20015G23KT 10SM CLR 19/M03 A2995 RMK AO2 RAE50
     SLP099 P0000 60000 T01891033 10217 20189 56015=
KCNO 212353Z 24010KT 10SM FEW120 27/15 A2983 RMK AO2 SLP098
     T02670150 10300 20244 56013=
KCOT 212353Z AUTO 17004KT 8SM CLR 27/11 A2991 RMK AO2 SLP121
     T02720106 10311 20272 55008=
KCRS 212353Z AUTO 18010KT 10SM CLR 28/08 A2987 RMK AO2 SLP109
     T02780078 10317 20272 55002=
KOGD 212353Z 22008KT 10SM CLR 23/M07 A2977 RMK AO2 SLP040
     T02281072 10244 20194 56019=
KOMK 212353Z AUTO 36007KT 10SM OVC100 10/07 A2963 RMK AO2 SLP039
     60010 T01000067 10111 20078 56019=
KOVE 212353Z AUTO 17010KT 10SM CLR 28/07 A2975 RMK AO2 SLP075
     T02830072 10306 20239 56021=
KSAC 212353Z 19009KT 10SM CLR 25/08 A2976 RMK AO2 SLP079 T02500078
     10272 20206 58014=
KTCC 212353Z AUTO 26014KT 10SM CLR 23/00 A2975 RMK AO2 SLP032
     T02330000 10272 20233 56009=
