SAUS70 KWBC 212338 RRC
METAR
KLUM 212335Z AUTO 00000KT 10SM CLR 16/08 A2961 RMK AO2 T01570079
     PWINO=
KMRJ 212335Z AUTO 00000KT 10SM CLR 20/M01 A2963 RMK AO2=
KORB 212333Z AUTO 00000KT 10SM CLR 11/01 A2954 RMK AO2=
KOWA 212333Z AUTO 30003KT 7SM CLR 11/02 A2963 RMK AO2=
KOZW 212335Z AUTO 16005KT 10SM CLR 16/04 A2978 RMK AO2
     T01610040=
KRPD 212335Z AUTO 00000KT 7SM CLR 11/05 A2962 RMK AO2
     T01130050=
KSAZ 212335Z AUTO 00000KT 10SM CLR 09/00 A2960 RMK AO2=
KSDC 212335Z AUTO 17005KT 10SM CLR 13/M01 A2997 RMK AO2=
KUKT 212335Z AUTO 00000KT 10SM CLR 08/02 A3013 RMK A01=
KXVG 212333Z AUTO 00000KT 10SM CLR 08/02 A2958 RMK AO2=
K10G 212335Z AUTO 17005KT 10SM CLR 15/M02 A2998 RMK AO2=
K20U 212335Z AUTO 00000KT 10SM SCT075 10/03 A2954 RMK AO2=
K21D 212335Z AUTO 00000KT 10SM CLR 12/01 A2962 RMK AO2=
K3N8 212335Z AUTO 19003KT 10SM CLR 11/00 A2956 RMK AO2
     T01111002=
K6L4 212335Z AUTO 00000KT 10SM CLR 15/M00 A3006 RMK AO2=
KACQ 212335Z AUTO 33005KT 10SM CLR 12/02 A2964 RMK AO2=
KAIT 212335Z AUTO 00000KT 10SM CLR 08/01 A2959 RMK AO2=
KAMN 212335Z AUTO 17007KT 10SM CLR 16/04 A2971 RMK AO2
     T01580035=
KCDA 212335Z AUTO 00000KT 10SM 08/M02 A3009 RMK AO2 T00761022=
KCOQ 212335Z AUTO 28004KT 10SM CLR 12/M01 A2958 RMK AO2 TSNO=
KD25 212335Z AUTO 00000KT 10SM CLR 08/03 A2960 RMK AO2
     T00820025=
KDXX 212335Z AUTO 07004KT 10SM CLR 14/00 A2961 RMK AO2=
KDYT 212335Z AUTO 28006KT 10SM CLR 13/04 A2957 RMK AO2=
KFSE 212335Z AUTO 18006KT 10SM CLR 09/M01 A2956 RMK AO2=
KHCO 212335Z AUTO 25007KT 10SM OVC110 14/00 A2950 RMK AO2=
KLDM 212335Z AUTO 21016G26KT 10SM CLR 19/04 A2963 RMK AO2
     T01890041=
KLJF 212335Z AUTO 00000KT 10SM CLR 13/01 A2962 RMK AO2=
KMGN 212335Z AUTO 30003KT 10SM CLR 13/07 A2960 RMK AO2
     T01370070=
KMQJ 212335Z AUTO 18005KT 10SM CLR 17/02 A2989 RMK AO1=
KMVE 212335Z AUTO 00000KT 5SM HZ CLR 14/01 A2961 RMK AO2=
KOVL 212335Z AUTO 00000KT 5SM HZ CLR 14/01 A2962 RMK AO2=
KPCZ 212335Z AUTO 25004KT 10SM CLR 18/02 A2960 RMK AO2
     T01780020=
KRCX 212335Z AUTO 00000KT 10SM CLR 12/05 A2962 RMK AO2
     T01210047=
KRGK 212335Z AUTO 00000KT 10SM CLR 13/03 A2960 RMK AO2=
KRZT 212335Z AUTO 00000KT 10SM CLR 13/M01 A2998 RMK AO2 PWINO=
KTEW 212335Z AUTO 16004KT 10SM CLR 17/03 A2976 RMK AO2
     T01730032=
KTWM 212335Z AUTO 27003KT 10SM CLR 12/02 A2957 RMK AO2=
KY63 212335Z AUTO 00000KT 10SM CLR 12/01 A2960 RMK AO2
     T01150009=
KOXD 212335Z AUTO 18005KT 10SM CLR 18/M04 A2994 RMK AO2
     T01801044=
KPEX 212335Z AUTO 20003KT 10SM CLR 12/01 A2962 RMK AO2=
KPNM 212335Z AUTO 00000KT 10SM CLR 12/03 A2961 RMK AO2 TSNO=
KRNP 212335Z AUTO 17006KT 10SM CLR 18/03 A2974 RMK AO2
     T01760026=
KRQB 212335Z AUTO 15004KT 10SM CLR 17/04 A2967 RMK AO2
     T01700041=
KSJX 212335Z AUTO 24008KT 10SM CLR 11/08 A2961 RMK AO2
     T01070076=
KSLH 212335Z AUTO 26005KT 10SM CLR 13/06 A2959 RMK AO2=
KTOB 212335Z AUTO 00000KT 10SM 16/02 A2963 RMK AO2=
KTTF 212335Z AUTO 19007KT 10SM CLR 16/02 A2981 RMK AO2
     T01560022=
KULM 212335Z AUTO 00000KT 10SM CLR 16/M01 A2962 RMK AO2=
KVLL 212335Z AUTO 18004KT 10SM CLR 17/02 A2982 RMK AO2
     T01660015=
KVWU 212335Z AUTO 20003KT 10SM CLR 13/02 A2954 RMK AO2=
KY70 212335Z AUTO 17007KT 10SM CLR 16/04 A2971 RMK AO2
     T01590038=
K04W 212335Z AUTO 32003KT 10SM CLR 11/02 A2960 RMK AO2=
K22N 212335Z AUTO 00000KT 10SM CLR 05/00 A3013 RMK AO2=
K4I3 212335Z AUTO 15005KT 10SM CLR 13/01 A2998 RMK AO2=
K6B0 212335Z AUTO 16003KT 10SM CLR 08/00 A3007 RMK AO2
     T00821002=
KACB 212335Z AUTO 00000KT 10SM CLR 17/06 A2961 RMK AO2
     T01670057=
KAEL 212335Z AUTO 00000KT 7SM CLR 16/03 A2962 RMK AO2=
