SACA31 KWBC 220100 RRA
METAR
MKJP 220100Z 01005KT 9999 FEW020 28/23 Q1012=
MKJS 220100Z 12004KT 9999 -RA FEW020 26/23 Q1012=
MWCR 220100Z 01007KT 9999 FEW015 SCT035 26/23 Q1013=
