SAUS80 KWBC 212300 CCC
METAR
KP28 212256Z AUTO 19014G25KT 32/M02 A2959 RMK AO1 PK WND
     18026/2230 SLP008 T03171017 $=
