SAUS70 KWBC 220000 RRD
METAR
KFOZ 212353Z AUTO 00000KT 10SM CLR 12/01 A2962 RMK AO2=
KFST 212353Z AUTO 24003KT 10SM CLR 26/09 A2990 RMK AO2 SLP085
     T02610089 10289 20261 58008=
KFTW 212353Z 16009G19KT 10SM CLR 29/07 A2978 RMK AO2 SLP077
     T02890067 10333 20289 56009 $=
KFVE 212353Z AUTO 17005KT 10SM CLR 07/M01 A3002 RMK AO2 SLP170
     T00721006 10111 20072 50007=
KGEZ 212353Z AUTO 17007KT 10SM CLR 18/01 A2989 RMK AO2 SLP123
     T01830011 10244 20183 53007=
KGFK 212353Z 20004KT 5SM FU HZ BKN080 OVC140 12/01 A2952 RMK AO2
     SLP002 FU FEW000 T01220006 10183 20122 58001=
KGFL 212353Z AUTO 00000KT 10SM CLR 04/01 A3008 RMK AO2 SLP195
     T00390006 10139 20033 53008=
KGGG 212353Z 19007KT 10SM CLR 23/11 A2987 RMK AO2 SLP111 T02330111
     10300 20233 55005=
KGJT 212353Z 00000KT 10SM CLR 21/M02 A2985 RMK AO2 SLP064
     T02061022 10217 20167 56022=
KGKY 212353Z AUTO 16009KT 10SM CLR 29/07 A2980 RMK AO2 SLP085
     T02890072 10328 20289 55005=
KGLD 212353Z AUTO 13008KT 10SM CLR 17/M07 A2966 RMK AO2 SLP021
     T01721067 10267 20172 57018=
KGLR 212353Z AUTO 21008KT 10SM CLR 15/04 A2963 RMK AO2 SLP040
     T01500039 10194 20150 53024=
KGNV 212353Z 00000KT 10SM CLR 13/06 A3010 RMK AO2 SLP193 T01330056
     10233 20122 53010=
KGOK 212353Z AUTO 18011KT 10SM CLR 27/03 A2969 RMK AO2 SLP045
     T02720028 10328 20272 56005=
KGPT 212353Z 18004KT 10SM CLR 19/11 A3006 RMK AO2 SLP180 60000
     T01890111 10233 20189 50000=
KBFM 212353Z 00000KT 10SM CLR 17/11 A3010 RMK AO2 SLP190 T01720111
     10233 20172 53004=
KBGR 212353Z 18005KT 10SM CLR 09/01 A3013 RMK AO2 SLP204 T00890011
     10156 20089 51019=
KBIV 212353Z AUTO 19011KT 10SM CLR 18/04 A2970 RMK AO2 SLPNO
     T01830044 10222 20183 53005=
KBMG 212353Z 17005KT 10SM CLR 16/01 A2990 RMK AO2 SLP122 T01610011
     10239 20161 53003=
KBMQ 212353Z AUTO 18008KT 10SM CLR 27/08 A2992 RMK AO2 SLP117
     T02670078 10306 20267 56003=
KBPT 212353Z 18007KT 10SM CLR 21/16 A2998 RMK AO2 SLP152 T02060156
     10289 20206 55001=
KBRD 212353Z AUTO 16003KT 10SM CLR 09/M01 A2959 RMK AO2 SLP026
     T00941006 10178 20089 53007=
KBRO 212353Z 14010KT 10SM CLR 24/17 A2997 RMK AO2 SLP147 T02440167
     10300 20244 53002=
KBTL 212353Z 19014KT 10SM CLR 18/04 A2976 RMK AO2 SLP079 T01830039
     10211 20183 53004=
KBVY 212353Z 19004KT 10SM CLR 11/06 A3014 RMK AO2 SLP201 T01110061
     10167 20089 53013 $=
KBYG 212353Z AUTO 32005KT 10SM CLR 16/M03 A2955 RMK AO2 SLP969
     T01561028 10222 20156 55002=
KCAG 212353Z AUTO 27011KT 10SM CLR 16/M08 A2984 RMK AO2 PK WND
     26030/2254 SLP089 T01611083 10211 20161 56017=
KCDS 212353Z AUTO 20013KT 10SM CLR 26/02 A2972 RMK AO2 SLP044
     T02610022 10322 20261 58009=
KCEW 212353Z AUTO 10SM CLR 16/08 A3010 RMK AO2 SLP192 T01560078
     10250 20150 53008=
KCEZ 212353Z AUTO 28008KT 10SM CLR 18/M04 A2999 RMK AO2 SLP119
     T01831039 10211 20172 56011=
KCHO 212353Z 00000KT 10SM CLR 14/01 A3012 RMK AO2 SLP201 T01390006
     10194 20139 53007=
KCMI 212353Z 18015KT 10SM CLR 19/03 A2981 RMK AO2 SLP093 T01890028
     10256 20183 53007=
KCMX 212353Z AUTO 26005KT 10SM CLR 10/04 A2957 RMK AO2 SLP017
     T01000044 10150 20100 53020=
KCNM 212353Z AUTO 25013KT 10SM CLR 26/03 A2985 RMK AO2 SLP069
     T02610033 10289 20261 56010=
KCOT 212353Z AUTO 17004KT 8SM CLR 27/11 A2991 RMK AO2 SLP121
     T02720106 10311 20272 55008=
KCPR 212353Z 23019G27KT 10SM CLR 18/M08 A2960 RMK AO2 PK WND
     25038/2257 SLP984 T01831078 10228 20183 58008=
KCRE 212353Z 00000KT 10SM FEW050 12/09 A3010 RMK AO1 SLP195
     T01170089 10206 20117 53009=
