SAUS70 KWBC 212300 RRX
METAR
KJVY 212255Z AUTO 18005KT 10SM CLR 18/01 A2994 RMK AO2 PWINO=
