SAUS70 KWBC 220000 RRU
METAR
KMGG 212355Z AUTO 00000KT 10SM CLR 13/01 A2963 RMK AO2 T01250010
     10187 20104 PWINO=
KMTN 212354Z 00000KT 10SM CLR 09/06 A3015=
KOVL 212355Z AUTO 00000KT 5SM HZ CLR 14/00 A2962 RMK AO2=
KOZW 212355Z AUTO 16006KT 10SM CLR 16/04 A2978 RMK AO2 T01600041
     10209 20160=
KPNE 212354Z 00000KT 10SM CLR 11/01 A3015 RMK AO2 SLP211 T01110006
     10183 20111 53009=
KPWC 212355Z AUTO 00000KT 10SM CLR 09/02 A2963 RMK AO2=
KFGN 212355Z AUTO 22003KT 10SM OVC110 11/01 A2950 RMK AO2=
KFSE 212355Z AUTO 18005KT 10SM CLR 09/M01 A2956 RMK AO2=
KFSO 212355Z AUTO 18009G15KT 10SM CLR 13/M03 A3003 RMK AO2
     T01301031 10150 20129=
KGYL 212355Z AUTO 00000KT 7SM CLR 15/01 A2963 RMK AO2 T01460010
     10189 20135=
KHCO 212355Z AUTO 24006KT 10SM OVC100 13/01 A2950 RMK AO2=
KI69 212355Z AUTO 18005KT 10SM CLR 17/00 A2998 RMK AO2 T01650002
     10221 20164=
KIML 212353Z AUTO 17008KT 10SM CLR 21/M05 A2962 RMK AO2 SLP014
     T02061050 10267 20206 56016=
KIMT 212354Z AUTO 01003KT 10SM CLR 09/03 A2958 RMK AO2 SLP026
     T00890028 10194 20078 53028=
KLWM 212354Z VRB03KT 10SM CLR 12/06 A3015 RMK AO2 SLP210 T01220061
     10172 20117 51015=
KMQJ 212355Z AUTO 16005KT 10SM CLR 16/02 A2990 RMK AO1=
KMVE 212355Z AUTO 00000KT 5SM HZ CLR 13/01 A2961 RMK AO2=
KRGK 212355Z AUTO 00000KT 10SM CLR 12/03 A2962 RMK AO2=
K06D 212355Z AUTO 32006KT 10SM -RA BKN021 OVC030 07/05 A2954 RMK
     AO2=
K5H4 212355Z AUTO 28004KT 10SM BKN070 OVC080 10/07 A2956 RMK
     AO2=
K6B9 212355Z AUTO 19009G15KT 150V220 10SM CLR 12/M02 A3002 RMK
     AO2=
K82C 212355Z AUTO 00000KT 10SM CLR 12/04 A2963 RMK AO2 T01160035
     10234 20116=
KACQ 212355Z AUTO 35003KT 10SM CLR 11/02 A2965 RMK AO2=
KBOS 212354Z 20011KT 10SM CLR 14/07 A3015 RMK AO2 SLP210 T01390067
     10161 20133 53016=
KC29 212355Z AUTO 00000KT 10SM CLR 14/03 A2964 RMK AO1 T01430033
     10250 20143=
KD57 212355Z AUTO 06007KT 10SM CLR 11/M02 A2948 RMK AO2=
KDXX 212355Z AUTO 10005KT 10SM CLR 13/M01 A2961 RMK AO2=
K2D5 212355Z AUTO 14007KT 5SM HZ SCT029 12/01 A2954 RMK AO2=
KALO 212354Z 34004KT 10SM OVC035 16/01 A2962 RMK AO2 SLP031
     T01560006 10261 20133 53011=
KCOQ 212355Z AUTO 00000KT 10SM CLR 12/M01 A2958 RMK AO2 TSNO=
KOCQ 212355Z AUTO 00000KT 12/05 A2959 RMK AO1 T01230050 10220
     20117=
KRUG 212355Z AUTO 26005KT 10SM SCT044 BKN055 OVC065 09/03 A2953
     RMK AO2=
KS25 212355Z AUTO 03005KT 10SM -RA BKN037 OVC048 07/07 A2954 RMK
     AO2=
K0S9 212355Z AUTO 00000KT 8SM -RA OVC026 09/08 A2973 RMK AO2
     P0003=
KALM 212355Z AUTO 12004KT 10SM CLR 23/06 A2995 RMK AO2=
KBKS 212355Z AUTO 13012KT 9SM CLR 25/16 A2992 RMK AO2 SLP094
     T02500161 $=
KBVU 212355Z AUTO 17012KT 10SM CLR 29/02 A2980 RMK AO2=
KBXK 212355Z AUTO 00000KT 10SM CLR 30/10 A2980 RMK A01=
KCMR 212355Z AUTO 24007G14KT 10SM CLR 17/02 A3009 RMK AO2=
KGCN 212354Z 23010KT 10SM CLR 17/01 A3007 RMK AO2 SLP131 T01720006
     10183 20150 56015=
KLVS 212353Z AUTO 23010KT 10SM CLR 18/M03 A2997 RMK AO2 SLP067
     T01781033 10233 20178 53002=
KOLS 212354Z AUTO 23011KT 10SM FEW070 SCT085 27/11 A2998 RMK AO2
     SLP098 T02720111 10294 20267 58005=
KRBL 212354Z AUTO 16009KT 10SM CLR 28/07 A2974 RMK AO2 SLP068
     T02780067 10289 20228 56020=
KSMO 212351Z COR 23007KT 10SM BKN010 20/16 A2984 RMK AO2 SLP104
     T02000161 10244 20200 56011=
KTME 212355Z AUTO 19011KT 10SM CLR 25/15 A2996 RMK AO2=
KU42 212355Z AUTO 22006KT 10SM CLR 22/02 A2981 RMK AO1 T02180015
     10232 20192=
KELO 212355Z AUTO 25003KT 10SM CLR 10/00 A2957 RMK AO2=
KEVV 212354Z 15004KT 10SM CLR 19/02 A2990 RMK AO2 SLP124 T01940022
     10250 20189 53001=
