SAUS70 KWBC 220100 RRM
METAR
KOIN 220055Z AUTO 00000KT 10SM CLR 17/M04 A2968 RMK AO1
     T01671036=
KOMK 220053Z AUTO 36007KT 10SM OVC080 09/06 A2962 RMK AO2 SLP035
     T00940056=
KONO 220053Z AUTO 08003KT 9SM SCT080 BKN090 BKN110 18/04 A2963 RMK
     AO2 PRESFR SLP034 T01830039=
KONT 220053Z 24010KT 10SM CLR 24/15 A2983 RMK AO2 SLP088
     T02390150=
KOPF 220053Z 36011G18KT 10SM FEW034 OVC070 23/17 A2998 RMK AO2
     SLP153 T02280167=
KORL 220053Z 36007KT 10SM CLR 19/08 A3007 RMK AO2 SLP185
     T01940083=
KOVE 220053Z AUTO 18007KT 10SM CLR 27/08 A2974 RMK AO2 SLP072
     T02720083=
KPAE 220053Z 02004KT 2SM -RA BR OVC006 08/07 A2972 RMK AO2 SLP065
     P0010 T00780067=
KPAH 220053Z 16004KT 10SM CLR 19/08 A2989 RMK AO2 SLP120
     T01940078=
KPBF 220053Z AUTO 00000KT 10SM CLR 21/08 A2990 RMK AO2 SLP123
     T02060083=
KPBG 220053Z AUTO 19006KT 10SM CLR 11/M01 A3004 RMK AO2 SLP173
     T01111006=
KPBI 220053Z 34010KT 10SM FEW035 BKN045 BKN070 21/18 A2999 RMK AO2
     LTG DSNT NE SLP155 CB DSNT N AND S T02110183 $=
KPCZ 220055Z AUTO 00000KT 10SM CLR 13/03 A2963 RMK AO2
     T01250032=
KPDK 220053Z 00000KT 10SM CLR 09/03 A3012 RMK AO2 SLP207
     T00890033=
KPDT 220053Z 17011KT 5SM -RA BR SCT003 SCT034 OVC041 08/06 A2969
     RMK AO2 SLP050 P0002 T00780061=
KPEO 220053Z AUTO 20008KT 10SM CLR 12/M02 A3002 RMK AO2 SLP171
     T01171022=
KPGD 220053Z AUTO 03006KT 10SM CLR 19/12 A3005 RMK AO2 SLP174
     T01890122=
KPHD 220053Z AUTO 15004KT 10SM CLR 13/00 A3002 RMK AO2 SLP167
     T01280000=
KPIE 220053Z 35009KT 10SM CLR 18/11 A3007 RMK AO2 SLP181
     T01830106=
KPIH 220053Z 22012KT 10SM CLR 17/M03 A2970 RMK AO2 SLP035
     T01671028=
KPIR 220053Z AUTO 12011KT 10SM CLR 15/02 A2948 RMK AO2 SLP980
     T01500017=
KUAO 220053Z 10003KT 2SM -RA BR BKN003 OVC012 09/09 A2971 RMK AO2
     RAB04 SLP061 P0002 T00940089=
KVCB 220053Z AUTO 20010G18KT 9SM CLR 21/11 A2974 RMK AO2 SLP070
     T02060106=
KVDF 220055Z AUTO 34003KT 10SM CLR 16/10 A3007 RMK AO2=
KVEL 220053Z AUTO 26011KT 10SM CLR 19/M11 A2980 RMK AO2 SLP058
     T01941111=
KVGT 220053Z 18007KT 10SM CLR 29/M01 A2977 RMK AO2 SLP080
     T02891011=
KVRB 220053Z AUTO 32008KT 10SM OVC070 20/16 A3002 RMK AO2 SLP165
     T02000156=
KVUO 220053Z AUTO 13005KT 7SM -RA SCT007 BKN013 OVC042 10/08 A2972
     RMK AO2 RAE37B45 SLP063 P0004 T01000083=
KWRL 220053Z AUTO 12007KT 10SM CLR 13/M05 A2949 RMK AO2 SLP979
     T01331050=
KWVI 220053Z AUTO 22005KT 10SM OVC011 13/11 A2988 RMK AO2 SLP119
     T01330111=
KX60 220055Z AUTO 00000KT CLR 11/06 A3010 RMK AO2=
KXNA 220053Z 16009KT 10SM CLR 18/06 A2980 RMK AO2 SLP090
     T01780056=
KXSA 220055Z AUTO 15003KT 10SM CLR 11/05 A3016 RMK AO2
     T01130052=
KYIP 220053Z 19009KT 10SM CLR 18/03 A2983 RMK AO2 SLP100
     T01780028=
KZZV 220053Z AUTO 15003KT 10SM CLR 12/00 A3001 RMK AO2 SLP166
     T01170000=
K10G 220055Z AUTO 19005KT 10SM CLR 13/M01 A3001 RMK AO2=
