SAUS80 KWBC 212300
METAR
KCQT 212247Z AUTO 26004KT 10SM CLR 23/18 A2985 RMK AO2 SLP104
     T02330178=
KESN 212245Z 00000KT 10SM CLR 13/05 A3017=
KGNT 212255Z AUTO 27014G20KT 10SM CLR 20/00 A3009 RMK AO2
     T02000000=
