SAUS70 KWBC 220138 RRL
METAR
KHAI 220135Z AUTO 18007KT 10SM CLR 16/03 A2981 RMK AO2
     T01560034=
KHZE 220135Z AUTO 04005KT 10SM FEW043 BKN050 OVC075 10/04 A2955
     RMK AO2=
KLWA 220135Z AUTO 19011G17KT 10SM CLR 19/02 A2974 RMK AO2
     T01940021=
KMDS 220135Z AUTO 17004KT 10SM CLR 11/M00 A2959 RMK AO2=
KMWM 220135Z AUTO 12004KT 10SM CLR 08/01 A2962 RMK AO2=
KOEB 220135Z AUTO 20008KT 10SM CLR 17/03 A2982 RMK AO2
     T01660027=
KOEO 220135Z AUTO 15004KT 10SM CLR 07/03 A2965 RMK AO2
     T00650033=
KOXD 220135Z AUTO 00000KT 10SM CLR 16/M02 A2996 RMK AO2
     T01551021=
KPNM 220135Z AUTO 00000KT 10SM CLR 07/02 A2962 RMK A=
KRUG 220135Z AUTO 01004KT 10SM FEW028 OVC050 06/06 A2955 RMK
     AO2=
