SAUS80 KWBC 220000
METAR
KAID 212355Z AUTO 18005KT 10SM CLR 17/M01 A2989 RMK AO2 T01651015
     10225 20165=
