SACA45 KWBC 212300 RRB
METAR
MHTE 212300Z 36008KT 6000 -RA BKN016TCU OVC060 23/23 Q1012
     A2988=
