SAUS70 KWBC 220016
METAR
K2C8 220015Z AUTO 26007KT 10SM FEW048 SCT060 OVC070 13/02 A2951
     RMK AO2=
KD50 220015Z AUTO 17003KT 10SM OVC036 05/04 A2957 RMK AO2=
KEFT 220015Z AUTO 22012KT 10SM CLR 19/03 A2964 RMK AO2
     T01850025=
KETB 220015Z AUTO 20003KT 10SM CLR 16/03 A2964 RMK AO2=
KFRH 220015Z AUTO 17003KT 10SM CLR 17/00 A2993 RMK AO1=
KOIC 220015Z AUTO 20003KT 10SM CLR 06/M01 A3010 RMK AO2
     T00631014=
KPBH 220015Z AUTO 00000KT 10SM CLR 07/02 A2961 RMK AO2
     T00650018=
KPDC 220015Z AUTO 00000KT 10SM CLR 14/04 A2963 RMK AO2
     T01420036=
KRRL 220015Z AUTO 00000KT 10SM CLR 11/03 A2961 RMK AO2 T01070034
     TSNO=
KUNU 220015Z AUTO 00000KT 10SM CLR 15/04 A2965 RMK AO2
     T01510042=
KVNW 220015Z AUTO 19010KT 10SM CLR 16/00 A2988 RMK AO2=
KY51 220015Z AUTO 22003KT 10SM CLR 18/04 A2964 RMK AO1
     T01770035=
KDVP 220013Z AUTO 11005KT 10SM CLR 12/01 A2963 RMK AO2
     T01150011=
KORB 220013Z AUTO 00000KT 10SM CLR 09/01 A2955 RMK AO2=
KSBD 220012Z 25004KT 10SM CLR 28/07 A2983=
K08D 220015Z AUTO 03008KT 10SM -RA 06/06 A2955 RMK AO2=
K0E0 220015Z AUTO 26008KT 10SM CLR 17/M01 A3001 RMK AO2 T01741010
     TSNO=
KAQP 220013Z AUTO 00000KT 7SM 12/00 A2960 RMK AO2=
KBEA 220015Z AUTO 14009KT 10SM CLR 23/13 A2994 RMK AO2
     T02250133=
KCQW 220015Z AUTO 00000KT 10SM CLR 10/02 A3012 RMK AO2 PWINO=
KD55 220015Z AUTO 23009KT 10SM FEW055 OVC070 10/02 A2953 RMK
     AO2=
KEDE 220015Z AUTO 07003KT 10SM SCT060 13/11 A3016 RMK AO2
     T01320113=
KEHO 220015Z AUTO 00000KT 10SM CLR 12/00 A3013 RMK AO2
     T01150003=
KETH 220013Z AUTO 13005KT 10SM 11/00 A2959 RMK AO2=
KEYF 220015Z AUTO 00000KT 10SM CLR 12/06 A3013 RMK AO2
     T01190057=
KFOZ 220013Z AUTO 00000KT 10SM CLR 10/01 A2962 RMK AO2=
KLAL 220015Z AUTO 35005KT 10SM CLR 17/06 A3005 RMK AO2
     T01740063=
KLNL 220015Z AUTO 00000KT 10SM CLR 06/02 A2963 RMK AO2
     T00550021=
KLUM 220015Z AUTO 00000KT 10SM CLR 13/08 A2963 RMK AO2 T01280075
     PWINO=
KMAW 220015Z AUTO 18007KT 10SM CLR 21/08 A2989 RMK AO1=
KMCX 220035Z AUTO 18008KT 10SM CLR 19/01 A2982 RMK AO2
     T01870013=
KOWA 220013Z AUTO 00000KT 7SM CLR 09/02 A2964 RMK AO2=
KRCZ 220015Z AUTO 07003KT 10SM CLR 12/03 A3013 RMK AO2
     T01210026=
KRID 220035Z AUTO 18007KT 10SM CLR 11/02 A2995 RMK AO2=
KRNV 220015Z AUTO 18011KT 10SM CLR A2992 RMK AO2 TSNO=
KRPD 220015Z AUTO 00000KT 10SM CLR 09/04 A2963 RMK AO2
     T00850042=
KSDC 220015Z AUTO 17006KT 10SM CLR 13/M02 A2997 RMK AO2=
KSNK 220015Z AUTO 21006KT 10SM CLR 25/01 A2983 RMK AO2
     T02460012=
KXVG 220013Z AUTO 00000KT 10SM CLR 08/02 A2959 RMK AO2=
KX60 220015Z AUTO 00000KT 10SM CLR 12/06 A3008 RMK AO2
     T01170057=
KXSA 220015Z AUTO 00000KT 10SM CLR 12/05 A3016 RMK AO2
     T01190047=
K10G 220015Z AUTO 18005KT 10SM CLR 14/M02 A3000 RMK AO2=
K1P1 220015Z AUTO 00000KT 10SM CLR 02/01 A3012 RMK AO2
     T00240009=
K20U 220015Z AUTO 00000KT 10SM BKN070 OVC085 10/03 A2954 RMK
     AO2=
K24A 220015Z AUTO 13008KT 10SM CLR 11/M01 A3014 RMK AO2 LTG DSNT
     SE T01131015=
K27K 220015Z AUTO 16003KT 10SM CLR 12/00 A3000 RMK AO1=
K2P2 220015Z AUTO 00000KT 10SM CLR 09/09 A2958 RMK AO2
     T00890089=
K35A 220015Z AUTO 00000KT 10SM CLR 11/00 A3016 RMK A02
     T01110004=
K3D2 220015Z AUTO 00000KT 10SM CLR 11/08 A2959 RMK AO2
     T01060078=
K4S2 220015Z AUTO 32006KT 7SM -RA SCT016 BKN043 OVC070 08/07 A2972
     RMK AO2 P0001=
K6L4 220015Z AUTO 00000KT 10SM CLR 14/00 A3006 RMK AO2=
K6S2 220015Z AUTO 20011G20KT 180V250 1 3/4SM -RA BR OVC004 12/12
     A2978 RMK AO2=
KCKI 220015Z AUTO 00000KT 10SM CLR 08/05 A3012 RMK AO2=
