SAUS70 KWBC 220056
METAR
KRID 220115Z AUTO 18008KT 10SM CLR 11/02 A2995 RMK AO2=
KMCX 220115Z AUTO 18007KT 10SM CLR 18/02 A2984 RMK AO2
     T01790015=
KRID 220115Z AUTO 18008KT 10SM CLR 11/02 A2995 RMK AO2=
KMCX 220115Z AUTO 18007KT 10SM CLR 18/02 A2984 RMK AO2
     T01790015=
