SACA33 KWBC 220000 RRC
METAR
TFFF 220030Z AUTO 08003KT CAVOK 27/24 Q1011=
TFFR 220030Z AUTO 00000KT CAVOK 25/23 Q1012=
