SAUS70 KWBC 212300 RRA
METAR
KTIX 212250Z 36008KT 7SM SCT065 22/12 A3002=
KTRM 212252Z AUTO 13007KT 10SM CLR 33/06 A2973 RMK AO2 SLP078
     T03330061=
K2C8 212255Z AUTO 25010G16KT 10SM OVC100 14/00 A2950 RMK AO2=
KALN 212250Z 16012KT 10SM CLR 24/02 A2978=
KD50 212255Z AUTO 00000KT 5SM BR OVC039 06/04 A2956 RMK AO2=
KEFT 212255Z AUTO 22010KT 10SM CLR 22/03 A2962 RMK AO2
     T02160026=
KETB 212255Z AUTO 22006KT 10SM CLR 20/02 A2960 RMK AO2=
KFDK 212247Z 00000KT 10SM CLR 14/02 A3011=
KFRH 212255Z AUTO 19004KT 10SM CLR 20/M01 A2991 RMK AO1=
KJVL 212245Z 22008KT 10SM CLR 22/M03 A2962=
KMPV 212251Z AUTO 18006KT 10SM CLR 10/M04 A3010 RMK AO2 SLP201
     T01001039=
KMWC 212245Z 22010G15KT 10SM CLR 22/00 A2961=
KOIC 212255Z AUTO 17003KT 10SM CLR 10/M01 A3007 RMK AO2
     T00971015=
KOQU 212250Z 23010KT 10SM SKC 14/06 A3016=
KOXC 212251Z 17004KT 10SM CLR 11/00 A3014 RMK AO2 SLP223
     T01060000=
KPBH 212255Z AUTO 30003KT 10SM CLR 15/02 A2958 RMK AO2
     T01540021=
KPDC 212255Z AUTO 00000KT 10SM CLR 22/00 A2959 RMK AO2
     T02240002=
KRRL 212255Z AUTO 25004KT 10SM CLR 15/04 A2958 RMK AO2 T01520040
     TSNO=
KSCH 212250Z 00000KT 15SM CLR 12/M02 A3007=
KSLK 212251Z AUTO 00000KT 10SM CLR 04/M01 A3000 RMK AO2 SLP173
     T00441011=
KUNU 212255Z AUTO 23004KT 10SM CLR 19/04 A2961 RMK AO2
     T01890044=
KUNV 212253Z 20004KT 10SM CLR 12/M02 A3006=
KVNW 212255Z AUTO 20010G20KT 10SM CLR 19/00 A2986 RMK AO2=
KY51 212255Z AUTO 25004KT 10SM CLR 19/04 A2962 RMK AO1
     T01860038=
KBLH 212252Z AUTO 14004KT 10SM CLR 32/08 A2977 RMK AO2 SLP076
     T03220078 TSNO=
K08D 212255Z AUTO 00000KT 10SM 08/06 A2954 RMK AO2=
K0E0 212255Z AUTO 26018G25KT 10SM CLR 20/M04 A3003 RMK AO2
     T02021038 TSNO=
KAQP 212253Z AUTO 00000KT 10SM SCT090 16/M01 A2960 RMK AO2=
KATL 212252Z 25003KT 10SM FEW250 18/02 A3009 RMK AO2 SLP188
     T01780022=
KBEA 212255Z AUTO 14012G17KT 10SM CLR 26/13 A2993 RMK AO2
     T02620129=
KBIS 212252Z 07005KT 10SM OVC100 14/01 A2951 RMK AO2 SLP998
     T01390006=
KCQW 212255Z AUTO 00000KT 10SM CLR 13/01 A3010 RMK AO2 PWINO=
KD55 212255Z AUTO 26010KT 10SM SCT090 12/02 A2952 RMK AO2=
KEHO 212255Z AUTO 00000KT 10SM CLR 15/00 A3011 RMK AO2
     T01521005=
KEST 212252Z AUTO 05005KT 10SM CLR 17/03 A2961 RMK AO2 SLP027
     T01720033=
KETH 212253Z AUTO 00000KT 10SM 16/00 A2960 RMK AO2=
KEYF 212255Z AUTO 00000KT 10SM CLR 15/05 A3010 RMK AO2
     T01520049=
KGLR 212253Z AUTO 21009KT 10SM CLR 17/04 A2961 RMK AO2 SLP030
     T01670039=
KGPM 212250Z 17012G17KT 10SM SKC 31/06 A2981=
KHSI 212253Z AUTO 00000KT 10SM CLR 24/M01 A2961 RMK AO2 SLP018
     T02391011=
KLAL 212255Z AUTO 36004KT 10SM CLR 20/06 A3003 RMK AO2
     T02010058=
KLKV 212253Z AUTO 23013G18KT 10SM CLR 18/03 A2985 RMK AO2 PK WND
     24026/2224 SLP104 T01780033=
KLSE 212253Z 33005KT 10SM CLR 17/04 A2959 RMK AO2 SLP021 T01670044
     $=
KLUM 212255Z AUTO 27003KT 10SM CLR 18/08 A2960 RMK AO2 T01800082
     PWINO=
KLWB 212251Z 24004KT 10SM CLR 13/00 A3010=
KMAW 212255Z AUTO 19011KT 10SM CLR 24/08 A2987 RMK AO1=
KMRJ 212255Z AUTO 27003KT 10SM CLR 21/00 A2962 RMK AO2=
KMWH 212252Z 21011KT 10SM FEW110 13/03 A2965 RMK AO2 SLP043
     T01280033=
KOMA 212252Z 19003KT 10SM SCT250 23/02 A2959 RMK AO2 SLP016
     T02330017=
KRCZ 212255Z AUTO 00000KT 10SM CLR 16/00 A3011 RMK AO2
     T01580004=
KRNV 212255Z AUTO 19013KT 10SM CLR A2990 RMK AO2 TSNO=
KRPD 212255Z AUTO 00000KT 7SM CLR 16/06 A2960 RMK AO2
     T01550055=
KSDC 212255Z AUTO 15004KT 10SM CLR 13/M01 A2997 RMK AO2=
KSNK 212255Z AUTO 21014KT 10SM CLR 28/01 A2984 RMK AO2
     T02810008=
