SAUS70 KWBC 220000 RRX
METAR
KIWA 212357Z 20004KT 10SM CLR 30/11 A2982=
KBYL 212355Z AUTO 17003KT 10SM CLR 13/00 A3006 RMK AO1=
KJVY 212355Z AUTO 18006KT 10SM CLR 16/01 A2995 RMK AO2 PWINO=
KUKF 212355Z AUTO 00000KT 10SM CLR 10/00 A3018 RMK AO2=
TISX 212353Z 06006KT 10SM FEW026 28/23 A2991 RMK AO2 SLP125
     T02780233 10311 20278 53009 $=
KGOV 212358Z AUTO 21005KT 10SM CLR 15/04 A2964 RMK AO2 LTG DSNT S
     SLP047 T01500037 10190 20150 52020 $=
KNSE 212356Z 20003KT 10SM CLR 15/07 A3009 RMK AO2 SLP176 6////
     T01500072 10244 20150 53010 PNO $=
KTNB 212350Z AUTO 00000KT 10SM CLR 06/M01 A3016 RMK AO2 T00571012
     10150 20057=
