SAUS80 KWBC 212300 RRD
METAR
KSMP 212256Z AUTO 25005KT 3/4SM -SN BR BKN003 OVC009 02/01 A2969
     RMK AO2 UPB11E16SNE11B21 SLP065 P0000 T00170006=
KALK 212256Z AUTO 26012G21KT 10SM FEW065 26/09 A3004 RMK AO2
     SLP091 T02610094=
