SAUS70 KWBC 220000 RRK
METAR
KMAE 212353Z AUTO 00000KT 10SM BKN110 32/06 A2977 RMK AO2 SLP079
     T03170056 10322 20250 56013=
KMBS 212353Z 18009KT 10SM CLR 17/04 A2972 RMK AO2 SLP066 T01670039
     10206 20161 53008=
KMBY 212355Z AUTO 16007KT 10SM CLR 22/00 A2969 RMK AO2=
KMCE 212353Z AUTO 34003KT 10SM CLR 32/04 A2976 RMK AO2 SLP077
     T03220044 10328 20250 56013=
KMCO 212353Z 02010KT 10SM FEW060 19/09 A3004 RMK AO2 SLP171
     T01940094 10256 20194 53012=
KMDH 212352Z 17007KT 10SM CLR 19/07 A2986 RMK AO2 SLP109 T01890067
     10250 20189 53002=
KMFR 212353Z VRB03KT 10SM OVC055 22/08 A2980 RMK AO2 SLP085
     T02170083 10222 20156 56032=
KMIA 212353Z 36007KT 10SM SCT037 BKN070 24/18 A2995 RMK AO2 SLP143
     60003 T02440178 10283 20244 53009 $=
KMKL 212353Z AUTO 16004KT 10SM CLR 19/10 A2994 RMK AO2 SLP138
     T01940100 10256 20194 53004 $=
KMLP 212353Z AUTO VRB04KT 1/4SM -SN FZFG VV001 M03/M03 A2962 RMK
     AO2 SLP992 P0004 60026 T10281033 10006 21028 56014=
KMLS 212353Z AUTO 36018KT 10SM FEW055 SCT075 OVC110 13/04 A2955
     RMK AO2 SLP006 T01280044 10217 20128 51022=
KMMV 212353Z AUTO 12004KT 2SM -RA BR SCT005 OVC018 09/08 A2974 RMK
     AO2 RAE26B40 SLP072 P0002 60025 T00940083 10111 20089
     56023=
KMNI 212355Z AUTO 00000KT 10SM CLR 10/06 A3012 RMK AO2=
KMOD 212353Z 31009KT 10SM CLR 29/08 A2976 RMK AO2 SLP077 T02890078
     10306 20217 56010=
KMPO 212353Z AUTO 17003KT 10SM CLR 07/M02 A3011 RMK AO2 SLP214
     T00721017 10133 20072 53008=
KMSL 212353Z AUTO 16007KT 10SM CLR 20/11 A2999 RMK AO2 SLP154
     T02000106 10256 20194 53001=
KMTH 212353Z AUTO 35008G16KT 10SM SCT040 24/18 A2995 RMK AO2
     SLP142 T02440178 10256 20239 53005=
KMTO 212353Z AUTO 17009KT 10SM CLR 20/02 A2983 RMK AO2 SLP099
     T02000022 10244 20200 53007=
KMYF 212353Z 22008KT 10SM FEW017 22/16 A2986 RMK AO2 SLP107
     T02170161 10239 20211 56009=
KMYV 212353Z AUTO 17012KT 10SM CLR 28/07 A2975 RMK AO2 SLP076
     T02780072 10300 20233 56018=
KDLS 212353Z AUTO 28007KT 10SM -RA OVC080 11/07 A2972 RMK AO2
     RAE12B40 SLP063 P0000 60000 T01110067 10161 20111 58024=
KDNL 212353Z AUTO 00000KT 10SM CLR 16/M01 A3011 RMK AO2 SLP195
     T01561006 10211 20156 53007=
KDTW 212353Z 17008KT 10SM FEW250 16/03 A2982 RMK AO2 SLP098
     T01560028 10211 20150 53004=
KDVT 212353Z 25005KT 10SM CLR 29/09 A2982 RMK AO2 SLP076 T02940089
     10306 20272 56013=
KEET 212353Z AUTO 13004KT 10SM CLR 18/06 A3007 RMK AO2 SLP180
     T01830056 10239 20178 53004=
KELM 212353Z 27004KT 10SM CLR 07/M01 A3005 RMK AO2 SLP185
     T00721011 10167 20067 53019=
KELN 212353Z AUTO 32017G23KT 10SM CLR 11/01 A2964 RMK AO2 SLP037
     T01060011 10133 20106 58024=
KEPH 212353Z AUTO 05004KT 10SM CLR 12/05 A2962 RMK AO2 SLP033
     6//// T01170050 10122 20094 56023 $=
KEQY 212353Z AUTO 00000KT 10SM CLR 11/01 A3012 RMK AO2 SLP217
     T01110006 10206 20111 53010=
KEVW 212353Z AUTO 25019G28KT 10SM CLR 15/M11 A2989 RMK AO2 PK WND
     24035/2307 SLP067 T01501106 10183 20150 56015=
KEYW 212353Z 35010KT 10SM BKN046 BKN055 23/18 A2998 RMK AO2 SLP150
     T02330178 10261 20233 53002=
KF70 212355Z AUTO 22008KT 10SM CLR 24/15 A2985 RMK AO2=
KFDY 212353Z AUTO 19012KT 10SM CLR 17/02 A2988 RMK AO2 SLP114
     T01720022 10233 20172 53014=
KFFC 212353Z AUTO 00000KT 10SM CLR 11/04 A3011 RMK AO2 SLP202
     T01060044 10222 20106 53009=
KFHR 212353Z AUTO 00000KT 6SM -RA BR BKN026 OVC040 09/08 A2973 RMK
     AO2 SLP068 P0004 60007 T00940083 10111 20094 56019=
KFLL 212353Z 36008KT 10SM FEW045 BKN070 24/18 A2995 RMK AO2 SLP140
     T02390178 10283 20239 53011 $=
