SAUS70 KWBC 212300 RRS
METAR
KCVH 212255Z AUTO 24018KT 10SM CLR 18/11 A2988 RMK A01=
KGCN 212254Z 22014G18KT 10SM CLR 18/M01 A3008 RMK AO2 SLP133
     T01831011=
KHHR 212253Z 26009KT 10SM CLR 23/17 A2984 RMK AO2 SLP104 T02280172
     $=
KIAH 212253Z 17011KT 10SM FEW065 27/14 A2993 RMK AO2 SLP134
     T02720139=
KINK 212253Z AUTO 27010KT 10SM CLR 29/04 A2985 RMK AO2 SLP073
     T02940044=
KLLJ 212255Z AUTO 25012G23KT 10SM BKN110 17/M05 A2963 RMK AO2
     SLP995 T01721050=
KLVS 212253Z AUTO 26015G21KT 10SM CLR 21/M03 A2996 RMK AO2 SLP056
     T02061033=
KRKS 212254Z AUTO 27023G38KT 10SM CLR 17/M10 A2983 RMK AO2 PK WND
     26043/2238 SLP045 T01721100=
K1MW 212255Z AUTO 22011KT 10SM M 25/M12 A2555 RMK AO2 SLP575
     T02501116 FZRANO $=
KATS 212255Z AUTO 08005KT 10SM CLR 28/07 A2988 RMK AO2=
KBFL 212254Z 29005KT 8SM CLR 32/04 A2977 RMK AO2 SLP075
     T03170044=
KSLC 212254Z 25009KT 10SM FEW140 SCT240 25/M06 A2978 RMK AO2
     SLP045 T02501061=
KTAD 212254Z AUTO 15003KT 10SM CLR 24/M11 A2981 RMK AO2 SLP033
     T02441111=
KTRK 212250Z 24013G19KT 10SM CLR 19/M05 A3002=
K1P1 212255Z AUTO 00000KT 10SM CLR 05/01 A3011 RMK AO2
     T00480012=
K2P2 212255Z AUTO 17004KT 10SM CLR 10/10 A2956 RMK AO2
     T01010101=
K6B9 212255Z AUTO VRB06KT 10SM CLR 13/M03 A3001 RMK AO2=
K96D 212255Z AUTO 25008G14KT 10SM SCT095 13/01 A2950 RMK AO2=
KADC 212255Z AUTO 00000KT 10SM CLR 13/M02 A2959 RMK A=
KBWP 212255Z AUTO 22004KT 10SM CLR 16/M00 A2956 RMK AO2=
KBWW 212255Z AUTO 23007KT 10SM BKN100 19/M00 A2948 RMK AO2=
KD60 212255Z AUTO 02008KT 10SM OVC040 06/06 A2956 RMK AO2=
KDUH 212255Z AUTO 18004KT 10SM CLR 20/00 A2982 RMK AO2
     T01960001=
KFIG 212254Z AUTO VRB03KT 10SM CLR 13/M02 A3004 RMK AO2 SLP180
     T01281017=
KGWR 212255Z AUTO 16005KT 1 3/4SM HZ SCT110 15/01 A2955 RMK
     A01=
KHZE 212255Z AUTO 07003KT 10SM SCT085 12/04 A2952 RMK AO2=
KLWA 212255Z AUTO 19008KT 10SM CLR 21/03 A2969 RMK AO2
     T02090029=
KN38 212255Z AUTO 19010KT 10SM CLR 10/M03 A3003 RMK AO2=
KRNH 212255Z AUTO 00000KT 10SM CLR 15/05 A2960 RMK AO2
     T01530054=
KRVL 212255Z AUTO 00000KT 10SM CLR 12/00 A3007 RMK AO2=
KS32 212255Z AUTO 23004KT 10SM OVC095 13/M01 A2954 RMK AO2
     TSNO=
KSPF 212255Z AUTO 32007KT 10SM CLR 21/M06 A2951 RMK AO2=
K14Y 212255Z AUTO 27004KT 10SM CLR 13/00 A2961 RMK AO2=
K3N8 212255Z AUTO 23003KT 10SM CLR 13/M01 A2957 RMK AO2
     T01321006=
KAIT 212255Z AUTO 00000KT 10SM CLR 13/00 A2958 RMK AO2=
KAUW 212254Z AUTO 23004KT 9SM CLR 17/03 A2958 RMK AO2 SLP023
     T01670033 $=
KBWI 212254Z 16004KT 10SM FEW250 14/00 A3012 RMK AO2 SLP200
     T01390000 $=
KCOQ 212255Z AUTO 26005KT 10SM CLR 14/M01 A2957 RMK AO2 TSNO=
KDLZ 212255Z AUTO 19008KT 10SM CLR 16/00 A2994 RMK AO2=
KDXR 212253Z 00000KT 10SM CLR 09/02 A3014 RMK AO2 SLP208
     T00940017=
KDYT 212255Z AUTO 32007KT 10SM CLR 14/04 A2955 RMK AO2=
KELO 212255Z AUTO 26006KT 10SM CLR 12/00 A2955 RMK AO2=
KFSO 212255Z AUTO 17008KT 10SM CLR 13/M03 A3001 RMK AO2
     T01311028=
KGED 212254Z AUTO 15004KT 10SM CLR 13/06 A3015 RMK AO2 SLP209
     T01280056=
KGHW 212255Z AUTO 00000KT 7SM CLR 15/00 A2960 RMK AO2=
KHZL 212255Z AUTO 00000KT 10SM CLR 10/M02 A3013 RMK AO2=
KIPT 212254Z 17013KT 10SM CLR 14/M02 A3005 RMK AO2 SLP180
     T01441017=
KJMR 212255Z AUTO 00000KT 10SM CLR 15/02 A2963 RMK AO2=
KLDM 212255Z AUTO 20019G27KT 10SM CLR 19/04 A2962 RMK AO2
     T01850041=
KLJF 212255Z AUTO 00000KT 10SM CLR 14/01 A2961 RMK AO2=
KLNK 212254Z 00000KT 10SM CLR 24/M01 A2959 RMK AO2 SLP014
     T02391006=
KLWM 212254Z 14003KT 10SM CLR 12/06 A3014 RMK AO2 SLP205
     T01170056=
