SAUS70 KWBC 220200 RRP
METAR
KCLM 220153Z AUTO 27005KT 7SM -RA FEW006 OVC049 09/07 A2971 RMK
     AO2 SLP062 P0005 T00890072=
KCNO 220153Z 27006KT 10SM CLR 21/16 A2985 RMK AO2 SLP103
     T02110156=
KDLN 220153Z AUTO 28018G25KT 10SM OVC095 11/00 A2959 RMK AO2 PK
     WND 28040/0121 SLP999 T01060000=
KEVW 220153Z AUTO 22012KT 10SM CLR 10/M09 A2986 RMK AO2 SLP072
     T01001094=
KMYF 220153Z 19007KT 10SM BKN014 19/16 A2987 RMK AO2 SLP113
     T01940156=
KOLS 220154Z AUTO 18004KT 10SM CLR 21/12 A3000 RMK AO2 SLP110
     T02110122=
KUAO 220153Z 18005KT 2SM BR SCT003 OVC012 09/09 A2965 RMK AO2
     RAE0056B04E29 SLP041 P0002 T00940089=
KVGT 220153Z 21004KT 10SM CLR 28/M02 A2978 RMK AO2 SLP083
     T02781022=
KDLZ 220155Z AUTO 19008KT 10SM CLR 13/00 A2998 RMK AO2=
KELO 220155Z AUTO 00000KT 10SM CLR 08/00 A2959 RMK AO2=
KFOK 220153Z 00000KT 10SM CLR 04/03 A3020 RMK AO2 SLP227 T00440033
     $=
KFSE 220155Z AUTO 18005KT 10SM BKN110 08/M01 A2957 RMK AO2=
KGYL 220155Z AUTO 00000KT 7SM CLR 11/01 A2962 RMK AO2
     T01050012=
KI69 220155Z AUTO 17004KT 10SM CLR 14/01 A3000 RMK AO2
     T01410007=
KIND 220154Z 15007KT 10SM FEW250 13/02 A2991 RMK AO2 SLP126
     T01330017=
KIPT 220154Z AUTO 00000KT 10SM CLR 07/00 A3012 RMK AO2 SLP202
     T00670000=
KISW 220154Z AUTO 00000KT 10SM CLR 08/03 A2967 RMK AO2 SLP052
     T00830033=
KLAF 220154Z AUTO 18006KT 10SM CLR 17/02 A2985 RMK AO2 SLP108
     T01670022=
KLJF 220155Z AUTO 00000KT 10SM CLR 08/01 A2961 RMK AO2=
KMGG 220155Z AUTO 00000KT 10SM CLR 09/03 A2963 RMK AO2 T00900027
     PWINO=
KMIV 220154Z AUTO 00000KT 10SM CLR 05/04 A3018 RMK AO2 SLP219
     T00500039=
KSMQ 220153Z AUTO 00000KT 10SM CLR 04/02 A3016 RMK AO2 SLP213
     T00390022=
KYIP 220153Z 20015KT 10SM CLR 19/02 A2985 RMK AO2 SLP105
     T01890022=
K4S2 220155Z AUTO 00000KT 4SM -RA BKN005 BKN023 OVC065 08/07 A2965
     RMK AO2 P0004=
KBPI 220153Z AUTO 23007KT 10SM CLR 08/M08 A2980 RMK AO2 SLP064
     T00781078=
KCCR 220153Z 27009KT 10SM CLR 16/11 A2982 RMK AO2 SLP084
     T01560106=
KDEW 220153Z AUTO 00000KT 7SM SCT013 OVC036 04/04 A2963 RMK AO2
     SLP040 T00440039=
KDVT 220153Z 19005KT 10SM CLR 27/09 A2982 RMK AO2 SLP079
     T02670094=
KF70 220155Z AUTO 22007KT 10SM CLR 20/15 A2988 RMK AO2=
KGEY 220153Z AUTO VRB03KT 10SM CLR 16/M03 A2946 RMK AO2 SLP967
     T01561028=
KIDA 220153Z 19015G25KT 10SM CLR 17/M03 A2964 RMK AO2 PK WND
     20027/0125 SLP020 T01671033=
KJSO 220155Z AUTO 19007KT 10SM CLR 22/11 A2994 RMK AO2 T02220107
     TSNO=
KRNT 220153Z 00000KT 6SM -RA BR SCT013 OVC021 09/08 A2970 RMK AO2
     SLP062 P0005 T00940078=
KSHN 220153Z AUTO 00000KT 10SM -RA OVC004 09/08 A2967 RMK AO2 CIG
     003V009 SLP048 P0005 T00890078=
K1P1 220155Z AUTO 00000KT 10SM CLR 01/00 A3015 RMK AO2
     T00130004=
K2P2 220155Z AUTO 00000KT 7SM CLR 06/06 A2962 RMK AO2
     T00560056=
K3D2 220155Z AUTO 25003KT 10SM CLR 14/05 A2963 RMK AO2
     T01350050=
KALO 220154Z AUTO 00000KT 8SM CLR 09/01 A2963 RMK AO2 SLP034
     T00890006=
KARB 220153Z AUTO 19008KT 10SM CLR 14/03 A2984 RMK AO2 SLP108
     T01390028=
KAXV 220155Z AUTO 19012G17KT 10SM CLR 15/00 A2993 RMK AO2=
KCBG 220155Z AUTO 00000KT 10SM CLR 09/00 A2961 RMK AO2=
KCDW 220153Z 00000KT 10SM CLR 08/02 A3017 RMK AO2 SLP223
     T00780022=
KDEC 220154Z 18011KT 10SM CLR 17/05 A2981 RMK AO2 SLP093
     T01670050=
KDFI 220153Z AUTO 20011G18KT 10SM CLR 16/02 A2987 RMK AO2 SLP117
     T01610022=
KDYT 220155Z AUTO 20005KT A2959 RMK AO2 PWINO=
KFFM 220155Z AUTO 16004KT 10SM CLR 11/01 A2956 RMK AO2=
KLPR 220153Z AUTO 19011KT 10SM CLR 14/02 A2994 RMK AO2 SLP141
     T01390017=
