SAUS70 KWBC 220100 RRH
METAR
KGMJ 220055Z AUTO 17009KT 10SM CLR 16/M04 A2975 RMK AO2=
KGOP 220055Z AUTO 10SM CLR 24/08 A2989 RMK AO2=
KGVT 220055Z AUTO 16008KT 10SM CLR 22/10 A2984 RMK AO2 TSNO
     T02160097=
KGZL 220055Z AUTO 15006KT 9SM CLR 23/05 A2977 RMK AO2=
KHDE 220055Z AUTO 20003KT 10SM CLR 15/M01 A2962 RMK AO2
     T01461012=
KHDL 220055Z AUTO 00000KT 10SM BKN030 BKN055 12/08 A3011 RMK
     AO2=
KHHG 220055Z AUTO 20005KT 10SM CLR A2987 RMK AO2=
KHII 220055Z AUTO 17007KT 10SM CLR 31/04 A2975 RMK AO2=
KHMZ 220055Z AUTO 00000KT 10SM CLR 07/M01 A3009 RMK AO2
     T00651008=
KHNR 220055Z AUTO 00000KT 10SM CLR 12/00 A2960 RMK A01=
KHPN 220056Z 00000KT 10SM CLR 09/04 A3015 RMK AO2 SLP212 T00890039
     $=
KHPT 220055Z AUTO 00000KT 5SM HZ CLR 08/M01 A2963 RMK AO2=
KHUM 220055Z AUTO 13004KT 10SM CLR 16/14 A3009 RMK AO2
     T01600135=
KI63 220055Z AUTO 17009KT 10SM CLR 19/03 A2971 RMK AO2
     T01910025=
KI75 220055Z AUTO 12003KT 7SM CLR 14/04 A2962 RMK AO2
     T01430036=
KIBM 220055Z AUTO 22006KT 10SM CLR 12/M09 A2968 RMK AO2
     T01231095=
KICL 220055Z AUTO 00000KT 9SM CLR 13/05 A2961 RMK AO2=
KIKK 220055Z AUTO 19010G16KT 10SM CLR 18/03 A2978 RMK AO2
     T01750025=
KIKV 220055Z AUTO 00000KT 10SM CLR 13/03 A2963 RMK AO2=
KISP 220056Z 00000KT 10SM CLR 09/06 A3016 RMK AO2 SLP214
     T00890061=
KJAS 220055Z AUTO 19009G15KT 10SM FEW040 FEW045 22/16 A2997 RMK
     AO2=
KJOT 220055Z AUTO 19009KT 10SM CLR 21/05 A2974 RMK AO2
     T02050045=
KJYR 220055Z AUTO 00000KT 9SM CLR 16/M02 A2960 RMK AO2=
KK88 220055Z AUTO 16009KT 10SM CLR 21/04 A2969 RMK AO1
     T02130042=
KLAM 220055Z AUTO 00000KT 10SM CLR 15/M03 A3006 RMK AO2
     T01481035=
KLCQ 220055Z AUTO 00000KT 10SM CLR 10/04 A3010 RMK AO2=
KLGC 220055Z AUTO 00000KT 10SM CLR 09/05 A3012 RMK AO2
     T00880053=
KLLN 220055Z AUTO 23010KT 10SM CLR 17/04 A2985 RMK AO2=
KLOM 220055Z AUTO 00000KT 10SM CLR 05/04 A3016 RMK AO2
     T00540041=
KLOT 220055Z AUTO 18013KT 10SM CLR 20/04 A2975 RMK AO2=
KLRJ 220055Z AUTO 00000KT 10SM CLR 12/00 A2958 RMK AO2=
KLWB 220055Z AUTO 00000KT 10SM CLR 07/01 A3013 RMK AO2
     T00680007=
KLXN 220055Z AUTO 17007KT 7SM CLR 14/M01 A2961 RMK AO2
     T01371011=
KMDQ 220055Z AUTO 00000KT 10SM CLR 17/03 A3005 RMK A02
     T01680034=
KMJD 220055Z AUTO 14003KT 10SM CLR 16/11 A3007 RMK AO2=
KMLJ 220055Z AUTO 00000KT 10SM CLR 11/03 A3012 RMK AO2=
KMQI 220055Z AUTO 04006KT 10SM SCT075 15/11 A3015 RMK AO2
     T01520105=
KMQS 220055Z AUTO 00000KT 10SM CLR 09/00 A3017 RMK AO2=
KN03 220055Z AUTO 23004KT 10SM CLR 08/M02 A3007 RMK AO2=
KOBE 220055Z AUTO 02006KT 10SM FEW080 19/15 A3002 RMK AO2=
KOGA 220055Z AUTO 27006KT 10SM CLR 16/M05 A2960 RMK AO2
     T01621048=
KOGS 220055Z AUTO 19008KT 10SM CLR 11/M01 A2993 RMK AO2=
KOKM 220055Z AUTO 17006KT 10SM CLR 23/06 A2974 RMK AO2
     T02340063=
KOKZ 220055Z AUTO 00000KT 10SM CLR 08/04 A3013 RMK AO2
     T00820042=
KOLE 220055Z AUTO 20008G16KT 10SM CLR 10/M02 A3002 RMK AO2=
KOLZ 220055Z AUTO 01005KT 8SM CLR 15/01 A2964 RMK A01=
KONL 220055Z AUTO 12007KT 10SM CLR 15/00 A2958 RMK AO2
     T01450000=
KOOA 220055Z AUTO 17007KT 5SM CLR 17/06 A2964 RMK AO2
     T01690060=
KOPL 220055Z AUTO 20008KT 10SM CLR 20/13 A3003 RMK AO2
     T02020132=
KOPN 220055Z AUTO 00000KT 10SM CLR 12/03 A3014 RMK AO2=
KOQN 220055Z AUTO 00000KT 10SM CLR 11/01 A3016 RMK AO2=
KOWP 220055Z AUTO 16006KT 10SM CLR 27/02 A2974 RMK AO2
     T02710022=
KPBX 220055Z AUTO 00000KT 10SM CLR 14/01 A3007 RMK AO2
     T01410006=
KPEA 220055Z AUTO 00000KT 10SM CLR 16/04 A2963 RMK AO2
     T01630037=
