SAUS70 KWBC 212300 RRP
METAR
KBIE 212255Z AUTO 00000KT 10SM CLR 25/01 A2959 RMK AO2
     T02510005=
KC65 212255Z AUTO 19010G16KT 170V230 10SM CLR 21/02 A2976 RMK
     A01=
KCAV 212255Z AUTO 01005KT 1 3/4SM HZ CLR 19/02 A2962 RMK A01=
KCFS 212255Z AUTO 17007KT 10SM CLR 17/03 A2972 RMK AO2
     T01670032=
KCIN 212255Z AUTO 06004KT 9SM CLR 23/01 A2959 RMK AO2=
KDNS 212255Z AUTO RMK AO2 PNO PWINO=
KFEP 212255Z AUTO 22009KT 7SM CLR 21/06 A2965 RMK AO2
     T02130060=
KFSW 212255Z AUTO 19009G17KT 10SM OVC001 24/04 A2964 RMK AO2=
KGGP 212255Z AUTO 20009KT 10SM CLR 18/01 A2983 RMK AO2=
KHJH 212255Z AUTO 00000KT 10SM CLR 25/01 A2959 RMK AO2
     T02480008=
KPEA 212255Z AUTO 00000KT 10SM CLR 25/03 A2960 RMK AO2
     T02470033=
KPNT 212255Z AUTO 19012G17KT 10SM CLR 22/08 A2973 RMK AO2
     T02160075=
KPPQ 212255Z AUTO 17007KT 10SM CLR 24/04 A2973 RMK AO2
     T02380035=
KRDK 212255Z AUTO 00000KT CLR 21/01 A2958 RMK AO2=
KSDA 212255Z AUTO 00000KT 10SM CLR 26/01 A2956 RMK AO2=
KSHL 212255Z AUTO 7SM CLR 19/02 A2959 RMK AO2=
KSLB 212255Z AUTO 05006KT 9SM CLR 19/01 A2962 RMK AO2=
KSXK 212255Z AUTO 11006KT 10SM CLR 20/02 A2958 RMK AO2=
KTIP 212255Z AUTO 19010KT 10SM CLR 21/03 A2978 RMK AO2
     T02050025=
KUNI 212255Z AUTO 16004KT 5SM HZ CLR 15/M01 A3000 RMK AO2
     T01481008=
KW22 212255Z AUTO 00000KT 10SM 14/M02 A3005 RMK AO2=
KZER 212255Z AUTO 15005KT 10SM CLR 08/M02 A3010 RMK AO2=
KADU 212255Z AUTO 00000KT 10SM SCT006 BKN036 OVC080 21/M04 A2962
     RMK AO2 PWINO=
KAFK 212255Z AUTO 22005KT 10SM CLR 25/00 A2959 RMK AO2
     T02500002=
KAIO 212255Z AUTO 00000KT 5SM HZ CLR 21/02 A2959 RMK AO2=
KASW 212255Z AUTO 20004KT 10SM CLR 20/02 A2980 RMK AO2
     T01980027=
KBUU 212255Z AUTO 21005KT 10SM CLR 21/04 A2964 RMK AO2 T02100035
     PWINO=
KC75 212255Z AUTO 19007KT 10SM CLR 23/07 A2968 RMK AO2
     T02310073=
KCBF 212255Z AUTO 18004KT 6SM HZ CLR 22/M05 A2957 RMK AO2=
KCNC 212255Z AUTO 22007KT 10SM CLR 26/03 A2959 RMK AO2=
KDKB 212255Z AUTO 20009KT 10SM CLR 19/06 A2968 RMK AO2
     T01890063=
KDNV 212255Z AUTO 20009G15KT 10SM CLR 21/02 A2980 RMK AO2
     T02130017=
KEOK 212255Z AUTO 19012KT 10SM CLR 25/05 A2964 RMK A01=
KFFL 212255Z AUTO 20007KT 9SM CLR 24/M00 A2961 RMK A01=
KGBG 212255Z AUTO 19010KT 10SM CLR 24/05 A2967 RMK AO2
     T02350049=
KGHG 212255Z AUTO 21005KT 10SM CLR 12/06 A3014 RMK AO2=
KHDE 212255Z AUTO 00000KT 10SM CLR 23/M01 A2962 RMK AO2
     T02261015=
KHNR 212255Z AUTO 17004KT 9SM CLR 21/01 A2960 RMK A01=
KHPN 212256Z 00000KT 10SM CLR 09/04 A3013 RMK AO2 SLP206
     T00940044=
KHPT 212255Z AUTO 35004KT 10SM CLR 20/00 A2962 RMK AO2=
KISP 212256Z 19004KT 10SM CLR 13/07 A3014 RMK AO2 SLP208
     T01280072=
KJOT 212255Z AUTO 20008KT 10SM CLR 22/05 A2970 RMK AO2
     T02210045=
KLRJ 212255Z AUTO 10004KT 10SM CLR 22/01 A2958 RMK AO2=
KLXN 212255Z AUTO 16004KT 10SM CLR 24/M02 A2962 RMK AO2
     T02411020=
KOGA 212255Z AUTO 15005KT 10SM CLR 26/M03 A2960 RMK AO2
     T02621031=
KOGS 212255Z AUTO 17006KT 10SM CLR 12/M01 A2992 RMK AO2=
KOLZ 212255Z AUTO 00000KT 2 1/2SM HZ CLR 20/01 A2962 RMK A01=
KONL 212255Z AUTO 10004KT 10SM CLR 20/00 A2961 RMK AO2
     T01990000=
K6S8 212255Z AUTO 04008G16KT 10SM 16/M00 A2951 RMK A01 Laurel=
K6I2 212255Z AUTO 16006KT 10SM CLR 18/00 A2999 RMK AO2=
KAFO 212255Z AUTO 24013G21KT 10SM SCT100 17/M11 A2982 RMK AO2=
KAOH 212253Z AUTO 20009KT 10SM CLR 18/01 A2989 RMK AO2 SLP119
     T01830011=
KAPS 212256Z AUTO 18010KT 10SM CLR 22/14 A3004 RMK AO2=
KAQO 212255Z AUTO 18010G16KT 150V210 10SM CLR 30/05 A2988 RMK
     AO2=
KAUN 212255Z AUTO 22007KT 9SM CLR 27/07 A2984 RMK A01=
