SAUS70 KWBC 220006
METAR
KGZN 212340Z AUTO 19008G15KT 10SM CLR 29/02 A2980 RMK AO2=
KGAF 220015Z AUTO 25005KT 9SM SCT085 11/01 A2953 RMK AO2=
KW63 220015Z AUTO 00000KT 10SM CLR 08/06 A3013 RMK AO1=
