SAUS70 KWBC 220200 RRM
METAR
KOSH 220153Z 24003KT 10SM CLR 15/04 A2965 RMK AO2 SLP038
     T01500039=
KTWM 220155Z AUTO 00000KT 10SM CLR 09/02 A2958 RMK AO2=
KBRO 220153Z 13007KT 10SM CLR 22/16 A3000 RMK AO2 SLP156
     T02170161=
KJFK 220151Z 20014KT 10SM CLR 14/08 A3018 RMK AO2 SLP220
     T01390078=
KMCO 220153Z 35008KT 10SM CLR 17/09 A3007 RMK AO2 SLP181
     T01720094=
K2DP 220155Z AUTO 01007KT 10SM CLR 10/10 A3013 RMK AO2 SLPNO
     T01030103 $=
KBUR 220153Z 18008KT 10SM CLR 21/16 A2985 RMK AO2 SLP096
     T02110161=
PASC 220153Z 09018KT 2SM -SN BLSN BKN022 OVC060 M03/M05 A2987 RMK
     AO2 SNB02 SLP115 P0000 T10331050=
KGFA 220155Z AUTO 00000KT 10SM -RA OVC044 08/04 A2952 RMK AO2
     SLP003 P0003 T00770043 $=
KGUR 220155Z AUTO 26011KT 10SM CLR 20/M10 A2957 RMK AO2 SLP993
     T01971105=
K10G 220155Z AUTO 20007KT 10SM CLR 13/M01 A3001 RMK AO2=
KPBG 220153Z AUTO 00000KT 10SM CLR 08/01 A3005 RMK AO2 SLP177
     T00830006=
KPCZ 220155Z AUTO 00000KT 10SM CLR 10/04 A2966 RMK AO2
     T01000035=
KPHD 220153Z AUTO 13006KT 10SM CLR 10/01 A3002 RMK AO2 SLP169
     T01000011=
KPOU 220153Z AUTO 00000KT 10SM CLR 04/01 A3015 RMK AO2 SLP207
     T00390011=
KRYM 220155Z AUTO 00000KT 10SM BKN150 07/00 A2959 RMK AO2 SLP029
     T00720004 $=
KTTS 220155Z AUTO 33006KT 10SM CLR 17/13 A3004 RMK AO2 SLP177
     T01660133 $=
KBYS 220155Z AUTO 17007KT 10SM CLR 23/M05 A2980 RMK AO2 SLP076
     T02261054=
KBKE 220153Z AUTO 00000KT 10SM OVC060 08/06 A2962 RMK AO2 RAB39E48
     SLP036 P0000 T00830061=
KDLS 220153Z AUTO 22006KT 10SM -RA FEW025 OVC075 11/08 A2966 RMK
     AO2 SLP045 P0003 T01060078=
KHRI 220153Z AUTO 18005KT 7SM RA OVC060 09/08 A2967 RMK AO2 SLP047
     P0008 T00940083=
KL18 220155Z AUTO 23005KT 10SM OVC010 18/16 A2988 RMK AO2=
KLGB 220153Z 18006KT 10SM CLR 20/17 A2985 RMK AO2 SLP107
     T02000167=
KMCE 220153Z AUTO 24005KT 10SM CLR 24/06 A2975 RMK AO2 SLP073
     T02390061=
KSNS 220153Z AUTO 32008KT 9SM OVC012 15/12 A2987 RMK AO2 SLP123
     T01500117 TSNO=
KSTS 220153Z AUTO 15005KT 9SM CLR 12/11 A2985 RMK AO2 SLP100
     T01220106=
KVCB 220153Z AUTO 21010G18KT 10SM CLR 19/11 A2975 RMK AO2 SLP072
     T01890106=
KWVI 220153Z AUTO 00000KT 10SM OVC009 13/11 A2988 RMK AO2 SLP118
     T01330111=
KALW 220153Z AUTO 21006KT 10SM -RA HZ FEW024 OVC050 08/07 A2966
     RMK AO2 SLP044 P0006 T00830067=
KBFI 220153Z 17003KT 4SM -RA BR FU BKN012 OVC019 08/07 A2970 RMK
     AO2 SLP057 P0007 T00830072=
KBYS 220155Z AUTO 17007KT 10SM CLR 23/M05 A2980 RMK AO2 SLP076
     T02261054=
KLVM 220153Z AUTO 29017KT 10SM -RA BKN060 OVC075 13/03 A2953 RMK
     AO2 PK WND 27032/0117 RAB0058 SLP969 P0000 T01330033=
KMLP 220153Z AUTO 24005KT 3/4SM BR VV002 M03/M03 A2958 RMK AO2
     SNE52 SLP980 P0000 T10281033=
KMYV 220153Z AUTO 18005KT 10SM CLR 22/05 A2973 RMK AO2 SLP070
     T02220050 $=
KOGD 220153Z 16010KT 10SM CLR 17/M06 A2972 RMK AO2 SLP032
     T01721061=
KOVE 220153Z AUTO 15005KT 10SM CLR 26/08 A2975 RMK AO2 SLP075
     T02560083=
KPSC 220153Z 18008KT 9SM -RA OVC060 10/08 A2965 RMK AO2 SLP040
     P0010 T01000078=
KRAL 220153Z 27006KT 10SM CLR 22/15 A2984 RMK AO2 SLP092
     T02220150=
KACV 220153Z AUTO 20003KT 8SM OVC020 14/09 A2991 RMK AO2 SLP134
     T01390094=
KBLI 220153Z 17004KT 10SM -RA BKN009 BKN015 OVC055 09/09 A2969 RMK
     AO2 SLP060 P0000 T00890089=
KEPH 220153Z AUTO 06003KT 10SM CLR 09/06 A2959 RMK AO2 SLP021
     T00940056 $=
KFHR 220153Z AUTO 00000KT 9SM -RA FEW027 SCT041 OVC050 08/08 A2970
     RMK AO2 SLP058 P0002 T00830078=
