SAUS70 KWBC 220000 RRX
METAR
KTFP 212355Z AUTO 18008KT 10SM CLR 23/16 A2996 RMK AO2
     T02300162=
