SAUS80 KWBC 212304
METAR
K77S 212315Z AUTO 22009G14KT 2 1/2SM BR SCT008 BKN012 OVC030 15/15
     A2979 RMK A01=
KM25 212315Z AUTO 18005KT 10SM CLR 22/07 A2990 RMK AO2 PWINO=
