SAUS80 KWBC 212316
METAR
KCLI 212315Z AUTO 26003KT 10SM CLR 17/04 A2960 RMK AO2
     T01670037=
