SAUS70 KWBC 220200 RRI
METAR
KJHW 220156Z AUTO 19010KT 10SM CLR 11/M01 A3002 RMK AO2 SLP176
     T01061011=
KJRB 220156Z AUTO 26005KT 10SM CLR A3018 RMK AO2 SLPNO FZRANO
     $=
KJYM 220155Z AUTO 18008KT 10SM CLR 14/01 A2985 RMK AO2
     T01420010=
KLBL 220156Z AUTO 00000KT 10SM CLR 13/M03 A2966 RMK AO2 SLP035
     T01331033=
KLCI 220156Z AUTO 00000KT 10SM CLR 03/01 A3014 RMK AO2 SLP211
     T00330011=
KLEW 220156Z AUTO 00000KT 10SM CLR 02/02 A3015 RMK AO2 SLP220
     T00220022 FZRANO=
KLRD 220156Z 16005KT 9SM CLR 22/12 A2993 RMK AO2 SLP134
     T02220117=
KLWA 220155Z AUTO 20011G17KT 10SM CLR 20/02 A2976 RMK AO2
     T01950020=
KLXL 220155Z AUTO 00000KT 10SM CLR 07/01 A2961 RMK AO2=
KM19 220156Z AUTO 18007KT 10SM CLR 14/09 A2989 RMK AO2 SLP120
     T01440094 PNO $=
KMBL 220156Z AUTO 20004KT 10SM CLR 17/06 A2965 RMK AO2 SLP041
     T01720061=
KMCD 220155Z AUTO 28005KT 10SM CLR 09/07 A2964 RMK AO2
     T00870067=
KDTL 220155Z AUTO 00000KT 10SM OVC055 10/01 A2957 RMK AO2=
KDUH 220155Z AUTO 19008KT 10SM CLR 16/00 A2987 RMK AO2
     T01620001=
KDYR 220156Z AUTO 16008KT 10SM CLR 20/11 A2992 RMK AO2 SLP138
     T02000106=
KEDJ 220155Z AUTO 18010KT 10SM CLR 13/01 A2996 RMK A01=
KEEN 220156Z AUTO 00000KT CLR 02/01 A3016 RMK AO2 SLP220 T00170011
     PWINO FZRANO $=
KEFK 220155Z AUTO 17003KT 10SM CLR 08/M03 A3009 RMK AO2
     T00821030=
KEGE 220156Z AUTO 03003KT 10SM CLR 13/M09 A2994 RMK AO2 SLP057
     T01281094=
KEHR 220156Z AUTO 17003KT 10SM CLR 16/03 A2992 RMK AO2 SLP132
     T01560028=
KEKQ 220156Z AUTO 00000KT 10SM CLR 08/01 A3007 RMK AO2 SLP180
     T00780011=
KESC 220156Z AUTO 01004KT 8SM CLR 07/07 A2963 RMK AO2 SLP038
     T00670067 PNO $=
KEWK 220156Z AUTO 17011KT 10SM CLR 23/01 A2964 RMK AO2 SLP027
     T02280006=
KFAM 220156Z AUTO 17005KT 10SM CLR 17/08 A2987 RMK AO2 SLP122
     T01670078=
KFCI 220156Z AUTO 00000KT 10SM CLR 06/04 A3018 RMK AO2 SLP231
     T00610044=
KFFX 220155Z AUTO 21011KT 10SM CLR 19/05 A2972 RMK AO2
     T01890051=
KFKA 220155Z AUTO 00000KT 7SM CLR 12/02 A2966 RMK AO2
     T01240020=
KFKL 220156Z AUTO 18010KT 10SM CLR 11/M01 A3004 RMK AO2 SLP179
     T01061006=
KFKS 220155Z AUTO 22005KT 10SM CLR 13/07 A2965 RMK AO2
     T01330070=
KFLP 220156Z AUTO VRB03KT 10SM CLR 20/08 A2985 RMK AO2 SLP103
     T02000078=
KFNL 220156Z 25013G17KT 10SM CLR 19/M07 A2970 RMK AO2 SLP022
     T01891067=
KFOD 220156Z AUTO 06005KT 7SM CLR 11/01 A2962 RMK AO2 SLP047
     T01110011=
KFPK 220155Z AUTO 20012KT 10SM CLR 16/03 A2977 RMK AO2
     T01590031=
KFRM 220156Z AUTO 10003KT 8SM CLR 09/02 A2964 RMK AO2 SLP041
     T00940017=
KGAI 220156Z AUTO 13006KT 10SM CLR 10/02 A3016 RMK AO2 SLP229
     T01000022=
KGBD 220156Z AUTO 17004KT 10SM CLR 17/03 A2961 RMK AO2 SLP022
     T01670028=
KGDV 220156Z AUTO 36005KT 10SM FEW070 BKN095 08/07 A2955 RMK AO2
     RAE14 SLP016 P0000 T00780067=
KGPM 220150Z 17008G16KT 10SM SKC 26/08 A2985=
KGTU 220156Z 16005KT 10SM CLR 24/09 A2994 RMK AO2 SLP133
     T02390089=
KGUC 220156Z AUTO 20004KT 10SM CLR 09/M08 A3000 RMK AO2 SLP156
     T00891078=
KGXY 220156Z VRB03KT 9SM CLR 14/M04 A2970 RMK AO2 SLP052 T01441044
     $=
K04W 220155Z AUTO 00000KT 10SM CLR 05/02 A2961 RMK AO2=
K1M4 220156Z AUTO 17006KT 10SM CLR 17/11 A3007 RMK AO2 SLP172
     T01670111=
K22N 220155Z AUTO 00000KT 10SM CLR 01/00 A3017 RMK AO2=
K3N8 220155Z AUTO 16004KT 10SM SCT100 SCT120 10/00 A2956 RMK AO2
     T00970000=
K6B0 220155Z AUTO 00000KT 10SM CLR 08/00 A3011 RMK AO2
     T00780001=
K7N0 220156Z AUTO 18008KT 10SM CLR 20/11 A3010 RMK AO2 SLP192
     T02000111 PNO $=
