SAUS70 KWBC 220220 RRG
METAR
KASW 220215Z AUTO 19007KT 130V240 10SM CLR 17/02 A2985 RMK AO2
     T01710028=
KAUN 220215Z AUTO 10005KT 10SM CLR 21/07 A2981 RMK A01=
KAWG 220215Z AUTO 18009KT 10SM CLR 18/04 A2965 RMK AO2=
KAXA 220215Z AUTO 07006KT 7SM CLR 13/03 A2961 RMK A01=
KAZE 220215Z AUTO 00000KT 10SM CLR 10/05 A3013 RMK AO2
     T00990053=
KBBD 220215Z AUTO 19009KT 10SM CLR 22/06 A2990 RMK AO2=
KBBP 220215Z AUTO 00000KT 10SM CLR 05/03 A3016 RMK AO2=
KBDG 220215Z AUTO 29004KT 10SM 14/M03 A3004 RMK AO1 T01391035=
KBEC 220215Z AUTO 17013G21KT 10SM CLR 26/01 A2964 RMK AO2
     T02550010=
KBQK 220215Z AUTO 00000KT 10SM CLR 08/07 A3013 RMK AO2 LTG DSNT SE
     T00800068=
KBVS 220215Z AUTO 00000KT 10SM SCT010 BKN013 OVC034 08/08 A2970
     RMK A01=
KBYY 220215Z AUTO 17004KT 10SM CLR 18/15 A3002 RMK AO2
     T01860147=
KC35 220215Z AUTO 00000KT 10SM CLR 08/03 A2965 RMK AO2 T00840031
     PWINO=
KC65 220215Z AUTO 18010KT 10SM CLR 17/03 A2982 RMK A01=
KC75 220215Z AUTO 18011G16KT 10SM CLR 19/07 A2972 RMK AO2
     T01870065=
KCAV 220215Z AUTO 08009KT 7SM SCT029 SCT040 BKN046 08/01 A2962 RMK
     A01=
KCBF 220215Z AUTO 13006KT 4SM HZ CLR 18/M05 A2956 RMK AO2=
KCCU 220215Z AUTO 26010G19KT 10SM CLR 03/M10 A3016 RMK AO2=
KOKZ 220215Z AUTO 00000KT 10SM CLR 07/04 A3015 RMK AO2
     T00690041=
KOLE 220215Z AUTO 20007KT 10SM CLR 08/M02 A3004 RMK AO2=
KOLZ 220215Z AUTO 06006KT 8SM CLR 11/01 A2964 RMK A01=
KONL 220215Z AUTO 14003KT 10SM CLR 14/00 A2957 RMK AO2
     T01351003=
KOOA 220215Z AUTO 17006KT 10SM CLR 16/07 A2965 RMK AO2
     T01640069=
KOPL 220215Z AUTO 19005KT 10SM CLR 18/13 A3005 RMK AO2
     T01800131=
KOPN 220215Z AUTO 00000KT 10SM CLR 10/05 A3015 RMK AO2=
KOQN 220215Z AUTO 00000KT 10SM CLR 10/03 A3018 RMK AO2=
KOWP 220215Z AUTO 16004KT 10SM CLR 25/05 A2975 RMK AO2
     T02490046=
KPEA 220215Z AUTO 14003KT 10SM CLR 18/03 A2964 RMK AO2
     T01840030=
KPIM 220215Z AUTO 00000KT 10SM CLR 08/04 A3014 RMK AO2
     T00760038=
KPLU 220215Z AUTO 00000KT 7SM -DZ FEW030 BKN040 OVC050 08/08 A2968
     RMK AO2=
KPMU 220215Z AUTO 15007KT 10SM CLR 20/10 A2995 RMK AO2=
KPNA 220215Z AUTO 24012G16KT 10SM CLR 10/M08 A2980 RMK AO2=
KPNT 220215Z AUTO 18015G22KT 10SM CLR 17/07 A2977 RMK AO2
     T01710065=
KPOY 220215Z AUTO 27009KT 10SM SCT095 15/M05 A2952 RMK AO2=
KPPQ 220215Z AUTO 17008KT 10SM CLR 18/03 A2975 RMK AO2
     T01770032=
KRCR 220215Z AUTO 19011G18KT 10SM CLR 17/03 A2985 RMK AO2=
KRCV 220215Z AUTO 26013G21KT 10SM CLR 11/M06 A3000 RMK AO2
     T01111056=
KRDK 220215Z AUTO 00000KT CLR 09/01 A2960 RMK AO2=
KREG 220215Z AUTO 18007KT 10SM CLR 19/15 A3007 RMK AO2
     T01920150=
KRQO 220215Z AUTO 17009KT CLR 18/04 A2972 RMK AO2 PWINO
     T01850039=
KSBO 220215Z AUTO 00000KT 10SM CLR 08/06 A3015 RMK AO2=
KSBS 220215Z AUTO 00000KT 10SM CLR 10/M10 A2988 RMK AO1
     T01011097=
KSDA 220215Z AUTO 00000KT 6SM HZ FEW003 12/02 A2959 RMK AO2=
KGVT 220215Z AUTO 17011KT 10SM CLR 23/11 A2986 RMK AO2 TSNO
     T02290111=
KGZL 220215Z AUTO 16005KT 10SM CLR 23/07 A2978 RMK AO2=
KHDE 220215Z AUTO 18005KT 10SM CLR 13/M02 A2960 RMK AO2
     T01331020=
KHDL 220215Z AUTO 00000KT 10SM SCT032 SCT038 10/08 A3012 RMK
     AO2=
KHHG 220215Z AUTO 19005KT 10SM CLR A2989 RMK AO2=
KHII 220215Z AUTO 14003KT 10SM CLR 28/05 A2977 RMK AO2=
KHMZ 220215Z AUTO 34003KT 10SM CLR 04/M01 A3012 RMK AO2
     T00371009=
KHNR 220215Z AUTO 00000KT 10SM CLR 07/00 A2959 RMK A01=
KHPT 220215Z AUTO 00000KT 5SM HZ CLR 07/M01 A2964 RMK AO2=
KHUM 220215Z AUTO 14004KT 15/13 A3009 RMK AO2 T01450125 PWINO=
KI63 220215Z AUTO 17010KT 10SM CLR 18/02 A2971 RMK AO2
     T01840018=
