SAUS80 KWBC 220100
METAR
K77S 220055Z AUTO 20008G14KT 2 1/2SM BR FEW004 OVC016 15/15 A2974
     RMK A01 P0002=
