SAUS70 KWBC 220218 RRA
METAR
KCTZ 220215Z AUTO 00000KT 10SM SCT050 10/06 A3017 RMK AO2
     T00990062=
KD57 220215Z AUTO 06005KT 10SM 10/M02 A2951 RMK AO2=
KD60 220215Z AUTO 12004KT 10SM SCT026 OVC032 05/05 A2956 RMK
     AO2=
KDNA 220215Z AUTO 00000KT 10SM CLR 22/08 A2999 RMK AO2=
KDNN 220215Z AUTO 00000KT 10SM CLR 08/04 A3013 RMK AO2
     T00760043=
KDRI 220215Z AUTO 18006KT 10SM CLR 20/15 A3003 RMK AO2 T02040155
     $=
KDYB 220215Z AUTO 00000KT 10SM CLR 08/08 A3014 RMK AO2=
KEKM 220215Z AUTO 20009KT 10SM CLR 17/03 A2983 RMK AO2
     T01650034=
KELK 220215Z AUTO 18010KT 10SM CLR 20/03 A2970 RMK AO2 SLP347
     T02040031 $=
KEVU 220215Z AUTO 19008KT 10SM CLR 20/05 A2961 RMK AO2
     T02020055=
KEZF 220215Z AUTO 00000KT 10SM CLR 07/04 A3016 RMK AO2
     T00680040=
KEZM 220215Z AUTO 00000KT 10SM CLR 06/04 A3015 RMK AO2=
KFVX 220215Z AUTO 00000KT 10SM CLR 05/03 A3016 RMK AO2
     T00490025=
KFWB 220215Z AUTO 15004KT 10SM CLR 20/04 A2982 RMK AO2=
KGLY 220215Z AUTO 18008KT 10SM CLR 22/03 A2971 RMK AO2=
KGWR 220215Z AUTO 00000KT 8SM BKN022 OVC047 09/01 A2955 RMK
     A01=
KHOB 220215Z AUTO 24010KT 10SM CLR 18/06 A2989 RMK AO2=
KHRJ 220215Z AUTO 00000KT 10SM CLR 08/06 A3018 RMK AO2
     T00770060=
KHVS 220215Z AUTO 00000KT 10SM FEW039 SCT047 SCT055 07/00 A3015
     RMK AO2 LTG DSNT SE=
KHWY 220215Z AUTO 00000KT 10SM CLR 02/01 A3020 RMK AO2
     T00220009=
KHZE 220215Z AUTO 05004KT 10SM -RA BKN047 OVC050 09/04 A2956 RMK
     AO2=
KIDI 220215Z AUTO 00000KT 10SM FEW046 BKN055 05/02 A3011 RMK
     A01=
KINF 220215Z AUTO 03003KT 10SM CLR 13/07 A3011 RMK AO2=
KJFZ 220215Z AUTO 15004KT 10SM CLR 11/00 A3013 RMK AO2
     T01051002=
KJZI 220215Z AUTO 00000KT 10SM CLR 10/08 A3015 RMK AO2 LTG DSNT
     SE=
KKY8 220215Z AUTO VRB05KT 10SM CLR 17/04 A2994 RMK A01=
KL08 220215Z AUTO 29004KT 10SM CLR 25/09 A2977 RMK AO2=
KL35 220215Z AUTO 00000KT 10SM CLR 09/02 A3011 RMK AO2=
KL52 220215Z AUTO 00000KT 7SM OVC013 14/14 A2990 RMK A01=
KLBE 220215Z AUTO 00000KT 10SM CLR 05/01 A3008 RMK AO2=
KLBO 220215Z AUTO 17009KT 10SM CLR 20/01 A2981 RMK AO2=
KLKR 220215Z AUTO 00000KT 10SM FEW046 BKN060 07/04 A3016 RMK
     AO2=
KLKU 220215Z AUTO 15004KT 10SM CLR 03/03 A3017 RMK AO2
     T00350025=
KLRO 220215Z AUTO 00000KT 10SM CLR 10/10 A3014 RMK AO2 LTG DSNT
     SE=
KLRU 220215Z AUTO 17003KT 10SM CLR 19/06 A3000 RMK AO2
     T01890063=
KLRY 220215Z AUTO 18004KT 10SM CLR 21/02 A2971 RMK AO2=
KM40 220215Z AUTO 16007KT 10SM CLR 18/13 A3003 RMK AO2=
KMAN 220215Z AUTO 13003KT 6SM HZ CLR 17/04 A2958 RMK A01=
KMBO 220215Z AUTO 00000KT 10SM CLR 16/14 A3001 RMK AO2=
KMDS 220215Z AUTO 15005KT 10SM CLR 11/M00 A2959 RMK AO2=
KMEZ 220215Z AUTO VRB04KT 10SM 23/09 A2989 RMK AO2 T02270087 $=
KMKJ 220215Z AUTO 00000KT 10SM CLR 05/00 A3018 RMK AO2
     T00501005=
KMTV 220215Z AUTO 00000KT 10SM CLR 03/02 A3020 RMK AO2
     T00310015=
KN38 220215Z AUTO 19011KT 10SM CLR 08/M02 A3008 RMK AO2=
KO22 220215Z AUTO 00000KT 10SM CLR 19/03 A2985 RMK A01=
KO32 220215Z AUTO 00000KT 8SM CLR 24/11 A2975 RMK AO2 T02390107
     $=
KOEO 220215Z AUTO 12003KT 10SM CLR 06/04 A2964 RMK AO2
     T00600040=
KOKV 220215Z AUTO 00000KT 10SM CLR 05/00 A3013 RMK AO2=
KOLV 220215Z AUTO 16007KT 10SM FEW060 20/09 A2993 RMK A01=
KONM 220215Z AUTO 35003KT 10SM SCT090 17/06 A2996 RMK AO2
     T01660064=
KORS 220215Z AUTO 17003KT 10SM FEW042 SCT055 BKN065 09/ A2968 RMK
     AO2=
KOZS 220215Z AUTO 17010KT 10SM CLR 20/01 A2977 RMK AO2=
KPAN 220215Z AUTO 19003KT 10SM CLR 16/05 A3005 RMK AO2 PWINO
     TSNO=
KPCM 220215Z AUTO 34004KT 10SM CLR 17/07 A3010 RMK AO2=
