SAUS70 KWBC 220200 RRA
METAR
KLHX 220153Z AUTO 18005KT 10SM CLR 17/M10 A2970 RMK AO2 SLP022
     T01721100=
KLWC 220152Z AUTO 17009KT 10SM CLR 23/05 A2964 RMK AO1 SLP033
     T02280050=
PASI 220153Z 12004KT 10SM SCT030 BKN055 BKN100 07/04 A2972=
PATA 220152Z 00000KT 10SM OVC008 01/M01 A2986 RMK AO2 SNE32 CIG
     005V010 SLP116 P0001 T00061006=
K08D 220155Z AUTO 03006KT 10SM 05/05 A2957 RMK AO2=
K0E0 220155Z AUTO 29003KT 10SM CLR 12/01 A3002 RMK AO2 T01240005
     TSNO=
KATL 220152Z 16003KT 10SM FEW250 13/03 A3013 RMK AO2 SLP203
     T01330033=
KBEA 220155Z AUTO 15005KT 10SM CLR 20/14 A2997 RMK AO2
     T01950140=
KCQW 220155Z AUTO 00000KT 10SM CLR 07/02 A3015 RMK AO2 PWINO=
KD55 220155Z AUTO 32008KT 6SM -DZ FEW023 BKN035 OVC040 07/07 A2957
     RMK AO2=
KEDE 220155Z AUTO 03004KT 10SM CLR 12/11 A3018 RMK AO2
     T01210109=
KEHO 220155Z AUTO 00000KT 10SM CLR 07/03 A3015 RMK AO2
     T00720029=
KEYF 220155Z AUTO 00000KT 10SM CLR 10/05 A3015 RMK AO2 LTG DSNT SW
     T00960053=
KFOZ 220153Z AUTO 00000KT 10SM CLR 09/01 A2962 RMK AO2=
KLAL 220155Z AUTO 01007KT 10SM CLR 17/07 A3008 RMK AO2 LTG DSNT NE
     T01650067=
KLKV 220153Z AUTO 23011KT 10SM OVC100 14/02 A2980 RMK AO2 SLP095
     T01440022=
KLNL 220155Z AUTO 00000KT 10SM CLR 03/02 A2965 RMK AO2
     T00270018=
KLUM 220155Z AUTO 36003KT 10SM CLR 10/07 A2963 RMK AO2
     T00970073=
KMAW 220155Z AUTO 18006KT 5SM HZ CLR 17/08 A2990 RMK AO1=
KMWH 220152Z 16008KT 10SM SCT120 09/04 A2960 RMK AO2 SLP027
     T00890039=
KOKB 220152Z AUTO 24005KT 10SM OVC018 21/17 A2985 RMK AO2 SLP108
     T02110167=
KRCZ 220155Z AUTO 00000KT 10SM CLR 11/02 A3015 RMK AO2
     T01090021=
KRNV 220155Z AUTO 17009KT 10SM CLR A2994 RMK AO2 TSNO=
KRPD 220155Z AUTO 00000KT 10SM CLR 05/04 A2965 RMK AO2
     T00520044=
KSNK 220155Z AUTO 20010KT 10SM CLR 22/04 A2984 RMK AO2
     T02210039=
KTRM 220152Z AUTO 14003KT 10SM CLR 24/11 A2972 RMK AO2 SLP064
     T02440111=
KXVG 220153Z AUTO 00000KT 10SM CLR 06/02 A2959 RMK AO2=
K2C8 220155Z AUTO 29008KT 8SM -RA BKN028 BKN041 OVC047 10/05 A2957
     RMK AO2=
KALN 220150Z 16010KT 10SM CLR 17/05 A2981=
KATW 220145Z 26006KT 10SM CLR 11/02 A2964=
KD50 220155Z AUTO 00000KT 10SM BKN120 04/03 A2957 RMK AO2=
KETB 220155Z AUTO 00000KT 10SM CLR 11/03 A2968 RMK AO2=
KFRH 220155Z AUTO 17003KT 10SM CLR 16/00 A2993 RMK AO1=
KIEN 220152Z AUTO VRB03KT 10SM CLR 14/M06 A2949 RMK AO2 SLP990
     T01391061=
KIJD 220152Z AUTO 00000KT 10SM CLR 05/04 A3018 RMK AO2 SLP221
     T00500044=
KJVL 220145Z 19007KT 10SM CLR 17/01 A2967=
KMDH 220152Z 17004KT 10SM CLR 16/07 A2988 RMK AO2 SLP116
     T01560072=
KMKE 220152Z 22007KT 10SM FEW250 17/04 A2968 RMK AO2 SLP051
     T01720044=
KOIC 220155Z AUTO 00000KT 10SM CLR 04/M01 A3013 RMK AO2
     T00431007=
KOMA 220152Z 00000KT 10SM SCT250 11/03 A2958 RMK AO2 SLP019
     T01060028=
KOQU 220150Z 27005KT 10SM SKC 12/06 A3020=
KOXC 220151Z AUTO 00000KT 10SM CLR 08/04 A3017 RMK AO2 SLP231
     T00830039=
KPBH 220155Z AUTO 00000KT 10SM CLR 05/02 A2964 RMK AO2
     T00530016=
KPYM 220152Z AUTO 00000KT 10SM CLR 08/06 A3019 RMK AO2 SLP227
     T00780061=
KRAP 220152Z 35010KT 10SM CLR 13/M03 A2947 RMK AO2 SLP982
     T01281033=
KRRL 220155Z AUTO 00000KT 10SM CLR 06/03 A2964 RMK AO2 T00590025
     TSNO=
KUNU 220155Z AUTO 18004KT 10SM CLR 15/04 A2968 RMK AO2
     T01460038=
KVNW 220155Z AUTO 20008G15KT 10SM CLR 15/00 A2991 RMK AO2=
KY51 220155Z AUTO 19003KT 10SM CLR 17/04 A2966 RMK AO1
     T01700035=
KBJC 220148Z 27012KT 10SM SCT120 19/M11 A2977=
KDAG 220150Z AUTO 16003KT 10SM CLR 26/01 A2980 RMK AO2 SLP072
     T02560006=
