SACA31 KWBC 212300 RRA
METAR
MKJS 212300Z 12003KT 9999 -TSRA SCT020 BKN022CB 25/23 Q1011=
