SAUS80 KWBC 220218
METAR
KSNC 220215Z AUTO 21004KT 10SM CLR 10/08 A3018 RMK AO2=
KSOW 220215Z AUTO 21008KT 10SM CLR 14/05 A3010 RMK AO2=
KY23 220215Z AUTO 11003KT 10SM CLR 07/05 A2964 RMK AO2
     T00700046=
KM21 220215Z AUTO 17003KT 10SM CLR 16/04 A2996 RMK AO2
     T01560037=
K40B 220216Z AUTO 00000KT 03/00 A3005 RMK AO1 SLP186 T00330000
     53008=
KIKW 220215Z AUTO 18005KT 10SM CLR 15/05 A2974 RMK AO2
     T01520048=
KLYV 220215Z AUTO 00000KT 10SM CLR 10/01 A2960 RMK AO2=
KPOV 220215Z AUTO 17005KT 10SM CLR 12/M02 A2999 RMK AO2 T01151020
     PWINO=
KPZQ 220215Z AUTO 21004KT 10SM CLR 15/05 A2966 RMK AO2
     T01530054=
KSYN 220215Z AUTO 00000KT 4SM HZ CLR 08/02 A2964 RMK AO2
     T00840018=
KCLI 220215Z AUTO 27003KT 10SM CLR 09/04 A2967 RMK AO2
     T00920039=
KSNC 220215Z AUTO 21004KT 10SM CLR 10/08 A3018 RMK AO2=
KY23 220215Z AUTO 11003KT 10SM CLR 07/05 A2964 RMK AO2
     T00700046=
KSVE 220215Z AUTO 25015G18KT 10SM CLR M01/M17 A2981 RMK AO2=
KMKN 220215Z AUTO 19012KT 10SM CLR 24/07 A2986 RMK AO2
     T02400070=
KPTS 220215Z AUTO 17009KT 10SM CLR 22/06 A2972 RMK AO2 T02190060
     PWINO=
KRFI 220215Z AUTO 17005KT 10SM CLR 24/07 A2993 RMK AO2
     T02370072=
KRLD 220215Z AUTO 23004KT 10SM -RA SCT025 SCT070 BKN100 10/09
     A2965 RMK AO2 P0001 T00980088=
KS39 220215Z AUTO 28006G13KT 7SM -RA FEW019 SCT028 BKN034 12/09
     A2964 RMK AO2=
KGNG 220215Z AUTO 21005KT 10SM SCT049 SCT080 OVC110 15/02 A2967
     RMK AO2=
KVTI 220215Z AUTO 17003KT 7SM CLR 12/01 A2964 RMK AO2
     T01180009=
KJNX 220215Z AUTO 00000KT 10SM CLR 06/05 A3017 RMK AO2=
K9MN 220215Z AUTO 13004KT 10SM CLR 14/02 A2965 RMK AO1
     T01360024=
KCIR 220215Z AUTO 20004KT 10SM CLR 17/09 A2990 RMK AO2
     T01670091=
KEDU 220220Z AUTO 21009KT 10SM CLR 18/11 A2974 RMK AO1=
KEKX 220215Z AUTO 17003KT 10SM CLR 14/01 A2999 RMK AO2
     T01350007=
KSEP 220215Z AUTO 17006KT 10SM SCT120 23/05 A2987 RMK AO2
     T02250046=
KTKC 220215Z AUTO 00000KT 10SM 11/00 A2962 RMK AO2 T01131003=
KTKV 220215Z AUTO 00000KT 10SM CLR 05/02 A2966 RMK AO2 T00510022
     PWINO=
