SAUS70 KWBC 220100 RRP
METAR
KCAD 220055Z AUTO 19006KT 10SM CLR 14/04 A2967 RMK AO2
     T01390040=
KCDD 220053Z AUTO 00000KT 10SM CLR 06/02 A2958 RMK AO2=
KCFE 220055Z AUTO 00000KT 10SM SCT020 BKN025 OVC065 07/00 A2961
     RMK AO2=
KCIU 220056Z AUTO 24004KT 10SM CLR 09/07 A2963 RMK AO2 SLP039
     T00890067=
KCNB 220055Z AUTO 11003KT 10SM CLR 11/00 A2962 RMK AO2
     T01090000=
KCOD 220056Z AUTO VRB03KT 10SM OVC110 17/M03 A2955 RMK AO2 SLP964
     T01721033=
KCVN 220056Z AUTO 25012KT 10SM CLR 20/M01 A2986 RMK AO2 PK WND
     26027/2357 SLP086 T02001006=
KCVX 220055Z AUTO 20006KT 10SM CLR 15/06 A2962 RMK AO2
     T01450056=
KCWI 220056Z AUTO 18008KT 10SM CLR 15/04 A2967 RMK AO2 SLP053
     T01500039=
KD95 220055Z AUTO 19008KT 10SM CLR 17/M01 A2978 RMK AO2
     T01661011=
KDTL 220055Z AUTO 15004KT 10SM OVC055 10/01 A2956 RMK AO2=
KDUH 220055Z AUTO 19008KT 10SM CLR 18/00 A2985 RMK AO2
     T01800000=
K21D 220055Z AUTO 00000KT 10SM CLR 07/01 A2964 RMK AO2=
K3N8 220055Z AUTO 16005KT 10SM SCT100 10/00 A2955 RMK AO2
     T00971002=
KALO 220054Z AUTO 02003KT 7SM BKN031 12/01 A2963 RMK AO2 SLP034
     T01170011=
KAUW 220054Z AUTO 00000KT 9SM CLR 11/03 A2963 RMK AO2 SLP043
     T01110033 $=
KAXV 220055Z AUTO 18009KT 10SM CLR 15/00 A2991 RMK AO2=
KBWI 220054Z 00000KT 10SM FEW250 09/03 A3014 RMK AO2 SLP208
     T00890028 $=
KCBG 220055Z AUTO 00000KT 10SM CLR 10/01 A2962 RMK AO2=
KDEC 220054Z 18010KT 10SM CLR 17/04 A2981 RMK AO2 SLP094
     T01720044=
KDSV 220054Z AUTO 15005KT 10SM CLR 11/M01 A3001 RMK AO2 SLP174
     T01061006=
KISW 220054Z AUTO 00000KT 10SM CLR 11/03 A2965 RMK AO2 SLP045
     T01110033=
KLDM 220055Z AUTO 21013G22KT 10SM CLR 17/05 A2965 RMK AO2
     T01740052=
KMIV 220054Z AUTO 00000KT 10SM CLR 06/04 A3017 RMK AO2 SLP215
     T00610039=
KRST 220054Z 00000KT 10SM CLR 15/02 A2965 RMK AO2 SLP044
     T01500022=
KUIN 220054Z AUTO 17009KT 10SM CLR 21/02 A2970 RMK AO2 SLP054
     T02110017=
KUKT 220055Z AUTO 00000KT 10SM CLR 06/03 A3015 RMK A01=
KFCM 220053Z 00000KT 10SM CLR 14/02 A2961 RMK AO2 SLP029
     T01440017=
KFDY 220053Z AUTO 18013KT 10SM CLR 17/02 A2989 RMK AO2 SLP117
     T01670017=
KFOK 220053Z 00000KT 10SM CLR 06/04 A3018 RMK AO2 SLP220 T00560044
     $=
KFRG 220053Z 00000KT 10SM CLR 11/06 A3016 RMK AO2 SLP215 T01060061
     $=
KFWN 220053Z AUTO 00000KT 10SM CLR 06/02 A3015 RMK AO2 SLP212
     T00560022=
KGFK 220053Z 21004KT 5SM HZ FU OVC080 12/01 A2953 RMK AO2 SLP004
     T01170011=
KGKJ 220053Z AUTO 18006KT 10SM CLR 12/M01 A3000 RMK AO2 SLP162
     T01221006=
KGLR 220053Z AUTO 20007KT 10SM CLR 14/04 A2965 RMK AO2 SLP045
     T01390039=
KGRB 220053Z 00000KT 10SM CLR 14/04 A2962 RMK AO2 SLP032
     T01390044=
KGRI 220053Z 20004KT 10SM CLR 16/M02 A2961 RMK AO2 SLP031
     T01611022=
KVSF 220054Z AUTO 00000KT 10SM CLR 04/02 A3012 RMK AO2 SLP206
     T00440017=
KYIP 220053Z 19009KT 10SM CLR 18/03 A2983 RMK AO2 SLP100
     T01780028=
KZZV 220053Z AUTO 15003KT 10SM CLR 12/00 A3001 RMK AO2 SLP166
     T01170000=
KLAF 220054Z 18007KT 10SM CLR 18/02 A2984 RMK AO2 SLP102
     T01780022=
KLJF 220055Z AUTO 00000KT 10SM CLR 10/01 A2962 RMK AO2=
KMFI 220054Z AUTO 29004KT 10SM CLR 11/03 A2965 RMK AO2 SLP047
     T01060028=
KMGG 220055Z AUTO 00000KT 10SM CLR 08/03 A2963 RMK AO2
     T00840027=
KMOT 220054Z 35007KT 10SM BKN046 OVC060 07/05 A2954 RMK AO2 RAE51
     SLP017 P0000 T00670050=
KMQJ 220055Z AUTO 16006KT 10SM CLR 15/02 A2991 RMK AO1=
KOZW 220055Z AUTO 18008G14KT 10SM CLR 17/04 A2979 RMK AO2
     T01650037=
KPHL 220054Z 22004KT 10SM CLR 13/02 A3016 RMK AO2 SLP212
     T01280022=
