SAUS70 KWBC 220100 RRG
METAR
KAJZ 220055Z AUTO 24003KT 10SM CLR 18/M04 A2987 RMK AO2 T01811040
     PWINO=
KAQO 220055Z AUTO 17005KT 10SM CLR 24/07 A2990 RMK AO2=
KASW 220055Z AUTO 21006KT 10SM CLR 17/02 A2984 RMK AO2
     T01740030=
KAUN 220055Z AUTO 18005KT 9SM CLR 24/07 A2981 RMK A01=
KAWG 220055Z AUTO 18008KT 10SM CLR 20/03 A2964 RMK AO2=
KAXA 220055Z AUTO 07004KT 8SM CLR 16/03 A2962 RMK A01=
KAZE 220055Z AUTO 00000KT 10SM CLR 11/05 A3012 RMK AO2
     T01120048=
KBBD 220055Z AUTO 17007KT 10SM CLR 24/03 A2989 RMK AO2=
KBBP 220055Z AUTO 00000KT 10SM CLR 06/03 A3013 RMK AO2=
KBDG 220055Z AUTO 00000KT 10SM 15/M03 A3003 RMK AO1 T01521031=
KBEC 220055Z AUTO 17010KT 10SM CLR 24/00 A2964 RMK AO2
     T02370002=
KBQK 220055Z AUTO 00000KT 10SM CLR 08/06 A3012 RMK AO2
     T00810058=
KBVS 220055Z AUTO 16003KT 10SM OVC018 09/09 A2972 RMK A01
     P0004=
KBYY 220055Z AUTO 18005KT 10SM BKN042 20/15 A3000 RMK AO2
     T02000147=
KC65 220055Z AUTO 19010G16KT 10SM CLR 18/03 A2980 RMK A01=
KC75 220055Z AUTO 19010G14KT 10SM CLR 21/07 A2970 RMK AO2
     T02100066=
KCAV 220055Z AUTO 07006KT 5SM HZ 11/01 A2962 RMK A01=
KCBF 220055Z AUTO 12004KT 4SM HZ CLR 19/M05 A2957 RMK AO2=
KCCU 220055Z AUTO 26013G22KT 10SM CLR 03/M11 A3016 RMK AO2=
KCIN 220055Z AUTO 00000KT 4SM HZ CLR 14/00 A2960 RMK AO2=
KCKF 220055Z AUTO 00000KT 10SM CLR 10/03 A3013 RMK AO2
     T01020032=
KCKV 220052Z AUTO 16005KT 10SM CLR 17/06 A2995 RMK AO2 SLP140
     T01720061=
KCMD 220055Z AUTO 16008KT 10SM CLR 18/07 A3007 RMK AO2=
KCNC 220055Z AUTO 16006KT 10SM CLR 19/03 A2962 RMK AO2=
KCOM 220055Z AUTO 20006KT 10SM CLR 25/02 A2985 RMK AO2
     T02480019=
KCPW 220055Z AUTO 22020G29KT 10SM CLR 01/M06 A3026 RMK AO2=
KCQB 220055Z AUTO 16006KT 3SM HZ CLR 23/04 A2973 RMK AO2 VIS 1V5
     T02280036=
KCUH 220055Z AUTO 20003KT 10SM CLR 23/03 A2970 RMK AO2
     T02300031=
KCWV 220055Z AUTO 00000KT 10SM CLR 09/06 A3013 RMK AO2
     T00910062=
KD73 220055Z AUTO 00000KT 10SM CLR 08/05 A3014 RMK AO2
     T00760045=
KDKB 220055Z AUTO 18008KT 10SM CLR 13/05 A2972 RMK AO2
     T01270052=
KDKR 220055Z AUTO 00000KT 10SM CLR 23/09 A2992 RMK AO2=
KDNS 220055Z AUTO 100KT 8SM 15/00 A2960 RMK AO2=
KDNV 220055Z AUTO 18009G14KT 10SM CLR 18/03 A2984 RMK AO2
     T01820028=
KDVO 220055Z AUTO VRB04KT 10SM CLR 18/11 A2982 RMK AO2=
KE16 220055Z AUTO 14012KT 10SM CLR 17/10 A2986 RMK AO2 PWINO
     PNO=
KE41 220055Z AUTO 18008KT 10SM CLR 22/09 A2991 RMK AO2
     T02190095=
KECU 220055Z AUTO 17007KT 10SM CLR 19/09 A3001 RMK AO2=
KEGT 220055Z AUTO 18012KT 10SM CLR 27/01 A2965 RMK AO2
     T02660013=
KEOK 220055Z AUTO 18014G19KT 10SM FEW034 24/04 A2965 RMK A01=
KEQA 220055Z AUTO 17011KT 10SM CLR 25/00 A2965 RMK AO2=
KFEP 220055Z AUTO 19011KT 10SM CLR 17/06 A2969 RMK AO2
     T01710063=
KFFL 220055Z AUTO 17005KT 10SM CLR 18/01 A2965 RMK A01=
KFFZ 220054Z 30005KT 10SM CLR 29/09 A2980 RMK AO2 SLP070
     T02940089=
KFMM 220055Z AUTO 00000KT 10SM CLR 19/M08 A2968 RMK AO2=
KFPY 220055Z AUTO 00000KT 10SM CLR 10/05 A3011 RMK AO2 T01040053
     TSNO=
KFSK 220055Z AUTO 17009KT 10SM CLR 23/05 A2970 RMK AO2
     T02310047=
KFZG 220055Z AUTO 00000KT 10SM CLR 10/07 A3013 RMK AO2
     T01020070=
KGBG 220055Z AUTO 15005KT 10SM CLR 18/05 A2970 RMK AO2
     T01830048=
KGCD 220055Z AUTO 22010G14KT 10SM SCT048 OVC060 14/04 A2963 RMK
     AO2 T01360042=
KGCM 220055Z AUTO 16006KT 10SM CLR 24/02 A2975 RMK AO2=
KGGF 220055Z AUTO 19013KT 10SM CLR 17/M06 A2961 RMK AO2=
KGGP 220055Z AUTO 18008KT 10SM CLR 16/02 A2986 RMK AO2=
KGHG 220055Z AUTO 22005KT 10SM CLR 11/06 A3017 RMK AO2=
