SAUS70 KWBC 220000 RRW
METAR
KLLN 212355Z AUTO 25011KT 10SM CLR 24/02 A2984 RMK AO2=
KPPA 212355Z AUTO 23006KT 10SM CLR 24/M01 A2972 RMK AO2 T02381011
     10311 20238=
KRBO 212355Z AUTO 10SM CLR 24/16 A2995 RMK AO2 T02430157 10293
     20243=
KSQL 212347Z 31006KT 10SM FEW200 19/12 A2986=
KTMK 212355Z AUTO 00000KT 2 1/2SM BR BKN010 OVC018 11/10 A2971 RMK
     AO2=
KXBP 212355Z AUTO 18006KT 10SM CLR 28/02 A2979 RMK AO2 T02820024
     10335 20282=
TISX 212353Z 06006KT 10SM FEW026 28/23 A2991 RMK AO2 SLP125
     T02780233 10311 20278 53009 $=
K20V 212355Z AUTO 24010G20KT 10SM CLR 15/M08 A2992 RMK AO2=
K6S8 212355Z AUTO 07017KT 10SM 12/04 A2952 RMK A01 LAUREL=
KANK 212350Z AUTO 26013G19KT 10SM CLR A3001 RMK AO1=
KBMT 212355Z AUTO 18007KT 10SM CLR 22/15 A2998 RMK AO2 T02200148
     10288 20220=
KDUX 212355Z AUTO 20008KT 10SM CLR 23/M02 A2972 RMK AO2 T02261022
     10285 20226=
KDWX 212350Z AUTO 22011G17KT 190V260 10SM CLR 12/M18 A2987 RMK AO2
     T01161178=
KETN 212355Z AUTO 18009KT 10SM CLR 27/03 A2981 RMK AO2 T02700035
     10312 20269 403120038=
KGNC 212355Z AUTO 24005KT 10SM CLR 24/04 A2991 RMK AO2 T02400036
     10277 20237=
KPVW 212350Z AUTO 23009KT 10SM CLR 24/M01 A2978 RMK AO2 T02351007
     10282 20235=
KSLR 212350Z AUTO 16006KT 10SM CLR 26/09 A2985 RMK AO2 T02630090
     10305 20263=
KSZT 212350Z AUTO 23004KT 7SM -RA OVC012 03/03 A2966 RMK AO2=
KT20 212355Z AUTO 17007KT 10SM CLR 27/11 A2992 RMK AO2 T02690105
     10306 20269=
KTXW 212350Z AUTO 15010KT 10SM CLR 27/16 A2995 RMK AO2 T02660161
     10302 20265 403020153=
K2W6 212359Z AUTO 00000KT 10SM CLR 11/07 A3016 RMK AO1=
K3D2 212355Z AUTO 00000KT 10SM CLR 11/08 A2958 RMK AO2 T01060077
     10191 20106=
KCGE 212355Z AUTO 00000KT 10SM CLR 09/07 A3015 RMK A01=
KDCY 212355Z AUTO 17008KT 10SM CLR 15/02 A2989 RMK AO2 T01510017
     10239 20149=
KDMW 212355Z AUTO 15005KT 10SM CLR 13/00 A3013 RMK AO2=
KEBS 212355Z AUTO 03004KT 4SM HZ CLR 15/00 A2961 RMK AO2=
KFKR 212355Z AUTO 18007KT 8SM FEW023 SCT036 BKN048 17/02 A2984 RMK
     AO2=
KFME 212359Z AUTO 00000KT 10SM CLR 06/03 A3016 RMK AO1=
KGOV 212358Z AUTO 21005KT 10SM CLR 15/04 A2964 RMK AO2 LTG DSNT S
     SLP047 T01500037 10190 20150 52020 $=
KMPZ 212350Z AUTO 19006KT 10SM CLR 22/08 A2965 RMK AO2=
KMQB 212355Z AUTO 17009KT 10SM CLR 20/01 A2970 RMK AO2 T01980010
     10269 20198=
KTZR 212355Z AUTO 18006KT 10SM CLR 13/00 A2998 RMK AO2 T01310003
     10212 20131=
KUMP 212355Z AUTO 00000KT 10SM CLR 19/03 A2989 RMK AO2 T01860026
     10237 20186=
KVES 212355Z AUTO 19006KT 10SM CLR 16/M02 A2992 RMK AO2=
KCIC 212347Z 14006KT 10SM CLR 27/07 A2975=
KCPC 212355Z AUTO 00000KT 10SM CLR 11/06 A3013 RMK AO2 T01140064
     10209 20113=
KUYF 212355Z AUTO 19008KT 10SM CLR 11/M01 A2996 RMK AO2=
