SAUS70 KWBC 220238 RRF
METAR
K9D7 220235Z AUTO 02006KT 8SM OVC050 06/06 A2959 RMK AO2 TSNO=
KACB 220235Z AUTO 00000KT 10SM CLR 07/06 A2967 RMK AO2
     T00720062=
KBAC 220235Z AUTO 18005KT 9SM OVC100 10/01 A2955 RMK AO2=
KBWP 220235Z AUTO 14005KT 10SM BKN028 BKN033 OVC055 11/M01 A2956
     RMK AO2=
KBWW 220235Z AUTO 01010KT 10SM FEW075 BKN100 OVC120 11/03 A2954
     RMK AO2=
KC29 220235Z AUTO 00000KT 10SM CLR 08/04 A2968 RMK AO1
     T00800043=
KCFJ 220235Z AUTO 17007KT 10SM CLR 12/M01 A2989 RMK AO2
     T01161015=
KCKZ 220235Z AUTO 00000KT 10SM CLR 05/03 A3019 RMK AO2=
KD60 220235Z AUTO 00000KT 10SM OVC031 04/04 A2957 RMK AO2=
KEKM 220235Z AUTO 19008KT 10SM CLR 17/04 A2983 RMK AO2
     T01650035=
KGWR 220235Z AUTO 00000KT 8SM BKN022 OVC029 09/00 A2956 RMK
     A01=
KIRS 220235Z AUTO 21012G18KT 10SM CLR 16/01 A2983 RMK AO2
     T01600010=
KLBE 220235Z AUTO 00000KT 10SM CLR 05/02 A3009 RMK AO2=
KLWA 220235Z AUTO 20008G15KT 10SM CLR 19/02 A2978 RMK AO2
     T01880023=
KMDS 220235Z AUTO 14005KT 10SM CLR 11/M00 A2958 RMK AO2=
KN38 220235Z AUTO 19010KT 10SM CLR 08/M02 A3008 RMK AO2=
KOCQ 220235Z AUTO 00000KT 10SM CLR 07/05 A2964 RMK AO1
     T00690050=
KOEO 220235Z AUTO 00000KT 10SM CLR 07/04 A2965 RMK AO2
     T00740041=
PAAD 220235Z AUTO 10018G23KT 10SM -SN SCT012 BKN033 OVC041 M05/M06
     A2989 RMK AO2 T10471061=
PAUT 220235Z AUTO 17009KT 10SM SCT014 SCT030 OVC075 06/05 A3000
     RMK AO2=
KCXU 220235Z AUTO 00000KT 10SM CLR 08/04 A3014 RMK AO1
     T00810039=
KCXW 220230Z AUTO 00000KT 10SM BKN033 BKN041 OVC055 20/09 A2987
     RMK A01=
KCZL 220235Z AUTO 00000KT 10SM CLR 07/04 A3015 RMK AO2=
KD39 220235Z AUTO 16005KT 10SM CLR 08/00 A2959 RMK AO2
     T00770004=
KDCM 220235Z AUTO 00000KT 10SM CLR 07/00 A3017 RMK AO2 LTG DSNT
     SE=
KDEH 220235Z AUTO 00000KT 10SM BKN020 14/01 A2964 RMK AO2=
KDKX 220235Z AUTO 00000KT 10SM CLR 07/05 A3012 RMK A01=
KDSF 220235Z AUTO 06009KT 10SM CLR 22/13 A3011 RMK A01=
KDTA 220235Z AUTO 16015KT 10SM CLR 12/M08 A2982 RMK AO1=
KDUA 220235Z AUTO 18009KT 10SM CLR 21/06 A2982 RMK AO2=
KDZB 220235Z AUTO 18004KT 10SM CLR 22/08 A2992 RMK AO2
     T02180080=
KECS 220235Z AUTO 05006KT 10SM CLR 14/M10 A2950 RMK AO2=
KEDN 220235Z AUTO 00000KT 10SM CLR 10/07 A3012 RMK AO2
     T00960070=
KEGV 220235Z AUTO 00000KT 10SM CLR 02/00 A2965 RMK AO2
     T00211002=
KEIK 220235Z AUTO 23011KT 10SM CLR 20/M12 A2972 RMK AO2 T02031117
     PWINO=
KEKS 220235Z AUTO 12.92000013G23KT 10SM BKN049 OVC055 12/M00 A2966
     RMK AO2=
KERV 220235Z AUTO 14005KT 10SM CLR 19/09 A2996 RMK AO2
     T01870090=
KERY 220235Z AUTO 00000KT 3SM BR CLR 04/04 A2964 RMK AO2
     T00380035=
KF05 220235Z AUTO 20012KT 10SM CLR 25/03 A2972 RMK AO2
     T02520032=
KF17 220235Z AUTO 17010G15KT 10SM CLR 22/12 A2997 RMK AO2=
KF44 220235Z AUTO 18006KT 10SM CLR 22/10 A2989 RMK AO2=
KF46 220235Z AUTO 18007KT 10SM CLR 24/10 A2985 RMK AO2
     T02350095=
KFGX 220235Z AUTO 19005KT 10SM CLR 12/01 A3004 RMK AO2
     T01160005=
KFKN 220235Z AUTO 00000KT 10SM CLR 07/05 A3020 RMK AO2
     T00650052=
KFLY 220235Z AUTO 32011G18KT 10SM CLR 14/M11 A2985 RMK AO2
     T01401115=
KFOT 220230Z AUTO 00000KT 10SM OVC020 14/08 A2991 RMK AO1=
KFTN 220235Z AUTO 15006KT 10SM CLR 21/11 A2995 RMK A01=
KFWS 220235Z AUTO 17011G19KT 10SM CLR 25/08 A2985 RMK AO2
     T02480078=
KFYE 220235Z AUTO VRB06G13KT 10SM FEW060 19/11 A2994 RMK A01=
KFYM 220240Z AUTO 17008KT 10SM FEW024 SCT032 15/04 A3007 RMK
     A01=
KGAO 220235Z AUTO 14003KT 10SM CLR 12/11 A3010 RMK AO2
     T01240106=
KGCY 220235Z AUTO 00000KT 10SM CLR 09/01 A3011 RMK A01=
