SAUS80 KWBC 220024
METAR
K77S 220035Z AUTO 20008KT 10SM OVC015 16/15 A2977 RMK A01=
KGIC 220015Z AUTO 00000KT 5SM BKN036 OVC045 06/05 A2969 RMK AO1
     P0001=
KDVK 220010Z AUTO 00000KT 10SM CLR 12/00 A3003 RMK AO2=
KM25 220035Z AUTO 17004KT 10SM CLR 20/08 A2992 RMK AO2 PWINO=
KNY0 220014Z AUTO 00000KT 10SM CLR 08/M02 A3008 RMK AO2=
K9V9 220015Z AUTO 12006KT 10SM CLR 14/02 A2955 RMK AO2
     T01430020=
KCBE 220015Z AUTO 30003KT 10SM CLR 11/01 A3013 RMK AO2
     T01110011=
KCUL 220015Z AUTO 15005KT 10SM CLR 16/03 A2989 RMK AO2=
KNY0 220014Z AUTO 00000KT 10SM CLR 08/M02 A3008 RMK AO2=
KSFY 220022Z AUTO 15007KT 10SM CLR 16/03 A2965 RMK AO2=
