SACA32 KWBC 220200 RRA
METAR
MDPC 220200Z 06010KT 9999 FEW020 28/23 Q1014=
MDPP 220200Z 00000KT 9999 FEW018 26/25 Q1013=
MDSD 220200Z 02006KT 9999 FEW018 26/24 Q1014=
