SAUS80 KWBC 212318
METAR
KIKW 212315Z AUTO 17005KT 10SM CLR 18/04 A2968 RMK AO2
     T01760041=
KLYV 212315Z AUTO 00000KT 4SM HZ CLR 16/01 A2961 RMK AO2=
KPOV 212315Z AUTO 00000KT 10SM CLR 13/M02 A2995 RMK AO2 T01301021
     PWINO=
KPZQ 212315Z AUTO 19005KT 10SM CLR 17/06 A2960 RMK AO2
     T01670055=
K40B 212316Z AUTO VRB05KT 06/01 A3003 RMK AO1 SLP178 T00550010
     52011=
KEKX 212315Z AUTO 17005KT 10SM CLR 17/00 A2997 RMK AO2
     T01680000=
KM21 212315Z AUTO 15003KT 10SM CLR 19/02 A2992 RMK AO2
     T01920022=
KPTS 212315Z AUTO 20009KT 10SM CLR 26/05 A2970 RMK AO2 T02570046
     PWINO=
KRFI 212315Z AUTO 18005KT 10SM CLR 28/05 A2989 RMK AO2
     T02840052=
KSMS 212315Z AUTO 00000KT 10SM CLR 11/05 A3012 RMK AO2=
KSNC 212315Z AUTO 18004KT 10SM CLR 11/05 A3015 RMK AO2=
KSOW 212315Z AUTO 22015G20KT 10SM CLR 19/M01 A3010 RMK AO2=
KSYN 212315Z AUTO 28003KT 10SM CLR 16/01 A2962 RMK AO2
     T01600013=
KTKV 212315Z AUTO 00000KT 10SM CLR 14/03 A2960 RMK AO2 T01410030
     PWINO=
KY23 212315Z AUTO 00000KT 10SM CLR 14/06 A2960 RMK AO2
     T01430060=
KIKW 212315Z AUTO 17005KT 10SM CLR 18/04 A2968 RMK AO2
     T01760041=
KPOV 212315Z AUTO 00000KT 10SM CLR 13/M02 A2995 RMK AO2 T01301021
     PWINO=
KCLI 212315Z AUTO 26003KT 10SM CLR 17/04 A2960 RMK AO2
     T01670037=
KPZQ 212315Z AUTO 19005KT 10SM CLR 17/06 A2960 RMK AO2
     T01670055=
KCIR 212315Z AUTO 23004KT 10SM CLR 22/09 A2986 RMK AO2
     T02240085=
KEDU 212320Z AUTO 20008KT 10SM CLR 25/10 A2977 RMK AO1=
KGNG 212315Z AUTO 30010G16KT 10SM CLR 19/01 A2971 RMK AO2=
KMKN 212315Z AUTO 19014G19KT 10SM CLR 30/06 A2984 RMK AO2
     T03020058=
KRLD 212315Z AUTO 23008KT 10SM -RA SCT050 BKN075 OVC090 11/07
     A2970 RMK AO2 P0001 T01090074=
KS39 212315Z AUTO 24011G20KT 10SM SCT043 OVC060 17/06 A2971 RMK
     AO2=
KSEP 212315Z AUTO 20009KT 10SM CLR 30/02 A2986 RMK AO2
     T03000021=
KTKC 212315Z AUTO 03004KT 7SM 16/00 A2963 RMK AO2 T01581002=
KVTI 212315Z AUTO 29003KT 10SM CLR 23/00 A2961 RMK AO2
     T02340002=
