SAUS70 KWBC 220000 RRL
METAR
KMLP 212353Z AUTO VRB04KT 1/4SM -SN FZFG VV001 M03/M03 A2962 RMK
     AO2 SLP992 P0004 60026 T10281033 10006 21028 56014=
KSAF 212353Z 27010KT 10SM CLR 18/M03 A3000 RMK AO2 SLP089
     T01831028 10217 20167 56004=
KTVY 212355Z AUTO 19008KT 10SM CLR 22/00 A2979 RMK AO2=
KVCB 212353Z AUTO 20010G20KT 10SM CLR 24/11 A2976 RMK AO2 SLP077
     T02440111 10283 20222 56016=
KVGT 212353Z 11006KT 10SM CLR 29/01 A2979 RMK AO2 SLP085 T02940006
     10300 20244 56026=
KVUO 212353Z AUTO 15003KT 4SM -RA BR OVC005 10/08 A2976 RMK AO2
     SLP076 P0009 60026 T01000083 10122 20094 56040=
K06D 212355Z AUTO 32006KT 10SM -RA BKN021 OVC030 07/05 A2954 RMK
     AO2=
K0S9 212355Z AUTO 00000KT 8SM -RA OVC026 09/08 A2973 RMK AO2
     P0003=
K0VG 212355Z AUTO 00000KT 10SM CLR 09/00 A3009 RMK AO2=
K15M 212355Z AUTO 18003KT 10SM CLR 19/10 A2999 RMK AO2 T01930098
     $=
K1R7 212355Z AUTO 00000KT 10SM CLR 21/14 A3001 RMK AO2 PWINO=
K24J 212355Z AUTO 00000KT 10SM 13/03 A3008 RMK A01=
K28J 212355Z AUTO 05005KT 10SM CLR 14/07 A3008 RMK AO2 TSNO=
K2D5 212355Z AUTO 14007KT 5SM HZ SCT029 12/01 A2954 RMK AO2=
K3AU 212355Z AUTO 15006KT 10SM CLR 26/M05 A2964 RMK AO2=
K42J 212355Z AUTO 06005KT 10SM BKN030 BKN036 OVC042 13/02 A3007
     RMK A01=
K46D 212355Z AUTO 24003KT 10SM FEW110 11/02 A2956 RMK AO2=
K4A6 212355Z AUTO 00000KT 10SM SCT044 14/06 A3007 RMK AO2=
K4M9 212355Z AUTO 18006KT 10SM FEW033 19/11 A2986 RMK AO2
     PWINO=
K5H4 212355Z AUTO 28004KT 10SM BKN070 OVC080 10/07 A2956 RMK
     AO2=
K6B9 212355Z AUTO 19009G15KT 150V220 10SM CLR 12/M02 A3002 RMK
     AO2=
K7L2 212355Z AUTO 13006KT 8SM FEW120 14/M00 A2951 RMK AO2=
K7W4 212355Z AUTO 00000KT 10SM CLR 10/05 A3013 RMK AO1 T00970049
     10194 20097=
K82C 212355Z AUTO 00000KT 10SM CLR 12/04 A2963 RMK AO2 T01160035
     10234 20116=
K96D 212355Z AUTO VRB05KT 10SM FEW060 BKN070 OVC080 12/02 A2951
     RMK AO2=
K9D7 212355Z AUTO 30007KT 10SM OVC070 10/02 A2956 RMK AO2 TSNO=
KACJ 212355Z AUTO 00000KT 10SM CLR 13/02 A3010 RMK AO2
     T01340023=
KAFP 212355Z AUTO 00000KT 10SM CLR 10/02 A3013 RMK AO2 T00980022
     10211 20098=
KAGO 212355Z AUTO 00000KT 10SM CLR 20/13 A2987 RMK A01=
KAIG 212355Z AUTO 22006KT 10SM CLR 10/03 A2962 RMK AO2 T00980030
     10181 20095=
KAIK 212355Z AUTO 07003KT 10SM CLR 12/02 A3012 RMK AO2 T01180022
     10212 20115 402121004=
KAKH 212354Z AUTO 00000KT 10SM CLR 09/03 A3012 RMK AO2 SLP203
     T00940033 10200 20094 53006=
KAKR 212354Z AUTO 18008KT 10SM CLR 15/M01 A2997 RMK AO2 SLP149
     T01501011 10200 20144 53014=
KALM 212355Z AUTO 12004KT 10SM CLR 23/06 A2995 RMK AO2=
KANQ 212355Z AUTO 19008KT 10SM SCT040 BKN048 BKN060 17/03 A2981
     RMK AO2=
KAPC 212354Z 21016KT 7SM CLR 18/13 A2983 RMK AO2 SLP094 T01780128
     10206 20139 55009=
KAQX 212355Z AUTO 00000KT 10SM CLR 13/04 A3010 RMK AO2=
KARW 212355Z AUTO 00000KT 10SM CLR 13/07 A3011 RMK AO2=
KASJ 212355Z AUTO 00000KT 10SM CLR 09/06 A3015 RMK AO2 T00860063
     10194 20086=
KATA 212355Z AUTO 00000KT 10SM CLR 20/13 A2985 RMK AO2 SLP009
     T02020131 $=
KATS 212355Z AUTO 00000KT 10SM CLR 27/08 A2987 RMK AO2=
K2P2 212355Z AUTO 00000KT 10SM CLR 10/10 A2957 RMK AO2 T00990099
     10122 20098=
KAGC 212353Z AUTO 19007KT 10SM CLR 13/M01 A3003 RMK AO2 SLP176
     T01331011 10172 20133 53008=
KFDY 212353Z AUTO 19012KT 10SM CLR 17/02 A2988 RMK AO2 SLP114
     T01720022 10233 20172 53014=
KFOK 212353Z 00000KT 10SM CLR 07/06 A3017 RMK AO2 SLP217 T00720056
     10172 20072 53010 $=
KHZY 212353Z AUTO 17009KT 10SM CLR 14/01 A2996 RMK AO2 SLP149
     T01440006 10189 20144 51015=
