SAUS70 KWBC 220238 RRJ
METAR
KMVH 220235Z AUTO 32005KT 6SM BR SCT014 OVC020 06/04 A2958 RMK AO2
     PWINO=
KMZH 220235Z AUTO 00000KT 10SM CLR 06/01 A2961 RMK AO2=
KO69 220235Z AUTO 29007G12KT 270V010 10SM OVC008 12/11 A2984 RMK
     A01=
KOEL 220235Z AUTO 10007KT 10SM CLR 14/M11 A2964 RMK AO1
     T01421108=
KOJA 220235Z AUTO 20009KT 10SM CLR 23/03 A2969 RMK AO2
     T02250030=
KONA 220235Z AUTO 00000KT 10SM CLR 07/03 A2965 RMK AO2=
KOSC 220235Z AUTO 21009KT 10SM CLR 14/05 A2971 RMK AO2
     T01440047=
KOXI 220235Z AUTO 19010G16KT 10SM CLR 16/02 A2982 RMK AO1=
KOXV 220235Z AUTO 17005KT 10SM CLR 18/02 A2962 RMK AO2=
KP08 220235Z AUTO 33005KT 10SM CLR 25/11 A2984 RMK AO2=
KPCW 220235Z AUTO 21010G15KT 10SM CLR 15/01 A2991 RMK AO2=
KPEX 220235Z AUTO 17003KT 10SM CLR 08/03 A2961 RMK AO2=
KPHT 220235Z AUTO 18008KT 10SM CLR 18/10 A2994 RMK A01=
KPKV 220235Z AUTO 16006KT 10SM CLR 20/15 A3000 RMK AO2
     T02010150=
KPMH 220235Z AUTO 00000KT 10SM CLR 07/01 A3006 RMK AO2
     T00730005=
KPRO 220235Z AUTO 11004KT 5SM HZ CLR 12/00 A2960 RMK AO2
     T01190002=
KPRS 220235Z AUTO 36005KT 10SM CLR 21/12 A2997 RMK AO2
     T02060115=
KPTD 220235Z AUTO 19010KT 10SM FEW033 BKN043 OVC050 12/M02 A2999
     RMK AO2=
KPUJ 220235Z AUTO 00000KT 7SM CLR 11/02 A3014 RMK AO2=
KPVB 220235Z AUTO 00000KT 10SM CLR 16/02 A2967 RMK AO1
     T01600015=
KPVJ 220235Z AUTO 16004KT 10SM CLR 22/06 A2975 RMK AO2
     T02200063=
KPYX 220235Z AUTO 21006KT 10SM CLR 12/M07 A2965 RMK AO2
     T01231074=
KPZZ 220235Z AUTO 12011KT 10SM CLR 23/13 A3009 RMK A01=
KRKR 220235Z AUTO 22003KT 10SM CLR 17/06 A2983 RMK AO2=
KRMY 220235Z AUTO 19007KT 10SM CLR 16/03 A2982 RMK AO2
     T01620030=
KRNC 220235Z AUTO 00000KT 10SM FEW047 09/04 A3006 RMK A01=
KRRT 220235Z AUTO 26006KT 10SM BKN070 BKN080 12/03 A2955 RMK
     AO2=
KRSN 220235Z AUTO 20010KT 10SM CLR 22/13 A2999 RMK AO2
     T02150126=
KRTS 220235Z AUTO 25013KT 10SM FEW120 18/M06 A2990 RMK AO2=
KRUQ 220235Z AUTO 00000KT 10SM CLR 05/03 A3017 RMK AO2
     T00460030=
KRZR 220235Z AUTO 00000KT 10SM CLR 06/05 A3010 RMK A01=
KSAR 220235Z AUTO 17008KT 10SM CLR 19/09 A2987 RMK AO2
     T01870085=
KSCD 220235Z AUTO 00000KT 10SM CLR 09/07 A3011 RMK AO2
     T00910067=
KSCX 220235Z AUTO 20003KT 10SM FEW046 09/00 A3008 RMK A01=
KSEM 220235Z AUTO 14006KT 10SM FEW029 SCT037 BKN043 12/08 A3009
     RMK AO2=
KSEZ 220235Z AUTO 20007KT 10SM 18/05 A3000 RMK AO2=
KSFQ 220235Z AUTO 00000KT 10SM CLR 09/08 A3021 RMK AO2
     T00860076=
KSIF 220235Z AUTO 00000KT 10SM CLR 04/02 A3018 RMK AO2
     T00350023=
KSLO 220235Z AUTO 17005KT 10SM CLR 18/06 A2987 RMK AO2
     T01840061=
KSNH 220235Z AUTO 17007KT 10SM FEW050 FEW055 18/11 A2998 RMK
     A01=
KSRB 220235Z AUTO 17004KT 10SM FEW042 13/02 A3006 RMK A01=
KSRE 220235Z AUTO 10SM CLR 24/04 A2975 RMK AO2=
KSVC 220235Z AUTO 34007KT 10SM CLR 13/09 A3006 RMK AO2
     T01310091=
KSVH 220235Z AUTO 00000KT 10SM CLR 06/03 A3016 RMK AO2
     T00610027=
KSWW 220235Z AUTO 20012KT 10SM CLR 22/04 A2987 RMK AO2
     T02150042=
KSXU 220235Z AUTO 26005KT 10SM CLR 17/00 A2988 RMK AO2
     T01710003=
KSYF 220235Z AUTO 00000KT 10SM CLR 12/M06 A2964 RMK AO2 T01151064
     PWINO=
KSYI 220235Z AUTO 15008KT 10SM CLR 16/03 A3004 RMK A01=
KSZT 220235Z AUTO 21005KT 10SM OVC020 03/02 A2962 RMK AO2=
KSZY 220235Z AUTO 18009KT 10SM CLR 19/10 A2998 RMK A01=
KT89 220235Z AUTO 04004KT 10SM CLR 22/08 A2993 RMK A01=
KTBX 220235Z AUTO 10SM CLR 12/M11 A2976 RMK AO2=
KTDF 220235Z AUTO 00000KT 10SM CLR 03/03 A3020 RMK AO2=
KTHA 220235Z AUTO 15006KT 10SM FEW048 13/03 A3005 RMK A01=
