SAUS70 KWBC 220200 RRQ
METAR
KDKB 220155Z AUTO 18009KT 10SM CLR 12/05 A2974 RMK AO2
     T01170053=
KGGF 220155Z AUTO 19011KT 10SM CLR 14/M05 A2961 RMK AO2=
KIJX 220155Z AUTO 16013G18KT CLR 19/03 A2975 RMK AO2 T01940030=
KLWB 220155Z AUTO 00000KT 10SM CLR 05/01 A3014 RMK AO2
     T00500008=
KMLE 220155Z AUTO 00000KT 10SM CLR 11/04 A2958 RMK AO2
     T01070039=
KMQB 220155Z AUTO 18013KT 10SM CLR 18/01 A2971 RMK AO2
     T01770012=
KOGS 220155Z AUTO 18007G14KT 10SM CLR 12/M01 A2995 RMK AO2=
KOWX 220155Z AUTO 19010KT 10SM CLR 15/M01 A2992 RMK AO1=
KPNT 220155Z AUTO 17014G18KT 10SM CLR 17/07 A2977 RMK AO2
     T01700065=
KRCR 220155Z AUTO 20009G18KT 10SM SCT050 17/03 A2985 RMK AO2=
KRDK 220155Z AUTO 36003KT CLR 09/01 A2960 RMK AO2=
KSDA 220155Z AUTO 00000KT 7SM CLR 11/02 A2958 RMK AO2=
KSHL 220155Z AUTO 06009KT 10SM CLR 10/01 A2959 RMK AO2=
KSLB 220155Z AUTO 08006KT 9SM CLR 13/00 A2961 RMK AO2=
KTAZ 220155Z AUTO 16010KT 10SM CLR 17/04 A2980 RMK AO2
     T01720041=
KTIF 220155Z AUTO 17012KT 10SM CLR 17/M02 A2957 RMK AO2
     T01681021=
KTIP 220155Z AUTO 19011KT 10SM CLR 16/03 A2982 RMK AO2
     T01620025=
KUNI 220155Z AUTO 00000KT 7SM -SN CLR 05/01 A3003 RMK AO2
     T00520014=
KW22 220155Z AUTO 00000KT 10SM SCT048 07/M00 A3008 RMK AO2=
KZER 220155Z AUTO 19006KT 10SM CLR 08/M01 A3016 RMK AO2=
KCZT 220155Z AUTO 17004KT 10SM CLR 18/11 A2992 RMK AO2=
KE38 220155Z AUTO 23004KT 10SM CLR 16/07 A3009 RMK AO2
     T01620072=
KHCR 220155Z AUTO 00000KT 10SM CLR 14/M11 A2983 RMK AO2=
KNOW 220155Z AUTO 27007KT 10SM -RA BKN009 BKN018 OVC055 09/09
     A2971 RMK AO2 P0003 T00870087=
KORG 220155Z AUTO 19005KT 10SM CLR 23/16 A3005 RMK AO2
     T02260160=
KPPA 220155Z AUTO 20009KT 10SM CLR 19/03 A2972 RMK AO2
     T01870026=
KRBO 220155Z AUTO 10SM CLR 22/16 A2998 RMK AO2 T02210158=
KSBS 220155Z AUTO 04003KT 10SM CLR 11/M10 A2988 RMK AO1
     T01091098=
KT35 220155Z AUTO 17006KT 10SM CLR 22/11 A2992 RMK AO2
     T02230105=
