SAUS70 KWBC 220100 RRM
METAR
KIKK 220055Z AUTO 19010G16KT 10SM CLR 18/03 A2978 RMK AO2
     T01750025=
KIKV 220055Z AUTO 00000KT 10SM CLR 13/03 A2963 RMK AO2=
KISP 220056Z 00000KT 10SM CLR 09/06 A3016 RMK AO2 SLP214
     T00890061=
KJYR 220055Z AUTO 00000KT 9SM CLR 16/M02 A2960 RMK AO2=
KLNR 220056Z AUTO 25004KT 9SM CLR 13/03 A2964 RMK AO2 SLP034
     T01330033=
KMOX 220055Z AUTO 13004KT 10SM CLR 12/M03 A2959 RMK AO2=
KMQB 220055Z AUTO 18010KT 10SM CLR 18/02 A2971 RMK AO2
     T01770020=
KONA 220055Z AUTO 00000KT 10SM CLR 09/03 A2964 RMK AO2=
KOQN 220055Z AUTO 00000KT 10SM CLR 11/01 A3016 RMK AO2=
KOSC 220055Z AUTO 20008KT 10SM CLR 16/05 A2969 RMK AO2
     T01560049=
KRRT 220055Z AUTO 22005KT 10SM SCT110 11/03 A2951 RMK AO2=
KSHL 220055Z AUTO 07005KT 8SM CLR 10/M00 A2959 RMK AO2=
KTAZ 220055Z AUTO 17010KT 10SM CLR 18/04 A2980 RMK AO2
     T01810040=
KTIF 220055Z AUTO 17010KT 10SM CLR 18/M02 A2959 RMK AO2
     T01751018=
KTIP 220055Z AUTO 19008KT 10SM CLR 17/03 A2981 RMK AO2
     T01710026=
KUNI 220055Z AUTO 00000KT 10SM CLR 08/01 A3002 RMK AO2
     T00760010=
KVAF 220055Z AUTO 14013G20KT 10SM SCT044 24/12 A3003 RMK A01=
KY31 220055Z AUTO 20005KT 10SM CLR 15/03 A2969 RMK AO2
     T01500032=
KCMY 220058Z AUTO 00000KT 8SM R29/5500FT CLR 07/03 A2965 RMK AO2
     SLP047 T00720030 $=
KHMZ 220055Z AUTO 00000KT 10SM CLR 07/M01 A3009 RMK AO2
     T00651008=
KICL 220055Z AUTO 00000KT 9SM CLR 13/05 A2961 RMK AO2=
KJYG 220056Z AUTO 00000KT 10SM CLR 11/02 A2964 RMK AO2=
KLCK 220055Z AUTO 15005KT 10SM CLR 12/01 A2999 RMK AO2
     T01170008=
KLOM 220055Z AUTO 00000KT 10SM CLR 05/04 A3016 RMK AO2
     T00540041=
KLOT 220055Z AUTO 18013KT 10SM CLR 20/04 A2975 RMK AO2=
KLXN 220055Z AUTO 17007KT 7SM CLR 14/M01 A2961 RMK AO2
     T01371011=
KMDT 220056Z 00000KT 10SM CLR 09/03 A3013 RMK AO2 SLP204
     T00940028=
KMGC 220055Z AUTO 19011G17KT 10SM CLR 18/02 A2977 RMK AO2=
KMQS 220055Z AUTO 00000KT 10SM CLR 09/00 A3017 RMK AO2=
KMZH 220055Z AUTO 00000KT 10SM CLR 07/01 A2960 RMK AO2=
KOGA 220055Z AUTO 27006KT 10SM CLR 16/M05 A2960 RMK AO2
     T01621048=
KOGS 220055Z AUTO 19008KT 10SM CLR 11/M01 A2993 RMK AO2=
KOLZ 220055Z AUTO 01005KT 8SM CLR 15/01 A2964 RMK A01=
KOOA 220055Z AUTO 17007KT 5SM CLR 17/06 A2964 RMK AO2
     T01690060=
KPNT 220055Z AUTO 17012KT 10SM CLR 18/07 A2975 RMK AO2
     T01750067=
KRMY 220055Z AUTO 18008KT 10SM CLR 17/03 A2979 RMK AO2
     T01700032=
KSDA 220055Z AUTO 02003KT 10SM CLR 14/01 A2958 RMK AO2=
KSLB 220055Z AUTO 07008KT 10SM CLR 13/00 A2961 RMK AO2=
KVES 220055Z AUTO 18004KT 10SM CLR 13/M02 A2993 RMK AO2=
KVPZ 220056Z AUTO 20009G17KT 10SM CLR 19/03 A2979 RMK AO2 SLP087
     T01940028 $=
KCIN 220055Z AUTO 00000KT 4SM HZ CLR 14/00 A2960 RMK AO2=
KCNC 220055Z AUTO 16006KT 10SM CLR 19/03 A2962 RMK AO2=
KDKB 220055Z AUTO 18008KT 10SM CLR 13/05 A2972 RMK AO2
     T01270052=
KDNS 220055Z AUTO 100KT 8SM 15/00 A2960 RMK AO2=
KDNV 220055Z AUTO 18009G14KT 10SM CLR 18/03 A2984 RMK AO2
     T01820028=
KEOK 220055Z AUTO 18014G19KT 10SM FEW034 24/04 A2965 RMK A01=
KFFL 220055Z AUTO 17005KT 10SM CLR 18/01 A2965 RMK A01=
KFXY 220055Z AUTO 00000KT 10SM CLR 07/02 A2964 RMK AO2=
KGGF 220055Z AUTO 19013KT 10SM CLR 17/M06 A2961 RMK AO2=
KGHG 220055Z AUTO 22005KT 10SM CLR 11/06 A3017 RMK AO2=
KHNR 220055Z AUTO 00000KT 10SM CLR 12/00 A2960 RMK A01=
KIBM 220055Z AUTO 22006KT 10SM CLR 12/M09 A2968 RMK AO2
     T01231095=
KIIB 220055Z AUTO 00000KT 7SM CLR 11/01 A2965 RMK AO2
     T01140010=
KIMS 220055Z AUTO 14005KT 10SM CLR 15/01 A2998 RMK AO2=
KJOT 220055Z AUTO 19009KT 10SM CLR 21/05 A2974 RMK AO2
     T02050045=
