SAPA31 KWBC 212300 RRB
METAR
PKWA 212320Z AUTO 07010KT 10SM SCT020 30/25 A2981 RMK AO2
     T03020247=
