SAUS70 KWBC 212338 RRB
METAR
KHBI 212335Z AUTO 00000KT 10SM CLR 10/04 A3015 RMK AO2
     T01000041=
KHRJ 212335Z AUTO 00000KT 10SM CLR 11/06 A3014 RMK AO2
     T01150060=
KHVS 212335Z AUTO 00000KT 10SM SCT048 BKN055 10/02 A3012 RMK
     AO2=
KOZS 212335Z AUTO 17006KT 10SM CLR 24/M01 A2975 RMK AO2=
KPAN 212335Z AUTO 22006G11KT 10SM CLR 21/04 A3005 RMK AO2 PWINO
     TSNO=
KPCM 212335Z AUTO 35004KT 10SM CLR 21/06 A3006 RMK AO2=
KPGV 212335Z AUTO 00000KT 10SM CLR 12/06 A3012 RMK AO2=
KPLR 212335Z AUTO 00000KT 10SM CLR 14/07 A3007 RMK A01=
KPVF 212335Z AUTO 22005KT 10SM CLR 25/01 A2991 RMK AO1=
KRCE 212335Z AUTO 18011KT 10SM CLR 27/02 A2969 RMK AO2=
KRMN 212335Z AUTO 00000KT 10SM CLR 11/05 A3017 RMK AO2
     T01090046=
KRNH 212335Z AUTO 00000KT 10SM CLR 11/05 A2961 RMK AO2
     T01050051=
KRPH 212335Z AUTO 18007KT 8SM CLR 30/01 A2975 RMK AO2 T03040014
     $=
KRUG 212335Z AUTO 27006KT 10SM FEW025 SCT048 OVC065 10/03 A2953
     RMK AO2=
KRVL 212335Z AUTO 00000KT 10SM CLR 11/M01 A3008 RMK AO2=
KRYV 212335Z AUTO 21004KT 10SM CLR 18/02 A2962 RMK AO2
     T01800020=
KRZN 212335Z AUTO 00000KT 10SM CLR 12/01 A2960 RMK AO2
     T01190010=
KS25 212335Z AUTO 36006KT 10SM OVC037 08/08 A2955 RMK AO2=
KS32 212335Z AUTO 27003KT 8SM FEW060 FEW070 OVC085 12/M00 A2954
     RMK AO2 TSNO=
KSCR 212335Z AUTO 00000KT 10SM CLR 09/04 A3013 RMK AO2
     T00870040=
KSIK 212335Z AUTO 18004KT 10SM CLR 22/09 A2987 RMK AO2=
KSPF 212335Z AUTO 00000KT 10SM CLR 18/M04 A2951 RMK AO2=
KSTF 212335Z AUTO 15004KT 10SM CLR 20/11 A2997 RMK AO2=
KSUZ 212335Z AUTO 18004KT 10SM CLR 22/10 A2986 RMK A01=
KT69 212335Z AUTO 17011G16KT 10SM CLR 24/15 A2995 RMK A01=
KTKX 212335Z AUTO 17006KT 9SM CLR 22/09 A2987 RMK AO2 TSNO=
KTME 212335Z AUTO 19012KT 10SM CLR 25/15 A2996 RMK AO2=
KTSP 212335Z AUTO 31013KT 9SM CLR 24/M04 A2996 RMK AO2=
KTWT 212335Z AUTO 17006KT 10SM CLR 18/04 A2989 RMK AO2=
KU42 212335Z AUTO 24011G16KT 10SM CLR 23/02 A2981 RMK AO1
     T02250017=
KUOX 212335Z AUTO 16005KT 10SM CLR 21/10 A2996 RMK AO2 PWINO=
KUTA 212335Z AUTO 18006KT 10SM CLR 24/09 A2989 RMK AO2 T02430092
     $=
KVGC 212335Z AUTO 17005KT 10SM CLR 10/M03 A3006 RMK AO2=
KVJI 212335Z AUTO 00000KT 10SM CLR 10/00 A3010 RMK AO2
     T01031004=
KW78 212335Z AUTO 00000KT 10SM CLR 09/03 A3013 RMK AO1
     T00900030=
KW81 212335Z AUTO 00000KT 10SM CLR 08/03 A3013 RMK AO1
     T00840029=
KX07 212335Z AUTO 00000KT 10SM CLR 20/09 A3002 RMK A01=
KXNX 212335Z AUTO 00000KT 10SM CLR 18/02 A3001 RMK A01=
KY19 212335Z AUTO 07005KT 10SM BKN095 12/03 A2951 RMK AO2=
K08D 212335Z AUTO 01008KT 10SM -RA 07/06 A2955 RMK AO2=
KAQP 212333Z AUTO 00000KT 7SM BKN090 14/00 A2960 RMK AO2=
KAXV 212335Z AUTO 19010KT 10SM CLR 17/00 A2989 RMK AO2=
KCBG 212335Z AUTO 00000KT 10SM CLR 13/02 A2961 RMK AO2=
KD55 212335Z AUTO 26007KT 10SM SCT055 BKN070 BKN095 11/02 A2952
     RMK AO2=
KDLZ 212335Z AUTO 18007KT 10SM CLR 15/00 A2995 RMK AO2=
KDRM 212335Z AUTO 00000KT 10SM CLR 12/05 A2959 RMK AO2
     T01220054=
KDVP 212333Z AUTO 09003KT 10SM CLR 15/02 A2963 RMK AO2
     T01490017=
KELO 212335Z AUTO 25003KT 10SM CLR 11/00 A2957 RMK AO2=
KETH 212333Z AUTO 00000KT 10SM 14/M01 A2960 RMK AO2=
KFFM 212335Z AUTO 20005KT 10SM CLR 13/01 A2957 RMK AO2=
KFOZ 212333Z AUTO 00000KT 10SM CLR 13/01 A2962 RMK AO2=
KGHW 212335Z AUTO 00000KT 10SM CLR 13/00 A2961 RMK AO2=
KGYL 212335Z AUTO 24003KT 7SM CLR 14/01 A2961 RMK AO2
     T01440011=
KJKJ 212335Z AUTO 00000KT 10SM BKN120 14/M01 A2956 RMK AO2
     TSNO=
KJMR 212335Z AUTO 00000KT 10SM CLR 12/03 A2964 RMK AO2=
KLNL 212335Z AUTO 00000KT 10SM CLR 08/03 A2961 RMK AO2
     T00800027=
