SAUS70 KWBC 212306
METAR
KEVM 212302Z AUTO 24005KT 10SM CLR 12/02 A2958 RMK AO2=
KGAF 212315Z AUTO 26009KT 8SM CLR 13/01 A2952 RMK AO2=
KGPH 212315Z AUTO 18007KT 10SM CLR 27/00 A2963 RMK AO2=
KW63 212315Z AUTO 00000KT 10SM CLR 12/05 A3012 RMK AO1=
KDLL 212315Z AUTO 00000KT 10SM CLR 19/02 A2961 RMK AO2
     T01890016=
