SAUS70 KWBC 212300 RRG
METAR
KSNA 212253Z 23008KT 10SM FEW012 FEW035 24/17 A2984 RMK AO2 SLP102
     T02390167=
KSNY 212253Z AUTO 22014KT 10SM CLR 24/M08 A2964 RMK AO2 PK WND
     24027/2208 SLP995 T02391083=
KSPG 212253Z 34007KT 10SM CLR 21/09 A3001 RMK AO2 SLP160
     T02110089=
KSRQ 212253Z 35006KT 10SM CLR 21/06 A3000 RMK AO2 SLP158
     T02110061=
KSSF 212253Z 18008G17KT 10SM CLR 29/09 A2989 RMK AO2 SLP116
     T02940089 $=
KSSI 212253Z AUTO 05006KT 2 1/2SM HZ CLR 18/03 A3007 RMK AO2
     SLP185 T01780033=
KSTJ 212253Z 18012KT 10SM CLR 26/04 A2959 RMK AO2 SLP018 T02610039
     $=
KTCC 212253Z AUTO 26018G23KT 10SM CLR 26/M02 A2976 RMK AO2 PK WND
     25026/2201 SLP031 T02611022=
KTKI 212253Z 18013KT 10SM CLR 30/07 A2979 RMK AO2 SLP089
     T03000067=
KTMB 212253Z 36012KT 10SM SCT034 BKN049 OVC070 25/18 A2993 RMK AO2
     RAB44E45 SLP135 P0000 T02500183=
KTOP 212253Z 17006KT 10SM CLR 29/04 A2959 RMK AO2 SLP014 T02890044
     $=
KTPA 212253Z 34008KT 10SM CLR 19/06 A3003 RMK AO2 SLP170
     T01940061=
KTRL 212253Z AUTO 18011KT 10SM CLR 29/07 A2983 RMK AO2 SLP095
     T02940072=
KTUL 212253Z 16014KT 10SM BKN180 31/06 A2969 RMK AO2 SLP047 P0000
     T03060056=
KTVR 212253Z AUTO 18011KT 10SM CLR 26/12 A2995 RMK AO2 SLP149
     T02610117=
KTWF 212253Z 30008KT 10SM CLR 20/00 A2975 RMK AO2 SLP029
     T02000000=
KTXK 212253Z 18005KT 10SM CLR 28/09 A2985 RMK AO2 SLP106
     T02830094=
KTYR 212253Z 19008KT 10SM CLR 29/10 A2986 RMK AO2 SLP105 T02890100
     $=
KUTS 212253Z AUTO 17008G17KT 10SM CLR 29/11 A2992 RMK AO2 SLP126
     T02890106=
KUUU 212253Z AUTO 20005KT 10SM CLR 13/07 A3015 RMK AO2 SLP209
     T01280067=
KVEL 212253Z AUTO 25013G23KT 10SM CLR 23/M11 A2981 RMK AO2 PK WND
     23026/2236 WSHFT 2214 SLP052 T02281111=
KVIH 212253Z AUTO 18008KT 10SM CLR 24/M01 A2978 RMK AO2 SLP077
     T02441011 $=
KVLD 212253Z AUTO 00000KT 10SM CLR 16/04 A3008 RMK AO2 SLP194
     T01560044=
KVRB 212253Z 35009KT 10SM SCT080 22/16 A2999 RMK AO2 SLP154
     T02170156=
KWRL 212253Z AUTO 06005KT 10SM CLR 21/M03 A2950 RMK AO2 SLP961
     T02061028=
KWST 212253Z AUTO 19008KT 10SM CLR 14/08 A3015 RMK AO2 SLP209
     T01440083=
KXNA 212253Z 18012KT 10SM CLR 25/04 A2980 RMK AO2 SLP083
     T02500039=
KXVG 212253Z AUTO 00000KT 10SM CLR 12/00 A2957 RMK AO2=
PAAQ 212253Z 15003KT 10SM OVC008 03/01 A2982 RMK AO2 CIG 006V010
     SLP102 T00280006=
KLWV 212253Z AUTO 18010KT 10SM CLR 21/00 A2987 RMK AO2 SLP112
     T02110000=
KMAF 212253Z 26011KT 10SM CLR 28/04 A2987 RMK AO2 SLP079
     T02780044=
KMCB 212253Z AUTO 20004KT 10SM CLR 24/11 A3000 RMK AO2 SLP157
     T02390106=
KMCI 212253Z 20013KT 1 3/4SM HZ CLR 28/03 A2963 RMK AO2 VIS 3/4V5
     SLP024 T02780028=
KMCK 212253Z AUTO 20005KT 10SM CLR 25/M04 A2963 RMK AO2 SLP017
     T02501044=
KMCO 212253Z 04009KT 10SM FEW060 21/10 A3002 RMK AO2 SLP164
     T02060100=
KMCW 212253Z AUTO 35005KT 7SM CLR 16/03 A2963 RMK AO2 SLP032
     T01610033=
KMDW 212253Z 20014G20KT 10SM FEW250 24/03 A2968 RMK AO2 PK WND
     18027/2203 SLP049 T02390028=
KMFE 212253Z 17011KT 10SM CLR 29/16 A2993 RMK AO2 SLP133 T02890156
     $=
KMGW 212253Z 00000KT 10SM CLR 14/M01 A3004 RMK AO2 SLP177
     T01441006=
KMGY 212253Z AUTO 20007KT 10SM CLR 17/01 A2993 RMK AO2 SLP135
     T01670006=
KMHT 212253Z 00000KT 10SM FEW100 10/02 A3010 RMK AO2 SLP209
     T01000017=
KMIA 212253Z 36007KT 10SM SCT033 BKN060 25/18 A2993 RMK AO2
     RAB2155E17 SLP136 P0003 T02500183 $=
KMIE 212253Z 20009G17KT 10SM CLR 21/00 A2987 RMK AO2 SLP108
     T02060000=
KMIW 212253Z AUTO 24003KT 9SM CLR 22/01 A2960 RMK AO2 SLP023
     T02170011=
