SAUS70 KWBC 212300
METAR
PALP 212245Z 08012G24KT 10SM SCT017 BKN027 BKN039 M02/M05
     A2985=
KCWA 212247Z 27004KT 10SM CLR 16/03 A2960=
KEZS 212255Z AUTO 27003KT 10SM CLR 20/03 A2957 RMK AO2
     T01950033=
KLBE 212247Z 00000KT 20SM CLR 13/00 A3003=
KVQQ 212250Z 08004KT 10SM CLR 18/05 A3007=
KBAK 212245Z 18011KT 10SM CLR 19/M01 A2990=
KCGF 212245Z 19009G17KT 10SM CLR 16/02 A2991=
KCNW 212255Z 16013KT 10SM SKC 30/07 A2985=
KRYN 212245Z 23006G13KT 10SM CLR 32/07 A2987=
K1S5 212255Z AUTO 22007KT 10SM -RA SCT034 SCT044 OVC060 10/07
     A2971 RMK AO2 P0001 T01020070=
KADS 212247Z 17014G19KT 10SM SKC 31/04 A2980=
KCPF 212255Z AUTO 18003KT 10SM CLR 17/00 A3004 RMK AO2=
KEMV 212255Z AUTO 00000KT 10SM CLR 10/05 A3014 RMK AO2
     T00960052=
KFFA 212255Z AUTO 03003KT 10SM CLR 16/09 A3011 RMK AO2
     T01590089=
KGYH 212247Z 12004KT 10SM CLR 17/M02 A3011=
KMCJ 212255Z AUTO 19012G21KT 130V240 10SM CLR 26/14 A2993 RMK
     A01=
KMWA 212245Z 17010KT 20SM CLR 22/07 A2984=
KSAW 212247Z 06004KT 10SM CLR 12/04 A2955=
KSUW 212255Z AUTO 29004KT 10SM CLR 15/03 A2956 RMK AO2
     T01480025=
