SAUS70 KWBC 212300
METAR
KGAF 212255Z AUTO 25012KT 9SM CLR 14/00 A2952 RMK AO2=
KGYY 212245Z 18005KT 7SM CLR 22/04 A2972=
KMMU 212245Z 19005KT 10SM SKC 14/04 A3013=
KSWF 212245Z 00000KT 10SM SKC 13/00 A3010=
KW63 212255Z AUTO 00000KT 10SM CLR 13/04 A3012 RMK AO1=
KOUN 212245Z 17014G23KT 10SM CLR 30/03 A2971=
PAKU 212245Z 10018KT 7SM R06/P6000FT FEW012 BKN028 OVC060 M03/M04
     A2985=
TJIG 212245Z 10011KT 10SM SCT040 28/23 A2989=
PAKU 212245Z 10018KT 7SM R06/P6000FT FEW012 BKN028 OVC060 M03/M04
     A2985=
