SASA31 KWBC 220000 RRB
METAR
SKBO 220000Z 30007KT 9999 VCSH BKN013 15/12 Q1204 NOSIG RMK VCSH/S
     A3027=
SKCG 220000Z 25003KT 9999 SCT017CB 29/25 Q1009 RMK CB LTNG/NW
     A2980=
SKRG 220000Z VRB02KT 9999 SCT013 BKN080 16/15 Q1024 REDZ NOSIG RMK
     A3023=
