SAUS80 KWBC 220206
METAR
KROS 220202Z AUTO 00000KT 10SM SCT110 09/04 A2961 RMK AO2=
