SAUS70 KWBC 220100 RRX
METAR
KBOS 220054Z 21010KT 10SM CLR 13/07 A3016 RMK AO2 SLP213
     T01330067=
