SAPA32 KWBC 220000 RRA
METAR
NSFA 220000Z 03016KT 9999 SCT025 BKN280 33/26 Q1011=
