SAUS80 KWBC 220200 RRC
METAR
KDSM 220154Z 09006KT 10SM CLR 14/04 A2962 RMK AO2 SLP028
     T01440039=
KPOV 220155Z AUTO 18005KT 10SM CLR 12/M02 A2998 RMK AO2 T01151020
     PWINO=
KMEH 220156Z AUTO 00000KT 5SM RA BR SCT005 BKN012 OVC027 03/03
     A2967 RMK AO2 SLP051 P0005 T00330028=
PADK 220156Z AUTO 16004KT SCT024 OVC032 06/04 A2993 RMK AO2 SLP136
     P0002 T00610044 PWINO $=
PAQT 220153Z AUTO 09015KT 10SM SCT011 BKN090 OVC110 M04/M06 A2988
     RMK AO2 SLP119 T10391056 TSNO=
PHNY 220156Z AUTO 28008KT 10SM CLR 26/20 A3004 RMK AO2 SLP150
     T02560200 $=
PHMK 220154Z COR 17007KT 10SM FEW031 29/21 A2998 RMK AO2 SLP153
     T02890206=
KAST 220155Z AUTO 06013KT 2 1/2SM RA BR OVC017 10/09 A2960 RMK AO2
     SLP023 P0008 T01000089=
KCIR 220155Z AUTO 20004KT 10SM CLR 17/09 A2989 RMK AO2
     T01710088=
KAAT 220155Z AUTO 24009KT 10SM CLR 17/M01 A2980 RMK AO2 SLP080
     T01671006=
KEDU 220200Z AUTO 20009KT 10SM CLR 18/11 A2974 RMK AO1=
KELY 220153Z AUTO 16010KT 10SM CLR 10/M12 A2991 RMK AO2 SLP100
     T01001117=
KANJ 220155Z AUTO 00000KT 10SM CLR 07/06 A2964 RMK AO2 SLP039
     T00670056=
KGPZ 220156Z AUTO 00000KT 10SM CLR 07/02 A2960 RMK AO2 SLP030
     T00720022=
KBUF 220154Z 19013G22KT 10SM CLR 14/M01 A2995 RMK AO2 SLP145
     T01391006=
KTKV 220155Z AUTO 00000KT 10SM CLR 05/02 A2965 RMK AO2 T00470020
     PWINO=
KY23 220155Z AUTO 00000KT 10SM CLR 08/05 A2965 RMK AO2
     T00750048=
KP68 220153Z AUTO 26007KT 13/M11 A2987 RMK AO1 SLP081
     T01331111=
KDLH 220155Z 24003KT 10SM CLR 07/01 A2960 RMK AO2 SLP034
     T00670006=
KDVL 220156Z AUTO 00000KT 10SM OVC075 09/04 A2956 RMK AO2 RAE20
     SLP033 P0000 T00890044=
KEAR 220156Z AUTO 18005KT 10SM CLR 14/M01 A2961 RMK AO2 SLP022
     T01391006=
KHON 220155Z AUTO 14006KT 9SM CLR 12/01 A2954 RMK AO2 SLP004
     T01170006=
KCNY 220153Z AUTO 21011KT 10SM FEW120 17/M06 A2981 RMK AO2 SLP071
     T01721061=
KRFI 220155Z AUTO 17004KT 10SM CLR 24/07 A2993 RMK AO2
     T02420071=
KSOW 220155Z AUTO 22008KT 10SM CLR 14/04 A3010 RMK AO2=
KLYV 220155Z AUTO 00000KT 10SM CLR 10/01 A2960 RMK AO2=
KORH 220154Z 23007KT 10SM CLR 07/03 A3016 RMK AO2 SLP218
     T00720033=
KIKW 220155Z AUTO 17004KT 10SM CLR 15/05 A2973 RMK AO2
     T01460047=
KROC 220154Z 20008KT 10SM CLR 13/M01 A2998 RMK AO2 SLP157
     T01281006=
KSNC 220155Z AUTO 20004KT 10SM CLR 10/07 A3018 RMK AO2=
KRLD 220155Z AUTO 00000KT 10SM UP SCT075 OVC100 10/09 A2965 RMK
     AO2 P0005 T00990090=
KRNO 220155Z 29012KT 10SM SCT110 BKN220 21/M05 A2985 RMK AO2
     SLP073 ACSL ALQDS T02111050=
KS39 220155Z AUTO 29007KT 7SM -RA FEW018 SCT027 BKN034 12/09 A2965
     RMK AO2 P0002=
KSCK 220155Z 32008KT 3SM HZ CLR 21/10 A2977 RMK AO2 SLP079
     T02060100=
KSEP 220155Z AUTO 17006KT 10SM SCT120 23/04 A2987 RMK AO2
     T02280043=
KLIC 220155Z AUTO 00000KT 10SM CLR 07/M14 A2974 RMK AO2 SLP043
     T00671139=
KMKG 220155Z 19012KT 10SM SCT017 18/08 A2972 RMK AO2 PK WND
     18026/0125 SLP065 T01780083=
KGNG 220155Z AUTO 21007KT 10SM SCT042 BKN050 OVC110 16/02 A2967
     RMK AO2=
KGPI 220155Z 14007KT 10SM -RA FEW024 SCT034 OVC042 04/03 A2959 RMK
     AO2 RAB52 SLP023 P0000 T00440028=
KMKN 220155Z AUTO 18010KT 10SM CLR 24/07 A2986 RMK AO2
     T02400067=
KVTI 220155Z AUTO 00000KT 7SM CLR 13/01 A2964 RMK AO2
     T01320005=
KJNX 220155Z AUTO 00000KT 10SM CLR 06/05 A3016 RMK AO2=
K8D3 220156Z AUTO 18007KT 12/01 A2955 RMK AO1 SLP005 T01170011=
KSXT 220156Z AUTO 22007KT 200V260 10SM -RA SCT008 OVC060 11/09
     A2984 RMK AO2 RAB09E18B41 SLP086 P0000 T01060094=
KMHS 220156Z AUTO 00000KT 10SM SCT120 16/06 A2981 RMK AO2 SLP100
     T01560056=
