SAUS80 KWBC 220010
METAR
KROS 220003Z AUTO 00000KT 10SM BKN110 13/04 A2961 RMK AO2=
KGNT 220015Z AUTO 27008KT 10SM CLR 18/02 A3007 RMK AO2
     T01750015=
