SAUS70 KWBC 212340 RRE
METAR
KCWC 212335Z AUTO 19018G23KT 140V210 10SM CLR 31/01 A2974 RMK AO2
     T03110011=
KCXP 212335Z AUTO 20015G23KT 10SM CLR 23/M05 A2992 RMK AO2=
KDTA 212335Z AUTO 18011KT 10SM CLR 23/M10 A2984 RMK AO1=
KECS 212335Z AUTO 32011G20KT 10SM CLR 21/M10 A2951 RMK AO2=
KEIK 212335Z AUTO 24015G20KT 10SM CLR 23/M11 A2972 RMK AO2
     T02341115 PWINO=
KERV 212335Z AUTO 17011KT 10SM CLR 25/08 A2994 RMK AO2
     T02540084=
KF17 212335Z AUTO 17007KT 10SM CLR 26/10 A2992 RMK AO2=
KF44 212335Z AUTO 19005KT 10SM CLR 27/10 A2984 RMK AO2=
KF46 212335Z AUTO 20009KT 10SM CLR 28/08 A2982 RMK AO2
     T02790079=
KFTN 212335Z AUTO 16006KT 10SM CLR 27/10 A2993 RMK A01=
KGOO 212335Z AUTO 00000KT 10SM CLR 24/03 A2990 RMK A01=
KGZN 212320Z AUTO 20012G23KT 10SM CLR 30/00 A2980 RMK AO2=
KLXY 212335Z AUTO 18010G21KT 10SM CLR 28/10 A2986 RMK AO2
     T02750096=
KMEV 212335Z AUTO 24017G25KT 10SM CLR 23/M07 A2992 RMK AO2=
KMHV 212340Z AUTO 24006G13KT 10SM CLR 29/M02 A2987 RMK A01=
KP08 212335Z AUTO 35007KT 10SM CLR 30/11 A2982 RMK AO2=
K06C 212335Z AUTO 19008KT 10SM CLR 21/08 A2969 RMK AO2
     T02060080=
K1H2 212335Z AUTO 14004KT 10SM CLR 19/03 A2986 RMK AO2
     T01940027=
KADC 212337Z AUTO 00000KT 10SM CLR 11/M01 A2959 RMK AO2 TSNO=
KAHQ 212335Z AUTO 14003KT 7SM CLR 19/00 A2959 RMK AO2
     T01920000=
KAUH 212335Z AUTO 00000KT 10SM CLR 21/M01 A2960 RMK AO2
     T02051012=
KBCK 212335Z AUTO 00000KT 10SM CLR 09/03 A2961 RMK AO2
     T00910034=
KBIE 212335Z AUTO 00000KT 10SM CLR 21/02 A2958 RMK AO2
     T02090019=
KBVN 212335Z AUTO 00000KT 5SM HZ CLR 19/M01 A2960 RMK AO2
     T01851011=
KC09 212335Z AUTO 19009KT 10SM CLR 21/05 A2970 RMK AO2
     T02070048=
KC35 212335Z AUTO 00000KT 10SM CLR 17/03 A2962 RMK AO2 T01650031
     PWINO=
KC65 212335Z AUTO 19008KT 10SM CLR 19/02 A2978 RMK A01=
KCDD 212335Z AUTO 00000KT 10SM CLR 08/01 A2957 RMK AO2=
KCKC 212336Z AUTO 00000KT 10SM CLR 10/02 A2955 RMK AO2=
KCSQ 212335Z AUTO 00000KT 2SM HZ CLR 23/01 A2960 RMK AO2=
KDEH 212335Z AUTO 00000KT 10SM SCT022 19/01 A2962 RMK AO2=
KDSF 212330Z AUTO 04009KT 10SM CLR 22/13 A3008 RMK A01=
KEGV 212335Z AUTO 00000KT 10SM CLR 09/03 A2960 RMK AO2
     T00900030=
KFET 212335Z AUTO 15004KT 10SM CLR 21/02 A2959 RMK AO2
     T02120022=
KFOA 212335Z AUTO 17007KT 10SM CLR 17/03 A2986 RMK AO2=
KFSW 212335Z AUTO 18008KT 10SM OVC001 23/04 A2964 RMK AO2=
KGLX 212335Z AUTO 05009KT 10SM CLR 21/12 A3008 RMK A01=
KHHV 212335Z AUTO 16013G21KT 10SM SCT042 24/14 A2999 RMK A01=
KIKK 212335Z AUTO 20009KT 10SM CLR 20/03 A2976 RMK AO2
     T01970025=
KRRT 212335Z AUTO 20003KT 10SM SCT110 12/04 A2950 RMK AO2=
KVAF 212335Z AUTO 15011G18KT 10SM FEW042 24/12 A3002 RMK A01=
KWBF 212335Z AUTO 00000KT 10SM 25/13 A3007 RMK A01=
KY49 212335Z AUTO 25003KT 10SM CLR 11/00 A2958 RMK AO2
     T01100000=
K0CO 212335Z AUTO 29029G36KT 10SM CLR 01/M16 A3012 RMK AO2=
K2R9 212335Z AUTO 15012KT 10SM CLR 27/13 A2994 RMK AO2
     T02690128=
K2V5 212335Z AUTO 18007KT 10SM CLR 23/M08 A2965 RMK AO2=
K5SM 212335Z AUTO 24012G22KT 210V290 10SM CLR 06/M13 A3015 RMK
     AO2=
K66R 212335Z AUTO 17007KT 10SM CLR 25/14 A2995 RMK AO2
     T02510142=
K7BM 212335Z AUTO 27012G26KT 10SM CLR 11/M16 A3006 RMK AO2=
KASL 212335Z AUTO 00000KT 10SM CLR 24/11 A2986 RMK AO2 T02440111
     TSNO $=
KBPG 212335Z AUTO 21011KT 10SM CLR 27/04 A2985 RMK AO2
     T02700043=
KBYY 212335Z AUTO 19008KT 10SM SCT043 23/14 A2998 RMK AO2
     T02340143=
KCPT 212335Z AUTO 16015G21KT 10SM CLR 29/07 A2982 RMK A01=
KDVO 212335Z AUTO 23008KT 10SM CLR 20/11 A2983 RMK AO2=
