SAUS70 KWBC 220140 RRC
METAR
KCWC 220135Z AUTO 19013KT 10SM CLR 23/02 A2976 RMK AO2
     T02320015=
KDTA 220135Z AUTO 18012KT 10SM CLR 15/M11 A2982 RMK AO1=
KF44 220135Z AUTO 18004KT 10SM CLR 22/11 A2988 RMK AO2=
KGLX 220135Z AUTO 06007G13KT 040V110 10SM CLR 22/13 A3011 RMK
     A01=
KGYB 220135Z AUTO 19010G16KT 10SM CLR 24/14 A2996 RMK AO2
     T02360136=
KTYL 220135Z AUTO 20007KT 10SM CLR 13/03 A3006 RMK AO2=
KUVA 220135Z AUTO 13003KT 10SM CLR 19/11 A2996 RMK AO2
     T01930108=
KVCV 220135Z AUTO 20011KT 10SM CLR 23/08 A2990 RMK AO2=
KEBA 220135Z AUTO 00000KT 10SM CLR 08/02 A3014 RMK AO2
     T00840017=
KEBG 220135Z AUTO 14010KT 10SM CLR 24/17 A2998 RMK AO2 T02350170
     PWINO=
KELA 220135Z AUTO 18009KT 10SM CLR 22/15 A2999 RMK AO2
     T02170145=
KEMM 220135Z AUTO 24012KT 10SM CLR 11/M12 A2985 RMK AO2=
KEZZ 220135Z AUTO 17008KT 10SM CLR 21/04 A2965 RMK AO2
     T02140036=
KF00 220135Z AUTO 17008KT 10SM CLR 23/08 A2983 RMK AO2
     T02260085=
KFET 220135Z AUTO 00000KT 10SM CLR 12/02 A2959 RMK AO2
     T01240022=
KFHB 220135Z AUTO 02004KT 10SM CLR 14/05 A3012 RMK AO2 LTG DSNT
     E=
KFOA 220135Z AUTO 17008KT 10SM CLR 14/04 A2988 RMK AO2=
KFSW 220135Z AUTO 17005KT 10SM OVC001 19/04 A2966 RMK AO2=
KFWC 220135Z AUTO 00000KT CLR 17/03 A2987 RMK AO1 T01650030
     PWINO=
KGDB 220135Z AUTO 10005KT 10SM CLR 12/02 A2962 RMK AO2
     T01240015=
KGPC 220135Z AUTO 17007KT 10SM CLR 13/02 A2990 RMK AO2
     T01300020=
KGRN 220135Z AUTO 00000KT 10SM CLR 11/M09 A2952 RMK AO2
     T01121086=
KGWB 220135Z AUTO 20006KT 10SM CLR 16/03 A2987 RMK AO2=
KHJH 220135Z AUTO 00000KT 10SM CLR 14/01 A2960 RMK AO2
     T01400008=
KHMP 220135Z AUTO 00000KT 10SM CLR 07/05 A3016 RMK AO2
     T00710053=
KHQU 220135Z AUTO 00000KT 10SM CLR 08/04 A3013 RMK AO2
     T00770041=
KIDP 220135Z AUTO 17012G17KT 10SM CLR 24/05 A2970 RMK AO2
     T02400051=
KIIY 220135Z AUTO 00000KT 10SM CLR 10/02 A3014 RMK AO2
     T00970019=
KIYA 220135Z AUTO 16004KT CLR 17/13 A3006 RMK AO2 T01710128
     PWINO=
KJCA 220135Z AUTO 00000KT 10SM CLR 10/01 A3014 RMK AO2
     T01010011=
KJDD 220135Z AUTO 17004KT 10SM CLR 23/11 A2988 RMK AO2=
KLHB 220135Z AUTO 14005KT 10SM CLR 23/10 A2993 RMK AO2
     T02340103=
KLHM 220135Z AUTO 16007KT 10SM CLR 23/07 A2973 RMK AO1=
KLNN 220135Z AUTO 19008G16KT 10SM CLR 15/M03 A2993 RMK AO1
     T01471026=
KLUD 220135Z AUTO 16009KT 10SM CLR 25/04 A2981 RMK AO2
     T02470035=
KLUL 220135Z AUTO 18009KT 10SM CLR 20/11 A3006 RMK A02
     T01960112=
KMDD 220135Z AUTO 19009KT 10SM CLR 23/07 A2988 RMK AO2
     T02270070=
KMGR 220135Z AUTO 00000KT 10SM CLR 11/06 A3013 RMK AO2=
KMJQ 220135Z AUTO 10006KT 10SM CLR 08/01 A2964 RMK AO2=
KMNH 220135Z AUTO 27003KT 10SM CLR 10/M13 A2986 RMK AO2=
KMPR 220135Z AUTO 15011KT 10SM CLR 22/01 A2961 RMK AO2
     T02160011=
KMWA 220135Z AUTO 19003KT 10SM CLR 16/07 A2989 RMK AO2
     T01620073=
KMWO 220135Z AUTO 26003KT 10SM CLR 08/01 A2997 RMK AO2
     T00770013=
KMZZ 220135Z AUTO 18011KT 10SM CLR 14/02 A2990 RMK AO2
     T01440021=
KOLY 220135Z AUTO 16006KT 10SM CLR 16/02 A2989 RMK AO2
     T01550015=
K13K 220135Z AUTO 17013KT 10SM CLR 23/05 A2967 RMK AO2
     T02340047=
K18A 220135Z AUTO 10004KT 10SM CLR 10/00 A3014 RMK AO2
     T00981002=
K1F0 220135Z AUTO 17008KT 10SM CLR 24/07 A2977 RMK AO2
     T02350073=
K1H2 220135Z AUTO 13006KT 10SM CLR 15/03 A2988 RMK AO2
     T01540031=
K2J3 220135Z AUTO 00000KT 10SM CLR 10/04 A3014 RMK AO2
     T00950043=
K2R9 220135Z AUTO 15010G17KT 10SM CLR 22/15 A2997 RMK AO2
     T02210146=
K2V5 220135Z AUTO 16007KT 10SM CLR 17/M07 A2965 RMK AO2=
