SAUS70 KWBC 220118 RRE
METAR
K2G2 220110Z AUTO 00000KT 10SM FEW049 12/M01 A3003 RMK A01=
K2J3 220115Z AUTO 00000KT 10SM CLR 10/04 A3013 RMK AO2
     T00980041=
K2M2 220110Z AUTO 15005KT 10SM FEW049 SCT060 16/10 A3001 RMK
     A01=
K2R9 220115Z AUTO 10SM CLR 23/15 A2997 RMK AO2 T02250146=
K2V5 220115Z AUTO 16007KT 10SM CLR 17/M07 A2965 RMK AO2=
K33N 220115Z AUTO 00000KT 10SM CLR 07/06 A3016 RMK A01=
K36K 220110Z AUTO 00000KT 10SM CLR 20/M08 A2968 RMK AO2=
K3F3 220115Z AUTO 16011G15KT 10SM CLR 23/13 A2997 RMK AO2
     T02310131=
K3I2 220115Z AUTO 00000KT 10SM CLR 09/02 A3006 RMK AO2
     T00860018=
K3J7 220115Z AUTO 00000KT 10SM CLR 12/00 A3013 RMK AO2=
K3LF 220115Z AUTO 16013KT 10SM CLR 18/04 A2982 RMK AO2
     T01770035=
K3S8 220115Z AUTO VRB04KT 10SM FEW070 OVC100 19/11 A2985 RMK
     AO2=
K46U 220115Z AUTO 32010KT 10SM FEW001 SCT039 BKN060 15/M06 A2974
     RMK A01=
K4V0 220115Z AUTO 20009KT 10SM CLR 17/M08 A2982 RMK AO2
     T01701081=
K54A 220115Z AUTO 36005KT 10SM CLR 19/11 A3003 RMK AO2=
K5SM 220115Z AUTO 24012G20KT 10SM CLR 02/M11 A3015 RMK AO2=
K5T9 220110Z AUTO 13005KT 10SM CLR 21/12 A2990 RMK A01=
K65S 220115Z AUTO 22011KT 10SM BKN032 OVC043 04/02 A2959 RMK
     AO2=
K6A2 220115Z AUTO 00000KT 10SM CLR 07/03 A3013 RMK AO2=
K6B0 220115Z AUTO 14003KT 10SM CLR 08/00 A3010 RMK AO2
     T00770000=
K7BM 220115Z AUTO 34004G15KT 10SM CLR 08/M12 A3005 RMK AO2=
K81R 220115Z AUTO 18007KT 10SM CLR 24/08 A2990 RMK AO2
     T02420082=
K82V 220115Z AUTO 25008KT 10SM CLR 15/M11 A2970 RMK AO2=
K8A3 220115Z AUTO 19005KT 10SM CLR 14/01 A3004 RMK A01=
KAAS 220115Z AUTO 18005KT 10SM CLR 13/01 A3006 RMK AO1=
KACP 220115Z AUTO 19004KT 10SM CLR 21/14 A3002 RMK AO2=
KADC 220116Z AUTO 16003KT 10SM CLR 10/01 A2958 RMK AO2 TSNO=
KAEJ 220115Z AUTO 27010KT 220V280 10SM 11/M12 A2997 RMK AO2
     T01071121=
KAEL 220115Z AUTO 00000KT 10SM CLR 09/03 A2965 RMK AO2=
KAGI 220115Z AUTO 10010G16KT 10SM CLR 23/13 A3005 RMK AO2
     T02340129=
KALX 220115Z AUTO 00000KT 10SM CLR 10/09 A3011 RMK AO2
     T01020089=
KANW 220115Z AUTO 15006KT 10SM CLR 12/M01 A2956 RMK AO2
     T01221013=
KARM 220115Z AUTO 17006KT 10SM SCT042 21/14 A3000 RMK AO2
     T02060140 TSNO=
KASL 220115Z AUTO 00000KT 10SM CLR 21/12 A2989 RMK AO2 T02100116
     TSNO $=
KASN 220115Z AUTO 00000KT 10SM CLR 11/06 A3010 RMK AO2
     T01070059=
KATP 220115Z AUTO 11007G14KT 10SM SCT041 23/14 A3009 RMK A01=
KAVK 220115Z AUTO 18014KT 10SM CLR 25/M05 A2963 RMK AO2 PWINO=
KAVQ 220115Z AUTO 26005KT 10SM CLR 29/06 A2984 RMK AO2
     T02850060=
KAXH 220115Z AUTO 00000KT 10SM CLR 21/15 A3001 RMK AO2
     T02060147=
KAXS 220115Z AUTO 19012KT 10SM CLR 25/02 A2972 RMK AO2
     T02500015=
KAZC 220115Z AUTO 28005KT 10SM CLR 17/M01 A2997 RMK AO2=
KBAM 220115Z AUTO 25006KT 10SM CLR 20/M07 A2978 RMK AO1=
KBAX 220115Z AUTO 19012KT 10SM CLR 15/04 A2974 RMK AO2
     T01460038=
KBBB 220115Z AUTO 17005KT 10SM CLR 11/02 A2960 RMK AO2=
KBDN 220115Z AUTO 22016KT 10SM FEW055 SCT070 15/07 A2966 RMK
     AO2=
KBDU 220115Z AUTO 22009KT 10SM CLR 20/M08 A2973 RMK AO2=
KBGF 220115Z AUTO 14005KT 10SM CLR 15/02 A3005 RMK A01=
KBKD 220115Z AUTO 17008KT 7SM CLR 26/04 A2980 RMK AO2
     T02600038=
KBNW 220115Z AUTO 00000KT 6SM HZ CLR 14/01 A2963 RMK AO2=
KBPC 220115Z AUTO 21009KT 10SM CLR 19/M04 A2967 RMK AO2 PNO=
KBQX 220110Z AUTO 17019KT 10SM 24/14 A3001 RMK A01=
KBTA 220115Z AUTO 00000KT 10SM CLR 17/01 A2959 RMK AO2
     T01670005=
KBTN 220115Z AUTO 16007KT 5SM HZ SCT016 BKN024 BKN045 11/00 A2954
     RMK AO2=
KBXA 220115Z AUTO 16005KT 10SM CLR 19/12 A3007 RMK AO2
     T01850120=
