SAUS70 KWBC 220226 RRA
METAR
KEZS 220235Z AUTO 24003KT 10SM CLR 09/06 A2966 RMK AO2
     T00850059=
KJVY 220215Z AUTO 17003KT 10SM CLR 11/02 A2997 RMK AO2 PWINO=
KW63 220235Z AUTO 00000KT 10SM CLR 07/07 A3017 RMK AO1=
KC99 220214Z AUTO 27010G24KT 190V360 10SM CLR 03/M12 A3004 RMK
     AO2=
KTNB 220210Z AUTO 00000KT 10SM CLR 02/M01 A3019 RMK AO2
     T00151013=
