SAUS80 KWBC 220226
METAR
K9V9 220215Z AUTO 14009KT 10SM CLR 11/01 A2952 RMK AO2
     T01080014=
KCBE 220215Z AUTO 00000KT 10SM CLR 07/02 A3016 RMK AO2
     T00720017=
KSFY 220222Z AUTO 16009KT 10SM CLR 15/03 A2968 RMK AO2=
KGIC 220215Z AUTO 08005KT 1SM BKN003 OVC006 05/05 A2963 RMK AO1
     P0001=
KROS 220223Z AUTO 00000KT 10SM CLR 09/04 A2962 RMK AO2=
