SAKA31 PTRO 220000
METAR PTRO 212350Z 07006KT 13SM BKN015 BKN120 BKN300 28/25 A2983=
