SACA33 KWBC 220000 RRA
METAR
TLPC 220000Z 08005KT 9999 FEW024 27/25 Q1012 NOSIG=
