SAUS70 KWBC 212318 RRD
METAR
KS25 212315Z AUTO 36004KT 10SM -RA OVC037 08/08 A2954 RMK AO2=
KS32 212315Z AUTO 26003KT 10SM FEW080 OVC095 12/M01 A2954 RMK AO2
     TSNO=
KSCR 212315Z AUTO 00000KT 10SM CLR 09/04 A3012 RMK AO2
     T00910044=
KSFQ 212315Z AUTO 10003KT 10SM CLR 14/08 A3015 RMK AO2
     T01400080=
KSIF 212315Z AUTO 00000KT 10SM CLR 09/05 A3013 RMK AO2
     T00860045=
KSIK 212315Z AUTO 18005KT 10SM CLR 23/08 A2986 RMK AO2=
KSJX 212315Z AUTO 23008G16KT 10SM CLR 11/08 A2960 RMK AO2
     T01110075=
KSLH 212315Z AUTO 26003KT 10SM CLR 15/06 A2958 RMK AO2=
KSPF 212315Z AUTO 01007KT 10SM CLR 19/M04 A2951 RMK AO2=
KSTF 212315Z AUTO 15005KT 10SM CLR 21/11 A2996 RMK AO2=
KSUZ 212315Z AUTO 17004KT 10SM CLR 23/10 A2985 RMK A01=
KSVC 212315Z AUTO 28012G17KT 10SM CLR 24/06 A3006 RMK AO2
     T02400062=
KSVH 212315Z AUTO 00000KT 10SM CLR 12/03 A3011 RMK AO2
     T01170025=
KSXU 212315Z AUTO 27022G27KT 10SM CLR 24/M01 A2985 RMK AO2
     T02351010=
KT69 212315Z AUTO 16010G17KT 10SM CLR 25/16 A2995 RMK A01=
KTKX 212315Z AUTO 19006KT 8SM CLR 23/10 A2986 RMK AO2 TSNO=
KTME 212315Z AUTO 19015KT 10SM CLR 26/14 A2995 RMK AO2=
KTOB 212315Z AUTO 33003KT 10SM 16/01 A2963 RMK AO2=
KTSP 212315Z AUTO 32011G16KT 9SM CLR 24/M04 A2997 RMK AO2=
KTTF 212315Z AUTO 19006KT 10SM CLR 17/02 A2981 RMK AO2
     T01660019=
KTWT 212315Z AUTO 16006KT 10SM CLR 20/04 A2988 RMK AO2=
KU42 212315Z AUTO 21006KT 10SM CLR 23/02 A2982 RMK AO1
     T02270023=
KULM 212315Z AUTO 34003KT 10SM CLR 16/00 A2962 RMK AO2=
KUOX 212315Z AUTO 17006KT 10SM CLR 23/09 A2995 RMK AO2 PWINO=
KUTA 212315Z AUTO 20011KT 10SM CLR 25/09 A2988 RMK AO2 T02550093
     $=
KUXL 212315Z AUTO 19007KT 10SM CLR 23/15 A3001 RMK AO2
     T02330148=
KVGC 212315Z AUTO 17005KT 10SM CLR 10/M03 A3005 RMK AO2=
KVJI 212315Z AUTO 00000KT 10SM CLR 12/M01 A3009 RMK AO2
     T01161010=
KVLL 212315Z AUTO 18006KT 10SM CLR 18/01 A2981 RMK AO2
     T01750011=
KVWU 212315Z AUTO 23004KT 10SM CLR 13/02 A2955 RMK AO2=
KW78 212315Z AUTO 00000KT 10SM CLR 10/03 A3013 RMK AO1
     T01040027=
KW81 212315Z AUTO 00000KT 10SM CLR 09/03 A3013 RMK AO1
     T00930028=
KX07 212315Z AUTO 00000KT 10SM CLR 20/10 A3002 RMK A01=
KXNX 212315Z AUTO 00000KT 10SM CLR 19/01 A3001 RMK A01=
KY19 212315Z AUTO 01007KT 10SM BKN090 12/03 A2953 RMK AO2=
KY70 212315Z AUTO 17007KT 10SM CLR 17/04 A2970 RMK AO2
     T01680037=
KS24 212315Z AUTO 19009G15KT 10SM CLR 18/03 A2987 RMK AO2=
K21D 212315Z AUTO 00000KT 10SM CLR 16/00 A2961 RMK AO2=
K4I3 212315Z AUTO 16004KT 10SM CLR 14/00 A2997 RMK AO2=
KACQ 212315Z AUTO 30003KT 10SM CLR 15/02 A2963 RMK AO2=
KAIT 212315Z AUTO 00000KT 10SM CLR 09/01 A2959 RMK AO2=
KAMN 212315Z AUTO 17007KT 10SM CLR 16/03 A2970 RMK AO2
     T01640032=
KAUM 212315Z AUTO 00000KT 10SM CLR 18/03 A2962 RMK AO2=
KAXV 212315Z AUTO 19009KT 10SM CLR 17/00 A2989 RMK AO2=
KCFE 212315Z AUTO 00000KT 10SM CLR 15/02 A2960 RMK AO2=
KCOQ 212315Z AUTO 27004KT 10SM CLR 12/M01 A2958 RMK AO2 TSNO=
KDLZ 212315Z AUTO 18007KT 10SM CLR 15/00 A2995 RMK AO2=
KDYT 212315Z AUTO 30008KT 10SM CLR 13/04 A2956 RMK AO2=
KFBL 212315Z AUTO 00000KT 7SM CLR 13/04 A2963 RMK AO2=
KGHW 212315Z AUTO 00000KT 7SM CLR 14/01 A2961 RMK AO2=
KGYL 212315Z AUTO 00000KT 7SM CLR 15/01 A2960 RMK AO2
     T01530013=
KJKJ 212315Z AUTO 00000KT 7SM SCT120 14/M01 A2956 RMK AO2 TSNO=
KJMR 212315Z AUTO 00000KT 10SM CLR 14/02 A2963 RMK AO2=
KLDM 212315Z AUTO 21019G28KT 10SM CLR 19/04 A2962 RMK AO2
     T01860041=
KMGN 212315Z AUTO 29005KT 10SM CLR 15/06 A2959 RMK AO2
     T01500068=
KMQJ 212315Z AUTO 18006KT 10SM CLR 18/02 A2989 RMK AO1=
