SAUS80 KWBC 220000 RRE
METAR
PHNY 212356Z AUTO 27009KT 10SM CLR 27/19 A3004 RMK AO2 SLP151
     T02720189 10278 20228 58019 $=
