SAUS80 KWBC 220240
METAR
K40U 220235Z AUTO 23006KT 10SM CLR 07/M09 A2983 RMK AO2
     T00671085=
K48A 220235Z AUTO 00000KT 10SM CLR 06/04 A3015 RMK AO2
     T00630036=
KCTY 220235Z AUTO 00000KT 10SM CLR 07/04 A3013 RMK AO2
     T00750042=
KIKW 220235Z AUTO 19006KT 10SM CLR 16/05 A2974 RMK AO2
     T01560047=
KGNG 220235Z AUTO 24004KT 10SM BKN050 BKN075 OVC110 15/02 A2967
     RMK AO2=
KRLD 220235Z AUTO 00000KT 10SM -RA SCT060 BKN100 BKN120 10/09
     A2963 RMK AO2 P0001 T00970090=
KSEP 220235Z AUTO 16006KT 10SM CLR 22/05 A2987 RMK AO2
     T02220047=
KTKV 220235Z AUTO 00000KT 10SM CLR 05/02 A2967 RMK AO2 T00500022
     PWINO=
KEDU 220240Z AUTO 21007KT 10SM CLR 18/11 A2974 RMK AO1=
KRFI 220235Z AUTO 16006KT 10SM CLR 24/07 A2993 RMK AO2
     T02360072=
KMKN 220235Z AUTO 19014G19KT 10SM CLR 24/08 A2986 RMK AO2
     T02410075=
KS39 220235Z AUTO 27006KT 10SM -DZ FEW032 BKN045 OVC055 12/09
     A2963 RMK AO2=
KVTI 220235Z AUTO 16004KT 7SM CLR 11/01 A2964 RMK AO2
     T01050007=
KTKC 220235Z AUTO 00000KT 10SM 11/00 A2961 RMK AO2 T01091003=
K40U 220235Z AUTO 23006KT 10SM CLR 07/M09 A2983 RMK AO2
     T00671085=
K9MN 220235Z AUTO 00000KT 10SM CLR 13/03 A2965 RMK AO1
     T01320026=
KCIR 220235Z AUTO 19004KT 10SM CLR 17/09 A2990 RMK AO2
     T01660091=
KCKP 220235Z AUTO 00000KT 10SM CLR 09/01 A2960 RMK AO2
     T00880006=
KDBN 220235Z AUTO 00000KT 10SM CLR 06/05 A3017 RMK AO2=
KEHA 220235Z AUTO 14006KT 10SM CLR 17/M08 A2970 RMK AO2
     T01711079=
K4BM 220235Z AUTO 19008G15KT 170V230 10SM CLR 02/M14 A3010 RMK
     AO2=
KIZA 220235Z AUTO 22004KT 10SM FEW017 14/12 A2989 RMK AO2=
KPSN 220235Z AUTO 17005KT 10SM CLR 22/10 A2991 RMK AO2=
