SAHA31 KWBC 220000
METAR
KQHA NIL=
MTCA NIL=
MTCH NIL=
MTEG NIL=
MTJA NIL=
MTJE NIL=
MTPP 212359Z AUTO 25004KT 9000 ////// 28/24 Q1011 A2988 NOSIG=
MTPX NIL=
MTTP NIL=
