SAUS80 KWBC 220200 RRH
METAR
KLZZ 220155Z AUTO 19003KT 10SM CLR 21/08 A2988 RMK AO2
     T02120082=
