SAUS70 KWBC 212340 RRJ
METAR
KTIF 212335Z AUTO 16006KT 10SM CLR 20/M02 A2959 RMK AO2
     T01961021=
KTIP 212335Z AUTO 19009KT 10SM CLR 19/03 A2979 RMK AO2
     T01850026=
KTVI 212335Z AUTO 00000KT 10SM CLR 12/06 A3010 RMK AO2=
KUBE 212335Z AUTO 00000KT 10SM CLR 12/06 A2961 RMK AO2=
KUNI 212335Z AUTO 16004KT 7SM CLR 12/00 A3000 RMK AO2
     T01200000=
KVDI 212335Z AUTO 00000KT 10SM CLR 13/05 A3010 RMK AO2=
KVPC 212335Z AUTO 00000KT 10SM CLR 15/04 A3009 RMK AO2=
KW22 212335Z AUTO 10SM CLR 11/M01 A3006 RMK AO2=
KWDR 212335Z AUTO 00000KT 10SM CLR 12/00 A3012 RMK AO2=
KZER 212335Z AUTO 15006KT 10SM CLR 08/M02 A3011 RMK AO2=
