SAUS70 KWBC 220238 RRD
METAR
KPWC 220235Z AUTO 00000KT 10SM CLR 07/02 A2963 RMK AO2=
KRNP 220235Z AUTO 19009KT 10SM CLR 17/03 A2979 RMK AO2
     T01650025=
KRQB 220235Z AUTO 20007KT 10SM CLR 16/05 A2972 RMK AO2
     T01560051=
KSLH 220235Z AUTO 00000KT 10SM CLR 07/06 A2966 RMK AO2=
KTTF 220235Z AUTO 19010G15KT 10SM CLR 15/02 A2987 RMK AO2
     T01480017=
KULM 220235Z AUTO 00000KT 10SM CLR 10/00 A2963 RMK AO2=
KVLL 220235Z AUTO 20006KT 10SM CLR 16/02 A2987 RMK AO2
     T01580021=
KVWU 220235Z AUTO 21003KT 10SM OVC110 12/02 A2955 RMK AO2=
KS24 220235Z AUTO 20011G16KT 10SM CLR 15/01 A2992 RMK AO2=
K08D 220235Z AUTO 00000KT 10SM 05/05 A2956 RMK AO2=
K14Y 220235Z AUTO 00000KT 10SM CLR 07/00 A2959 RMK AO2=
K4R5 220235Z AUTO 00000KT 10SM CLR 05/04 A2961 RMK AO2
     T00450038=
KAIT 220235Z AUTO 00000KT 10SM CLR 06/02 A2960 RMK AO2=
KAQP 220233Z AUTO 18007KT 10SM 11/M01 A2958 RMK AO2=
KARV 220235Z AUTO 00000KT 10SM CLR 05/02 A2965 RMK AO2
     T00490018=
KD55 220235Z AUTO 33004KT 6SM BR BKN043 OVC049 07/07 A2957 RMK
     AO2=
KDVP 220233Z AUTO 00000KT 7SM CLR 08/01 A2963 RMK AO2
     T00830006=
KETH 220233Z AUTO 16005KT 10SM 12/01 A2959 RMK AO2=
KFOZ 220233Z AUTO 20003KT 10SM SCT120 09/02 A2962 RMK AO2=
KHFY 220235Z AUTO 16006KT 10SM CLR 13/03 A2993 RMK AO2
     T01330031=
KIUA 220235Z AUTO 19005KT 10SM CLR 12/M01 A3001 RMK AO2
     T01151012=
KLDJ 220235Z AUTO 00000KT 10SM CLR 11/03 A3018 RMK AO2
     T01100031=
KLNL 220235Z AUTO 00000KT 10SM CLR 01/01 A2967 RMK AO2
     T00140007=
KLUM 220235Z AUTO 00000KT 10SM CLR 08/07 A2965 RMK AO2
     T00810066=
KMDZ 220235Z AUTO 00000KT 10SM CLR 05/04 A2965 RMK AO2 T00450041
     PWINO=
KMRJ 220235Z AUTO 19003KT 10SM CLR 17/00 A2968 RMK AO2=
KORB 220233Z AUTO 00000KT 10SM CLR 08/01 A2955 RMK AO2=
KOWA 220233Z AUTO 13003KT 10SM CLR 08/03 A2964 RMK AO2=
KRPD 220235Z AUTO 00000KT 10SM CLR 06/05 A2964 RMK AO2
     T00550045=
KSDC 220235Z AUTO 16006KT 10SM CLR 11/M01 A3001 RMK AO2=
KTEW 220235Z AUTO 17004KT 10SM CLR 18/02 A2982 RMK AO2
     T01770023=
KTWM 220235Z AUTO 00000KT 10SM CLR 08/02 A2960 RMK AO2=
KUKT 220235Z AUTO 00000KT 10SM CLR 04/03 A3018 RMK A01=
KUNV 220235Z AUTO 25006KT 10SM CLR 10/M01 A3012 RMK AO2
     T00951010=
KVVV 220235Z 16006KT 10SM 08/01 A2957 RMK AO2=
KXVG 220233Z AUTO 00000KT 10SM SCT110 06/02 A2958 RMK AO2=
KY63 220235Z AUTO 14005KT 10SM CLR 11/01 A2959 RMK AO2
     T01070005=
KDYT 220235Z AUTO 19004KT 10SM FEW050 10/03 A2960 RMK AO2=
KEFK 220235Z AUTO 18004KT 10SM CLR 07/M02 A3010 RMK AO2
     T00721023=
KELO 220235Z AUTO 21003KT 10SM CLR 07/01 A2959 RMK AO2=
KFFM 220235Z AUTO 15003KT 10SM CLR 11/01 A2958 RMK AO2=
KFSE 220235Z AUTO 17004KT 10SM SCT080 BKN110 09/M01 A2957 RMK
     AO2=
KGYL 220235Z AUTO 00000KT 7SM CLR 09/01 A2962 RMK AO2
     T00880008=
KHCO 220235Z AUTO 32010KT 10SM BKN055 BKN070 OVC085 12/04 A2957
     RMK AO2=
KHZL 220235Z AUTO 00000KT 10SM CLR 07/M01 A3019 RMK AO2=
KI69 220235Z AUTO 17003KT 10SM CLR 14/01 A3001 RMK AO2
     T01410008=
KJKJ 220235Z AUTO 16004KT 10SM CLR 11/M01 A2957 RMK AO2 TSNO=
KJMR 220235Z AUTO 00000KT 10SM CLR 05/01 A2965 RMK AO2=
KLDM 220235Z AUTO 22016G22KT 10SM CLR 18/05 A2967 RMK AO2
     T01780051=
KLJF 220235Z AUTO 00000KT 10SM CLR 07/01 A2961 RMK AO2=
KMGG 220235Z AUTO 00000KT 10SM CLR 08/03 A2962 RMK AO2 T00830031
     PWINO=
KMGN 220235Z AUTO 00000KT 10SM CLR 08/06 A2966 RMK AO2
     T00910067=
KMQJ 220235Z AUTO 16006KT 10SM CLR 12/02 A2993 RMK AO1=
KOVL 220235Z AUTO 12003KT 7SM CLR 09/00 A2960 RMK AO2=
KOZW 220235Z AUTO 18008KT 10SM CLR 16/03 A2983 RMK AO2
     T01610034=
