SAUS70 KWBC 220222 RRB
METAR
KMQB 220215Z AUTO 19010KT 10SM CLR 17/01 A2972 RMK AO2
     T01740011=
KMQW 220215Z AUTO 00000KT 10SM CLR 06/04 A3015 RMK AO2
     T00640040=
KNOW 220215Z AUTO 27005KT 10SM RA SCT007 SCT018 OVC055 09/09 A2970
     RMK AO2 P0001 T00860086=
KNRN 220215Z AUTO 12003KT 10SM CLR 11/M03 A2964 RMK AO2=
KORG 220215Z AUTO 19005KT 10SM CLR 23/16 A3005 RMK AO2
     T02250162=
KPPA 220215Z AUTO 21010KT 10SM CLR 19/03 A2972 RMK AO2
     T01850025=
KPTT 220215Z AUTO 20008KT 10SM CLR 16/M01 A2962 RMK AO2
     T01581013=
KRBO 220215Z AUTO 10SM CLR 22/16 A2998 RMK AO2 T02200158=
KSAW 220218Z AUTO 00000KT 10SM CLR 03/01 A2963 RMK AO2
     T00330009=
KSEF 220215Z AUTO 36006KT 10SM CLR 17/13 A3007 RMK AO2
     T01710131=
KSHL 220215Z AUTO 06009KT 10SM CLR 10/01 A2959 RMK AO2=
KSJS 220215Z AUTO 19003KT 10SM CLR 13/01 A3007 RMK AO2
     T01340012=
KSLB 220215Z AUTO 08007KT 9SM CLR 11/00 A2961 RMK AO2=
KSNL 220215Z AUTO 17013KT 10SM CLR 23/02 A2974 RMK AO2
     T02270015=
KSUT 220215Z AUTO 00000KT 10SM BKN045 OVC055 16/10 A3015 RMK AO2
     T01600098=
KT20 220215Z AUTO 17011G15KT 10SM CLR 22/15 A2997 RMK AO2
     T02210147=
KT35 220215Z AUTO 18010G16KT 10SM CLR 23/11 A2993 RMK AO2
     T02300111=
KTAZ 220215Z AUTO 17010KT 10SM CLR 17/04 A2981 RMK AO2
     T01700042=
KTBR 220215Z AUTO 00000KT 10SM CLR 08/05 A3015 RMK AO2
     T00750047=
KTIF 220215Z AUTO 17012KT 10SM CLR 17/M02 A2957 RMK AO2
     T01651022=
KTIP 220215Z AUTO 18009KT 10SM CLR 15/03 A2983 RMK AO2
     T01480025=
KTMK 220215Z AUTO 22012G18KT 10SM OVC014 14/12 A2962 RMK AO2=
KTQK 220215Z AUTO 06006KT 10SM CLR 15/M09 A2966 RMK AO2
     T01481090=
KTVI 220215Z AUTO 00000KT 10SM CLR 08/05 A3015 RMK AO2=
KUKL 220215Z AUTO 17011KT 10SM CLR A2967 RMK AO2=
KUNI 220215Z AUTO 00000KT 7SM -SN CLR 05/02 A3003 RMK AO2
     T00470017=
KVDI 220215Z AUTO 00000KT 10SM CLR 09/06 A3015 RMK AO2=
KVES 220215Z AUTO 19004KT 10SM CLR 13/M02 A2995 RMK AO2=
KVKS 220215Z AUTO 18010KT 10SM FEW045 BKN050 BKN060 21/12 A2998
     RMK A01=
KVPC 220215Z AUTO 00000KT 10SM FEW039 09/06 A3014 RMK AO2=
KVUJ 220215Z AUTO 00000KT 10SM CLR 04/02 A3021 RMK AO2
     T00430020=
KW22 220215Z AUTO 00000KT 10SM FEW047 07/00 A3008 RMK AO2=
KWDR 220215Z AUTO 00000KT 10SM CLR 08/02 A3016 RMK AO2 LTG DSNT
     SE=
KXBP 220215Z AUTO 17009KT 10SM CLR 25/04 A2982 RMK AO2
     T02500040=
KZER 220215Z AUTO 20005KT 10SM CLR 08/M02 A3016 RMK AO2=
K04V 220215Z AUTO 30009KT 10SM 07/M09 A3002 RMK AO2=
K17J 220215Z AUTO 00000KT 10SM CLR 10/04 A3013 RMK AO2
     T00970042=
K1A6 220215Z AUTO 00000KT 10SM CLR 05/03 A3012 RMK AO2
     T00510027=
K2G9 220215Z AUTO 16004KT 10SM CLR 08/M02 A3011 RMK AO2=
K2W6 220219Z AUTO 00000KT 10SM CLR 08/07 A3020 RMK AO1=
K5C1 220215Z AUTO 20004KT 10SM CLR 19/08 A2996 RMK AO1=
K5R8 220215Z AUTO 16005KT 10SM CLR 18/14 A3004 RMK AO2
     T01840143=
K6P9 220215Z AUTO 18008KT 10SM CLR 23/05 A2984 RMK AO2
     T02320053=
KAFO 220215Z AUTO 18006KT 10SM CLR 08/M10 A2977 RMK AO2=
KAPS 220216Z AUTO 15006KT 10SM CLR 17/13 A3009 RMK AO2=
KAXX 220215Z AUTO 25015G19KT 10SM CLR 10/M07 A3008 RMK AO2
     T00951066=
KBHC 220215Z AUTO 00000KT 10SM CLR A3014 RMK AO2=
KBIJ 220215Z AUTO 00000KT 10SM CLR 07/05 A3014 RMK AO2=
KBMT 220215Z AUTO 17004KT 10SM CLR 19/14 A3002 RMK AO2
     T01850140=
KBUU 220215Z AUTO 21005KT 10SM CLR 16/05 A2971 RMK AO2 T01550045
     PWINO=
KCCO 220215Z AUTO 00000KT 10SM CLR 10/04 A3014 RMK AO2
     T00990035=
KCGE 220215Z AUTO 14004KT 10SM CLR 07/06 A3019 RMK A01=
KCNI 220215Z AUTO 05005KT 10SM CLR 10/01 A3015 RMK AO2
     T00980015=
