SAUS70 KWBC 220000 RRC
METAR
KLKV 212353Z AUTO 25014G19KT 10SM FEW120 17/03 A2983 RMK AO2
     SLP100 T01720028 10217 20144 56022=
KOKB 212352Z AUTO 24006KT 10SM FEW016 22/17 A2983 RMK AO2 SLP102
     T02220172 10244 20217 56013=
KPUC 212353Z AUTO 10004KT 10SM CLR 18/M06 A2988 RMK AO2 SLP085
     T01831056 10206 20156 56021=
KSNK 212355Z AUTO 23006KT 10SM CLR 26/01 A2983 RMK AO2
     T02620005=
KBOI 212353Z AUTO 02005KT 10SM FEW120 19/03 A2967 RMK AO2 SLP035
     T01890028 10211 20183 56026=
KBPT 212353Z 18007KT 10SM CLR 21/16 A2998 RMK AO2 SLP152 T02060156
     10289 20206 55001=
KBYG 212353Z AUTO 32005KT 10SM CLR 16/M03 A2955 RMK AO2 SLP969
     T01561028 10222 20156 55002=
KDHT 212353Z AUTO 22005KT 10SM CLR 22/M03 A2973 RMK AO2 SLP030
     T02221028 10294 20222 58009=
KFST 212353Z AUTO 24003KT 10SM CLR 26/09 A2990 RMK AO2 SLP085
     T02610089 10289 20261 58008=
KIAH 212353Z 18009G17KT 10SM FEW065 26/14 A2994 RMK AO2 SLP138
     T02560144 10289 20256 55002=
KOLF 212353Z AUTO 08005KT 10SM OVC021 08/05 A2956 RMK AO2 SLP020
     60003 T00830050 10094 20072 51008=
KONO 212353Z AUTO 02004KT 10SM OVC110 19/04 A2968 RMK AO2 SLP049
     T01890044 10222 20167 56017=
KONT 212353Z 25011KT 10SM FEW100 26/14 A2983 RMK AO2 SLP087
     T02610139 10283 20233 56014=
KPAE 212353Z 36006KT 4SM -RA BR BKN009 BKN015 OVC024 08/07 A2973
     RMK AO2 SLP069 P0003 60012 T00780067 10100 20078 56024=
KPDT 212353Z 15008KT 2 1/2SM -RA BR FEW028 OVC035 08/06 A2973 RMK
     AO2 SLP062 P0007 60013 T00780061 10156 20078 58012=
KSSF 212353Z 17007KT 10SM CLR 27/09 A2989 RMK AO2 SLP117 T02670089
     10300 20267 56006 $=
KCMX 212353Z AUTO 26005KT 10SM CLR 10/04 A2957 RMK AO2 SLP017
     T01000044 10150 20100 53020=
KD25 212355Z AUTO 00000KT 10SM CLR 07/03 A2960 RMK AO2 T00700025
     10176 20070=
KDET 212353Z 17008KT 8SM CLR 17/03 A2981 RMK AO2 SLP095 T01720033
     10206 20167 53004=
KDKK 212353Z AUTO 18015G26KT 10SM CLR 16/M01 A2993 RMK AO2 PK WND
     18026/2349 SLP137 T01561006 10194 20156 52008=
KGEZ 212353Z AUTO 17007KT 10SM CLR 18/01 A2989 RMK AO2 SLP123
     T01830011 10244 20183 53007=
KGRI 212353Z 14005KT 10SM CLR 19/M02 A2960 RMK AO2 SLP026
     T01891017 10267 20189 56006=
KIWI 212353Z AUTO 00000KT 10SM CLR 05/02 A3016 RMK AO2 SLP214
     T00500022 10150 20050 53016=
KPBG 212353Z AUTO 17004KT 10SM CLR 11/M01 A3003 RMK AO2 SLP171
     T01061006 10144 20106 53012=
KPEO 212353Z AUTO 19008KT 10SM CLR 12/M02 A3002 RMK AO2 SLP169
     T01221017 10167 20106 53014=
KPHD 212353Z AUTO 14005KT 10SM CLR 13/01 A3001 RMK AO2 SLP165
     T01330006 10189 20133 53012=
KUUU 212353Z AUTO 19004KT 10SM CLR 13/07 A3016 RMK AO2 SLP212
     T01280067 10161 20128 53010=
KWST 212353Z AUTO 21006KT 10SM CLR 14/08 A3016 RMK AO2 SLP213
     T01440083 10172 20144 53010=
KABR 212353Z AUTO 16005KT 10SM CLR 13/01 A2955 RMK AO2 SLP009
     T01280006 10194 20122 56013=
KACK 212353Z 18007KT 10SM CLR 14/09 A3018 RMK AO2 SLP219 T01390094
     10183 20139 53007=
KAXN 212353Z AUTO 00000KT 10SM CLR 12/00 A2961 RMK AO2 SLP033
     T01220000 10167 20111 53003=
KBFD 212353Z AUTO 18004KT 10SM CLR 12/M02 A3003 RMK AO2 SLP174
     T01171017 10161 20117 53010=
KBMG 212353Z 17005KT 10SM CLR 16/01 A2990 RMK AO2 SLP122 T01610011
     10239 20161 53003=
KBVY 212353Z 19004KT 10SM CLR 11/06 A3014 RMK AO2 SLP201 T01110061
     10167 20089 53013 $=
KDUJ 212353Z AUTO 00000KT 10SM CLR 12/M03 A3003 RMK AO2 SLP175
     T01221028 10161 20122 53008=
KETH 212353Z AUTO 12005KT 10SM 12/00 A2959 RMK AO2=
KEWB 212353Z 00000KT 10SM CLR 07/07 A3016 RMK AO2 SLP213 T00720067
     10178 20067 53011=
