SASA31 KWBC 220100 RRA
METAR
SPQT 220100Z VRB02KT 9999 FEW030 27/23 Q1007 NOSIG RMK PP000=
SPTN 220100Z 22006KT 9999 BKN027 13/10 Q1017 RMK PP000=
SPZO 220100Z 29007KT 260V320 9999 NSC 14/04 Q1026 NOSIG RMK BIRD
     HAZARD RWY 28 PP000=
SVBC 220103Z AUTO 03004KT NCD 28/25 Q1009=
SVMC 220103Z AUTO NIL=
SVMG 220103Z AUTO 09010KT NCD 28/25 Q1010=
SVMI 220103Z AUTO 08005KT NCD ///// Q1010=
