SAUS80 KWBC 220146
METAR
KROS 220143Z AUTO 00000KT 10SM SCT110 10/04 A2962 RMK AO2=
