SAUS70 KWBC 220118 RRC
METAR
KOEO 220115Z AUTO 11003KT 10SM CLR 07/03 A2966 RMK AO2
     T00680032=
KOKV 220115Z AUTO 00000KT 10SM CLR 06/00 A3011 RMK AO2=
KOLG 220115Z AUTO 20003KT 10SM CLR 05/00 A2961 RMK AO1=
KOMH 220115Z AUTO 00000KT 10SM CLR 05/02 A3016 RMK AO2=
KONM 220115Z AUTO 18003KT 10SM BKN090 19/05 A2996 RMK AO2
     T01880047=
KORS 220115Z AUTO 00000KT 7SM -RA SCT043 BKN048 OVC055 10/ A2970
     RMK AO2=
KOZS 220115Z AUTO 16008KT 10SM CLR 20/00 A2977 RMK AO2=
KPAN 220115Z AUTO 00000KT 10SM CLR 17/04 A3004 RMK AO2 PWINO
     TSNO=
KPCM 220115Z AUTO 35003KT 10SM CLR 19/06 A3009 RMK AO2=
KPGV 220115Z AUTO 00000KT 10SM BKN060 09/08 A3015 RMK AO2=
KPLR 220115Z AUTO 00000KT 10SM SCT036 BKN043 OVC049 10/07 A3010
     RMK A01=
KPNM 220115Z AUTO 00000KT 10SM CLR 08/03 A2962 RMK AO2 TSNO=
KPVB 220115Z AUTO 16004KT 10SM CLR 19/01 A2966 RMK AO1
     T01930007=
KPVF 220115Z AUTO 21004KT 10SM CLR 21/04 A2988 RMK AO1=
KRCE 220115Z AUTO 16012KT 10SM CLR 23/01 A2970 RMK AO2=
KBCB 220115Z AUTO 00000KT 10SM CLR 07/00 A3018 RMK AO2
     T00660001=
KBDH 220115Z AUTO 00000KT 10SM CLR 08/02 A2964 RMK AO2=
KBKS 220115Z AUTO 13008KT 10SM CLR 23/17 A2995 RMK AO2 SLP103
     T02270165 $=
KBKT 220115Z AUTO 00000KT 10SM CLR 09/04 A3015 RMK AO1
     T00900038=
KBOW 220115Z AUTO 36005KT 10SM CLR 19/06 A3007 RMK AO2=
KBRG 220115Z AUTO 29006KT 10SM CLR 16/02 A2997 RMK AO2
     T01640020=
KBRY 220115Z AUTO 12004KT 10SM CLR 13/01 A2997 RMK AO2
     T01280009=
KBVI 220115Z AUTO 16005KT 10SM CLR 13/M01 A3003 RMK AO2
     T01251008=
KBVU 220115Z AUTO 16011KT 10SM CLR 26/02 A2979 RMK AO2=
KBWP 220115Z AUTO 14005KT 10SM OVC050 13/M01 A2954 RMK AO2=
KBWW 220115Z AUTO 01012G17KT 10SM BKN120 12/03 A2953 RMK AO2=
KBXK 220115Z AUTO 00000KT 10SM CLR 26/12 A2979 RMK A01=
KC29 220115Z AUTO 00000KT 10SM CLR 09/04 A2967 RMK AO1
     T00870036=
KCDA 220115Z AUTO 00000KT 10SM 08/M02 A3011 RMK AO2 T00821020=
KCDI 220115Z AUTO 00000KT 10SM CLR 05/03 A3003 RMK AO2
     T00450030=
KCDN 220115Z AUTO 00000KT 10SM CLR 08/02 A3014 RMK AO2=
KCEY 220115Z AUTO 15006KT 10SM CLR 20/09 A2993 RMK A01=
KCFE 220115Z AUTO 00000KT 10SM SCT020 OVC055 08/01 A2961 RMK
     AO2=
KCFJ 220115Z AUTO 16007KT 10SM CLR 13/M01 A2988 RMK AO2
     T01341013=
KCGC 220115Z AUTO 00000KT 10SM CLR 11/05 A3009 RMK AO2=
KCJR 220115Z AUTO 00000KT 10SM CLR 06/02 A3016 RMK AO2
     T00570021=
KCKM 220115Z AUTO 15008KT 10SM FEW046 BKN050 BKN060 21/10 A2993
     RMK A01=
KCKZ 220115Z AUTO 00000KT 10SM CLR 05/03 A3017 RMK AO2=
KCLS 220115Z AUTO VRB04KT 9SM -RA OVC014 08/07 A2969 RMK AO2=
KCLW 220115Z AUTO 36003KT 10SM CLR 16/08 A3007 RMK AO2=
KCMR 220115Z AUTO 23006KT 10SM CLR 13/02 A3008 RMK AO2=
KCPT 220115Z AUTO 17011G16KT 10SM CLR 25/09 A2985 RMK A01=
KCTZ 220115Z AUTO 00000KT 10SM CLR 10/07 A3015 RMK AO2
     T00970065=
KCXE 220115Z AUTO 00000KT 10SM CLR 08/04 A3015 RMK AO1
     T00750035=
KD57 220115Z AUTO 03007KT 10SM FEW060 BKN070 OVC090 10/M02 A2951
     RMK AO2=
KD60 220115Z AUTO 04004KT 10SM SCT031 OVC039 05/05 A2958 RMK
     AO2=
KD95 220115Z AUTO 19008G14KT 10SM CLR 17/M01 A2979 RMK AO2
     T01671012=
KDNA 220115Z AUTO 00000KT 10SM CLR 23/08 A2998 RMK AO2=
KDNN 220115Z AUTO 00000KT 10SM CLR 09/04 A3011 RMK AO2
     T00880038=
KDRI 220115Z AUTO 18008KT 10SM CLR 21/16 A3002 RMK AO2 T02140158
     $=
KDYB 220115Z AUTO 00000KT 10SM CLR 09/08 A3012 RMK AO2=
KEDJ 220115Z AUTO 18009KT 10SM CLR 14/01 A2995 RMK A01=
KEFK 220115Z AUTO 00000KT 10SM CLR 08/M03 A3009 RMK AO2
     T00821027=
KVJI 220115Z AUTO 00000KT 10SM CLR 07/M01 A3011 RMK AO2
     T00681011=
