SAUS70 KWBC 220158
METAR
KGZN 220140Z AUTO 20004KT 10SM CLR 22/02 A2982 RMK AO2=
