SACA45 KWBC 212300 RRA
METAR
MGHT 212300Z 00000KT 9999 SCT024 FEW028CB 20/16 FEW080 CB/PCPN
     WSW/W/WNW=
MNMG 212300Z 10004KT 9999 FEW021CB SCT300 31/22 Q1007 A2976
     CB/NW/N/NE/E NOSIG=
MNPC 212300Z 06004KT 6000 VCRA SCT016TCU SCT300 28/25 Q1009
     TCURA/SE/SW/W=
