SAUS80 KWBC 212334
METAR
KGNT 212335Z AUTO 27009KT 10SM CLR 19/01 A3009 RMK AO2
     T01900009=
KLZZ 212315Z AUTO 20005KT 10SM CLR 28/07 RMK AO2 T02800068=
KSVE 212335Z AUTO 25017G25KT 10SM CLR 23/M02 A2985 RMK AO2=
