SAUS80 KWBC 220110
METAR
KGNT 220115Z AUTO 28004KT 10SM CLR 13/04 A3007 RMK AO2
     T01260035=
