SAUS70 KWBC 220100 RRO
METAR
K2G9 220055Z AUTO 16008KT 10SM CLR 09/M02 A3008 RMK AO2=
KAOH 220053Z AUTO 18009KT 10SM CLR 15/01 A2991 RMK AO2 SLP129
     T01500011=
KBJI 220055Z AUTO 00000KT 10SM SCT120 10/01 A2956 RMK AO2
     T00970006=
KBTN 220055Z AUTO 16007KT 5SM HZ SCT017 OVC024 12/00 A2954 RMK
     AO2=
KBUU 220055Z AUTO 20005KT 10SM CLR 16/05 A2968 RMK AO2 T01580045
     PWINO=
KFEP 220055Z AUTO 19011KT 10SM CLR 17/06 A2969 RMK AO2
     T01710063=
KGBG 220055Z AUTO 15005KT 10SM CLR 18/05 A2970 RMK AO2
     T01830048=
KGGP 220055Z AUTO 18008KT 10SM CLR 16/02 A2986 RMK AO2=
KIJX 220055Z AUTO 16010KT CLR 20/03 A2975 RMK AO2 T01970025=
KOWX 220055Z AUTO 19009KT 10SM CLR 16/M01 A2990 RMK AO1=
KPMV 220055Z AUTO 10003KT 10SM CLR 20/M01 A2959 RMK AO2
     T02001010=
KPPO 220055Z AUTO 20005KT 10SM CLR 17/07 A2979 RMK AO2
     T01690065=
KRCR 220055Z AUTO 19010G15KT 10SM SCT055 18/03 A2983 RMK AO2=
KRDK 220055Z AUTO 00000KT CLR 12/01 A2960 RMK AO2=
KRPJ 220055Z AUTO 16006KT 7SM CLR 12/06 A2971 RMK AO2 T01190055
     TSNO=
KSXK 220055Z AUTO 11007KT 10SM FEW021 FEW032 FEW050 14/01 A2959
     RMK AO2=
KTYQ 220055Z AUTO 18009KT 10SM CLR 15/02 A2989 RMK AO2
     T01470020=
KUMP 220055Z AUTO 00000KT 10SM CLR 16/03 A2990 RMK AO2
     T01590032=
KVYS 220055Z AUTO 18010KT 10SM CLR 17/04 A2971 RMK AO2
     T01740042=
KW22 220055Z AUTO 17006KT 9SM FEW050 09/00 A3007 RMK AO2=
K6P9 220055Z AUTO 18005KT 10SM CLR 25/04 A2983 RMK AO2
     T02450041=
KBDN 220055Z AUTO 22018G26KT 10SM SCT065 SCT075 16/07 A2967 RMK
     AO2=
KCOE 220056Z AUTO 17008KT 10SM -RA OVC021 04/03 A2966 RMK AO2
     SLP066 T00440033 PNO $=
KCPW 220055Z AUTO 22020G29KT 10SM CLR 01/M06 A3026 RMK AO2=
KCTB 220056Z AUTO 15004KT 10SM OVC070 04/03 A2954 RMK AO2 SLP013
     T00390033=
KCXP 220050Z AUTO 22007G21KT 190V250 10SM CLR 21/M06 A2990 RMK
     AO2=
KCZT 220055Z AUTO 16003KT 10SM CLR 20/12 A2991 RMK AO2=
KDUX 220055Z AUTO 20008KT 10SM CLR 20/M03 A2972 RMK AO2
     T02001031=
KDVO 220055Z AUTO VRB04KT 10SM CLR 18/11 A2982 RMK AO2=
KE16 220055Z AUTO 14012KT 10SM CLR 17/10 A2986 RMK AO2 PWINO
     PNO=
KE38 220055Z AUTO 24007KT 10SM CLR 19/07 A3007 RMK AO2
     T01870065=
KEAT 220055Z AUTO 33004KT 4SM HZ CLR 12/01 A2960 RMK AO2 SLP024
     T01170011=
KFFZ 220054Z 30005KT 10SM CLR 29/09 A2980 RMK AO2 SLP070
     T02940089=
KFWZ 220055Z AUTO 22010G19KT 10SM CLR 10/M10 A2982 RMK AO2=
KGCD 220055Z AUTO 22010G14KT 10SM SCT048 OVC060 14/04 A2963 RMK
     AO2 T01360042=
KWHP 220050Z 12005KT 10SM SKC 23/15 A2987 RMK OBSERVER HT=
KGOP 220055Z AUTO 10SM CLR 24/08 A2989 RMK AO2=
KHII 220055Z AUTO 17007KT 10SM CLR 31/04 A2975 RMK AO2=
KHRX 220055Z AUTO 22011KT 10SM CLR 22/00 A2979 RMK AO2
     T02191005=
KJWY 220055Z AUTO 18010G14KT 10SM CLR 26/09 A2985 RMK AO2
     T02560090=
KKLS 220056Z AUTO 16004KT 10SM -RA OVC019 09/08 A2969 RMK AO2
     SLP058 P0007 T00940083=
KLGD 220056Z AUTO 32008KT 3SM -RA BR OVC033 08/08 A2966 RMK AO2
     SLP049 P0005 T00830078=
KLNC 220055Z AUTO 16007KT 10SM CLR 26/08 A2984 RMK AO2
     T02560075=
KLPC 220056Z AUTO 29007KT 10SM OVC012 16/13 A2990 RMK AO2 SLP126
     T01560128=
KM75 220055Z AUTO 06005KT 10SM BKN030 OVC060 07/06 A2954 RMK
     A01=
KPSO 220055Z AUTO 00000KT 10SM CLR 13/M04 A3006 RMK AO2
     T01291045=
KVTP 220055Z AUTO 24014G19KT 10SM CLR 06/M11 A3006 RMK AO2=
KGVT 220055Z AUTO 16008KT 10SM CLR 22/10 A2984 RMK AO2 TSNO
     T02160097=
KGYI 220055Z AUTO 16012KT 10SM CLR 26/07 A2981 RMK AO2 T02560066
     TSNO=
KHHF 220055Z AUTO 23005KT 10SM CLR 18/M02 A2965 RMK AO2
     T01761019=
