SAUS70 KWBC 220156
METAR
KMCX 220215Z AUTO 18008KT 10SM CLR 17/01 A2985 RMK AO2
     T01710011=
KRID 220215Z AUTO 17006KT 10SM CLR 07/01 A2997 RMK AO2=
KMCX 220215Z AUTO 18008KT 10SM CLR 17/01 A2985 RMK AO2
     T01710011=
KRID 220215Z AUTO 17006KT 10SM CLR 07/01 A2997 RMK AO2=
