SAUS70 KWBC 220220 RRI
METAR
KGDB 220215Z AUTO 13004KT 10SM CLR 09/00 A2961 RMK AO2
     T00930002=
KGPC 220215Z AUTO 17008KT 10SM CLR 12/01 A2990 RMK AO2
     T01200009=
KGRN 220215Z AUTO 25004KT 10SM CLR 12/M08 A2952 RMK AO2
     T01211083=
KHJH 220215Z AUTO 00000KT 10SM CLR 11/01 A2959 RMK AO2
     T01120005=
KI68 220215Z AUTO 15005KT 10SM CLR 13/01 A2999 RMK AO1
     T01280012=
KI74 220215Z AUTO 18006KT 10SM CLR 12/01 A2997 RMK AO2=
KIGQ 220215Z AUTO 20010KT 10SM CLR 17/04 A2978 RMK AO2
     T01700040=
KJYG 220217Z AUTO 00000KT 7SM CLR 07/01 A2962 RMK AO2=
KLCG 220215Z AUTO 23003KT 5SM HZ CLR 06/M03 A2959 RMK AO2
     T00601032=
KMWA 220215Z AUTO 18003KT 10SM CLR 15/08 A2989 RMK AO2
     T01540075=
KMZZ 220215Z AUTO 18007KT 10SM CLR 13/02 A2991 RMK AO2
     T01260020=
KOLY 220215Z AUTO 17007KT 10SM CLR 16/02 A2989 RMK AO2
     T01620024=
KOSC 220215Z AUTO 20008KT 10SM CLR 15/05 A2970 RMK AO2
     T01450047=
KPHN 220215Z AUTO 19011G17KT 10SM CLR 16/02 A2983 RMK AO2=
KPPO 220215Z AUTO 19008KT 10SM CLR 16/06 A2981 RMK AO2
     T01550063=
KPRG 220215Z AUTO 16009KT 10SM CLR 14/04 A2988 RMK AO2
     T01370037=
KRPJ 220215Z AUTO 16006KT 10SM CLR 09/05 A2972 RMK AO2 T00850049
     TSNO=
KSXK 220215Z AUTO 09009KT 10SM SCT023 SCT028 13/01 A2957 RMK
     AO2=
KVVS 220215Z AUTO 08004KT 10SM CLR 08/00 A3008 RMK AO2
     T00770005=
KXLL 220215Z AUTO 00000KT 10SM CLR 06/03 A3018 RMK AO2=
KY49 220215Z AUTO 00000KT 10SM OVC100 09/00 A2958 RMK AO2
     T00940002=
