SAUS80 KWBC 212246
METAR
K9V9 212235Z AUTO 16010KT 10SM CLR 20/01 A2956 RMK AO2
     T02000011=
KCBE 212235Z AUTO 00000KT 10SM CLR 15/M01 A3009 RMK AO2
     T01541009=
KNY0 212234Z AUTO 15006KT 10SM CLR 09/M02 A3005 RMK AO2=
KSFY 212242Z AUTO 19006KT 10SM CLR 23/03 A2962 RMK AO2=
KROS 212243Z AUTO 25003KT 10SM CLR 18/04 A2959 RMK AO2=
