SAUS70 KWBC 220238 RRA
METAR
KL08 220235Z AUTO 33005KT 10SM CLR 24/09 A2977 RMK AO2=
KL35 220235Z AUTO 00000KT 10SM CLR 08/02 A3011 RMK AO2=
KL52 220235Z AUTO 00000KT 7SM SCT012 14/13 A2989 RMK A01=
KLBE 220235Z AUTO 00000KT 10SM CLR 05/02 A3009 RMK AO2=
KLKR 220235Z AUTO 00000KT 10SM FEW043 BKN060 06/03 A3016 RMK
     AO2=
KLKU 220235Z AUTO 14005KT 10SM CLR 04/03 A3017 RMK AO2
     T00420026=
KLNP 220235Z AUTO 18005KT 10SM CLR 09/00 A3014 RMK AO2=
KLRO 220235Z AUTO 00000KT 10SM CLR 10/10 A3015 RMK AO2=
KLRU 220235Z AUTO 23004KT 10SM CLR 20/06 A3000 RMK AO2
     T01950061=
KLRY 220235Z AUTO 20006KT 10SM CLR 22/03 A2971 RMK AO2=
KLVL 220235Z AUTO 00000KT 10SM CLR 09/05 A3019 RMK AO1
     T00860048=
KLWA 220235Z AUTO 20008G15KT 10SM CLR 19/02 A2978 RMK AO2
     T01880023=
KM40 220235Z AUTO 15007KT 10SM CLR 19/13 A3004 RMK AO2=
KMAN 220235Z AUTO 14006KT 10SM CLR 17/04 A2957 RMK A01=
KMAO 220235Z AUTO 00000KT 10SM CLR 07/05 A3016 RMK AO2=
KMBO 220235Z AUTO VRB06KT 10SM CLR 19/13 A3002 RMK AO2=
KMDS 220235Z AUTO 14005KT 10SM CLR 11/M00 A2958 RMK AO2=
KMEZ 220235Z AUTO VRB03KT 10SM 23/09 A2989 RMK AO2 T02310088 $=
KMKJ 220235Z AUTO 00000KT 10SM CLR 05/M01 A3018 RMK AO2
     T00481007=
KMTV 220235Z AUTO 00000KT 10SM CLR 03/02 A3020 RMK AO2
     T00300015=
KN38 220235Z AUTO 19010KT 10SM CLR 08/M02 A3008 RMK AO2=
KO22 220235Z AUTO 00000KT 10SM CLR 18/04 A2986 RMK A01=
KO32 220235Z AUTO 00000KT 9SM CLR 22/12 A2975 RMK AO2 T02180116
     $=
KOCQ 220235Z AUTO 00000KT 10SM CLR 07/05 A2964 RMK AO1
     T00690050=
KOEO 220235Z AUTO 00000KT 10SM CLR 07/04 A2965 RMK AO2
     T00740041=
KOKV 220235Z AUTO 00000KT 10SM CLR 04/00 A3013 RMK AO2=
KOLG 220235Z AUTO 00000KT 10SM CLR 04/00 A2963 RMK AO1=
KOLV 220235Z AUTO 17008KT 10SM CLR 20/09 A2993 RMK A01=
KONM 220235Z AUTO 00000KT 10SM CLR 17/06 A2996 RMK AO2
     T01680059=
KORS 220235Z AUTO 00000KT 10SM OVC075 09/ A2968 RMK AO2=
KOZS 220235Z AUTO 18010KT 10SM CLR 20/01 A2978 RMK AO2=
KPAN 220235Z AUTO 00000KT 10SM CLR 15/05 A3005 RMK AO2 PWINO
     TSNO=
KPCM 220235Z AUTO 00000KT 10SM CLR 16/07 A3011 RMK AO2=
KPGV 220235Z AUTO 00000KT 10SM BKN045 BKN065 10/10 A3018 RMK
     AO2=
KPLR 220235Z AUTO 00000KT 10SM SCT033 BKN041 BKN049 08/06 A3011
     RMK A01=
KPNM 220235Z AUTO 00000KT 10SM CLR 08/03 A2963 RMK AO2 TSNO=
KPVF 220235Z AUTO 14004KT 10SM CLR 18/04 A2988 RMK AO1=
KRCE 220235Z AUTO 17012KT 10SM CLR 21/03 A2970 RMK AO2=
KRMN 220235Z AUTO 00000KT 10SM CLR 08/06 A3021 RMK AO2
     T00800055=
KRNH 220235Z AUTO 00000KT 10SM CLR 08/05 A2963 RMK AO2
     T00790049=
KRPH 220235Z AUTO VRB04KT 9SM CLR 24/04 A2977 RMK AO2 T02430043
     $=
KRUG 220235Z AUTO 02004KT 7SM OVC042 06/06 A2956 RMK AO2=
KRVL 220235Z AUTO 00000KT 10SM CLR 05/01 A3013 RMK AO2=
KRYV 220235Z AUTO 00000KT 10SM CLR 07/03 A2969 RMK AO2
     T00690031=
KRZL 220235Z AUTO 18011G15KT 10SM CLR 16/02 A2983 RMK AO2=
KRZN 220235Z AUTO 00000KT 10SM CLR 05/01 A2963 RMK AO2
     T00460008=
KS25 220235Z AUTO 01005KT 10SM FEW033 SCT050 BKN065 06/06 A2957
     RMK AO2=
KS32 220235Z AUTO 00000KT 10SM FEW039 BKN060 OVC075 09/M00 A2956
     RMK AO2 TSNO=
KSCR 220235Z AUTO 00000KT 10SM CLR 04/04 A3017 RMK AO2
     T00420036=
KSIK 220235Z AUTO 00000KT 10SM CLR 17/09 A2990 RMK AO2=
KSJX 220235Z AUTO 28004KT 10SM CLR 09/08 A2966 RMK AO2
     T00920079=
KSPF 220235Z AUTO 00000KT 10SM CLR 11/M04 A2952 RMK AO2=
KSTF 220235Z AUTO 16007KT 10SM CLR 18/13 A3001 RMK AO2=
KSUZ 220235Z AUTO 00000KT 10SM FEW038 16/10 A2989 RMK A01=
KT69 220235Z AUTO 18006KT 10SM CLR 21/16 A2998 RMK A01=
KTKX 220235Z AUTO 18005KT 7SM CLR 15/10 A2988 RMK AO2 TSNO=
