SAUS70 KWBC 212300 RRO
METAR
KBJI 212255Z AUTO 00000KT 10SM CLR 13/01 A2956 RMK AO2
     T01250006=
KOWX 212255Z AUTO 21012KT 10SM CLR 20/M02 A2987 RMK AO1=
KNFE 212256Z AUTO 00000KT 10SM CLR 13/07 A3014 RMK AO2 SLP207
     T01280072=
KNSE 212256Z 18008KT 10SM CLR 19/07 A3007 RMK AO2 SLP170 T01890067
     $=
TISX 212253Z 05006KT 10SM SCT023 28/23 A2989 RMK AO2 SLP121
     T02780228 $=
K33V 212255Z AUTO 24016G23KT 10SM CLR 11/M11 A2994 RMK AO1=
K5C1 212255Z AUTO 20010G14KT 10SM CLR 26/07 A2994 RMK AO1=
K66R 212255Z AUTO 17010G15KT 10SM CLR 27/14 A2994 RMK AO2
     T02660137=
K6P9 212255Z AUTO 19012G15KT 10SM CLR 30/04 A2983 RMK AO2
     T03000039=
K74V 212255Z AUTO 28018G23KT 10SM 23/M11 A2984 RMK AO2=
KAJZ 212255Z AUTO 21003KT 10SM CLR 24/M07 A2990 RMK AO2 T02371073
     PWINO=
KBBD 212255Z AUTO 19013KT 10SM CLR 29/01 A2987 RMK AO2=
KBVS 212255Z AUTO 17005KT 10SM OVC022 10/09 A2975 RMK A01=
KBYY 212255Z AUTO 19013KT 10SM CLR 25/14 A2998 RMK AO2
     T02490147=
KCOM 212255Z AUTO 21009KT CLR 31/02 A2984 RMK AO2 T03070015
     PWINO=
KDKB 212255Z AUTO 20009KT 10SM CLR 19/06 A2968 RMK AO2
     T01890063=
KE16 212255Z AUTO 18009KT 10SM CLR 23/09 A2985 RMK AO2 PWINO
     PNO=
KECU 212255Z AUTO 16009G15KT 10SM CLR 25/09 A3000 RMK AO2=
KGOP 212255Z AUTO 10SM CLR 30/07 A2987 RMK AO2=
KGVT 212255Z AUTO 17009KT 10SM CLR 29/09 A2982 RMK AO2 TSNO
     T02930086=
KHII 212255Z AUTO 21006KT 10SM CLR 33/04 A2978 RMK AO2=
KLAM 212255Z AUTO 29009KT 10SM CLR 17/M06 A3006 RMK AO2
     T01701060=
K04V 212255Z AUTO 28011G17KT 10SM CLR 18/M09 A3000 RMK AO2=
KASL 212255Z AUTO 00000KT 10SM CLR 28/11 A2985 RMK AO2 T02790105
     TSNO $=
KBDG 212255Z AUTO 20011G18KT 10SM 19/M03 A3006 RMK AO1
     T01941032=
KCCU 212255Z AUTO 23010G20KT 200V260 10SM CLR 07/M13 A3018 RMK
     AO2=
KCPW 212255Z AUTO 22019G29KT 10SM SCT120 05/M06 A3029 RMK AO2=
KE41 212255Z AUTO 19011G17KT 10SM CLR 27/08 A2991 RMK AO2
     T02690083=
KEBG 212255Z AUTO 16008KT 10SM CLR 29/15 A2993 RMK AO2 T02910145
     PWINO=
KGCD 212255Z AUTO 26003KT 10SM -RA OVC065 14/04 A2972 RMK AO2
     T01370044=
KPLU 212255Z AUTO 00000KT 10SM -DZ CLR 09/08 A2975 RMK AO2=
KPNA 212255Z AUTO 28014G20KT 10SM CLR 14/M07 A2982 RMK AO2=
KPOY 212255Z AUTO 27015G27KT 10SM CLR 18/M07 A2954 RMK AO2=
KRCV 212255Z AUTO 25013G20KT 10SM CLR 18/M05 A2999 RMK AO2
     T01781052=
KSAA 212255Z AUTO 23019G27KT 10SM CLR 17/M12 A2985 RMK AO2=
KSBS 212255Z AUTO 25012G22KT 10SM CLR 17/M09 A2988 RMK AO1
     T01701091=
KT35 212255Z AUTO 18011KT 10SM CLR 29/10 A2989 RMK AO2
     T02870100=
KTEX 212255Z AUTO 27006KT 10SM CLR 13/M13 A3013 RMK AO2=
KUKI 212256Z AUTO 29005G14KT 10SM CLR 27/09 A2980 RMK AO2 SLP084
     T02670089=
KBRO 212253Z 14014KT 10SM CLR 27/17 A2996 RMK AO2 SLP144
     T02670167=
KPHL 212254Z 18004KT 10SM CLR 14/02 A3014 RMK AO2 SLP204
     T01390022=
TISX 212253Z 05006KT 10SM SCT023 28/23 A2989 RMK AO2 SLP121
     T02780228 $=
KNSE 212256Z 18008KT 10SM CLR 19/07 A3007 RMK AO2 SLP170 T01890067
     $=
KOAR 212255Z AUTO 28012KT 10SM OVC009 05/01 A2990 RMK AO2
     PWINO=
KOSC 212255Z AUTO 19008KT 10SM CLR 16/05 A2965 RMK AO2
     T01560045=
KSGH 212256Z AUTO 19005KT 10SM CLR 17/01 A2994 RMK AO2 SLP142
     T01670006=
K06C 212255Z AUTO 19007KT 10SM CLR 22/08 A2967 RMK AO2
     T02150081=
K2G9 212255Z AUTO 16006KT 10SM CLR 10/M02 A3006 RMK AO2=
KAAA 212255Z AUTO 19009KT 10SM CLR 23/05 A2974 RMK AO2
     T02270050=
KAJG 212255Z AUTO 20009KT 10SM CLR 21/01 A2987 RMK AO2
     T02140012=
KAWG 212255Z AUTO 21009KT 10SM CLR 24/04 A2960 RMK AO2=
KAXA 212255Z AUTO 00000KT 6SM HZ CLR 19/03 A2961 RMK A01=
