SAPA31 KWBC 220000
METAR
AGGG NIL=
AGGH NIL=
ANAU NIL=
AYPY NIL=
PGNT NIL=
PGRO 212350Z 09012KT 7SM SCT014 BKN120 28/24 A2987=
PGSN 212354Z COR 08013KT 10SM FEW022 SCT048CB BKN060 31/25 A2991
     RMK AO2 VCSH S N-SE CB N-SE MOV W RAB31E43 SLP151 P0000 60000
     T03060250 10311 20272 51015=
PGSN 212354Z 08013KT 10SM FEW022 SCT048CB BKN060 31/25 A2991 RMK
     AO2 RAB31E43 SLP151 P0000 60000 T03060250 10311 20272
     51015=
PGUA 212355Z AUTO 12013KT 10SM BKN018 29/24 A2990 RMK AO2 CIG 016
     RWY24L SLP115 T02870238 10287 20255 51013 $=
PGUM NIL=
PGWT 212358Z 09012KT 7SM VCSH FEW010 SCT015 SCT035 BKN060 BKN100
     29/25 RMK VCSH N AND NE AND W-NW=
PHJH NIL=
PHJR 212353Z 14007KT 10SM CLR 29/22 A2999 RMK AO2 SLP160 60000
     T02940217 10306 20239 58019=
PHMK 212354Z 02007KT 10SM FEW042 28/21 A2999 RMK AO2 SLP155
     T02830211 10306 20256 58020=
PJON NIL=
PKMJ NIL=
PKMR 212354Z 11007KT 14SM -RA SCT014 BKN045 BKN110 OVC130 25/23
     A2982 RMK SHRAE14RAB14 SLP098 60043 8/87/ T02540226 10277
     20235 50002=
PKWA 220000Z AUTO 09009KT 10SM CLR 30/25 A2980 RMK AO2
     T03040247=
PLCH 220000Z 11010KT 9999 FEW020 29/20 Q1009 RMK DRY AIR RH 59=
PMDY 212356Z AUTO 34012G20KT 10SM BKN019 OVC025 24/21 A3001 RMK
     AO2 RAE11 SLP163 P0000 60000 T02440206 10261 20228 58021
     TSNO=
PTKK 212350Z VRB05KT 15SM FEW014 BKN280 30/26 A2983 RMK SLP105
     8/101 T03000255 10300 20271 50003=
PTKR NIL=
PTPN NIL=
PTRO NIL=
PTSA NIL=
PTTP 212351Z 04004KT 15SM SCT018TCU BKN130 OVC300 32/26 A2986 RMK
     TCU N AND E SLP112 8/271 T03180260 10318 20240 50002=
PTYA 212350Z VRB03KT 12SM FEW016 BKN300 30/26 A2982 RMK SLP100
     8/101 T02960261 10296 20250 50010=
PWAK 212355Z AUTO 06014KT 9999 CLR 31/23 A2991 RMK AO2 SLP135
     T03080234 10309 20277 58011 $=
