SACA35 KWBC 220100 RRA
METAR
MRLB 220100Z 17005KT 9999 -DZ SCT020 BKN100 24/24 A2984=
