SACA41 KWBC 220000
METAR
MKBK NIL=
MUBA NIL=
MUBY NIL=
MUCA NIL=
MUCL NIL=
MUCM 212350Z 36003KT 9000 SCT020 24/23 Q1014=
MUCU 212350Z VRB02KT 9000 FEW020 SCT100 27/24 Q1012=
MUGM 212351Z 33007KT 10SM FEW025 SCT150 BKN180 28/24 A2991 RMK AO2
     SLP128 T02830244 10306 20283 53010 $=
MUGT NIL=
MUHA 212350Z 01007KT 9000 FEW030 23/16 Q1015=
MUMO NIL=
MUMZ NIL=
MUNG NIL=
MUVR 212350Z 35004KT 9000 FEW025 SCT050 22/17 Q1015=
MUVT NIL=
MYEF NIL=
TABS NIL=
TAOA NIL=
TBBI NIL=
TDCF NIL=
