SAUS70 KWBC 220200 RRX
METAR
KTFP 220155Z AUTO 18007KT 10SM CLR 23/17 A2998 RMK AO2
     T02290167=
