SAUS70 KWBC 220000 RRH
METAR
K4A9 212355Z AUTO 00000KT 10SM CLR 12/05 A3008 RMK AO2 T01150050
     10208 20115 402081014=
K57C 212355Z AUTO 20005KT 10SM CLR 19/05 A2965 RMK AO2 T01900045
     10240 20190=
K5M9 212355Z AUTO 17004KT 10SM CLR 19/06 A2990 RMK AO2 T01900060
     10240 20190=
K5SM 212355Z AUTO 24009G19KT 10SM CLR 05/M11 A3015 RMK AO2=
K7BM 212355Z AUTO 26011G23KT 220V280 10SM CLR 11/M14 A3005 RMK
     AO2=
K81R 212355Z AUTO 18008KT 10SM CLR 27/07 A2987 RMK AO2 T02690073
     10310 20267 403100103=
K9A5 212355Z AUTO 00000KT 10SM CLR 10/05 A3009 RMK AO2 T01030050
     10204 20103=
KAHQ 212355Z AUTO 15004KT 7SM CLR 18/00 A2958 RMK AO2 T01750000
     10265 20175=
KAND 212356Z AUTO 00000KT 10SM CLR 12/02 A3011 RMK AO2 SLP197
     T01220022 10211 20122 53008=
KASL 212355Z AUTO 00000KT 9SM CLR 24/11 A2986 RMK AO2 T02400112
     TSNO $=
KAUH 212355Z AUTO 00000KT 10SM CLR 18/M01 A2960 RMK AO2 T01841006
     10255 20184=
KBBB 212357Z AUTO 00000KT 10SM CLR 12/01 A2961 RMK AO2=
KBGE 212355Z AUTO 00000KT 10SM CLR 15/04 A3010 RMK AO2 T01460035
     10227 20144 402270028=
KBIE 212355Z AUTO 00000KT 10SM CLR 19/01 A2958 RMK AO2 T01850010
     10275 20185=
KBPG 212355Z AUTO 20009KT 10SM CLR 26/05 A2985 RMK AO2 T02580047
     10287 20253 402870088=
KBVN 212355Z AUTO 00000KT 7SM CLR 17/M01 A2960 RMK AO2 T01701014
     10245 20170=
KC07 212355Z AUTO 28007KT 220V320 10SM CLR 06/M08 A3007 RMK
     AO2=
KC35 212355Z AUTO 00000KT 10SM CLR 16/03 A2962 RMK AO2 T01630033
     10238 20163 PWINO=
KCKV 212352Z AUTO 15005KT 10SM CLR 19/06 A2994 RMK AO2 SLP136
     T01890056 10256 20189 53001=
KFFZ 212354Z 22005KT 10SM CLR 30/09 A2980 RMK AO2 SLP070 T03000094
     10306 20272 58015=
KHPN 212356Z 18005KT 10SM CLR 11/02 A3014 RMK AO2 SLP210 T01110022
     10167 20083 53013 $=
KISP 212356Z 00000KT 10SM CLR 12/07 A3015 RMK AO2 SLP210 T01170072
     10178 20117 52010=
KROG 212358Z 10SM CLR 22/04 A2981 RMK AO2 SLP089 T02170039 10283
     20217 55002 $=
PAWG 212356Z VRB03KT 10SM FEW009 BKN036 BKN060 08/07 A2974=
K0F2 212355Z AUTO 18009KT 10SM CLR 28/03 A2976 RMK AO2 60001
     T02800025 10331 20280=
K5T9 212355Z AUTO 13005KT 10SM CLR 24/13 A2988 RMK A01=
K82V 212355Z AUTO 25005KT 10SM CLR 17/M11 A2969 RMK AO2=
KAVQ 212355Z AUTO 26008KT 10SM CLR 32/05 A2983 RMK AO2
     T03220045=
KAXH 212355Z AUTO 19004KT 10SM CLR 24/15 A2998 RMK AO2 T02350146
     10298 20235=
KBAM 212355Z AUTO 24016G21KT 10SM CLR 24/M07 A2982 RMK AO1=
KBDN 212355Z AUTO 22021G27KT 6SM HZ CLR 16/07 A2969 RMK AO2=
KBKD 212355Z AUTO 19008KT 7SM CLR 30/03 A2978 RMK AO2 T02990025
     10335 20299=
KC83 212355Z AUTO 26012G17KT 10SM CLR 26/08 A2979 RMK AO2=
KCXP 212355Z AUTO 21011G20KT 10SM CLR 23/M05 A2992 RMK AO2=
KDTA 212355Z AUTO 19012KT 10SM CLR 23/M10 A2983 RMK AO1=
KFLY 212355Z AUTO 21003KT 10SM CLR 19/M09 A2984 RMK AO2 T01861095
     10216 20176=
KMVH 212355Z AUTO 31009KT 6SM BR 07/06 A2957 RMK AO2 P0003
     PWINO=
KPKV 212355Z AUTO 18008KT 10SM CLR 25/15 A2997 RMK AO2 T02480147
     10295 20248=
KU68 212355Z AUTO 08004KT 10SM BKN120 20/M04 A2949 RMK AO2=
KVAF 212355Z AUTO 16016KT 10SM FEW044 24/13 A3002 RMK A01=
KVCV 212355Z AUTO 00000KT 10SM CLR 28/M06 A2990 RMK AO2=
K1V6 212355Z AUTO 27014KT 10SM CLR 23/M10 A2975 RMK AO2=
K46U 212355Z AUTO 27004G14KT 10SM BKN100 17/M06 A2975 RMK A01=
K4V0 212355Z AUTO 24012G16KT 10SM CLR 21/M09 A2982 RMK AO2
     T02061088 10232 20153=
KECS 212355Z AUTO 33010KT 10SM CLR 19/M10 A2952 RMK AO2=
KERV 212355Z AUTO 18006KT 10SM CLR 24/08 A2994 RMK AO2 T02440082
     10281 20244=
KF44 212355Z AUTO 20004KT 10SM CLR 26/11 A2986 RMK AO2=
