SAUS70 KWBC 220122 RRB
METAR
KCNC 220115Z AUTO 15005KT 10SM CLR 18/03 A2962 RMK AO2=
KDKB 220115Z AUTO 18008KT 10SM CLR 12/05 A2973 RMK AO2
     T01150051=
KDNS 220115Z AUTO RMK AO2 PNO PWINO=
KDNV 220115Z AUTO 19010G18KT 10SM CLR 19/03 A2984 RMK AO2
     T01870025=
KFEP 220115Z AUTO 19009KT 10SM CLR 18/06 A2969 RMK AO2
     T01750062=
KFFL 220115Z AUTO 16006KT 10SM CLR 19/01 A2966 RMK A01=
KFKR 220115Z AUTO 17008KT 10SM BKN028 BKN038 15/02 A2987 RMK
     AO2=
KGBG 220115Z AUTO 15004KT 10SM CLR 17/05 A2970 RMK AO2
     T01720048=
KGDB 220115Z AUTO 09004KT 10SM CLR 11/02 A2962 RMK AO2
     T01050016=
KGGF 220115Z AUTO 19011KT 10SM CLR 16/M05 A2961 RMK AO2=
KGGP 220115Z AUTO 19009KT 10SM CLR 15/02 A2986 RMK AO2=
KGHG 220115Z AUTO 21004KT 10SM CLR 11/06 A3017 RMK AO2=
KHNR 220115Z AUTO 00000KT 10SM CLR 10/01 A2959 RMK A01=
KJYG 220117Z AUTO 12003KT 5SM HZ CLR 08/02 A2963 RMK AO2=
KMJQ 220115Z AUTO 08005KT 10SM CLR 09/01 A2964 RMK AO2=
KPHN 220115Z AUTO 19007KT 10SM CLR 11/03 A2982 RMK AO2=
KUMP 220115Z AUTO 00000KT 10SM CLR 16/03 A2991 RMK AO2
     T01600030=
KBPG 220115Z AUTO 18009KT 10SM CLR 22/06 A2985 RMK AO2
     T02210062=
KC07 220115Z AUTO 26006KT 10SM CLR 04/M08 A3007 RMK AO2=
KCFD 220115Z AUTO 17007KT 10SM CLR 25/12 A2995 RMK AO2
     T02450115=
KCOM 220115Z AUTO 20006KT 10SM CLR 24/03 A2986 RMK AO2
     T02420026=
KCPW 220115Z AUTO 22024G37KT 10SM CLR 00/M07 A3024 RMK AO2=
KDKB 220115Z AUTO 18008KT 10SM CLR 12/05 A2973 RMK AO2
     T01150051=
KE41 220115Z AUTO 18008KT 10SM CLR 21/09 A2992 RMK AO2
     T02120092=
KE42 220115Z AUTO 20009KT 10SM CLR 19/M04 A2968 RMK AO2
     T01871040=
KEBG 220115Z AUTO 14009KT 10SM CLR 24/17 A2997 RMK AO2 T02360168
     PWINO=
KELA 220115Z AUTO 18007KT 10SM CLR 22/15 A2998 RMK AO2
     T02210145=
KEMM 220115Z AUTO 10SM CLR 11/M12 A2986 RMK AO2=
KF00 220115Z AUTO 16008KT 10SM CLR 23/08 A2983 RMK AO2
     T02310084=
KGOP 220115Z AUTO 10SM CLR 23/08 A2990 RMK AO2=
KJDD 220115Z AUTO 17006KT 10SM CLR 24/11 A2987 RMK AO2=
KLUD 220115Z AUTO 17008KT 7SM CLR 26/03 A2981 RMK AO2
     T02600031=
KRAS 220115Z AUTO 15012KT 10SM CLR A3000 RMK AO2=
KS33 220115Z AUTO 04010KT 10SM -RA SCT005 BKN035 OVC049 09/08
     A2967 RMK AO2=
KSAA 220115Z AUTO 21010KT 10SM CLR 12/M11 A2984 RMK AO2=
KSTK 220115Z AUTO 00000KT 5SM HZ CLR 15/M03 A2964 RMK AO2=
KT74 220115Z AUTO 16006KT 10SM CLR 22/10 A2992 RMK AO2
     T02160100=
KTEX 220115Z AUTO 00000KT 10SM CLR 09/M10 A3012 RMK AO2=
KVHN 220115Z AUTO 25006KT 10SM CLR 22/07 A3001 RMK AO2
     T02170069=
KVTP 220115Z AUTO 24014G22KT 10SM CLR 06/M10 A3006 RMK AO2=
K0CO 220115Z AUTO 32018G28KT 10SM CLR M01/M12 A3012 RMK AO2=
K33V 220115Z AUTO 25010KT 10SM CLR 08/M10 A2993 RMK AO1=
K66R 220115Z AUTO 17009KT 10SM CLR 22/15 A2999 RMK AO2
     T02220147=
K74V 220115Z AUTO 28004KT 10SM 14/M08 A2983 RMK AO2=
KAJZ 220115Z AUTO 21006KT 10SM CLR 17/M04 A2988 RMK AO2 T01701037
     PWINO=
KAQO 220115Z AUTO 17004KT 10SM CLR 23/07 A2990 RMK AO2=
KAUN 220115Z AUTO 15003KT 9SM CLR 23/07 A2981 RMK A01=
KBBD 220115Z AUTO 18010G15KT 10SM CLR 23/05 A2989 RMK AO2=
KBDG 220115Z AUTO 00000KT 10SM 15/M03 A3003 RMK AO1 T01471032=
KBVS 220115Z AUTO 10SM OVC016 09/09 A2972 RMK A01=
KBYY 220115Z AUTO 16005KT 10SM SCT042 18/14 A3001 RMK AO2
     T01940147=
KDKR 220115Z AUTO 16005KT 10SM CLR 23/09 A2993 RMK AO2=
KDVO 220115Z AUTO VRB04G10KT 10SM CLR 17/11 A2983 RMK AO2=
KE11 220115Z AUTO 22005KT 10SM CLR 22/05 A2989 RMK AO2
     T02200052=
KE16 220115Z AUTO 13013KT 10SM CLR 15/10 A2987 RMK AO2 PWINO
     PNO=
KECU 220115Z AUTO 16007KT 10SM CLR 19/09 A3001 RMK AO2=
