SAUS70 KWBC 220110
METAR
K1A5 220115Z AUTO 00000KT 10SM CLR 07/00 A3018 RMK AO2
     T00700004=
KEFT 220115Z AUTO 21012KT 10SM CLR 17/03 A2965 RMK AO2
     T01670027=
KHNZ 220115Z AUTO 00000KT 10SM CLR 07/05 A3015 RMK AO2
     T00690051=
KJXI 220115Z AUTO 00000KT 10SM CLR 23/10 A2988 RMK AO2
     T02250095=
KPDC 220115Z AUTO 00000KT 10SM CLR 12/03 A2963 RMK AO2
     T01190034=
KW31 220115Z AUTO 00000KT 10SM CLR 07/05 A3015 RMK AO1
     T00690045=
KW96 220115Z AUTO 00000KT 10SM CLR 08/05 A3016 RMK AO1
     T00810047=
KGZN 220040Z AUTO 17007KT 10SM CLR 24/02 A2981 RMK AO2=
KTFP 220035Z AUTO 18008KT 10SM CLR 23/16 A2997 RMK AO2
     T02250163=
KBNL 220115Z AUTO 00000KT 10SM CLR 09/03 A3013 RMK AO2=
KC62 220135Z AUTO 20007KT 10SM CLR 16/03 A2985 RMK AO2
     T01600038=
KETB 220115Z AUTO 00000KT 10SM CLR 12/03 A2966 RMK AO2=
KLHZ 220115Z AUTO 00000KT 10SM CLR 06/03 A3017 RMK AO2=
KRRL 220115Z AUTO 00000KT 10SM CLR 08/03 A2964 RMK AO2 T00780028
     TSNO=
KUNU 220115Z AUTO 00000KT 10SM CLR 15/04 A2967 RMK AO2
     T01480043=
