SAUS70 KWBC 212322 RRC
METAR
K11R 212315Z AUTO 19008KT 10SM CLR 28/12 A2992 RMK AO2
     T02840115=
K66R 212315Z AUTO 17009G16KT 10SM CLR 26/14 A2995 RMK AO2
     T02600137=
K74V 212315Z AUTO 28014G23KT 10SM 22/M10 A2983 RMK AO2=
KAQO 212315Z AUTO 19010G16KT 10SM CLR 29/05 A2988 RMK AO2=
KAUN 212315Z AUTO 22007KT 10SM CLR 26/07 A2984 RMK A01=
KBBD 212315Z AUTO 19013G19KT 10SM CLR 28/02 A2987 RMK AO2=
KBDG 212315Z AUTO 18009G19KT 10SM 19/M03 A3005 RMK AO1
     T01921034=
KBVS 212315Z AUTO 00000KT 10SM BKN021 OVC026 10/09 A2974 RMK
     A01=
KBYY 212315Z AUTO 19010KT 10SM SCT043 23/14 A2998 RMK AO2
     T02420145=
KCCU 212315Z AUTO 24015G24KT 10SM CLR 07/M13 A3017 RMK AO2=
KCOM 212315Z AUTO 21012G21KT 10SM CLR 30/01 A2984 RMK AO2
     T03010012 PWINO=
KCPW 212315Z AUTO 22020G33KT 10SM SCT100 BKN120 05/M06 A3028 RMK
     AO2=
KDKB 212315Z AUTO 19009KT 10SM CLR 17/06 A2969 RMK AO2
     T01740061=
KDVO 212315Z AUTO 00000KT 10SM CLR 21/11 A2984 RMK AO2=
KE16 212315Z AUTO 18011KT 10SM CLR 22/09 A2986 RMK AO2 PWINO
     PNO=
KE41 212315Z AUTO 19010KT 10SM CLR 26/09 A2991 RMK AO2
     T02630088=
KECU 212315Z AUTO 16011KT 10SM CLR 24/08 A3000 RMK AO2=
KGCD 212315Z AUTO 22010KT 10SM SCT065 BKN070 OVC100 14/03 A2971
     RMK AO2 T01430033=
KGVT 212315Z AUTO 17013KT 10SM CLR 28/08 A2982 RMK AO2 TSNO
     T02850077=
KHII 212315Z AUTO 00000KT 10SM CLR 32/04 A2978 RMK AO2=
KLAM 212315Z AUTO 28010KT 10SM CLR 17/M06 A3005 RMK AO2
     T01681057=
KPLU 212315Z AUTO 00000KT 7SM -DZ FEW055 09/08 A2974 RMK AO2=
K5C1 212315Z AUTO 20007KT 10SM CLR 25/07 A2994 RMK AO1=
K6P9 212315Z AUTO 20008G16KT 10SM CLR 29/03 A2982 RMK AO2
     T02910028=
KAFO 212315Z AUTO 22010KT 10SM SCT100 16/M11 A2981 RMK AO2=
KAXX 212315Z AUTO 26021G30KT 10SM CLR 13/M06 A3005 RMK AO2
     T01321059=
KBMT 212315Z AUTO 18010G14KT 10SM CLR 24/15 A2998 RMK AO2
     T02370150=
KCZT 212315Z AUTO 19004KT 10SM CLR 27/10 A2990 RMK AO2=
KDKR 212315Z AUTO 17007KT 10SM CLR 27/09 A2989 RMK AO2=
KDUX 212315Z AUTO 21009KT 10SM CLR 27/M05 A2973 RMK AO2
     T02651048=
KE38 212315Z AUTO 27010G14KT 10SM CLR 25/04 A3007 RMK AO2
     T02540043=
KETN 212315Z AUTO 18011G18KT 10SM CLR 29/03 A2981 RMK AO2
     T02930033=
KFMM 212315Z AUTO 24007KT 10SM CLR 24/M08 A2968 RMK AO2=
KFWZ 212315Z AUTO 24016G28KT 10SM CLR 12/M09 A2980 RMK AO2=
KHCR 212315Z AUTO 21009G21KT 10SM CLR 20/M10 A2985 RMK AO2=
KHVE 212315Z AUTO 18011G15KT 10SM CLR 25/M05 A2985 RMK AO2=
KJAS 212315Z AUTO 20008KT 9SM CLR 25/12 A2993 RMK AO2=
KLLN 212315Z AUTO 26015G21KT 10SM CLR 26/M00 A2984 RMK AO2=
KLMO 212315Z AUTO 25012G20KT 7SM CLR 25/M09 A2971 RMK AO2
     T02501089=
KNOW 212315Z AUTO 30010KT 5SM RA OVC020 09/09 A2975 RMK AO2 P0001
     T00930089=
KPPA 212315Z AUTO 24008G11KT 10SM CLR 28/01 A2973 RMK AO2
     T02800005=
KRBO 212315Z AUTO 10SM CLR 26/16 A2995 RMK AO2 T02560155=
KT20 212315Z AUTO 18011G15KT 10SM CLR 29/10 A2991 RMK AO2
     T02850102=
KTMK 212315Z AUTO 06005KT 2SM BR SCT006 OVC010 11/10 A2973 RMK
     AO2=
KXBP 212315Z AUTO 20013G17KT 10SM CLR 31/02 A2979 RMK AO2
     T03100023=
KBJI 212315Z AUTO 00000KT 10SM CLR 12/01 A2957 RMK AO2
     T01200005=
KDKB 212315Z AUTO 19009KT 10SM CLR 17/06 A2969 RMK AO2
     T01740061=
KDMW 212315Z AUTO 15004KT 10SM CLR 14/00 A3012 RMK AO2=
KDNV 212315Z AUTO 19009G17KT 10SM CLR 21/02 A2980 RMK AO2
     T02060020=
KFEP 212315Z AUTO 21008KT 10SM CLR 20/06 A2965 RMK AO2
     T01950060=
KFKR 212315Z AUTO 19008KT 10SM CLR 18/03 A2983 RMK AO2=
KFXY 212315Z AUTO 00000KT 10SM CLR 15/03 A2962 RMK AO2=
KGGP 212315Z AUTO 19009KT 10SM CLR 17/02 A2983 RMK AO2=
