SAUS70 KWBC 212320 RRI
METAR
KOLZ 212315Z AUTO 22003KT 3SM HZ CLR 19/01 A2962 RMK A01=
KONL 212315Z AUTO 09005KT 7SM CLR 18/00 A2961 RMK AO2
     T01790000=
KOOA 212315Z AUTO 20008KT 7SM CLR 23/08 A2961 RMK AO2
     T02280081=
KOPL 212315Z AUTO 21010KT 10SM CLR 24/13 A3000 RMK AO2
     T02380128=
KOPN 212315Z AUTO 00000KT 10SM CLR 15/03 A3011 RMK AO2=
KOQN 212315Z AUTO 00000KT 10SM CLR 12/01 A3014 RMK AO2=
KOWP 212315Z AUTO 19007KT 10SM CLR 31/00 A2972 RMK AO2
     T03110000=
KPBX 212315Z AUTO 13004KT 10SM CLR 16/00 A3004 RMK AO2
     T01620004=
KPEA 212315Z AUTO 00000KT 10SM CLR 23/03 A2960 RMK AO2
     T02260032=
KPIM 212315Z AUTO 00000KT 10SM CLR 14/05 A3009 RMK AO2
     T01380048=
KPLU 212315Z AUTO 00000KT 7SM -DZ FEW055 09/08 A2974 RMK AO2=
KPMU 212315Z AUTO 17007KT 10SM CLR 24/09 A2991 RMK AO2=
KPNA 212315Z AUTO 28013G16KT 10SM CLR 13/M07 A2982 RMK AO2=
KPNT 212315Z AUTO 19013KT 10SM CLR 21/08 A2973 RMK AO2
     T02060075=
KPOY 212315Z AUTO 27019G24KT 10SM CLR 18/M07 A2953 RMK AO2=
KPPQ 212315Z AUTO 16006KT 10SM CLR 21/04 A2973 RMK AO2
     T02140035=
KRCV 212315Z AUTO 24012G16KT 10SM CLR 16/M05 A2999 RMK AO2
     T01631053=
KRDK 212315Z AUTO 00000KT CLR 19/02 A2958 RMK AO2=
KREG 212315Z AUTO 21006KT 10SM CLR 24/14 A3002 RMK AO2
     T02400135=
KRQO 212315Z AUTO 19015KT CLR 29/02 A2971 RMK AO2 PWINO
     T02900019=
KSBO 212315Z AUTO 00000KT 10SM CLR 12/05 A3011 RMK AO2=
KSBS 212315Z AUTO 25017G22KT 10SM CLR 17/M09 A2988 RMK AO1
     T01671088=
KSDA 212315Z AUTO 05003KT 7SM CLR 23/00 A2956 RMK AO2=
KSEF 212315Z AUTO 34006KT 10SM CLR 20/11 A3001 RMK AO2=
KSHL 212315Z AUTO 8SM CLR 18/01 A2959 RMK AO2=
KSJS 212315Z AUTO 15003KT 10SM CLR 15/01 A3004 RMK AO2
     T01540010=
KSLB 212315Z AUTO 05005KT 9SM CLR 18/01 A2962 RMK AO2=
KSUT 212315Z AUTO 00000KT 10SM SCT047 16/09 A3010 RMK AO2
     T01560087=
KT35 212315Z AUTO 19010KT 10SM CLR 28/10 A2988 RMK AO2
     T02810102=
KTIP 212315Z AUTO 19008KT 10SM CLR 19/03 A2978 RMK AO2
     T01940025=
KUNI 212315Z AUTO 15004KT 7SM CLR 13/00 A2999 RMK AO2
     T01300000=
KW22 212315Z AUTO 00000KT 10SM CLR 12/M01 A3005 RMK AO2=
KWDR 212315Z AUTO 00000KT 10SM CLR 13/01 A3012 RMK AO2=
KZER 212315Z AUTO 15006KT 10SM CLR 08/M02 A3011 RMK AO2=
K6S8 212310Z AUTO 06021G32KT 10SM 15/01 A2951 RMK A01 LAUREL=
KBQX 212315Z AUTO 17014KT 10SM CLR 24/14 A3000 RMK A01=
KECS 212315Z AUTO 27007KT 10SM CLR 23/M10 A2951 RMK AO2=
KF05 212315Z AUTO 22018G23KT 10SM CLR 31/02 A2972 RMK AO2
     T03100015=
KF44 212315Z AUTO 20006KT 10SM CLR 28/10 A2984 RMK AO2=
KF46 212315Z AUTO 20012KT 10SM CLR 29/08 A2982 RMK AO2
     T02880077=
KFOT 212310Z AUTO 29008KT 10SM OVC024 16/09 A2995 RMK AO1=
KGDJ 212315Z AUTO 20010G18KT 10SM CLR 31/03 A2981 RMK AO2
     T03090032=
KGLX 212315Z AUTO 06009KT 10SM CLR 22/12 A3008 RMK A01=
KINJ 212315Z AUTO 18016G21KT 10SM CLR 30/09 A2983 RMK AO2
     T02970088=
KJWY 212315Z AUTO 18011G16KT 10SM CLR 30/09 A2984 RMK AO2
     T02950092=
KMHV 212320Z AUTO 28011KT 10SM CLR 29/M02 A2987 RMK A01=
KMNH 212315Z AUTO 25009KT 10SM CLR 20/M14 A2985 RMK AO2=
KOAR 212315Z AUTO 29009KT 10SM OVC009 05/01 A2990 RMK AO2
     PWINO=
KP08 212315Z AUTO 34007KT 10SM CLR 31/11 A2982 RMK AO2=
KPKV 212315Z AUTO 18011G16KT 10SM SCT045 26/15 A2997 RMK AO2
     T02630150=
KVAF 212315Z AUTO 17011KT 10SM CLR 24/12 A3001 RMK A01=
KWBF 212315Z AUTO 00000KT 10SM 24/14 A3006 RMK A01=
KBAX 212315Z AUTO 17009KT 10SM CLR 14/05 A2972 RMK AO2
     T01360045=
KC35 212315Z AUTO 00000KT 10SM CLR 18/03 A2961 RMK AO2 T01780031
     PWINO=
KCDD 212314Z AUTO 00000KT 10SM CLR 11/M01 A2957 RMK AO2=
