SAUS70 KWBC 220236 RRA
METAR
KANE 220235Z AUTO 00000KT 10SM CLR 10/03 A2961 RMK AO2=
KAXV 220235Z AUTO 18012G16KT 10SM CLR 15/00 A2994 RMK AO2=
KBVI 220235Z AUTO 17005KT 10SM CLR 11/00 A3005 RMK AO2
     T01141005=
KCBG 220235Z AUTO 00000KT 10SM CLR 09/00 A2962 RMK AO2=
KCDA 220235Z AUTO 13006KT 10SM 07/M02 A3013 RMK AO2 T00711018=
KCDI 220235Z AUTO 00000KT 10SM CLR 03/02 A3006 RMK AO2
     T00270022=
KCKI 220235Z AUTO 00000KT 10SM CLR 06/03 A3016 RMK AO2=
KCOQ 220235Z AUTO 00000KT 10SM CLR 07/01 A2959 RMK AO2 TSNO=
KD25 220235Z AUTO 00000KT 10SM CLR 02/02 A2964 RMK AO2
     T00200020=
KDLZ 220235Z AUTO 17008KT 10SM CLR 12/00 A2999 RMK AO2=
KDRM 220235Z AUTO 00000KT 10SM CLR 06/05 A2967 RMK AO2
     T00620049=
KDXX 220235Z AUTO 13005KT 7SM CLR 08/00 A2960 RMK AO2=
KDYT 220235Z AUTO 19004KT 10SM FEW050 10/03 A2960 RMK AO2=
KEFK 220235Z AUTO 18004KT 10SM CLR 07/M02 A3010 RMK AO2
     T00721023=
KF70 220235Z AUTO 21007KT 10SM CLR 18/16 A2990 RMK AO2=
KFBL 220235Z AUTO 00000KT 7SM CLR 06/02 A2965 RMK AO2=
KFFM 220235Z AUTO 15003KT 10SM CLR 11/01 A2958 RMK AO2=
KFSE 220235Z AUTO 17004KT 10SM SCT080 BKN110 09/M01 A2957 RMK
     AO2=
KFSO 220235Z AUTO 17009G17KT 10SM CLR 12/M02 A3004 RMK AO2
     T01221024=
KGGE 220235Z AUTO 00000KT 10SM CLR 07/07 A3015 RMK AO2=
KSRR 220235Z AUTO 16004KT 10SM 13/02 A3008 RMK AO2=
KSUA 220235Z AUTO 05003KT 10SM VCTS BKN027 OVC033 22/17 A3006 RMK
     AO2 LTG DSNT E T02190169=
KSYM 220235Z AUTO 17004KT 10SM CLR 13/00 A3005 RMK AO2=
KTEW 220235Z AUTO 17004KT 10SM CLR 18/02 A2982 RMK AO2
     T01770023=
KTVY 220235Z AUTO 18011KT 10SM CLR 16/M03 A2973 RMK AO2=
KTWM 220235Z AUTO 00000KT 10SM CLR 08/02 A2960 RMK AO2=
KUKT 220235Z AUTO 00000KT 10SM CLR 04/03 A3018 RMK A01=
KUNV 220235Z AUTO 25006KT 10SM CLR 10/M01 A3012 RMK AO2
     T00951010=
KVDF 220235Z AUTO 00000KT 10SM CLR 14/10 A3010 RMK AO2=
KVVV 220235Z 16006KT 10SM 08/01 A2957 RMK AO2=
KX60 220235Z AUTO 00000KT 10SM CLR 09/05 A3012 RMK AO2
     T00920055=
KXSA 220235Z AUTO 00000KT 10SM CLR 08/07 A3019 RMK AO2
     T00800072=
KY63 220235Z AUTO 14005KT 10SM CLR 11/01 A2959 RMK AO2
     T01070005=
KGHW 220235Z AUTO 16005KT 10SM CLR 10/01 A2959 RMK AO2=
KGYH 220235Z AUTO 00000KT 10SM CLR 09/01 A3017 RMK A02
     T00940006=
KGYL 220235Z AUTO 00000KT 7SM CLR 09/01 A2962 RMK AO2
     T00880008=
KHAE 220235Z AUTO 18011KT 10SM CLR 21/M01 A2972 RMK AO2=
KHBI 220235Z AUTO 00000KT 10SM CLR 06/03 A3019 RMK AO2
     T00640027=
KHCO 220235Z AUTO 32010KT 10SM BKN055 BKN070 OVC085 12/04 A2957
     RMK AO2=
KHSP 220235Z AUTO 17008KT 10SM CLR 09/M04 A3017 RMK AO2
     T00851040=
KHZL 220235Z AUTO 00000KT 10SM CLR 07/M01 A3019 RMK AO2=
KI69 220235Z AUTO 17003KT 10SM CLR 14/01 A3001 RMK AO2
     T01410008=
KJFX 220235Z AUTO 00000KT 6SM BR CLR 10/10 A3007 RMK AO2=
KJKJ 220235Z AUTO 16004KT 10SM CLR 11/M01 A2957 RMK AO2 TSNO=
KJMR 220235Z AUTO 00000KT 10SM CLR 05/01 A2965 RMK AO2=
KJSO 220235Z AUTO 19009G14KT 10SM CLR 22/11 A2995 RMK AO2
     T02170107 TSNO=
KJVW 220235Z AUTO 17008G16KT 10SM CLR 20/13 A3001 RMK AO2=
KL18 220235Z AUTO 23003KT 10SM OVC014 18/16 A2989 RMK AO2=
KLDM 220235Z AUTO 22016G22KT 10SM CLR 18/05 A2967 RMK AO2
     T01780051=
KLJF 220235Z AUTO 00000KT 10SM CLR 07/01 A2961 RMK AO2=
KMBY 220235Z AUTO 18010G15KT 10SM CLR 22/00 A2971 RMK AO2=
KMGG 220235Z AUTO 00000KT 10SM CLR 08/03 A2962 RMK AO2 T00830031
     PWINO=
KMGN 220235Z AUTO 00000KT 10SM CLR 08/06 A2966 RMK AO2
     T00910067=
KMNI 220235Z AUTO 00000KT 10SM CLR 06/05 A3016 RMK AO2=
KMQJ 220235Z AUTO 16006KT 10SM CLR 12/02 A2993 RMK AO1=
