SACA31 KWBC 212300 RRB
METAR
MYNN 212300Z VRB02KT 9999 BKN040 26/20 A2990=
