SAUS70 KWBC 220142 RRA
METAR
KCNI 220135Z AUTO 05003KT 10SM CLR 10/02 A3014 RMK AO2
     T01030021=
KCTJ 220135Z AUTO 00000KT 10SM CLR 08/04 A3015 RMK AO2
     T00800044=
KCZT 220135Z AUTO 17003KT 10SM CLR 19/11 A2992 RMK AO2=
KDMW 220135Z AUTO 17006KT 10SM CLR 12/01 A3015 RMK AO2=
KDPL 220135Z AUTO 00000KT 10SM BKN046 BKN055 BKN075 11/07 A3015
     RMK AO2=
KDQH 220135Z AUTO 00000KT 10SM CLR 10/04 A3014 RMK AO2
     T01030044=
KE38 220135Z AUTO 21005KT 10SM CLR 17/07 A3009 RMK AO2
     T01670071=
KFME 220139Z AUTO 00000KT 10SM CLR 04/03 A3019 RMK AO1=
KFQD 220135Z AUTO 00000KT 10SM CLR 07/02 A3016 RMK AO2=
KFWZ 220135Z AUTO 21008KT 10SM CLR 08/M11 A2982 RMK AO2=
KFXY 220135Z AUTO 00000KT 10SM CLR 05/01 A2964 RMK AO2=
KFYJ 220135Z AUTO 00000KT 10SM CLR 08/06 A3018 RMK AO1
     T00820061=
KGEV 220135Z AUTO 00000KT 10SM CLR 07/M01 A3017 RMK AO2
     T00711015=
KGLW 220135Z AUTO 16005KT 10SM CLR 15/03 A3000 RMK AO2
     T01530027=
KHCR 220135Z AUTO 18005KT 10SM CLR 16/M11 A2983 RMK AO2=
KHDC 220138Z AUTO 16007KT 10SM CLR 18/14 A3007 RMK AO2 TSNO=
KHVE 220135Z AUTO 17009G14KT 10SM CLR 20/M05 A2983 RMK AO2=
KVPC 220135Z AUTO 00000KT 10SM CLR 10/07 A3012 RMK AO2=
KVUJ 220135Z AUTO 00000KT 10SM CLR 05/02 A3019 RMK AO2
     T00510023=
KW22 220135Z AUTO 00000KT 10SM BKN049 07/M00 A3007 RMK AO2=
KWDR 220135Z AUTO 00000KT 10SM CLR 09/01 A3015 RMK AO2=
KXBP 220135Z AUTO 17007KT 10SM CLR 25/04 A2981 RMK AO2
     T02490044=
KZER 220135Z AUTO 16004KT 10SM CLR 07/M01 A3015 RMK AO2=
KUMP 220135Z AUTO 17006KT 10SM CLR 16/03 A2991 RMK AO2
     T01610030=
K81R 220135Z AUTO 18007KT 10SM CLR 24/09 A2990 RMK AO2
     T02390086=
KCFD 220135Z AUTO 17010G15KT 10SM CLR 24/12 A2995 RMK AO2
     T02400119=
KCOM 220135Z AUTO 20006KT 10SM CLR 23/04 A2986 RMK AO2
     T02340035=
KCPW 220135Z AUTO 22023G33KT 10SM CLR 00/M07 A3025 RMK AO2=
KDKB 220135Z AUTO 18008KT 10SM CLR 12/05 A2974 RMK AO2
     T01190052=
KDVO 220135Z AUTO 24007G16KT 10SM CLR 16/12 A2983 RMK AO2=
KE41 220135Z AUTO 18008KT 10SM CLR 21/09 A2993 RMK AO2
     T02080088=
KECU 220135Z AUTO 15010KT 10SM CLR 19/09 A3001 RMK AO2=
KEMM 220135Z AUTO 24012KT 10SM CLR 11/M12 A2985 RMK AO2=
KF00 220135Z AUTO 17008KT 10SM CLR 23/08 A2983 RMK AO2
     T02260085=
KFMM 220135Z AUTO 00000KT 10SM CLR 20/M09 A2967 RMK AO2=
KGCD 220135Z AUTO 25003KT 10SM RA SCT038 BKN050 OVC070 13/05 A2961
     RMK AO2 T01330046=
KGVT 220135Z AUTO 17010KT 10SM CLR 23/11 A2985 RMK AO2 TSNO
     T02260106=
KJDD 220135Z AUTO 17004KT 10SM CLR 23/11 A2988 RMK AO2=
KLHB 220135Z AUTO 14005KT 10SM CLR 23/10 A2993 RMK AO2
     T02340103=
KLHM 220135Z AUTO 16007KT 10SM CLR 23/07 A2973 RMK AO1=
KLUD 220135Z AUTO 16009KT 10SM CLR 25/04 A2981 RMK AO2
     T02470035=
KMDD 220135Z AUTO 19009KT 10SM CLR 23/07 A2988 RMK AO2
     T02270070=
KMNH 220135Z AUTO 27003KT 10SM CLR 10/M13 A2986 RMK AO2=
KPEZ 220135Z AUTO 16003KT 10SM CLR 22/11 A2995 RMK AO2
     T02210105=
KPNA 220135Z AUTO 00000KT 10SM CLR 11/M08 A2980 RMK AO2=
KRAS 220135Z AUTO 15013KT 10SM CLR A2999 RMK AO2=
KRYW 220135Z AUTO 18006KT 10SM CLR 24/09 A2994 RMK AO2
     T02350090=
KSTK 220135Z AUTO 20003KT 7SM CLR 14/M04 A2964 RMK AO2=
KT41 220135Z AUTO 10SM CLR 22/15 A3001 RMK AO2 T02200151=
KTEX 220135Z AUTO 00000KT 10SM CLR 08/M10 A3013 RMK AO2=
KADC 220137Z AUTO 00000KT 10SM CLR 09/01 A2957 RMK AO2 TSNO=
KBVN 220135Z AUTO 00000KT 7SM CLR 09/M01 A2960 RMK AO2
     T00931013=
KCDD 220135Z AUTO 18003KT 10SM CLR 05/01 A2958 RMK AO2=
KCKN 220135Z AUTO 22005KT 10SM SCT080 12/M01 A2955 RMK AO2=
KDKB 220135Z AUTO 18008KT 10SM CLR 12/05 A2974 RMK AO2
     T01190052=
