SAUS70 KWBC 212300 RRF
METAR
KFSW 212255Z AUTO 19009G17KT 10SM OVC001 24/04 A2964 RMK AO2=
KFWC 212255Z AUTO 17006KT CLR 21/01 A2984 RMK AO1 T02090011
     PWINO=
KGDB 212255Z AUTO 00000KT 10SM CLR 17/01 A2962 RMK AO2
     T01720011=
KGPC 212255Z AUTO 18011KT 10SM CLR 19/02 A2986 RMK AO2
     T01860022=
KGRD 212256Z AUTO 00000KT 10SM CLR 13/01 A3011 RMK AO2 SLP199
     T01330011=
KGRN 212255Z AUTO 23008G15KT 10SM CLR 23/M08 A2954 RMK AO2
     T02261083=
KGWB 212255Z AUTO 21006KT 10SM CLR 19/03 A2982 RMK AO2=
KVVS 212255Z AUTO 14004KT 10SM CLR 12/00 A3004 RMK AO2
     T01250001=
KVYS 212255Z AUTO 18010KT 10SM CLR 22/04 A2967 RMK AO2
     T02210038=
KZPH 212255Z AUTO 36005KT 10SM CLR 19/04 A3005 RMK A02
     T01890042=
KPEZ 212255Z AUTO 17008KT 10SM CLR 30/10 A2992 RMK AO2
     T02950095=
KPHN 212255Z AUTO 18007KT 10SM CLR 15/01 A2979 RMK AO2=
KPMV 212255Z AUTO 00000KT 7SM CLR 23/00 A2959 RMK AO2
     T02311002=
KPPO 212255Z AUTO 00000KT 10SM CLR 21/07 A2975 RMK AO2
     T02060070=
KPRG 212255Z AUTO 18010G15KT 10SM CLR 20/04 A2983 RMK AO2
     T01970043=
KPSO 212255Z AUTO 24010G16KT 10SM CLR 17/M05 A3006 RMK AO2
     T01701049=
KRAS 212255Z AUTO 15011KT 10SM CLR A2998 RMK AO2=
KRDM 212256Z 23011KT 9SM FU OVC055 17/06 A2971 RMK AO2 SLP051
     T01720061=
KRPJ 212255Z AUTO 18007KT 10SM CLR 19/08 A2967 RMK AO2 T01930075
     TSNO=
KRSV 212255Z AUTO 17008KT 10SM CLR 19/01 A2986 RMK AO2
     T01870010=
KRVJ 212255Z AUTO 00000KT 10SM CLR 15/02 A3009 RMK AO2
     T01540022=
KRWV 212255Z AUTO 19011KT 10SM CLR 28/09 A2991 RMK AO2
     T02850094=
KRYW 212255Z AUTO 20010G14KT 10SM CLR 28/08 A2992 RMK AO2
     T02760081=
KS33 212255Z AUTO 22014G20KT 10SM BKN050 OVC070 16/07 A2970 RMK
     AO2=
KSAA 212255Z AUTO 23019G27KT 10SM CLR 17/M12 A2985 RMK AO2=
KSLE 212256Z 00000KT 2 1/2SM -RA BR OVC006 11/09 A2976 RMK AO2
     RAB04E16B32 SLP079 P0005 T01060094=
KSME 212255Z AUTO 16003KT 10SM CLR 18/01 A3000 RMK AO2=
KSTE 212255Z AUTO 00000KT 10SM CLR 19/00 A2960 RMK AO2
     T01850000=
KSTK 212255Z AUTO 19008KT 10SM CLR 23/M06 A2964 RMK AO2=
KSXK 212255Z AUTO 11006KT 10SM CLR 20/02 A2958 RMK AO2=
KT41 212255Z AUTO 10SM CLR 25/15 A2997 RMK AO2 T02520149=
KT74 212255Z AUTO 18012G17KT 10SM CLR 29/09 A2990 RMK AO2
     T02850093=
KT82 212255Z AUTO 20012G15KT 10SM CLR 27/08 A2994 RMK AO2
     T02650076=
KTEX 212255Z AUTO 27006KT 10SM CLR 13/M13 A3013 RMK AO2=
KTPH 212256Z AUTO 28012G19KT 10SM CLR 23/M07 A2995 RMK AO2 SLP097
     T02331072=
KTTA 212255Z AUTO 00000KT 10SM CLR 11/02 A3012 RMK AO2
     T01130016=
KTYQ 212255Z AUTO 19009KT 10SM CLR 18/02 A2987 RMK AO2
     T01840020=
KUKI 212256Z AUTO 29005G14KT 10SM CLR 27/09 A2980 RMK AO2 SLP084
     T02670089=
KVHN 212255Z AUTO 29010KT 10SM CLR 27/05 A3001 RMK AO2
     T02660050=
KVTP 212255Z AUTO 25008G18KT 10SM CLR 11/M12 A3008 RMK AO2=
KCVO 212256Z AUTO 20003KT 10SM BKN024 OVC029 14/09 A2977 RMK AO2
     RAB29E48 SLP083 P0000 T01390094=
KDZB 212255Z AUTO 19009G15KT 10SM CLR 29/06 A2990 RMK AO2
     T02920057=
KEAT 212255Z AUTO 31007KT 3SM HZ CLR 13/01 A2963 RMK AO2 SLP033
     T01330006=
KF46 212255Z AUTO 20015G20KT 10SM CLR 30/08 A2982 RMK AO2
     T02950075=
KJTC 212255Z AUTO 27014G23KT 10SM CLR 20/M00 A3012 RMK AO2=
KJWY 212255Z AUTO 18011G16KT 10SM CLR 30/09 A2984 RMK AO2
     T03020094=
KKLS 212256Z AUTO 14006KT 8SM -RA FEW011 SCT014 OVC050 10/08 A2977
     RMK AO2 SLP083 P0007 T01000083=
KLGD 212256Z AUTO 10005KT 10SM -RA OVC037 09/07 A2974 RMK AO2
     SLP075 P0004 T00940072=
KLNC 212255Z AUTO 17012G16KT 10SM CLR 30/07 A2982 RMK AO2
     T03010071=
