SAUS70 KWBC 220140
METAR
KATA 220135Z AUTO 00000KT 10SM CLR 16/13 A2988 RMK AO2 SLP016
     T01570126 $=
KATS 220135Z AUTO 24011KT 10SM CLR 21/07 A2991 RMK AO2=
KBKS 220135Z AUTO 13008KT 10SM CLR 22/17 A2996 RMK AO2 SLP105
     T02220166 $=
KBVU 220135Z AUTO 16010KT 10SM CLR 26/02 A2980 RMK AO2=
KBXK 220135Z AUTO 01003KT 10SM CLR 25/13 A2980 RMK A01=
KCLS 220135Z AUTO 00000KT 8SM -RA OVC016 08/07 A2969 RMK AO2=
KCMR 220135Z AUTO 23004KT 10SM CLR 12/02 A3009 RMK AO2=
KCPT 220135Z AUTO 17012G17KT 10SM CLR 25/09 A2985 RMK A01=
KCVH 220135Z AUTO 28006KT 9SM CLR 14/11 A2987 RMK A01=
KDNA 220135Z AUTO 00000KT 10SM CLR 23/08 A2998 RMK AO2=
KL35 220135Z AUTO 22003KT 10SM CLR 11/02 A3010 RMK AO2=
KL52 220135Z AUTO 00000KT 7SM SCT011 15/14 A2989 RMK A01=
KMAN 220135Z AUTO 16003KT 10SM CLR 17/04 A2962 RMK A01=
KO22 220135Z AUTO 00000KT 10SM CLR 21/03 A2984 RMK A01=
KO32 220135Z AUTO 00000KT 5SM HZ CLR 25/13 A2976 RMK AO2 T02500130
     $=
KONM 220135Z AUTO 22004KT 10SM OVC090 18/06 A2997 RMK AO2
     T01780061=
KORS 220135Z AUTO 00000KT 10SM SCT047 OVC060 09/ A2969 RMK AO2=
KPVF 220135Z AUTO 21004KT 10SM CLR 20/04 A2989 RMK AO1=
KRTS 220135Z AUTO 25018G25KT 10SM CLR 19/M06 A2990 RMK AO2=
KSVC 220135Z AUTO 33008KT 10SM CLR 14/09 A3005 RMK AO2
     T01430091=
KSXU 220135Z AUTO 27008KT 10SM CLR 19/00 A2988 RMK AO2
     T01850000=
KT69 220135Z AUTO 18007KT 10SM CLR 22/16 A2997 RMK A01=
KTME 220135Z AUTO 19010KT 10SM CLR 22/15 A3000 RMK AO2=
KTSP 220135Z AUTO 29005KT 10SM CLR 19/M01 A2997 RMK AO2=
KU42 220135Z AUTO 22005KT 10SM CLR 16/M01 A2979 RMK AO1
     T01591009=
KD60 220135Z AUTO 05003KT 10SM BKN032 OVC037 05/05 A2958 RMK
     AO2=
KD95 220135Z AUTO 19011G16KT 10SM CLR 17/M02 A2979 RMK AO2
     T01741019=
KEKM 220135Z AUTO 19010KT 10SM CLR 17/03 A2982 RMK AO2
     T01740033=
KFGN 220135Z AUTO 22004KT 10SM OVC100 09/03 A2951 RMK AO2=
KI23 220135Z AUTO 16004KT 10SM CLR 10/M01 A2999 RMK AO1=
KI68 220135Z AUTO 16007KT 10SM CLR 14/01 A2998 RMK AO1
     T01350012=
KM30 220135Z AUTO 00000KT 10SM CLR 16/07 A2991 RMK AO2
     T01580071=
KONZ 220135Z AUTO 20010KT 10SM BKN100 OVC120 12/04 A2986 RMK AO2
     T01230041=
KRQB 220135Z AUTO 17005KT 10SM CLR 16/05 A2971 RMK AO2
     T01590051=
KS24 220135Z AUTO 19010G19KT 10SM CLR 16/02 A2990 RMK AO2=
KS32 220135Z AUTO 00000KT 10SM FEW055 BKN065 OVC100 09/M01 A2955
     RMK AO2 TSNO=
KSJX 220135Z AUTO 23007KT 10SM CLR 11/08 A2964 RMK AO2
     T01070078=
KSLH 220135Z AUTO 24003KT 10SM CLR 11/07 A2962 RMK AO2=
KSPF 220135Z AUTO 21009KT 10SM CLR 11/M04 A2953 RMK AO2=
KTME 220135Z AUTO 19010KT 10SM CLR 22/15 A3000 RMK AO2=
KTOB 220135Z AUTO 00000KT 5SM HZ CLR 09/01 A2966 RMK AO2=
KTTF 220135Z AUTO 18005KT 10SM CLR 15/02 A2986 RMK AO2
     T01480021=
KUBE 220135Z AUTO 00000KT 10SM CLR 09/05 A2964 RMK AO2=
KULM 220135Z AUTO 00000KT 10SM CLR 11/01 A2962 RMK AO2=
KVGC 220135Z AUTO 14007KT 10SM CLR 07/M03 A3007 RMK AO2=
KVLL 220135Z AUTO 19006KT 10SM CLR 16/02 A2985 RMK AO2
     T01630021=
KVWU 220135Z AUTO 18004KT 10SM SCT110 11/02 A2954 RMK AO2=
KY19 220135Z AUTO 09008KT 10SM OVC100 11/02 A2952 RMK AO2=
KY70 220135Z AUTO 20011KT 10SM CLR 16/03 A2974 RMK AO2
     T01620033=
K46U 220135Z AUTO 30007G12KT 10SM SCT001 SCT027 BKN035 14/M05
     A2975 RMK A01=
K82V 220135Z AUTO 25009KT 10SM CLR 15/M12 A2970 RMK AO2=
KBAM 220135Z AUTO 25006KT 10SM CLR 18/M07 A2978 RMK AO1=
KBDU 220135Z AUTO 23007KT 10SM CLR 20/M08 A2973 RMK AO2=
KBQX 220135Z AUTO 17019KT 10SM 24/14 A3001 RMK A01=
KCXP 220135Z AUTO 22011G22KT 10SM CLR 20/M05 A2990 RMK AO2=
KDZB 220135Z AUTO 17003KT 10SM CLR 23/07 A2992 RMK AO2
     T02260072=
