SAUS70 KWBC 220100 RRW
METAR
KERV 220055Z AUTO 15004KT 10SM CLR 21/09 A2995 RMK AO2
     T02140087=
KF17 220055Z AUTO 17005KT 10SM CLR 23/10 A2994 RMK AO2=
KF44 220055Z AUTO 18005KT 10SM CLR 24/11 A2988 RMK AO2=
KFLY 220055Z AUTO 34005KT 10SM CLR 14/M10 A2984 RMK AO2
     T01361099=
KFOT 220050Z AUTO 29006KT 9SM OVC026 14/09 A2993 RMK AO1=
KFTN 220055Z AUTO 14007KT 10SM CLR 23/11 A2993 RMK A01=
KGDJ 220055Z AUTO 17009KT 10SM CLR 27/04 A2982 RMK AO2
     T02670042=
KGOO 220055Z AUTO 00000KT 10SM CLR 21/04 A2987 RMK A01=
KU68 220055Z AUTO 01004G08KT 10SM OVC110 17/M02 A2949 RMK AO2=
KVCV 220050Z AUTO 19013KT 9SM 25/06 A2989 RMK AO2=
KC09 220055Z AUTO 18009KT 10SM CLR 19/05 A2973 RMK AO2
     T01860050=
KCSQ 220055Z AUTO 08003KT 9SM CLR 15/02 A2961 RMK AO2=
KFRM 220056Z AUTO 00000KT 5SM HZ CLR 10/01 A2964 RMK AO2 SLP045
     T01000006=
KGGI 220055Z AUTO 09004KT 10SM CLR 16/02 A2964 RMK AO2
     T01550024=
KGVQ 220056Z AUTO 18005KT 10SM CLR 12/00 A2995 RMK AO2 SLP144
     T01220000=
KMKT 220056Z AUTO 00000KT 10SM CLR 14/03 A2964 RMK AO2 SLP042
     T01390028=
KMML 220056Z AUTO 13004KT 10SM CLR 12/01 A2962 RMK AO2 SLP035
     T01170006=
KMOP 220055Z AUTO 19004KT 10SM CLR 16/05 A2971 RMK AO2
     T01560045=
KMTN 220054Z 00000KT 10SM CLR 08/06 A3016=
KMUT 220055Z AUTO 15004KT 10SM CLR 18/03 A2966 RMK AO2=
KOTG 220056Z AUTO 08004KT 10SM CLR 10/02 A2964 RMK AO2 SLP047
     T01000017=
KOXI 220055Z AUTO 19009KT 10SM CLR 17/02 A2979 RMK AO1=
KOXV 220055Z AUTO 16005KT 10SM CLR 21/02 A2962 RMK AO2=
KPCW 220055Z AUTO 20010G16KT 10SM CLR 16/02 A2988 RMK AO2=
KPRO 220055Z AUTO 00000KT 10SM CLR 14/M01 A2962 RMK AO2
     T01361012=
KPTD 220055Z AUTO 18012G19KT 10SM SCT035 BKN047 BKN060 13/M03
     A2996 RMK AO2=
KSAR 220055Z AUTO 17007KT 10SM CLR 20/08 A2986 RMK AO2
     T02000075=
KSLO 220055Z AUTO 17004KT 10SM CLR 19/03 A2986 RMK AO2
     T01910034=
KUYF 220055Z AUTO 18007KT 10SM CLR 10/M01 A2998 RMK AO2=
TISX 220053Z 06008KT 10SM CLR 28/23 A2992 RMK AO2 SLP130 T02780228
     $=
KJVY 220055Z AUTO 19004KT 10SM CLR 15/01 A2996 RMK AO2 PWINO=
KTNB 220050Z AUTO 00000KT 10SM CLR 04/M01 A3017 RMK AO2
     T00431011=
