SAUS70 KWBC 220244 RRA
METAR
KCHK 220230Z AUTO 16003KT 10SM CLR 20/05 A2969 RMK AO2
     T01950046=
KCPC 220235Z AUTO 00000KT 10SM CLR 08/06 A3017 RMK AO2
     T00810059=
KDWX 220230Z AUTO 20012G20KT 10SM CLR 09/M18 A2987 RMK AO2
     T00901180=
KE11 220230Z AUTO 21007KT 10SM CLR 20/07 A2989 RMK AO2
     T02020066=
KEAN 220230Z AUTO 23010KT 10SM CLR 18/M11 A2962 RMK AO2
     T01831110=
KHBV 220230Z AUTO 15007KT 5SM HZ CLR 21/16 A2999 RMK AO2
     T02050155=
KHDC 220241Z AUTO 17005KT 10SM CLR 17/13 A3008 RMK AO2 TSNO=
KHHW 220234Z AUTO 17009KT 10SM CLR 21/09 A2983 RMK AO2=
KHSG 220230Z AUTO 24019G24KT 10SM CLR 18/M06 A2955 RMK AO2
     T01761060=
KMPZ 220230Z AUTO 16006KT 10SM CLR 17/07 A2969 RMK AO2=
KMYZ 220230Z AUTO 00000KT 10SM CLR 16/03 A2960 RMK AO2=
KOSA 220230Z AUTO 16005KT 10SM CLR 19/12 A2988 RMK AO2
     T01860116=
KPVW 220230Z AUTO 23007KT 10SM CLR 18/01 A2980 RMK AO2
     T01760011=
KRBW 220235Z AUTO 00000KT 10SM CLR 07/05 A3016 RMK AO2=
KSLR 220230Z AUTO 18007KT 10SM CLR 23/10 A2988 RMK AO2
     T02320102=
KTXW 220230Z AUTO 14010KT 10SM CLR 23/16 A3000 RMK AO2
     T02320164=
KUYF 220235Z AUTO 17007KT 10SM CLR 08/M01 A2999 RMK AO2=
KWWR 220230Z AUTO 18016G20KT 10SM CLR 22/00 A2967 RMK AO2=
K2G9 220235Z AUTO 00000KT 10SM CLR 08/M02 A3011 RMK AO2=
K2W6 220239Z AUTO 00000KT 10SM CLR 09/07 A3020 RMK AO1=
KCGE 220235Z AUTO 15003KT 10SM CLR 07/07 A3019 RMK A01=
KDCY 220235Z AUTO 18009KT 10SM CLR 14/03 A2992 RMK AO2
     T01380027=
KDMW 220235Z AUTO 00000KT 10SM CLR 11/02 A3016 RMK AO2=
KEBS 220235Z AUTO 09007KT 7SM CLR 10/00 A2960 RMK AO2=
KFDK 220240Z AUTO 00000KT 10SM CLR 05/04 A3017 RMK AO2=
KFME 220239Z AUTO 00000KT 10SM CLR 03/03 A3020 RMK AO1=
KFXY 220235Z AUTO 00000KT 7SM CLR 05/01 A2964 RMK AO2=
KIIB 220235Z AUTO 00000KT 7SM CLR 08/02 A2966 RMK AO2
     T00770016=
KMLE 220235Z AUTO 00000KT 10SM CLR 10/03 A2959 RMK AO2
     T01040027=
KMMU 220235Z AUTO 00000KT 10SM CLR 03/01 A3018 RMK AO2=
KMQB 220235Z AUTO 18009KT 10SM CLR 17/01 A2973 RMK AO2
     T01660011=
KSAW 220238Z AUTO 00000KT 10SM CLR 03/00 A2964 RMK AO2
     T00250004=
KSDA 220235Z AUTO 00000KT 7SM FEW003 10/02 A2958 RMK AO2=
KSHL 220235Z AUTO 10006KT 10SM CLR 09/00 A2959 RMK AO2=
KSLB 220235Z AUTO 09006KT 9SM CLR 11/00 A2961 RMK AO2=
KTAZ 220235Z AUTO 17013G17KT 10SM CLR 17/05 A2981 RMK AO2
     T01710048=
KTIF 220235Z AUTO 17012KT 10SM CLR 16/M02 A2957 RMK AO2
     T01551024=
KTZR 220235Z AUTO 17005KT 10SM CLR 10/01 A3001 RMK AO2
     T00990005=
KUNI 220235Z AUTO 00000KT 7SM -SN CLR 05/02 A3004 RMK AO2
     T00460020=
KVES 220235Z AUTO 19005KT 10SM CLR 13/M02 A2995 RMK AO2=
KW22 220235Z AUTO 16003KT 10SM FEW045 07/00 A3009 RMK AO2=
KW99 220239Z AUTO 00000KT 10SM CLR 04/02 A3015 RMK AO2=
KZER 220235Z AUTO 21006KT 10SM CLR 08/M02 A3017 RMK AO2=
K11R 220235Z AUTO 18010KT 10SM CLR 23/15 RMK AO2 T02250150=
K20V 220235Z AUTO 26003KT 10SM CLR 10/M09 A2994 RMK AO2=
KBMC 220230Z AUTO 10SM CLR 17/M08 A2971 RMK AO1 T01671080=
KC99 220230Z AUTO 26014G30KT 210V300 10SM CLR 02/M12 A3002 RMK
     AO2=
KDUB 220236Z AUTO 30015G29KT 10SM CLR 11/M09 A2966 RMK AO2=
KE11 220230Z AUTO 21007KT 10SM CLR 20/07 A2989 RMK AO2
     T02020066=
KEDC 220235Z AUTO 19011G14KT 10SM CLR 21/10 A2992 RMK AO2=
KFWZ 220235Z AUTO 22012G26KT 10SM CLR 08/M11 A2981 RMK AO2=
KGLE 220235Z AUTO 17010KT 10SM CLR 23/07 A2981 RMK AO2
     T02310070=
KGNB 220235Z AUTO 25003KT 10SM CLR 09/M10 A2998 RMK AO2
     T00911101=
KGNC 220235Z AUTO 21007KT 10SM CLR 18/07 A2992 RMK AO2
     T01840074=
KHBV 220230Z AUTO 15007KT 5SM HZ CLR 21/16 A2999 RMK AO2
     T02050155=
