SAPA31 KWBC 220100 RRA
METAR
PGSN 220107Z 10009G18KT 10SM FEW019 SCT032 BKN041 29/25 A2989 RMK
     AO2 VCSH S SW CB OHD MOV SW P0008 T02890250=
PTRO 220050Z 04009KT 14SM SCT015 BKN120 BKN300 29/25 A2983=
