SAUS70 KWBC 220000
METAR
KASG 212348Z 16005KT 10SM CLR 22/08 A2981=
KBAK 212345Z 18009KT 10SM CLR 17/M01 A2992=
KCWA 212347Z 28004KT 10SM CLR 13/03 A2962=
KEMT 212345Z 19011KT 10SM CLR 27/15 A2982=
KUES 212345Z 21007G12KT 10SM CLR 18/03 A2965=
KCNW 212355Z 18010KT 10SM SKC 27/07 A2986=
KRYN 212345Z 26009KT 10SM CLR 31/08 A2986=
PALP 212345Z 09012G24KT 10SM SCT017 BKN028 BKN065 M02/M05
     A2986=
KATW 212345Z 26004KT 10SM CLR 16/02 A2960=
KEZS 212355Z AUTO 00000KT 10SM CLR 16/05 A2960 RMK AO2 T01570048
     10226 20157=
KOUN 212347Z 14009KT 10SM CLR 27/03 A2970=
KSWF 212345Z 00000KT 10SM SKC 10/02 A3012=
K1S5 212355Z AUTO 00000KT 10SM -RA OVC060 10/07 A2969 RMK AO2
     P0002 60003 T00970070 10122 20097=
KBBG 212345Z 17006KT 10SM CLR 22/04 A2982=
KCPF 212355Z AUTO 17003KT 10SM CLR 15/00 A3005 RMK AO2=
KEMV 212355Z AUTO 00000KT 10SM CLR 06/04 A3016 RMK AO2 T00610044
     10206 20061=
KFFA 212355Z AUTO 04004KT 10SM SCT070 16/10 A3012 RMK AO2
     T01620095 10342 20072=
KGYH 212347Z 00000KT 10SM CLR 15/M01 A3012=
KLBE 212347Z 00000KT 20SM CLR 10/01 A3004=
KMCJ 212355Z AUTO 17015G24KT 10SM CLR 25/14 A2994 RMK A01=
KOLV 212350Z 15008KT 10SM CLR 22/10 A2991=
KSAW 212347Z 00000KT 10SM CLR 09/04 A2959=
KSUA 212347Z 34006KT 10SM SCT035 22/16 A2999=
KSUW 212355Z AUTO 00000KT 10SM CLR 09/02 A2958 RMK AO2 T00900019
     10195 20090=
