SAUS70 KWBC 212330
METAR
K1A5 212335Z AUTO 00000KT 10SM CLR 11/00 A3013 RMK AO2
     T01080001=
KEFT 212335Z AUTO 22011KT 10SM CLR 20/03 A2963 RMK AO2
     T01950025=
KHNZ 212335Z AUTO 00000KT 10SM CLR 09/05 A3013 RMK AO2
     T00900049=
KJXI 212335Z AUTO 15003KT 10SM CLR 27/08 A2986 RMK AO2
     T02660079=
KPDC 212335Z AUTO 00000KT A2961 RMK AO2 PWINO=
KW31 212335Z AUTO 00000KT 10SM CLR 10/06 A3013 RMK AO1
     T00960060=
KW96 212335Z AUTO 00000KT 10SM CLR 11/04 A3014 RMK AO1
     T01090035=
KBNL 212335Z AUTO 00000KT 10SM CLR 13/03 A3011 RMK AO2=
KETB 212335Z AUTO 21003KT 10SM CLR 18/02 A2962 RMK AO2=
KIPJ 212335Z AUTO 00000KT 10SM CLR 09/05 A3012 RMK AO2
     T00880048=
KLHZ 212335Z AUTO 00000KT 10SM CLR 09/03 A3015 RMK AO2=
KOCW 212315Z AUTO 00000KT 10SM 14/07 A3013 RMK AO2 T01360071=
KRRL 212335Z AUTO 23003KT 10SM CLR 13/04 A2960 RMK AO2 T01320035
     TSNO=
KUNU 212335Z AUTO 21003KT 10SM CLR 17/04 A2963 RMK AO2
     T01720043=
