SAUS70 KWBC 220200 RRJ
METAR
KFHR 220153Z AUTO 00000KT 9SM -RA FEW027 SCT041 OVC050 08/08 A2970
     RMK AO2 SLP058 P0002 T00830078=
KFLL 220153Z 36009KT 10SM FEW031 BKN040 OVC060 23/17 A2999 RMK AO2
     SLP155 T02280167 $=
PATO 220153Z AUTO 28007G16KT 10SM CLR 04/M02 A2982 RMK AO2 SLP098
     T00441022 TSNO=
PAWD 220153Z AUTO 36007KT 10SM CLR 07/M03 A2983 RMK AO2 SLP101
     T00721033 TSNO=
PAWI 220153Z AUTO 08012KT 10SM BKN090 M04/M06 A2976 RMK AO2 SLP078
     T10441061 TSNO $=
PAAQ 220153Z AUTO 00000KT 10SM CLR 02/01 A2986 RMK AO2 SLP115
     T00220006 TSNO=
PABR 220153Z 10021G30KT 9SM SCT060 BKN070 OVC085 M03/M05 A2985 RMK
     AO2 PK WND 10030/0152 SNB0059E12B29E45 SLP110 P0000
     T10331050=
PACV 220153Z 00000KT 10SM FEW020 06/04 A2970 RMK AO2 SLP059
     T00560039=
PAEN 220153Z 21003KT 10SM CLR 06/01 A2987 RMK AO2 SLP115
     T00560011=
PAGK 220153Z AUTO 28005KT 4SM -SN BR OVC037 01/M01 A2975 RMK AO2
     SLP099 P0000 T00061006 TSNO=
PAGY 220153Z AUTO 24008KT 10SM FEW025 SCT060 BKN100 07/04 A2965
     RMK AO2 RAB01E46 SLP040 P0002 T00720044 TSNO=
PAIL 220153Z 36004KT 9SM -RA BKN013 BKN021 OVC031 04/03 A2997 RMK
     AO2 RAB18 SLP151 P0000 T00440033=
PAKT 220153Z 29005KT 10SM SCT050 08/03 A2973 RMK AO2 SLP069 HARBOR
     WND 34005KT T00830028=
PAKV 220153Z AUTO 00000KT 10SM BKN009 OVC015 02/01 A2982 RMK AO2
     SLP102 T00170006 TSNO=
PAKW 220153Z AUTO 17004KT 10SM OVC033 07/05 A2973 RMK AO2 RAB28E52
     SLP068 P0000 T00720050 TSNO $=
PAMR 220153Z 31003KT 10SM CLR 03/01 A2986 RMK AO2 SLP114
     T00330011=
PAPB 220153Z AUTO 20006KT 7SM CLR 07/ A2995 RMK AO2 SLP131 T0067
     TSNO $=
PASC 220153Z 09018KT 2SM -SN BLSN BKN022 OVC060 M03/M05 A2987 RMK
     AO2 SNB02 SLP115 P0000 T10331050=
PASO 220153Z AUTO 00000KT 10SM SCT031 08/02 A2992 RMK AO2 SLP132
     T00780022 TSNO=
KFOK 220153Z 00000KT 10SM CLR 04/03 A3020 RMK AO2 SLP227 T00440033
     $=
KFRG 220153Z 00000KT 10SM CLR 09/06 A3018 RMK AO2 SLP220 T00890056
     $=
KFTY 220153Z 00000KT 10SM CLR 08/04 A3013 RMK AO2 SLP204
     T00830044=
KFUL 220153Z 20006KT 10SM CLR 19/17 A2984 RMK AO2 SLP103
     T01940172=
KFWN 220153Z AUTO 00000KT 10SM CLR 04/02 A3016 RMK AO2 SLP216
     T00440022=
KGEY 220153Z AUTO VRB03KT 10SM CLR 16/M03 A2946 RMK AO2 SLP967
     T01561028=
KGGE 220155Z AUTO 00000KT 10SM CLR 08/07 A3014 RMK AO2=
KGKJ 220153Z AUTO VRB03KT 10SM CLR 12/M01 A3001 RMK AO2 SLP165
     T01171006=
KGMU 220153Z AUTO 00000KT 10SM CLR 11/01 A3016 RMK AO2 SLP210
     T01060011=
KGSP 220153Z 00000KT 10SM CLR 06/02 A3015 RMK AO2 SLP210
     T00610017=
KGTF 220153Z 26007KT 10SM BKN070 OVC080 08/02 A2953 RMK AO2 SLP998
     T00830017=
KGVL 220153Z AUTO 00000KT 10SM CLR 13/M02 A3015 RMK AO2 SLP205
     T01281017=
KGYH 220155Z AUTO 00000KT 10SM CLR 12/00 A3015 RMK A02
     T01181005=
KHAE 220155Z AUTO 16007KT 10SM CLR 20/M01 A2971 RMK AO2=
KHBI 220155Z AUTO 00000KT 10SM CLR 07/03 A3018 RMK AO2
     T00650026=
KHHR 220153Z 26008KT 10SM OVC010 20/16 A2985 RMK AO2 SLP108
     T02000161 $=
KHIO 220153Z 00000KT 2SM BR BKN006 OVC036 09/09 A2964 RMK AO2
     RAB24E53 SLP039 P0000 T00890089=
KHJO 220153Z AUTO 05004KT 7SM CLR 22/13 A2976 RMK AO2 SLP079
     T02170133=
KHKY 220153Z AUTO 00000KT 10SM CLR 08/04 A3015 RMK AO2 SLP201
     T00830044=
KHLN 220153Z 26005KT 10SM -RA BKN043 OVC055 08/03 A2957 RMK AO2
     RAE0054B49 SLP025 P0000 T00780033=
KHQM 220153Z AUTO 03005KT 5SM -RA BR FEW006 OVC032 11/09 A2969 RMK
     AO2 SLP056 P0001 T01060089=
KHRI 220153Z AUTO 18005KT 7SM RA OVC060 09/08 A2967 RMK AO2 SLP047
     P0008 T00940083=
