SAKA31 PTKK 212300
METAR PTKK 212252Z VRB05KT 15SM FEW014 BKN120 OVC280 29/26 A2983 RMK
SLP105 T02940264
