SAZS31 NSTU 212301
MTRPPG
METAR NSTU 212250Z 10012KT 12SM SCT020 BKN100 BKN220 31/26 A2987 RMK
 SLP117 T03090261=
