SAUS70 KWBC 220100 RRR
METAR
KPTW 220054Z AUTO 00000KT 10SM CLR 07/02 A3017 RMK AO2 SLP214
     T00670017=
KRGK 220055Z AUTO 00000KT 10SM CLR 10/03 A2963 RMK AO2=
KSAZ 220055Z AUTO 00000KT 10SM CLR 09/01 A2960 RMK AO2=
KSGS 220055Z AUTO 00000KT 10SM CLR 12/03 A2962 RMK AO2
     T01210032=
KTQE 220054Z AUTO 24004KT 5SM HZ CLR 12/M02 A2958 RMK AO2 SLP015
     T01221022=
KVAY 220054Z AUTO 00000KT 10SM CLR 09/03 A3016 RMK AO2 SLP213
     T00890033=
KY63 220055Z AUTO 13004KT 7SM CLR 10/02 A2959 RMK AO2
     T01010023=
KBYS 220055Z AUTO 17006KT 9SM CLR 26/M05 A2980 RMK AO2 SLP073
     T02591046=
KBVI 220055Z AUTO 16005KT 10SM CLR 13/M01 A3003 RMK AO2
     T01261011=
KCDI 220055Z AUTO 00000KT 10SM CLR 05/03 A3003 RMK AO2
     T00500033=
KDRM 220055Z AUTO 00000KT 10SM CLR 07/06 A2963 RMK AO2
     T00660056=
KDYL 220054Z AUTO 00000KT 10SM CLR 09/02 A3014 RMK AO2 SLP211
     T00890017=
KEVV 220054Z 15003KT 10SM CLR 18/03 A2991 RMK AO2 SLP129
     T01780028=
KFFM 220055Z AUTO 15005KT 10SM CLR 12/01 A2956 RMK AO2=
KFSE 220055Z AUTO 17005KT 10SM BKN110 09/M01 A2956 RMK AO2=
KGED 220054Z AUTO 00000KT 10SM CLR 09/06 A3017 RMK AO2 SLP217
     T00890061=
KGHW 220055Z AUTO 18003KT 10SM CLR 11/01 A2962 RMK AO2=
KGYL 220055Z AUTO 00000KT 7SM CLR 12/01 A2962 RMK AO2
     T01180012=
KHZL 220055Z AUTO 00000KT 10SM CLR 08/M01 A3015 RMK AO2=
KI69 220055Z AUTO 00000KT 10SM CLR 15/01 A2999 RMK AO2
     T01500005=
KILN 220054Z AUTO 19006KT 10SM CLR 13/00 A2998 RMK AO2 SLP161
     T01280000=
KIMT 220054Z AUTO 00000KT 10SM CLR 07/02 A2960 RMK AO2 SLP033
     T00670022=
KIND 220054Z 17008KT 10SM FEW250 16/02 A2989 RMK AO2 SLP121
     T01610017=
KIPT 220054Z 00000KT 10SM CLR 08/00 A3010 RMK AO2 SLP196
     T00780000=
KIWI 220053Z AUTO 00000KT 10SM CLR 04/02 A3017 RMK AO2 SLP215
     T00390022=
KIZG 220054Z AUTO 00000KT 10SM CLR 01/00 A3013 RMK AO2 SLP209
     T00060000=
KJKJ 220055Z AUTO 16004KT 7SM CLR 12/M01 A2956 RMK AO2 TSNO=
KHFF 220055Z AUTO 00000KT 10SM CLR 08/03 A3012 RMK AO2 SLP204
     T00770034=
PAWN 220056Z AUTO 13005KT 10SM OVC008 01/01 A2972 RMK AO2 UPE2357
     SLP075 T00110006 FZRANO=
PAWS 220056Z AUTO 00000KT 10SM OVC005 02/02 A2987 RMK AO2 SLP121
     T00220017 FZRANO=
PAZK 220056Z AUTO 22007KT 10SM BKN045 OVC055 M03/M04 A2970 RMK AO2
     SLP110 T10281039 FZRANO=
PFCL 220056Z AUTO 26007KT 10SM FEW090 A2999 RMK AO2
     UPB18E20RAB20E31 SLPNO P0000 FZRANO TSNO $=
PFKW 220056Z AUTO 22011KT 10SM SCT023 06/01 A2990 RMK AO2 SLP126
     T00560011=
PFYU 220056Z 00000KT 5SM FZRA BR BKN006 OVC019 M03/M04 A2987 RMK
     AO2 UPB12E41FZRAB41 SLP128 P0000 T10281039=
PPIZ 220056Z AUTO 08006KT 10SM OVC035 M03/M04 A2971 RMK AO2 SLP064
     T10281044 FZRANO=
PAAD 220055Z AUTO 10017KT 10SM OVC010 M05/M06 A2988 RMK AO2
     T10461060=
PAAK 220056Z AUTO 00000KT 10SM -RA OVC035 A2997 RMK AO2 SLPNO
     P0001 FZRANO $=
PABL 220056Z AUTO 14006KT 10SM -RA CLR 02/01 A2972 RMK AO2
     UPE02RAB32 SLP067 P0000 T00220011 FZRANO $=
PABV 220056Z AUTO 07003KT 10SM OVC005 03/02 A2987 RMK AO2 SLP122
     T00330022=
PADL 220056Z 23009KT 10SM CLR 07/02 A2998 RMK AO2 SLP155
     T00670022=
PADM 220056Z AUTO 17011KT 10SM FEW044 04/01 A2990 RMK AO2 SLP129
     T00440011=
PADU 220056Z 16005KT 10SM OVC200 07/02 A3002 RMK AO2 SLPNO
     T00720017=
PAFE 220056Z AUTO 00000KT 10SM FEW029 OVC090 08/05 A2973 RMK AO2
     SLP080 T00830050=
PAFM 220056Z AUTO 13007KT 10SM -RA OVC004 01/00 A2980 RMK AO2
     RAB32SNE32 SLPNO P0000 T00060000 FZRANO=
PAGA 220056Z AUTO 10SM FEW017 BKN060 03/01 A2981 RMK AO2 SLP095
     T00280006 $=
