SAUS70 KWBC 220104
METAR
KW75 220115Z AUTO 00000KT 10SM CLR 09/06 A3016 RMK AO1
     T00930064=
PAFS 220101Z AUTO 00000KT 10SM -RA BKN014 BKN021 OVC049 02/02
     A2987 RMK AO2 RAB0011UPB0020E0026 SLPNO P0001 T00220022
     FZRANO=
PAHX 220102Z AUTO 22006KT 10SM FEW016 SCT021 OVC044 03/03 A2984
     RMK AO2 RAB0014E0028 SLP107 P0000 T00330028=
KDLL 220115Z AUTO 00000KT 10SM CLR 10/03 A2965 RMK AO2
     T01010026=
KEVM 220101Z AUTO 00000KT 10SM CLR 08/02 A2959 RMK AO2=
KGAF 220115Z AUTO 25006KT 8SM BKN080 11/02 A2954 RMK AO2=
KGPH 220115Z AUTO 16004KT 10SM CLR 23/02 A2965 RMK AO2=
KW13 220115Z AUTO 10SM CLR 07/00 A3014 RMK AO1 T00680002=
