SAUS70 KWBC 220120 RRG
METAR
KT74 220115Z AUTO 16006KT 10SM CLR 22/10 A2992 RMK AO2
     T02160100=
KT82 220115Z AUTO 00000KT 10SM CLR 21/08 A2996 RMK AO2
     T02130080=
KTDF 220115Z AUTO 00000KT 10SM CLR 05/03 A3017 RMK AO2=
KTEX 220115Z AUTO 00000KT 10SM CLR 09/M10 A3012 RMK AO2=
KTTA 220115Z AUTO 00000KT 10SM CLR 06/02 A3014 RMK AO2
     T00550024=
KTYL 220115Z AUTO 18007KT 10SM CLR 14/03 A3006 RMK AO2=
KTYQ 220115Z AUTO 18008KT 10SM CLR 14/02 A2990 RMK AO2
     T01410020=
KVBW 220115Z AUTO 31004KT 10SM CLR 06/02 A3014 RMK AO1
     T00560016=
KVHN 220115Z AUTO 25006KT 10SM CLR 22/07 A3001 RMK AO2
     T02170069=
KVTP 220115Z AUTO 24014G22KT 10SM CLR 06/M10 A3006 RMK AO2=
KVVS 220115Z AUTO 07004KT 10SM CLR 07/01 A3006 RMK AO2
     T00740010=
KVYS 220115Z AUTO 17010KT 10SM CLR 17/04 A2972 RMK AO2
     T01700042=
KZPH 220115Z AUTO 02004KT 10SM CLR 12/07 A3009 RMK A02
     T01220072=
K6S8 220110Z AUTO 08012KT 10SM 11/04 A2955 RMK A01 LAUREL=
KFLY 220115Z AUTO 30007KT 280V350 10SM CLR 10/M10 A2985 RMK AO2
     T00961097=
KFOT 220110Z AUTO 29006KT 9SM OVC024 14/09 A2992 RMK AO1=
KFTN 220115Z AUTO 13006KT 10SM CLR 22/11 A2994 RMK A01=
KFWS 220115Z AUTO 16012G17KT 10SM CLR 26/08 A2984 RMK AO2
     T02580076=
KGDJ 220115Z AUTO 17009KT 10SM CLR 27/05 A2983 RMK AO2
     T02650052=
KGLX 220115Z AUTO 05010KT 10SM CLR 21/13 A3010 RMK A01=
KGOO 220115Z AUTO 00000KT 10SM CLR 20/04 A2987 RMK A01=
KGYB 220115Z AUTO 19005KT 10SM CLR 24/13 A2995 RMK AO2
     T02400130=
KGYI 220115Z AUTO 16013KT 10SM CLR 26/07 A2981 RMK AO2 T02560073
     TSNO=
KHHF 220115Z AUTO 23005KT 10SM CLR 19/M02 A2966 RMK AO2
     T01881022=
KHHV 220115Z AUTO 17014G23KT 10SM BKN043 24/14 A3000 RMK A01=
KHRX 220115Z AUTO 22010KT 10SM CLR 22/00 A2979 RMK AO2
     T02181001=
KLHB 220115Z AUTO 17006KT 10SM CLR 24/10 A2992 RMK AO2
     T02360102=
KLHM 220115Z AUTO 15007KT 10SM CLR 24/06 A2972 RMK AO1=
KMDD 220115Z AUTO 19009KT 10SM CLR 23/07 A2987 RMK AO2
     T02280073=
KMNH 220115Z AUTO 00000KT 10SM CLR 10/M13 A2986 RMK AO2=
KPEZ 220115Z AUTO 16004KT 10SM CLR 23/10 A2994 RMK AO2
     T02290104=
KPSO 220115Z AUTO 00000KT 10SM CLR 10/M04 A3007 RMK AO2
     T00951045=
KRWV 220115Z AUTO 16010KT 10SM CLR 23/11 A2994 RMK AO2
     T02340112=
KRYW 220115Z AUTO 19009G14KT 10SM CLR 24/09 A2994 RMK AO2
     T02420088=
KT41 220115Z AUTO 10SM CLR 22/15 A3001 RMK AO2 T02220152=
KT82 220115Z AUTO 00000KT 10SM CLR 21/08 A2996 RMK AO2
     T02130080=
KTYL 220115Z AUTO 18007KT 10SM CLR 14/03 A3006 RMK AO2=
KCFS 220115Z AUTO 18009G15KT 10SM CLR 18/02 A2975 RMK AO2
     T01760023=
KCKN 220115Z AUTO 21004KT 10SM CLR 12/M01 A2955 RMK AO2=
KGDB 220115Z AUTO 09004KT 10SM CLR 11/02 A2962 RMK AO2
     T01050016=
KJYG 220117Z AUTO 12003KT 5SM HZ CLR 08/02 A2963 RMK AO2=
KMJQ 220115Z AUTO 08005KT 10SM CLR 09/01 A2964 RMK AO2=
KPHN 220115Z AUTO 19007KT 10SM CLR 11/03 A2982 RMK AO2=
KBIE 220115Z AUTO 00000KT 10SM CLR 14/02 A2960 RMK AO2
     T01430016=
KEGV 220115Z AUTO 00000KT 10SM CLR 04/01 A2963 RMK AO2
     T00440013=
KFET 220115Z AUTO 00000KT 10SM CLR 14/01 A2959 RMK AO2
     T01350014=
KFOA 220115Z AUTO 17008KT 10SM CLR 12/03 A2988 RMK AO2=
KFSW 220115Z AUTO 17006KT 10SM OVC001 21/04 A2966 RMK AO2=
KFWC 220115Z AUTO 17003KT CLR 17/03 A2987 RMK AO1 T01650027
     PWINO=
KGPC 220115Z AUTO 17008KT 10SM CLR 13/02 A2989 RMK AO2
     T01320017=
KGRN 220115Z AUTO 18005KT 10SM CLR 14/M08 A2952 RMK AO2
     T01371082=
KGWB 220115Z AUTO 20005KT 10SM CLR 16/03 A2986 RMK AO2=
KHAI 220115Z AUTO 19008KT 10SM CLR 16/03 A2980 RMK AO2
     T01600033=
