SAUS80 KWBC 220000 RRD
METAR
KCHS 212356Z 00000KT 10SM CLR 14/06 A3011 RMK AO2 SLP196 T01440061
     10217 20133 53009=
KCUL 212353Z AUTO 15005KT 10SM CLR 16/03 A2987 RMK AO2=
KDVK 212350Z AUTO 00000KT 10SM CLR 13/01 A3002 RMK AO2=
KNY0 212354Z AUTO 00000KT 10SM CLR 08/M02 A3008 RMK AO2=
KGIC 212355Z AUTO 00000KT 7SM OVC036 06/05 A2971 RMK AO1 P0005=
KSOA 212355Z AUTO 19010KT 10SM 25/07 A2995 RMK AO2=
KMEH 212356Z AUTO 29004KT 9SM -RA OVC005 04/04 A2970 RMK AO2
     SLP066 P0006 60015 T00440039 10111 20044 58020=
KCBE 212355Z AUTO 00000KT 10SM CLR 13/00 A3012 RMK AO2 T01271002
     10196 20121 401961023=
KCUL 212353Z AUTO 15005KT 10SM CLR 16/03 A2987 RMK AO2=
KNY0 212354Z AUTO 00000KT 10SM CLR 08/M02 A3008 RMK AO2=
