SAUS80 KWBC 220000
METAR
K12N 212354Z AUTO 00000KT 08/03 A3013 RMK AO1 SLP210 T00780033
     10183 20078 53011=
KNAK 212354Z AUTO 00000KT 10SM CLR 12/06 A3014 RMK AO2 SLP208
     T01170061 10172 20117 53006=
KLEX 212354Z 17005KT 10SM CLR 16/00 A3000 RMK AO2 SLP158 T01610000
     10217 20156 53004=
KLYH 212354Z 00000KT 10SM CLR 10/01 A3013 RMK AO2 SLP207 T01000011
     10194 20100 53007=
KLYV 212355Z AUTO 00000KT 10SM CLR 14/01 A2962 RMK AO2=
KMVL 212354Z AUTO 00000KT 10SM CLR 04/00 A3007 RMK AO2 SLP190
     T00440000 10144 20039 53012=
KORH 212354Z 22006KT 10SM CLR 09/01 A3014 RMK AO2 SLP211 T00890011
     10156 20089 53014=
KPIA 212354Z 19012KT 10SM CLR 21/03 A2971 RMK AO2 SLP060 T02110033
     10267 20211 53006=
KPOV 212355Z AUTO 00000KT 10SM CLR 12/M02 A2997 RMK AO2 T01201020
     PWINO=
KPZQ 212355Z AUTO 19005KT 10SM CLR 16/06 A2963 RMK AO2 T01590055
     10211 20159=
KRFD 212354Z 18008KT 10SM CLR 19/04 A2968 RMK AO2 SLP051 T01940044
     10256 20194 53014=
KRIC 212354Z 12005KT 10SM CLR 11/04 A3014 RMK AO2 SLP211 T01110039
     10200 20111 53010=
KROA 212354Z 00000KT 10SM CLR 12/01 A3014 RMK AO2 SLP210 T01170006
     10189 20117 53007=
KFNB 212353Z AUTO 19007KT 10SM CLR 26/04 A2957 RMK AO2 SLP009
     T02560044 10306 20256 55004=
KFWA 212354Z 19010KT 10SM FEW250 16/03 A2985 RMK AO2 SLP108
     T01560028 10233 20156 53011=
KGSO 212354Z 00000KT 10SM CLR 13/02 A3012 RMK AO2 SLP201 T01280022
     10194 20117 53008=
KINL 212354Z AUTO 00000KT 10SM CLR 07/01 A2952 RMK AO2 SLP007
     T00670006 10161 20067 51010=
KJAN 212354Z 15006KT 10SM CLR 19/10 A2998 RMK AO2 SLP150 T01940100
     10283 20194 55002=
KSBN 212354Z 19011KT 10SM CLR 19/03 A2978 RMK AO2 SLP083 T01890033
     10239 20183 53009=
KSDM 212353Z COR VRB05KT 10SM CLR 21/16 A2986 RMK AO2 SLP106
     T02110156 10244 20211 56009=
KSUS 212354Z 17005KT 10SM CLR 22/02 A2976 RMK AO2 SLP076 T02220017
     10278 20211 53005=
KSYR 212354Z 14007KT 10SM FEW200 SCT250 12/M02 A3002 RMK AO2
     SLP163 T01221022 10172 20117 51012=
KWAL 212354Z 00000KT 10SM CLR 12/07 A3017 RMK AO2 SLP212 T01170072
     10194 20117 53007=
KACY 212354Z 00000KT 10SM CLR 09/06 A3016 RMK AO2 SLP214 T00940056
     10189 20089 53010=
KAKQ 212354Z AUTO 00000KT 10SM CLR 09/05 A3015 RMK AO2 SLP210
     T00890050 10206 20089 53013=
KAPN 212354Z AUTO 15006KT 10SM CLR 12/04 A2964 RMK AO2 SLP042
     T01220044 10189 20122 53017=
KBTV 212354Z 19007KT 10SM CLR 11/M02 A3005 RMK AO2 SLP178
     T01111022 10150 20111 53011=
KCAR 212354Z AUTO 19006KT 10SM CLR 08/M01 A3004 RMK AO2 SLP182
     T00781011 10128 20072 51013=
KCOS 212354Z 16006KT 10SM FEW230 22/M11 A2979 RMK AO2 SLP003
     T02171111 10244 20217 56013=
KCOU 212354Z 16008KT 10SM CLR 22/02 A2972 RMK AO2 SLP061 T02170017
     10289 20217 56003 $=
KCRW 212354Z 14005KT 10SM CLR 11/03 A3004 RMK AO2 SLP178 T01110028
     10194 20111 53004=
KDSM 212354Z 33003KT 10SM FEW250 21/02 A2961 RMK AO2 SLP023
     T02060022 10261 20206 53003=
PHMK 212354Z 02007KT 10SM FEW042 28/21 A2999 RMK AO2 SLP155
     T02830211 10306 20256 58020=
PHOG 212354Z 03013KT 10SM FEW040 34/20 A2995 RMK AO2 SLP147
     T03440200 10344 20272 58022=
KDMH 212354Z AUTO 14/01 A3014 RMK AO1 SLP206 T01390006 10194 20139
     53006=
KCID 212352Z 24003KT 8SM CLR 21/02 A2961 RMK AO2 SLP028 T02060017
     10283 20200 53010=
KPDX 212353Z 14006KT 2SM -RA BR FEW005 BKN034 OVC050 10/09 A2975
     RMK AO2 SFC VIS 3 SLP074 P0010 60031 T01000089 10122 20100
     56027=
KSDM 212353Z AUTO VRB05KT 10SM CLR 21/16 A2986 RMK AO2 SLP106
     T02110156 10244 20211 56009=
