SAUS70 KWBC 212318 RRF
METAR
K54A 212315Z AUTO 33004KT 10SM CLR 22/12 A2998 RMK AO2=
K5T9 212310Z AUTO VRB06KT 10SM CLR 27/13 A2989 RMK A01=
K65S 212315Z AUTO 19006KT 6SM BR SCT022 OVC032 06/05 A2960 RMK
     AO2=
K6A2 212315Z AUTO 00000KT 10SM CLR 13/02 A3010 RMK AO2=
K82V 212315Z AUTO 25008KT 10SM CLR 20/M11 A2970 RMK AO2=
K8A3 212315Z AUTO 21004KT 10SM CLR 16/00 A3001 RMK A01=
K9A5 212315Z AUTO 00000KT 10SM CLR 13/05 A3008 RMK AO2
     T01320049=
KAAS 212315Z AUTO 18005KT 10SM CLR 17/00 A3004 RMK AO1=
KACP 212315Z AUTO 19006KT 10SM CLR 25/13 A2998 RMK AO2=
KADC 212316Z AUTO 00000KT 10SM CLR 11/M01 A2959 RMK AO2 TSNO=
KAEJ 212315Z AUTO 24010G22KT 7SM 17/M14 A2997 RMK AO2
     T01651141=
KAGI 212315Z AUTO 11012KT 10SM CLR 25/12 A3003 RMK AO2
     T02500121=
KAHQ 212315Z AUTO 13005KT 7SM CLR 21/01 A2958 RMK AO2
     T02070005=
KALX 212315Z AUTO 00000KT 10SM CLR 15/08 A3008 RMK AO2
     T01480080=
KANW 212315Z AUTO 14006KT 10SM CLR 19/M01 A2958 RMK AO2
     T01861007=
KARM 212315Z AUTO 19013G19KT 10SM SCT047 25/14 A2997 RMK AO2
     T02500136 TSNO=
KASN 212315Z AUTO 00000KT 10SM CLR 18/06 A3007 RMK AO2
     T01780055=
KAUH 212315Z AUTO 00000KT 10SM CLR 22/M01 A2960 RMK AO2
     T02221011=
KAVK 212315Z AUTO 19018KT 10SM CLR 31/M02 A2962 RMK AO2 PWINO=
KAVQ 212315Z AUTO 27009G17KT 10SM CLR 33/05 A2984 RMK AO2
     T03270048=
KAXH 212315Z AUTO 19006G14KT 10SM CLR 25/15 A2997 RMK AO2
     T02530145=
KAXS 212315Z AUTO 20021G25KT 10SM CLR 31/00 A2971 RMK AO2
     T03071005=
KAZC 212315Z AUTO 31007KT 10SM CLR 23/00 A2999 RMK AO2=
KBAM 212315Z AUTO 24019G23KT 10SM CLR 25/M07 A2983 RMK AO1=
KBDN 212315Z AUTO 23018G25KT 6SM HZ SCT065 SCT100 17/06 A2972 RMK
     AO2=
KBDU 212315Z AUTO 24013G18KT 10SM CLR 23/M07 A2973 RMK AO2=
KBGE 212315Z AUTO 00000KT 7SM CLR 17/01 A3009 RMK AO2
     T01730014=
KBGF 212315Z AUTO 18004KT 10SM CLR 17/02 A3003 RMK A01=
KBIE 212315Z AUTO 00000KT 7SM CLR 23/01 A2958 RMK AO2
     T02300011=
KBKD 212315Z AUTO 20018G21KT 5SM HZ CLR 32/03 A2979 RMK AO2
     T03170026=
KBNW 212315Z AUTO 00000KT 10SM CLR 23/M00 A2962 RMK AO2=
KBPC 212315Z AUTO 25008KT 10SM CLR 29/M04 A2968 RMK AO2=
KBQP 212315Z AUTO 19003KT 10SM CLR 25/12 A2992 RMK AO2
     T02510116=
KBTA 212315Z AUTO 12004KT 4SM HZ CLR 22/01 A2959 RMK AO2
     T02160011=
KBTN 212310Z AUTO 15005KT 6SM HZ CLR 15/M00 A2954 RMK AO2=
KBVN 212315Z AUTO 14004KT 10SM CLR 20/M01 A2960 RMK AO2
     T02011014=
KBXA 212315Z AUTO 19011G15KT 10SM CLR 23/12 A3004 RMK AO2
     T02320122=
KC09 212315Z AUTO 20008G15KT 10SM CLR 22/05 A2969 RMK AO2
     T02190047=
KC83 212315Z AUTO 25010KT 9SM CLR 28/09 A2979 RMK AO2=
KCCY 212315Z AUTO 34004KT 5SM HZ CLR 18/00 A2962 RMK AO2=
KCQF 212315Z AUTO 00000KT 10SM CLR 17/08 A3008 RMK AO2=
KCRX 212315Z AUTO 15006KT 10SM CLR 20/09 A2995 RMK AO2=
KCSQ 212315Z AUTO 00000KT 3SM HZ CLR 23/01 A2960 RMK AO2=
KCVC 212315Z AUTO 00000KT 10SM CLR 13/03 A3009 RMK AO2=
KCWC 212315Z AUTO 20013G24KT 10SM CLR 32/01 A2974 RMK AO2
     T03200006=
KCXP 212315Z AUTO 21013G18KT 10SM CLR 24/M05 A2993 RMK AO2=
KCXU 212315Z AUTO 00000KT 10SM CLR 13/04 A3009 RMK AO1
     T01340044=
KCXW 212305Z AUTO 18009KT 10SM CLR 25/08 A2983 RMK A01=
KCZL 212315Z AUTO 22003KT 10SM CLR 15/03 A3009 RMK AO2=
KDEH 212315Z AUTO 00000KT 9SM CLR 20/01 A2961 RMK AO2=
KDKX 212315Z AUTO 00000KT 10SM CLR 13/05 A3006 RMK A01=
KDSF 212315Z AUTO 05008KT 10SM CLR 22/13 A3008 RMK A01=
KDTA 212315Z AUTO 22009G19KT 10SM CLR 23/M10 A2985 RMK AO1=
KDUA 212315Z AUTO 17009KT 10SM CLR 30/04 A2980 RMK AO2=
KDUC 212315Z AUTO 19011KT 10SM CLR 30/02 A2974 RMK AO2
     T02970020=
