SAUS80 KWBC 220000 RRD
METAR
KUIL 212353Z AUTO 32003KT 7SM -RA FEW021 BKN050 OVC060 09/09 A2975
     RMK AO2 SLP074 P0005 60018 T00940089 10111 20083 56017=
KYKM 212353Z AUTO 24004KT 10SM OVC090 11/05 A2966 RMK AO2 RAE14
     SLP046 P0000 60001 T01060050 10144 20100 56022=
KPDX 212353Z 14006KT 2SM -RA BR FEW005 BKN034 OVC050 10/09 A2975
     RMK AO2 SFC VIS 3 SLP074 P0010 60031 T01000089 10122 20100
     56027=
KPGA 212353Z AUTO 25004KT 10SM CLR 24/M02 A2988 RMK AO2 SLP067
     T02441022 10256 20183 56021=
KMTP 212354Z AUTO 00000KT 14/09 A3017 RMK AO1 SLP217 T01440089
     10178 20144 53009=
K1V4 212354Z AUTO 06/00 A3007 RMK AO1 SLP190 6//// T00560000 10139
     20056 51011 PNO=
