SAUS70 KWBC 220200 RRE
METAR
KTKI 220153Z 18011KT 10SM CLR 24/08 A2983 RMK AO2 SLP103
     T02390083=
KTOP 220153Z AUTO 17007KT 10SM CLR 22/05 A2962 RMK AO2 SLP026
     T02220050 $=
KTRL 220153Z AUTO 17009KT 10SM CLR 23/11 A2986 RMK AO2 SLP109
     T02280106=
KTUL 220153Z 16010KT 10SM FEW200 25/07 A2972 RMK AO2 SLP059
     T02500067=
KTVC 220153Z 23008KT 10SM BKN200 17/05 A2963 RMK AO2 SLP033 LAST
     T01720050=
KTVR 220153Z AUTO 18007KT 10SM CLR 21/12 A2998 RMK AO2 SLP160
     T02110117=
KTXK 220153Z 17008KT 10SM CLR 23/11 A2988 RMK AO2 SLP116
     T02330106=
KTYR 220153Z 18009KT 10SM CLR 22/11 A2989 RMK AO2 SLP118 T02170111
     $=
KUNO 220153Z AUTO 16005KT 10SM CLR 17/08 A2987 RMK AO2 SLP108
     T01720083=
KUTS 220153Z AUTO 19010KT 10SM CLR 24/14 A2995 RMK AO2 SLP138
     T02440139=
KUUU 220153Z AUTO 19005KT 10SM CLR 12/07 A3019 RMK AO2 SLP223
     T01220072=
KVIH 220153Z AUTO 17012G20KT 10SM CLR 20/04 A2980 RMK AO2 SLP086
     T02000044 $=
KVLD 220153Z AUTO 00000KT 10SM CLR 09/05 A3013 RMK AO2 SLP210
     T00890050=
KWST 220153Z AUTO 21006KT 10SM CLR 14/08 A3019 RMK AO2 SLP222
     T01390083=
KXNA 220153Z 17009KT 10SM CLR 16/06 A2981 RMK AO2 SLP091
     T01610061=
PAAQ 220153Z AUTO 00000KT 10SM CLR 02/01 A2986 RMK AO2 SLP115
     T00220006 TSNO=
PAKW 220153Z AUTO 17004KT 10SM OVC033 07/05 A2973 RMK AO2 RAB28E52
     SLP068 P0000 T00720050 TSNO $=
PAPB 220153Z AUTO 20006KT 7SM CLR 07/ A2995 RMK AO2 SLP131 T0067
     TSNO $=
KGWO 220153Z AUTO 20004KT 10SM CLR 19/11 A2997 RMK AO2 SLP146
     T01890106=
KGZH 220153Z AUTO 00000KT 10SM CLR 11/08 A3011 RMK AO2 SLP196
     T01060083=
KHAO 220153Z AUTO 08003KT 10SM CLR 11/01 A2998 RMK AO2 SLP153
     T01060011=
KHBG 220153Z AUTO 18006KT 10SM CLR 18/09 A3008 RMK AO2 SLP185
     T01780094=
KHBR 220153Z AUTO 19010KT 10SM CLR 19/05 A2970 RMK AO2 SLP050
     T01940050=
KHEI 220153Z AUTO 36010KT 10SM SCT120 14/02 A2952 RMK AO2 PK WND
     35027/0054 SLP999 T01440017=
KHFD 220153Z 18003KT 10SM CLR 07/04 A3017 RMK AO2 SLP216
     T00720039=
KHGR 220153Z 15006KT 10SM CLR 11/M01 A3013 RMK AO2 SLP216
     T01111006 $=
KHIB 220153Z AUTO 00000KT 10SM CLR 04/02 A2959 RMK AO2 SLP029
     T00440017=
KHKA 220153Z AUTO 17007KT 10SM CLR 18/10 A2989 RMK AO2 SLP121
     T01830100 $=
KHKS 220153Z AUTO 16005KT 10SM CLR 18/11 A3001 RMK AO2 SLP155
     T01830111=
KHLG 220153Z 15006KT 10SM CLR 12/M01 A3005 RMK AO2 SLP179
     T01171011=
KHOT 220153Z AUTO 14005KT 10SM CLR 22/08 A2989 RMK AO2 SLP119
     T02170078=
KHOU 220153Z 17008KT 10SM FEW030 22/15 A3000 RMK AO2 SLP165
     T02170150=
KHRO 220153Z AUTO 17008KT 10SM CLR 19/06 A2985 RMK AO2 SLP101
     T01890056=
KHSI 220153Z AUTO 00000KT 10SM CLR 12/01 A2961 RMK AO2 SLP026
     T01170011=
KHUF 220153Z 18006KT 10SM CLR 16/03 A2988 RMK AO2 SLP119
     T01560028=
KHUL 220153Z AUTO 18006KT 10SM CLR 07/01 A3009 RMK AO2 SLP192
     T00720006=
KHYR 220153Z AUTO 00000KT 10SM CLR 05/01 A2963 RMK AO2 SLP042
     T00500011=
KIAH 220153Z 18008KT 10SM CLR 23/14 A3000 RMK AO2 SLP157
     T02280144=
KICR 220153Z AUTO 12011KT CLR 12/01 A2951 RMK AO2 SLP996
     T01170011=
KILM 220153Z 01003KT 10SM FEW049 OVC060 16/11 A3014 RMK AO2 SLP205
     T01610106 PWINO $=
KINK 220153Z AUTO 19006KT 10SM CLR 20/08 A2986 RMK AO2 SLP086
     T02000083=
KITR 220153Z AUTO 17010KT 10SM CLR 13/M09 A2969 RMK AO2 SLP029
     T01331089=
KIWI 220153Z AUTO 00000KT 10SM CLR 03/02 A3017 RMK AO2 SLP216
     T00330017=
KIXD 220153Z 16009KT 10SM CLR 21/04 A2968 RMK AO2 SLP042 T02110044
     $=
KJEF 220153Z 15008KT 10SM CLR 23/01 A2974 RMK AO2 SLP059 T02330011
     $=
