SAUS80 KWBC 220200
METAR
KGNT 220155Z AUTO 28003KT 10SM CLR 10/04 A3007 RMK AO2
     T01030037=
