SAHA31 KWBC 212300
METAR
KQHA NIL=
MTCA NIL=
MTCH NIL=
MTEG NIL=
MTJA NIL=
MTJE NIL=
MTPP 212259Z AUTO 28006KT 9000 ////// 28/24 Q1011 A2985 NOSIG=
MTPX NIL=
MTTP NIL=
