SAUS80 KWBC 220212
METAR
KGNT 220215Z AUTO 00000KT 10SM CLR 09/04 A3008 RMK AO2
     T00920041=
KAID 220215Z AUTO 18007KT 10SM CLR 15/M02 A2993 RMK AO2
     T01451017=
