SACA33 KWBC 212300 RRA
METAR
TLPC 212300Z 09005KT 9999 FEW018CB SCT023 27/25 Q1011 NOSIG=
