SAUS70 KWBC 220018 RRI
METAR
KCVC 220015Z AUTO 00000KT 10SM CLR 10/02 A3011 RMK AO2=
KCWC 220015Z AUTO 16009G20KT 140V200 10SM CLR 29/01 A2974 RMK AO2
     T02900013=
KCXE 220015Z AUTO 00000KT 10SM CLR 09/03 A3014 RMK AO1
     T00860028=
KCXP 220015Z AUTO 21010G18KT 10SM CLR 22/M06 A2991 RMK AO2=
KCXU 220015Z AUTO 00000KT 10SM CLR 11/04 A3011 RMK AO1
     T01070043=
KCXW 220010Z AUTO 16005KT 10SM FEW055 20/08 A2984 RMK A01=
KCZL 220015Z AUTO 00000KT 10SM CLR 11/03 A3011 RMK AO2=
KD39 220015Z AUTO 19003KT 10SM CLR 10/01 A2961 RMK AO2
     T01020005=
KDCM 220015Z AUTO 00000KT 10SM CLR 10/02 A3014 RMK AO2 LTG DSNT
     SE=
KDEH 220015Z AUTO 00000KT 10SM BKN019 BKN028 16/01 A2962 RMK
     AO2=
KDKX 220015Z AUTO 00000KT 10SM CLR 10/06 A3008 RMK A01=
KDSF 220015Z AUTO 04010KT 10SM CLR 22/13 A3009 RMK A01=
KDTA 220015Z AUTO 19013KT 10SM CLR 22/M10 A2983 RMK AO1=
KDUA 220015Z AUTO 17008KT 10SM CLR 24/06 A2980 RMK AO2=
KDZB 220015Z AUTO 19004KT 10SM CLR 26/06 A2991 RMK AO2
     T02560063=
KECS 220015Z AUTO 36008KT 10SM CLR 17/M10 A2952 RMK AO2=
KEDN 220015Z AUTO 00000KT 10SM CLR 13/07 A3009 RMK AO2
     T01340073=
KEGV 220015Z AUTO 00000KT 10SM CLR 06/02 A2961 RMK AO2
     T00560018=
KEIK 220015Z AUTO 25013G20KT 10SM CLR 22/M11 A2971 RMK AO2
     T02171115 PWINO=
KEKS 220010Z AUTO 17022G34KT 10SM FEW055 SCT070 OVC085 16/M02
     A2955 RMK AO2=
KERV 220015Z AUTO 16005KT 10SM CLR 22/09 A2994 RMK AO2
     T02210085=
KERY 220015Z AUTO 00000KT 10SM CLR 07/06 A2961 RMK AO2
     T00740062=
KF05 220015Z AUTO 21011KT 10SM CLR 28/02 A2972 RMK AO2
     T02790022=
KF17 220015Z AUTO 17006KT 10SM CLR 25/10 A2992 RMK AO2=
KF44 220015Z AUTO 19004KT 10SM CLR 25/11 A2986 RMK AO2=
KF46 220015Z AUTO 18006KT 10SM CLR 26/09 A2983 RMK AO2
     T02580086=
KFGX 220015Z AUTO 20004KT 10SM CLR 14/00 A3002 RMK AO2
     T01420000=
K22N 220015Z AUTO 00000KT 10SM CLR 03/00 A3014 RMK AO2=
K2D5 220015Z AUTO 15007KT 4SM HZ FEW025 SCT030 OVC048 12/01 A2954
     RMK AO2=
K5H4 220015Z AUTO 29003KT 10SM OVC070 10/07 A2955 RMK AO2=
KAEL 220015Z AUTO 00000KT 10SM CLR 12/04 A2964 RMK AO2=
KANQ 220015Z AUTO 18008KT 10SM FEW027 SCT048 BKN060 17/03 A2982
     RMK AO2=
KBBB 220015Z AUTO 00000KT 5SM HZ CLR 10/01 A2961 RMK AO2=
KBDH 220015Z AUTO 00000KT 10SM CLR 13/02 A2964 RMK AO2=
KD95 220015Z AUTO 18007KT 10SM CLR 16/M01 A2978 RMK AO2
     T01621006=
KFKA 220015Z AUTO 00000KT 7SM CLR 16/02 A2964 RMK AO2
     T01600017=
KFPK 220015Z AUTO 19007KT 10SM CLR 15/04 A2976 RMK AO2
     T01460041=
KFSO 220015Z AUTO 17009G14KT 140V200 10SM CLR 13/M03 A3003 RMK AO2
     T01271032=
KHZL 220015Z AUTO 00000KT 10SM CLR 07/M01 A3014 RMK AO2=
KIDI 220015Z AUTO 00000KT 10SM SCT050 BKN060 07/02 A3008 RMK
     A01=
KJYM 220015Z AUTO 18007KT 10SM CLR 16/00 A2982 RMK AO2
     T01640003=
KLWA 220015Z AUTO 19009KT 10SM CLR 20/03 A2972 RMK AO2
     T01960027=
KMCD 220015Z AUTO 26006KT 10SM CLR 11/07 A2962 RMK AO2
     T01080065=
KOCQ 220015Z AUTO 00000KT 09/05 A2960 RMK AO1 T00880046=
KOEB 220015Z AUTO 19006KT 10SM CLR 18/03 A2980 RMK AO2
     T01780026=
KRQB 220015Z AUTO 16004KT 10SM CLR 15/05 A2969 RMK AO2
     T01530047=
KRVL 220015Z AUTO 00000KT 10SM CLR 09/00 A3009 RMK AO2=
KRZT 220015Z AUTO 00000KT 10SM CLR 09/00 A2999 RMK AO2 PWINO=
KSLH 220015Z AUTO 25003KT 10SM CLR 13/06 A2961 RMK AO2=
KSPF 220015Z AUTO 25003KT 10SM CLR 13/M04 A2952 RMK AO2=
KVGC 220015Z AUTO 16006KT 10SM CLR 10/M03 A3007 RMK AO2=
KMMI 220015Z AUTO 00000KT 10SM CLR 11/02 A3010 RMK A01=
KMNE 220015Z AUTO 17003KT 10SM CLR 24/14 A2991 RMK AO2
     T02390136=
KMNV 220015Z AUTO 00000KT 8SM 11/02 A3008 RMK A01=
