SAUS80 KWBC 220034
METAR
KGNT 220035Z AUTO 28004KT 10SM CLR 15/03 A3006 RMK AO2
     T01480025=
KLZZ 220015Z AUTO 18004KT 10SM CLR 25/07 A2985 RMK AO2
     T02490072=
KSVE 220035Z AUTO 28016G21KT 10SM CLR M20/M48 A2983 RMK AO2=
