SAUS70 KWBC 212300 RRV
METAR
KH71 212255Z AUTO 18010G18KT 10SM CLR 29/02 A2971 RMK AO2=
KHEZ 212256Z AUTO 15006KT 10SM CLR 25/12 A2998 RMK AO2 SLP151
     T02500122=
KHFF 212255Z AUTO 00000KT 10SM CLR 13/04 A3009 RMK AO2 SLP194
     T01340035=
KHFJ 212255Z AUTO 17011G15KT 10SM CLR 26/02 A2976 RMK AO2=
KHHF 212255Z AUTO 22014KT 10SM CLR 31/M02 A2966 RMK AO2
     T03071024=
KHLB 212255Z AUTO 18007KT 10SM CLR 17/00 A2992 RMK A01=
KHLX 212255Z AUTO 18004KT 10SM CLR 11/M08 A3011 RMK AO2
     T01111078=
KHOE 212255Z AUTO 00000KT 10SM CLR 15/06 A3008 RMK AO2
     T01560058=
KHQG 212255Z AUTO 28008KT 10SM CLR 29/M09 A2967 RMK AO2
     T02901095=
KHRX 212255Z AUTO 24018G23KT 10SM CLR 28/M03 A2979 RMK AO2
     T02801032=
KHSB 212255Z AUTO 18008KT 10SM CLR 22/08 A2986 RMK AO2
     T02210081=
KHSD 212255Z AUTO 20014G21KT 10SM CLR 30/01 A2969 RMK A01=
KHYW 212255Z AUTO 00000KT 10SM CLR 12/09 A3010 RMK AO2=
KHZD 212255Z AUTO 16006KT 10SM CLR 23/10 A2990 RMK A01=
KI35 212255Z AUTO 00000KT 10SM CLR 16/00 A3006 RMK AO2
     T01571005=
KI67 212255Z AUTO 21006KT 10SM CLR 19/00 A2993 RMK AO1=
KI68 212255Z AUTO 19005KT 10SM CLR 18/01 A2995 RMK AO1
     T01840008=
KI74 212255Z AUTO 20005KT 10SM CLR 16/01 A2993 RMK AO2=
KIER 212255Z AUTO 19008G14KT 10SM CLR 27/12 A2993 RMK AO2
     T02720124=
KIFA 212255Z AUTO 34003KT 7SM CLR 20/01 A2962 RMK AO2
     T02010014=
KIGQ 212255Z AUTO 20011KT 10SM CLR 21/05 A2972 RMK AO2
     T02140050=
KINJ 212255Z AUTO 18015G20KT 10SM CLR 31/08 A2983 RMK AO2
     T03050083=
KIOB 212255Z AUTO 20005KT 10SM CLR 16/01 A3002 RMK AO2 PWINO=
KJAU 212250Z AUTO 00000KT 10SM CLR 15/00 A3009 RMK A01=
KJPX 212255Z AUTO 20004KT 10SM CLR 13/07 A3014 RMK AO2
     T01300072=
KANW 212255Z AUTO 16005KT 10SM CLR 20/M01 A2960 RMK AO2
     T02021010=
KARM 212255Z AUTO 19013G18KT 10SM SCT047 26/14 A2997 RMK AO2
     T02560136 TSNO=
KASN 212255Z AUTO 00000KT 10SM CLR 20/05 A3006 RMK AO2
     T01970047=
KATA 212255Z AUTO 19003KT 10SM CLR 28/10 A2984 RMK AO2 SLP005
     T02820099 $=
KAUO 212256Z AUTO 00000KT 10SM CLR 18/04 A3010 RMK AO2 SLP218
     T01830044=
KAVK 212255Z AUTO 19021KT 10SM CLR 31/M01 A2962 RMK AO2 PWINO=
KAVQ 212255Z AUTO 28009G15KT 10SM CLR 33/05 A2984 RMK AO2
     T03280049=
KAWO 212256Z AUTO 04005KT 10SM -RA OVC032 09/08 A2976 RMK AO2
     SLP081 P0000 T00890078=
KAXH 212255Z AUTO 20008KT 10SM CLR 26/14 A2997 RMK AO2
     T02600144=
KAXS 212255Z AUTO 21022G25KT 10SM CLR 32/M01 A2972 RMK AO2
     T03151011=
KAZC 212255Z AUTO 31007G14KT 10SM CLR 23/00 A3000 RMK AO2=
KBAM 212255Z AUTO 24016G25KT 10SM CLR 25/M07 A2984 RMK AO1=
KBAX 212255Z AUTO 17007KT 10SM CLR 14/04 A2972 RMK AO2
     T01440042=
KBCK 212255Z AUTO 00000KT 10SM CLR 13/04 A2959 RMK AO2
     T01320040=
KBDN 212255Z AUTO 23016G23KT 7SM SCT060 BKN070 17/06 A2973 RMK
     AO2=
KBDU 212255Z AUTO 25012G18KT 10SM CLR 24/M07 A2973 RMK AO2=
KBGF 212255Z AUTO 19006KT 10SM CLR 18/02 A3003 RMK A01=
KBKD 212255Z AUTO 20014G18KT 4SM HZ CLR 32/03 A2979 RMK AO2
     T03210027=
KBNW 212255Z AUTO 00000KT 10SM CLR 24/M00 A2962 RMK AO2=
KBOK 212256Z AUTO 31011G17KT 9SM FEW020 BKN036 OVC044 16/11 A2994
     RMK AO2 SLP138 T01610111 $=
KBPC 212255Z AUTO 26010G15KT 10SM CLR 30/M05 A2968 RMK AO2=
KBTA 212255Z AUTO 14003KT 10SM CLR 23/01 A2959 RMK AO2
     T02260012=
KBTN 212255Z AUTO 18004KT 7SM CLR 15/M00 A2955 RMK AO2=
KBXA 212255Z AUTO 21009KT 10SM CLR 25/11 A3004 RMK AO2
     T02450112=
KC09 212255Z AUTO 20010G15KT 10SM CLR 22/05 A2969 RMK AO2
     T02220048=
KC83 212255Z AUTO 02005KT 9SM CLR 27/12 A2980 RMK AO2=
