SAUS70 KWBC 220218
METAR
K6S8 220210Z AUTO 05012KT 10SM 10/05 A2955 RMK A01 Laurel=
K08D 220215Z AUTO 04005KT 10SM 05/05 A2957 RMK AO2=
K4R5 220215Z AUTO 00000KT 10SM CLR 04/04 A2960 RMK AO2
     T00430035=
KAQP 220213Z AUTO 19004KT 10SM 11/M01 A2958 RMK AO2=
KARV 220215Z AUTO 00000KT 10SM CLR 05/02 A2964 RMK AO2
     T00460016=
KD55 220215Z AUTO 32007KT 7SM FEW023 SCT036 BKN041 07/07 A2957 RMK
     AO2=
KDVP 220213Z AUTO 00000KT 7SM CLR 07/00 A2963 RMK AO2
     T00720000=
KETH 220213Z AUTO 16005KT 10SM 13/01 A2958 RMK AO2=
KFOZ 220213Z AUTO 00000KT 10SM CLR 09/02 A2962 RMK AO2=
KHFY 220215Z AUTO 16005KT 10SM CLR 14/03 A2993 RMK AO2
     T01380031=
KIUA 220215Z AUTO 18006KT 10SM CLR 12/M01 A3000 RMK AO2
     T01151015=
KJKJ 220215Z AUTO 00000KT 10SM CLR 11/00 A2957 RMK AO2 TSNO=
KLDJ 220215Z AUTO 00000KT 10SM CLR 11/03 A3018 RMK AO2
     T01130030=
KLNL 220215Z AUTO 00000KT 10SM CLR 02/01 A2966 RMK AO2
     T00190009=
KLUM 220215Z AUTO 00000KT 10SM CLR 10/07 A2964 RMK AO2
     T00980073=
KMDZ 220215Z AUTO 16003KT 10SM CLR 06/04 A2965 RMK AO2 T00590038
     PWINO=
KMGG 220215Z AUTO 00000KT 10SM CLR 08/03 A2962 RMK AO2 T00800031
     PWINO=
KMRJ 220215Z AUTO 00000KT 10SM CLR 16/00 A2967 RMK AO2=
KORB 220213Z AUTO 00000KT 10SM CLR 09/02 A2955 RMK AO2=
KOVL 220215Z AUTO 12003KT 7SM CLR 09/01 A2960 RMK AO2=
KOWA 220213Z AUTO 14004KT 10SM CLR 09/03 A2964 RMK AO2=
KRCX 220215Z AUTO 00000KT 10SM CLR 07/04 A2967 RMK AO2
     T00660044=
KROX 220215Z AUTO 27008KT 10SM BKN090 13/01 A2954 RMK AO2=
KRPD 220215Z AUTO 00000KT 10SM CLR 06/05 A2965 RMK AO2
     T00620047=
KSAZ 220215Z AUTO 00000KT 10SM CLR 08/02 A2958 RMK AO2=
KSDC 220215Z AUTO 17006KT 10SM CLR 12/M01 A3000 RMK AO2=
KSGS 220215Z AUTO 00000KT 10SM CLR 11/04 A2963 RMK AO2
     T01110037=
KXVG 220213Z AUTO 00000KT 10SM CLR 06/02 A2958 RMK AO2=
KSIK 220215Z AUTO 17003KT 10SM CLR 18/10 A2989 RMK AO2=
KSPF 220215Z AUTO VRB03KT 10SM CLR 12/M04 A2952 RMK AO2=
KSTF 220215Z AUTO 15009KT 10SM CLR 18/13 A3001 RMK AO2=
KSUZ 220215Z AUTO 00000KT 10SM CLR 18/10 A2989 RMK A01=
KT69 220215Z AUTO 18007KT 10SM CLR 21/16 A2998 RMK A01=
KTKX 220215Z AUTO 19003KT 7SM CLR 16/10 A2989 RMK AO2 TSNO=
KTME 220215Z AUTO 19007KT 10SM CLR 21/15 A3001 RMK AO2=
KTSP 220215Z AUTO 29003KT 10SM CLR 16/M01 A2998 RMK AO2=
KTWT 220215Z AUTO 16005KT 10SM CLR 16/06 A2992 RMK AO2=
KU42 220215Z AUTO 22007KT 10SM CLR 15/M02 A2977 RMK AO1
     T01461019=
KUOX 220215Z AUTO 15007KT 10SM CLR 19/10 A2998 RMK AO2 PWINO=
KUTA 220215Z AUTO 17009KT 10SM CLR 19/10 A2992 RMK AO2 T01940100
     $=
KVGC 220215Z AUTO 13006KT 10SM CLR 07/M03 A3008 RMK AO2=
KVJI 220215Z AUTO 00000KT 10SM CLR 06/M01 A3013 RMK AO2
     T00601011=
KW78 220215Z AUTO 00000KT 10SM CLR 05/03 A3018 RMK AO1
     T00450031=
KW81 220215Z AUTO 00000KT 10SM CLR 05/03 A3017 RMK AO1
     T00450032=
KX07 220215Z AUTO 00000KT 10SM CLR 17/11 A3008 RMK A01=
KXNX 220215Z AUTO 00000KT 10SM FEW039 FEW045 SCT050 13/03 A3003
     RMK A01=
KY19 220215Z AUTO 09008KT 10SM SCT040 SCT120 11/02 A2951 RMK
     AO2=
KCDN 220215Z AUTO 00000KT 10SM CLR 07/02 A3016 RMK AO2=
KCEY 220215Z AUTO 16008KT 10SM CLR 19/09 A2994 RMK A01=
KCFJ 220215Z AUTO 17008KT 10SM CLR 12/M01 A2988 RMK AO2
     T01201013=
KCGC 220215Z AUTO 00000KT 10SM CLR 10/06 A3011 RMK AO2=
KCKM 220215Z AUTO 16009KT 10SM FEW038 SCT050 BKN060 22/11 A2994
     RMK A01=
KCLS 220215Z AUTO 00000KT 8SM -RA BKN018 OVC035 08/07 A2968 RMK
     AO2=
KCLW 220215Z AUTO 36003KT 10SM CLR 16/09 A3008 RMK AO2=
KCMR 220215Z AUTO 15005KT 10SM CLR 09/02 A3009 RMK AO2=
KCPT 220215Z AUTO 17012G18KT 10SM CLR 24/08 A2986 RMK A01=
