SAUS70 KWBC 220020 RRD
METAR
KIGQ 220015Z AUTO 19012KT 10SM CLR 19/05 A2975 RMK AO2
     T01900047=
KIMS 220015Z AUTO 15004KT 10SM CLR 16/01 A2998 RMK AO2=
KJPX 220015Z AUTO 22004KT 10SM CLR 12/07 A3016 RMK AO2
     T01230069=
KLCG 220015Z AUTO 00000KT 7SM CLR 12/M03 A2960 RMK AO2
     T01171026=
KLVN 220015Z AUTO 00000KT 7SM CLR 12/02 A2964 RMK AO2=
KMOX 220015Z AUTO 16003KT 10SM CLR 13/M03 A2961 RMK AO2=
KMZH 220015Z AUTO 00000KT 10SM CLR 09/01 A2960 RMK AO2=
KOSC 220015Z AUTO 20013G17KT 10SM CLR 16/05 A2967 RMK AO2
     T01620048=
KPMH 220015Z AUTO 00000KT 10SM CLR 13/00 A3003 RMK AO2
     T01260001=
KSLO 220015Z AUTO 16004KT 10SM CLR 20/03 A2985 RMK AO2
     T01980032=
KUSE 220015Z AUTO 19007KT 10SM CLR 16/02 A2984 RMK AO2=
KWBF 220015Z AUTO VRB04KT 10SM 23/13 A3008 RMK A01=
KY49 220015Z AUTO 21003KT 10SM CLR 11/00 A2958 RMK AO2
     T01100000=
K33N 220015Z AUTO 00000KT 10SM FEW031 FEW042 SCT049 08/06 A3014
     RMK A01=
K3I2 220015Z AUTO 00000KT 10SM CLR 11/01 A3004 RMK AO2
     T01060010=
KC09 220015Z AUTO 19008KT 10SM CLR 20/05 A2971 RMK AO2
     T01950050=
KCCY 220015Z AUTO 03003KT 10SM CLR 15/00 A2963 RMK AO2=
KCKZ 220015Z AUTO 00000KT 10SM CLR 06/02 A3015 RMK AO2=
KDEH 220015Z AUTO 00000KT 10SM BKN019 BKN028 16/01 A2962 RMK
     AO2=
KDSF 220015Z AUTO 04010KT 10SM CLR 22/13 A3009 RMK A01=
KEGV 220015Z AUTO 00000KT 10SM CLR 06/02 A2961 RMK AO2
     T00560018=
KI67 220015Z AUTO 00000KT 10SM CLR 16/00 A2995 RMK AO1=
KI74 220015Z AUTO 18004KT 10SM CLR 13/01 A2995 RMK AO2=
KIFA 220015Z AUTO 00000KT 7SM CLR 14/01 A2964 RMK AO2
     T01430014=
KM30 220015Z AUTO 00000KT 10SM CLR 18/07 A2990 RMK AO2
     T01840066=
KMOP 220015Z AUTO 18005KT 10SM CLR 16/05 A2969 RMK AO2
     T01620045=
KOLG 220015Z AUTO 00000KT 10SM CLR 08/01 A2959 RMK AO1=
KOXI 220015Z AUTO 19010KT 10SM CLR 17/02 A2979 RMK AO1=
KOXV 220015Z AUTO 15005KT 10SM CLR 22/01 A2961 RMK AO2=
KPCW 220015Z AUTO 20012KT 10SM CLR 16/02 A2987 RMK AO2=
KPRO 220015Z AUTO 22005KT 10SM CLR 17/00 A2961 RMK AO2
     T01711005=
KPTD 220015Z AUTO 18012KT 10SM FEW035 BKN042 OVC060 13/M03 A2996
     RMK AO2=
KRRT 220015Z AUTO 20003KT 10SM SCT120 12/03 A2951 RMK AO2=
KRZL 220015Z AUTO 18008KT 10SM CLR 17/02 A2981 RMK AO2=
KSAR 220015Z AUTO 16006KT 10SM CLR 20/07 A2985 RMK AO2
     T02020069=
KTNU 220015Z AUTO 34004KT 10SM CLR 22/01 A2961 RMK A01=
KVAF 220015Z AUTO 17013KT 10SM FEW044 24/12 A3002 RMK A01=
KXLL 220015Z AUTO 17005KT 10SM CLR 08/02 A3014 RMK AO2=
KY31 220015Z AUTO 20004KT 10SM CLR 15/03 A2969 RMK AO2
     T01530029=
K2R9 220015Z AUTO 15010G16KT 10SM CLR 24/15 A2994 RMK AO2
     T02450146=
K65S 220015Z AUTO 20008G13KT 160V230 10SM SCT050 BKN065 05/03
     A2960 RMK AO2=
K82V 220015Z AUTO 27006KT 10SM CLR 17/M11 A2969 RMK AO2=
KARM 220015Z AUTO 20009KT 10SM SCT043 23/14 A2998 RMK AO2
     T02260138 TSNO=
KBQX 220015Z AUTO 17016KT 10SM 24/14 A3000 RMK A01=
KDZB 220015Z AUTO 19004KT 10SM CLR 26/06 A2991 RMK AO2
     T02560063=
KEKS 220010Z AUTO 17022G34KT 10SM FEW055 SCT070 OVC085 16/M02
     A2955 RMK AO2=
KF17 220015Z AUTO 17006KT 10SM CLR 25/10 A2992 RMK AO2=
KFOT 220010Z AUTO 30009KT 9SM OVC024 14/09 A2994 RMK AO1=
KGLX 220015Z AUTO 04009KT 10SM CLR 21/13 A3009 RMK A01=
KGOO 220015Z AUTO 00000KT 10SM CLR 23/03 A2989 RMK A01=
KLXY 220015Z AUTO 18007KT 10SM CLR 25/10 A2988 RMK AO2
     T02540098=
KOAR 220015Z AUTO 29008KT 10SM OVC011 05/00 A2990 RMK AO2
     PWINO=
KPYX 220015Z AUTO 20006KT 10SM CLR 21/M08 A2966 RMK AO2
     T02141077=
KSXU 220015Z AUTO 26013G18KT 10SM CLR 22/00 A2986 RMK AO2
     T02151001=
