SASA31 KWBC 220000 RRA
METAR
SVBC 220003Z AUTO 03005KT NCD 28/25 Q1009=
SVMC 220003Z AUTO NIL=
SVMG 220003Z AUTO 09009KT NCD 33/25 Q1009=
SVMI 220003Z AUTO 07006KT NCD ///// Q1010=
