SAUS80 KWBC 220100
METAR
KM25 220055Z AUTO 18006KT 10SM CLR 19/08 A2993 RMK AO2 PWINO=
