SAUS70 KWBC 220000 RRF
METAR
KHFD 212353Z 17004KT 10SM CLR 10/04 A3014 RMK AO2 SLP207 T01000039
     10183 20094 53015=
KHGR 212353Z 14005KT 10SM CLR 13/M01 A3010 RMK AO2 SLP207
     T01281011 10178 20128 53007 $=
KHIB 212353Z AUTO 00000KT 10SM CLR 07/03 A2957 RMK AO2 SLP022
     T00720028 10156 20072 51012=
KHIE 212352Z AUTO 00000KT 10SM CLR 01/M02 A3009 RMK AO2 SLP203
     T00111017 10133 20011 51013=
KHLG 212353Z 16007KT 10SM CLR 13/M01 A3002 RMK AO2 SLP171
     T01331011 10178 20133 53006=
KHOU 212353Z 18011KT 10SM FEW045 24/14 A2996 RMK AO2 SLP151
     T02440139 10294 20244 53004=
KHSI 212353Z AUTO 00000KT 9SM CLR 17/M01 A2961 RMK AO2 SLP023
     T01721011 10256 20172 55006=
KHUF 212353Z 18008KT 10SM CLR 18/03 A2986 RMK AO2 SLP111 T01830028
     10250 20178 53004=
KHUL 212353Z AUTO 20003KT 10SM CLR 05/00 A3008 RMK AO2 SLP193
     T00500000 10139 20044 53017=
KHYR 212353Z AUTO 00000KT 10SM CLR 09/03 A2960 RMK AO2 SLP029
     T00940028 10189 20094 53015=
KIAH 212353Z 18009G17KT 10SM FEW065 26/14 A2994 RMK AO2 SLP138
     T02560144 10289 20256 55002=
KICR 212353Z AUTO 11007KT CLR 16/01 A2954 RMK AO2 SLP003 T01610011
     10228 20161 56016=
KILM 212353Z 07003KT 10SM OVC041 16/12 A3011 RMK AO2 SLP196
     T01610117 10228 20161 53009 PWINO $=
KINK 212353Z AUTO 26006KT 10SM CLR 27/04 A2984 RMK AO2 SLP073
     6//// T02720044 10300 20250 56013=
KIWI 212353Z AUTO 00000KT 10SM CLR 05/02 A3016 RMK AO2 SLP214
     T00500022 10150 20050 53016=
KJEF 212353Z 13007KT 10SM CLR 24/01 A2972 RMK AO2 SLP051 6////
     T02390006 10300 20239 55001 $=
K08D 212355Z AUTO 03010KT 10SM 06/06 A2955 RMK AO2=
K2C8 212355Z AUTO 26009KT 10SM FEW060 BKN070 OVC075 13/02 A2951
     RMK AO2=
K4R5 212355Z AUTO 00000KT 10SM SCT120 07/05 A2957 RMK AO2
     T00730051=
KALN 212350Z 15009KT 10SM CLR 18/02 A2979=
KAQW 212352Z AUTO 10005KT 10SM CLR 08/ A3011 RMK AO2 SLP202 T0078
     10156 20067 51013 $=
KARR 212352Z 16006KT 10SM CLR 17/04 A2970 RMK AO2 SLP058 T01720039
     10244 20172 53012=
KARV 212355Z AUTO 00000KT 10SM CLR 10/03 A2961 RMK AO2 T00950030
     10176 20095=
KDVP 212353Z AUTO 08004KT 10SM CLR 14/02 A2964 RMK AO2 T01440015
     10181 20144=
KGYY 212345Z 18007KT 10SM CLR 21/04 A2974=
KHFY 212355Z AUTO 18005KT 10SM CLR 17/03 A2990 RMK AO2 T01700030
     10237 20170=
KIUA 212355Z AUTO 00000KT 10SM CLR 12/00 A2998 RMK AO2 T01150000
     10200 20115=
KLDJ 212355Z AUTO 00000KT 10SM CLR 13/04 A3014 RMK AO2 T01260041
     10181 20126=
KMDZ 212355Z AUTO 23003KT 10SM CLR 12/04 A2962 RMK AO2 T01190035
     10180 20116 PWINO=
KMRJ 212355Z AUTO 25003KT 10SM CLR 20/M01 A2963 RMK AO2=
KORB 212353Z AUTO 00000KT 10SM CLR 11/01 A2954 RMK AO2=
KTAN 212352Z AUTO A3016 RMK AO2 SLPNO 52014 PWINO FZRANO TSNO
     $=
KY51 212355Z AUTO 22003KT 10SM CLR 18/04 A2964 RMK AO1 T01750036
     10219 20172=
KACT 212351Z 18013KT 10SM CLR 27/11 A2985 RMK AO2 SLP103 T02670111
     10333 20267 55003=
KAVX 212351Z AUTO 24007KT 9SM CLR 17/14 A2989 RMK AO2 SLP100
     T01720139 10239 20172 56013=
KBAZ 212351Z AUTO 18010KT 10SM CLR 27/09 A2990 RMK AO2 SLP118
     T02670094 10306 20267 56007=
KBGD 212351Z AUTO 20008KT 10SM CLR 27/M05 A2970 RMK AO2 SLP021
     T02671050 10306 20261 56009=
KBHK 212351Z AUTO 34010KT 10SM SCT120 12/04 A2954 RMK AO2 SLP006
     T01220039 10222 20122 53018=
KDAG 212350Z AUTO 00000KT 10SM CLR 31/M04 A2981 RMK AO2 SLP073
     T03061039 10317 20256 56021=
KGPM 212350Z 17007KT 10SM SKC 28/07 A2982=
KHDO 212351Z AUTO 20008KT 10SM CLR 26/10 A2992 RMK AO2 SLP120
     T02560100 10294 20250 56009=
KHOB 212350Z 23005KT 10SM SKC 24/06 A2988=
