SAUS70 KWBC 220200 RRF
METAR
KEKM 220155Z AUTO 19009KT 10SM CLR 17/03 A2982 RMK AO2
     T01680034=
K06D 220155Z AUTO 00000KT 10SM SCT038 BKN044 OVC055 05/05 A2956
     RMK AO2=
K0S9 220155Z AUTO 00000KT 6SM -RA BKN009 BKN014 OVC039 09/08 A2970
     RMK AO2 P0006=
K0VG 220155Z AUTO 00000KT 10SM CLR 05/01 A3012 RMK AO2=
K15M 220155Z AUTO 00000KT 10SM CLR 16/11 A3002 RMK AO2 T01640110
     $=
K1R7 220155Z AUTO 15009KT 10SM CLR 20/17 A3005 RMK AO2 PWINO=
K24J 220155Z AUTO 00000KT 10SM 09/04 A3012 RMK A01=
K28J 220155Z AUTO 00000KT 10SM SCT038 08/07 A3011 RMK AO2 TSNO=
K2D5 220155Z AUTO 15009KT 5SM HZ BKN022 BKN026 OVC049 10/00 A2955
     RMK AO2=
K3AU 220155Z AUTO 18013G18KT 10SM CLR 26/M05 A2965 RMK AO2=
K42J 220155Z AUTO 07004KT 10SM FEW024 SCT036 BKN050 12/05 A3010
     RMK A01=
K46D 220155Z AUTO 34003KT 10SM FEW048 FEW055 BKN070 11/02 A2957
     RMK AO2=
K4A6 220155Z AUTO 00000KT 10SM SCT041 10/05 A3009 RMK AO2=
K4M9 220155Z AUTO 15006KT 6SM HZ CLR 15/10 A2988 RMK AO2 PWINO=
K5H4 220155Z AUTO 00000KT 10SM OVC060 09/05 A2957 RMK AO2=
K6B9 220155Z AUTO 18008G20KT 150V220 10SM CLR 12/M02 A3003 RMK
     AO2=
K7L2 220155Z AUTO 08004KT 10SM FEW120 12/M01 A2952 RMK AO2=
K7W4 220155Z AUTO 00000KT 10SM CLR 07/04 A3016 RMK AO1
     T00710042=
K82C 220155Z AUTO 00000KT 10SM CLR 07/04 A2964 RMK AO2
     T00740038=
K96D 220155Z AUTO 30004KT 10SM FEW044 FEW060 OVC070 09/08 A2956
     RMK AO2=
K9D7 220155Z AUTO 01005KT 6SM BR SCT029 BKN047 OVC060 07/06 A2958
     RMK AO2 TSNO=
KACJ 220155Z AUTO 00000KT 10SM CLR 09/03 A3012 RMK AO2
     T00920034=
KAFP 220155Z AUTO 00000KT 10SM CLR 06/01 A3015 RMK AO2
     T00550012=
KAGO 220155Z AUTO 00000KT 10SM CLR 17/13 A2990 RMK A01=
KAIG 220155Z AUTO 00000KT 10SM CLR 06/02 A2967 RMK AO2
     T00570021=
KAIK 220155Z AUTO 00000KT 10SM CLR 08/02 A3014 RMK AO2
     T00830023=
KAKH 220154Z AUTO 00000KT 10SM CLR 07/02 A3014 RMK AO2 SLP209
     T00670022=
KAKR 220154Z AUTO 18010KT 10SM CLR 14/M01 A2998 RMK AO2 SLP154
     T01441011=
KALM 220155Z AUTO 15009KT 10SM CLR 18/07 A2996 RMK AO2=
KANQ 220155Z AUTO 19009KT 10SM FEW028 SCT039 BKN048 15/03 A2984
     RMK AO2=
KAPC 220154Z 27014KT 9SM CLR 15/11 A2982 RMK AO2 SLP090
     T01500111=
KAQX 220155Z AUTO 00000KT 10SM CLR 09/03 A3014 RMK AO2=
KARW 220155Z AUTO 00000KT 10SM CLR 12/09 A3014 RMK AO2=
KASJ 220155Z AUTO 00000KT 10SM SCT065 07/07 A3018 RMK AO2
     T00680066=
KATA 220155Z AUTO 00000KT 10SM CLR 15/12 A2988 RMK AO2 SLP017
     T01500123 $=
KATS 220155Z AUTO 24008KT 10SM CLR 20/07 A2991 RMK AO2=
KAVC 220155Z AUTO 00000KT 10SM CLR 06/05 A3022 RMK AO2
     T00630051=
KKY8 220155Z AUTO 16004KT 10SM FEW037 FEW046 17/04 A2993 RMK
     A01=
KL08 220155Z AUTO 26004KT 10SM CLR 25/09 A2976 RMK AO2=
KL35 220155Z AUTO 21003KT 10SM CLR 10/02 A3010 RMK AO2=
KL52 220155Z AUTO 00000KT 8SM BKN013 15/14 A2990 RMK A01=
KLBO 220155Z AUTO 17010KT 10SM CLR 20/01 A2981 RMK AO2=
KLKR 220155Z AUTO 00000KT 10SM FEW041 FEW047 BKN060 08/03 A3015
     RMK AO2=
KLKU 220155Z AUTO 00000KT 10SM CLR 04/03 A3016 RMK AO2
     T00390026=
KLNP 220155Z AUTO 20005KT 10SM CLR 08/00 A3012 RMK AO2=
KLRO 220155Z AUTO 00000KT 10SM CLR 10/10 A3013 RMK AO2=
KLRU 220155Z AUTO 22005KT 10SM CLR 20/06 A3000 RMK AO2
     T01980062=
KLRY 220155Z AUTO 19005KT 10SM CLR 22/02 A2971 RMK AO2=
KLUX 220155Z AUTO 00000KT 10SM CLR 08/02 A3015 RMK AO2=
KLVL 220155Z AUTO 00000KT 10SM CLR 10/05 A3018 RMK AO1
     T00950050=
KLWT 220154Z AUTO 29011G17KT 5SM RA BR BKN026 OVC031 06/04 A2957
     RMK AO2 SLP006 P0010 T00610044=
KM40 220155Z AUTO 16007KT 10SM CLR 19/13 A3003 RMK AO2=
