SAUS80 KWBC 220200
METAR
KM25 220155Z AUTO 18005KT 10SM CLR 18/09 A2993 RMK AO2 PWINO=
