SAUS80 KWBC 220000
METAR
K77S 212355Z AUTO 21011KT 9SM FEW011 BKN016 OVC024 16/15 A2977 RMK
     A01=
