SACA31 KWBC 220100
METAR
MBJT NIL=
MBPV NIL=
MBSC NIL=
MKJP NIL=
MKJS NIL=
MUCM 220050Z 33004KT 9000 SCT020 24/23 Q1014=
MUCU 220050Z 05005KT 9000 FEW020 26/24 Q1013=
MUHA 220050Z 03006KT 9000 FEW030 22/17 Q1016=
MUVR 220050Z VRB02KT 9000 FEW030 SCT050 21/18 Q1015=
MWCB NIL=
MWCR NIL=
MYAM NIL=
MYEG NIL=
MYEH NIL=
MYGF NIL=
MYNN NIL=
