SAUS70 KWBC 220000 CCC
METAR
TISX 212353Z 06006KT 10SM FEW026 28/23 A2991 RMK AO2 SLP125
     T02780233 10311 20278 53009 $=
