SAUS70 KWBC 212318 RRC
METAR
KBVI 212315Z AUTO 18004KT 10SM CLR 14/M01 A3001 RMK AO2
     T01421015=
KBVU 212315Z AUTO 16007KT 140V200 10SM CLR 29/01 A2982 RMK AO2=
KBWP 212315Z AUTO 21004KT 9SM CLR 15/M00 A2956 RMK AO2=
KBWW 212315Z AUTO 34018G25KT 10SM OVC095 17/01 A2949 RMK AO2=
KBXK 212315Z AUTO 00000KT 10SM CLR 30/10 A2981 RMK A01=
KC29 212315Z AUTO 00000KT 10SM CLR 18/02 A2963 RMK AO1
     T01830019=
KCAD 212315Z AUTO 21009KT 10SM CLR 15/04 A2965 RMK AO2
     T01540037=
KCDA 212315Z AUTO 13003KT 10SM 09/M03 A3008 RMK AO2 T00911027=
KCDI 212315Z AUTO 00000KT 10SM CLR 11/03 A3000 RMK AO2
     T01090026=
KCDN 212315Z AUTO 00000KT 10SM CLR 13/01 A3012 RMK AO2=
KCEY 212315Z AUTO 15006KT 10SM CLR 22/08 A2991 RMK A01=
KCFJ 212315Z AUTO 17008KT 10SM CLR 16/M01 A2985 RMK AO2
     T01631010=
KCGC 212315Z AUTO 00000KT 10SM CLR 17/03 A3005 RMK AO2=
KCJR 212315Z AUTO 00000KT 10SM CLR 10/02 A3013 RMK AO2
     T00960023=
KCKC 212315Z AUTO 00000KT 10SM CLR 10/02 A2954 RMK AO2=
KCKM 212315Z AUTO 17010KT 10SM CLR 26/10 A2990 RMK A01=
KCKZ 212315Z AUTO 00000KT 10SM CLR 08/02 A3014 RMK AO2=
KCLS 212315Z AUTO VRB06KT 9SM -RA SCT018 08/06 A2974 RMK AO2=
KCLW 212315Z AUTO 35005KT 10SM CLR 18/06 A3004 RMK AO2=
KCMR 212315Z AUTO 24009G15KT 10SM FEW060 17/03 A3010 RMK AO2=
KCNB 212315Z AUTO 14005KT 7SM CLR 16/00 A2961 RMK AO2
     T01551005=
KCPT 212315Z AUTO 17012G19KT 10SM CLR 30/06 A2982 RMK A01=
KCTZ 212315Z AUTO 00000KT 10SM CLR 14/06 A3012 RMK AO2
     T01400060=
KCVX 212315Z AUTO 23007KT 10SM CLR 16/06 A2959 RMK AO2
     T01580057=
KCXE 212315Z AUTO 00000KT 10SM CLR 10/04 A3013 RMK AO1
     T01000036=
KD57 212315Z AUTO 07007KT 10SM CLR 13/M01 A2948 RMK AO2=
KD60 212315Z AUTO 03009KT 10SM OVC041 05/05 A2956 RMK AO2=
KD95 212315Z AUTO 18004KT 10SM CLR 16/M01 A2976 RMK AO2
     T01611012=
KDNA 212315Z AUTO 25007KT 10SM CLR 27/07 A2998 RMK AO2=
KDNN 212315Z AUTO 00000KT 10SM CLR 14/03 A3007 RMK AO2
     T01420028=
KDRI 212315Z AUTO 18012KT 8SM CLR 25/16 A2997 RMK AO2 T02470157
     $=
KDTL 212315Z AUTO 00000KT 10SM CLR 12/M00 A2957 RMK AO2=
KONZ 212315Z AUTO 19007KT 10SM BKN100 OVC120 12/06 A2981 RMK AO2
     T01190063=
KORS 212315Z AUTO VRB03KT 5SM -RA HZ OVC040 10/M01 A2972 RMK
     AO2=
KOXD 212315Z AUTO 19007KT 10SM CLR 19/M05 A2993 RMK AO2
     T01901050=
KOZS 212315Z AUTO 17007KT 10SM CLR 25/M01 A2975 RMK AO2=
KPCM 212315Z AUTO 36004KT 10SM CLR 22/07 A3005 RMK AO2=
KPGV 212315Z AUTO 00000KT 10SM SCT055 12/06 A3012 RMK AO2=
KPLR 212315Z AUTO 00000KT 10SM CLR 15/06 A3007 RMK A01=
KPNM 212315Z AUTO 00000KT 10SM CLR 14/03 A2962 RMK AO2 TS=
KPVB 212315Z AUTO 00000KT 10SM CLR 21/01 A2962 RMK AO1
     T02140005=
KPVF 212315Z AUTO 21006KT 10SM CLR 26/02 A2991 RMK AO1=
KRCE 212315Z AUTO 18013G18KT 10SM CLR 28/01 A2970 RMK AO2=
KRMN 212315Z AUTO 00000KT 10SM CLR 12/04 A3016 RMK AO2
     T01180035=
KRNH 212315Z AUTO 22003KT 7SM CLR 15/06 A2961 RMK AO2
     T01450055=
KRNP 212315Z AUTO 17007KT 10SM CLR 18/02 A2974 RMK AO2
     T01800022=
KRPH 212315Z AUTO 18008G17KT 130V210 9SM CLR 31/02 A2975 RMK AO2
     T03120017 $=
KRQB 212315Z AUTO 22003KT 10SM CLR 18/04 A2966 RMK AO2
     T01770038=
KRUG 212315Z AUTO 28007KT 10SM FEW055 BKN065 11/02 A2952 RMK
     AO2=
KRUQ 212315Z AUTO 00000KT 10SM CLR 11/04 A3012 RMK AO2
     T01050039=
KRVL 212315Z AUTO 00000KT 10SM CLR 11/M00 A3007 RMK AO2=
KRYV 212315Z AUTO 21005KT 10SM CLR 18/02 A2961 RMK AO2
     T01840021=
KRZL 212315Z AUTO 18011KT 10SM CLR 19/01 A2978 RMK AO2=
KRZN 212315Z AUTO 00000KT 10SM CLR 14/01 A2960 RMK AO2
     T01360011=
KRZT 212315Z AUTO 20003KT 10SM CLR 15/M02 A2997 RMK AO2 PWINO=
