SAUS70 KWBC 212300 RRU
METAR
PALJ 212255Z 00000KT 25SM SCT030 BKN060 07/03 A2993 RMK EST PASS
     CLSD NOSPECI=
KBYL 212255Z AUTO 15003KT 10SM CLR 14/M01 A3004 RMK AO1=
KJVY 212255Z AUTO 18005KT 10SM CLR 18/01 A2994 RMK AO2 PWINO=
KSUN 212258Z 21010G22KT 10SM SCT100 16/01 A2973=
KUKF 212255Z AUTO 00000KT 10SM CLR 12/00 A3016 RMK AO2=
K2W6 212259Z AUTO 00000KT 10SM CLR 10/07 A3016 RMK AO1=
K3D2 212255Z AUTO 20003KT 10SM CLR 12/08 A2956 RMK AO2
     T01200081=
KAOH 212253Z AUTO 20009KT 10SM CLR 18/01 A2989 RMK AO2 SLP119
     T01830011=
KCGE 212255Z AUTO 00000KT 10SM CLR 11/06 A3013 RMK A01=
KDCY 212255Z AUTO 18008KT 10SM CLR 19/02 A2988 RMK AO2
     T01880017=
KDMW 212255Z AUTO 15003KT 10SM CLR 14/00 A3011 RMK AO2=
KEBS 212255Z AUTO 01005KT 8SM CLR 20/01 A2959 RMK AO2=
KFKR 212255Z AUTO 19006KT 9SM CLR 19/02 A2983 RMK AO2=
KFME 212259Z AUTO 00000KT 10SM CLR 08/02 A3015 RMK AO1=
KFXY 212255Z AUTO 00000KT 2 1/2SM HZ CLR 17/02 A2962 RMK AO2=
KGGF 212255Z AUTO 23014KT 10SM CLR 26/M08 A2961 RMK AO2=
KGOV 212258Z AUTO 22006KT 9SM CLR 16/04 A2962 RMK AO2 SLP041
     T01640035 $=
KIIB 212255Z AUTO 26004KT 10SM CLR 21/02 A2963 RMK AO2
     T02090022=
KIJX 212255Z AUTO 17008KT 10SM CLR 23/03 A2974 RMK AO2
     T02320027=
KMPZ 212250Z AUTO 19007KT 10SM CLR 26/09 A2963 RMK AO2=
KOCQ 212255Z AUTO 23003KT 10SM CLR 18/04 A2956 RMK AO1
     T01820035=
KUYF 212255Z AUTO 19007KT 10SM CLR 14/M02 A2995 RMK AO2=
KVES 212255Z AUTO 20007KT 10SM CLR 17/M02 A2990 RMK AO2=
KGOV 212258Z AUTO 22006KT 9SM CLR 16/04 A2962 RMK AO2 SLP041
     T01640035 $=
KTNB 212250Z AUTO 00000KT 10SM CLR 10/M03 A3014 RMK AO2
     T00951026=
