SAUS70 KWBC 220000 RRX
METAR
KNSE 212356Z 20003KT 10SM CLR 15/07 A3009 RMK AO2 SLP176 6////
     T01500072 10244 20150 53010 PNO $=
KJVY 212355Z AUTO 18006KT 10SM CLR 16/01 A2995 RMK AO2 PWINO=
KUYF 212355Z AUTO 19008KT 10SM CLR 11/M01 A2996 RMK AO2=
KNSE 212356Z 20003KT 10SM CLR 15/07 A3009 RMK AO2 SLP176 6////
     T01500072 10244 20150 53010 PNO $=
KOCW 212355Z AUTO 00000KT 10SM 14/06 A3015 RMK AO2 T01400059 10211
     20125=
