SAUS70 KWBC 220000 RRP
METAR
KWVI 212353Z AUTO 24007KT 10SM BKN011 14/11 A2990 RMK AO2 SLP124
     T01390111 10172 20133 57002=
KX60 212355Z AUTO 00000KT 10SM CLR 12/06 A3008 RMK AO2 T01230057
     10233 20123 402330033=
KXNA 212353Z 16008KT 10SM CLR 20/04 A2980 RMK AO2 SLP087 T02000044
     10278 20200 55004=
KXSA 212355Z AUTO 00000KT 10SM CLR 12/05 A3015 RMK AO2 T01150053
     10201 20097=
KYIP 212353Z 19007KT 10SM CLR 17/03 A2981 RMK AO2 SLP094 T01720028
     10228 20172 53005=
KZZV 212353Z AUTO 17007KT 10SM CLR 13/00 A3000 RMK AO2 SLP161
     T01280000 10189 20128 53009=
KOAK 212353Z 29011KT 10SM FEW010 SCT160 SCT240 17/12 A2986 RMK AO2
     SLP110 T01670117 10178 20150 56012=
KOGD 212353Z 22008KT 10SM CLR 23/M07 A2977 RMK AO2 SLP040
     T02281072 10244 20194 56019=
KOIN 212355Z AUTO 00000KT 10SM CLR 23/M03 A2968 RMK AO1
     T02251031=
KOJC 212353Z 19010G16KT 10SM CLR 26/04 A2965 RMK AO2 SLP034
     T02560039 10300 20256 55001=
KOLF 212353Z AUTO 08005KT 10SM OVC021 08/05 A2956 RMK AO2 SLP020
     60003 T00830050 10094 20072 51008=
KOMH 212355Z AUTO 00000KT 10SM CLR 07/03 A3015 RMK AO2=
KOMK 212353Z AUTO 36007KT 10SM OVC100 10/07 A2963 RMK AO2 SLP039
     60010 T01000067 10111 20078 56019=
KONO 212353Z AUTO 02004KT 10SM OVC110 19/04 A2968 RMK AO2 SLP049
     T01890044 10222 20167 56017=
KONT 212353Z 25011KT 10SM FEW100 26/14 A2983 RMK AO2 SLP087
     T02610139 10283 20233 56014=
KOPF 212353Z 36009KT 10SM SCT070 23/17 A2996 RMK AO2 SLP145 60000
     T02330172 10278 20233 53009=
KOQU 212350Z 23008KT 10SM SKC 14/05 A3017=
KORL 212353Z 03008KT 10SM CLR 20/09 A3004 RMK AO2 SLP178 T02000089
     10256 20200 53012=
KOTM 212353Z AUTO 18007KT 10SM CLR 19/02 A2962 RMK AO2 SLP029
     T01940022 10289 20194 53006=
KOVE 212353Z AUTO 17010KT 10SM CLR 28/07 A2975 RMK AO2 SLP075
     T02830072 10306 20239 56021=
KPAE 212353Z 36006KT 4SM -RA BR BKN009 BKN015 OVC024 08/07 A2973
     RMK AO2 SLP069 P0003 60012 T00780067 10100 20078 56024=
KPAH 212353Z 16004KT 10SM CLR 22/07 A2988 RMK AO2 SLP115 T02170072
     10261 20217 55001=
KPBF 212353Z AUTO 21004KT 10SM CLR 23/08 A2989 RMK AO2 SLP119
     T02330078 10289 20233 53002=
KPBG 212353Z AUTO 17004KT 10SM CLR 11/M01 A3003 RMK AO2 SLP171
     T01061006 10144 20106 53012=
KPBI 212353Z 34010KT 10SM SCT030 BKN070 22/18 A2997 RMK AO2 LTG
     DSNT N RAE2258 SLP148 VCSH SE CB DSNT N P0000 60001 T02220178
     10272 20217 53005 $=
KPCZ 212355Z AUTO 00000KT 10SM CLR 16/03 A2961 RMK AO2 T01560027
     10228 20156=
KPDK 212353Z 00000KT 10SM CLR 11/03 A3010 RMK AO2 SLP202 T01060028
     10194 20100 53006=
KPDT 212353Z 15008KT 2 1/2SM -RA BR FEW028 OVC035 08/06 A2973 RMK
     AO2 SLP062 P0007 60013 T00780061 10156 20078 58012=
KPEO 212353Z AUTO 19008KT 10SM CLR 12/M02 A3002 RMK AO2 SLP169
     T01221017 10167 20106 53014=
KPGD 212353Z 01006KT 10SM CLR 19/13 A3002 RMK AO2 SLP165 T01940133
     10261 20194 53008=
KPHD 212353Z AUTO 14005KT 10SM CLR 13/01 A3001 RMK AO2 SLP165
     T01330006 10189 20133 53012=
K10G 212355Z AUTO 18005KT 10SM CLR 15/M02 A2999 RMK AO2=
