SASA41 KWBC 220100
METAR
SEMT NIL=
SEPA NIL=
SKBG NIL=
SKMD NIL=
SKPE NIL=
SKSM NIL=
SKVG NIL=
SMJP 220100Z 15001KT 9999 FEW008 26/25 Q1010 NOSIG=
