SAUS70 KWBC 220000 RRA
METAR
KFIT 212352Z AUTO 00000KT 10SM CLR 07/02 A3014 RMK AO2 SLP211
     T00670017 10172 20067 53016=
KGAG 212353Z AUTO 18013KT 10SM CLR 27/M02 A2963 RMK AO2 SLP015
     T02671022 10339 20267 58006=
KGEU 212353Z 22006KT 10SM FEW250 30/09 A2979=
KGLS 212352Z AUTO 18011KT 10SM CLR 23/16 A3000 RMK AO2 SLP157
     T02330156 10272 20233 55003=
KGYI 212350Z 16009KT 10SM SKC 27/05 A2979=
KHRL 212352Z 13012KT 10SM CLR 25/16 A2995 RMK AO2 SLP141 T02500161
     10311 20250 53003=
KHUT 212352Z 14007KT 10SM CLR 24/01 A2960 RMK AO2 SLP009 T02390011
     10311 20239 56012=
KIAD 212352Z 15006KT 10SM CLR 12/00 A3012 RMK AO2 SLP201 T01170000
     10194 20117 53005=
KIEN 212352Z AUTO 16008KT 10SM CLR 18/M06 A2950 RMK AO2 SLP986
     T01831061 10244 20172 57019=
KIJD 212352Z AUTO 00000KT 10SM CLR 08/05 A3016 RMK AO2 SLP215
     T00830050 10178 20083 53017=
KIOW 212352Z AUTO 19006KT 10SM CLR 22/02 A2963 RMK AO2 SLP034
     T02170022 10294 20206 53010=
KITR 212353Z AUTO 13009KT 10SM CLR 19/M08 A2969 RMK AO2 SLP025
     T01891078 10272 20189 56016=
KLAL 212355Z AUTO 34005KT 10SM CLR 18/06 A3004 RMK AO2 T01810060
     10238 20181=
KLHX 212353Z AUTO 00000KT 10SM CLR 24/M12 A2970 RMK AO2 SLP014
     T02441117 10278 20244 56015=
KLKV 212353Z AUTO 25014G19KT 10SM FEW120 17/03 A2983 RMK AO2
     SLP100 T01720028 10217 20144 56022=
KLNL 212355Z AUTO 00000KT 10SM CLR 07/02 A2962 RMK AO2 T00660023
     10177 20066=
KLUM 212355Z AUTO 00000KT 10SM CLR 14/08 A2961 RMK AO2 T01380076
     10207 20137 PWINO=
KLWC 212352Z AUTO 15007KT 10SM CLR 23/04 A2962 RMK AO1 SLP029
     T02330044 10306 20233 55002=
KMAI 212353Z AUTO 00000KT 10SM CLR 15/06 A3008 RMK AO1 SLP186
     T01500056 10228 20150 53007=
KMAW 212355Z AUTO 18008KT 7SM CLR 22/08 A2988 RMK AO1=
KMCW 212353Z AUTO 00000KT 2 1/2SM HZ CLR 12/01 A2964 RMK AO2
     SLP033 T01170011 10222 20106 51004=
KMEB 212352Z AUTO 00000KT 10SM CLR 12/03 A3012 RMK AO2 SLP201
     T01220033 10222 20122 53010=
KSNK 212355Z AUTO 23006KT 10SM CLR 26/01 A2983 RMK AO2
     T02620005=
KSUX 212352Z 04003KT 9SM CLR 19/01 A2958 RMK AO2 SLP019 T01890006
     10250 20189 58004=
KTAN 212352Z AUTO A3016 RMK AO2 SLPNO 52014 PWINO FZRANO TSNO
     $=
KTRM 212352Z AUTO 13009KT 10SM CLR 32/08 A2972 RMK AO2 SLP064
     T03170083 10339 20300 56017=
K08D 212355Z AUTO 03010KT 10SM 06/06 A2955 RMK AO2=
K0E0 212355Z AUTO 27012G19KT 10SM CLR 19/M02 A3001 RMK AO2
     T01891023 10208 20176 TSNO=
KAQW 212352Z AUTO 10005KT 10SM CLR 08/ A3011 RMK AO2 SLP202 T0078
     10156 20067 51013 $=
KARR 212352Z 16006KT 10SM CLR 17/04 A2970 RMK AO2 SLP058 T01720039
     10244 20172 53012=
KATL 212352Z 25003KT 10SM FEW250 15/04 A3010 RMK AO2 SLP195
     T01500039 10211 20150 53006=
KBEA 212355Z AUTO 14010G15KT 10SM CLR 23/13 A2994 RMK AO2
     T02340132 10293 20234=
KBIS 212352Z 06007KT 10SM FEW100 13/01 A2951 RMK AO2 SLP997
     T01280006 10150 20122 58007=
KBLF 212352Z AUTO 16005KT 10SM CLR 12/M02 A3011 RMK AO2 SLP192
     T01221022 10161 20111 53006=
KBML 212352Z AUTO 00000KT 10SM CLR 02/M01 A3009 RMK AO2 SLP204
     T00221006 10150 20017 51017=
KBRL 212353Z AUTO 18011KT 10SM CLR 22/03 A2965 RMK AO2 SLP039
     T02170033 10272 20211 53002=
KBVO 212353Z AUTO 17007KT 10SM CLR 27/06 A2968 RMK AO2 SLP043
     T02720056 10317 20261 56009=
KBYI 212353Z AUTO 21006KT 10SM CLR 15/03 A2970 RMK AO2 SLP038
     T01500033 10211 20150 58017=
KCFV 212352Z AUTO 15011KT 10SM CLR 26/06 A2967 RMK AO2 SLP045
     T02560061 10306 20256 56010=
KCPS 212353Z 16006KT 10SM CLR 21/03 A2979 RMK AO2 SLP086 T02060028
     10278 20206 53006 $=
