SAUS70 KWBC 212300 RRX
METAR
KPYX 212255Z AUTO 23010KT 10SM CLR 28/M07 A2968 RMK AO2
     T02831072=
KRKR 212255Z AUTO 18009KT 10SM CLR 28/02 A2979 RMK AO2=
KRNC 212255Z AUTO 21003KT 10SM CLR 19/01 A3002 RMK A01=
KRSN 212255Z AUTO 20006KT 10SM CLR 27/10 A2995 RMK AO2
     T02700104=
KRTS 212255Z AUTO 27016G24KT 10SM CLR 23/M07 A2992 RMK AO2=
KRUQ 212255Z AUTO 00000KT 10SM CLR 12/04 A3011 RMK AO2
     T01200035=
KRZL 212255Z AUTO 19012KT 10SM CLR 20/01 A2978 RMK AO2=
KRZR 212255Z AUTO 00000KT 10SM CLR 16/00 A3004 RMK A01=
KSAR 212255Z AUTO 17007KT 10SM CLR 23/05 A2983 RMK AO2
     T02250054=
KVCV 212255Z AUTO 00000KT 10SM CLR 28/M03 A2991 RMK AO2=
KXLL 212255Z AUTO 19003KT 10SM CLR 13/01 A3013 RMK AO2=
PAAD 212255Z AUTO 10021G24KT 10SM OVC012 M04/M06 A2985 RMK AO2
     T10421060=
PAUT 212255Z AUTO 20009KT 10SM SCT009 SCT120 07/05 A3011 RMK
     AO2=
KBTN 212255Z AUTO 18004KT 7SM CLR 15/M00 A2955 RMK AO2=
KOAR 212255Z AUTO 28012KT 10SM OVC009 05/01 A2990 RMK AO2
     PWINO=
PAAD 212255Z AUTO 10021G24KT 10SM OVC012 M04/M06 A2985 RMK AO2
     T10421060=
PAUT 212255Z AUTO 20009KT 10SM SCT009 SCT120 07/05 A3011 RMK
     AO2=
