SAUS70 KWBC 220200 RRS
METAR
PANW 220156Z AUTO 25008KT 10SM CLR 06/01 A2997 RMK AO2 SLP154
     T00560006=
PAOH 220156Z AUTO 09003KT 10SM OVC043 05/04 A2969 RMK AO2 SLP052
     T00500039 PNO $=
PAOO 220156Z AUTO 23011KT FEW020 SCT029 04/02 A2988 RMK AO2 SLP124
     T00440017 PWINO TSNO $=
PAOU 220156Z AUTO 23007KT 10SM SCT035 06/04 A3009 RMK AO2 SLP188
     T00560039 PNO $=
PAPG 220156Z 00000KT 10SM FEW120 04/04 A2973 RMK AO2 SLP071
     T00440039=
PAPH 220156Z AUTO 25008KT 5SM -RA BR FEW017 OVC027 06/04 A3009 RMK
     AO2 SLP191 P0005 T00560044=
PAPM 220156Z AUTO 23009KT 10SM BKN038 OVC046 06/03 A2997 RMK AO2
     SLP150 T00610028=
PARC 220156Z AUTO 00000KT 9SM SCT007 M12/M14 A2976 RMK AO2 SLP144
     T11221139 FZRANO=
PARS 220156Z AUTO 20007KT 10SM FEW025 A2987 RMK AO2 SLPNO FZRANO
     $=
PARY 220156Z AUTO 14003KT 10SM -RA OVC008 01/00 A2981 RMK AO2
     RAE00B17 SLP108 P0000 T00060000 FZRANO=
PASA 220156Z AUTO 22013KT 10SM FEW055 03/01 A2965 RMK AO2 SLP041
     T00330006=
PASD 220156Z 17003KT 10SM FEW030 SCT038 OVC090 08/02 A3011 RMK AO2
     SLP198 T00780022 PNO $=
PASH 220156Z AUTO 13008KT 10SM BKN048 OVC060 01/00 A2967 RMK AO2
     SLP047 T00060000 FZRANO PNO $=
PASK 220156Z AUTO 13005KT 10SM OVC021 01/01 A2976 RMK AO2 SLP076
     T00110006 FZRANO=
PASM 220156Z AUTO 19007KT 10SM BKN018 BKN024 OVC029 02/01 A2985
     RMK AO2 UPB14E35 SLP117 P0000 T00220006 FZRANO=
PASX 220156Z AUTO 00000KT 10SM CLR 06/M01 A2989 RMK AO2 SLP127
     T00561011=
PATE 220156Z AUTO 18013KT 10SM OVC021 02/01 A2966 RMK AO2
     UPB19E21RAB21E32 SLP049 P0000 T00170006 FZRANO=
PATG 220156Z AUTO 20008KT 10SM SCT048 06/03 A2999 RMK AO2 SLP155
     T00560033=
PATQ 220156Z AUTO 10014KT 10SM OVC012 M04/M05 A2980 RMK AO2 SLP097
     T10391050 FZRANO TSNO=
PAUN 220156Z AUTO 19011KT 10SM -RA BKN016 BKN021 OVC029 03/01
     A2979 RMK AO2 RAE16B43UPB41E43 SLP091 P0001 T00330011=
PAUT 220155Z AUTO 16009KT 10SM BKN012 BKN026 OVC070 07/05 A3002
     RMK AO2=
KAJO 220156Z AUTO 26009KT 10SM CLR 22/17 A2984 RMK AO2 SLP100
     T02170172=
KALX 220155Z AUTO 00000KT 10SM CLR 10/08 A3011 RMK AO2
     T00970081=
KANW 220155Z AUTO 16008KT 10SM CLR 12/M02 A2955 RMK AO2
     T01201018=
KARM 220155Z AUTO 16005KT 10SM SCT042 19/14 A3001 RMK AO2
     T01860137 TSNO=
KASN 220155Z AUTO 00000KT 10SM CLR 10/06 A3011 RMK AO2
     T01020060=
KAUO 220156Z AUTO 00000KT 10SM CLR 12/06 A3014 RMK AO2 SLP231
     T01170061=
KAVK 220155Z AUTO 18012KT 10SM CLR 24/M03 A2963 RMK AO2 PWINO=
KAVQ 220155Z AUTO 27004KT 10SM CLR 28/05 A2985 RMK AO2
     T02760047=
KAWO 220156Z AUTO 06005KT 10SM -RA FEW039 OVC050 08/07 A2971 RMK
     AO2 SLP065 P0004 T00830067=
KAXH 220155Z AUTO 00000KT 10SM CLR 20/15 A3002 RMK AO2
     T01950151=
KAXS 220155Z AUTO 19012KT 10SM CLR 24/02 A2972 RMK AO2
     T02420021=
KAZC 220155Z AUTO 22005KT 10SM CLR 15/00 A2998 RMK AO2=
KBAM 220155Z AUTO 25007KT 10SM CLR 18/M07 A2978 RMK AO1=
KBCK 220155Z AUTO 17003KT 10SM CLR 04/02 A2965 RMK AO2
     T00370018=
KBDN 220155Z AUTO 22013KT 10SM FEW049 BKN055 BKN070 15/07 A2965
     RMK AO2=
KBDU 220155Z AUTO 22007KT 10SM CLR 20/M08 A2973 RMK AO2=
KBGF 220155Z AUTO VRB04KT 8SM FEW041 FEW047 15/02 A3006 RMK
     A01=
KBKD 220155Z AUTO 19009KT 10SM CLR 26/04 A2980 RMK AO2
     T02580038=
KBNW 220155Z AUTO 05003KT 7SM CLR 14/00 A2963 RMK AO2=
KBOK 220156Z AUTO 00000KT 1 3/4SM -RA BR FEW006 OVC012 12/12 A2989
     RMK AO2 SLP120 P0003 T01170117 $=
KBPC 220155Z AUTO 22006KT 10SM CLR 18/M02 A2968 RMK AO2=
KBTA 220155Z AUTO 00000KT 10SM CLR 18/00 A2958 RMK AO2
     T01820000=
