SAUS70 KWBC 212300 RRG
METAR
KLXY 212255Z AUTO 18010G22KT 10SM CLR 29/09 A2986 RMK AO2
     T02930091=
KM75 212255Z AUTO 08006KT 10SM OVC029 08/04 A2953 RMK A01=
KMEV 212255Z AUTO 25013G25KT 10SM CLR 24/M06 A2993 RMK AO2=
KMHV 212300Z AUTO 33007KT 10SM CLR 30/M03 A2987 RMK A01=
KMNZ 212255Z AUTO 20012KT 10SM CLR 30/05 A2987 RMK AO2
     T03030048=
KSBA 212253Z 25010KT 6SM HZ SCT005 19/15 A2987 RMK FG BNK WEST OF
     AIRFIELD=
KSDY 212256Z AUTO 02005KT 10SM -RA SCT043 SCT060 OVC080 08/07
     A2954 RMK AO2 SLP016 T00780067 PNO $=
KSKX 212256Z AUTO 27017G21KT 10SM CLR 19/M07 A3003 RMK AO2 SLP143
     T01891072=
KUVA 212255Z AUTO 00000KT 10SM CLR 28/09 A2994 RMK AO2
     T02760085=
KSGH 212256Z AUTO 19005KT 10SM CLR 17/01 A2994 RMK AO2 SLP142
     T01670006=
K05U 212255Z AUTO 26014G19KT 10SM 22/M14 A2993 RMK A01=
K0A0 212255Z AUTO 15007KT 110V210 10SM CLR 27/05 A2995 RMK AO2=
K0F2 212255Z AUTO 19012G17KT 10SM CLR 31/01 A2977 RMK AO2
     T03110011=
K1V6 212255Z AUTO 26015G22KT 10SM CLR 25/M10 A2977 RMK AO2=
K46U 212255Z AUTO 28012G19KT 10SM OVC100 18/M07 A2977 RMK A01=
K5T9 212255Z AUTO VRB05G10KT 10SM CLR 28/12 A2989 RMK A01=
KARM 212255Z AUTO 19013G18KT 10SM SCT047 26/14 A2997 RMK AO2
     T02560136 TSNO=
KATA 212255Z AUTO 19003KT 10SM CLR 28/10 A2984 RMK AO2 SLP005
     T02820099 $=
KAWO 212256Z AUTO 04005KT 10SM -RA OVC032 09/08 A2976 RMK AO2
     SLP081 P0000 T00890078=
KAXH 212255Z AUTO 20008KT 10SM CLR 26/14 A2997 RMK AO2
     T02600144=
KBDN 212255Z AUTO 23016G23KT 7SM SCT060 BKN070 17/06 A2973 RMK
     AO2=
KBDU 212255Z AUTO 25012G18KT 10SM CLR 24/M07 A2973 RMK AO2=
KBKD 212255Z AUTO 20014G18KT 4SM HZ CLR 32/03 A2979 RMK AO2
     T03210027=
KBOK 212256Z AUTO 31011G17KT 9SM FEW020 BKN036 OVC044 16/11 A2994
     RMK AO2 SLP138 T01610111 $=
KBPC 212255Z AUTO 26010G15KT 10SM CLR 30/M05 A2968 RMK AO2=
KC83 212255Z AUTO 02005KT 9SM CLR 27/12 A2980 RMK AO2=
KCOE 212256Z AUTO 22011KT 10SM RA BKN012 OVC017 03/02 A2970 RMK
     AO2 SLP083 T00280017 PNO $=
K4V0 212255Z AUTO 26014G20KT 10SM CLR 22/M08 A2983 RMK AO2
     T02211080=
KBAM 212255Z AUTO 24016G25KT 10SM CLR 25/M07 A2984 RMK AO1=
KGDJ 212255Z AUTO 21014G21KT 10SM CLR 32/03 A2982 RMK AO2
     T03150027=
KGOO 212255Z AUTO VRB03KT 10SM CLR 25/03 A2990 RMK A01=
KHHF 212255Z AUTO 22014KT 10SM CLR 31/M02 A2966 RMK AO2
     T03071024=
KHRX 212255Z AUTO 24018G23KT 10SM CLR 28/M03 A2979 RMK AO2
     T02801032=
KINJ 212255Z AUTO 18015G20KT 10SM CLR 31/08 A2983 RMK AO2
     T03050083=
KO69 212255Z AUTO 30006G12KT 9SM CLR 17/11 A2986 RMK A01=
KP08 212255Z AUTO VRB03KT 10SM CLR 31/11 A2983 RMK AO2=
KPRS 212255Z AUTO 18003KT 10SM CLR 29/11 A2996 RMK AO2
     T02880111=
KPWT 212256Z AUTO 19005KT 10SM -RA FEW008 SCT019 BKN026 09/08
     A2974 RMK AO2 SLP076 P0001 T00890083=
K2G2 212255Z AUTO 19007KT 10SM CLR 14/M02 A3000 RMK A01=
K33N 212255Z AUTO 00000KT 10SM CLR 12/04 A3013 RMK A01=
K3I2 212255Z AUTO 00000KT 10SM CLR 15/01 A3003 RMK AO2
     T01480006=
K3LF 212255Z AUTO 16011KT 10SM CLR 21/03 A2980 RMK AO2
     T02110032=
KANW 212255Z AUTO 16005KT 10SM CLR 20/M01 A2960 RMK AO2
     T02021010=
KBAX 212255Z AUTO 17007KT 10SM CLR 14/04 A2972 RMK AO2
     T01440042=
KBCK 212255Z AUTO 00000KT 10SM CLR 13/04 A2959 RMK AO2
     T01320040=
KBNW 212255Z AUTO 00000KT 10SM CLR 24/M00 A2962 RMK AO2=
KBTA 212255Z AUTO 14003KT 10SM CLR 23/01 A2959 RMK AO2
     T02260012=
KBTN 212255Z AUTO 18004KT 7SM CLR 15/M00 A2955 RMK AO2=
KC09 212255Z AUTO 20010G15KT 10SM CLR 22/05 A2969 RMK AO2
     T02220048=
KCCY 212255Z AUTO 32003KT 6SM HZ CLR 19/00 A2962 RMK AO2=
