SAUS70 KWBC 220018 RRB
METAR
KMBO 220015Z AUTO 00000KT 10SM CLR 19/13 A2998 RMK AO2=
KMCD 220015Z AUTO 26006KT 10SM CLR 11/07 A2962 RMK AO2
     T01080065=
KMDS 220015Z AUTO 14008KT 10SM CLR 13/M00 A2960 RMK AO2=
KMEZ 220015Z AUTO 00000KT 10SM 18/06 A2986 RMK AO2 T01820063 $=
KMKJ 220015Z AUTO 00000KT 10SM CLR 07/00 A3015 RMK AO2
     T00710000=
KMTV 220015Z AUTO 00000KT 10SM CLR 06/02 A3016 RMK AO2
     T00610015=
KMWM 220015Z AUTO 00000KT 7SM CLR 10/01 A2963 RMK AO2=
KN38 220015Z AUTO 19009KT 10SM CLR 09/M02 A3005 RMK AO2=
KO22 220015Z AUTO 00000KT 10SM CLR 28/00 A2985 RMK A01=
KO32 220015Z AUTO 00000KT 9SM CLR 30/09 A2976 RMK AO2 T03010095
     $=
KOCQ 220015Z AUTO 00000KT 09/05 A2960 RMK AO1 T00880046=
KOEB 220015Z AUTO 19006KT 10SM CLR 18/03 A2980 RMK AO2
     T01780026=
KOEO 220015Z AUTO 16006KT 10SM CLR 08/04 A2964 RMK AO2
     T00790037=
KOKV 220015Z AUTO 17003KT 10SM CLR 10/00 A3009 RMK AO2=
KONM 220015Z AUTO 17007KT 10SM CLR 22/04 A2995 RMK AO2
     T02160035=
KONZ 220015Z AUTO 19008KT 10SM OVC100 11/07 A2982 RMK AO2
     T01140067=
KORS 220015Z AUTO 18005KT 6SM -RA HZ OVC047 10/ A2971 RMK AO2=
KOZS 220015Z AUTO 16007KT 10SM CLR 22/M01 A2976 RMK AO2=
KPAN 220015Z AUTO 18006KT 10SM CLR 20/04 A3004 RMK AO2 PWINO
     TSNO=
KPCM 220015Z AUTO 35004KT 10SM CLR 20/06 A3007 RMK AO2=
KPGV 220015Z AUTO 00000KT 10SM SCT050 11/07 A3014 RMK AO2=
KPLR 220015Z AUTO 00000KT 10SM BKN043 BKN048 12/07 A3008 RMK
     A01=
KPVF 220015Z AUTO 21004KT 10SM CLR 23/03 A2990 RMK AO1=
KRCE 220015Z AUTO 16010KT 10SM CLR 24/02 A2970 RMK AO2=
KRMN 220015Z AUTO 00000KT 10SM CLR 10/05 A3017 RMK AO2
     T01020045=
KRNH 220015Z AUTO 00000KT 10SM CLR 09/05 A2963 RMK AO2
     T00910045=
KRNP 220015Z AUTO 18007KT 10SM CLR 17/03 A2975 RMK AO2
     T01710026=
KRPH 220015Z AUTO 17005KT 8SM CLR 28/03 A2975 RMK AO2 T02770027
     $=
KRUG 220015Z AUTO 27005KT 10SM BKN044 BKN055 OVC065 09/04 A2954
     RMK AO2=
KRVL 220015Z AUTO 00000KT 10SM CLR 09/00 A3009 RMK AO2=
KRYV 220015Z AUTO 21003KT 10SM CLR 17/02 A2964 RMK AO2
     T01670021=
KRZN 220015Z AUTO 00000KT 10SM CLR 08/01 A2962 RMK AO2
     T00830012=
KRZT 220015Z AUTO 00000KT 10SM CLR 09/00 A2999 RMK AO2 PWINO=
KS25 220015Z AUTO 04005KT 10SM SCT038 BKN047 OVC065 07/07 A2954
     RMK AO2=
KS32 220015Z AUTO 30004KT 10SM SCT065 BKN095 OVC110 11/M00 A2955
     RMK AO2 TSNO=
KSCR 220015Z AUTO 00000KT 10SM CLR 07/04 A3014 RMK AO2
     T00690043=
K06D 220015Z AUTO 34008KT 10SM -RA BKN020 BKN032 OVC037 06/05
     A2956 RMK AO2=
K0S9 220015Z AUTO 00000KT 4SM -RA BKN028 BKN032 OVC043 09/08 A2972
     RMK AO2=
K0VG 220015Z AUTO 00000KT 10SM CLR 09/01 A3010 RMK AO2=
K15M 220015Z AUTO 17004KT 10SM CLR 19/10 A3000 RMK AO2 T01910098
     $=
K1R7 220015Z AUTO 00000KT 10SM CLR 20/15 A3002 RMK AO2 PWINO=
K24J 220015Z AUTO 00000KT 10SM 12/03 A3009 RMK A01=
K28J 220015Z AUTO 05004KT 10SM SCT039 14/07 A3009 RMK AO2 TSNO=
K2D5 220015Z AUTO 15007KT 4SM HZ FEW025 SCT030 OVC048 12/01 A2954
     RMK AO2=
K3AU 220015Z AUTO 14007KT 10SM CLR 25/M05 A2964 RMK AO2=
K3N8 220015Z AUTO 18003KT 10SM CLR 10/00 A2956 RMK AO2
     T00970000=
K42J 220015Z AUTO 07005KT 10SM SCT030 BKN038 OVC055 14/01 A3008
     RMK A01=
K46D 220015Z AUTO 00000KT 10SM BKN100 11/02 A2956 RMK AO2=
K4A6 220015Z AUTO 00000KT 10SM FEW029 BKN042 BKN047 14/06 A3007
     RMK AO2=
K4M9 220015Z AUTO 18007KT 10SM FEW033 18/11 A2987 RMK AO2
     PWINO=
K5H4 220015Z AUTO 29003KT 10SM OVC070 10/07 A2955 RMK AO2=
K6B9 220015Z AUTO 18008G17KT 150V210 10SM 12/M02 A3002 RMK AO2=
K7L2 220015Z AUTO 14005KT 10SM CLR 14/M01 A2951 RMK AO2=
