SAUS70 KWBC 220000 RRX
METAR
KPVJ 212355Z AUTO 17003KT 10SM CLR 27/02 A2973 RMK AO2 T02720018
     10316 20272=
KPYX 212355Z AUTO 20007KT 10SM CLR 24/M08 A2965 RMK AO2 T02351076
     10306 20235=
KRKR 212355Z AUTO 17007KT 10SM CLR 25/04 A2980 RMK AO2=
KRMY 212355Z AUTO 19007KT 10SM CLR 18/04 A2977 RMK AO2 T01780036
     10207 20174=
KRNC 212355Z AUTO 00000KT 10SM CLR 14/03 A3003 RMK A01=
KRRT 212355Z AUTO 20003KT 10SM BKN110 12/03 A2951 RMK AO2=
KRSN 212355Z AUTO 19005KT 10SM CLR 23/12 A2995 RMK AO2 T02340115
     10291 20234=
KRTS 212355Z AUTO 25020KT 10SM CLR 21/M07 A2992 RMK AO2=
KRUQ 212355Z AUTO 00000KT 10SM CLR 09/04 A3013 RMK AO2 T00880036
     10192 20088=
KRZR 212355Z AUTO 00000KT 9SM CLR 11/02 A3005 RMK A01=
KSAR 212355Z AUTO 17006KT 10SM CLR 21/07 A2984 RMK AO2 T02050065
     10249 20205=
KSCD 212355Z AUTO 16003KT 10SM CLR 15/06 A3008 RMK AO2 T01540064
     10229 20154=
KSCX 212355Z AUTO 20003KT 10SM CLR 13/M00 A3006 RMK A01=
KSEM 212355Z AUTO 14004KT 10SM SCT050 15/12 A3006 RMK AO2=
KSEZ 212355Z AUTO 20005KT 10SM 22/05 A2999 RMK AO2=
KSFQ 212355Z AUTO 00000KT 10SM CLR 12/08 A3016 RMK AO2 T01180080
     10205 20118=
KSIF 212355Z AUTO 00000KT 10SM CLR 07/04 A3013 RMK AO2 T00710040
     10190 20071=
KSLO 212355Z AUTO 16005KT 10SM CLR 21/03 A2985 RMK AO2 T02050032
     10263 20205=
KSNH 212350Z AUTO 16004KT 10SM CLR 18/11 A2995 RMK A01=
KSRB 212355Z AUTO 14003KT 10SM CLR 16/02 A3003 RMK A01=
KSRE 212355Z AUTO 10SM CLR 27/00 A2973 RMK AO2=
KSTE 212355Z AUTO 00000KT 10SM CLR 13/03 A2963 RMK AO2 T01300028
     10216 20130=
KSVH 212355Z AUTO 00000KT 10SM CLR 10/03 A3012 RMK AO2 T01030034
     10190 20095=
KSWW 212355Z AUTO 23011KT 10SM CLR 27/05 A2986 RMK AO2 T02670045
     10301 20264=
KSYF 212355Z AUTO 15009KT 10SM CLR 18/M05 A2966 RMK AO2 T01761048
     10259 20176 PWINO=
KSYI 212355Z AUTO 15005KT 10SM CLR 17/03 A3001 RMK A01=
KSZY 212355Z AUTO 17005KT 10SM CLR 20/10 A2995 RMK A01=
KT89 212355Z AUTO 00000KT 10SM CLR 28/08 A2990 RMK A01=
KTBX 212355Z AUTO 10SM CLR 13/M08 A2977 RMK AO2=
KTDF 212355Z AUTO 00000KT 10SM CLR 08/03 A3016 RMK AO2=
KTHA 212355Z AUTO 15005KT 10SM CLR 17/03 A3003 RMK A01=
KTNU 212355Z AUTO 00000KT 10SM CLR 22/01 A2961 RMK A01=
KTQH 212355Z AUTO 16004KT 10SM CLR 25/00 A2978 RMK AO2=
KTQV 212355Z AUTO 11005KT 10SM CLR 17/M01 A3013 RMK A01=
KAPC 212354Z 21016KT 7SM CLR 18/13 A2983 RMK AO2 SLP094 T01780128
     10206 20139 55009=
KATA 212355Z AUTO 00000KT 10SM CLR 20/13 A2985 RMK AO2 SLP009
     T02020131 $=
KEUG 212354Z 22012KT 10SM SCT021 BKN055 OVC070 15/11 A2977 RMK AO2
     SLP082 60000 T01500111 10183 20139 58024=
KFWS 212355Z 15009KT 10SM CLR 28/07 A2982=
KHWD 212354Z 29008KT 10SM CLR 17/12 A2985 RMK AO2 SLP117 T01720122
     10183 20156 58009=
KL52 212355Z AUTO VRB06KT 7SM SCT010 16/14 A2990 RMK A01=
KLRU 212355Z AUTO 27015G22KT 10SM CLR 25/04 A2998 RMK AO2
     T02500036 10265 20222=
KLWT 212354Z AUTO 31003KT 6SM -RA BKN043 OVC055 08/05 A2956 RMK
     AO2 SLP999 P0002 60003 T00780050 10161 20078 58002=
KO22 212355Z AUTO 21004KT 10SM CLR 28/M00 A2986 RMK A01=
KO32 212355Z AUTO 00000KT 8SM CLR 30/07 A2977 RMK AO2 T03020072
     $=
KONM 212355Z AUTO 16008KT 10SM CLR 23/03 A2995 RMK AO2 T02290031
     10247 20184=
KORS 212355Z AUTO 17004KT 5SM -RA HZ OVC046 10/04 A2972 RMK
     AO2=
KPAN 212355Z AUTO 21006KT 10SM CLR 21/05 A3004 RMK AO2 PWINO
     TSNO=
KRPH 212355Z AUTO 18005KT 8SM CLR 29/03 A2975 RMK AO2 T02880029
     $=
KSVC 212355Z AUTO 30013G18KT 10SM CLR 23/07 A3004 RMK AO2
     T02290070 10255 20229=
KGGI 212355Z AUTO 00000KT 10SM CLR 21/02 A2963 RMK AO2 T02120016
     10275 20210=
