SAUS80 KWBC 220100 RRA
METAR
KOQT 220053Z AUTO 00000KT 10SM CLR 09/03 A3010 RMK AO2 SLP199
     T00940033=
KSOA 220055Z AUTO 18006KT 10SM 23/08 A2996 RMK AO2=
K9V9 220055Z AUTO 12008KT 10SM CLR 13/02 A2955 RMK AO2
     T01260015=
KAYS 220055Z AUTO 00000KT 10SM CLR 11/09 A3012 RMK AO2
     T01080091=
KD07 220056Z AUTO 13014KT 14/01 A2947 RMK AO1 SLP984 T01440011=
KGIC 220055Z AUTO 00000KT 7SM BKN035 OVC042 06/05 A2967 RMK AO1
     P0004=
KCBE 220055Z AUTO 00000KT 10SM CLR 09/01 A3013 RMK AO2
     T00910013=
KACY 220054Z 00000KT 10SM CLR 08/05 A3017 RMK AO2 SLP217
     T00780050=
KSYR 220054Z 18012G21KT 10SM FEW200 FEW250 14/M03 A3002 RMK AO2
     SLP163 T01391033=
KLIC 220055Z AUTO 01005KT 10SM CLR 08/M14 A2974 RMK AO2 SLP047
     T00831139=
KFLG 220057Z 23007KT 10SM CLR 14/03 A3009 RMK AO2 SLP129
     T01390033=
KINW 220056Z AUTO 26009KT 10SM CLR 20/03 A2997 RMK AO2 SLP107
     T02000033=
KLWS 220056Z 06009KT 10SM -RA OVC050 08/06 A2967 RMK AO2 SLP052
     P0003 T00780056=
KSOA 220055Z AUTO 18006KT 10SM 23/08 A2996 RMK AO2=
KBZN 220056Z COR 27013KT 10SM -RA SCT030 BKN050 OVC070 11/04 A2954
     RMK AO2 RAE01B35 SLP995 P0000 T01060039=
KSHV 220056Z 18007KT 10SM CLR 23/12 A2990 RMK SLPNO=
KOFK 220056Z AUTO 09003KT 10SM CLR 17/M01 A2959 RMK AO2 SLP024
     T01671011=
KMKG 220055Z 19013G20KT 10SM SCT170 18/08 A2971 RMK AO2 PK WND
     20028/2359 SLP061 T01830083=
KMWN 220052Z 24029KT 70SM SCT040 02/M17 RMK=
KTKC 220055Z AUTO 16006KT 10SM 12/00 A2961 RMK AO2 T01210000=
K9V9 220055Z AUTO 12008KT 10SM CLR 13/02 A2955 RMK AO2
     T01260015=
KD07 220056Z AUTO 13014KT 14/01 A2947 RMK AO1 SLP984 T01440011=
KSFO 220056Z 29008KT 10SM FEW009 SCT180 BKN200 16/11 A2984 RMK AO2
     SLP105 T01610111=
