SAUS70 KWBC 212300
METAR
K2D5 212255Z AUTO 15007KT 6SM HZ CLR 15/01 A2955 RMK AO2=
K46D 212255Z AUTO 21005KT 10SM FEW080 BKN090 12/02 A2956 RMK
     AO2=
K82C 212255Z AUTO 27003KT 10SM CLR 18/03 A2960 RMK AO2
     T01800032=
K9D7 212255Z AUTO 31006KT 10SM OVC070 11/02 A2953 RMK AO2 TSNO=
KAIG 212255Z AUTO 22005KT 10SM CLR 13/04 A2959 RMK AO2
     T01320035=
KBAC 212255Z AUTO 00000KT 9SM OVC100 14/M00 A2954 RMK AO2=
KCDD 212253Z AUTO 00000KT 10SM CLR 12/M02 A2955 RMK AO2=
KEKM 212255Z AUTO 20008KT 6SM HZ CLR 20/04 A2976 RMK AO2
     T02030035=
KMTN 212254Z 00000KT 10SM CLR 11/04 A3014=
KOLG 212255Z AUTO 29003KT 10SM CLR 15/00 A2957 RMK AO1=
KRUG 212255Z AUTO 27007KT 10SM CLR 12/02 A2952 RMK AO2=
KRYM 212255Z AUTO 00000KT 10SM CLR 14/00 A2957 RMK AO2 SLP022
     T01370000 $=
KRYV 212255Z AUTO 21006KT 10SM CLR 20/02 A2960 RMK AO2
     T01990019=
KVGC 212255Z AUTO 17005KT 10SM CLR 11/M03 A3004 RMK AO2=
KBYS 212255Z AUTO 18007KT 10SM CLR 28/M02 A2983 RMK AO2 SLP080
     T02841017=
KART 212256Z AUTO 16008KT 10SM CLR 13/M02 A2995 RMK AO2 SLP145
     T01331017=
KATP 212255Z AUTO 10011G17KT 10SM CLR 23/13 A3006 RMK A01=
KAUM 212257Z AUTO 00000KT 10SM CLR 18/03 A2963 RMK AO2=
KBAF 212253Z 00000KT 10SM CLR 09/01 A3011 RMK AO2 SLP203
     T00940006=
KBQX 212255Z AUTO 17016KT 10SM CLR 25/14 A3000 RMK A01=
KCQM 212256Z AUTO 25004KT 10SM CLR 13/M01 A2954 RMK AO2=
KCTB 212256Z AUTO 03006KT 10SM -RA SCT010 BKN032 OVC039 04/03
     A2956 RMK AO2 RAB14 SLP018 P0001 T00440033=
KCXY 212256Z 16003KT 10SM CLR 13/02 A3009 RMK AO2 SLP193
     T01280017=
KDAY 212256Z 19011KT 10SM BKN250 19/00 A2993 RMK AO2 SLP135
     T01890000=
KDDH 212254Z AUTO 00000KT 10SM CLR 09/M04 A3009 RMK AO2 SLP194
     T00891044 $=
KDIK 212256Z AUTO 02010KT 10SM FEW100 14/02 A2948 RMK AO2 SLP984
     T01440017=
KDSF 212255Z AUTO 04010KT 10SM CLR 23/13 A3007 RMK A01=
KEAU 212256Z 27005KT 10SM CLR 17/04 A2959 RMK AO2 SLP022
     T01670039=
KEED 212256Z AUTO 21003KT 10SM CLR 32/04 A2979 RMK AO2 SLP059
     T03220044=
KERY 212255Z AUTO 20007KT 10SM CLR 09/06 A2957 RMK AO2
     T00880064=
KFDR 212253Z AUTO 21021KT 10SM CLR 32/M02 A2968 RMK AO2 PK WND
     21034/2228 SLP036 T03171022=
KFFZ 212254Z 10SM CLR 31/09 A2982 RMK AO2 SLP075 T03060094=
KGHB 212255Z AUTO 00000KT 9SM CLR 23/13 A3005 RMK A01=
KGLX 212255Z AUTO 05011KT 10SM CLR 22/12 A3008 RMK A01=
KGON 212256Z 21012KT 10SM CLR 16/09 A3014 RMK AO2 SLP206
     T01560089=
KGRY 212255Z AUTO 11007KT 10SM CLR 22/11 A3007 RMK A01=
KHCD 212255Z AUTO 00000KT 10SM CLR 16/01 A2962 RMK AO2
     T01560006=
KHHV 212255Z AUTO 14011G22KT 10SM CLR 24/14 A2998 RMK A01=
KHVN 212253Z 00000KT 10SM CLR 09/04 A3014 RMK AO2 SLP206
     T00940039=
KHWV 212256Z AUTO 00000KT 10SM CLR 11/07 A3015 RMK AO2 SLP210
     T01060067=
KHYA 212256Z 20006KT 10SM CLR 13/07 A3015 RMK AO2 SLP211
     T01330067=
KHYX 212255Z AUTO 19008KT 10SM CLR 17/04 A2971 RMK AO2
     T01690035=
KHZX 212255Z AUTO 25003KT 7SM CLR 14/02 A2959 RMK AO2=
KIMS 212255Z AUTO 16005KT 10SM CLR 17/00 A2996 RMK AO2=
KJMS 212256Z AUTO 15003KT 10SM SCT110 14/00 A2951 RMK AO2 SLP998
     T01390000=
KJYG 212256Z AUTO 00000KT 4SM HZ CLR 17/02 A2961 RMK AO2=
KLAS 212256Z 11004KT 10SM FEW150 FEW220 29/01 A2983 RMK AO2 SLP080
     T02940011=
KLNR 212256Z AUTO 26003KT 7SM CLR 23/03 A2960 RMK AO2 SLP019
     T02280028=
KLVN 212255Z AUTO 00000KT 10SM CLR 16/01 A2962 RMK AO2=
KMDT 212256Z 11003KT 10SM CLR 12/04 A3009 RMK AO2 SLP191
     T01170039=
KMOP 212255Z AUTO 17008KT 10SM CLR 17/04 A2966 RMK AO2
     T01690043=
KMOX 212255Z AUTO 00000KT 10SM CLR 16/M04 A2960 RMK AO2=
