SAUS80 KWBC 220114
METAR
KSVE 220115Z AUTO 28010KT 10SM CLR M13/M20 A2983 RMK AO2=
