SAUS70 KWBC 220200
METAR
KLBE 220147Z 00000KT 20SM CLR 06/02 A3007=
KSAW 220147Z 00000KT 10SM CLR 04/02 A2962=
KUES 220145Z 19006KT 10SM CLR 16/03 A2970=
KUNV 220153Z 25003KT 10SM CLR 10/M01 A3011=
K1A5 220155Z AUTO 00000KT 10SM CLR 05/00 A3019 RMK AO2
     T00470003=
KEFT 220155Z AUTO 21012KT 10SM CLR 17/03 A2966 RMK AO2
     T01690027=
KHNZ 220155Z AUTO 00000KT 10SM CLR 06/05 A3017 RMK AO2
     T00600051=
KJXI 220155Z AUTO 15003KT 10SM CLR 22/10 A2989 RMK AO2
     T02160103=
KPAO 220147Z 35007KT 10SM FEW200 15/12 A2984=
KPDC 220155Z AUTO 00000KT 10SM CLR 10/03 A2964 RMK AO2
     T01020030=
KW31 220155Z AUTO 00000KT 10SM CLR 06/04 A3016 RMK AO1
     T00550040=
KW96 220155Z AUTO 00000KT 10SM CLR 08/05 A3017 RMK AO1
     T00790046=
KAEG 220147Z 26007KT 10SM CLR 13/02 A3001=
KCGF 220145Z 19011G18KT 10SM CLR 14/01 A2994=
KGEU 220147Z 00000KT 10SM FEW250 26/12 A2979=
KVQQ 220150Z 00000KT 10SM CLR 08/07 A3012=
KBNL 220155Z AUTO 00000KT 10SM FEW060 08/03 A3014 RMK AO2=
KETB 220155Z AUTO 00000KT 10SM CLR 11/03 A2968 RMK AO2=
KLHZ 220155Z AUTO 00000KT 10SM CLR 06/04 A3018 RMK AO2=
KRRL 220155Z AUTO 00000KT 10SM CLR 06/03 A2964 RMK AO2 T00590025
     TSNO=
KUNU 220155Z AUTO 18004KT 10SM CLR 15/04 A2968 RMK AO2
     T01460038=
TJBQ 220150Z 11006KT 10SM SCT027 25/22 A2996=
