SAUS70 KWBC 220000
METAR
KBAK 212345Z 18009KT 10SM CLR 17/M01 A2992=
KCWA 212347Z 28004KT 10SM CLR 13/03 A2962=
KDLL 212355Z AUTO 00000KT 10SM CLR 16/02 A2962 RMK AO2 T01590015
     10230 20159=
KGAF 212355Z AUTO 25005KT 9SM SCT090 12/01 A2952 RMK AO2=
KMMU 212345Z 00000KT 10SM SKC 07/05 A3014=
KUES 212345Z 21007G12KT 10SM CLR 18/03 A2965=
K1A5 212355Z AUTO 00000KT 10SM CLR 10/00 A3014 RMK AO2 T01020000
     10202 20100=
KBCT 212353Z 35010G20KT 10SM SCT042 23/18 A2996=
KCGF 212345Z 19011KT 10SM CLR 15/02 A2993=
KEFT 212355Z AUTO 22012KT 10SM CLR 19/03 A2963 RMK AO2 T01920025
     10248 20192=
KHNZ 212355Z AUTO 00000KT 10SM CLR 08/04 A3014 RMK AO2 T00830040
     10184 20082=
KJXI 212355Z AUTO 00000KT 10SM CLR 26/08 A2986 RMK AO2 T02550082
     10291 20255=
KPDC 212355Z AUTO 00000KT 10SM CLR 17/03 A2961 RMK AO2 6////
     T01690027=
KSEE 212347Z 22008KT 10SM SKC 23/16 A2985=
KTRK 212345Z 10SM CLR 18/M04 A3000=
KW31 212355Z AUTO 00000KT 10SM CLR 09/05 A3013 RMK AO1 T00930053
     10190 20092=
KW96 212355Z AUTO 00000KT 10SM CLR 10/04 A3014 RMK AO1 T01010037
     10198 20101=
KAEG 212347Z 25012KT 10SM CLR 21/00 A3000=
KBNL 212355Z AUTO 00000KT 10SM CLR 12/03 A3011 RMK AO2=
KETB 212355Z AUTO 20003KT 10SM CLR 17/03 A2963 RMK AO2=
KIPJ 212355Z AUTO 00000KT 10SM CLR 09/05 A3013 RMK AO2 T00850050
     10197 20079=
KJVL 212345Z 19008KT 10SM CLR 19/M01 A2964=
KLHZ 212355Z AUTO 00000KT 10SM CLR 08/03 A3015 RMK AO2=
KRRL 212355Z AUTO 00000KT 10SM CLR 12/03 A2960 RMK AO2 T01170032
     10190 20112 TSNO=
KTIX 212347Z 35007KT 7SM SCT070 21/12 A3004=
KUNU 212355Z AUTO 20003KT 10SM CLR 18/04 A2964 RMK AO2 T01750040
     10236 20161=
KUNV 212353Z 20005KT 10SM CLR 11/M01 A3007=
KBJC 212345Z 26023G29KT 10SM SCT120 22/M11 A2975=
KEFD 212354Z 17012KT 10SM CLR 23/15 A2996=
KFDK 212347Z 00000KT 10SM CLR 12/03 A3012=
KHSA 212350Z 16004KT 10SM CLR 16/09 A3006=
KHUM 212350Z 16007KT 7SM CLR 18/15 A3006=
KIFP 212348Z 16008KT 20SM CLR 32/02 A2975=
KPOC 212347Z 23009KT 10SM CLR A2985=
KVQQ 212350Z VRB03KT 10SM CLR 11/09 A3008=
