SAUS70 KWBC 220236 RRB
METAR
KOIN 220235Z AUTO 00000KT 10SM CLR 15/M04 A2966 RMK AO1
     T01541043=
KOMH 220235Z AUTO 00000KT 10SM CLR 04/02 A3018 RMK AO2=
KOVL 220235Z AUTO 12003KT 7SM CLR 09/00 A2960 RMK AO2=
KOZW 220235Z AUTO 18008KT 10SM CLR 16/03 A2983 RMK AO2
     T01610034=
KPCZ 220235Z AUTO 00000KT 10SM CLR 10/04 A2967 RMK AO2
     T00970040=
KPSK 220235Z AUTO 00000KT 10SM CLR 05/01 A3017 RMK AO2
     T00480010=
KRCM 220235Z AUTO 16008KT 10SM CLR 21/02 A2969 RMK AO2=
KRCX 220235Z AUTO 00000KT 10SM CLR 05/04 A2967 RMK AO2
     T00510039=
KRGK 220235Z AUTO 00000KT 10SM CLR 09/03 A2963 RMK AO2=
KRHP 220235Z AUTO 00000KT 10SM CLR 02/00 A3017 RMK AO2
     T00200001=
KROX 220235Z AUTO 27008KT 10SM SCT070 OVC080 13/01 A2955 RMK
     AO2=
KRZT 220235Z AUTO 18004KT 10SM CLR 11/00 A3002 RMK AO2 PWINO=
KSGS 220235Z AUTO 00000KT 10SM CLR 11/04 A2963 RMK AO2
     T01050035=
KSHD 220235Z AUTO 00000KT 10SM CLR 04/00 A3018 RMK AO2
     T00400000=
K10G 220235Z AUTO 20007KT 10SM CLR 12/M01 A3002 RMK AO2=
