SAUS70 KWBC 220018 RRA
METAR
KHFY 220015Z AUTO 17005KT 10SM CLR 17/03 A2990 RMK AO2
     T01650030=
KIUA 220015Z AUTO 17006KT 10SM CLR 12/00 A2998 RMK AO2
     T01151001=
KLDJ 220015Z AUTO 00000KT 10SM CLR 13/03 A3015 RMK AO2
     T01270034=
KLNL 220015Z AUTO 00000KT 10SM CLR 06/02 A2963 RMK AO2
     T00550021=
KLUM 220015Z AUTO 00000KT 10SM CLR 13/08 A2963 RMK AO2 T01280075
     PWINO=
KMDZ 220015Z AUTO 00000KT 10SM CLR 11/04 A2963 RMK AO2 T01140036
     PWINO=
KMRJ 220015Z AUTO 00000KT 10SM CLR 18/M01 A2965 RMK AO2=
KORB 220013Z AUTO 00000KT 10SM CLR 09/01 A2955 RMK AO2=
KOWA 220013Z AUTO 00000KT 7SM CLR 09/02 A2964 RMK AO2=
KPCZ 220015Z AUTO 00000KT 10SM CLR 14/03 A2962 RMK AO2
     T01380030=
KRCX 220015Z AUTO 00000KT 10SM CLR 10/05 A2964 RMK AO2
     T00980048=
KRID 220035Z AUTO 18007KT 10SM CLR 11/02 A2995 RMK AO2=
KRPD 220015Z AUTO 00000KT 10SM CLR 09/04 A2963 RMK AO2
     T00850042=
KXVG 220013Z AUTO 00000KT 10SM CLR 08/02 A2959 RMK AO2=
KBOW 220015Z AUTO 34006KT 10SM CLR 20/06 A3005 RMK AO2=
KBRG 220015Z AUTO 30008KT 10SM CLR 21/00 A2997 RMK AO2
     T02080003=
KBRY 220015Z AUTO 17003KT 10SM CLR 16/00 A2997 RMK AO2
     T01560005=
KBVU 220015Z AUTO 17013KT 10SM CLR 29/02 A2980 RMK AO2=
KBWP 220015Z AUTO 17005KT 9SM SCT055 12/M00 A2955 RMK AO2=
KBWW 220015Z AUTO 36015KT 10SM FEW110 13/02 A2951 RMK AO2=
KBXK 220015Z AUTO 00000KT 10SM CLR 30/11 A2980 RMK A01=
KC29 220015Z AUTO 00000KT 7SM CLR 13/04 A2965 RMK AO1
     T01260041=
KCAD 220015Z AUTO 21005KT 10SM CLR 14/04 A2967 RMK AO2
     T01440042=
KCDN 220015Z AUTO 00000KT 10SM CLR 10/02 A3013 RMK AO2=
KCEY 220015Z AUTO 14007KT 10SM CLR 20/08 A2992 RMK A01=
KCFJ 220015Z AUTO 16007KT 10SM CLR 15/M01 A2986 RMK AO2
     T01501015=
KCGC 220015Z AUTO 00000KT 10SM CLR 13/04 A3007 RMK AO2=
KCJR 220015Z AUTO 00000KT 10SM CLR 08/02 A3014 RMK AO2
     T00750022=
KCKC 220015Z AUTO 00000KT 10SM CLR 08/02 A2956 RMK AO2=
KCKM 220015Z AUTO 16008KT 10SM FEW049 BKN060 24/10 A2991 RMK
     A01=
KCLS 220015Z AUTO VRB03KT 5SM -RA SCT015 SCT060 08/07 A2972 RMK
     AO2=
KCLW 220015Z AUTO 36003KT 10SM CLR 17/07 A3005 RMK AO2=
KCMR 220015Z AUTO 22007G13KT 10SM CLR 16/02 A3009 RMK AO2=
KCNB 220015Z AUTO 12003KT 7SM CLR 11/00 A2961 RMK AO2
     T01140000=
KCPT 220015Z AUTO 16012G18KT 10SM CLR 27/08 A2983 RMK A01=
KCTZ 220015Z AUTO 00000KT 10SM SCT060 11/08 A3013 RMK AO2
     T01130079=
KCVX 220015Z AUTO 20005KT 10SM CLR 15/06 A2962 RMK AO2
     T01500057=
KD57 220015Z AUTO 04008KT 10SM FEW095 10/M02 A2949 RMK AO2=
KD60 220015Z AUTO VRB04KT 10SM BKN008 OVC047 05/05 A2957 RMK
     AO2=
KDNA 220015Z AUTO 00000KT 10SM CLR 25/08 A2997 RMK AO2=
KDNN 220015Z AUTO 00000KT 10SM CLR 11/04 A3009 RMK AO2
     T01130039=
KDRI 220015Z AUTO 18011KT 10SM CLR 23/16 A2999 RMK AO2 T02290162
     $=
KDTL 220015Z AUTO 13004KT 10SM FEW060 BKN110 11/00 A2957 RMK
     AO2=
KDUH 220015Z AUTO 19006KT 10SM CLR 18/00 A2985 RMK AO2
     T01810000=
KDYB 220015Z AUTO 00000KT 10SM CLR 11/08 A3011 RMK AO2=
KEFK 220015Z AUTO 11007KT 10SM CLR 09/M01 A3006 RMK AO2
     T00851015=
KEKM 220015Z AUTO 19007KT 7SM CLR 18/03 A2980 RMK AO2
     T01830033=
KELK 220015Z AUTO 19011KT 7SM CLR 25/01 A2969 RMK AO2 SLP345
     T02500011 $=
KEVU 220015Z AUTO 18007KT 7SM CLR 21/05 A2959 RMK AO2
     T02180050=
KEXX 220015Z AUTO 00000KT 10SM CLR 10/01 A3013 RMK AO2
     T00950009=
KEZF 220015Z AUTO 00000KT 10SM CLR 10/05 A3013 RMK AO2
     T00950050=
KEZM 220015Z AUTO 00000KT 10SM CLR 10/04 A3012 RMK AO2=
KMAN 220015Z AUTO 36003KT 10SM CLR 20/03 A2966 RMK A01=
KMAO 220015Z AUTO 00000KT 10SM CLR 10/05 A3013 RMK AO2=
