SAUS70 KWBC 220146
METAR
KE11 220140Z AUTO 22006KT 10SM CLR 21/06 A2989 RMK AO2
     T02060063=
KJVY 220135Z AUTO 18004KT 10SM CLR 15/01 A2996 RMK AO2 PWINO=
KTNB 220130Z AUTO 00000KT 10SM CLR 03/M01 A3018 RMK AO2
     T00271011=
