SAUS70 KWBC 212340 RRI
METAR
KDQH 212335Z AUTO 00000KT 10SM CLR 14/02 A3011 RMK AO2
     T01440023=
KE38 212335Z AUTO 28008KT 10SM CLR 25/04 A3007 RMK AO2
     T02460043=
KECU 212335Z AUTO 17008KT 10SM CLR 23/09 A2999 RMK AO2=
KEGT 212335Z AUTO 19015G20KT 10SM CLR 30/M02 A2963 RMK AO2=
KEOK 212335Z AUTO 19012KT 10SM CLR 24/04 A2964 RMK A01=
KFEP 212335Z AUTO 20008KT 10SM CLR 17/06 A2966 RMK AO2
     T01730059=
KFFL 212335Z AUTO 18006KT 9SM CLR 22/M00 A2963 RMK A01=
KFSK 212335Z AUTO 20011KT 10SM CLR 25/05 A2969 RMK AO2
     T02490045=
KFWZ 212335Z AUTO 23022G32KT 10SM CLR 12/M10 A2979 RMK AO2=
KFXY 212335Z AUTO 00000KT 10SM CLR 12/03 A2962 RMK AO2=
KFZG 212335Z AUTO 00000KT 10SM CLR 12/07 A3010 RMK AO2
     T01200073=
KGBG 212335Z AUTO 18006KT 10SM CLR 21/05 A2968 RMK AO2
     T02110047=
KGCD 212335Z AUTO 22007KT 10SM SCT050 BKN095 OVC110 14/03 A2968
     RMK AO2 T01410032=
KGGF 212335Z AUTO 22011KT 6SM HZ CLR 24/M09 A2960 RMK AO2=
KGMJ 212335Z AUTO 17006KT 10SM CLR 18/M05 A2974 RMK AO2=
KGZL 212335Z AUTO 20006KT 10SM VCTS CLR 27/04 A2975 RMK AO2 LTG
     DSNT S=
KHDE 212335Z AUTO 17004KT 10SM CLR 20/M02 A2962 RMK AO2
     T02021016=
KHDL 212335Z AUTO 00000KT 10SM FEW031 16/05 A3008 RMK AO2=
KHNR 212335Z AUTO 00000KT 10SM CLR 16/01 A2960 RMK A01=
KHPT 212335Z AUTO 36004KT 10SM CLR 16/00 A2962 RMK AO2=
KI63 212335Z AUTO 17008KT 10SM CLR 20/02 A2970 RMK AO2
     T01980018=
KI75 212335Z AUTO 17003KT 10SM CLR 21/03 A2960 RMK AO2
     T02080025=
KIBM 212335Z AUTO 27007KT 10SM CLR 17/M11 A2968 RMK AO2
     T01711108=
KICL 212335Z AUTO 00000KT 8SM CLR 19/04 A2959 RMK AO2=
KIIB 212335Z AUTO 32003KT 7SM CLR 17/02 A2964 RMK AO2
     T01690018=
KIJX 212335Z AUTO 17006KT 10SM CLR 21/03 A2974 RMK AO2
     T02100026=
KIKV 212335Z AUTO 00000KT 10SM CLR 17/02 A2961 RMK AO2=
KJAS 212335Z AUTO 19008G14KT 9SM CLR 24/14 A2993 RMK AO2=
KJOT 212335Z AUTO 19008G14KT 10SM CLR 22/05 A2971 RMK AO2
     T02180046=
KJYR 212335Z AUTO 21003KT 10SM CLR 20/M02 A2959 RMK AO2=
KK88 212335Z AUTO 16010KT 10SM CLR 24/04 A2968 RMK AO1
     T02440040=
KLAM 212335Z AUTO 28007G15KT 10SM CLR 17/M05 A3006 RMK AO2
     T01691050=
KLCQ 212335Z AUTO 00000KT 10SM CLR 13/04 A3008 RMK AO2=
KLGC 212335Z AUTO 00000KT 10SM CLR 11/04 A3009 RMK AO2
     T01120039=
KLLN 212335Z AUTO 25011G17KT 10SM CLR 25/01 A2984 RMK AO2=
KUMP 212335Z AUTO 00000KT 10SM CLR 19/03 A2988 RMK AO2
     T01910027=
KPTT 212335Z AUTO 00000KT 10SM CLR 27/M02 A2961 RMK AO2
     T02711017=
KRCR 212335Z AUTO 19009KT 10SM CLR 19/03 A2980 RMK AO2=
KRCV 212335Z AUTO 23012G19KT 10SM CLR 15/M05 A2998 RMK AO2
     T01491052=
KRDK 212335Z AUTO 01004KT CLR 19/00 A2958 RMK AO2=
KREG 212335Z AUTO 21005KT 10SM CLR 23/14 A3003 RMK AO2
     T02300135=
KRQO 212335Z AUTO 18010KT CLR 27/03 A2971 RMK AO2 PWINO
     T02710027=
KSBO 212335Z AUTO 00000KT 10SM CLR 12/06 A3011 RMK AO2=
KSBS 212335Z AUTO 25009G17KT 10SM CLR 15/M09 A2987 RMK AO1
     T01531087=
KSDA 212335Z AUTO 01004KT 9SM CLR 20/01 A2956 RMK AO2=
KSEF 212335Z AUTO 35006KT 10SM CLR A3002 RMK AO2=
KSHL 212335Z AUTO 5SM HZ CLR 16/01 A2958 RMK AO2=
KSJS 212335Z AUTO 16004KT 10SM CLR 15/01 A3004 RMK AO2
     T01500012=
KSLB 212335Z AUTO 07005KT 9SM CLR 17/01 A2961 RMK AO2=
KSME 212335Z AUTO 00000KT 10SM CLR 17/01 A3001 RMK AO2=
KSUT 212335Z AUTO 00000KT 10SM SCT049 16/09 A3011 RMK AO2
     T01550088=
KT35 212335Z AUTO 19009KT 10SM CLR 27/10 A2989 RMK AO2
     T02730101=
KTAZ 212335Z AUTO 17011KT 10SM CLR 20/03 A2980 RMK AO2
     T02020033=
KTBR 212335Z AUTO 00000KT 10SM CLR 12/05 A3010 RMK AO2
     T01150054=
