SAPA31 KWBC 220200 RRB
METAR
AGGH 220200Z 32010KT 9999 SCT019 FEW020CB BKN300 29/25 Q1008 RMKS
     CB ASSW AH TO NW,E,S=
PMDY 220210Z AUTO 36010G17KT 10SM SCT014 BKN048 OVC065 24/21 A2996
     RMK AO2 TSNO=
