SAUS70 KWBC 220200
METAR
KBAK 220145Z 19008KT 10SM CLR 14/M01 A2993 RMK LAST=
KASG 220148Z 16005KT 10SM CLR 20/08 A2983=
KCNW 220155Z 16007KT 10SM SKC 23/08 A2988=
KMWC 220145Z 22004KT 10SM CLR 17/01 A2969=
KBBG 220145Z 18007KT 10SM CLR 19/04 A2984=
KEZS 220155Z AUTO 00000KT 10SM CLR 10/06 A2965 RMK AO2
     T00950058=
KSCH 220145Z 00000KT 15SM CLR 06/01 A3012 RMK LAST=
KW63 220155Z AUTO 00000KT 10SM CLR 07/07 A3016 RMK AO1=
