SAUS80 KWBC 212244
METAR
KIZA 212235Z AUTO 28013KT 10SM CLR 24/12 A2985 RMK AO2=
KSOA 212235Z AUTO 18012KT 10SM 28/05 A2995 RMK AO2=
KCUL 212233Z AUTO 17010KT 10SM CLR 23/03 A2986 RMK AO2=
KDVK 212230Z AUTO 00000KT 10SM CLR 17/00 A3001 RMK AO2=
KNY0 212234Z AUTO 15006KT 10SM CLR 09/M02 A3005 RMK AO2=
KGIC 212235Z AUTO 24013G18KT 5SM BKN039 OVC046 06/03 A2973 RMK
     AO1=
KPSN 212235Z AUTO 22013KT 10SM CLR 29/08 A2987 RMK AO2=
