SAUS70 KWBC 212300 RRC
METAR
KHGR 212253Z 14005KT 10SM CLR 14/M01 A3009 RMK AO2 SLP201
     T01391006 $=
KHHR 212253Z 26009KT 10SM CLR 23/17 A2984 RMK AO2 SLP104 T02280172
     $=
KHKA 212253Z AUTO 20007KT 10SM CLR 24/09 A2987 RMK AO2 SLP114
     T02440094 $=
KHKS 212253Z 20006KT 10SM CLR 26/10 A2998 RMK AO2 SLP144
     T02560100=
KHLG 212253Z 19006KT 10SM CLR 14/M01 A3001 RMK AO2 SLP167
     T01441011=
KHLN 212253Z 29018KT 10SM OVC055 12/02 A2956 RMK AO2 SLP014
     T01170017=
KHOT 212253Z AUTO 19005KT 10SM CLR 26/06 A2985 RMK AO2 SLP106
     T02610056=
KHOU 212253Z 18016G23KT 10SM FEW050 27/14 A2995 RMK AO2 SLP146
     T02670139=
KHRO 212253Z AUTO 17008KT 10SM CLR 24/04 A2983 RMK AO2 SLP093
     T02390039=
KHUF 212253Z 19010KT 10SM CLR 21/02 A2984 RMK AO2 PK WND
     19026/2207 SLP104 T02110022=
KHUL 212253Z AUTO 18004KT 10SM CLR 07/01 A3006 RMK AO2 SLP185
     T00720006=
KHUT 212252Z 18008KT 10SM CLR 28/01 A2961 RMK AO2 SLP011
     T02780006=
KHWO 212253Z AUTO 35012G20KT 10SM CLR 24/17 A2995 RMK AO2 SLP141
     T02390172=
KIAH 212253Z 17011KT 10SM FEW065 27/14 A2993 RMK AO2 SLP134
     T02720139=
KIDA 212253Z 23023G37KT 10SM CLR 20/M03 A2970 RMK AO2 PK WND
     22041/2203 SLP029 T02001033=
KILM 212253Z 00000KT 10SM BKN047 OVC080 17/11 A3009 RMK AO2 SLP190
     T01670106 PWINO $=
KCSM 212253Z 20021G28KT 10SM CLR 28/02 A2969 RMK AO2 PK WND
     19035/2218 RAE02 SLP036 P0000 T02780017=
KCUB 212253Z AUTO 00000KT 10SM CLR 16/05 A3011 RMK AO2 SLP195
     T01560050=
KCXO 212253Z 20010KT 10SM CLR 27/12 A2993 RMK AO2 SLP132
     T02720122=
KCYS 212253Z 26018G30KT 10SM CLR 19/M11 A2975 RMK AO2 PK WND
     24034/2231 SLP001 T01941111=
KDAN 212253Z AUTO 00000KT 10SM CLR 11/03 A3012 RMK AO2 SLP196
     T01060028=
KDCU 212253Z AUTO 18007KT 10SM CLR 20/09 A3002 RMK AO2 SLP165
     T02000089=
KDEN 212253Z 28015G21KT 10SM FEW130 FEW200 24/M11 A2973 RMK AO2
     SLP997 ACSL OMTNS DSNT NW T02391111=
KDEQ 212253Z AUTO 17004KT 10SM CLR 28/07 A2982 RMK AO2 SLP093
     T02830067 $=
KDFW 212253Z 19013KT 10SM CLR 31/06 A2978 RMK AO2 SLP077
     T03110056=
KDGW 212253Z AUTO 26026G42KT 10SM CLR 22/M09 A2959 RMK AO2 PK WND
     27042/2251 SLP985 T02221089=
KDHN 212253Z AUTO 00000KT 10SM CLR 19/03 A3011 RMK AO2 SLP193
     T01940028=
KDHT 212253Z AUTO 23005KT 10SM CLR 28/M06 A2974 RMK AO2 SLP031
     T02781056=
KDLN 212253Z AUTO 23016G26KT 10SM OVC100 16/M04 A2952 RMK AO2 PK
     WND 23026/2246 SLP962 T01611039=
KDMO 212253Z AUTO 19011KT 10SM CLR 27/02 A2970 RMK AO2 SLP050
     T02670017=
KDRO 212253Z AUTO 26017KT 10SM CLR 18/M03 A3001 RMK AO2 PK WND
     25026/2208 SLP128 T01781033=
KDTN 212253Z AUTO 18008KT 10SM CLR 28/11 A2988 RMK AO2 SLP115
     T02830106=
KDTO 212253Z 17015G20KT 10SM CLR 32/05 A2978 RMK AO2 SLP079
     T03170050=
KDUJ 212253Z AUTO 17003KT 10SM CLR 13/M03 A3001 RMK AO2 SLP166
     T01331028=
KDVT 212253Z 25008KT 10SM CLR 31/07 A2983 RMK AO2 SLP081
     T03060072=
KDWH 212253Z AUTO 20012KT 10SM CLR 28/13 A2993 RMK AO2 SLP132
     T02780128=
KECP 212253Z 00000KT 10SM CLR 19/08 A3006 RMK AO1 SLP191
     T01940078=
KEEO 212253Z AUTO 22015G27KT 10SM CLR 18/M07 A2989 RMK AO2 PK WND
     22027/2209 SLP080 T01781067=
KELD 212253Z AUTO 16006KT 10SM CLR 25/13 A2989 RMK AO2 SLP120
     T02500133=
KENW 212253Z 22011G20KT 10SM CLR 23/03 A2964 RMK AO2 SLP036
     T02280033=
KBNA 212253Z 17008KT 10SM SCT250 21/02 A2998 RMK AO2 SLP152
     T02060017 $=
KBOI 212253Z 36004KT 10SM CLR 19/02 A2969 RMK AO2 SLP042
     T01890022=
KBPI 212253Z AUTO 28019G36KT 10SM FEW090 16/M08 A2983 RMK AO2 PK
     WND 29036/2249 SLP056 T01611083=
