SAUS70 KWBC 220216 RRA
METAR
KAUM 220215Z AUTO 00000KT 7SM CLR 09/03 A2966 RMK AO2=
KCBG 220215Z AUTO 00000KT 10SM CLR 09/01 A2962 RMK AO2=
KCFE 220215Z AUTO 00000KT 10SM SCT016 BKN022 OVC050 07/01 A2961
     RMK AO2=
KCKI 220215Z AUTO 00000KT 10SM CLR 06/04 A3015 RMK AO2=
KCOQ 220215Z AUTO 00000KT 10SM CLR 06/01 A2959 RMK AO2 TSNO=
KCVH 220215Z AUTO 25006KT 10SM CLR 13/10 A2987 RMK A01=
KD25 220215Z AUTO 00000KT 10SM CLR 02/02 A2964 RMK AO2
     T00230023=
KD95 220215Z AUTO 20010KT 10SM CLR 17/M02 A2981 RMK AO2
     T01741020=
KDLZ 220215Z AUTO 18008KT 10SM CLR 12/00 A2998 RMK AO2=
KDRM 220215Z AUTO 00000KT 10SM CLR 07/05 A2965 RMK AO2
     T00730052=
KDXX 220215Z AUTO 13004KT 10SM CLR 09/01 A2960 RMK AO2=
KDYT 220215Z AUTO 19004KT 10SM 10/03 A2960 RMK AO2=
KELO 220215Z AUTO 00000KT 10SM CLR 08/00 A2959 RMK AO2=
KF70 220215Z AUTO 19007KT 10SM CLR 19/16 A2989 RMK AO2=
KFBL 220215Z AUTO 00000KT 10SM CLR 06/02 A2964 RMK AO2=
KFFM 220215Z AUTO 16005KT 10SM CLR 11/01 A2956 RMK AO2=
KFSE 220215Z AUTO 18004KT 10SM SCT110 08/M01 A2957 RMK AO2=
KGGE 220215Z AUTO 00000KT 10SM CLR 07/07 A3015 RMK AO2=
KGHW 220215Z AUTO 15007KT 10SM CLR 09/01 A2959 RMK AO2=
KGYH 220215Z AUTO 00000KT 10SM CLR 11/00 A3016 RMK A02
     T01090002=
KGYL 220215Z AUTO 00000KT 7SM CLR 09/02 A2962 RMK AO2
     T00940015=
KHAE 220215Z AUTO 17008KT 10SM CLR 20/M01 A2972 RMK AO2=
KSUA 220215Z AUTO 18003KT 10SM VCTS BKN031 BKN040 BKN046 21/15
     A3005 RMK AO2 LTG DSNT NE AND E T02130154=
KTEW 220215Z AUTO 17004KT 10SM CLR 18/03 A2980 RMK AO2
     T01750025=
KTVY 220215Z AUTO 17010KT 10SM CLR 15/M03 A2973 RMK AO2=
KTWM 220215Z AUTO 29003KT 10SM CLR 08/02 A2959 RMK AO2=
KUKT 220215Z AUTO 00000KT 10SM CLR 05/03 A3018 RMK A01=
KVDF 220215Z AUTO 00000KT 10SM CLR 15/10 A3009 RMK AO2=
KVVV 220215Z 15003KT 10SM 08/02 A2958 RMK AO2=
KX60 220215Z AUTO 00000KT 10SM CLR 09/05 A3011 RMK AO2
     T00950054=
KXSA 220215Z AUTO 00000KT 10SM CLR 10/06 A3019 RMK AO2
     T00970064=
KY63 220215Z AUTO 14005KT 10SM CLR 11/01 A2958 RMK AO2
     T01090005=
KHBI 220215Z AUTO 00000KT 10SM CLR 06/03 A3019 RMK AO2
     T00610026=
KHCO 220215Z AUTO 28011KT 10SM BKN055 OVC070 13/02 A2956 RMK
     AO2=
KHSP 220215Z AUTO 18009KT 10SM CLR 09/M04 A3018 RMK AO2
     T00861040=
KI69 220215Z AUTO 18004KT 10SM CLR 14/01 A3000 RMK AO2
     T01420008=
KJFX 220215Z AUTO 00000KT 6SM BR CLR 10/10 A3007 RMK AO2=
KJKJ 220215Z AUTO 00000KT 10SM CLR 11/00 A2957 RMK AO2 TSNO=
KJMR 220215Z AUTO 00000KT 10SM CLR 06/01 A2965 RMK AO2=
KJSO 220215Z AUTO 19008KT 10SM CLR 22/11 A2994 RMK AO2 T02170106
     TSNO=
KJVW 220215Z AUTO 16005KT 10SM CLR 18/12 A3001 RMK AO2=
KL18 220215Z AUTO 22003KT 10SM OVC012 18/16 A2989 RMK AO2=
KLDM 220215Z AUTO 22015G22KT 10SM CLR 18/05 A2967 RMK AO2
     T01760052=
KLJF 220215Z AUTO 00000KT 10SM CLR 07/01 A2960 RMK AO2=
KMBY 220215Z AUTO 18011G15KT 10SM CLR 22/00 A2970 RMK AO2=
KMGG 220215Z AUTO 00000KT 10SM CLR 08/03 A2962 RMK AO2 T00800031
     PWINO=
KMGN 220215Z AUTO 32003KT 10SM CLR 08/06 A2965 RMK AO2
     T00850067=
KMNI 220215Z AUTO 00000KT 10SM CLR 06/05 A3015 RMK AO2=
KMQJ 220215Z AUTO 16006KT 10SM CLR 13/02 A2993 RMK AO1=
KMVE 220215Z AUTO 15004KT 10SM CLR 11/02 A2960 RMK AO2=
KOIN 220215Z AUTO 00000KT 10SM CLR 14/M04 A2966 RMK AO1
     T01431043=
KOMH 220215Z AUTO 00000KT 10SM CLR 05/03 A3018 RMK AO2=
KOVL 220215Z AUTO 12003KT 7SM CLR 09/01 A2960 RMK AO2=
KOZW 220215Z AUTO 18007KT 10SM CLR 16/04 A2982 RMK AO2
     T01600035=
KPCZ 220215Z AUTO 00000KT 10SM CLR 09/04 A2967 RMK AO2
     T00860040=
KPSK 220215Z AUTO 00000KT 10SM CLR 05/01 A3016 RMK AO2
     T00500010=
