SAUS70 KWBC 220220 RRA
METAR
KY70 220215Z AUTO 20014G19KT 10SM CLR 17/02 A2976 RMK AO2
     T01720023=
K3S8 220215Z AUTO VRB03KT 10SM FEW040 SCT050 BKN060 17/12 A2982
     RMK AO2=
KATA 220215Z AUTO 14004KT 10SM CLR 15/12 A2988 RMK AO2 SLP018
     T01520121 $=
KC83 220215Z AUTO VRB05G15KT 10SM CLR 20/10 A2978 RMK AO2=
KDSF 220215Z AUTO 06006KT 10SM CLR 22/13 A3011 RMK A01=
KF05 220215Z AUTO 20012KT 10SM CLR 26/03 A2972 RMK AO2
     T02560032=
KFTN 220215Z AUTO 14007KT 10SM CLR 21/11 A2995 RMK A01=
KGYI 220215Z AUTO 17015KT 10SM CLR 25/07 A2982 RMK AO2 T02480070
     TSNO=
KHHV 220215Z AUTO 15014G22KT 10SM BKN042 BKN047 24/15 A3002 RMK
     A01=
KHQZ 220215Z AUTO 16008KT 10SM CLR 23/09 A2986 RMK AO1
     T02340085=
KINJ 220215Z AUTO 17013KT 10SM CLR 25/09 A2987 RMK AO2
     T02480090=
KJTC 220215Z AUTO 13006KT 10SM CLR 11/03 A3012 RMK AO2=
KMVH 220215Z AUTO 30004KT 7SM FEW011 OVC020 06/05 A2958 RMK AO2
     PWINO=
KT89 220215Z AUTO 04006KT 10SM CLR 22/08 A2993 RMK A01=
KVAF 220215Z AUTO 16014G20KT 10SM FEW044 24/12 A3005 RMK A01=
KWBF 220215Z AUTO 12007KT 10SM 23/13 A3009 RMK A01=
K3N8 220215Z AUTO 18004KT 10SM BKN120 09/00 A2957 RMK AO2
     T00890002=
KALM 220215Z AUTO 14008KT 10SM CLR 17/07 A2997 RMK AO2=
KATS 220215Z AUTO 24010KT 10SM CLR 19/08 A2991 RMK AO2=
KBKS 220215Z AUTO 14009KT 10SM CLR 22/17 A2996 RMK AO2 SLP107
     T02180165 $=
KBVU 220215Z AUTO 32006KT 10SM CLR 25/02 A2980 RMK AO2=
KCLS 220215Z AUTO 00000KT 8SM -RA BKN018 OVC035 08/07 A2968 RMK
     AO2=
KCMR 220215Z AUTO 15005KT 10SM CLR 09/02 A3009 RMK AO2=
KCPT 220215Z AUTO 17012G18KT 10SM CLR 24/08 A2986 RMK A01=
KHAF 220215Z AUTO 15006KT 6SM BR OVC012 14/13 A2990 RMK AO2=
KHOB 220215Z AUTO 24010KT 10SM CLR 18/06 A2989 RMK AO2=
KL35 220215Z AUTO 00000KT 10SM CLR 09/02 A3011 RMK AO2=
KL52 220215Z AUTO 00000KT 7SM OVC013 14/14 A2990 RMK A01=
KLRU 220215Z AUTO 17003KT 10SM CLR 19/06 A3000 RMK AO2
     T01890063=
KMAN 220215Z AUTO 13003KT 6SM HZ CLR 17/04 A2958 RMK A01=
KO22 220215Z AUTO 00000KT 10SM CLR 19/03 A2985 RMK A01=
KONM 220215Z AUTO 35003KT 10SM SCT090 17/06 A2996 RMK AO2
     T01660064=
KRPH 220215Z AUTO VRB05KT 9SM CLR 25/04 A2977 RMK AO2 T02490041
     $=
KT69 220215Z AUTO 18007KT 10SM CLR 21/16 A2998 RMK A01=
KTME 220215Z AUTO 19007KT 10SM CLR 21/15 A3001 RMK AO2=
KTSP 220215Z AUTO 29003KT 10SM CLR 16/M01 A2998 RMK AO2=
KU42 220215Z AUTO 22007KT 10SM CLR 15/M02 A2977 RMK AO1
     T01461019=
KARM 220215Z AUTO 15005KT 10SM CLR 18/14 A3001 RMK AO2 T01800135
     TSNO=
KAXH 220215Z AUTO 00000KT 10SM CLR 19/15 A3002 RMK AO2
     T01900153=
KBDN 220215Z AUTO 22010KT 10SM SCT046 BKN060 BKN070 15/07 A2964
     RMK AO2=
KBQX 220215Z AUTO 17019KT 10SM 24/14 A3002 RMK A01=
KCXP 220215Z AUTO 19012KT 10SM CLR 19/M05 A2990 RMK AO2=
KDZB 220215Z AUTO 18005KT 10SM CLR 23/08 A2993 RMK AO2
     T02250078=
KEIK 220215Z AUTO 25014G22KT 10SM CLR 21/M12 A2972 RMK AO2
     T02081117 PWINO=
KF44 220215Z AUTO 18005KT 10SM CLR 21/11 A2989 RMK AO2=
KFLY 220215Z AUTO 31010G17KT 10SM CLR 13/M12 A2985 RMK AO2
     T01291120=
KGDJ 220215Z AUTO 17013G17KT 10SM CLR 25/08 A2984 RMK AO2
     T02540077=
KGLX 220215Z AUTO 08008G14KT 10SM CLR 22/13 A3011 RMK A01=
KLXY 220215Z AUTO 17009G15KT 10SM CLR 22/11 A2990 RMK AO2
     T02200106=
KPKV 220215Z AUTO 16006KT 10SM CLR 20/15 A3000 RMK AO2
     T02020147=
KPRS 220215Z AUTO 35006KT 10SM CLR 21/12 A2997 RMK AO2
     T02100118=
KRTS 220215Z AUTO 24013KT 10SM FEW120 18/M06 A2990 RMK AO2=
KS33 220215Z AUTO 07005KT 10SM DZ BKN060 OVC075 09/08 A2964 RMK
     AO2 P0001=
KSEZ 220215Z AUTO 22006KT 10SM 18/05 A3000 RMK AO2=
