SAUS70 KWBC 212300 RRI
METAR
KOEB 212255Z AUTO 20004KT 10SM CLR 19/03 A2978 RMK AO2
     T01930030=
KOKK 212256Z AUTO 20011KT 10SM CLR 19/02 A2985 RMK AO2 SLP106
     T01940022 PNO $=
KOLU 212256Z AUTO 10004KT 10SM CLR 23/00 A2960 RMK AO2 SLP024
     T02330000=
KONZ 212255Z AUTO 18008KT 10SM BKN100 12/06 A2980 RMK AO2
     T01200060=
KOTG 212256Z AUTO 09005KT 10SM CLR 16/03 A2962 RMK AO2 SLP033
     T01560028=
KOWB 212256Z 17008KT 10SM CLR 21/03 A2991 RMK AO2 SLP129
     T02060028=
KOXD 212255Z AUTO 19008KT 10SM CLR 20/M05 A2993 RMK AO2
     T01991055=
KPNM 212255Z AUTO 00000KT 10SM CLR 16/02 A2960 RMK AO2 TSNO=
KPQI 212256Z AUTO 20007KT 10SM CLR 08/00 A3006 RMK AO2 SLP210
     T00830000=
KPRX 212256Z AUTO 18012KT 10SM CLR 29/08 A2982 RMK AO2 SLP095
     T02890083=
KPTN 212256Z AUTO 19005KT 10SM CLR 22/16 A3005 RMK AO2 SLP177
     T02220156 $=
KPTV 212256Z AUTO 30006KT 10SM CLR 32/07 A2979 RMK AO2 SLP085
     T03220067=
KPVC 212256Z AUTO 20009KT 10SM CLR 14/09 A3016 RMK AO2 SLP213
     T01390089=
KPVG 212256Z AUTO 00000KT 10SM CLR 09/07 A3014 RMK AO2 SLP209
     T00890072 PNO $=
KPVU 212256Z 20009KT 10SM CLR 23/M02 A2984 RMK AO2 SLP071
     T02281022=
KPWG 212256Z AUTO 18015G20KT 10SM CLR 29/09 A2986 RMK AO2 SLP106
     T02940089=
KRKD 212256Z AUTO 23004KT 10SM CLR 08/04 A3014 RMK AO2 SLP206
     T00830039=
KRNP 212255Z AUTO 18007KT 10SM CLR 18/02 A2974 RMK AO2
     T01840020=
KRQB 212255Z AUTO 23007KT 10SM CLR 19/03 A2965 RMK AO2
     T01870034=
K08D 212255Z AUTO 00000KT 10SM 08/06 A2954 RMK AO2=
KAQP 212253Z AUTO 00000KT 10SM SCT090 16/M01 A2960 RMK AO2=
KD55 212255Z AUTO 26010KT 10SM SCT090 12/02 A2952 RMK AO2=
KETH 212253Z AUTO 00000KT 10SM 16/00 A2960 RMK AO2=
KGLR 212253Z AUTO 21009KT 10SM CLR 17/04 A2961 RMK AO2 SLP030
     T01670039=
KGRB 212253Z 24004KT 10SM CLR 20/03 A2958 RMK AO2 SLP018
     T02000033=
KHIB 212253Z AUTO 24004KT 10SM CLR 12/02 A2957 RMK AO2 SLP019
     T01220022=
KHSI 212253Z AUTO 00000KT 10SM CLR 24/M01 A2961 RMK AO2 SLP018
     T02391011=
KICR 212253Z AUTO 15012KT CLR 22/01 A2955 RMK AO2 SLP999
     T02170011=
KLSE 212253Z 33005KT 10SM CLR 17/04 A2959 RMK AO2 SLP021 T01670044
     $=
KLUM 212255Z AUTO 27003KT 10SM CLR 18/08 A2960 RMK AO2 T01800082
     PWINO=
KLWB 212251Z 24004KT 10SM CLR 13/00 A3010=
KMRJ 212255Z AUTO 27003KT 10SM CLR 21/00 A2962 RMK AO2=
KOMA 212252Z 19003KT 10SM SCT250 23/02 A2959 RMK AO2 SLP016
     T02330017=
KRPD 212255Z AUTO 00000KT 7SM CLR 16/06 A2960 RMK AO2
     T01550055=
KSDC 212255Z AUTO 15004KT 10SM CLR 13/M01 A2997 RMK AO2=
KSUX 212252Z 02005KT 8SM CLR 22/01 A2959 RMK AO2 SLP019
     T02170011=
KTTS 212255Z AUTO 01006KT 10SM SCT075 19/12 A2999 RMK AO2 SLP160
     T01930123 $=
KEFD 212254Z 17012G21KT 10SM CLR 25/15 A2995=
KHFF 212255Z AUTO 00000KT 10SM CLR 13/04 A3009 RMK AO2 SLP194
     T01340035=
KIWA 212250Z VRB04KT 10SM CLR 31/10 A2984=
PABA 212252Z AUTO 10015KT 10SM OVC016 M03/M06 A2991 RMK AO2 SLP134
     T10331056 FZRANO PNO $=
KBGM 212253Z AUTO 20007KT 10SM CLR 10/M04 A3005 RMK AO2 SLP185
     T01001039=
KGKJ 212253Z AUTO VRB04KT 10SM CLR 13/M01 A2997 RMK AO2 SLP154
     T01331006=
KGRI 212253Z 14005KT 10SM CLR 24/M02 A2961 RMK AO2 SLP022
     T02441017=
KHEI 212253Z AUTO 19008KT 10SM CLR 19/00 A2948 RMK AO2 SLP977
     T01940000=
KLNS 212253Z 16005KT 10SM CLR 13/01 A3011 RMK AO2 SLP198
     T01330011=
KMHE 212253Z AUTO 14005KT 10SM CLR 19/01 A2959 RMK AO2 SLP017
     T01890006=
KMIC 212253Z 27006KT 9SM CLR 16/03 A2959 RMK AO2 SLP020
     T01610028=
KPTK 212253Z 18006KT 10SM FEW085 FEW230 17/02 A2978 RMK AO2 SLP087
     T01720022=
