SAUS80 KWBC 212326
METAR
K9V9 212315Z AUTO 14006KT 10SM CLR 17/02 A2955 RMK AO2
     T01700017=
KCBE 212315Z AUTO 00000KT 10SM CLR 14/00 A3011 RMK AO2
     T01371004=
KCUL 212313Z AUTO 15007KT 10SM CLR 18/02 A2987 RMK AO2=
KNY0 212314Z AUTO 15005KT 10SM CLR 08/M02 A3006 RMK AO2=
KSFY 212322Z AUTO 18005KT 10SM CLR 19/04 A2963 RMK AO2=
KROS 212323Z AUTO 22003KT 10SM SCT100 14/04 A2960 RMK AO2=
