SAUS70 KWBC 220100 RRU
METAR
KFKR 220055Z AUTO 17009KT 10SM FEW022 SCT029 BKN039 15/02 A2986
     RMK AO2=
KGOV 220058Z AUTO 00000KT 10SM CLR 10/04 A2966 RMK AO2 SLP056
     T00980035 $=
KMPZ 220050Z AUTO 17004KT 10SM CLR 18/07 A2967 RMK AO2=
KTNU 220055Z AUTO 04004KT 10SM CLR 19/01 A2962 RMK A01=
KUCP 220056Z AUTO 00000KT 10SM CLR 11/00 A3003 RMK AO2 SLP188
     T01060000=
KUSE 220055Z AUTO 20008G14KT 10SM CLR 16/02 A2985 RMK AO2=
KXLL 220055Z AUTO 20004KT 10SM CLR 10/02 A3015 RMK AO2=
KYKN 220056Z AUTO 16004KT 10SM CLR 16/02 A2959 RMK AO2 SLP033
     T01560022=
KDUB 220059Z AUTO 31015G20KT 10SM SCT085 11/M08 A2968 RMK AO2=
KNSE 220056Z 00000KT 10SM CLR 13/08 A3011 RMK AO2 SLP183 T01330078
     PNO $=
K9D7 220055Z AUTO 32005KT 9SM BKN044 OVC065 08/06 A2957 RMK AO2
     TSNO=
KAIG 220055Z AUTO 25005KT 10SM CLR 09/03 A2965 RMK AO2
     T00910028=
KCKZ 220055Z AUTO 00000KT 10SM CLR 05/03 A3016 RMK AO2=
KD57 220055Z AUTO 05006KT 10SM OVC070 10/M02 A2950 RMK AO2=
KD60 220055Z AUTO 04005KT 10SM FEW033 BKN040 OVC045 05/05 A2957
     RMK AO2=
KEKM 220055Z AUTO 20007KT 10SM CLR 18/03 A2980 RMK AO2
     T01790033=
KGWR 220055Z AUTO 16006KT 8SM FEW019 BKN026 BKN034 12/01 A2955 RMK
     A01=
KI67 220055Z AUTO 00000KT 10SM CLR 13/00 A2996 RMK AO1=
KOEB 220055Z AUTO 18007KT 10SM CLR 17/03 A2981 RMK AO2
     T01700027=
KOKK 220056Z AUTO 19012KT 10SM CLR 17/02 A2988 RMK AO2 SLP118
     T01670022 PNO $=
KOXD 220055Z AUTO 00000KT 10SM CLR 17/M03 A2995 RMK AO2
     T01661030=
KPEX 220055Z AUTO 00000KT 10SM CLR 08/01 A2963 RMK AO2=
KPNM 220055Z AUTO 00000KT 10SM CLR 09/03 A2962 RMK AO2 TSNO=
KPVB 220055Z AUTO 13005KT 10SM CLR 19/01 A2966 RMK AO1
     T01860010=
KPVC 220056Z AUTO 20009KT 10SM CLR 13/09 A3019 RMK AO2 SLP221
     T01330089=
KRNP 220055Z AUTO 17008KT 10SM CLR 17/03 A2975 RMK AO2
     T01700026=
KRUT 220056Z AUTO 12010KT 10SM CLR 06/M01 A3010 RMK AO2 SLP197
     T00611011 $=
KSFM 220056Z AUTO 00000KT 10SM CLR 02/01 A3015 RMK AO2 SLP214
     T00170011 FZRANO=
KSFZ 220056Z AUTO 00000KT 10SM CLR 10/07 A3017 RMK AO2 SLP218
     T01000067=
K22N 220055Z AUTO 00000KT 10SM CLR 02/00 A3015 RMK AO2=
KADC 220055Z AUTO 00000KT 10SM CLR 09/01 A2959 RMK AO2 TSNO=
KAEL 220055Z AUTO 00000KT 10SM CLR 11/03 A2964 RMK AO2=
KASH 220056Z 00000KT 10SM CLR 06/04 A3015 RMK AO2 SLP217 T00560039
     $=
KBDH 220055Z AUTO 00000KT 10SM CLR 09/01 A2965 RMK AO2=
KBTP 220056Z AUTO 15005KT 10SM CLR 11/M01 A3005 RMK AO2 SLP186
     T01111006 TSNO=
KCFE 220055Z AUTO 00000KT 10SM SCT020 BKN025 OVC065 07/00 A2961
     RMK AO2=
KCWI 220056Z AUTO 18008KT 10SM CLR 15/04 A2967 RMK AO2 SLP053
     T01500039=
KI23 220055Z AUTO 17007KT 10SM CLR 11/M00 A2999 RMK AO1=
KITH 220056Z 17007KT 10SM CLR 09/M02 A3007 RMK AO2 SLP187
     T00941022=
KJRB 220056Z AUTO 21005KT 10SM CLR A3017 RMK AO2 SLPNO FZRANO
     $=
KJYM 220055Z AUTO 18008KT 10SM CLR 16/01 A2983 RMK AO2
     T01560006=
KLEW 220056Z AUTO 14003KT 10SM CLR 05/03 A3014 RMK AO2 SLP216
     T00500028=
KLWA 220055Z AUTO 19009KT 10SM CLR 20/02 A2973 RMK AO2
     T01970024=
KMCD 220055Z AUTO 26006KT 10SM CLR 10/07 A2962 RMK AO2
     T01040066=
KMTW 220056Z AUTO 00000KT 10SM CLR 11/08 A2963 RMK AO2 SLP038
     T01110083=
KMWM 220055Z AUTO 00000KT 10SM CLR 08/01 A2963 RMK AO2=
KSQI 220056Z AUTO VRB03KT 10SM CLR 19/04 A2969 RMK AO2 SLP921
     T01940039=
KVLL 220055Z AUTO 19007KT 10SM CLR 16/02 A2984 RMK AO2
     T01560020=
KVWU 220055Z AUTO 00000KT 10SM CLR 08/03 A2955 RMK AO2=
KWWD 220056Z AUTO 00000KT 10SM 09/08 A3018 RMK AO2 SLP222
     T00940078 $=
K05U 220055Z AUTO 25006KT 10SM 18/M12 A2990 RMK A01=
