SAPA32 KWBC 220100 RRB
METAR
NCRG 220130Z AUTO 05010KT 9999 FEW011/// 27/24 Q1013=
