SAUS70 KWBC 220242 RRB
METAR
KSDA 220235Z AUTO 00000KT 7SM FEW003 10/02 A2958 RMK AO2=
KSEF 220235Z AUTO 36006KT 10SM CLR 17/13 A3007 RMK AO2
     T01670131=
KSHL 220235Z AUTO 10006KT 10SM CLR 09/00 A2959 RMK AO2=
KSJS 220235Z AUTO 00000KT 10SM CLR 12/01 A3007 RMK AO2
     T01230013=
KSLB 220235Z AUTO 09006KT 9SM CLR 11/00 A2961 RMK AO2=
KSNL 220235Z AUTO 17012KT 10SM CLR 22/02 A2973 RMK AO2
     T02240020=
KT20 220235Z AUTO 17009KT 10SM CLR 22/15 A2997 RMK AO2
     T02170148=
KT35 220235Z AUTO 18013G17KT 10SM CLR 23/12 A2992 RMK AO2
     T02280118=
KTAZ 220235Z AUTO 17013G17KT 10SM CLR 17/05 A2981 RMK AO2
     T01710048=
KTBR 220235Z AUTO 00000KT 10SM CLR 07/05 A3015 RMK AO2
     T00740050=
KTIF 220235Z AUTO 17012KT 10SM CLR 16/M02 A2957 RMK AO2
     T01551024=
KTIP 220235Z AUTO 16007KT 10SM CLR 14/02 A2983 RMK AO2
     T01400023=
KTMK 220235Z AUTO 21015G22KT 10SM BKN015 OVC022 15/12 A2960 RMK
     AO2=
KTQK 220235Z AUTO 08011KT 10SM CLR 16/M08 A2966 RMK AO2
     T01641078=
KTVI 220235Z AUTO 00000KT 10SM CLR 09/04 A3015 RMK AO2=
KUKL 220235Z AUTO 17010KT 10SM CLR A2967 RMK AO2=
KUNI 220235Z AUTO 00000KT 7SM -SN CLR 05/02 A3004 RMK AO2
     T00460020=
KVDI 220235Z AUTO 00000KT 10SM CLR 10/05 A3015 RMK AO2=
KVES 220235Z AUTO 19005KT 10SM CLR 13/M02 A2995 RMK AO2=
KVKS 220235Z AUTO 18010KT 10SM BKN055 21/13 A2999 RMK A01=
KUMP 220235Z AUTO 17004KT 10SM CLR 16/03 A2992 RMK AO2
     T01580026=
KAJG 220235Z AUTO 18004KT 10SM CLR 15/02 A2990 RMK AO2
     T01470020=
KAWG 220235Z AUTO 18009KT 10SM CLR 18/04 A2965 RMK AO2=
KCBF 220235Z AUTO 12005KT 4SM HZ CLR 18/M05 A2957 RMK AO2=
KDKB 220235Z AUTO 18009KT 10SM CLR 12/06 A2975 RMK AO2
     T01230055=
KDNS 220235Z AUTO RMK AO2 PNO PWINO=
KFFL 220235Z AUTO 15006KT 10SM CLR 15/01 A2966 RMK A01=
KGHG 220235Z AUTO 22005KT 10SM CLR 10/07 A3020 RMK AO2=
KHDE 220235Z AUTO 19005KT 10SM CLR 11/M01 A2960 RMK AO2
     T01101015=
KHHG 220235Z AUTO 19007KT 10SM CLR A2989 RMK AO2=
KHPT 220235Z AUTO 00000KT 7SM CLR 07/M01 A2962 RMK AO2=
KI63 220235Z AUTO 17009KT 10SM CLR 18/02 A2973 RMK AO2
     T01780019=
KIBM 220235Z AUTO 27011KT 10SM CLR 12/M10 A2968 RMK AO2
     T01181099=
KICL 220235Z AUTO 00000KT 5SM HZ CLR 08/03 A2962 RMK AO2=
KIKK 220235Z AUTO 19011G19KT 10SM CLR 16/03 A2980 RMK AO2
     T01610025=
KIKV 220235Z AUTO 00000KT 10SM CLR 10/03 A2962 RMK AO2=
KJOT 220235Z AUTO 20009G15KT 10SM CLR 19/04 A2978 RMK AO2
     T01890041=
KLOM 220235Z AUTO 00000KT 10SM CLR 04/03 A3019 RMK AO2
     T00410030=
KLWB 220235Z AUTO 00000KT 10SM CLR 04/01 A3015 RMK AO2
     T00400005=
KLXN 220235Z AUTO 16008KT 10SM CLR 13/M01 A2959 RMK AO2
     T01261010=
KMGC 220235Z AUTO 19012G18KT 10SM CLR 17/02 A2980 RMK AO2=
KMQS 220235Z AUTO 00000KT 10SM CLR 09/00 A3018 RMK AO2=
KOGA 220235Z AUTO 24006KT 10SM CLR 16/M04 A2960 RMK AO2
     T01561040=
KOGS 220235Z AUTO 18009G15KT 10SM CLR 12/M01 A2996 RMK AO2=
KOLZ 220235Z AUTO 07005KT 7SM CLR 11/01 A2964 RMK A01=
KONL 220235Z AUTO 15005KT 10SM CLR 13/00 A2957 RMK AO2
     T01261005=
KOOA 220235Z AUTO 14006KT 10SM CLR 16/07 A2965 RMK AO2
     T01600068=
KPEA 220235Z AUTO 16004KT 10SM CLR 16/03 A2963 RMK AO2
     T01640033=
KPNT 220235Z AUTO 18015KT 10SM CLR 16/07 A2977 RMK AO2
     T01640065=
KPPQ 220235Z AUTO 17010KT 10SM CLR 20/03 A2975 RMK AO2
     T01960034=
K0CO 220235Z AUTO 31022G41KT 10SM CLR M01/M13 A3010 RMK AO2=
K33V 220235Z AUTO 22015KT 10SM CLR 07/M10 A2992 RMK AO1=
K74V 220235Z AUTO 25007KT 10SM 09/M06 A2984 RMK AO2=
KAJZ 220235Z AUTO 24004KT 10SM CLR 17/M04 A2990 RMK AO2 T01671041
     PWINO=
