SAUS80 KWBC 220126
METAR
KROS 220123Z AUTO 00000KT 10SM SCT110 11/04 A2962 RMK AO2=
K9V9 220115Z AUTO 12009KT 10SM CLR 11/02 A2954 RMK AO2
     T01090015=
KCBE 220115Z AUTO 00000KT 10SM CLR 09/01 A3014 RMK AO2
     T00910014=
KCUL 220113Z AUTO 17007KT 10SM CLR 14/04 A2989 RMK AO2=
KNY0 220114Z AUTO 16004KT 10SM CLR 08/M02 A3010 RMK AO2=
KROS 220123Z AUTO 00000KT 10SM SCT110 11/04 A2962 RMK AO2=
