SAPA31 KWBC 220000 RRD
METAR
PKWA 220020Z AUTO 09010KT 10SM CLR 31/25 A2979 RMK AO2
     T03060247=
PMDY 220020Z AUTO 36012G23KT 3SM -RA 24/22 A3000 RMK AO2 RAB18
     P0000 TSNO $=
