SAUS70 KWBC 212322
METAR
KBJI 212315Z AUTO 00000KT 10SM CLR 12/01 A2957 RMK AO2
     T01200005=
KOWX 212315Z AUTO 21011KT 10SM CLR 18/M01 A2988 RMK AO1=
KOAR 212315Z AUTO 29009KT 10SM OVC009 05/01 A2990 RMK AO2
     PWINO=
KOSC 212315Z AUTO 19008G14KT 10SM CLR 16/04 A2965 RMK AO2
     T01600043=
K57C 212315Z AUTO 21006KT 10SM CLR 20/04 A2964 RMK AO2
     T02030044=
KAAA 212315Z AUTO 19007KT 10SM CLR 22/05 A2974 RMK AO2
     T02160051=
KAIO 212315Z AUTO 00000KT 4SM HZ CLR 17/02 A2959 RMK AO2=
KASW 212315Z AUTO 21005KT 10SM CLR 19/02 A2980 RMK AO2
     T01920027=
KBCK 212315Z AUTO 00000KT 10SM CLR 11/04 A2960 RMK AO2
     T01080038=
KC65 212315Z AUTO 19008KT 10SM CLR 20/02 A2978 RMK A01=
KCFS 212315Z AUTO 17008KT 10SM CLR 17/03 A2973 RMK AO2
     T01670030=
KCKN 212315Z AUTO 23006KT 10SM SCT120 13/M02 A2954 RMK AO2=
KFET 212315Z AUTO 10005KT 10SM CLR 23/02 A2959 RMK AO2
     T02260019=
KFSW 212315Z AUTO 18008KT 10SM OVC001 23/04 A2964 RMK AO2=
KGDB 212315Z AUTO 00000KT 10SM CLR 16/02 A2964 RMK AO2
     T01560021=
KGRN 212315Z AUTO 22006KT 10SM CLR 21/M09 A2954 RMK AO2
     T02101087=
KMJQ 212315Z AUTO 07003KT 10SM CLR 15/02 A2963 RMK AO2=
KMWO 212315Z AUTO 19007KT 10SM CLR 16/M01 A2994 RMK AO2
     T01651011=
KOLY 212315Z AUTO 17008KT 10SM CLR 20/00 A2986 RMK AO2
     T02040000=
KPHN 212315Z AUTO 18006KT 10SM CLR 14/01 A2980 RMK AO2=
KPMV 212315Z AUTO 00000KT 10SM CLR 23/M01 A2959 RMK AO2
     T02251007=
KPNT 212315Z AUTO 19013KT 10SM CLR 21/08 A2973 RMK AO2
     T02060075=
KPPO 212315Z AUTO 00000KT 10SM CLR 20/07 A2976 RMK AO2
     T01960070=
KPRG 212315Z AUTO 17007KT 10SM CLR 17/04 A2984 RMK AO2
     T01670037=
KRDK 212315Z AUTO 00000KT CLR 19/02 A2958 RMK AO2=
KRPJ 212315Z AUTO 17006KT 10SM CLR 17/07 A2967 RMK AO2 T01710070
     TSNO=
KSDA 212315Z AUTO 05003KT 7SM CLR 23/00 A2956 RMK AO2=
KSHL 212315Z AUTO 8SM CLR 18/01 A2959 RMK AO2=
KSLB 212315Z AUTO 05005KT 9SM CLR 18/01 A2962 RMK AO2=
KTIP 212315Z AUTO 19008KT 10SM CLR 19/03 A2978 RMK AO2
     T01940025=
KUNI 212315Z AUTO 15004KT 7SM CLR 13/00 A2999 RMK AO2
     T01300000=
KW22 212315Z AUTO 00000KT 10SM CLR 12/M01 A3005 RMK AO2=
KZER 212315Z AUTO 15006KT 10SM CLR 08/M02 A3011 RMK AO2=
K04V 212315Z AUTO 31010KT 10SM CLR 18/M09 A3000 RMK AO2=
K2R9 212315Z AUTO 16008KT 10SM CLR 28/10 A2993 RMK AO2
     T02810104=
K2V5 212315Z AUTO 17010KT 10SM CLR 25/M08 A2965 RMK AO2=
K33V 212315Z AUTO 24019G28KT 10SM CLR 12/M12 A2993 RMK AO1=
K81R 212315Z AUTO 19010G16KT 10SM CLR 29/07 A2987 RMK AO2
     T02890071=
KAJZ 212315Z AUTO 21004KT 10SM CLR 23/M08 A2989 RMK AO2 T02331076
     PWINO=
KASL 212315Z AUTO 00000KT 9SM CLR 27/11 A2985 RMK AO2 T02680108
     TSNO $=
KEMM 212315Z AUTO 26025G36KT 10SM CLR 15/M13 A2987 RMK AO2=
KLHB 212315Z AUTO 17010KT 10SM CLR 29/10 A2990 RMK AO2
     T02850101=
KPNA 212315Z AUTO 28013G16KT 10SM CLR 13/M07 A2982 RMK AO2=
KPOY 212315Z AUTO 27019G24KT 10SM CLR 18/M07 A2953 RMK AO2=
KRAS 212315Z AUTO 15011KT 10SM CLR A2998 RMK AO2=
KRCV 212315Z AUTO 24012G16KT 10SM CLR 16/M05 A2999 RMK AO2
     T01631053=
KRYW 212315Z AUTO 19007G14KT 10SM CLR 27/08 A2992 RMK AO2
     T02700078=
KS33 212315Z AUTO 23016G32KT 10SM BKN050 BKN060 OVC075 16/07 A2969
     RMK AO2=
KSAA 212315Z AUTO 23018G26KT 10SM CLR 16/M12 A2984 RMK AO2=
KSBS 212315Z AUTO 25017G22KT 10SM CLR 17/M09 A2988 RMK AO1
     T01671088=
KT35 212315Z AUTO 19010KT 10SM CLR 28/10 A2988 RMK AO2
     T02810102=
KT41 212315Z AUTO 10SM CLR 25/15 A2997 RMK AO2 T02460151=
KT74 212315Z AUTO 18012KT 10SM CLR 28/10 A2990 RMK AO2
     T02790096=
