SAUS70 KWBC 220200 RRH
METAR
KJST 220154Z AUTO 18007KT CLR 09/M02 A3009 RMK AO2 SLP197
     T00891017 $=
KJZI 220155Z AUTO 00000KT 10SM CLR 11/08 A3014 RMK AO2=
KPLR 220155Z AUTO 00000KT 10SM SCT033 BKN038 BKN047 09/07 A3011
     RMK A01=
KPVB 220155Z AUTO 15004KT 10SM CLR 19/01 A2967 RMK AO1
     T01920006=
KPVF 220155Z AUTO 22003KT 10SM CLR 20/04 A2989 RMK AO1=
KRBL 220154Z AUTO 19005KT 10SM CLR 25/08 A2973 RMK AO2 SLP063
     T02500078=
KRCE 220155Z AUTO 17011KT 10SM CLR 22/02 A2971 RMK AO2=
KRKS 220154Z AUTO 27018G28KT 10SM CLR 13/M09 A2982 RMK AO2 PK WND
     27029/0101 SLP055 T01281094=
KRMN 220155Z AUTO 00000KT 10SM CLR 08/05 A3020 RMK AO2
     T00800050=
KRNH 220155Z AUTO 00000KT 10SM CLR 07/05 A2963 RMK AO2
     T00650046=
KRPH 220155Z AUTO VRB06KT 10SM CLR 26/03 A2977 RMK AO2 T02550035
     $=
KRUG 220155Z AUTO 36005KT 10SM OVC050 06/06 A2956 RMK AO2=
KRUQ 220155Z AUTO 00000KT 10SM CLR 06/03 A3015 RMK AO2
     T00560034=
KRVL 220155Z AUTO 00000KT 10SM CLR 05/02 A3013 RMK AO2=
KRYV 220155Z AUTO 00000KT 10SM CLR 08/03 A2968 RMK AO2
     T00840031=
KRZL 220155Z AUTO 17010KT 10SM CLR 16/02 A2983 RMK AO2=
KRZN 220155Z AUTO 17003KT 10SM CLR 07/02 A2962 RMK AO2
     T00660020=
KS25 220155Z AUTO 02007KT 10SM -RA FEW027 BKN034 OVC055 06/06
     A2957 RMK AO2=
KS32 220155Z AUTO 00000KT 9SM FEW037 SCT050 BKN060 09/M00 A2956
     RMK AO2 TSNO=
KSCR 220155Z AUTO 00000KT 10SM CLR 05/04 A3016 RMK AO2
     T00500039=
KSFQ 220155Z AUTO 00000KT 10SM CLR 09/08 A3019 RMK AO2
     T00880076=
KSIF 220155Z AUTO 00000KT 10SM CLR 04/03 A3016 RMK AO2
     T00430028=
KSIK 220155Z AUTO 18003KT 10SM CLR 19/10 A2989 RMK AO2=
KSLC 220154Z 13008KT 10SM FEW130 SCT220 18/M07 A2973 RMK AO2
     SLP034 T01831067=
KSPF 220155Z AUTO 20011KT 10SM CLR 12/M04 A2952 RMK AO2=
KSTF 220155Z AUTO 15007KT 10SM CLR 18/13 A3000 RMK AO2=
KSUZ 220155Z AUTO 00000KT 10SM CLR 18/10 A2989 RMK A01=
KSVC 220155Z AUTO 34008KT 10SM CLR 14/09 A3006 RMK AO2
     T01370091=
KSVH 220155Z AUTO 00000KT 10SM CLR 07/02 A3014 RMK AO2
     T00690023=
KSXU 220155Z AUTO 27006KT 10SM CLR 18/00 A2989 RMK AO2
     T01780000=
KT69 220155Z AUTO 18007KT 10SM CLR 21/16 A2998 RMK A01=
KTKX 220155Z AUTO 18004KT 7SM FEW045 17/10 A2988 RMK AO2 TSNO=
KTME 220155Z AUTO 18007KT 10SM CLR 22/15 A3001 RMK AO2=
KHAF 220155Z AUTO 15005KT 6SM BR OVC012 14/13 A2989 RMK AO2=
KHAI 220155Z AUTO 19009KT 10SM CLR 16/03 A2981 RMK AO2
     T01590034=
KHDN 220156Z AUTO 21005KT 10SM CLR 11/M08 A2989 RMK AO2 SLP103
     T01061083=
KHEF 220156Z 00000KT 10SM CLR 05/03 A3016 RMK AO2 SLP220
     T00500028=
KHNB 220156Z AUTO 16007KT 10SM CLR 17/03 A2993 RMK AO2 SLP135
     T01720028=
KHYI 220156Z AUTO 16010KT 10SM CLR 23/08 A2995 RMK AO2 SLP136
     T02300080 $=
KHYS 220156Z AUTO 00000KT 10SM CLR 18/01 A2961 RMK AO2 SLP023
     T01780006 $=
KHZL 220155Z AUTO 16003KT 10SM CLR 08/00 A3017 RMK AO2=
KI23 220155Z AUTO 16005KT 10SM CLR 08/M00 A3000 RMK AO1=
KILE 220156Z AUTO 17009KT 10SM CLR 23/09 A2991 RMK AO2 SLP119
     T02280094=
KIRS 220155Z AUTO 21014G18KT 10SM CLR 16/01 A2982 RMK AO2
     T01610009=
KISO 220156Z 00000KT 10SM OVC050 13/08 A3017=
KISQ 220155Z AUTO 00000KT 1/4SM FG OVC005 04/04 A2963 RMK AO2
     T00360035=
KITH 220156Z AUTO 17009KT 10SM CLR 10/M02 A3007 RMK AO2 SLP187
     T01001022=
KIWD 220156Z AUTO 00000KT 2 1/2SM BR CLR 03/03 A2962 RMK AO2 VIS
     3/4V5 SLP039 T00330028=
KIZG 220154Z AUTO 29003KT 10SM CLR 00/M01 A3014 RMK AO2 SLP212
     T00001011=
KJAC 220156Z 18016KT 10SM SCT110 13/M07 A2970 RMK AO2 SLP033
     T01281067 PNO $=
