SAUS70 KWBC 220100 RRJ
METAR
KMHE 220053Z AUTO 16004KT 10SM CLR 16/01 A2957 RMK AO2 SLP016
     T01560011=
KMIA 220053Z 35009KT 10SM BKN035 OVC060 24/18 A2998 RMK AO2 SLP152
     T02390178 $=
KMIC 220053Z 00000KT 10SM CLR 10/02 A2962 RMK AO2 SLP032
     T01000022=
KMKL 220053Z AUTO 18006KT CLR 19/10 A2995 RMK AO2 SLP139 T01940100
     $=
KMLP 220053Z AUTO 3/4SM -SN BR VV001 M03/M03 A2960 RMK AO2 SLP986
     P0002 T10281033=
KMLS 220053Z AUTO 35016KT 10SM -RA OVC080 10/06 A2954 RMK AO2
     RAB34 SLP008 P0000 T01000061=
KMMV 220053Z AUTO 12003KT 1 1/4SM -RA BR BKN007 OVC014 09/08 A2971
     RMK AO2 SLP059 P0003 T00890083=
KMOD 220053Z 31007KT 10SM CLR 27/08 A2975 RMK AO2 SLP075
     T02720078=
KMPO 220053Z AUTO 00000KT 10SM CLR 04/M01 A3013 RMK AO2 SLP216
     T00441011=
KMSL 220053Z AUTO 15005KT 9SM CLR 17/11 A3001 RMK AO2 SLP160
     T01720106=
KELN 220053Z AUTO 30014KT 10SM BKN110 09/01 A2963 RMK AO2 SLP036
     T00940011=
KEPH 220053Z AUTO 34005KT 10SM CLR 11/06 A2961 RMK AO2 SLP025
     T01060061 $=
KEQY 220053Z AUTO 00000KT 10SM CLR 09/03 A3013 RMK AO2 SLP219
     T00890028=
KEVW 220053Z AUTO 25013KT 10SM CLR 12/M09 A2988 RMK AO2 PK WND
     25027/0006 SLP068 T01221089=
KEYW 220053Z AUTO 36010KT 10SM SCT046 23/18 A2999 RMK AO2 SLP156
     T02330183=
KFCM 220053Z 00000KT 10SM CLR 14/02 A2961 RMK AO2 SLP029
     T01440017=
KFDY 220053Z AUTO 18013KT 10SM CLR 17/02 A2989 RMK AO2 SLP117
     T01670017=
KFFC 220053Z AUTO 00000KT 10SM CLR 09/04 A3012 RMK AO2 SLP204
     T00890044=
KFHR 220053Z AUTO 00000KT 6SM -RA BR OVC042 09/08 A2972 RMK AO2
     SLP064 P0004 T00890083=
KFLL 220053Z VRB06KT 10SM SCT032 BKN080 23/17 A2997 RMK AO2 SLP149
     T02330172 $=
KFMY 220053Z AUTO 02008KT 10SM CLR 22/13 A3002 RMK AO2 SLP166
     T02170128=
KFOK 220053Z 00000KT 10SM CLR 06/04 A3018 RMK AO2 SLP220 T00560044
     $=
KFPR 220053Z AUTO 31007KT 10SM OVC070 21/15 A3001 RMK AO2 SLP161
     T02060150=
KFRG 220053Z 00000KT 10SM CLR 11/06 A3016 RMK AO2 SLP215 T01060061
     $=
KFSM 220053Z 16004KT 10SM CLR 24/07 A2981 RMK AO2 SLP091
     T02390067=
KFTY 220053Z 00000KT 10SM CLR 10/04 A3011 RMK AO2 SLP197
     T01000044=
KFUL 220053Z 21006KT 10SM CLR 22/17 A2982 RMK AO2 SLP096
     T02170167=
KFWN 220053Z AUTO 00000KT 10SM CLR 06/02 A3015 RMK AO2 SLP212
     T00560022=
KFYV 220053Z 00000KT 10SM CLR 16/06 A2982 RMK AO2 SLP096
     T01610061=
KGEY 220053Z AUTO 28003KT 10SM CLR 17/M03 A2947 RMK AO2 SLP967
     T01671033=
KGFK 220053Z 21004KT 5SM HZ FU OVC080 12/01 A2953 RMK AO2 SLP004
     T01170011=
KGGE 220055Z AUTO 00000KT 10SM CLR 08/07 A3013 RMK AO2=
KGIF 220053Z AUTO 36008KT 10SM CLR A3007 RMK AO2 SLPNO=
KGKJ 220053Z AUTO 18006KT 10SM CLR 12/M01 A3000 RMK AO2 SLP162
     T01221006=
KGLH 220053Z AUTO 17010KT 10SM CLR 24/10 A2992 RMK AO2 SLP139
     T02390100=
KGLR 220053Z AUTO 20007KT 10SM CLR 14/04 A2965 RMK AO2 SLP045
     T01390039=
KGMU 220053Z 00000KT 10SM CLR 14/00 A3014 RMK AO2 SLP204
     T01390000=
KGRB 220053Z 00000KT 10SM CLR 14/04 A2962 RMK AO2 SLP032
     T01390044=
KGRI 220053Z 20004KT 10SM CLR 16/M02 A2961 RMK AO2 SLP031
     T01611022=
KGSP 220053Z 00000KT 10SM CLR 08/01 A3014 RMK AO2 SLP206
     T00830011=
KSHD 220055Z AUTO 00000KT 10SM CLR 05/00 A3015 RMK AO2
     T00510000=
KSHN 220053Z AUTO 11003KT 4SM -RA BR OVC011 09/08 A2968 RMK AO2
     SLP052 P0006 T00890083=
KSHR 220053Z AUTO 30009KT 10SM CLR 13/01 A2953 RMK AO2 SLP992
     T01280011=
KSIY 220053Z AUTO 29014G22KT 10SM SCT110 21/06 A2980 RMK AO2
     SLP093 T02110061=
