SAUS70 KWBC 220150
METAR
KEVM 220141Z AUTO 00000KT 10SM CLR 06/02 A2960 RMK AO2=
KJVY 220135Z AUTO 18004KT 10SM CLR 15/01 A2996 RMK AO2 PWINO=
KMPZ 220130Z AUTO 18004KT 10SM CLR 17/07 A2968 RMK AO2=
KUYF 220135Z AUTO 19009KT 10SM CLR 09/M01 A2998 RMK AO2=
KC62 220215Z AUTO 20011G15KT 10SM CLR 15/03 A2986 RMK AO2
     T01550040=
KOCW 220135Z AUTO 00000KT 10SM 12/07 A3017 RMK AO2 T01170065=
