SAUS70 KWBC 220000 RRM
METAR
KPIE 212353Z 36009KT 10SM CLR 19/09 A3005 RMK AO2 SLP175 T01890094
     10233 20183 53010=
KPIH 212353Z 24014KT 10SM CLR 18/M03 A2972 RMK AO2 SLP036
     T01831028 10217 20183 58016=
KPMD 212353Z 23015KT 10SM CLR 27/06 A2986 RMK AO2 SLP091 T02720061
     10300 20250 56013=
KPMP 212353Z 36010KT 10SM OVC080 24/18 A2995 RMK AO2 SLP143
     T02390178 10283 20239 53010=
KPOU 212353Z 00000KT 10SM CLR 07/02 A3012 RMK AO2 SLP196 T00720022
     10172 20067 53013=
KPRB 212353Z AUTO 20016KT 10SM CLR 23/08 A2985 RMK AO2 SLP104
     T02330083 10306 20194 56008=
KPRC 212353Z 25008KT 10SM CLR 21/04 A3001 RMK AO2 SLP106 T02060039
     10228 20200 58011=
KPSC 212353Z 15006KT 10SM -RA BKN070 OVC080 10/07 A2969 RMK AO2
     SLP055 P0003 60009 T01000067 10144 20100 58020=
KPSK 212355Z AUTO 00000KT 10SM CLR 10/01 A3012 RMK AO2 T01010008
     10165 20101=
KPSP 212353Z 09007KT 10SM CLR 34/04 A2976 RMK AO2 SLP072 T03390044
     10350 20300 56016=
KPTK 212353Z 17005KT 10SM FEW085 FEW230 16/03 A2980 RMK AO2 SLP095
     T01560028 10189 20156 53008=
KPUW 212353Z AUTO 23007KT 5SM -RA BR BKN028 OVC034 06/04 A2971 RMK
     AO2 SLP065 P0003 60015 T00560044 10094 20056 58016=
KRAL 212353Z 27011KT 10SM CLR 27/13 A2982 RMK AO2 SLP083 T02720133
     10294 20239 56015=
KRBG 212353Z AUTO 23008KT 10SM SCT030 OVC037 18/12 A2981 RMK AO2
     SLP093 60000 T01830122 10211 20161 58017=
KRCM 212355Z AUTO 16004KT 10SM CLR 23/02 A2968 RMK AO2=
KRCX 212355Z AUTO 00000KT 10SM CLR 11/05 A2963 RMK AO2 T01060046
     10195 20106=
KRDD 212353Z 16010KT 10SM CLR 28/06 A2972 RMK AO2 SLP061 T02780056
     10289 20222 56021=
KRHP 212355Z AUTO 00000KT 10SM CLR 07/02 A3010 RMK AO2 T00710019
     10205 20068=
KRKS 212354Z AUTO 26020G32KT 10SM CLR 16/M09 A2983 RMK AO2 PK WND
     26035/2303 SLP049 T01561094 10189 20156 56010=
KRNT 212353Z 16004KT 7SM -RA SCT025 BKN038 OVC045 10/07 A2973 RMK
     AO2 RAB05 SLP072 P0001 60003 T01000072 10122 20100 56029=
KRSW 212353Z 02005KT 10SM FU CLR 23/14 A2999 RMK AO2 SLP154
     T02280139 10267 20228 53007=
KRUE 212353Z AUTO 00000KT 10SM CLR 21/08 A2982 RMK AO2 SLP093
     T02060078 55005=
KRVS 212353Z 17005KT 10SM CLR 28/05 A2970 RMK AO2 SLP063 T02780050
     10317 20278 55005=
KRWI 212353Z AUTO 00000KT 10SM CLR 11/04 A3013 RMK AO2 SLP204
     T01060039 10217 20106 53009=
KGEY 212353Z AUTO 14004KT 10SM CLR 20/M04 A2948 RMK AO2 SLP961
     T02001044 10233 20156 56012=
KGGE 212355Z AUTO 00000KT 10SM CLR 10/08 A3012 RMK AO2=
KGGW 212353Z AUTO 07006KT 10SM SCT021 BKN030 OVC043 09/04 A2955
     RMK AO2 SLP015 60000 T00890044 10111 20083 53005=
KGIF 212353Z AUTO 34006KT 10SM CLR A3005 RMK AO2 SLPNO 53010=
KGKJ 212353Z AUTO VRB03KT 10SM CLR 13/M01 A2999 RMK AO2 SLP159
     T01281006 10172 20128 53014=
KGLH 212353Z AUTO 18009KT 10SM CLR 24/11 A2990 RMK AO2 SLP132
     T02440106 10306 20244 53002=
KGMU 212353Z 00000KT 10SM CLR 16/M01 A3012 RMK AO2 SLP200
     T01561011 10200 20156 53006=
KGSP 212353Z 00000KT 10SM CLR 11/01 A3012 RMK AO2 SLP201 T01060011
     10194 20106 53006=
KGTF 212353Z 24010KT 10SM BKN060 OVC075 09/03 A2953 RMK AO2 RAE08
     SLP996 P0000 60000 T00940028 10133 20083 56010=
KGVL 212353Z AUTO 15004KT 10SM CLR 14/M01 A3012 RMK AO2 SLP198
     T01391011 10206 20139 53005=
KGWO 212353Z AUTO 17005KT 10SM CLR 21/10 A2994 RMK AO2 SLP138
     T02110100 10294 20206 53001=
KHAE 212355Z AUTO 16005KT 10SM CLR 22/00 A2970 RMK AO2=
KHBI 212355Z AUTO 00000KT 10SM CLR 10/04 A3016 RMK AO2 T00970035
     10190 20095=
KHHR 212353Z 25008KT 10SM CLR 22/17 A2984 RMK AO2 SLP103 T02170167
     10261 20217 56012 $=
