SAUS80 KWBC 220000 RRA
METAR
KFAR 212353Z AUTO 13005KT 10SM BKN110 13/M03 A2953 RMK AO2 SLP005
     T01331028 10172 20133 58010 TSNO=
KAAF 212353Z AUTO 00000KT 10SM CLR 13/08 A3009 RMK AO2 SLP188
     T01330083 10233 20133 53005=
KCUT 212353Z AUTO 24004KT 10SM CLR 17/M09 A2958 RMK AO2 SLP974
     T01721089 10189 20156 56010=
KDAB 212353Z 32005KT 10SM CLR 18/10 A3006 RMK AO2 SLP178 T01830100
     10239 20183 53008=
KDAL 212353Z 16009KT 10SM FEW250 29/08 A2980 RMK AO2 SLP085
     T02890083 10322 20278 55006=
KDBQ 212353Z 00000KT 10SM CLR 16/03 A2964 RMK AO2 SLP039 T01560033
     10261 20144 53016=
KDMN 212353Z AUTO 28013KT 10SM CLR 26/07 A2997 RMK AO2 SLP096
     T02560067 10272 20222 58010=
KDRT 212353Z AUTO 12009KT 10SM CLR 26/13 A2988 RMK AO2 SLP112
     T02610128 10283 20239 56009=
KEMP 212353Z AUTO 18009KT 10SM CLR 25/03 A2963 RMK AO2 SLP028
     T02500033 10322 20250 55003=
KFMN 212353Z 29006KT 10SM CLR 20/M03 A2997 RMK AO2 SLP119
     T02001028 10228 20167 56013=
KGCC 212353Z AUTO 32004KT 10SM CLR 16/M04 A2952 RMK AO2 SLP974
     T01561039 10233 20156 58003=
KBFF 212353Z AUTO 24015G22KT 10SM CLR 23/M09 A2959 RMK AO2 PK WND
     25027/2255 SLP992 T02281094 10272 20222 56010=
KBTR 212353Z 20012KT 10SM CLR 23/13 A3002 RMK AO2 SLP163 T02330128
     10289 20233 53003=
KCDR 212353Z AUTO 26006KT 10SM CLR 20/M07 A2949 RMK AO2 SLP987
     T02001072 10261 20200 56018=
KCLL 212353Z 18007KT 10SM CLR 27/10 A2990 RMK AO2 SLP122 T02670100
     10306 20267 55003=
KMLU 212353Z 17005KT 10SM CLR 25/12 A2993 RMK AO2 SLP134 T02500122
     10306 20250 53001=
KMSN 212353Z 00000KT 9SM CLR 14/04 A2963 RMK AO2 SLP035 T01440044
     10244 20133 53020=
KODX 212353Z AUTO 00000KT 10SM CLR 14/00 A2959 RMK AO2 SLP025
     T01440000 10244 20144 56006=
KGRR 212353Z 18008KT 10SM FEW200 16/04 A2971 RMK AO2 SLP063
     T01610044 10211 20161 53006=
KHTL 212353Z AUTO 18006KT 10SM CLR 14/04 A2968 RMK AO2 SLP055
     T01390039 10183 20139 53016=
KNYC 212351Z AUTO VRB03KT 10SM CLR 14/05 A3017 RMK AO2 SLP207
     T01390050 10167 20133 53010 $=
KCRP 212351Z 15010KT 10SM FEW030 24/16 A2996 RMK AO2 SLP143
     T02440161 10294 20244 55000=
KELP 212351Z 25009G22KT 10SM FEW250 27/07 A2995 RMK AO2 SLP083
     T02720067 10289 20233 57012=
KGDP 212351Z AUTO 25026G39KT 9SM CLR 22/05 A3001 RMK AO2 PK WND
     24040/2326 SLP100 T02170050 10239 20200 56009=
KJDN 212348Z AUTO 00000KT 08/07 A2955 RMK AO1 SLP019 P0003 60005
     T00830072 10156 20083 51005=
KSAT 212351Z 17010KT 10SM FEW250 27/08 A2992 RMK AO2 SLP116
     T02720083 10289 20256 56007=
KSVE 212355Z AUTO 27016G21KT 10SM CLR M23/M36 A2984 RMK AO2=
KTCS 212353Z AUTO 20005KT 10SM CLR 25/03 A2995 RMK AO2 SLP078
     T02500028 10261 20200 56015=
KLBB 212353Z 25010KT 10SM FEW250 24/01 A2980 RMK AO2 SLP056
     T02440006 10283 20244 56010=
KLWD 212353Z AUTO 17006KT 10SM CLR 23/03 A2961 RMK AO2 SLP024
     60000 T02330028 10289 20233 53000=
KLXV 212353Z AUTO 30008KT 10SM CLR 08/M09 A3005 RMK AO2 SLP076
     T00831094 10122 20083 57008=
KMWT 212353Z AUTO 00000KT 10SM CLR 23/06 A2984 RMK AO2 SLP102
     T02330056 10283 20228 55002=
KMFD 212352Z AUTO 17011KT 10SM CLR 14/01 A2995 RMK AO2 SLP145
     T01440006 10194 20144 53014=
KNYC 212351Z AUTO VRB03KT 10SM CLR 14/05 A3017 RMK AO2 SLP207
     T01390050 10167 20133 53010 $=
KTOL 212352Z 19008KT 10SM CLR 19/03 A2984 RMK AO2 SLP104 T01890028
     10233 20189 53011=
KVTN 212352Z AUTO 14007KT 10SM CLR 18/M02 A2954 RMK AO2 SLP003
     T01831017 10228 20172 58020=
KABI 212352Z 20009KT 9SM CLR 28/03 A2982 RMK AO2 SLP076 T02780033
     10317 20272 55007=
