SAPA31 KWBC 220200 RRD
METAR
AYPY 220200Z 26015KT 9999 SCT020 SCT035 32/25 Q1008 RMK/CB FM NW
     TO E/ SHRA TO E=
