SAUS80 KWBC 220204
METAR
KM25 220215Z AUTO 19007KT 10SM CLR 18/09 A2993 RMK AO2 PWINO=
KROS 220202Z AUTO 00000KT 10SM SCT110 09/04 A2961 RMK AO2=
