SAUS80 KWBC 212300 CCB
METAR
KTCS 212253Z AUTO 18009KT 10SM CLR 26/04 A2996 RMK AO2 SLP081
     T02560039=
KP58 212255Z AUTO 16006KT 15/07 A2970 RMK AO1 SLP059 T01500067=
KMEH 212256Z AUTO 00000KT 3SM -RA BR BKN008 BKN013 OVC021 06/05
     A2972 RMK AO2 SLP070 P0004 T00610050=
