SAUS80 KWBC 220200 RRA
METAR
KABQ 220152Z 29006KT 10SM CLR 19/03 A2998 RMK AO2 SLP106
     T01890033=
KATT 220151Z AUTO VRB03KT 10SM CLR 23/09 A2994 RMK AO2 SLP131
     T02330089=
KCQT 220147Z AUTO 26004KT 10SM OVC009 19/17 A2986 RMK AO2 SLP109
     T01890167=
KELP 220151Z 23004KT 10SM CLR 23/08 A2996 RMK AO2 SLP094
     T02330083=
KMYL 220151Z AUTO 00000KT 10SM -RA BKN026 BKN035 OVC044 06/02
     A2966 RMK AO2 SLP045 P0004 T00610022=
KOXR 220151Z 27010KT 8SM OVC006 17/16 A2986 RMK AO2 SLP109
     T01720161=
KSAT 220151Z 17006KT 10SM FEW250 24/09 A2995 RMK AO2 SLP128
     T02440094=
KSMX 220151Z 34005KT 8SM OVC011 14/13 A2989 RMK AO2 SLP125
     T01440128=
KSNT 220151Z AUTO VRB03KT 06/02 A2976 RMK AO1 SLP043 P0001
     T00610017=
KSVE 220155Z AUTO 28014G18KT 10SM CLR M03/M20 A2983 RMK AO2=
KVCT 220151Z 15008KT 10SM CLR 21/16 A2999 RMK AO2 SLP152
     T02060156=
KOQT 220153Z AUTO 00000KT 10SM CLR 08/03 A3011 RMK AO2 SLP203
     T00830033=
KP68 220153Z AUTO 26007KT 13/M11 A2987 RMK AO1 SLP081
     T01331111=
KAAF 220153Z AUTO 00000KT 10SM CLR 11/08 A3011 RMK AO2 SLP196
     T01060083=
KBFF 220153Z AUTO 25013G20KT 10SM CLR 21/M10 A2960 RMK AO2 SLP995
     T02111100=
KTCS 220153Z AUTO 25008KT 10SM CLR 20/04 A2998 RMK AO2 SLP098
     T02000039=
KDRA 220153Z AUTO 21005KT 10SM CLR 23/M04 A2985 RMK AO2 SLP077
     T02281044=
KDAB 220153Z 31006KT 10SM FEW100 17/11 A3008 RMK AO2 SLP184
     T01670106=
KDAL 220153Z 17011G18KT 10SM CLR 27/09 A2983 RMK AO2 SLP096
     T02670089=
KDBQ 220153Z 00000KT 10SM CLR 13/03 A2967 RMK AO2 SLP049
     T01280033=
KDMN 220153Z AUTO 29004KT 10SM CLR 20/08 A2999 RMK AO2 SLP108
     T02000083=
KDRT 220153Z AUTO 12008KT 10SM CLR 22/12 A2991 RMK AO2 SLP123
     T02220122=
KEMP 220153Z AUTO 15010KT 10SM CLR 21/04 A2964 RMK AO2 SLP033
     T02110044=
KBTR 220153Z 18009KT 10SM CLR 20/14 A3005 RMK AO2 SLP175
     T02000139=
KCDR 220153Z AUTO 25008KT 10SM CLR 11/M07 A2950 RMK AO2 SLP001
     T01111072=
KCLL 220153Z AUTO 17011KT 10SM CLR 23/13 A2994 RMK AO2 SLP136
     T02330128=
KCUT 220153Z AUTO 31004KT 10SM CLR 13/M08 A2958 RMK AO2 SLP986
     T01281083=
KTCS 220153Z AUTO 25008KT 10SM CLR 20/04 A2998 RMK AO2 SLP098
     T02000039=
KTLH 220153Z AUTO 00000KT 10SM CLR 10/03 A3012 RMK AO2 SLP199
     T01000033=
KTUP 220153Z 16007KT 10SM CLR 20/11 A3000 RMK AO2 SLP157
     T02000111=
KTUS 220153Z 27006KT 10SM CLR 27/10 A2991 RMK AO2 SLP089
     T02720100=
PABE 220153Z 20010KT 10SM SCT080 BKN110 04/01 A2991 RMK AO2 SLP131
     T00440006=
PADQ 220153Z 27011KT 10SM CLR 09/M01 A2998 RMK AO2 SLP152
     T00941006=
PHNL 220153Z 20007KT 10SM FEW025 FEW040 29/22 A2996 RMK AO2 SLP143
     T02890222=
KHSV 220153Z 12005KT 10SM CLR 14/07 A3005 RMK AO2 SLP174
     T01390072=
KHTL 220153Z AUTO 18006KT 10SM CLR 13/04 A2969 RMK AO2 SLP058
     T01280044=
KJBR 220153Z AUTO 00000KT 10SM CLR 15/09 A2990 RMK AO2 SLP122
     T01500094 $=
KJLN 220153Z 17013G26KT 10SM CLR 23/04 A2974 RMK AO2 PK WND
     18026/0147 SLP063 T02280044 $=
KFMN 220153Z 28003KT 10SM CLR 16/M02 A2997 RMK AO2 SLP127
     T01561017=
KFNB 220153Z AUTO 20005KT 10SM CLR 21/04 A2959 RMK AO2 SLP016
     T02060039=
KGCC 220153Z AUTO 00000KT 10SM CLR 07/M05 A2952 RMK AO2 SLP989
     T00721050=
KGRR 220153Z 19010KT 10SM CLR 17/04 A2976 RMK AO2 SLP078
     T01670039=
KFAR 220153Z AUTO 16003KT 10SM CLR 11/M03 A2956 RMK AO2 SLP014
     T01061028 TSNO=
KPOF 220153Z AUTO 18005KT 9SM CLR 17/09 A2987 RMK AO2 SLP116
     T01720089 $=
KRQE 220153Z AUTO 00000KT 10SM CLR 12/03 A3006 RMK AO2 SLP132
     T01170028=
