SACA41 KWBC 220200
METAR
MKBK NIL=
MUBA NIL=
MUBY NIL=
MUCA NIL=
MUCL NIL=
MUCM 220150Z 33005KT 9000 SCT020 23/22 Q1014=
MUCU 220150Z 36004KT 9000 FEW020 25/24 Q1013=
MUGM 220151Z 33006KT 10SM FEW025 SCT150 BKN180 27/24 A2994 RMK AO2
     SLP136 T02670244 $=
MUGT NIL=
MUHA 220150Z VRB03KT 9000 FEW030 18/16 Q1016=
MUMO NIL=
MUMZ NIL=
MUNG NIL=
MUVR 220150Z 36005KT 9000 FEW030 23/18 Q1016=
MUVT NIL=
MYEF NIL=
TABS NIL=
TAOA NIL=
TBBI NIL=
TDCF NIL=
