SAUS70 KWBC 212300 RRH
METAR
KMKL 212253Z 18007KT 10SM CLR 23/10 A2993 RMK AO2 SLP131 T02280100
     $=
KMKO 212253Z AUTO 19011G18KT 10SM CLR 29/04 A2976 RMK AO2 SLP073
     T02940044=
KMLB 212253Z 36009KT 10SM CLR 21/13 A3000 RMK AO2 SLP156
     T02060128=
KMLC 212253Z AUTO VRB05G15KT 10SM CLR 29/06 A2977 RMK AO2 SLP074
     T02890061=
KMLS 212253Z AUTO 36017KT 10SM OVC095 14/04 A2954 RMK AO2 PK WND
     36026/2226 SLP000 T01390044=
KMLT 212253Z AUTO 00000KT 10SM CLR 07/03 A3010 RMK AO2 SLP200
     T00670028=
KMMK 212253Z AUTO 00000KT 10SM CLR 09/02 A3014 RMK AO2 SLP205
     T00890017=
KMNN 212253Z AUTO 20011KT 8SM CLR 17/01 A2992 RMK AO2 SLP136
     T01670011=
KMRB 212253Z 14004KT 10SM CLR 12/00 A3008 RMK AO2 SLP188 T01220000
     $=
KMSL 212253Z AUTO 16007KT 10SM CLR 22/11 A2998 RMK AO2 SLP151
     T02220106=
KMSS 212253Z AUTO 17005KT 10SM CLR 11/M02 A2996 RMK AO2 SLP149
     T01061022=
KMSY 212253Z 16011G20KT 10SM FEW050 22/13 A3005 RMK AO2 SLP180
     T02170133=
KMTH 212253Z AUTO 32010KT 10SM SCT048 24/18 A2994 RMK AO2 SLP138
     T02440178=
PAKW 212253Z AUTO 00000KT 10SM -RA SCT035 BKN046 OVC090 10/04
     A2974 RMK AO2 RAB49 SLP072 P0000 T01000039 TSNO $=
PAPB 212253Z AUTO 23010KT 6SM HZ SCT024 SCT028 BKN033 07/ A2999
     RMK AO2 SLP145 T0067 TSNO $=
KMTJ 212253Z AUTO 25008KT 10SM CLR 21/M06 A2992 RMK AO2 SLP079
     T02111061=
KMVY 212253Z 20005KT 10SM CLR 12/07 A3016 RMK AO2 SLP214
     T01170067=
KMWL 212253Z AUTO 20015G24KT 10SM CLR 32/04 A2978 RMK AO2 SLP076
     T03170039=
KMYF 212253Z 23007KT 10SM CLR 23/16 A2986 RMK AO2 SLP107
     T02280161=
KNEW 212253Z 17011KT 10SM CLR 23/12 A3006 RMK AO2 SLP172
     T02280117=
KODO 212253Z AUTO 27012KT 10SM CLR 28/05 A2989 RMK AO2 SLP084
     T02830050=
KOGB 212253Z AUTO 00000KT 10SM CLR 14/05 A3010 RMK AO2 SLP192
     T01390050=
KOGD 212253Z 23010G18KT 10SM CLR 24/M08 A2979 RMK AO2 SLP045
     T02391083=
KOJC 212253Z 20008G17KT 10SM CLR 27/03 A2965 RMK AO2 SLP032
     T02720033=
KOLF 212253Z AUTO 09004KT 10SM FEW019 BKN024 OVC039 09/05 A2956
     RMK AO2 SLP017 T00890050=
KONO 212253Z AUTO 06003KT 10SM CLR 20/05 A2969 RMK AO2 SLP052
     T02000050=
KONT 212253Z 26010KT 10SM FEW100 FEW250 28/11 A2983 RMK AO2 SLP088
     T02830111=
KOPF 212253Z 36008KT 10SM BKN075 24/17 A2994 RMK AO2 SLP139
     T02390172=
KORL 212253Z 04009KT 10SM CLR 21/09 A3002 RMK AO2 SLP171
     T02110094=
KOSH 212253Z 00000KT 10SM CLR 19/04 A2958 RMK AO2 SLP016
     T01940039=
KOSU 212253Z 18006KT 10SM CLR 18/00 A2995 RMK AO2 SLP142
     T01780000=
KOTM 212253Z AUTO 19007KT 9SM CLR 25/03 A2960 RMK AO2 SLP021
     T02500028=
KOWA 212253Z AUTO 00000KT 10SM CLR 17/04 A2962 RMK AO2=
KOWD 212253Z 18004KT 10SM CLR 12/07 A3013 RMK AO2 SLP205 T01220067
     $=
KPAH 212253Z 19006KT 10SM CLR 24/07 A2986 RMK AO2 SLP109
     T02440067=
KPBF 212253Z AUTO 20007KT 10SM CLR 27/07 A2988 RMK AO2 SLP116
     T02670072=
KPBI 212253Z 36009KT 10SM -RA SCT030 BKN050 BKN070 22/19 A2995 RMK
     AO2 RAB05 SLP143 VCSH E-SE CB DSNT NE P0001 T02220189 $=
KPGD 212253Z 02006KT 10SM CLR 22/12 A3000 RMK AO2 SLP158
     T02170122=
KPIE 212253Z 35007KT 10SM CLR 19/08 A3003 RMK AO2 SLP168
     T01890083=
KPIH 212253Z 25022KT 10SM OVC100 20/M05 A2973 RMK AO2 PK WND
     26027/2201 SLP038 T02001050=
KPIL 212253Z AUTO 13012KT 10SM CLR 26/17 A2996 RMK AO2 SLP145
     T02560167=
KPKB 212253Z 17003KT 10SM CLR 15/M01 A3002 RMK AO2 SLP169
     T01501006=
KPMD 212253Z 25013KT 10SM CLR 29/02 A2987 RMK AO2 SLP091
     T02890022=
KPMP 212253Z 35011KT 10SM FEW041 BKN055 24/18 A2993 RMK AO2 SLP137
     T02390178=
