SAUS70 KWBC 220200 RRX
METAR
KEDJ 220155Z AUTO 18010KT 10SM CLR 13/01 A2996 RMK A01=
KEEN 220156Z AUTO 00000KT CLR 02/01 A3016 RMK AO2 SLP220 T00170011
     PWINO FZRANO $=
KFKL 220156Z AUTO 18010KT 10SM CLR 11/M01 A3004 RMK AO2 SLP179
     T01061006=
KFPK 220155Z AUTO 20012KT 10SM CLR 16/03 A2977 RMK AO2
     T01590031=
KHZL 220155Z AUTO 16003KT 10SM CLR 08/00 A3017 RMK AO2=
KIRS 220155Z AUTO 21014G18KT 10SM CLR 16/01 A2982 RMK AO2
     T01610009=
KISQ 220155Z AUTO 00000KT 1/4SM FG OVC005 04/04 A2963 RMK AO2
     T00360035=
KLCI 220156Z AUTO 00000KT 10SM CLR 03/01 A3014 RMK AO2 SLP211
     T00330011=
KLXL 220155Z AUTO 00000KT 10SM CLR 07/01 A2961 RMK AO2=
KFTN 220155Z AUTO 14007KT 10SM CLR 22/11 A2995 RMK A01=
KFWS 220155Z AUTO 16010KT 10SM CLR 25/08 A2985 RMK AO2
     T02530076=
KFYE 220155Z AUTO VRB06KT 10SM FEW055 19/11 A2993 RMK A01=
KFYM 220200Z AUTO 16007KT 10SM SCT032 BKN038 14/04 A3006 RMK
     A01=
KGAD 220156Z AUTO 00000KT 10SM CLR 09/04 A3011 RMK AO2 SLP201
     T00890044 $=
KGAO 220155Z AUTO 00000KT 10SM CLR 14/12 A3010 RMK AO2
     T01360117=
KGCY 220155Z AUTO 00000KT 9SM CLR 09/01 A3010 RMK A01=
KGDJ 220155Z AUTO 17010KT 10SM CLR 26/07 A2984 RMK AO2
     T02560072=
KGGI 220155Z AUTO 10003KT 7SM CLR 14/02 A2965 RMK AO2
     T01390024=
KGKT 220155Z AUTO 00000KT 10SM CLR 08/03 A3010 RMK A01=
KGOO 220155Z AUTO VRB05KT 10SM CLR 19/03 A2987 RMK A01=
KGTR 220156Z AUTO 15009KT 10SM CLR 19/13 A3003 RMK AO2 SLP175
     T01890128=
KGVQ 220156Z AUTO 20010G17KT 10SM CLR 14/M01 A2996 RMK AO2 SLP148
     T01391006=
KGYB 220155Z AUTO 18012G17KT 10SM CLR 23/14 A2996 RMK AO2
     T02310141=
KGYI 220155Z AUTO 17013KT 10SM CLR 25/07 A2982 RMK AO2 T02520068
     TSNO=
KGZS 220155Z AUTO 00000KT 10SM FEW041 BKN049 BKN055 11/09 A3003
     RMK A01=
KH71 220155Z AUTO 16012G17KT 10SM CLR 25/06 A2973 RMK AO2=
KHEZ 220156Z AUTO 17009KT 10SM CLR 21/13 A3002 RMK AO2 SLP165
     T02110133=
KHFJ 220155Z AUTO 15007KT 10SM CLR 20/03 A2979 RMK AO2=
KHHF 220155Z AUTO 24007KT 10SM CLR 17/M01 A2966 RMK AO2
     T01721006=
KHLB 220155Z AUTO 18004KT 10SM CLR 13/00 A2995 RMK A01=
KHLX 220155Z AUTO 19003KT 10SM CLR 09/M07 A3015 RMK AO2
     T00861070=
KHND 220156Z 16010KT 10SM CLR 26/03 A2982 RMK AO2 SLP096
     T02610033=
KHOE 220155Z AUTO 00000KT 10SM CLR 08/05 A3013 RMK AO2
     T00800049=
KHQG 220155Z AUTO 27003KT 10SM CLR 17/M07 A2966 RMK AO2
     T01741075=
KHQZ 220155Z AUTO 16008KT 10SM CLR 24/09 A2986 RMK AO1
     T02350085=
KHRX 220155Z AUTO 23017G21KT 10SM CLR 22/00 A2979 RMK AO2
     T02181001=
KHSB 220155Z AUTO 00000KT 10SM CLR 14/08 A2990 RMK AO2
     T01400076=
KHSD 220155Z AUTO 17010KT 10SM CLR 24/04 A2970 RMK A01=
KHZD 220155Z AUTO 16005KT 10SM CLR 17/10 A2994 RMK A01=
KI35 220155Z AUTO 00000KT 10SM CLR 08/02 A3010 RMK AO2
     T00750021=
KI74 220155Z AUTO 18004KT 10SM CLR 12/01 A2997 RMK AO2=
KMBT 220155Z AUTO 16008KT 10SM SCT040 SCT049 BKN055 16/03 A3000
     RMK A01=
KMEV 220155Z AUTO 23018G25KT 10SM CLR 19/M05 A2989 RMK AO2=
KMHV 220200Z AUTO 29013KT 10SM CLR 24/M04 A2987 RMK A01=
KMIO 220150Z AUTO 16014KT 10SM CLR 23/05 A2973 RMK AO2=
KMKS 220155Z AUTO 00000KT 10SM CLR 08/06 A3014 RMK AO2=
KMMI 220155Z AUTO 00000KT 10SM CLR 07/02 A3012 RMK A01=
KMNE 220155Z AUTO 16004KT 10SM CLR 22/14 A2994 RMK AO2
     T02230140=
KMNV 220155Z AUTO 00000KT 8SM 08/02 A3010 RMK A01=
KMNZ 220155Z AUTO 18011KT 10SM CLR 24/07 A2989 RMK AO2
     T02360068=
KMOR 220155Z AUTO 00000KT 10SM SCT046 08/02 A3009 RMK A01=
KMRC 220150Z AUTO 18006G13KT 10SM CLR 18/08 A2998 RMK A01=
KMUT 220155Z AUTO 00000KT 10SM CLR 13/03 A2968 RMK AO2=
