SAUS70 KWBC 220018 RRG
METAR
KRMY 220015Z AUTO 18008KT 10SM CLR 17/04 A2978 RMK AO2
     T01740035=
KRNC 220015Z AUTO 00000KT 10SM CLR 13/03 A3004 RMK A01=
KRRT 220015Z AUTO 20003KT 10SM SCT120 12/03 A2951 RMK AO2=
KRSN 220015Z AUTO 18005KT 10SM CLR 23/12 A2996 RMK AO2
     T02260116=
KRTS 220015Z AUTO 27016G23KT 10SM CLR 20/M07 A2991 RMK AO2=
KRUQ 220015Z AUTO 00000KT 10SM CLR 08/03 A3013 RMK AO2
     T00760032=
KRZL 220015Z AUTO 18008KT 10SM CLR 17/02 A2981 RMK AO2=
KRZR 220015Z AUTO 00000KT 10SM CLR 10/04 A3006 RMK A01=
KSAR 220015Z AUTO 16006KT 10SM CLR 20/07 A2985 RMK AO2
     T02020069=
KSCD 220015Z AUTO 15003KT 10SM CLR 15/06 A3009 RMK AO2
     T01450057=
KSCX 220015Z AUTO 00000KT 10SM SCT027 SCT032 BKN043 12/M00 A3006
     RMK A01=
KSEM 220015Z AUTO 14005KT 10SM SCT040 SCT046 BKN050 13/11 A3007
     RMK AO2=
KSEZ 220015Z AUTO 18005KT 10SM 21/05 A2999 RMK AO2=
KSFQ 220015Z AUTO 00000KT 10SM CLR 11/08 A3017 RMK AO2
     T01080080=
KSIF 220015Z AUTO 00000KT 10SM CLR 06/03 A3014 RMK AO2
     T00640034=
KSLO 220015Z AUTO 16004KT 10SM CLR 20/03 A2985 RMK AO2
     T01980032=
KSNH 220010Z AUTO 17003KT 10SM FEW037 SCT049 18/11 A2996 RMK
     A01=
KSRB 220015Z AUTO 16004KT 10SM CLR 15/02 A3004 RMK A01=
KSRE 220015Z AUTO 10SM CLR 26/01 A2973 RMK AO2=
KSVC 220015Z AUTO 30009KT 10SM CLR 22/08 A3005 RMK AO2
     T02180075=
KSVH 220015Z AUTO 00000KT 10SM CLR 10/03 A3013 RMK AO2
     T00950032=
KSWW 220015Z AUTO 22010KT 10SM CLR 25/05 A2986 RMK AO2
     T02540046=
KSXU 220015Z AUTO 26013G18KT 10SM CLR 22/00 A2986 RMK AO2
     T02151001=
KSYF 220015Z AUTO 14009KT 10SM CLR 16/M05 A2966 RMK AO2 T01621048
     PWINO=
KSYI 220015Z AUTO 13005KT 10SM CLR 16/04 A3002 RMK A01=
KSZT 220015Z AUTO 22004KT 10SM -RA OVC008 03/02 A2966 RMK AO2=
KSZY 220015Z AUTO 17007KT 10SM CLR 20/10 A2996 RMK A01=
KT89 220015Z AUTO 12004KT 10SM CLR 27/08 A2990 RMK A01=
KTBX 220015Z AUTO 10SM CLR 13/M08 A2976 RMK AO2=
KI67 220015Z AUTO 00000KT 10SM CLR 16/00 A2995 RMK AO1=
KI74 220015Z AUTO 18004KT 10SM CLR 13/01 A2995 RMK AO2=
KIER 220015Z AUTO 19004KT 10SM CLR 23/13 A2993 RMK AO2
     T02280130=
KIFA 220015Z AUTO 00000KT 7SM CLR 14/01 A2964 RMK AO2
     T01430014=
KIGQ 220015Z AUTO 19012KT 10SM CLR 19/05 A2975 RMK AO2
     T01900047=
KIMS 220015Z AUTO 15004KT 10SM CLR 16/01 A2998 RMK AO2=
KINJ 220015Z AUTO 17014G17KT 10SM CLR 27/09 A2984 RMK AO2
     T02720086=
KIOB 220015Z AUTO 19006KT 10SM CLR 14/01 A3003 RMK AO2 PWINO=
KJAU 220015Z AUTO 00000KT 10SM CLR 09/02 A3012 RMK A01=
KJPX 220015Z AUTO 22004KT 10SM CLR 12/07 A3016 RMK AO2
     T01230069=
KJTC 220015Z AUTO 27009KT 10SM CLR 17/00 A3012 RMK AO2=
KJWG 220015Z AUTO 18011KT 10SM CLR 27/01 A2970 RMK AO2
     T02710015=
KJWY 220015Z AUTO 18010KT 10SM CLR 27/09 A2985 RMK AO2
     T02660092=
KJYL 220015Z AUTO 00000KT 10SM CLR 10/06 A3012 RMK AO2
     T01010062=
KK70 220015Z AUTO 02007KT 10SM BKN033 BKN050 BKN065 24/21 A2994
     RMK AO2=
KLCG 220015Z AUTO 00000KT 7SM CLR 12/M03 A2960 RMK AO2
     T01171026=
KLNA 220015Z AUTO 34008KT 10SM SCT055 23/19 A2998 RMK AO2
     T02290185 PNO=
KLNC 220015Z AUTO 17008KT 10SM CLR 27/07 A2983 RMK AO2
     T02700069=
KLNP 220015Z AUTO 20005KT 10SM CLR 10/00 A3011 RMK AO2=
KLNQ 220015Z AUTO 13003KT 10SM CLR 19/12 A3010 RMK AO2
     T01880116=
KLUA 220015Z AUTO 00000KT 10SM CLR 09/01 A3012 RMK AO2=
KLUG 220015Z AUTO 17003KT 10SM CLR 14/06 A3000 RMK A01=
KLUX 220015Z AUTO 12004KT 10SM CLR 09/01 A3013 RMK AO2=
KLVN 220015Z AUTO 00000KT 7SM CLR 12/02 A2964 RMK AO2=
KLXY 220015Z AUTO 18007KT 10SM CLR 25/10 A2988 RMK AO2
     T02540098=
