SAUS70 KWBC 220100 RRD
METAR
KMTO 220053Z AUTO 16009KT 10SM CLR 18/03 A2984 RMK AO2 SLP103
     T01780028=
KMVY 220053Z 00000KT 10SM CLR 06/04 A3018 RMK AO2 SLP221
     T00610039=
KMWL 220053Z AUTO 18007KT 10SM CLR 27/04 A2979 RMK AO2 SLP079
     T02670044=
KNEW 220053Z 17009KT 10SM CLR 20/11 A3008 RMK AO2 SLP180
     T02000111=
KODO 220053Z AUTO 19005KT 10SM CLR 23/08 A2988 RMK AO2 SLP086
     T02280078=
KOGB 220053Z AUTO 00000KT 10SM CLR 10/06 A3013 RMK AO2 SLP205
     T01000056=
KOJC 220053Z 18008KT 10SM CLR 23/04 A2967 RMK AO2 SLP039
     T02330044=
KOSH 220053Z 21004KT 10SM CLR 16/04 A2963 RMK AO2 SLP036
     T01560039=
KOSU 220053Z 18008KT 10SM CLR 16/01 A2998 RMK AO2 SLP152
     T01560006=
KOTM 220053Z AUTO 19008KT 9SM CLR 19/03 A2964 RMK AO2 SLP035
     T01940033=
KOVS 220053Z AUTO 00000KT 10SM CLR 10/03 A2964 RMK AO2 SLP044
     T01000033 $=
KOWD 220053Z 17004KT 10SM CLR 11/07 A3017 RMK AO2 SLP214 T01060072
     $=
KPIL 220053Z AUTO 14008KT 10SM CLR 22/16 A2998 RMK AO2 SLP152
     T02220161=
KPKB 220053Z 00000KT 10SM CLR 09/02 A3003 RMK AO2 SLP173
     T00940022=
KPNC 220053Z AUTO 17008KT 10SM CLR 27/02 A2966 RMK AO2 SLP035
     T02720017=
KPNS 220053Z 00000KT 10SM CLR 17/07 A3010 RMK AO2 SLP195
     T01670072=
KPQL 220053Z AUTO 00000KT 10SM CLR 12/11 A3010 RMK AO2 SLP192
     T01220106=
KPSX 220053Z AUTO 17008KT 10SM FEW042 22/17 A2999 RMK AO2 SLP154
     T02220167=
KPUB 220053Z AUTO 26008KT 10SM CLR 20/M12 A2971 RMK AO2 SLP024
     T02001122=
KPWA 220053Z 16011KT 10SM CLR 25/03 A2970 RMK AO2 SLP047
     T02500033=
KRAC 220053Z AUTO 22007KT 10SM CLR 18/04 A2969 RMK AO2 SLP053
     T01780044=
KRBD 220053Z 18011KT 10SM CLR 26/09 A2982 RMK AO2 SLP093
     T02610089=
KRIL 220053Z AUTO 27006KT 10SM CLR 16/M08 A2988 RMK AO2 SLP089
     T01611078=
KRKP 220053Z AUTO 16007KT 10SM CLR 24/16 A2997 RMK AO2 SLP150
     T02390161=
KRME 220053Z 09007KT 10SM CLR 10/M02 A3007 RMK AO2 SLP183
     T01001017=
KRSL 220053Z AUTO 19006KT 10SM CLR 21/01 A2959 RMK AO2 SLP016
     T02060006=
KRTN 220053Z AUTO 26009KT 10SM CLR 13/M07 A2987 RMK AO2 SLP078
     T01331072=
KRVS 220053Z 17006KT 10SM CLR 26/05 A2972 RMK AO2 SLP069
     T02610050=
KRWL 220053Z AUTO 25016G31KT 10SM CLR 14/M11 A2979 RMK AO2 PK WND
     26032/0006 SLP024 T01441106=
KSAF 220053Z 29006KT 10SM CLR 14/M02 A3000 RMK AO2 SLP113
     T01391022=
KSBM 220053Z AUTO 19004KT 10SM CLR 13/06 A2964 RMK AO2 SLP039
     T01330056=
KSDL 220053Z 26004KT 10SM CLR 29/09 A2982 RMK AO2 SLP077
     T02890089=
KGPT 220053Z 17004KT 10SM CLR 19/12 A3008 RMK AO2 SLP186
     T01890122=
KGSH 220053Z AUTO 20013KT 10SM CLR 17/03 A2981 RMK AO2 SLP096
     T01720033=
KGUP 220053Z AUTO 23005KT 10SM CLR 15/03 A3004 RMK AO2 SLP117
     T01500033=
KGUY 220053Z AUTO 20004KT 10SM CLR 22/M07 A2966 RMK AO2 SLP016
     T02221067=
KGZH 220053Z AUTO 00000KT 10SM CLR 12/09 A3010 RMK AO2 SLP191
     T01220094=
KHAO 220053Z AUTO 00000KT 10SM CLR 09/01 A2997 RMK AO2 SLP151
     T00890011=
KHBG 220053Z AUTO 17006KT 10SM CLR 19/12 A3007 RMK AO2 SLP181
     T01940117=
KHBR 220053Z AUTO 20010KT 10SM CLR 23/04 A2971 RMK AO2 PK WND
     21026/2356 SLP049 T02280039=
KHFD 220053Z 18003KT 10SM CLR 09/04 A3015 RMK AO2 SLP211
     T00890044=
KHGR 220053Z 13004KT 10SM CLR 12/M01 A3012 RMK AO2 SLP210
     T01221011 $=
KHLG 220053Z 15006KT 10SM CLR 12/M01 A3003 RMK AO2 SLP175
     T01221006=
KHOU 220053Z 18010KT 10SM CLR 23/14 A2999 RMK AO2 SLP160
     T02280144=
KHUF 220053Z 18008KT 10SM CLR 17/03 A2987 RMK AO2 SLP115
     T01720028=
