SMNZ01 NZKL 220000
AAXX 22004
93004 16/// /0729 10188 20127 30011 40263 52003 60001 333 20122
70000=
93014 17697 /0513 10186 20113 30186 40278 52005 60021 700// 333
20103 70018=
93021 17597 /0611 10161 20102 30105 40285 52008 69941 700// 333
20096 70060=
93057 17697 /0709 10185 20105 30240 40289 52006 60011 700// 333
20128 70140=
93069 16/// /1119 10158 20105 30209 40293 52011 69921 333 20120
70038=
93110 17698 /2107 10168 20064 30285 40294 52005 60001 700// 333
20110 70000=
93129 16/// ///// 10140 20060 30293 40299 52004 60001 333 20093
70056=
93173 17/98 /1203 10168 20083 30232 40295 57003 60001 700// 333
20039 70000=
93186 17/98 /0407 10147 20041 30295 40300 54000 60001 700// 333
20056 70006=
93191 17/97 /0508 10153 20032 30289 40297 57003 60001 700// 333
20029 70000=
93196 16/// /1313 10154 20074 30242 40296 52002 60001 333 20095
70000=
93201 16/// /2706 10152 20081 30283 40303 52005 60001 333 20087
70004=
93245 17/98 /2506 10123 20024 39805 40294 57012 60001 700// 333
21030 70000=
93292 17697 /1807 10130 20056 30305 40310 52005 60001 700// 333
20053 70001=
93309 17/98 /1709 10179 20044 30262 40297 57002 60001 700// 333
20054 70000=
93313 16/// /1613 10129 20044 30189 40310 52004 60001 333 20013
70000=
93327 17/98 /1908 10135 20041 30304 40314 52003 60001 700// 333
20033 70002=
93339 16/// /1910 10109 21011 39336 52003 60001 333 21058 70000=
93373 17697 /1804 10144 20039 30314 40316 54000 60001 700// 333
20034 70000=
93393 16/// /2415 10106 20053 30145 40311 52009 60001 333 20078
70004=
93404 17/98 /1108 10140 20048 30255 40311 57003 60001 700// 333
20003 70000=
93420 17/97 /3205 10138 20052 30306 40313 57002 60001 700// 333
20005 70000=
93439 17/97 /1608 10133 20048 30297 40312 57003 60001 700// 333
20046 70000=
93441 16/// /1803 10113 20031 39894 40314 54000 60001 333 21007
70000=
93479 16/// /2305 10138 20059 30308 40314 57002 60001 333 20056
70000=
93498 16/// /1710 10114 20055 30167 40312 57001 60001 333 20055
70000=
93515 17396 /0505 10123 20115 30313 40318 52006 60051 781// 333
20108 70176=
93527 16/// /0408 10153 20054 30310 40314 52002 60001 333 20099
70000=
93546 17697 /0211 10142 20086 30306 40312 52002 60001 700// 333
20103 70000=
93562 16/// /0707 10125 20038 30087 40314 54000 60001 333 20079
70000=
93597 16/// /0608 10117 20052 30303 40310 57005 60001 333 20075
70000=
93615 17/97 /3108 10161 20108 30251 40308 54000 60001 700// 333
20054 70000=
93678 17/97 /0507 10135 20062 30172 40303 57007 60001 700// 333
20058 70000=
93709 16/// /3505 10151 20105 30304 40306 52002 60001 333 20041
70000=
93721 16/98 /3210 10151 20065 30296 40300 57010 60001 333 20029
70000=
93738 NIL=
93747 16/// /1204 10149 20026 39703 40277 57025 60001 333 21036
70000=
93773 17/97 /3303 10156 20064 30257 40290 57011 60001 700// 333
21001 70000=
93781 17/97 /0309 10138 20035 30253 40299 57006 60001 700// 333
21028 70000=
93791 NIL=
93792 16/// /3516 10103 20041 30010 40299 57007 60001 333 20046
70000=
93796 17/98 /0611 10134 20056 30249 40286 57011 60001 700// 333
20030 70000=
93800 NIL=
93805 16/// /3124 10127 20089 30223 40277 57012 60001 333 20052
70004=
93817 NIL=
93831 17/98 /2507 10133 20039 39851 40279 57027 60001 700// 333
21002 70000=
93845 17/98 /2506 10135 20053 30278 40279 57008 60001 700// 333
20007 70000=
93887 16/// /0607 10129 20068 30122 40281 57004 60001 333 20053
70000=
93891 17/98 /3302 10151 20046 30278 40281 57013 69921 700// 333
21024 70002=
93909 16/// /3325 10129 20056 30137 40262 57009 60001 333 20062
70000=
93929 16/// /3023 10107 20077 30155 40203 57005 60001 333 20076
70002=
93947 16/// /2828 10092 20060 30136 40155 52004 60001 333 20063
70000=
93985 17597 /2119 10095 20057 30209 40225 52019 60001 781// 333
20062 70020=
93994 NIL=