SMSO01 AMMC 220000
AAXX 22004
91503 11498 70203 10285 20242 40103 51005 70582 8387/
  333 20240 56999 70171 81817 87360=
91517 11598 63603 10326 20253 40100 50004 71522 84938
  333 20241 56999 70000 82820 82921 83280=
91520 11598 30209 10305 20250 40097 50002 71521 81978
  333 20235 56999 70000 81820 81921 83361=