ASUS44 KMEG 220110
RWRMEG
MEMPHIS CWA HOURLY WEATHER ROUNDUP
NATIONAL WEATHER SERVICE MEMPHIS TN
800 PM CDT FRI OCT 21 2022

...WEST TENNESSEE...
  
CITY           SKY/WX    TMP DP  RH WIND       PRES   REMARKS
MEMPHIS INTL   CLEAR     70  51  51 S9        29.92R                  
NWS MEMPHIS      N/A     69 N/A N/A MISG        N/A                   
JACKSON        CLEAR     67  50  54 S7        29.95R                  
COVINGTON      PTCLDY    68  50  52 S5        29.91R                  
SOMERVILLE     PTCLDY    66  52  59 S5        29.93R                  
BOLIVAR        PTCLDY    64  52  63 SE6       29.94S                  
SELMER         CLEAR     68  50  52 S10       29.96S                  
SAVANNAH       PTCLDY    63  52  67 S6        29.96S                  
DYERSBURG      CLEAR     68  51  54 S5        29.92R                  
UNION CITY     CLEAR     64  50  59 S8        29.90R                  
PARIS          CLEAR     64  50  59 S10       29.93R                  
HUNTINGDON     PTCLDY    63  50  63 S6        29.93R                  


...EASTERN ARKANSAS...
  
CITY           SKY/WX    TMP DP  RH WIND       PRES   REMARKS
JONESBORO      CLEAR     64  49  57 S5        29.89R                  
WEST MEMPHIS   CLEAR     64  50  60 S5        29.89R                  
BATESVILLE     CLEAR     70  48  45 S5        29.88R                  
NEWPORT        CLEAR     64  50  60 SW6       29.88R                  
WALNUT RIDGE   CLEAR     62  47  57 S8        29.87R                  
BLYTHEVILLE    CLEAR     66  49  54 S7        29.89R                  
SEARCY         CLEAR     66  50  56 S6        29.88R                  
STUTTGART      CLEAR     69  49  48 S7        29.90R                  
PINE BLUFF     CLEAR     69  47  45 CALM      29.90R                  
MONTICELLO     CLEAR     69  52  54 S3        29.91R                  


...NORTH MISSISSIPPI...
  
CITY           SKY/WX    TMP DP  RH WIND       PRES   REMARKS
TUPELO         CLEAR     69  51  52 S8        29.99R                  
OXFORD         PTCLDY    66  50  55 SE8       29.97S                  
BATESVILLE     CLEAR     70  50  49 SE8       29.93S                  
OLIVE BRANCH   CLEAR     70  48  46 S8        29.92R                  
TUNICA         CLEAR     68  49  52 S9        29.91R                  
CLARKSDALE     MOCLDY    70  50  49 SE7       29.93R                  
CORINTH        CLEAR     64  48  55 S7        29.97S                  
IUKA           FAIR      64  50  60 S3        30.00S                  
GREENWOOD      CLEAR     68  50  52 S5        29.95R                  
COLUMBUS       CLEAR     61  53  73 S8        29.98R                  
STARKVILLE     CLEAR     64  54  68 SE6       29.99R                  
GOLDEN TRIANGL CLEAR     67  55  65 SE8       30.02R                  


...SOUTHEAST MISSOURI...
  
CITY           SKY/WX    TMP DP  RH WIND       PRES   REMARKS
KENNETT        PTCLDY    63  50  63 S8        29.88R                  
MALDEN         CLEAR     64  46  52 S7        29.90R                  
WEST PLAINS    CLEAR     65  46  50 SE6       29.86R                  
POPLAR BLUFF   CLEAR     66  48  52 S7        29.87R                  
CAPE GIRARDEAU CLEAR     64  47  53 S7        29.88R                  


...NORTHWEST ALABAMA...
  
CITY           SKY/WX    TMP DP  RH WIND       PRES   REMARKS
MUSCLE SHOALS  CLEAR     63  51  65 SE6       30.01R                  


...MIDDLE TENNESSEE...
  
CITY           SKY/WX    TMP DP  RH WIND       PRES   REMARKS
NASHVILLE      PTCLDY    65  37  35 S12       30.00R                  
CLARKSVILLE    CLEAR     63  43  48 S6        29.95R                  
DICKSON          N/A     64  46  52 S8        29.96S                  
COLUMBIA       CLEAR     64  46  52 SE5       29.98R                  
LAWRENCEBURG   PTCLDY    61  48  63 SE7       30.01R                  
LEWISBURG      CLEAR     55  43  62 CALM      30.01R                  


...WESTERN KENTUCKY...
  
CITY           SKY/WX    TMP DP  RH WIND       PRES   REMARKS
PADUCAH        CLEAR     67  46  47 S5        29.89R                  
FORT CAMPBELL  CLEAR     67  43  41 SE6       29.93R                  


...CENTRAL ARKANSAS...
  
CITY           SKY/WX    TMP DP  RH WIND       PRES   REMARKS
LITTLE ROCK    CLEAR     65  48  54 SE5       29.88R                  


SKY/WX REPORTED AS FAIR MEANS FEW OR NO CLOUDS BELOW
12 THOUSAND FEET.

  
