ASUS44 KOHX 220215
RWROHX
MIDDLE TENNESSEE HOURLY WEATHER ROUNDUP
NATIONAL WEATHER SERVICE NASHVILLE TN
900 PM CDT FRI OCT 21 2022

NOTE: "FAIR" INDICATES FEW OR NO CLOUDS BELOW 12,000 FEET WITH
NO SIGNIFICANT WEATHER AND/OR OBSTRUCTIONS TO VISIBILITY.

* THESE REPORTS ARE NOT UNDER NWS QUALITY CONTROL AND MAY NOT
  REPORT WEATHER SUCH AS PRECIPITATION AND FOG.


TNZ005>011-023>034-057-059-062>066-078-080-220300
...NORTHERN MIDDLE TENNESSEE...
  
CITY           SKY/WX    TMP DP  RH WIND       PRES   REMARKS
CLARKSVILLE    CLEAR     66  44  45 S6        29.96R                  
CROSSVILLE     CLEAR     50  36  58 CALM      30.10R                  
DICKSON          N/A     64  48  55 S9G15     29.97R                  
GALLATIN       MOCLDY    59  36  41 CALM      30.03S                  
LEBANON        PTCLDY    61  36  39 SE7       29.99S                  
LIVINGSTON     CLEAR     57  34  41 SW6G12    30.04S                  
NASHVILLE      CLEAR     64  37  36 S12       30.01R                  
PORTLAND       PTCLDY    63  37  39 S12       29.98S                  
SMYRNA         CLEAR     58  40  51 SE3       30.03R                  
SPARTA         CLEAR     57  36  44 S7        30.05F                  
SPRINGFIELD    PTCLDY    64  41  42 SE7       29.97R                  
WEST NASHVILLE   N/A     63  41  45 CALM      29.97R                  
$$
TNZ056-058-060-061-075>077-079-093>097-220300
...SOUTHERN MIDDLE TENNESSEE...
  
CITY           SKY/WX    TMP DP  RH WIND       PRES   REMARKS
COLUMBIA       CLEAR     64  46  52 S7G15     29.98S                  
FAYETTEVILLE   MOCLDY    57  39  51 S8        30.06S                  
LAWRENCEBURG   CLEAR     63  50  63 S8        30.02R                  
LEWISBURG      PTCLDY    54  43  66 CALM      30.01S                  
MCMINNVILLE    PTCLDY    50  39  66 CALM      30.05S                  
MURFREESBORO   MOCLDY    61  37  41 S9        30.00S                  
PULASKI        MOCLDY    52  48  87 CALM      30.03R                  
SHELBYVILLE    CLEAR     61  37  41 SE7       30.03S                  
TULLAHOMA      CLEAR     57  37  47 SE6       30.05R                  
WINCHESTER     PTCLDY    59  36  41 VRB5      30.06R                  
$$


...KEY TO REMARKS...
VSB - VISIBILITY IN MILES
WCI - WIND CHILL INDEX
HX  - HEAT INDEX

  
