ASUS44 KOHX 220115
RWROHX
MIDDLE TENNESSEE HOURLY WEATHER ROUNDUP
NATIONAL WEATHER SERVICE NASHVILLE TN
800 PM CDT FRI OCT 21 2022

NOTE: "FAIR" INDICATES FEW OR NO CLOUDS BELOW 12,000 FEET WITH
NO SIGNIFICANT WEATHER AND/OR OBSTRUCTIONS TO VISIBILITY.

* THESE REPORTS ARE NOT UNDER NWS QUALITY CONTROL AND MAY NOT
  REPORT WEATHER SUCH AS PRECIPITATION AND FOG.


TNZ005>011-023>034-057-059-062>066-078-080-220200
...NORTHERN MIDDLE TENNESSEE...
  
CITY           SKY/WX    TMP DP  RH WIND       PRES   REMARKS
CLARKSVILLE    CLEAR     63  43  48 S6        29.95R                  
CROSSVILLE     CLEAR     53  34  48 S3        30.09R                  
DICKSON          N/A     64  46  52 S8        29.96S                  
GALLATIN       PTCLDY    61  36  39 S5        30.02S                  
LEBANON        PTCLDY    63  36  36 SE7       29.98S                  
LIVINGSTON     CLEAR     57  34  41 S6        30.04R                  
NASHVILLE      PTCLDY    65  37  35 S12       30.00R                  
PORTLAND       CLEAR     63  37  39 S8        29.98S                  
SMYRNA         CLEAR     62  40  44 S3        30.02R                  
SPARTA         CLEAR     57  36  44 S6        30.05R                  
SPRINGFIELD    MOCLDY    64  39  39 SE7       29.96R                  
WEST NASHVILLE CLEAR     66  41  39 SE3       29.96R                  
$$
TNZ056-058-060-061-075>077-079-093>097-220200
...SOUTHERN MIDDLE TENNESSEE...
  
CITY           SKY/WX    TMP DP  RH WIND       PRES   REMARKS
COLUMBIA       CLEAR     64  46  52 SE5       29.98R                  
FAYETTEVILLE   PTCLDY    57  39  51 S8        30.06R                  
LAWRENCEBURG   PTCLDY    61  48  63 SE7       30.01R                  
LEWISBURG      CLEAR     55  43  62 CALM      30.01R                  
MCMINNVILLE    CLEAR     52  37  58 CALM      30.05R                  
MURFREESBORO   PTCLDY    61  37  41 S8        30.00R                  
PULASKI        PTCLDY    54  48  82 CALM      30.02R                  
SHELBYVILLE    CLEAR     61  37  41 SE8       30.02S                  
TULLAHOMA      PTCLDY    59  37  44 S8        30.04R                  
WINCHESTER     CLEAR     59  36  41 SE6       30.05R                  
$$


...KEY TO REMARKS...
VSB - VISIBILITY IN MILES
WCI - WIND CHILL INDEX
HX  - HEAT INDEX

  
