ASUS41 KLWX 220213
RWRLWX

REGIONAL WEATHER ROUNDUP
NATIONAL WEATHER SERVICE BALTIMORE MD/WASHINGTON DC
1000 PM EDT FRI OCT 21 2022

Note: "FAIR" indicates few or no clouds below 12,000 feet
with no significant weather and/or obstructions to visibility.
 TC=TEMPERATURE CELSIUS

 * =Non NWS site. Station does not report precipitation (e.g. rain,
    snow, etc.), thunder, or fog.

DCZ001-MDZ009-015-VAZ040>042-051-053>054-220300-
WASHINGTON METRO
  
CITY           SKY/WX    TMP DP  RH WIND       PRES   REMARKS
WASHINGTON NAT PTCLDY    55  41  59 SW5       30.17R                  
DULLES         CLEAR     52  36  54 S6        30.15R                  
ANDREWS AFB    CLEAR     46  40  79 S3        30.14R                  
FT BELVOIR     CLEAR     42  39  88 CALM      30.15R                  
QUANTICO       CLEAR     48  32  53 W6        30.18R                  
LEESBURG*      CLEAR     52  36  54 S5        30.17R                  
MANASSAS*      CLEAR     41  37  86 CALM      30.16R                  
GAITHERSBURG*  CLEAR     50  36  58 SE7       30.16R                  

$$

MDZ006>007-011-014-220300-
BALTIMORE METRO
  
CITY           SKY/WX    TMP DP  RH WIND       PRES   REMARKS
BWI AIRPORT    CLEAR     47  37  68 CALM      30.16R                  
BALT INNER HAR   N/A     55  36  48 MISG      30.17R                  
MARTIN STATE   CLEAR     45  43  93 CALM      30.18R                  
ANNAPOLIS      CLEAR     51  44  77 CALM      30.16R                  
FORT MEADE*    CLEAR     39  37  93 CALM      30.19R                  

$$

MDZ012-015-019>023-220300-
MARYLAND EASTERN SHORE
  
CITY           SKY/WX    TMP DP  RH WIND       PRES   REMARKS
OCEAN CITY     NOT AVBL                                               
SALISBURY      CLEAR     46  42  86 E3        30.19R                  
CAMBRIDGE*     CLEAR     45  43  93 CALM      30.18R                  
EASTON*        CLEAR     48  41  76 CALM      30.21R                  

$$

MDZ017>025-220300-
SOUTHERN MARYLAND
  
CITY           SKY/WX    TMP DP  RH WIND       PRES   REMARKS
PATUXENT RIVER CLEAR     56  45  66 S7        30.17R                  
ST INIGOES     CLEAR     50  45  83 SE3       30.17R                  
LEONARDTOWN*   CLEAR     46  43  87 CALM      30.19R                  

$$

MDZ003>005-220300-
NORTH CENTRAL MARYLAND
  
CITY           SKY/WX    TMP DP  RH WIND       PRES   REMARKS
FREDERICK*     NOT AVBL                                               
HAGERSTOWN APT CLEAR     52  31  44 SE7       30.13R                  
WESTMINSTER*   CLEAR     54  36  50 S6        30.16R                  

$$

MDZ501>502-220300-
WESTERN MARYLAND
  
CITY           SKY/WX    TMP DP  RH WIND       PRES   REMARKS
OAKLAND*       NOT AVBL                                               
CUMBERLAND*    CLEAR     46  35  66 CALM      30.15R                  

$$

VAZ025>031-220300-
SHENANDOAH VALLEY
  
CITY           SKY/WX    TMP DP  RH WIND       PRES   REMARKS
WINCHESTER*    CLEAR     43  32  65 CALM      30.12R                  
FRONT ROYAL*   CLEAR     45  34  65 SE3       30.13R                  
LURAY*         CLEAR     43  34  70 CALM      30.14S                  
NEW MARKET*    CLEAR     39  34  80 CALM      30.14R                  
STAUNTON*      CLEAR     38  32  77 CALM      30.17R                  
WAYNESBORO*    CLEAR     42  32  66 MISG      30.16R                  

$$

WVZ021-048>050-054>055-220300-
EASTERN WEST VIRGINIA PANHANDLE
  
CITY           SKY/WX    TMP DP  RH WIND       PRES   REMARKS
MARTINSBURG    CLEAR     42  33  70 CALM      30.13R                  
PETERSBURG*    CLEAR     39  36  87 CALM      30.14R                  

$$

VAZ036>039-050-220300-
CENTRAL FOOTHILLS
  
CITY           SKY/WX    TMP DP  RH WIND       PRES   REMARKS
CHARLOTTESVILL CLEAR     49  35  58 CALM      30.15R                  
CULPEPER*      CLEAR     40  35  83 CALM      30.17R                  
ORANGE*        CLEAR     41  36  81 CALM      30.17R                  
GORDONSVILLE*  NOT AVBL                                               
WARRENTON*     CLEAR     36  34  91 CALM      30.19S                  

$$

VAZ055>057-220300-
NORTH AND CENTRAL PIEDMONT
  
CITY           SKY/WX    TMP DP  RH WIND       PRES   REMARKS
FREDERICKSBRG* CLEAR     45  39  81 CALM      30.15R                  
STAFFORD*      CLEAR     46  41  81 CALM      30.20R                  

$$

NCZ024-NYZ072-PAZ021-071-VAZ022-071-220300-
OTHER REGIONAL OBSERVATIONS
  
CITY           SKY/WX    TMP DP  RH WIND       PRES   REMARKS
NEW YORK CITY  CLEAR     55  37  50 CALM      30.19R                  
PHILADELPHIA   CLEAR     54  41  61 SW3       30.18R                  
PITTSBURGH     PTCLDY    50  32  50 CALM      30.05R                  
ROANOKE        CLEAR     46  35  65 CALM      30.18R                  
RICHMOND       CLEAR     50  40  68 SE5       30.17R                  
RALEIGH        CLEAR     50  38  63 CALM      30.16R                  

$$

ANZ530>537-220300-
MARINE OBSERVATIONS
  
STATION/POSITION TIME  TEMP    WIND        PRES
                       AIR SEA DIR/SP/G
                 (UTC) (F)     (DEG/KT/KT) (MB)
THOMAS PT LIGHT  0200   60     140/  9/ 10 1022.4R
TOLCHESTER       0112      58                N/A
GOOSES REEF      0048   56 61  160/  6/  6 1021.5
BALT HARBOR      0118      63                N/A
ANNAPOLIS USNA   0118      65                N/A
ANNAPOLIS CBIBS  0048   57 62  210/  4/  6 1020.5
WASH DC CHANNEL  0118      60                N/A
DAHLGREN         0118      61                N/A
LEWISETTA        0118      60                N/A
SOLOMONS ISLAND  0118      63                N/A
POTOMAC BUOY     0048   57     160/ 12/ 14   N/A
CAMBRIDGE PIER   0118      60                N/A
BISHOPS HEAD     0118      60                N/A
CHESAPEAKE CITY  0118      58                N/A

$$

  
