ASUS45 KTFX 220010
RWRMT 
Montana Regional Weather Roundup
National Weather Service Great Falls MT
600 PM MDT FRI OCT 21 2022

NOTE: "FAIR" indicates few or no clouds below 12,000 feet with no
significant weather and/or obstructions to visibility.

MTZ001>007-043-220100-
West of the divide
  
CITY           SKY/WX    TMP DP  RH WIND       PRES   REMARKS
Kalispell      LGT RAIN  43  41  93 S8        29.60R                  
Missoula       LGT RAIN  45  40  82 N5        29.65F                  
Anaconda         N/A     45  36  70 NE9       29.63                   
Deer Lodge       N/A     43  37  81 NE3G16    29.64                   
Hamilton         N/A     46  41  81 S13G18    29.63F                  
Libby            N/A     45  36  70 W8        29.59                   
Mullan Pass    SNOW      27  26  96 VRB5      29.62S VSB 1/4 WCI  22  
Plains           N/A     45   3  18 CALM      29.69R                  
$$

MTZ008-052>055-220100-
Southwest Montana
  
CITY           SKY/WX    TMP DP  RH WIND       PRES   REMARKS
Dillon         CLOUDY    60  25  26 W16G26    29.51F                  
Ennis          CLOUDY    61  27  27 S25G38    29.55F                  
Twin Bridges   CLOUDY    61  27  27 S7        29.52R                  
$$

MTZ009-010-012-014-046-048-049-054-220100-
East Slopes and Central Montana
  
CITY           SKY/WX    TMP DP  RH WIND       PRES   REMARKS
Cut Bank       CLOUDY    39  38  96 E5        29.54F                  
Great Falls    CLOUDY    49  37  63 SW12      29.53F                  
Helena         CLOUDY    49  37  63 W12       29.57R                  
Malmstrom AFB  LGT RAIN  48  41  76 S5        29.53F                  
Augusta        CLOUDY    46  32  57 W7        29.51F                  
Choteau          N/A     43  41  93 MISG      29.53                   
Fairfield      LGT RAIN  45  40  83 SE12      29.50S                  
Power          LGT RAIN  44  39  82 NW5       29.51S                  
Raynesford     LGT RAIN  46  39  77 SW13      29.55F                  
Ulm            CLOUDY    50  35  57 W8        29.51F                  
$$

MTZ011-013-016-021-045-047-050-051-220100-
North Central Montana
  
CITY           SKY/WX    TMP DP  RH WIND       PRES   REMARKS
Havre          LGT RAIN  45  44  97 W5        29.56S                  
Lewistown      LGT RAIN  46  41  82 NW3       29.56F                  
Chinook          N/A     46  46 100 CALM      29.57                   
Denton         LGT RAIN  47  44  91 CALM      29.54F                  
Fort Benton      N/A     46  46 100 NW3       29.57S                  
Geyser         LGT RAIN  46  39  77 W20G25    29.55S                  
Grass Range    LGT RAIN  45  45  99 E6        29.51F                  
Judith Gap     LGT RAIN  47  39  74 N13       29.52F                  
N Bar Ranch      N/A     45  43  93 NW10      29.57F                  
Roy            LGT RAIN  46  44  94 S7        29.53S                  
Stanford       LGT RAIN  46  42  86 NW9       29.54S                  
$$

MTZ017>020-022>027-061-062-220100-
Northeast Montana
  
CITY           SKY/WX    TMP DP  RH WIND       PRES   REMARKS
Glasgow        CLOUDY    48  40  73 E8        29.55R                  
Culbertson     CLOUDY    45  43  93 NE8       29.54S                  
Glendive       LGT RAIN  47  44  90 N6        29.54R                  
Jordan           N/A     47  45  93 CALM      29.55S                  
Malta          CLOUDY    46  41  81 E6        29.54S                  
Plentywood     MOCLDY    41  39  93 CALM      29.56S                  
Sidney         CLOUDY    46  44  93 N8        29.55R                  
Wolf Point     CLOUDY    47  41  80 E6        29.56R                  
$$

MTZ028>42-056>058-220100-
Southcentral and southeast Montana
  
CITY           SKY/WX    TMP DP  RH WIND       PRES   REMARKS
Baker          MOCLDY    54  39  57 N12       29.54R                  
Big Timber     MOCLDY    63  27  25 W15       29.50S                  
Billings       LGT RAIN  54  39  57 E15       29.54R                  
Forsyth          N/A     54  39  58 N6        29.56R                  
Hardin           N/A    N/A N/A N/A MISG        N/A                   
Harlowton      CLOUDY    49  39  67 N16       29.49F                  
Laurel           N/A     54  39  58 E20       29.52                   
Livingston     CLOUDY    61  32  33 W17G23    29.48F                  
Miles City     CLOUDY    55  40  56 N21       29.55R                  
Roundup          N/A     46  39  76 MISG      29.51F                  
$$

Regional Reports...Dakotas/MN
  
CITY           SKY/WX    TMP DP  RH WIND       PRES   REMARKS
Williston      CLOUDY    42  39  89 NE9       29.54F                  
Minot          LGT RAIN  48  41  76 N15       29.54R                  
Dickinson      CLOUDY    53  36  52 N8        29.49R                  
Beach          CLOUDY    50  37  62 CALM      29.54S                  
Bowman         FAIR      57  34  41 N20       29.51R                  
Crosby         CLOUDY    43  37  81 CALM      29.56F                  
Glen Ullin     FAIR      52  28  40 NE8       29.48S                  
Hettinger      MOCLDY    62  32  32 S7        29.47F                  
Tioga          CLOUDY    41  41 100 NE6       29.56S                  
Watford City   LGT RAIN  45  45 100 NE6       29.54S                  
Bismarck       MOCLDY    55  33  43 NE8       29.51S                  
Grand Forks    CLOUDY    54  33  45 S5        29.52S HAZE             
Fargo          MOCLDY    56  27  32 SE6       29.53F                  
Buffalo SD       N/A     63  31  30 W14       29.45R                  
Rapid City     CLEAR     64  27  24 SE5       29.47F                  
Intl Falls     MOCLDY    44  33  65 CALM      29.52S                  
Duluth         PTCLDY    53  32  44 NW5       29.58R                  
Minneapolis    MOCLDY    58  34  40 N5        29.61R                  
$$

Regional Reports...WY/CO/ID/WA/OR
  
CITY           SKY/WX    TMP DP  RH WIND       PRES   REMARKS
Buffalo WY     CLOUDY    60  27  28 NW6       29.55S                  
Cody           CLOUDY    66  27  23 VRB5      29.56F                  
Gillette       PTCLDY    60  25  26 NW5       29.52S                  
Powell         FAIR      63  21  20 W13       29.53S                  
Sheridan       MOCLDY    60  35  39 NW3       29.52R                  
Yellowstone La   N/A     48  24  39 W9G20     29.73F                  
Boise          MOCLDY    66  37  34 N6        29.67F                  
Couer d'Alene  LGT RAIN  37  36  96 CALM      29.69F                  
Idaho Falls    MOCLDY    65  24  21 SW25G41   29.67F                  
Salmon         CLOUDY    61  28  28 W16G28    29.61R                  
Spokane        CLOUDY    42  39  89 SW8       29.66F                  
Seattle        LGT RAIN  48  45  89 S6        29.73F                  
Portland       LGT RAIN  50  48  93 SE7       29.75F FOG              
$$

Other Reports
  
CITY           SKY/WX    TMP DP  RH WIND       PRES   REMARKS
Atlanta        PTCLDY    59  39  47 W3        30.10R                  
Anchorage      MOSUNNY   37  36  96 W5        29.84S WCI  33          
Boston         CLEAR     57  44  62 S13       30.15R                  
Chicago        PTCLDY    71  37  28 S13       29.69R                  
Fairbanks      LGT SNOW  35  31  85 W8        29.82R FOG     WCI  29  
Houston        PTCLDY    78  58  49 S10G20    29.94R                  
Las Vegas NV   MOSUNNY   85  29  13 S8        29.80F                  
Phoenix AZ     PTCLDY    87  48  25 W10       29.78F                  
Salt Lake City PTCLDY    76  18  11 NW6       29.77F                  
San Diego      PTSUNNY   72  61  68 VRB7      29.87S                  
San Francisco  MOSUNNY   63  53  70 W15       29.84F                  
Washington Dul CLEAR     53  32  44 SE7       30.12R                  
$$

Regional Reports...Alberta
  
CITY           SKY/WX    TMP DP  RH WIND       PRES   REMARKS
Calgary        CLOUDY    39  32  75 S9        29.54S WCI  33          
Cardston         N/A     39  36  87 NE3         N/A                   
Crowsnest Pass   N/A     34  34 100 SE5         N/A  WCI  30          
Del Bonita       N/A     36  36 100 E6          N/A  WCI  31          
Fort McMurray  CLEAR     36  30  80 CALM      29.53S                  
High Level     MOCLDY    45  30  57 CALM      29.51R                  
Lethbridge     LGT RAIN  37  36  93 E6        29.56F WCI  33          
Medicine Hat   CLOUDY    43  36  75 N8        29.57S                  
Milk River       N/A     37  36  93 N3          N/A                   
Onefour          N/A     43  39  87 E6          N/A                   
Pincher Creek  LGT SNOW  34  34 100 E7        29.54  WCI  28          
Raymond          N/A     37  36  93 E3          N/A                   
Waterton Gate    N/A     37  36  93 E6          N/A  WCI  33          
Fort Smith NWT CLOUDY    34  32  93 CALM      29.56R                  
$$

Regional Reports...Saskatchewan
  
CITY           SKY/WX    TMP DP  RH WIND       PRES   REMARKS
Assiniboia       N/A     45  34  65 NW6         N/A                   
Coronach         N/A     41  37  87 N1          N/A                   
Cypress Hills    N/A     37  32  81 CALM        N/A                   
Estevan        CLOUDY    43  41  93 CALM      29.55F                  
Moose Jaw        N/A     46  32  57 W8          N/A                   
Prince Albert  MOCLDY    43  34  70 NW8       29.48S                  
Regina         MOCLDY    45  32  61 W12       29.53R                  
Rockglen         N/A     39  36  87 SW2         N/A                   
Saskatoon      MOCLDY    48  27  43 W7        29.50R                  
Swift Current  MOCLDY    43  34  70 NW7       29.54S                  
Uranium City     N/A     34  30  86 N6          N/A  WCI  29          
Val Marie        N/A     43  36  75 SE1         N/A                   
$$
  
