ASUS45 KGGW 212315
RWRGGW
HOURLY REGIONAL WEATHER ROUNDUP FOR NORTHEAST MONTANA
NATIONAL WEATHER SERVICE GLASGOW MONTANA
500 PM MDT FRI OCT 21 2022

NOTE: "FAIR" INDICATES FEW OR NO CLOUDS BELOW 12,000 FEET WITH NO
SIGNIFICANT WEATHER AND/OR OBSTRUCTIONS TO VISISBILITY.

NORTHEAST MONTANA

  
CITY           SKY/WX    TMP DP  RH WIND       PRES   REMARKS
GLASGOW        CLOUDY    50  40  68 E9        29.53F                  
WOLF POINT     CLOUDY    48  42  80 E5        29.55F                  
JORDAN           N/A     49  45  86 CALM      29.55S                  
SIDNEY         LGT RAIN  46  44  93 N6        29.54R                  
GLENDIVE       CLOUDY    49  42  77 SE5       29.53S                  
MALTA            N/A     47  37  68 E3          N/A                   

FORT PECK REPORTS

  
CITY           SKY/WX    TMP DP  RH WIND       PRES   REMARKS
FORT PECK        N/A     48  43  82 NE5         N/A                   
THE PINES        N/A     49  40  71 N3          N/A                   

SOUTHEAST MONTANA

  
CITY           SKY/WX    TMP DP  RH WIND       PRES   REMARKS
BILLINGS       CLOUDY    58  37  45 NE16      29.53R                  
MILES CITY     CLOUDY    57  40  52 N20       29.54R                  
BAKER          MOCLDY    58  35  42 N17       29.51R                  
LIVINGSTON     CLOUDY    64  27  24 W16       29.50R                  

CENTRAL MONTANA

  
CITY           SKY/WX    TMP DP  RH WIND       PRES   REMARKS
HAVRE          LGT RAIN  46  44  93 NW12      29.56R                  
LEWISTOWN      LGT RAIN  48  40  73 W6        29.57S                  
GREAT FALLS    LGT RAIN  48  41  76 SW8       29.55R                  
CUT BANK       LGT RAIN  40  38  93 NE7       29.55F                  
HELENA         CLOUDY    53  35  50 W21       29.56F                  
BUTTE          NOT AVBL                                               
BOZEMAN        CLOUDY    58  33  39 NE10      29.52F                  

WESTERN MONTANA

  
CITY           SKY/WX    TMP DP  RH WIND       PRES   REMARKS
MISSOULA       LGT RAIN  46  41  82 CALM      29.66R                  
KALISPELL      NOT AVBL                                               

NORTH DAKOTA

  
CITY           SKY/WX    TMP DP  RH WIND       PRES   REMARKS
WILLISTON      CLOUDY    42  39  89 NE13      29.55R                  
DICKINSON      MOCLDY    58  35  42 N12       29.48R                  
MINOT          CLOUDY    51  38  60 S3        29.53R                  
BISMARCK       CLOUDY    57  33  40 E6        29.51F                  

SOUTHERN SASKATCHEWAN

  
CITY           SKY/WX    TMP DP  RH WIND       PRES   REMARKS
REGINA         MOCLDY    48  32  53 W10G20    29.51S                  
MOOSE JAW      MOCLDY    48  34  57 W13       29.53F                  
ESTEVAN        LGT RAIN  43  41  93 NW3       29.55R                  
SWIFT CURRENT  CLOUDY    45  32  61 NW8       29.54S                  

  
