ASUS41 KALY 220110
RWRALY

NEW YORK STATE HOURLY WEATHER ROUNDUP
NATIONAL WEATHER SERVICE ALBANY NY
900 PM EDT FRI OCT 21 2022

NOTE: "FAIR" INDICATES FEW OR NO CLOUDS BELOW 12,000 FEET WITH NO
SIGNIFICANT WEATHER AND/OR NO OBSTRUCTIONS TO VISIBILITY.

NYZ032-033-038>043-046>054-057>066-NYZ062>081-082-084-220200-
EAST

  
CITY           SKY/WX    TMP DP  RH WIND       PRES   REMARKS
ALBANY         CLEAR     51  31  46 S3        30.10R                  
GLENS FALLS    CLEAR     35  31  85 CALM      30.09R                  
POUGHKEEPSIE   CLEAR     41  35  79 CALM      30.13R                  
NEWBURGH       CLEAR     46  34  61 CALM      30.13R                  
MONTGOMERY     CLEAR     38  33  82 CALM      30.13R                  
WHITE PLAINS   CLEAR     48  39  71 CALM      30.15R                  
ISLIP          CLEAR     48  43  82 CALM      30.16R                  
NEW YORK CITY  CLEAR     58  40  51 S7        30.15R                  
CENTRAL PARK   CLEAR     56  40  55 CALM      30.17S                  
$$

NYZ005>009-017-018-044>046-055-056-220200-
CENTRAL

  
CITY           SKY/WX    TMP DP  RH WIND       PRES   REMARKS
FULTON         CLEAR     53  30  41 S7        30.00R                  
SYRACUSE       PTCLDY    57  26  30 S14G24    30.02S                  
ROME           CLEAR     50  29  44 E8        30.07R                  
ELMIRA         CLEAR     39  30  70 NW5       30.06R                  
BINGHAMTON     CLEAR     48  25  40 S8        30.08R                  
MONTICELLO     CLEAR     47  30  51 CALM      30.14R                  
$$

NYZ026>034-041>043-087-220200-
NORTH

  
CITY           SKY/WX    TMP DP  RH WIND       PRES   REMARKS
WATERTOWN      CLEAR     57  29  34 S8        29.97R                  
FORT DRUM      NOT AVBL                                               
OGDENSBURG     FAIR      52  30  43 S9        29.93R                  
MASSENA        CLEAR     52  29  41 S8        29.97R                  
SARANAC LAKE   CLEAR     39  29  67 SW5       30.02S                  
PLATTSBURGH    CLEAR     52  31  44 S7        30.04R                  
$$

NYZ001>004-010>016-019>021-085-220200-
WEST

  
CITY           SKY/WX    TMP DP  RH WIND       PRES   REMARKS
NIAGARA FALLS  CLEAR     58  36  43 S13       29.92R                  
BUFFALO        PTCLDY    58  32  37 S16       29.94R                  
DUNKIRK        CLEAR     59  30  33 S16G33    29.94R                  
JAMESTOWN      CLEAR     51  31  46 S12       30.00R                  
WELLSVILLE     CLEAR     53  28  38 S10       30.04R                  
ROCHESTER      CLEAR     54  31  41 S8        29.96S                  
PENN YAN       CLEAR     53  28  38 S9        30.02S                  
$$

             KEY
       WCI = WIND CHILL INDEX
       VSB = VISIBILITY
       HX  = HEAT INDEX
$$
  
