ASUS41 KOKX 212305
RWROKX

Regional Weather Roundup
National Weather Service New York NY
700 PM EDT FRI OCT 21 2022

Note: "FAIR" indicates few or no clouds below 12,000 feet with no
significant weather and/or obstructions to visibility.

NYZ071-072-176-178-NJZ106-104-220000-
New York City Metro Area
  
CITY           SKY/WX    TMP DP  RH WIND       PRES   REMARKS
Central Park   CLEAR     57  32  38 VRB5      30.16R                  
World Trd Ctr  NOT AVBL                                               
Bronx Lehman C   N/A     59  32  36 S8          N/A                   
LaGuardia Arpt PTCLDY    58  33  39 S9        30.13R                  
Queens College   N/A     57  39  51 S8          N/A                   
Kennedy Intl   PTCLDY    54  43  66 S7        30.15R                  
Breezy Point     N/A     59 N/A N/A S9          N/A                   
Brooklyn Coll    N/A     57  41  54 SE6         N/A                   
Staten Island    N/A     55  41  58 SE5         N/A                   
Newark/Liberty CLEAR     59  38  45 SE6       30.13R                  
Teterboro      CLEAR     55  34  45 S5        30.12R                  
$$
 
NYZ177-179-078>081-220000-
Long Island New York
  
CITY           SKY/WX    TMP DP  RH WIND       PRES   REMARKS
Jones Beach      N/A     57 N/A N/A S8          N/A                   
Wantagh          N/A     55  45  67 S3          N/A                   
Hempstead      NOT AVBL                                               
Matinecock Pt    N/A     55 N/A N/A S6          N/A                   
Farmingdale    CLEAR     54  42  64 S6        30.15R                  
MacArthur/ISP  CLEAR     55  45  68 S5        30.14R                  
Stony Brook      N/A     52  45  76 S3          N/A                   
Shirley        CLEAR     51  44  77 CALM      30.15R                  
Mt Sinai Harb    N/A     54 N/A N/A S6          N/A                   
Westhampton    CLEAR     56  47  71 SW3       30.16R                  
East Hampton   FAIR      55  45  68 S5        30.14S                  
Southold         N/A     52  46  82 SW3         N/A                   
Montauk          N/A     58  48  69 VRB3      30.16R                  
$$
 
NYZ052-065-067-220000-
Hudson Valley
  
CITY           SKY/WX    TMP DP  RH WIND       PRES   REMARKS
White Plains   CLEAR     49  40  71 CALM      30.13R                  
Larchmont Harb   N/A     57 N/A N/A S12         N/A                   
Croton On Huds   N/A     54 N/A N/A E3          N/A                   
Somers           N/A     52  32  46 S5          N/A                   
Brewster         N/A     46  34  61 N1          N/A                   
Newburgh       CLEAR     55  32  41 CALM      30.10R                  
Montgomery     CLEAR     46  35  65 CALM      30.10R                  
Otisville        N/A     48  34  57 CALM        N/A                   
Warwick          N/A     48  36  61 S6          N/A                   
Suffern          N/A     50  34  53 S2          N/A                   
Poughkeepsie   CLEAR     49  36  61 CALM      30.10R                  
Albany         CLEAR     54  30  40 SE7       30.08R                  
$$
 
NJZ001-105-106-008-010-013-015-019>022-104-220000-
New Jersey
  
CITY           SKY/WX    TMP DP  RH WIND       PRES   REMARKS
Newark/Liberty CLEAR     59  38  45 SE6       30.13R                  
Teterboro      CLEAR     55  34  45 S5        30.12R                  
Caldwell       CLEAR     57  33  40 S3        30.13R                  
Somerville     CLEAR     49  38  65 CALM      30.11R                  
Linden         FAIR      57  38  50 S5        30.14R                  
Perth Amboy      N/A     57 N/A N/A S8          N/A                   
Sussex         CLEAR     50  36  58 CALM      30.12R                  
Andover          N/A     50  40  68 CALM      30.12R                  
Trenton        CLEAR     56  31  38 SW3       30.12R                  
Millville      CLEAR     50  40  68 CALM      30.14R                  
Atlantic City  CLEAR     56  44  64 S3        30.15R                  
Wrightstown    CLEAR     53  36  51 SE6       30.13R                  
Toms River     NOT AVBL                                               
Belmar         CLEAR     54  42  64 SE5       30.16R                  
$$
 
PAZ047>061-062-071-220000-
Eastern Pennsylvania
  
CITY           SKY/WX    TMP DP  RH WIND       PRES   REMARKS
Philadelphia   CLEAR     57  36  45 S5        30.14R                  
Allentown      CLEAR     54  31  41 S5        30.11R                  
Scranton       CLEAR     55  28  35 CALM      30.08R                  
$$

CTZ002-004>006-009-010-012-RIZ004-006-007-MAZ004-011-015-220000-
Southern New England

 In CT
  
CITY           SKY/WX    TMP DP  RH WIND       PRES   REMARKS
Bradley Intl   PTCLDY    55  29  36 S6        30.12R                  
Hartford       CLEAR     53  36  52 S6        30.13R                  
Danbury        CLEAR     49  35  58 CALM      30.14R                  
Wtrbury/Oxford CLEAR     51  32  48 S5        30.14R                  
Norwalk Harbor   N/A     57 N/A N/A S12         N/A                   
Bridgeport     CLEAR     53  41  63 SE3       30.14R                  
Meriden        CLEAR     48  35  60 CALM      30.14R                  
New Haven      CLEAR     49  39  68 CALM      30.14R                  
Chester        FAIR      50  39  66 S5        30.14R                  
Groton         CLEAR     60  48  64 SW14      30.14R                  
Willimantic    CLEAR     52  41  66 CALM      30.14R                  

 In RI
  
CITY           SKY/WX    TMP DP  RH WIND       PRES   REMARKS
Providence     CLEAR     54  44  69 S5        30.15R                  
Block Island   CLEAR     57  44  62 SW8       30.16R                  
Westerly       CLEAR     58  47  66 S9        30.15R                  
 
In MA
  
CITY           SKY/WX    TMP DP  RH WIND       PRES   REMARKS
Boston         NOT AVBL                                               
Worcester      CLEAR     50  33  52 SW6       30.12R                  
Westfield      CLEAR     49  33  54 CALM      30.11R                  
Provincetown   CLEAR     57  48  72 S10       30.16R                  
Nantucket      CLEAR     58  48  69 S9        30.18R                  
$$

ANZ330-335-338-340-345-350-353-355-220000-
Coastal Marine Observations

  
STATION/POSITION TIME  SKY/WX   TEMP    WIND        PRES    VSBY  WAVE
                                AIR SEA DIR/SP/G                  HT/PER
                 (UTC)          (F)     (DEG/KT/KT) (MB)    (MI)  (FT/S)
NY Harb Entrance 2240               62  180/ 12/ 14 1019.5
20 S Fire Island 2240               63              1019.8
Great South Bay  2145            58     220/ 10/ 12   N/A
23 SSW Montauk P 2240            60     200/ 10/ 12 1021.1
15 E Barnegat Li 2226               63                N/A           2/ 8
Hudson Canyon    2250            61 66  170/  4/  8 1020.5          2/ 7
Kings Point      2230               61  150/  8/ 11 1020.3
Execution Rocks  2215            61 61  180/  8       N/A
Western LI Sound 2215            61     180/ 10/ 12   N/A
Central LI Sound NOT AVBL
Robbins Reef     2230                   170/ 13/ 16 1020.0
$$


>>>>>>>>>>>>>>>>>>>>>>>>>>>> KEY <<<<<<<<<<<<<<<<<<<<<<<<<<<
>                                                          <
>     SKY/WX - Sky Condition/Present Weather               <
>     TMP    - Temperature in Fahrenheit                   <
>     DP     - Dew Point in Fahrenheit                     <
>     RH     - Relative Humidity in Percent                <
>     WIND   - Direction (from) and Speed in MPH           <
>     PRES   - Mean Sea Level Pressure (inches of Hg)      <
>     WCI    - Wind Chill Index                            <
>     VSB    - Visibility in Miles                         <
>     HX     - Heat Index                                  <
>     TC     - Temperature in Celsius                      <
>     VRB    - Variable Wind Direction                     <
>                                                          <
>>>>>>>>>>>>>>>>>>>>>>>>>>>> KEY <<<<<<<<<<<<<<<<<<<<<<<<<<<
  
