ASUS41 KBGM 220110
RWRBGM

REGIONAL WEATHER ROUNDUP
NATIONAL WEATHER SERVICE BINGHAMTON NY
900 PM EDT FRI OCT 21 2022

Note: "fair" indicates few or no clouds below 12,000 feet with no
significant weather and/or obstructions to visibility.

* = Station(s) that does not report precipitation, such as rain, 
snow, etc, also no thunder or fog.

NYZ009-015>018-022>025-036-037-044>046-055>057-062-220200
...Central New York...
  
CITY           SKY/WX    TMP DP  RH WIND       PRES   REMARKS
Binghamton     CLEAR     48  25  40 S8        30.08R                  
Cortland       FAIR      46  28  49 SW5       30.07R                  
Dansville      CLEAR     51  31  46 SE6       30.01R                  
Elmira         CLEAR     39  30  70 NW5       30.06R                  
Endicott       CLEAR     41  32  70 CALM      30.10                   
Ithaca         CLEAR     49  28  44 S8        30.07R                  
Hamilton       CLEAR     43  28  56 SE9       30.08R                  
Monticello     CLEAR     47  30  51 CALM      30.14R                  
Norwich        CLEAR     39  32  75 S5        30.12R                  
Oneonta          N/A     46  25  42 SW3       30.10R                  
Penn Yan       CLEAR     53  28  38 S9        30.02S                  
Rome           CLEAR     50  29  44 E8        30.07R                  
Seneca Falls   CLEAR     54  32  43 S15G21    30.02R                  
Sidney         CLEAR     39  30  70 CALM      30.11R                  
Skaneateles      N/A     54  27  35 S10G25    30.02S                  
Syracuse       PTCLDY    57  26  30 S14G24    30.02S                  
$$
 
PAZ038>040-043-044-047-048-072-220200
...Northeast Pennsylvania...
  
CITY           SKY/WX    TMP DP  RH WIND       PRES   REMARKS
Hazleton       CLEAR     46  30  53 CALM      30.15R                  
Scranton       CLEAR     46  31  55 CALM      30.12R                  
$$
&&
KEY
WCI = Wind Chill Index
VSB = Visibility
HX  = Heat Index
$$
  
