ASUS41 KALY 220010
RWRALY

NEW YORK STATE HOURLY WEATHER ROUNDUP
NATIONAL WEATHER SERVICE ALBANY NY
800 PM EDT FRI OCT 21 2022

NOTE: "FAIR" INDICATES FEW OR NO CLOUDS BELOW 12,000 FEET WITH NO
SIGNIFICANT WEATHER AND/OR NO OBSTRUCTIONS TO VISIBILITY.

NYZ032-033-038>043-046>054-057>066-NYZ062>081-082-084-220100-
EAST

  
CITY           SKY/WX    TMP DP  RH WIND       PRES   REMARKS
ALBANY         CLEAR     53  30  41 SE3       30.09R                  
GLENS FALLS    CLEAR     39  33  79 CALM      30.08R                  
POUGHKEEPSIE   CLEAR     45  36  70 CALM      30.12R                  
NEWBURGH       CLEAR     50  36  57 CALM      30.12R                  
MONTGOMERY     CLEAR     43  34  70 CALM      30.11R                  
WHITE PLAINS   CLEAR     52  36  54 S6        30.14R                  
ISLIP          CLEAR     53  45  74 CALM      30.15R                  
NEW YORK CITY  CLEAR     57  40  52 S7        30.14R                  
CENTRAL PARK   CLEAR     57  41  55 VRB3      30.17R                  
$$

NYZ005>009-017-018-044>046-055-056-220100-
CENTRAL

  
CITY           SKY/WX    TMP DP  RH WIND       PRES   REMARKS
FULTON         CLEAR     54  30  40 CALM      29.99S                  
SYRACUSE       PTCLDY    54  28  36 SE8       30.02R                  
ROME           CLEAR     51  29  42 E7        30.06R                  
ELMIRA         CLEAR     45  30  55 W5        30.05R                  
BINGHAMTON     CLEAR     49  25  39 SW7       30.07R                  
MONTICELLO     CLEAR     49  30  48 S3        30.12R                  
$$

NYZ026>034-041>043-087-220100-
NORTH

  
CITY           SKY/WX    TMP DP  RH WIND       PRES   REMARKS
WATERTOWN      CLEAR     56  30  37 S8        29.95S                  
FORT DRUM      NOT AVBL                                               
OGDENSBURG     FAIR      54  30  40 S9        29.93S                  
MASSENA        CLEAR     51  29  42 S8        29.96S                  
SARANAC LAKE   CLEAR     37  29  72 CALM      30.02R                  
PLATTSBURGH    CLEAR     51  31  46 S5        30.03R                  
$$

NYZ001>004-010>016-019>021-085-220100-
WEST

  
CITY           SKY/WX    TMP DP  RH WIND       PRES   REMARKS
NIAGARA FALLS  CLEAR     59  36  42 S13       29.91R                  
BUFFALO        PTCLDY    57  32  38 S10       29.93R                  
DUNKIRK        CLEAR     60  31  33 S17G30    29.93R                  
JAMESTOWN      CLEAR     52  31  44 S10       29.99R                  
WELLSVILLE     CLEAR     54  27  35 S9        30.03R                  
ROCHESTER      CLEAR     57  31  37 S8        29.96R                  
PENN YAN       CLEAR     54  29  38 S9        30.02R                  
$$

             KEY
       WCI = WIND CHILL INDEX
       VSB = VISIBILITY
       HX  = HEAT INDEX
$$
  
