ASUS44 KLIX 231711
RWRLIX
NEW ORLEANS REGIONAL WEATHER ROUNDUP
NATIONAL WEATHER SERVICE NEW ORLEANS LA
1200 PM CDT SUN OCT 23 2022

NOTE: "FAIR" INDICATES FEW OR NO CLOUDS BELOW 12,000 FEET WITH NO
      SIGNIFICANT WEATHER AND/OR OBSTRUCTIONS TO VISIBILITY.
      SKY/WX - SKY CONDITION AND SIGNIFICANT WEATHER.
      TMP - AIR TEMPERATURE.     DP    - DEWPOINT TEMPERATURE.
      RH  - RELATIVE HUMIDITY.   PRES  - PRESSURE.
      HI  - HEAT INDEX.          WCI   - WIND CHILL INDEX.

*  THESE STATIONS ARE NOT NWS OR FAA STATIONS AND ARE NOT UNDER
   NWS QUALITY CONTROL. 

LAZ038-048-061-063-065>067-069-076-077-231800-
SOUTHEAST LOUISIANA
  
CITY           SKY/WX    TMP DP  RH WIND       PRES   REMARKS
N.O. INTL ARPT MOSUNNY   80  59  48 SE16      30.12F                  
N.O. DWNTWN HE FAIR      78  58  49 SE9       30.13F                  
N.O. LAKEFRONT SUNNY     80  56  43 SE15      30.13F                  
RESERVE*       FAIR      79  57  47 E10       30.12S                  
SLIDELL        SUNNY     79  56  45 SE9       30.13F                  
BATON ROUGE    CLOUDY    80  60  50 SE12      30.09F                  
BOOTHVILLE*    PTSUNNY   82  57  42 E9        30.14F                  
BELLE CHASSE*  MOSUNNY   79  59  50 E14       30.12F                  
BOGALUSA*      FAIR      80  57  45 S9        30.14F                  
GALLIANO*      SUNNY     79  59  50 E13G18    30.12F                  
NEW ROADS*     FAIR      79  59  49 SE12G18   30.09F                  
GONZALES*      FAIR      81  61  50 SE7G16    30.10S                  
HAMMOND*       SUNNY     79  57  47 SE14G20   30.13S                  
HOUMA*         SUNNY     81  63  54 SE18      30.10F                  

$$

MSZ070-077-080>082-231800-
SOUTHERN MISSISSIPPI
  
CITY           SKY/WX    TMP DP  RH WIND       PRES   REMARKS
MCCOMB         MOSUNNY   77  57  50 S15       30.11F                  
GULFPORT       SUNNY     76  60  57 SE12      30.15F                  
BILOXI         SUNNY     76  56  48 SE13      30.13F                  
PASCAGOULA     SUNNY     78  55  44 E9        30.16F                  
STENNIS ARPT*  MOSUNNY   79  61  53 SE12      30.15S                  

$$

COASTAL OBSERVATIONS
LAKE AND NEARSHORE STATIONS
  
STATION/POSITION TIME  SKY/WX   TEMP    WIND        PRES    WAVE
                                AIR SEA DIR/SP/G            HT/PER
                 (UTC)          (F)     (DEG/KT/KT) (MB)    (FT/S)
WAVELAND YACHT   1624               67  120/ 12/ 13 1021.4
GRAND ISLE       1624               73              1020.4
SOUTHWEST PASS   1630                               1018.7
NEW CANAL        1624               75  140/  2/ 12 1019.5
SHELL BEACH      1624               65  100/ 16/ 17 1020.9

OFFSHORE STATIONS
  
STATION/POSITION TIME  SKY/WX   TEMP    WIND        PRES    WAVE
                                AIR SEA DIR/SP/G            HT/PER
                 (UTC)          (F)     (DEG/KT/KT) (MB)    (FT/S)
64 S DAUPHIN ISL 1650            75 78   80/ 10/ 14 1020.8    2/ 3
SW PASS ENTRANCE 1630            76 76                N/A     2/ 4
LA OFFSHORE OIL  1628                                 N/A     2

$$

  
