ASUS44 KLCH 232010
RWRLCH
REGIONAL WEATHER ROUNDUP
NATIONAL WEATHER SERVICE LAKE CHARLES LA
300 PM CDT SUN OCT 23 2022

Note: "fair" indicates few or no clouds below 12,000 feet with no
significant weather and/or obstructions to visibility.


ACROSS SOUTHEAST TEXAS
  
CITY           SKY/WX    TMP DP  RH WIND       PRES   REMARKS
BEAUMONT       CLOUDY    82  68  62 SE15G28   29.93F                  
BEAUMONT CITY  RAIN      75  68  78 S9        29.94F                  
ORANGE         CLOUDY    84  67  57 SE9G18    29.97F                  
JASPER         PTSUNNY   82  63  51 S12G20    29.92F                  
$$

ACROSS CENTRAL LOUISIANA
  
CITY           SKY/WX    TMP DP  RH WIND       PRES   REMARKS
LEESVILLE      CLOUDY    82  61  49 SE14      29.95F                  
FULLERTON      MOCLDY    82  61  48 VRB5      29.94F                  
ALEXANDRIA INT PTSUNNY   85  59  41 S15G24    29.96F                  
ESLER FIELD    PTSUNNY   83  61  47 S13G21    29.98F                  
DERIDDER       FAIR      83  62  48 S14G22    29.96F                  
OAKDALE        MOCLDY    86  61  42 SE12G20   29.98F                  
OPELOUSAS      CLOUDY    81  60  49 SE18      30.00F                  
$$

ACROSS SOUTHWEST AND SOUTH CENTRAL LOUISIANA
  
CITY           SKY/WX    TMP DP  RH WIND       PRES   REMARKS
DEQUINCY       FAIR      81  64  54 S15G23    29.97F                  
SULPHUR        CLOUDY    81  66  60 SE20G26   29.98F                  
LAKE CHARLES   PTSUNNY   81  64  56 S25G32    29.97F                  
CHENNAULT INT  PTSUNNY   81  64  57 S22G30    29.97F                  
JENNINGS       NOT AVBL                                               
LAFAYETTE      CLOUDY    82  61  48 S16G29    30.01F                  
NEW IBERIA     CLOUDY    81  59  47 SE17G26   30.01F                  
ABBEVILLE      CLOUDY    80  56  43 SE9G25    30.02F                  
PATTERSON      MOSUNNY   80  60  50 SE14G21   30.04F                  
SALT POINT     NOT AVBL                                               
$$

SELECTED SITES ACROSS THE REGION
  
CITY           SKY/WX    TMP DP  RH WIND       PRES   REMARKS
HOUSTON BUSH   PTSUNNY   85  61  44 S22G29    29.89F                  
HOUSTON HOBBY  PTSUNNY   86  59  39 S22G33    29.89F                  
GALVESTON      MOSUNNY   83  69  62 S16       29.92F                  
COLLEGE STAT   PTSUNNY   87  61  41 S23G35    29.84F                  
CONROE         CLOUDY    85  57  38 S20G30    29.89F                  
HUNTSVILLE     MOSUNNY   87  54  32 MISG      29.88F                  
LUFKIN         PTSUNNY   87  59  38 S20G35    29.90F                  
SHREVEPORT     MOSUNNY   86  61  42 S17G32    29.90F                  
MONROE         PTSUNNY   83  59  44 S14G24    29.97F                  
NATCHEZ MS     MOSUNNY   82  59  45 SE14G23   30.02F                  
BATON ROUGE    MOSUNNY   84  60  44 SE14      30.02F                  
N.O. INTL ARPT MOSUNNY   81  58  45 SE8G21    30.05F                  
SLIDELL        SUNNY     81  58  45 S10G17    30.06F                  
$$

MARINE REPORTS
  
STATION/POSITION TIME  SKY/WX   TEMP    WIND        PRES    VSBY
                                AIR SEA DIR/SP/G
                 (UTC)          (F)     (DEG/KT/KT) (MB)    (MI)
BUOY 30 S HIGH I NOT AVBL
SEA RIM ST PARK  1900            77     130/ 13/ 16 1015.0F
PORT ARTHUR      1930               72  120/ 10/ 13 1014.5
TEXAS POINT      1930               72  130/ 13/ 15 1013.5
CALCASIEU PASS   1930               72  140/ 13/ 17 1015.2
LK CHARLES BEACH 1930               76              1015.2
MARSH ISLAND     NOT AVBL
FRESH WATER LOCK NOT AVBL
AMERADA PASS     1930               72  120/  6/ 13 1017.3
$$
  
