ASUS44 KLCH 231810
RWRLCH
REGIONAL WEATHER ROUNDUP
NATIONAL WEATHER SERVICE LAKE CHARLES LA
100 PM CDT SUN OCT 23 2022

Note: "fair" indicates few or no clouds below 12,000 feet with no
significant weather and/or obstructions to visibility.


ACROSS SOUTHEAST TEXAS
  
CITY           SKY/WX    TMP DP  RH WIND       PRES   REMARKS
BEAUMONT       PTSUNNY   84  66  54 SE18G29   29.98F                  
BEAUMONT CITY  MOCLDY    83  63  49 SE15      29.98F                  
ORANGE         MOCLDY    86  65  48 SE13G21   30.01F                  
JASPER         PTSUNNY   81  66  61 S8G22     29.97F                  
$$

ACROSS CENTRAL LOUISIANA
  
CITY           SKY/WX    TMP DP  RH WIND       PRES   REMARKS
LEESVILLE      PTSUNNY   82  62  49 S17G23    29.99F                  
FULLERTON      MOCLDY    83  61  47 VRB5      29.98F                  
ALEXANDRIA INT PTSUNNY   82  60  47 S17G24    30.00F                  
ESLER FIELD    MOSUNNY   83  61  47 SE15G24   30.02F                  
DERIDDER       FAIR      82  62  50 S15       30.01F                  
OAKDALE        MOCLDY    82  61  47 S8        30.03S                  
OPELOUSAS      MOCLDY    82  60  48 SE18      30.04F                  
$$

ACROSS SOUTHWEST AND SOUTH CENTRAL LOUISIANA
  
CITY           SKY/WX    TMP DP  RH WIND       PRES   REMARKS
DEQUINCY       FAIR      82  60  48 S13       30.00F                  
SULPHUR        MOCLDY    83  63  49 SE21G26   30.02F                  
LAKE CHARLES   MOSUNNY   84  60  44 S21G31    30.01F                  
CHENNAULT INT  PTSUNNY   82  64  54 SE15G23   30.01F                  
JENNINGS       NOT AVBL                                               
LAFAYETTE      PTSUNNY   81  62  52 VRB7G18   30.05F                  
NEW IBERIA     PTSUNNY   83  60  45 SE16G25   30.05F                  
ABBEVILLE      FAIR      81  56  42 SE18G29   30.06F                  
PATTERSON      MOSUNNY   80  61  52 SE12G21   30.07F                  
SALT POINT     NOT AVBL                                               
$$

SELECTED SITES ACROSS THE REGION
  
CITY           SKY/WX    TMP DP  RH WIND       PRES   REMARKS
HOUSTON BUSH   PTSUNNY   84  59  42 S17G31    29.94F                  
HOUSTON HOBBY  PTSUNNY   86  55  34 S22G32    29.95F                  
GALVESTON      CLOUDY    81  70  69 S9        29.99F                  
COLLEGE STAT   MOSUNNY   84  63  49 S23G29    29.91F                  
CONROE         PTSUNNY   86  58  38 S23G33    29.95F                  
HUNTSVILLE     PTSUNNY   84  59  42 S14G30    29.94F                  
LUFKIN         PTSUNNY   85  58  39 S16G29    29.95F                  
SHREVEPORT     MOSUNNY   84  59  42 S18G26    29.95F                  
MONROE         MOSUNNY   81  59  47 S14G25    30.02F                  
NATCHEZ MS     MOSUNNY   80  60  50 SE16G23   30.07F                  
BATON ROUGE    MOSUNNY   84  60  44 SE13G21   30.07F                  
N.O. INTL ARPT MOSUNNY   80  59  48 SE13      30.09F                  
SLIDELL        SUNNY     81  57  43 S14G22    30.10F                  
$$

MARINE REPORTS
  
STATION/POSITION TIME  SKY/WX   TEMP    WIND        PRES    VSBY
                                AIR SEA DIR/SP/G
                 (UTC)          (F)     (DEG/KT/KT) (MB)    (MI)
BUOY 30 S HIGH I NOT AVBL
SEA RIM ST PARK  1700            77     130/ 10/ 13 1016.3S
PORT ARTHUR      1730               72  130/  8/ 12 1015.9
TEXAS POINT      1730               72  110/ 11/ 12 1015.2
CALCASIEU PASS   1730               71  140/ 11/ 14 1016.8
LK CHARLES BEACH 1730               75              1016.3
MARSH ISLAND     NOT AVBL
FRESH WATER LOCK NOT AVBL
AMERADA PASS     1730               71  120/  8/ 13 1018.6
$$
  
