ASUS44 KLIX 232011
RWRLIX
NEW ORLEANS REGIONAL WEATHER ROUNDUP
NATIONAL WEATHER SERVICE NEW ORLEANS LA
300 PM CDT SUN OCT 23 2022

NOTE: "FAIR" INDICATES FEW OR NO CLOUDS BELOW 12,000 FEET WITH NO
      SIGNIFICANT WEATHER AND/OR OBSTRUCTIONS TO VISIBILITY.
      SKY/WX - SKY CONDITION AND SIGNIFICANT WEATHER.
      TMP - AIR TEMPERATURE.     DP    - DEWPOINT TEMPERATURE.
      RH  - RELATIVE HUMIDITY.   PRES  - PRESSURE.
      HI  - HEAT INDEX.          WCI   - WIND CHILL INDEX.

*  THESE STATIONS ARE NOT NWS OR FAA STATIONS AND ARE NOT UNDER
   NWS QUALITY CONTROL. 

LAZ038-048-061-063-065>067-069-076-077-232100-
SOUTHEAST LOUISIANA
  
CITY           SKY/WX    TMP DP  RH WIND       PRES   REMARKS
N.O. INTL ARPT MOSUNNY   81  58  45 SE8G21    30.05F                  
N.O. DWNTWN HE FAIR      80  58  46 S8        30.07F                  
N.O. LAKEFRONT SUNNY     79  55  43 SE13G21   30.06F                  
RESERVE*       FAIR      81  55  41 S12       30.05F                  
SLIDELL        SUNNY     81  58  45 S10G17    30.06F                  
BATON ROUGE    MOSUNNY   84  60  44 SE14      30.02F                  
BOOTHVILLE*    MOSUNNY   82  59  45 E6        30.08S                  
BELLE CHASSE*  MOSUNNY   79  59  50 E15       30.05F                  
BOGALUSA*      FAIR      83  54  36 S9        30.06F                  
GALLIANO*      SUNNY     80  60  51 E8        30.06F                  
NEW ROADS*     PTSUNNY   82  60  48 SE8G16    30.02F                  
GONZALES*      CLOUDY    81  59  46 SE10G16   30.03F                  
HAMMOND*       NOT AVBL                                               
HOUMA*         SUNNY     81  63  54 SE16      30.04F                  

$$

MSZ070-077-080>082-232100-
SOUTHERN MISSISSIPPI
  
CITY           SKY/WX    TMP DP  RH WIND       PRES   REMARKS
MCCOMB         MOSUNNY   80  55  42 S8        30.04F                  
GULFPORT       SUNNY     77  60  55 SE12      30.08F                  
BILOXI         SUNNY     78  57  48 SE12      30.07F                  
PASCAGOULA     SUNNY     79  55  43 SE9       30.09F                  
STENNIS ARPT*  SUNNY     79  57  47 SE13G20   30.07F                  

$$

COASTAL OBSERVATIONS
LAKE AND NEARSHORE STATIONS
  
STATION/POSITION TIME  SKY/WX   TEMP    WIND        PRES    WAVE
                                AIR SEA DIR/SP/G            HT/PER
                 (UTC)          (F)     (DEG/KT/KT) (MB)    (FT/S)
WAVELAND YACHT   1930               69  120/ 11/ 13 1018.8
GRAND ISLE       1930               73              1018.1
SOUTHWEST PASS   1930                               1016.5
NEW CANAL        1930               76  140/  5/ 15 1017.1
SHELL BEACH      1930               66  110/ 16/ 18 1018.4

OFFSHORE STATIONS
  
STATION/POSITION TIME  SKY/WX   TEMP    WIND        PRES    WAVE
                                AIR SEA DIR/SP/G            HT/PER
                 (UTC)          (F)     (DEG/KT/KT) (MB)    (FT/S)
64 S DAUPHIN ISL 1950            75 78   90/ 10/ 14 1018.5    2/ 5
SW PASS ENTRANCE 1930            75 76                N/A     2/ 4
LA OFFSHORE OIL  1928                                 N/A     2

$$

  
