ASUS44 KLIX 232111
RWRLIX
NEW ORLEANS REGIONAL WEATHER ROUNDUP
NATIONAL WEATHER SERVICE NEW ORLEANS LA
400 PM CDT SUN OCT 23 2022

NOTE: "FAIR" INDICATES FEW OR NO CLOUDS BELOW 12,000 FEET WITH NO
      SIGNIFICANT WEATHER AND/OR OBSTRUCTIONS TO VISIBILITY.
      SKY/WX - SKY CONDITION AND SIGNIFICANT WEATHER.
      TMP - AIR TEMPERATURE.     DP    - DEWPOINT TEMPERATURE.
      RH  - RELATIVE HUMIDITY.   PRES  - PRESSURE.
      HI  - HEAT INDEX.          WCI   - WIND CHILL INDEX.

*  THESE STATIONS ARE NOT NWS OR FAA STATIONS AND ARE NOT UNDER
   NWS QUALITY CONTROL. 

LAZ038-048-061-063-065>067-069-076-077-232200-
SOUTHEAST LOUISIANA
  
CITY           SKY/WX    TMP DP  RH WIND       PRES   REMARKS
N.O. INTL ARPT MOSUNNY   79  58  48 SE12G18   30.04F                  
N.O. DWNTWN HE FAIR      80  57  45 VRB7      30.06F                  
N.O. LAKEFRONT SUNNY     80  54  40 SE13      30.05F                  
RESERVE*       FAIR      81  55  41 S13       30.04S                  
SLIDELL        SUNNY     79  56  45 SE13      30.05F                  
BATON ROUGE    PTSUNNY   82  59  45 SE10      30.01F                  
BOOTHVILLE*    SUNNY     81  61  51 E6        30.07S                  
BELLE CHASSE*  MOSUNNY   78  57  48 E16       30.05S                  
BOGALUSA*      FAIR      82  55  38 S13       30.05F                  
GALLIANO*      SUNNY     79  59  50 E10       30.05F                  
NEW ROADS*     FAIR      80  59  49 SE8       30.01F                  
GONZALES*      PTSUNNY   81  58  46 SE9       30.02S                  
HAMMOND*       SUNNY     81  57  44 SE13      30.05S                  
HOUMA*         SUNNY     79  63  57 SE15      30.04S                  

$$

MSZ070-077-080>082-232200-
SOUTHERN MISSISSIPPI
  
CITY           SKY/WX    TMP DP  RH WIND       PRES   REMARKS
MCCOMB         PTSUNNY   80  55  42 S8        30.03F                  
GULFPORT       SUNNY     77  59  53 SE12      30.07F                  
BILOXI         SUNNY     77  57  49 SE12      30.06F                  
PASCAGOULA     SUNNY     78  53  41 SE5       30.08F                  

$$

COASTAL OBSERVATIONS
LAKE AND NEARSHORE STATIONS
  
STATION/POSITION TIME  SKY/WX   TEMP    WIND        PRES    WAVE
                                AIR SEA DIR/SP/G            HT/PER
                 (UTC)          (F)     (DEG/KT/KT) (MB)    (FT/S)
WAVELAND YACHT   2030               69  120/  9/ 12 1018.7
GRAND ISLE       2030               73              1017.6
SOUTHWEST PASS   2030                               1016.2
NEW CANAL        2030               76  150/  5/ 13 1016.8
SHELL BEACH      2030               67  120/ 12/ 17 1018.2

OFFSHORE STATIONS
  
STATION/POSITION TIME  SKY/WX   TEMP    WIND        PRES    WAVE
                                AIR SEA DIR/SP/G            HT/PER
                 (UTC)          (F)     (DEG/KT/KT) (MB)    (FT/S)
64 S DAUPHIN ISL 2050            76 78   80/ 12/ 14 1018.2    2/ 6
SW PASS ENTRANCE 2030            75 76                N/A     2/ 3
LA OFFSHORE OIL  2028                                 N/A     3

$$

  
