ASUS44 KLIX 232011
RWRLA 
LOUISIANA WEATHER ROUNDUP
NATIONAL WEATHER SERVICE NEW ORLEANS LA
300 PM CDT SUN OCT 23 2022

NOTE: "FAIR" INDICATES FEW OR NO CLOUDS BELOW 12,000 FEET WITH NO
      SIGNIFICANT WEATHER AND/OR OBSTRUCTIONS TO VISIBILITY.
      SKY/WX - SKY CONDITION AND SIGNIFICANT WEATHER.
      TMP - AIR TEMPERATURE.    DP   - DEWPOINT TEMPERATURE.
      RH  - RELATIVE HUMIDITY.  PRES - PRESSURE.
      HX  - HEAT INDEX.         WCI  - WIND CHILL INDEX.

*  THESE STATIONS ARE NOT NWS OR FAA STATIONS AND ARE NOT UNDER
   NWS QUALITY CONTROL.

LAZ048-061-063-065-066-069-076-077-232100-
SOUTHEAST LOUISIANA
  
CITY           SKY/WX    TMP DP  RH WIND       PRES   REMARKS
N.O. INTL ARPT MOSUNNY   81  58  45 SE8G21    30.05F                  
N.O. DWNTWN HE FAIR      80  58  46 S8        30.07F                  
N.O. LAKEFRONT SUNNY     79  55  43 SE13G21   30.06F                  
RESERVE*       FAIR      81  55  41 S12       30.05F                  
SLIDELL        SUNNY     81  58  45 S10G17    30.06F                  
BATON ROUGE    MOSUNNY   84  60  44 SE14      30.02F                  
BOOTHVILLE*    MOSUNNY   82  59  45 E6        30.08S                  
BELLE CHASSE*  MOSUNNY   79  59  50 E15       30.05F                  
BOGALUSA*      FAIR      83  54  36 S9        30.06F                  
GALLIANO*      SUNNY     80  60  51 E8        30.06F                  
NEW ROADS*     PTSUNNY   82  60  48 SE8G16    30.02F                  
GONZALES*      CLOUDY    81  59  46 SE10G16   30.03F                  
HAMMOND*       NOT AVBL                                               
HOUMA*         SUNNY     81  63  54 SE16      30.04F                  

$$

LAZ041-044-053-054-232100-
SOUTHWEST LOUISIANA
  
CITY           SKY/WX    TMP DP  RH WIND       PRES   REMARKS
LAKE CHARLES   PTSUNNY   81  64  56 S25G32    29.97F                  
LAFAYETTE      CLOUDY    82  61  48 S16G29    30.01F                  
PATTERSON      MOSUNNY   80  60  50 SE14G21   30.04F                  
SALT POINT     NOT AVBL                                               
NEW IBERIA     CLOUDY    81  59  47 SE17G26   30.01F                  
CHENAULT AIRPK PTSUNNY   81  64  57 S22G30    29.97F                  

$$

LAZ027-028-232100-
CENTRAL LOUISIANA
  
CITY           SKY/WX    TMP DP  RH WIND       PRES   REMARKS
FORT POLK      CLOUDY    82  61  49 SE14      29.95F                  
ALEXANDRIA INT PTSUNNY   85  59  41 S15G24    29.96F                  
ALEXANDRIA     PTSUNNY   83  61  47 S13G21    29.98F                  

$$

LAZ001-002-232100-
NORTHWEST LOUISIANA
  
CITY           SKY/WX    TMP DP  RH WIND       PRES   REMARKS
SHREVEPORT     MOSUNNY   86  61  42 S17G32    29.90F                  
BARKSDALE AFB  MOSUNNY   84  57  39 S21       29.90F                  
DTN SHREVEPORT PTSUNNY   84  58  40 S21G30    29.91F                  

$$

LAZ014-016-232100-
NORTHEAST LOUISIANA
  
CITY           SKY/WX    TMP DP  RH WIND       PRES   REMARKS
MONROE         PTSUNNY   83  59  44 S14G24    29.97F                  
TALLULAH       MOSUNNY   85  58  39 S17G23    30.01F                  

$$

  
