ASUS44 KLIX 232111
RWRLA 
LOUISIANA WEATHER ROUNDUP
NATIONAL WEATHER SERVICE NEW ORLEANS LA
400 PM CDT SUN OCT 23 2022

NOTE: "FAIR" INDICATES FEW OR NO CLOUDS BELOW 12,000 FEET WITH NO
      SIGNIFICANT WEATHER AND/OR OBSTRUCTIONS TO VISIBILITY.
      SKY/WX - SKY CONDITION AND SIGNIFICANT WEATHER.
      TMP - AIR TEMPERATURE.    DP   - DEWPOINT TEMPERATURE.
      RH  - RELATIVE HUMIDITY.  PRES - PRESSURE.
      HX  - HEAT INDEX.         WCI  - WIND CHILL INDEX.

*  THESE STATIONS ARE NOT NWS OR FAA STATIONS AND ARE NOT UNDER
   NWS QUALITY CONTROL.

LAZ048-061-063-065-066-069-076-077-232200-
SOUTHEAST LOUISIANA
  
CITY           SKY/WX    TMP DP  RH WIND       PRES   REMARKS
N.O. INTL ARPT MOSUNNY   79  58  48 SE12G18   30.04F                  
N.O. DWNTWN HE FAIR      80  57  45 VRB7      30.06F                  
N.O. LAKEFRONT SUNNY     80  54  40 SE13      30.05F                  
RESERVE*       FAIR      81  55  41 S13       30.04S                  
SLIDELL        SUNNY     79  56  45 SE13      30.05F                  
BATON ROUGE    PTSUNNY   82  59  45 SE10      30.01F                  
BOOTHVILLE*    SUNNY     81  61  51 E6        30.07S                  
BELLE CHASSE*  MOSUNNY   78  57  48 E16       30.05S                  
BOGALUSA*      FAIR      82  55  38 S13       30.05F                  
GALLIANO*      SUNNY     79  59  50 E10       30.05F                  
NEW ROADS*     FAIR      80  59  49 SE8       30.01F                  
GONZALES*      PTSUNNY   81  58  46 SE9       30.02S                  
HAMMOND*       SUNNY     81  57  44 SE13      30.05S                  
HOUMA*         SUNNY     79  63  57 SE15      30.04S                  

$$

LAZ041-044-053-054-232200-
SOUTHWEST LOUISIANA
  
CITY           SKY/WX    TMP DP  RH WIND       PRES   REMARKS
LAKE CHARLES   PTSUNNY   80  64  58 SE22G33   29.97S                  
LAFAYETTE      PTSUNNY   80  60  50 S9G22     30.00F                  
PATTERSON        N/A     79  61  53 S12       30.03F                  
SALT POINT     NOT AVBL                                               
NEW IBERIA     CLOUDY    80  57  45 S16G24    30.00F                  
CHENAULT AIRPK PTSUNNY   81  64  57 S21G28    29.97S                  

$$

LAZ027-028-232200-
CENTRAL LOUISIANA
  
CITY           SKY/WX    TMP DP  RH WIND       PRES   REMARKS
FORT POLK      PTSUNNY   80  62  53 SE18G24   29.93F                  
ALEXANDRIA INT PTSUNNY   88  60  38 S20G26    29.94F                  
ALEXANDRIA     MOSUNNY   85  62  46 S9        29.95F                  

$$

LAZ001-002-232200-
NORTHWEST LOUISIANA
  
CITY           SKY/WX    TMP DP  RH WIND       PRES   REMARKS
SHREVEPORT     MOSUNNY   86  59  39 S18G30    29.88F                  
BARKSDALE AFB  MOSUNNY   85  56  36 S20       29.87F                  
DTN SHREVEPORT SUNNY     84  58  40 S14G30    29.89F                  

$$

LAZ014-016-232200-
NORTHEAST LOUISIANA
  
CITY           SKY/WX    TMP DP  RH WIND       PRES   REMARKS
MONROE         MOSUNNY   82  58  43 S12G23    29.96F                  
TALLULAH       PTSUNNY   82  57  42 S15G22    29.99F                  

$$

  
