ASUS44 KLIX 231910
RWRLA 
LOUISIANA WEATHER ROUNDUP
NATIONAL WEATHER SERVICE NEW ORLEANS LA
200 PM CDT SUN OCT 23 2022

NOTE: "FAIR" INDICATES FEW OR NO CLOUDS BELOW 12,000 FEET WITH NO
      SIGNIFICANT WEATHER AND/OR OBSTRUCTIONS TO VISIBILITY.
      SKY/WX - SKY CONDITION AND SIGNIFICANT WEATHER.
      TMP - AIR TEMPERATURE.    DP   - DEWPOINT TEMPERATURE.
      RH  - RELATIVE HUMIDITY.  PRES - PRESSURE.
      HX  - HEAT INDEX.         WCI  - WIND CHILL INDEX.

*  THESE STATIONS ARE NOT NWS OR FAA STATIONS AND ARE NOT UNDER
   NWS QUALITY CONTROL.

LAZ048-061-063-065-066-069-076-077-232000-
SOUTHEAST LOUISIANA
  
CITY           SKY/WX    TMP DP  RH WIND       PRES   REMARKS
N.O. INTL ARPT MOSUNNY   81  58  45 SE10      30.07F                  
N.O. DWNTWN HE FAIR      79  57  46 VRB7      30.09F                  
N.O. LAKEFRONT SUNNY     81  55  40 SE15      30.08F                  
RESERVE*       FAIR      81  57  44 S13       30.06F                  
SLIDELL        SUNNY     81  56  42 S13       30.08F                  
BATON ROUGE    MOSUNNY   83  60  45 S15G22    30.04F                  
BOOTHVILLE*    SUNNY     83  55  37 E7        30.09F                  
BELLE CHASSE*  MOSUNNY   79  59  50 E15       30.07F                  
BOGALUSA*      FAIR      83  56  39 S8        30.08F                  
GALLIANO*      SUNNY     81  61  50 E9        30.08F                  
NEW ROADS*     CLOUDY    81  60  48 SE9       30.04F                  
GONZALES*      PTSUNNY   82  59  45 SE8       30.04F                  
HAMMOND*       SUNNY     81  57  44 SE15      30.07F                  
HOUMA*         SUNNY     81  63  54 SE17      30.07F                  

$$

LAZ041-044-053-054-232000-
SOUTHWEST LOUISIANA
  
CITY           SKY/WX    TMP DP  RH WIND       PRES   REMARKS
LAKE CHARLES   MOSUNNY   83  64  52 S21G32    29.99F                  
LAFAYETTE      MOSUNNY   82  61  48 SE12G25   30.02F                  
PATTERSON      PTSUNNY   81  61  50 MISG      30.05F                  
SALT POINT     NOT AVBL                                               
NEW IBERIA     PTSUNNY   84  59  42 S18G26    30.02F                  
CHENAULT AIRPK PTSUNNY   84  64  51 S22G30    30.00F                  

$$

LAZ027-028-232000-
CENTRAL LOUISIANA
  
CITY           SKY/WX    TMP DP  RH WIND       PRES   REMARKS
FORT POLK      PTSUNNY   82  60  47 S17G24    29.96F                  
ALEXANDRIA INT PTSUNNY   84  60  44 S13       29.97F                  
ALEXANDRIA     PTSUNNY   82  60  47 S12       29.99F                  

$$

LAZ001-002-232000-
NORTHWEST LOUISIANA
  
CITY           SKY/WX    TMP DP  RH WIND       PRES   REMARKS
SHREVEPORT     PTSUNNY   88  59  37 S17G28    29.93F                  
BARKSDALE AFB  PTSUNNY   86  55  34 S17G29    29.93F                  
DTN SHREVEPORT PTSUNNY   84  57  39 S15G28    29.94F                  

$$

LAZ014-016-232000-
NORTHEAST LOUISIANA
  
CITY           SKY/WX    TMP DP  RH WIND       PRES   REMARKS
MONROE         MOSUNNY   84  58  40 S14G25    30.00F                  
TALLULAH       SUNNY     85  58  39 S17G24    30.03F                  

$$

  
