ASUS46 KEKA 220110
RWREKA
Eureka Area Weather Roundup
National Weather Service Eureka CA
600 PM PDT FRI OCT 21 2022

Note: "fair" indicates few or no clouds below 12,000 feet with no
significant weather and/or obstructions to visibility.

Southwest Oregon...
  
CITY           SKY/WX    TMP DP  RH WIND       PRES   REMARKS
MEDFORD        CLOUDY    69  50  50 NW9G20    29.79F                  
KLAMATH FALLS  MOCLDY    60  43  53 W15       29.82F                  
NORTH BEND     LGT RAIN  57  57 100 SW14      29.81F FOG              
ROSEBURG       CLOUDY    63  54  72 S5        29.78F                  
SEXTON SUMMIT  CLOUDY    54  49  83 CALM      29.89S                  
BROOKINGS      LGT RAIN  54  52  94 VRB3      29.91F FOG              

Northwest California...
  
CITY           SKY/WX    TMP DP  RH WIND       PRES   REMARKS
CRESCENT CITY  CLOUDY    60  51  72 SE3       29.92F                  
MCKINLEYVILLE  CLOUDY    59  50  72 SW5       29.92F                  
EUREKA         CLOUDY    58  32  37 N3        29.93F                  
FORTUNA        CLOUDY    57  48  72 W7        29.93F                  
WEAVERVILLE    NOT AVBL                                               
TRINITY CENTER NOT AVBL                                               
UKIAH          MOCLDY    73  46  38 VRB7G21   29.81R                  

North & Central California...
  
CITY           SKY/WX    TMP DP  RH WIND       PRES   REMARKS
YREKA          MOCLDY    70  43  37 W16G25    29.80F                  
MOUNT SHASTA   MOCLDY    64  40  41 CALM      29.82F                  
REDDING        MOCLDY    79  43  27 S6        29.72S                  
RED BLUFF      CLOUDY    79  45  29 S7        29.74S                  
CHICO          CLEAR     81  45  28 SE9       29.74F                  
YUBA CITY      PTCLDY    78  40  25 S10       29.72F                  
SACRAMENTO     PTCLDY    69  53  56 S8        29.76S                  
SANTA ROSA     MOCLDY    57  51  80 S9        29.84S                  
NAPA           MOCLDY    64  54  69 W7        29.81F                  
TRAVIS AFB     NOT AVBL                                               
SAN FRANCISCO  MOCLDY    61  52  72 W9        29.84S                  
OAKLAND        MOCLDY    60  53  77 W15       29.85F                  
STOCKTON       NOT AVBL                                               
SALINAS        CLOUDY    59  53  80 NW9       29.88F                  
MONTEREY       CLOUDY    57  52  83 SW5       29.88F                  

$$
  
