ASUS46 KSGX 220010
RWRSGX

SAN DIEGO HOURLY WEATHER ROUNDUP
NATIONAL WEATHER SERVICE SAN DIEGO CA
500 PM PDT FRI OCT 21 2022

NOTE: "FAIR" INDICATES FEW OR NO CLOUDS BELOW 12,000 FEET WITH NO 
SIGNIFICANT WEATHER AND/OR OBSTRUCTIONS TO VISIBILITY.

CAZ042-043-060-061-PZZ750-775-220100-

GREATER SAN DIEGO AREA
  
CITY           SKY/WX    TMP DP  RH WIND       PRES   REMARKS
SAN DIEGO AP   PTSUNNY   72  61  68 VRB7      29.87S                  
BROWN FIELD    SUNNY     70  60  70 VRB6      29.86S                  
MIRAMAR MCAS   MOSUNNY   71  61  70 SW10      29.85F                  
MONTGOMERY FLD MOSUNNY   71  61  70 SW9       29.86S                  
GILLESPIE FLD  SUNNY     73  61  64 SW9       29.85S                  
LEMON GROVE      N/A     70  63  79 SW6       29.83S                  

$$

NORTH SAN DIEGO COUNTY
  
CITY           SKY/WX    TMP DP  RH WIND       PRES   REMARKS
CAMP PENDLETON SUNNY     73  63  70 SW9       29.84S                  
OCEANSIDE AP   MOSUNNY   72  63  73 SW7       29.83F                  
OCEANSIDE HBR    N/A     70  65  83 CALM      29.91R                  
VISTA            N/A     73  64  72 SW3       29.82S                  
CARLSBAD       MOSUNNY   69  62  78 SW7       29.84F                  
ENCINITAS        N/A     71  65  81 W1          N/A                   
LA JOLLA SCRIP   N/A     70  63  78 CALM      29.84F                  
FALLBROOK      FAIR      72  61  68 S8        29.86S                  
ESCONDIDO        N/A     75  62  62 SW6       29.83S                  
SAN MARCOS       N/A     72  64  74 NW3       29.87S                  
RANCHO BERNARD   N/A     71  63  76 W12       29.83S                  
POWAY            N/A     77  63  61 SW3       29.85F                  

$$

EAST SAN DIEGO COUNTY
  
CITY           SKY/WX    TMP DP  RH WIND       PRES   REMARKS
RAMONA         SUNNY     76  58  53 W10       29.86F                  
SANTEE           N/A     76  63  63 CALM      29.80S                  
LA MESA          N/A     71  62  73 W1        29.79F                  
EL CAJON         N/A     73  63  69 NE8       29.72S                  
ALPINE           N/A     73  60  64 CALM      30.00F                  
DESCANSO N       N/A     73  55  53 SW5       29.84F                  

$$

ORANGE COUNTY AND THE LOS ANGELES BASIN
  
CITY           SKY/WX    TMP DP  RH WIND       PRES   REMARKS
JOHN WAYNE AP  MOSUNNY   73  63  70 SW8       29.84S                  
LAGUNA BEACH     N/A     72  66  80 CALM      29.83F                  
LAKE FOREST FR   N/A     76  60  56 W3        29.70F                  
SANTA ANA        N/A     74  65  73 S3        29.82S                  
HUNTINGTON BCH   N/A     73  66  78 CALM      29.83S                  
LOS ALAMITOS   FAIR      72  64  77 S9        29.81S                  
FULLERTON      SUNNY     75  61  61 SW6       29.82F                  
LONG BEACH     SUNNY     72  62  71 S8        29.84S                  
L.A. AP        PTSUNNY   67  63  87 W10       29.84F                  
L.A. DOWNTOWN  SUNNY     72  63  73 CALM      29.84F                  

$$

THE INLAND EMPIRE
  
CITY           SKY/WX    TMP DP  RH WIND       PRES   REMARKS
CORONA         SUNNY     78  61  55 W12       29.82F                  
UPLAND AP      FAIR      79  55  44 SW13      29.85S                  
CHINO          MOSUNNY   80  59  48 SW12      29.83F                  
ONTARIO        MOSUNNY   79  57  46 W13       29.83S                  
RIVERSIDE AP   SUNNY     81  56  42 W13       29.82F                  
MORENO VALLEY    N/A     83  56  40 NW6       29.79S                  
MARCH ARB      SUNNY     80  49  32 NW12      29.85S                  
HORSETHIEF CYN   N/A     81  52  36 NW5       29.79F                  
PERRIS           N/A     81  48  31 NW7       29.85F                  
LAKE ELSINORE    N/A     82  57  41 CALM      29.73S                  
HEMET AP       FAIR      80  57  44 SW14      29.85S                  
FRENCH VALLEY  FAIR      75  59  57 SW9       29.85S                  
TEMECULA         N/A     77  63  60 CALM      29.87R                  

$$

SAN BERNARDINO AND RIVERSIDE COUNTY MOUNTAINS
  
CITY           SKY/WX    TMP DP  RH WIND       PRES   REMARKS
BIG BEAR AP    SUNNY     61  36  39 W10       30.10F                  
BIG BEAR LAKE    N/A     61  41  47 SW2       29.90F                  
WRIGHTWOOD       N/A     60  40  47 CALM      29.91S                  
ANGELUS OAKS     N/A     63  41  45 CALM      29.78S                  
IDYLLWILD        N/A     69  40  34 S3        29.76F                  
TORO PEAK        N/A     49  33  54 S5          N/A                   

$$

SOUTHERN DESERT INCLUDING THE COACHELLA VALLEY
  
CITY           SKY/WX    TMP DP  RH WIND       PRES   REMARKS
PALM SPRINGS   SUNNY     93  40  15 E8        29.76F                  
THOUSAND PALMS   N/A     92  46  20 E6        29.69F                  
INDIO            N/A     91  46  21 SE3       29.72F                  
THERMAL        SUNNY     89  47  23 SE10      29.72F                  
BORREGO AP     FAIR      90  41  18 SE7       29.76S                  
OCOTILLO WELLS   N/A     94  41  16 SE3       29.71F                  
CANEBRAKE        N/A     87  44  22 E6        29.69F                  
BLYTHE         SUNNY     90  46  21 SE6       29.75F                  
IMPERIAL AP    SUNNY     91  43  18 SE7       29.73F                  
EL CENTRO NAS  SUNNY     93  46  19 SE6       29.75F                  
YUMA AZ        MOSUNNY   90  51  26 SW3       29.75F                  

$$

UPPER DESERT
  
CITY           SKY/WX    TMP DP  RH WIND       PRES   REMARKS
VICTORVILLE AP SUNNY     82  21  10 CALM      29.90F                  
HESPERIA         N/A     76  46  34 S15       29.59F                  
APPLE VALLEY     N/A     81  49  32 NW13      29.83F                  
PALMDALE       SUNNY     81  43  26 SW17      29.86F                  
LANCASTER      SUNNY     82  46  28 SW18      29.85F                  
EDWARDS AFB    MOSUNNY   85  29  13 SW7       29.81F                  
DAGGETT        SUNNY     87  25  10 CALM      29.81F                  
29 PALMS N     SUNNY     84  34  16 CALM      29.90F                  
29 PALMS JTNP    N/A     84  38  19 CALM      29.70F                  
NEEDLES        SUNNY     90  39  16 CALM      29.77F                  

$$

REGIONAL REPORTS
  
CITY           SKY/WX    TMP DP  RH WIND       PRES   REMARKS
SANDBERG       SUNNY     71  39  31 MISG      30.00S                  
LAS VEGAS NV   MOSUNNY   85  29  13 S8        29.80F                  
PHOENIX AZ     PTCLDY    87  48  25 W10       29.78F                  
TIJUANA        SUNNY     72  61  68 W5        29.88F                  
ENSENADA NW      N/A     71  32  23 SW3       29.82F                  

$$

OFFSHORE ISLANDS
  
CITY           SKY/WX    TMP DP  RH WIND       PRES   REMARKS
CATALINA ARPT  SUNNY     63  57  81 SW8       29.89S                  
SAN CLEMENTE I PTSUNNY   63  59  87 W13       29.87F                  
SAN NICOLAS IS SUNNY     64  56  75 NW14      29.86S                  

$$

MARINE AND OFFSHORE BUOY REPORTS
  
STATION/POSITION SKY/WX   TEMP    WIND        PRES    VSBY  SWELL
                          AIR SEA DIR/SP/G                  HT/PER/DIR
                          (F)     (DEG/KT/KT) (MB)    (MI)  (FT/S/D)
TANNER BANKS               62     300/ 10/ 14 1010.4F         7/310/13
S CLEMENTE BASIN           65 70  260/ 10/ 12 1010.1F         5/270/13
SAN NICOLAS IS.               67                N/A           5/290/13
SO. S. ROSA ISLA           61 67  290/ 14/ 17 1010.9F         7/290/12
W. S. BARBARA CH           59 61  300/ 10/ 14 1011.1F         7/280/12
M. S. BARBARA CH           61 65  270/ 10/ 14 1010.5F         3/270/13
S. MONICA BASIN            64 69  310/  2/  6 1011.1F         3/220/13
S PEDRO CHANNEL               69                N/A           2/220/13
OCEANSIDE OFFSHR              71                N/A           2/190/13
TORREY PINES OTR              71                N/A           3/230/13
SAN DIEGO BAY                 69                N/A
POINT LOMA SOUTH              70                N/A           3/260/14

$$

  
