ASUS46 KSTO 220109
RWRCA 

NORTHERN AND CENTRAL CA REGIONAL WEATHER ROUNDUP
NATIONAL WEATHER SERVICE SACRAMENTO CA 
600 PM PDT FRI OCT 21 2022

NOTE: FAIR INDICATES FEW OR NO CLOUDS BELOW 12,000 FEET WITH NO
SIGNIFICANT WEATHER AND/OR OBSTRUCTIONS TO VISIBILITY.

CAZ001-003-220200-
NORTHWEST AREA
  
CITY           SKY/WX    TMP DP  RH WIND       PRES   REMARKS
CRESCENT CITY  CLOUDY    60  51  72 SE3       29.92F                  
ARCATA         NOT AVBL                                               
SHELTER COVE   NOT AVBL                                               
UKIAH          MOCLDY    73  46  38 VRB7G21   29.81R                  
$$

CAZ006-505>513-220200-
BAY AREA
  
CITY           SKY/WX    TMP DP  RH WIND       PRES   REMARKS
SANTA ROSA     MOCLDY    57  51  80 S9        29.84S                  
SAN RAFAEL     N/A       72  MM  MM MISG
NAPA           MOCLDY    64  54  69 W7        29.81F                  
CONCORD        MOCLDY    62  51  67 SW10      29.81S                  
OAKLAND CITY   N/A       62  MM  MM MISG
OAKLAND        MOCLDY    60  53  77 W15       29.85F                  
SAN FRAN CITY  N/A       58  MM  82 MISG
SAN FRAN ARPT  MOCLDY    61  52  72 W9        29.84S                  
LIVERMORE      PTCLDY    64  52  64 W12       29.81F                  
HAYWARD        PTCLDY    60  53  77 NW10      29.85S                  
REDWOOD CITY   N/A       67  MM  63 MISG
MOFFETT ARPT   CLEAR     63  55  77 N10       29.84S                  
SAN JOSE ARPT  MOCLDY    65  53  65 NW9       29.84F                  
$$
CAZ034-037-514>518-220200-
CENTRAL COAST
  
CITY           SKY/WX    TMP DP  RH WIND       PRES   REMARKS
WATSONVILLE    CLOUDY    56  52  86 SW6       29.88F                  
SALINAS        CLOUDY    59  53  80 NW9       29.88F                  
MONTEREY       CLOUDY    57  52  83 SW5       29.88F                  
PT PIEDRAS BLS NOT AVBL                                               
SAN LUIS OBISP CLEAR     61  54  77 NW13      29.89R                  
SANTA MARIA    MOCLDY    58  54  86 NW8       29.90R                  
HALF MOON BAY  CLOUDY    57  55  94 SE8       29.88F FOG              
$$
CAZ015-016-220200-
NORTHERN SACRAMENTO VALLEY
  
CITY           SKY/WX    TMP DP  RH WIND       PRES   REMARKS
REDDING        MOCLDY    79  43  27 S6        29.72S                  
RED BLUFF      CLOUDY    79  45  29 S7        29.74S                  
OROVILLE       MOCLDY    81  47  30 S8        29.74F                  
$$
CAZ016>018-220200-
SOUTHERN SACRAMENTO VALLEY
  
CITY           SKY/WX    TMP DP  RH WIND       PRES   REMARKS
AUBURN         CLEAR     75  45  33 S6        29.81F                  
BEALE AFB      PTCLDY    77  46  32 S8        29.71F                  
LINCOLN        FAIR      77  45  31 S8        29.72F                  
MARYSVILLE     PTCLDY    78  40  25 S10       29.72F                  
SAC INTL ARPT  MOCLDY    72  53  51 S17       29.73F                  
MATHER AIRPORT MOCLDY    75  39  27 S8        29.75F                  
DOWNTOWN SAC   N/A       73  MM  MM MISG
SAC EXEC ARPT  PTCLDY    69  53  56 S8        29.76S                  
VACAVILLE      MOCLDY    69  51  52 S12G21    29.74F                  
TRAVIS AFB     MOCLDY    64  52  64 SW24      29.74F                  
$$
CAZ019>021-220200-
SAN JOAQUIN VALLEY
  
CITY           SKY/WX    TMP DP  RH WIND       PRES   REMARKS
STOCKTON       PTCLDY    73  50  44 N5        29.77F HAZE             
MODESTO        CLEAR     81  46  29 NW8       29.75F                  
MERCED         CLEAR     86  42  21 CALM      29.75F                  
LEMOORE        CLEAR     86  45  23 NE6       29.76S                  
FRESNO         PTCLDY    87  41  19 NW3       29.77S                  
HANFORD        CLEAR     78  55  44 NE3       29.76F                  
PORTERVILLE    CLEAR     85  47  26 NW3       29.78F                  
BAKERSFIELD    CLEAR     86  39  19 N6        29.76S                  
$$
CAZ011-012-071-220200-
NORTHERN MOUNTAINS
  
CITY           SKY/WX    TMP DP  RH WIND       PRES   REMARKS
YREKA          MOCLDY    70  43  37 W16G25    29.80F                  
MOUNT SHASTA   MOCLDY    64  40  41 CALM      29.82F                  
ALTURAS        MOCLDY    63  29  27 W12       29.83                   
$$
CAZ011-012-071-220200-
SIERRA NEVADA MTNS
  
CITY           SKY/WX    TMP DP  RH WIND       PRES   REMARKS
BLUE CANYON    PTCLDY    61  33  35 S8        29.99F                  
TRUCKEE        CLEAR     63  25  23 S13G18    29.98F                  
TAHOE VLY ARPT PTCLDY    60  25  26 VRB7G20   30.00F                  
MAMMOTH LAKES  FAIR      57  21  24 W9        30.07S                  
$$
  
