ASUS46 KLOX 220110
RWRCA 

SOUTHERN CALIFORNIA WEATHER ROUNDUP
NATIONAL WEATHER SERVICE OXNARD CALIFORNIA
600 PM PDT FRI OCT 21 2022

NOTE: "FAIR" INDICATES FEW OR NO CLOUDS BELOW 12,000 FEET WITH NO 
SIGNIFICANT WEATHER AND/OR OBSTRUCTIONS TO VISIBILITY.

  -  STATIONS PRECEEDED BY AN ASTERISK (*) ARE NOT NWS OR FAA 
     STATIONS AND ARE NOT SUBJECT TO NWS AND FAA QUALITY CONTROL.

CAZ041-042-087-220200-
LA AND ORANGE COUNTY COASTAL AREAS

  
CITY           SKY/WX    TMP DP  RH WIND       PRES   REMARKS
L.A. DOWNTOWN  CLEAR     69  63  81 W3        29.84S                  
L.A. AIRPORT   MOCLDY    67  62  84 W12       29.84S                  
LONG BEACH     CLEAR     71  62  73 S7        29.83F                  

CITY           SKY/WX    TMP DP  RH WIND       PRES   REMARKS
FULLERTON      CLEAR     71  62  73 SW7       29.82S                  
HAWTHORNE      MOCLDY    69  62  78 W8        29.84S                  
*LEO CARRILLO    N/A     68  63  83 W7          N/A                   
*LOS ALAMITOS  MOCLDY    68  64  88 SW7       29.81S                  
SANTA ANA      PTCLDY    71  61  70 S10       29.83F                  
STA MONICA APT CLOUDY    66  61  84 SW9       29.84S                  
*STA MON PIER    N/A     66  63  91 SW12      29.80R                  
*UCLA            N/A     64  61  88 SW2       29.81                   

$$

CAZ547-548-048-220200-
LA COUNTY VALLEYS AND INLAND EMPIRE

  
CITY           SKY/WX    TMP DP  RH WIND       PRES   REMARKS
BURBANK        CLEAR     75  60  59 S10       29.83S                  
VAN NUYS       CLEAR     77  57  50 SE9       29.82S                  

CITY           SKY/WX    TMP DP  RH WIND       PRES   REMARKS
CORONA AIRPORT CLEAR     74  63  68 W13       29.82S                  
*CHATSWORTH      N/A     76  60  57 NW3       29.83S                  
CHINO          CLEAR     75  59  57 SW12      29.83S                  
*CLAREMONT       N/A     73  55  53 W7          N/A                   
MARCH AFB      CLEAR     76  52  42 NW7       29.84F                  
*NORTHRIDGE      N/A     77  50  38 E3          N/A                   
ONTARIO        CLEAR     75  59  57 SW12      29.83S                  
*PASADENA        N/A     73  64  73 CALM        N/A                   
POMONA         CLEAR    N/A N/A N/A SW9       29.85S                  
RIVERSIDE      CLEAR     76  56  49 W8        29.83R                  
SAN BERNARDINO CLEAR     81  46  30 W7        29.84R HAZE             
*SAN RAFAEL HI   N/A     69  61  75 S6          N/A                   
*SAUGUS          N/A     76  55  48 S8          N/A                   
*WHITEMAN AP   CLEAR     73  59  60 SE6       29.87S                  
*WHITTIER HILL   N/A     70  60  70 S7          N/A                   
*WOODLAND HILL   N/A     75  54  46 MISG        N/A                   

$$

CAZ054-055-220200-
LA AND SAN BERNARDINO COUNTY MOUNTAINS

  
CITY           SKY/WX    TMP DP  RH WIND       PRES   REMARKS
*ACTON           N/A     75  46  34 W7          N/A                   
*BIG BEAR AIRP PTCLDY    55  37  50 W7        30.09F                  
*BIG PINES       N/A     55  33  43 CALM        N/A                   
*CHILAO          N/A     64  44  47 W6          N/A                   
SANDBERG       CLEAR     66  41  40 MISG      29.99F                  
*WARM SPRINGS    N/A     69  40  35 CALM        N/A                   

$$

CAZ028-029-059-060-099-220200-
ANTELOPE VALLEY AND SURROUNDING AREAS

  
CITY           SKY/WX    TMP DP  RH WIND       PRES   REMARKS
LANCASTER      CLEAR     78  44  29 SW15G24   29.86R                  
PALMDALE       CLEAR     76  47  35 SW16      29.86S                  
*POPPY PARK      N/A     74  38  26 SW20        N/A                   

CITY           SKY/WX    TMP DP  RH WIND       PRES   REMARKS
29 PALMS       CLEAR     81  34  18 SE10      29.88F                  
BARSTOW/DAGGET CLEAR     84  29  13 E3        29.80F                  
BISHOP         CLEAR     72  22  15 S9        29.85F                  
CHINA LAKE     CLEAR     84  29  13 S10       29.79F                  
EDWARDS AFB    CLEAR     79  43  27 SW18      29.82R                  
MOJAVE         CLEAR     77  37  24 SW14      29.87S                  
NEEDLES        CLEAR     88  41  19 SW10      29.76F                  
VICTORVILLE      N/A     77  43  29 S15       29.89                   

$$

CAZ039-040-220200-
VENTURA AND SANTA BARBARA COUNTY COAST

  
CITY           SKY/WX    TMP DP  RH WIND       PRES   REMARKS
CAMARILLO      CLOUDY    67  61  81 W12       29.84S                  
OXNARD AIRPORT CLOUDY    64  62  93 W10       29.84S                  
*POINT MUGU    MOCLDY    65  61  87 W8        29.85S                  
SBA APT/GOLETA NOT AVBL                                               
*VENTURA         N/A     61  59  94 W8G17       N/A                   

$$

CAZ044-045-220200-
VENTURA COUNTY VALLEYS

  
CITY           SKY/WX    TMP DP  RH WIND       PRES   REMARKS
*SIMI VALLEY     N/A     70  61  73 N3        29.79R                  
*TO CIVIC ARTS   N/A     68  61  77 NE3G9       N/A                   
*WESTLAKE VILL   N/A     68  59  73 CALM      29.80R                  
*OJAI            N/A     73  58  58 W1          N/A                   
*FILLMORE        N/A     69  60  74 SW1       29.87R                  

$$

CAZ053-220200-
VENTURA COUNTY MOUNTAINS

  
CITY           SKY/WX    TMP DP  RH WIND       PRES   REMARKS
*LOCKWOOD VLY    N/A     64  36  34 W1G7        N/A                   
*ROSE VALLEY     N/A     68  46  45 MISG        N/A                   

$$

CAZ034-035-036-220200-
CENTRAL COAST AND SANTA YNEZ VALLEY

  
CITY           SKY/WX    TMP DP  RH WIND       PRES   REMARKS
SAN LUIS OBISP CLEAR     61  54  77 NW13      29.89R                  
SANTA MARIA    MOCLDY    58  54  86 NW8       29.90R                  

CITY           SKY/WX    TMP DP  RH WIND       PRES   REMARKS
*CAL POLY SLO    N/A     63  57  82 NW9         N/A                   
*LOMPOC        CLOUDY    60  55  83 W8        29.90R                  
*SANTA YNEZ    FAIR      64  55  72 W9        29.87S                  

$$

CAZ037-038-051-220200-
SAN LUIS OBISPO COUNTY INTERIOR AND CUYAMA VALLEY

  
CITY           SKY/WX    TMP DP  RH WIND       PRES   REMARKS
*CUYAMA          N/A     76  38  25 CALM      29.73R                  
PASO ROBLES    CLEAR     68  49  50 S20       29.86R                  

$$

CAZ032-033-061-220200-
SOUTHERN DESERTS

  
CITY           SKY/WX    TMP DP  RH WIND       PRES   REMARKS
BLYTHE         CLEAR     88  47  24 SE6       29.74F                  
IMPERIAL       CLEAR     90  43  19 SE5       29.72F                  
PALM SPRINGS   CLEAR     89  44  20 E7        29.76S                  
THERMAL        CLEAR     83  52  34 SE7       29.71F                  

$$

ELSEWHERE ACROSS THE WESTERN UNITED STATES AND MEXICO

  
CITY           SKY/WX    TMP DP  RH WIND       PRES   REMARKS
DEATH VALLEY,    N/A     89  38  17 CALM        N/A                   
DENVER, CO     PTCLDY    66  13  12 W8        29.73R                  
GRAND CANYON,  CLEAR     57  33  40 SW6       30.06F                  
HONOLULU, HI   MOSUNNY   84  72  65 S6        29.96F                  
KAHULUI, MAUI  MOSUNNY   91  70  49 E15G25    29.94F HX  97           
LAKE TAHOE, CA PTCLDY    60  25  26 VRB7G20   30.00F                  
LAS VEGAS, NV  PTCLDY    83  31  15 S8        29.79F                  
MAMMOTH LAKES, FAIR      57  21  24 W9        30.07S                  
MEXICO CITY, M CLOUDY    64  50  59 SW6       30.28R                  
PHOENIX, AZ    PTCLDY    86  47  25 W9        29.78S                  
PORTLAND, OR   LGT RAIN  51  48  89 SE8       29.71F                  
RENO, NV       MOCLDY    72  23  16 W17G32    29.85F                  
SALT LAKE CITY PTCLDY    69  19  15 S7        29.75F                  
SAN DIEGO, CA  MOCLDY    71  61  70 S6        29.86F                  
SAN FRANCISCO, MOCLDY    61  52  72 W9        29.84S                  
SAN JOSE, CA   MOCLDY    65  53  65 NW9       29.84F                  
SEATTLE, WA    LGT RAIN  47  45  93 S5        29.71F                  
TIJUANA, MEX   CLEAR     70  61  73 SW8       29.88S                  

$$
  
STATION/POSITION TIME  TEMP    WIND        PRES    VSBY  WAVE
                       AIR SEA DIR/SP/G                  HT/PER
                 (UTC) (F)     (DEG/KT/KT) (MB)    (MI)  (FT/S)
WEST SANTA BARBA 0050   58 60  310/ 16/ 17 1011.1S         6/12
EAST SANTA BARBA 0050   62 64  280/ 12/ 16 1010.3F         4/12
SANTA MONICA BAY 0050   65 69  260/  4/  6 1010.9F         3/13
SAN CLEMENTE BAS 0050   65 70  260/ 10/ 14 1010.1S         5/13
