ASUS46 KEKA 212310
RWREKA
Eureka Area Weather Roundup
National Weather Service Eureka CA
400 PM PDT FRI OCT 21 2022

Note: "fair" indicates few or no clouds below 12,000 feet with no
significant weather and/or obstructions to visibility.

Southwest Oregon...
  
CITY           SKY/WX    TMP DP  RH WIND       PRES   REMARKS
MEDFORD        CLOUDY    71  47  42 NW5       29.83S                  
KLAMATH FALLS  PTSUNNY   61  40  45 W15       29.87F                  
NORTH BEND     LGT RAIN  58  50  75 S10       29.86F                  
ROSEBURG       CLOUDY    66  53  63 VRB3      29.83F                  
SEXTON SUMMIT  CLOUDY    56  46  69 VRB5      29.91F                  
BROOKINGS      CLOUDY    61  52  72 NW13G20   29.94R                  

Northwest California...
  
CITY           SKY/WX    TMP DP  RH WIND       PRES   REMARKS
CRESCENT CITY  CLOUDY    59  45  59 NW3       29.95S                  
MCKINLEYVILLE  CLOUDY    60  51  72 CALM      29.94S                  
EUREKA         CLOUDY    62  32  32 NW7       29.95S                  
FORTUNA        CLOUDY    63  48  59 NW10      29.94S                  
WEAVERVILLE    NOT AVBL                                               
TRINITY CENTER NOT AVBL                                               
UKIAH          PTSUNNY   80  48  32 W6G16     29.80S                  

North & Central California...
  
CITY           SKY/WX    TMP DP  RH WIND       PRES   REMARKS
YREKA          PTSUNNY   73  44  35 N9        29.84F                  
MOUNT SHASTA   PTSUNNY   72  37  28 CALM      29.85F                  
REDDING        PTSUNNY   83  41  22 S10       29.74F                  
RED BLUFF      PTSUNNY   83  43  24 S9        29.76F                  
CHICO          SUNNY     82  39  21 S14       29.77F                  
YUBA CITY      MOSUNNY   85  46  25 SE15      29.75F                  
SACRAMENTO     SUNNY     79  49  34 S8        29.79F                  
SANTA ROSA     PTSUNNY   64  51  62 S15       29.84F                  
NAPA           SUNNY     68  55  63 S16       29.83F                  
TRAVIS AFB     NOT AVBL                                               
SAN FRANCISCO  MOSUNNY   64  53  67 W20       29.86R                  
OAKLAND        MOSUNNY   62  53  72 NW16G32   29.88R                  
STOCKTON       NOT AVBL                                               
SALINAS        CLOUDY    61  53  75 NW13      29.89R                  
MONTEREY       PTSUNNY   59  53  80 VRB7      29.91S                  

$$
  
