ASUS46 KEKA 220010
RWREKA
Eureka Area Weather Roundup
National Weather Service Eureka CA
500 PM PDT FRI OCT 21 2022

Note: "fair" indicates few or no clouds below 12,000 feet with no
significant weather and/or obstructions to visibility.

Southwest Oregon...
  
CITY           SKY/WX    TMP DP  RH WIND       PRES   REMARKS
MEDFORD        CLOUDY    71  47  42 VRB3      29.80F                  
KLAMATH FALLS  MOSUNNY   62  40  44 W16       29.85F                  
NORTH BEND     LGT RAIN  55  54  94 VRB3      29.86S                  
ROSEBURG       CLOUDY    65  54  67 SW9       29.81F                  
SEXTON SUMMIT  CLOUDY    54  49  83 VRB3      29.89F                  
BROOKINGS      CLOUDY    59  49  69 SW5       29.93F                  

Northwest California...
  
CITY           SKY/WX    TMP DP  RH WIND       PRES   REMARKS
CRESCENT CITY  CLOUDY    60  48  64 E5        29.93F                  
MCKINLEYVILLE  CLOUDY    57  50  77 CALM      29.94S                  
EUREKA         CLOUDY    57  50  78 W5        29.95S                  
FORTUNA        CLOUDY    59  48  67 W13       29.95S                  
WEAVERVILLE    NOT AVBL                                               
TRINITY CENTER NOT AVBL                                               
UKIAH          PTSUNNY   77  47  34 W6        29.80S                  

North & Central California...
  
CITY           SKY/WX    TMP DP  RH WIND       PRES   REMARKS
YREKA          PTSUNNY   72  40  31 NW18G24   29.82F                  
MOUNT SHASTA   PTSUNNY   67  38  34 CALM      29.84F                  
REDDING        PTSUNNY   82  42  24 S12       29.72F                  
RED BLUFF      PTSUNNY   82  44  26 S10       29.74F                  
CHICO          SUNNY     81  45  28 SE7       29.75F                  
YUBA CITY      PTSUNNY   82  45  27 S14       29.75S                  
SACRAMENTO     MOSUNNY   77  46  33 S10       29.76F                  
SANTA ROSA     PTSUNNY   61  52  72 S12       29.84S                  
NAPA           MOSUNNY   64  55  72 SW18      29.83S                  
TRAVIS AFB     NOT AVBL                                               
SAN FRANCISCO  MOSUNNY   63  53  70 W15       29.84F                  
OAKLAND        MOSUNNY   62  53  72 W13       29.86F                  
STOCKTON       NOT AVBL                                               
SALINAS        CLOUDY    61  53  75 NW10      29.90R                  
MONTEREY       PTSUNNY   58  52  80 W9        29.91S                  

$$
  
