ASUS44 KLZK 231801
RWRLZK

WEATHER ROUNDUP FOR ARKANSAS
NATIONAL WEATHER SERVICE LITTLE ROCK AR
100 PM CDT SUN OCT 23 2022

NOTE: "FAIR" INDICATES FEW OR NO CLOUDS BELOW 12,000 FEET WITH NO
SIGNIFICANT WEATHER AND/OR OBSTRUCTIONS TO VISIBILITY.

ARZ001-010-029-103-231900-
NORTHWEST ARKANSAS
  
CITY           SKY/WX    TMP DP  RH WIND       PRES   REMARKS
FAYETTEVILLE   MOSUNNY   78  60  53 S12G26    29.85S                  
6HR MIN TEMP:  67; 6HR MAX TEMP:  80;                                

FORT SMITH     PTSUNNY   81  62  52 S13G24    29.84F                  
6HR MIN TEMP:  64; 6HR MAX TEMP:  83;                                

HARRISON       MOSUNNY   77  59  53 S14G24    29.87F                  
6HR MIN TEMP:  66; 6HR MAX TEMP:  77;                                

BENTONVILLE    SUNNY     78  60  53 S18G30    29.83F                  
6HR MIN TEMP:  67; 6HR MAX TEMP:  78;                                

ROGERS         MOSUNNY   79  59  50 MISG      29.82F                  
6HR MIN TEMP:  67; 6HR MAX TEMP:  80;                                

SILOAM SPGS    SUNNY     78  60  53 S30G38    29.81F                  
6HR MIN TEMP:  67; 6HR MAX TEMP:  79;                                

HIGHFILL       SUNNY     79  59  50 S28G37    29.82F                  
6HR MIN TEMP:  67; 6HR MAX TEMP:  79;                                

SPRINGDALE     MOSUNNY   79  64  61 S18G30    29.85F                  
$$

ARZ004-005-016-231900-
NORTH CENTRAL ARKANSAS
  
CITY           SKY/WX    TMP DP  RH WIND       PRES   REMARKS
BATESVILLE     CLOUDY    75  60  59 S13G18    29.96F                  
6HR MIN TEMP:  65; 6HR MAX TEMP:  75;                                

FLIPPIN        MOSUNNY   77  61  57 S13G22    29.87F                  
6HR MIN TEMP:  68; 6HR MAX TEMP:  77;                                

MTN HOME       MOSUNNY   77  59  53 SW18G28   29.88F                  
6HR MIN TEMP:  66; 6HR MAX TEMP:  78;                                

$$

ARZ140-141-231900-
WEST CENTRAL ARKANSAS
  
CITY           SKY/WX    TMP DP  RH WIND       PRES   REMARKS
MENA           CLOUDY    73  62  68 VRB3      29.92F                  
MOUNT IDA      CLOUDY    75  61  61 VRB5G17   29.92F                  
6HR MIN TEMP:  68; 6HR MAX TEMP:  75;                                

$$

ARZ009-017-025-026-028-231900-
NORTHEAST ARKANSAS
  
CITY           SKY/WX    TMP DP  RH WIND       PRES   REMARKS
JONESBORO      CLOUDY    77  57  50 S20G29    29.99F                  
6HR MIN TEMP:  63; 6HR MAX TEMP:  78;                                

NEWPORT        PTSUNNY   77  59  53 S24G32    29.96F                  
6HR MIN TEMP:  63; 6HR MAX TEMP:  77;                                

WALNUT RIDGE   CLOUDY    76  59  55 S26G32    29.96F                  
6HR MIN TEMP:  65; 6HR MAX TEMP:  77;                                

BLYTHEVILLE    SUNNY     79  58  48 S21G28    30.01F                  
6HR MIN TEMP:  63; 6HR MAX TEMP:  79;                                

$$

ARZ032-043-044-231900-
LITTLE ROCK METRO AREA
  
CITY           SKY/WX    TMP DP  RH WIND       PRES   REMARKS
LITTLE ROCK    PTSUNNY   80  60  50 S15       29.96F                  
6HR MIN TEMP:  67; 6HR MAX TEMP:  81;                                

JACKSONVILLE   CLOUDY    77  60  56 SW18      29.93F                  
6HR MIN TEMP:  66; 6HR MAX TEMP:  78;                                

CONWAY         CLOUDY    77  63  61 S14       29.93F                  
$$

ARZ033-042-122-123-231900-
REMAINDER OF CENTRAL ARKANSAS
  
CITY           SKY/WX    TMP DP  RH WIND       PRES   REMARKS
SEARCY         CLOUDY    77  60  55 S17G24    29.97F                  
6HR MIN TEMP:  64; 6HR MAX TEMP:  78;                                

HOT SPRINGS    CLOUDY    76  61  59 S13G20    29.96F                  
6HR MIN TEMP:  66; 6HR MAX TEMP:  76;                                

RUSSELLVILLE   CLOUDY    75  61  61 S14G20    29.91F                  
6HR MIN TEMP:  70; 6HR MAX TEMP:  75;                                

CLINTON        CLOUDY    73  61  64 S8G17     29.95F                  
$$

ARZ036-231900-
EAST ARKANSAS
  
CITY           SKY/WX    TMP DP  RH WIND       PRES   REMARKS
WEST MEMPHIS   SUNNY     80  58  46 S17G25    30.01F                  
6HR MIN TEMP:  63; 6HR MAX TEMP:  80;                                

$$

ARZ050-053-066-070-072-073-231900-
SOUTHWEST ARKANSAS
  
CITY           SKY/WX    TMP DP  RH WIND       PRES   REMARKS
ARKADELPHIA    CLOUDY    80  62  54 S17G23    29.95F                  
6HR MIN TEMP:  63; 6HR MAX TEMP:  80;                                

CAMDEN         MOSUNNY   81  64  57 S16G23    29.97F                  
TEXARKANA      PTSUNNY   81  61  50 S17G30    29.94F                  
6HR MIN TEMP:  66; 6HR MAX TEMP:  81;                                

MAGNOLIA       PTCLDY    82  59  44 S14G23    29.95F                  
EL DORADO      MOSUNNY   83  60  45 S12G23    29.99F                  
6HR MIN TEMP:  62; 6HR MAX TEMP:  83;                                

DE QUEEN       PTSUNNY   79  62  56 S15G21    29.90F                  
6HR MIN TEMP:  69; 6HR MAX TEMP:  79;                                

$$

ARZ056-057-069-231900-
SOUTHEAST ARKANSAS
  
CITY           SKY/WX    TMP DP  RH WIND       PRES   REMARKS
PINE BLUFF     MOSUNNY   81  59  47 S15G25    29.99F                  
6HR MIN TEMP:  65; 6HR MAX TEMP:  82;                                

STUTTGART      MOSUNNY   80  59  48 S21G30    30.00F                  
6HR MIN TEMP:  64; 6HR MAX TEMP:  80;                                

MONTICELLO     MOSUNNY   81  58  45 S17G24    30.01F                  
6HR MIN TEMP:  63; 6HR MAX TEMP:  82;                                


$$


  
