ASUS44 KLZK 231901
RWRLZK

WEATHER ROUNDUP FOR ARKANSAS
NATIONAL WEATHER SERVICE LITTLE ROCK AR
200 PM CDT SUN OCT 23 2022

NOTE: "FAIR" INDICATES FEW OR NO CLOUDS BELOW 12,000 FEET WITH NO
SIGNIFICANT WEATHER AND/OR OBSTRUCTIONS TO VISIBILITY.

ARZ001-010-029-103-232000-
NORTHWEST ARKANSAS
  
CITY           SKY/WX    TMP DP  RH WIND       PRES   REMARKS
FAYETTEVILLE   MOSUNNY   81  60  48 S20G32    29.81F                  
FORT SMITH     MOSUNNY   82  60  47 S14G23    29.82F                  
HARRISON       SUNNY     75  58  55 S16G23    29.86F                  
BENTONVILLE    MOSUNNY   80  60  50 S20G30    29.80F                  
ROGERS         MOSUNNY   80  58  46 MISG      29.80F                  
SILOAM SPGS    MOSUNNY   81  60  48 S25G36    29.78F                  
HIGHFILL       MOSUNNY   80  59  48 S23G35    29.79F                  
SPRINGDALE     SUNNY     79  64  61 S20G31    29.82F                  
$$

ARZ004-005-016-232000-
NORTH CENTRAL ARKANSAS
  
CITY           SKY/WX    TMP DP  RH WIND       PRES   REMARKS
BATESVILLE     CLOUDY    75  60  59 S14G21    29.93F                  
FLIPPIN        SUNNY     78  61  55 S13G23    29.86F                  
MTN HOME       SUNNY     79  59  50 SW14G23   29.86F                  
$$

ARZ140-141-232000-
WEST CENTRAL ARKANSAS
  
CITY           SKY/WX    TMP DP  RH WIND       PRES   REMARKS
MENA           CLOUDY    75  61  60 VRB6      29.89F                  
MOUNT IDA      PTSUNNY   78  59  51 S8G18     29.88F                  
$$

ARZ009-017-025-026-028-232000-
NORTHEAST ARKANSAS
  
CITY           SKY/WX    TMP DP  RH WIND       PRES   REMARKS
JONESBORO      PTSUNNY   80  58  46 S24G31    29.96F                  
NEWPORT        CLOUDY    78  59  51 S29G35    29.92F                  
WALNUT RIDGE   CLOUDY    78  59  51 S22G32    29.93F                  
BLYTHEVILLE    SUNNY     80  57  45 S20G29    29.97F                  
$$

ARZ032-043-044-232000-
LITTLE ROCK METRO AREA
  
CITY           SKY/WX    TMP DP  RH WIND       PRES   REMARKS
LITTLE ROCK    CLOUDY    83  60  45 S14       29.92F                  
JACKSONVILLE   PTSUNNY   78  60  53 S12G18    29.90F                  
CONWAY         CLOUDY    79  61  53 S14G20    29.90F                  
$$

ARZ033-042-122-123-232000-
REMAINDER OF CENTRAL ARKANSAS
  
CITY           SKY/WX    TMP DP  RH WIND       PRES   REMARKS
SEARCY         CLOUDY    78  60  53 S14       29.93F                  
HOT SPRINGS    MOSUNNY   79  60  52 S15G23    29.92F                  
RUSSELLVILLE   CLOUDY    77  62  59 S12G23    29.87F                  
CLINTON        CLOUDY    75  61  60 S8G18     29.91F                  
$$

ARZ036-232000-
EAST ARKANSAS
  
CITY           SKY/WX    TMP DP  RH WIND       PRES   REMARKS
WEST MEMPHIS   SUNNY     82  57  42 S18       29.97F                  
$$

ARZ050-053-066-070-072-073-232000-
SOUTHWEST ARKANSAS
  
CITY           SKY/WX    TMP DP  RH WIND       PRES   REMARKS
ARKADELPHIA    MOCLDY    82  62  50 S14       29.92F                  
CAMDEN         PTSUNNY   82  63  51 SE15      29.93F                  
TEXARKANA      PTSUNNY   84  60  44 S15G26    29.91F                  
MAGNOLIA       PTCLDY    84  59  42 S15G24    29.92F                  
EL DORADO      SUNNY     82  59  45 S16G26    29.95F                  
DE QUEEN       PTSUNNY   82  61  48 S15G25    29.86F                  
$$

ARZ056-057-069-232000-
SOUTHEAST ARKANSAS
  
CITY           SKY/WX    TMP DP  RH WIND       PRES   REMARKS
PINE BLUFF     MOSUNNY   85  58  39 S17G29    29.95F                  
STUTTGART      PTSUNNY   79  59  50 S17       29.96F                  
MONTICELLO     MOSUNNY   83  57  41 S14G21    29.98F                  

$$


  
