ASUS42 KILM 220210
RWRILM
RWRILM
REGIONAL HOURLY WEATHER ROUNDUP
NATIONAL WEATHER SERVICE WILMINGTON NC
1000 PM EDT FRI OCT 21 2022
 
NOTE: "FAIR" INDICATES FEW OR NO CLOUDS BELOW 12,000 FEET WITH NO
SIGNIFICANT WEATHER AND/OR OBSTRUCTIONS TO VISIBILITY.
 
...............WFO WILMINGTON COUNTY WARNING AREA...............

......COASTAL NC AND SC COUNTIES......
  
CITY           SKY/WX    TMP DP  RH WIND       PRES   REMARKS
WILMINGTON     CLOUDY    61  51  70 N3        30.14R                  
N MYRTLE BEACH CLEAR     49  46  90 CALM      30.13R                  
MYRTLE BEACH   CLEAR     53  48  83 NW3       30.14R                  

......INLAND NC AND SC COUNTIES.......
  
CITY           SKY/WX    TMP DP  RH WIND       PRES   REMARKS
LUMBERTON      CLEAR     47  42  83 CALM      30.15R                  
ELIZABETHTOWN  CLEAR     49  42  74 CALM      30.15R                  
WHITEVILLE     CLEAR     48  42  79 CALM      30.16R                  
FLORENCE       CLEAR     47  40  76 CALM      30.15R                  
DARLINGTON     CLEAR     45  40  82 CALM      30.15R                  
KINGSTREE      FAIR      43  37  81 CALM      30.15R                  
HARTSVILLE     MOCLDY    46  32  57 CALM      30.15R                  
BENNETTSVILLE  FAIR      41  37  87 CALM      30.15R                  
CONWAY         FAIR      45  43  93 CALM      30.15R                  
GEORGETOWN     FAIR      46  45  93 CALM      30.14R                  
MARION         FAIR      46  41  81 CALM      30.15R                  
 
....................REST OF NORTH CAROLINA......................

.........EASTERN NC.........
  
CITY           SKY/WX    TMP DP  RH WIND       PRES   REMARKS
CAPE HATTERAS  CLEAR     62  57  83 NE7       30.13R                  
JACKSONVILLE   CLOUDY    58  51  78 N3        30.16R                  
MOREHEAD CITY  CLOUDY    60  54  80 N6        30.13R                  
KENANSVILLE    MOCLDY    50  45  81 CALM      30.16R                  
NEW BERN       CLOUDY    60  50  69 NE6       30.16R                  
ELIZABETH CITY MOCLDY    56  50  80 N5        30.18R                  

.........CENTRAL NC.........
  
CITY           SKY/WX    TMP DP  RH WIND       PRES   REMARKS
RALEIGH DURHAM CLEAR     50  38  63 CALM      30.16R                  
ROCKY MOUNT    PTCLDY    49  40  71 CALM      30.17R                  
ROANOKE RAPIDS NOT AVBL                                               
FAYETTEVILLE   CLEAR     53  38  56 N3        30.15R                  
HOFFMAN        CLEAR     43  40  88 CALM      30.13R                  

.........WESTERN NC.........
  
CITY           SKY/WX    TMP DP  RH WIND       PRES   REMARKS
CHARLOTTE      CLEAR     53  32  44 CALM      30.15R                  
GREENSBORO     CLEAR     48  38  68 CALM      30.15R                  
HICKORY        NOT AVBL                                               
BOONE          NOT AVBL                                               
ASHEVILLE      NOT AVBL                                               

.....................REST OF SOUTH CAROLINA.....................

.........EASTERN SC.........
  
CITY           SKY/WX    TMP DP  RH WIND       PRES   REMARKS
CHARLESTON     CLEAR     50  45  83 NW3       30.14R                  
BEAUFORT MCAS  CLEAR     51  46  83 CALM      30.14R                  
HILTON HEAD    NOT AVBL                                               

.........CENTRAL SC.........
  
CITY           SKY/WX    TMP DP  RH WIND       PRES   REMARKS
COLUMBIA       CLEAR     47  39  74 CALM      30.14R                  
ORANGEBURG     CLEAR     47  43  86 CALM      30.14R                  
SUMTER SHAW    CLEAR     48  38  67 CALM      30.14R                  

.........WESTERN SC.........
  
CITY           SKY/WX    TMP DP  RH WIND       PRES   REMARKS
GREENVILLE     NOT AVBL                                               
ROCK HILL      CLEAR     43  35  73 CALM      30.15R                  
ANDERSON       CLEAR     47  36  65 CALM      30.14R                  
CLEMSON        NOT AVBL                                               
GREENWOOD      CLEAR     45  34  65 CALM      30.16R                  
 

...................COASTAL AND OFFSHORE REPORTS..................

................LOCAL PIERS AND NC RESERVE................

  
STATION/POSITION TIME  SKY/WX   TEMP    WIND        PRES    VSBY
                                AIR SEA DIR/SP/G
                 (UTC)          (F)     (DEG/KT/KT) (MB)    (MI)
JOHNY MRCER PIER 0112               69                N/A
NC RESRV MASNBRO NOT AVBL
OCEAN CREST PIER NOT AVBL
SPRINGMAID  PIER 0042                   330/  3/  4   N/A


................COASTAL AND OFFSHORE BUOYS................

  
STATION/POSITION TIME  SKY/WX   TEMP    WIND        PRES    VSBY
                                AIR SEA DIR/SP/G
                 (UTC)          (F)     (DEG/KT/KT) (MB)    (MI)
DIMNDSHOAL 41025 0150               77   30/ 14/ 21 1019.6R
CAPE LOOKOUT     0100            64      20/ 13/ 16 1020.4R
ONSLOW BAY 41036 NOT AVBL
ONSLOW BAY 41064 0108            68 74   40/ 17/ 23 1020.5R
ONSLOW BAY 41159 0156               74                N/A
WVE H/P(F/S)=  3/ 5

MASNBO INL 41110 NOT AVBL
WILM HARBR 41108 NOT AVBL
27SE WRITB 41037 0108            69 76   50/ 14/ 21 1019.5R
FRYING PAN 41013 0150            69 76   40/ 17/ 19 1019.4R
WVE H/P(F/S)=  3/ 6 SWL H/P/D(F/S/D)=  2/100/ 9

SUNST NRSH 41024 0108            64 69   10/  6/  8 1019.8R
CAPRS NRSH 41029 0108            66 70   30/ 10/ 16 1019.7R
EDISTO     41004 0150            67 78   30/ 10/ 12 1019.9R
WVE H/P(F/S)=  3/ 5 SWL H/P/D(F/S/D)=  2/ 80/ 5



..........OFFSHORE BUOYS BEYOND 100 NM OFFSHORE...........
.....IN A TRIANGLE---HAT TO BERMUDA TO BAHAMAS TO HAT..... 

  
STATION/POSITION TIME  SKY/WX   TEMP    WIND        PRES    VSBY
                                AIR SEA DIR/SP/G
                 (UTC)          (F)     (DEG/KT/KT) (MB)    (MI)
150E HAT   41001 0150            74 78   50/ 16/ 19 1018.9R
WVE H/P(F/S)=  5/ 6 SWL H/P/D(F/S/D)=  2/ 30/12

W BERMUDA  41048 0150                               1016.5R
WVE H/P(F/S)=  4/ 6

ATLANTIC S 41049 0150            81 83   60/  8/ 10 1017.1R
WVE H/P(F/S)=  4/11 SWL H/P/D(F/S/D)=  5/ 30/11

E BAHAMAS  41046 0150            83 84  100/ 10/ 12 1016.6R
NE BAHAMAS 41047 0150            80     130/  6/  6 1013.8R
WVE H/P(F/S)=  4/ 6 SWL H/P/D(F/S/D)=  3/180/ 6

120E CANVRL41010 0150            76 82   40/ 14/ 17 1016.5S

END
  
