ASUS42 KRAH 212310
RWRRAH
NORTH CAROLINA WEATHER ROUNDUP
NATIONAL WEATHER SERVICE RALEIGH NC
700 PM EDT FRI OCT 21 2022

NOTE: "FAIR" INDICATES FEW OR NO CLOUDS BELOW 12,000 FEET WITH NO
SIGNIFICANT WEATHER AND/OR OBSTRUCTIONS TO VISIBILITY.

NCZ001-053-055-056-065-067-220000-
WESTERN NORTH CAROLINA
  
CITY           SKY/WX    TMP DP  RH WIND       PRES   REMARKS
ASHEVILLE      CLEAR     56  29  35 CALM      30.12R                  
JEFFERSON      CLEAR     49  30  47 CALM      30.13S                  
HICKORY        CLEAR     55  34  45 CALM      30.11R                  
RUTHERFORDTON  NOT AVBL                                               
MOUNT AIRY     CLEAR     55  36  50 CALM      30.14R                  
$$
 
NCZ021-022-025-041-071-084-088-220000-
CENTRAL NORTH CAROLINA
  
CITY           SKY/WX    TMP DP  RH WIND       PRES   REMARKS
CHARLOTTE      PTCLDY    60  31  33 SW3       30.11S                  
GREENSBORO     PTCLDY    59  30  33 CALM      30.11R                  
WINSTON-SALEM  CLEAR     58  36  43 CALM      30.12S                  
RALEIGH-DURHAM PTCLDY    57  38  48 CALM      30.12R                  
FORT BRAGG     CLEAR     57  43  60 CALM      30.09R                  
FAYETTEVILLE   CLEAR     60  40  47 CALM      30.10R                  
$$
 
NCZ011-015-027-028-043-044-047-080-103-220000-
NORTHEASTERN NORTH CAROLINA
  
CITY           SKY/WX    TMP DP  RH WIND       PRES   REMARKS
ROANOKE RAPIDS FAIR      50  48  93 CALM      30.12R                  
ROCKY MT-WILSO CLEAR     55  39  54 CALM      30.12R                  
GREENVILLE     CLEAR     61  37  41 CALM      30.11R                  
ELIZABETH CITY NOT AVBL                                               
MANTEO         CLEAR     60  49  66 NE6       30.13R                  
CAPE HATTERAS  PTCLDY    63  54  72 VRB6      30.09S                  
$$
 
NCZ078-087-090-091-093-098-101-220000-
SOUTHEASTERN NORTH CAROLINA
  
CITY           SKY/WX    TMP DP  RH WIND       PRES   REMARKS
LUMBERTON      CLEAR     55  42  61 CALM      30.10R                  
GOLDSBORO      PTCLDY    57  38  48 CALM      30.08R                  
KINSTON        PTCLDY    57  45  62 CALM      30.12R                  
KENANSVILLE    PTCLDY    54  46  76 CALM      30.11R                  
NEW BERN       MOCLDY    57  48  72 CALM      30.12R                  
CHERRY POINT   PTCLDY    60  50  69 CALM      30.11S                  
BEAUFORT       PTCLDY    60  51  72 N5        30.10R                  
JACKSONVILLE   MOCLDY    61  49  64 NE5       30.10R                  
WILMINGTON     CLOUDY    62  51  67 CALM      30.09S                  
$$

  
