ASUS42 KRAH 220210
RWRRAH
NORTH CAROLINA WEATHER ROUNDUP
NATIONAL WEATHER SERVICE RALEIGH NC
1000 PM EDT FRI OCT 21 2022

NOTE: "FAIR" INDICATES FEW OR NO CLOUDS BELOW 12,000 FEET WITH NO
SIGNIFICANT WEATHER AND/OR OBSTRUCTIONS TO VISIBILITY.

NCZ001-053-055-056-065-067-220300-
WESTERN NORTH CAROLINA
  
CITY           SKY/WX    TMP DP  RH WIND       PRES   REMARKS
ASHEVILLE      CLEAR     43  33  68 CALM      30.17R                  
JEFFERSON      CLEAR     44  29  57 CALM      30.18R                  
MORGANTON      CLEAR     41  38  91 N3        30.19R                  
HICKORY        CLEAR     47  40  76 CALM      30.15R                  
WILKESBORO     CLEAR     43  34  70 CALM      30.22R                  
RUTHERFORDTON  CLEAR     43  36  75 NW3       30.17R                  
MOUNT AIRY     CLEAR     42  37  80 CALM      30.18R                  
BOONE          CLEAR     35  30  80 CALM      30.18R                  
$$
 
NCZ021-022-025-041-071-084-088-220300-
CENTRAL NORTH CAROLINA
  
CITY           SKY/WX    TMP DP  RH WIND       PRES   REMARKS
CHARLOTTE      CLEAR     53  32  44 CALM      30.15R                  
GREENSBORO     CLEAR     48  38  68 CALM      30.15R                  
WINSTON-SALEM  CLEAR     48  35  60 CALM      30.16R                  
RALEIGH-DURHAM CLEAR     50  38  63 CALM      30.16R                  
FORT BRAGG     CLEAR     46  43  87 CALM      30.14R                  
FAYETTEVILLE   CLEAR     53  38  56 N3        30.15R                  
BURLINGTON     CLEAR     45  38  76 CALM      30.15R                  
ROXBORO        CLEAR     37  36  93 CALM      30.19R                  
HENDERSON      CLEAR     43  41  94 CALM      30.17R                  
LOUISBURG      CLEAR     43  39  87 CALM      30.18R                  
LAURINBURG     CLEAR     47  39  74 CALM      30.15R                  
$$
 
NCZ011-015-027-028-043-044-047-080-103-220300-
NORTHEASTERN NORTH CAROLINA
  
CITY           SKY/WX    TMP DP  RH WIND       PRES   REMARKS
ROCKY MT-WILSO PTCLDY    49  40  71 CALM      30.17R                  
GREENVILLE     MOCLDY    50  46  87 CALM      30.16R                  
ELIZABETH CITY MOCLDY    56  50  80 N5        30.18R                  
MANTEO         CLEAR     59  52  76 NE7       30.17R                  
CAPE HATTERAS  CLEAR     62  57  83 NE7       30.13R                  
$$
 
NCZ078-087-090-091-093-098-101-220300-
SOUTHEASTERN NORTH CAROLINA
  
CITY           SKY/WX    TMP DP  RH WIND       PRES   REMARKS
LUMBERTON      CLEAR     47  42  83 CALM      30.15R                  
GOLDSBORO      MOCLDY    52  39  61 CALM      30.13R                  
KINSTON        CLOUDY    55  46  71 CALM      30.17R                  
KENANSVILLE    MOCLDY    50  45  81 CALM      30.16R                  
NEW BERN       CLOUDY    60  50  69 NE6       30.16R                  
CHERRY POINT   CLOUDY    61  53  75 NE6       30.15R                  
BEAUFORT       CLOUDY    60  54  80 N6        30.13R                  
JACKSONVILLE   CLOUDY    60  50  69 N3        30.14R                  
WILMINGTON     CLOUDY    61  51  70 N3        30.14R                  
$$

  
