ASUS42 KILM 220010
RWRILM
RWRILM
REGIONAL HOURLY WEATHER ROUNDUP
NATIONAL WEATHER SERVICE WILMINGTON NC
800 PM EDT FRI OCT 21 2022
 
NOTE: "FAIR" INDICATES FEW OR NO CLOUDS BELOW 12,000 FEET WITH NO
SIGNIFICANT WEATHER AND/OR OBSTRUCTIONS TO VISIBILITY.
 
...............WFO WILMINGTON COUNTY WARNING AREA...............

......COASTAL NC AND SC COUNTIES......
  
CITY           SKY/WX    TMP DP  RH WIND       PRES   REMARKS
WILMINGTON     CLOUDY    61  53  75 E3        30.11R                  
N MYRTLE BEACH PTCLDY    53  48  83 CALM      30.10R                  
MYRTLE BEACH   CLEAR     56  49  77 CALM      30.12R                  

......INLAND NC AND SC COUNTIES.......
  
CITY           SKY/WX    TMP DP  RH WIND       PRES   REMARKS
LUMBERTON      CLEAR     52  43  71 CALM      30.12R                  
ELIZABETHTOWN  CLEAR     54  42  63 CALM      30.12R                  
WHITEVILLE     CLEAR     53  44  71 CALM      30.13R                  
FLORENCE       CLEAR     51  41  68 CALM      30.12R                  
DARLINGTON     CLEAR     50  38  63 CALM      30.13R                  
KINGSTREE      FAIR      50  43  76 CALM      30.11S                  
HARTSVILLE     MOCLDY    50  34  53 CALM      30.12R                  
BENNETTSVILLE  FAIR      46  39  76 CALM      30.12R                  
CONWAY         FAIR      48  46  93 CALM      30.12R                  
GEORGETOWN     FAIR      50  46  87 CALM      30.12R                  
MARION         FAIR      52  39  62 CALM      30.12R                  
 
....................REST OF NORTH CAROLINA......................

.........EASTERN NC.........
  
CITY           SKY/WX    TMP DP  RH WIND       PRES   REMARKS
CAPE HATTERAS  CLEAR     62  54  74 N6        30.11R                  
JACKSONVILLE   CLOUDY    58  52  80 CALM      30.13R                  
MOREHEAD CITY  CLOUDY    59  52  77 N3        30.11R                  
KENANSVILLE    PTCLDY    50  43  76 CALM      30.13R                  
NEW BERN       CLOUDY    58  50  75 NE6       30.13R                  
ELIZABETH CITY CLEAR     56  47  71 E6        30.14R                  

.........CENTRAL NC.........
  
CITY           SKY/WX    TMP DP  RH WIND       PRES   REMARKS
RALEIGH DURHAM PTCLDY    52  39  61 CALM      30.14R                  
ROCKY MOUNT    CLEAR     51  39  63 CALM      30.13R                  
ROANOKE RAPIDS NOT AVBL                                               
FAYETTEVILLE   CLEAR     57  39  51 CALM      30.12R                  
HOFFMAN        CLEAR     49  38  66 CALM      30.10R                  

.........WESTERN NC.........
  
CITY           SKY/WX    TMP DP  RH WIND       PRES   REMARKS
CHARLOTTE      CLEAR     54  30  40 CALM      30.12R                  
GREENSBORO     CLEAR     55  36  48 CALM      30.12R                  
HICKORY        NOT AVBL                                               
BOONE          NOT AVBL                                               
ASHEVILLE      NOT AVBL                                               

.....................REST OF SOUTH CAROLINA.....................

.........EASTERN SC.........
  
CITY           SKY/WX    TMP DP  RH WIND       PRES   REMARKS
CHARLESTON     CLEAR     58  43  57 CALM      30.11R                  
BEAUFORT MCAS  CLEAR     57  48  72 CALM      30.11R                  
HILTON HEAD    CLEAR     54  45  71 CALM      30.11R                  

.........CENTRAL SC.........
  
CITY           SKY/WX    TMP DP  RH WIND       PRES   REMARKS
COLUMBIA       CLEAR     54  39  57 CALM      30.11R                  
ORANGEBURG     CLEAR     53  42  66 CALM      30.11R                  
SUMTER SHAW    CLEAR     52  40  64 CALM      30.10R                  

.........WESTERN SC.........
  
CITY           SKY/WX    TMP DP  RH WIND       PRES   REMARKS
GREENVILLE     NOT AVBL                                               
ROCK HILL      CLEAR     48  35  60 CALM      30.13R                  
ANDERSON       CLEAR     54  36  50 CALM      30.11R                  
CLEMSON        NOT AVBL                                               
GREENWOOD      CLEAR     50  32  50 CALM      30.13R                  
 

...................COASTAL AND OFFSHORE REPORTS..................

................LOCAL PIERS AND NC RESERVE................

  
STATION/POSITION TIME  SKY/WX   TEMP    WIND        PRES    VSBY
                                AIR SEA DIR/SP/G
                 (UTC)          (F)     (DEG/KT/KT) (MB)    (MI)
JOHNY MRCER PIER 2330               69   10/ 10/ 11   N/A
NC RESRV MASNBRO NOT AVBL
OCEAN CREST PIER NOT AVBL
SPRINGMAID  PIER 2330                   330/  3/  4   N/A


................COASTAL AND OFFSHORE BUOYS................

  
STATION/POSITION TIME  SKY/WX   TEMP    WIND        PRES    VSBY
                                AIR SEA DIR/SP/G
                 (UTC)          (F)     (DEG/KT/KT) (MB)    (MI)
DIMNDSHOAL 41025 2350               77   30/ 16/ 19 1018.7R
CAPE LOOKOUT     2300            63      20/ 11/ 14 1019.5R
ONSLOW BAY 41036 NOT AVBL
ONSLOW BAY 41064 NOT AVBL
ONSLOW BAY 41159 2356               74                N/A
WVE H/P(F/S)=  3/ 4

MASNBO INL 41110 NOT AVBL
WILM HARBR 41108 NOT AVBL
27SE WRITB 41037 NOT AVBL
FRYING PAN 41013 2350            68 77   30/ 14/ 17 1018.7R
WVE H/P(F/S)=  3/ 5 SWL H/P/D(F/S/D)=  2/110/ 7

SUNST NRSH 41024 NOT AVBL
CAPRS NRSH 41029 NOT AVBL
EDISTO     41004 2350            67 78   30/ 12/ 16 1019.1R
WVE H/P(F/S)=  3/ 4 SWL H/P/D(F/S/D)=  2/120/ 9



..........OFFSHORE BUOYS BEYOND 100 NM OFFSHORE...........
.....IN A TRIANGLE---HAT TO BERMUDA TO BAHAMAS TO HAT..... 

  
STATION/POSITION TIME  SKY/WX   TEMP    WIND        PRES    VSBY
                                AIR SEA DIR/SP/G
                 (UTC)          (F)     (DEG/KT/KT) (MB)    (MI)
150E HAT   41001 2350            74 78   50/ 16/ 21 1018.2R
WVE H/P(F/S)=  5/ 6 SWL H/P/D(F/S/D)=  2/100/ 8

W BERMUDA  41048 2350                               1015.2R
WVE H/P(F/S)=  4/ 6

ATLANTIC S 41049 2350            81 83   90/  8/ 10 1016.2R
WVE H/P(F/S)=  4/13 SWL H/P/D(F/S/D)=  3/ 20/13

E BAHAMAS  41046 2350            83 84  110/ 10/ 12 1015.2R
NE BAHAMAS 41047 2350            79 82  140/  4/  6 1012.3R
WVE H/P(F/S)=  3/ 5 SWL H/P/D(F/S/D)=  3/170/ 5

120E CANVRL41010 2350            76 82   50/ 14/ 17 1015.6R

END
  
