ASUS45 KBOU 231910
RWRCO 

WEATHER ROUNDUP FOR COLORADO
NATIONAL WEATHER SERVICE DENVER/BOULDER CO
100 PM MDT SUN OCT 23 2022

NOTE: "FAIR" INDICATES FEW OR NO CLOUDS BELOW 12000 FEET WITH NO
SIGNIFICANT WEATHER AND/OR OBSTRUCTIONS TO VISIBILITY.

COZ001>005-013-030-031-232000-
...NORTHWEST COLORADO...
  
CITY           SKY/WX    TMP DP  RH WIND       PRES   REMARKS
CRAIG          LGT SNOW  32  28  85 NW14G25   29.63R FOG     WCI  22  
HAYDEN         LGT SNOW  31  31 100 W21       29.59S FOG     WCI  18  
MEEKER         LGT SNOW  31  29  92 VRB7      29.62R FOG     WCI  24  
RANGELY        LGT SNOW  32  32 100 SW3       29.67R VSB 1            
RABBIT EARS PA LGT SNOW  28  28 100 CALM      29.58F VSB 3/4          
STEAMBOAT SPGS CLOUDY    33  33 100 SW9       29.54S WCI  25          
WALDEN         CLOUDY    34  28  80 N12       29.54R WCI  25          
$$

COZ006>008-011-232000-
...WEST CENTRAL VALLEYS...
  
CITY           SKY/WX    TMP DP  RH WIND       PRES   REMARKS
GRAND JUNCTION RAIN      39  37  92 W14G20    29.63R FOG              
MONTROSE       PTSUNNY   45  34  65 SW13      29.63R                  
EAGLE          CLOUDY    40  34  79 W6        29.58F                  
RIFLE          CLOUDY    39  35  86 W5        29.59S                  
DELTA          CLOUDY    46  37  71 NE3       29.63F                  
NUCLA          NOT AVBL                                               
$$

COZ017>023-064>068-232000-
...SOUTHWEST COLORADO...
  
CITY           SKY/WX    TMP DP  RH WIND       PRES   REMARKS
DURANGO        CLOUDY    42  30  62 W16G28    29.73S                  
CORTEZ         FAIR      46  34  62 S16G23    29.72S                  
PAGOSA SPRINGS CLOUDY    41  31  67 SW14G26   29.72R                  
TELLURIDE      PTSUNNY   34  14  44 W10G23    29.70F WCI  26          
WOLF CREEK PAS HVY SNOW  21  21 100 MISG      29.66F VSB<1/4          
$$

COZ009-010-012-014-032>034-037-058>063-232000-
...CENTRAL COLORADO...
  
CITY           SKY/WX    TMP DP  RH WIND       PRES   REMARKS
ASPEN          FLURRIES  33  31  92 N8        29.58F WCI  26          
BUENA VISTA      N/A     43  33  67 S3        29.53F                  
COPPER MTN     FLURRIES  30  23  74 W7G20     29.62F WCI  23          
BERTHOUD PASS  HAZE      23  18  80 W17G38    29.61F VSB 1/2 WCI   9  
COTTONWOOD PAS CLOUDY    34  27  75 SW10G22   29.58S WCI  26          
GUNNISON       CLOUDY    37  28  70 SW7G23    29.63R                  
GRANBY         CLOUDY    40  30  65 W10G16    29.56F                  
KREMMLING      PTSUNNY   41  32  70 SW15      29.56F                  
LEADVILLE      CLOUDY    35  25  66 S10G21    29.55F WCI  27          
MONARCH PASS   CLOUDY    23  21  93 MISG      29.71F                  
SALIDA         PTSUNNY   43  32  63 W13G25    29.61F                  
SUNLIGHT       SNOW      25  21  86 MISG      29.64S VSB 1/4          
WILKERSON PASS CLOUDY    28  27  93 S14G21    29.62S VSB 1/4 WCI  17  
$$

COZ069>075-232000-
...SAN LUIS VALLEY/SANGRE DE CRISTO MOUNTAINS...
  
CITY           SKY/WX    TMP DP  RH WIND       PRES   REMARKS
ALAMOSA        PTSUNNY   52  33  48 W23G32    29.61S                  
DEL NORTE      CLOUDY    43  30  61 SW17G26   29.62R                  
LA VETA PASS   SNOW      12   9  85 SW22G30   29.60R VSB 1/4 WCI  -7  
SAGUACHE       FAIR      52  18  25 SW31G52   29.58F                  
$$

COZ035-036-038>040-232000-
...NORTHERN COLORADO FRONT RANGE...
  
CITY           SKY/WX    TMP DP  RH WIND       PRES   REMARKS
DENVER INTL AP PTSUNNY   68  28  22 SW23G35   29.32R                  
AURORA         MOSUNNY   65  29  26 SW24G31   29.33R                  
WATKINS        NOT AVBL                                               
ERIE           FAIR      65  25  21 CALM      29.32S                  
BOULDER        FAIR      64  27  24 SW15      29.32S                  
CENTENNIAL     PTSUNNY   63  28  26 SW29G43   29.35F                  
BROOMFIELD     PTSUNNY   63  25  23 W31G38    29.34S                  
FORT COLLINS   FAIR      66  33  29 E8        29.31R                  
LONGMONT       FAIR      71  28  20 NW5       29.33R                  
$$

COZ041-046-047-076>085-087-088-232000-
...PIKES PEAK/PALMER DIVIDE AND SOUTHERN FOOTHILLS...
  
CITY           SKY/WX    TMP DP  RH WIND       PRES   REMARKS
COLO. SPRINGS  PTSUNNY   61  33  35 NW12G37   29.45S                  
A. F. ACADEMY  FAIR      58  30  35 S14G23    29.43R                  
SCHRIEVER AFB  NOT AVBL                                               
CHEYENNE MTN   FAIR      60  29  31 SE8G26    29.38R                  
ELLICOTT       FAIR      66  29  25 SW26G36   29.44R                  
FALCON         FAIR      60  30  31 W17G28    29.48S                  
FORT CARSON    FAIR      61  30  30 SW15      29.41R                  
LIMON          FAIR      71  25  17 SW24G49   29.35R                  
MONUMENT HILL  FAIR      57  32  38 W26G33    29.47R                  
CANON CITY     PTSUNNY   63  37  39 SW8       29.43S                  
WALSENBURG     NOT AVBL                                               
TRINIDAD       FAIR      69  27  20 SW28G43   29.47S                  
$$

COZ042>045-048>051-090-091-232000-
...NORTHEAST COLORADO...
  
CITY           SKY/WX    TMP DP  RH WIND       PRES   REMARKS
GREELEY        FAIR      65  34  31 N13G23    29.31R                  
AKRON          FAIR      73  28  18 NW17G33   29.28R                  
BURLINGTON     PTSUNNY   80  24  12 SW41G59   29.32F HAZE             
WRAY           FAIR      81  23  12 SW28G40   29.23S                  
YUMA           NOT AVBL                                               
STERLING       FAIR      68  36  30 NW21      29.27S                  
HOLYOKE        FAIR      81  28  15 W17G26    29.23R                  
FORT MORGAN    FAIR      70  32  24 N16G26    29.29R                  
$$

COZ086-089-092>099-232000-
...SOUTHEAST COLORADO...
  
CITY           SKY/WX    TMP DP  RH WIND       PRES   REMARKS
PUEBLO         FAIR      71  33  24 SW26G38   29.41R                  
LA JUNTA       FAIR      78  27  15 SW25G49   29.37F                  
LAMAR          FAIR      83  25  12 SW31G53   29.34F                  
SPRINGFIELD      N/A     79  32  18 SW30G49   29.45F                  
$$
  
