ASUS45 KBOU 231710
RWRCO 

WEATHER ROUNDUP FOR COLORADO
NATIONAL WEATHER SERVICE DENVER/BOULDER CO
1100 AM MDT SUN OCT 23 2022

NOTE: "FAIR" INDICATES FEW OR NO CLOUDS BELOW 12000 FEET WITH NO
SIGNIFICANT WEATHER AND/OR OBSTRUCTIONS TO VISIBILITY.

COZ001>005-013-030-031-231800-
...NORTHWEST COLORADO...
  
CITY           SKY/WX    TMP DP  RH WIND       PRES   REMARKS
CRAIG          SNOW      33  30  88 W7        29.58S VSB 1/2 WCI  27  
HAYDEN         LGT SNOW  32  32 100 W8        29.57R VSB 3/4 WCI  25  
MEEKER         CLOUDY    35  33  92 NW5       29.56R WCI  31          
RANGELY        LGT SNOW  32  32  99 CALM      29.61R                  
RABBIT EARS PA SNOW      27  27 100 W5        29.58R VSB 1/2 WCI  21  
STEAMBOAT SPGS CLOUDY    32  32 100 CALM      29.55R                  
WALDEN         FAIR      37  28  70 S13G18    29.51S                  
$$

COZ006>008-011-231800-
...WEST CENTRAL VALLEYS...
  
CITY           SKY/WX    TMP DP  RH WIND       PRES   REMARKS
GRAND JUNCTION LGT RAIN  41  37  86 N7        29.59R                  
MONTROSE       LGT RAIN  35  34  96 S5        29.66R WCI  31          
EAGLE          CLOUDY    40  32  73 SW9       29.59S                  
RIFLE          LGT RAIN  36  35  96 CALM      29.58S                  
DELTA          PTSUNNY   44  38  82 S7        29.64R                  
NUCLA          NOT AVBL                                               
$$

COZ017>023-064>068-231800-
...SOUTHWEST COLORADO...
  
CITY           SKY/WX    TMP DP  RH WIND       PRES   REMARKS
DURANGO        PTSUNNY   43  41  93 W24G33    29.69R                  
CORTEZ         LGT RAIN  39  34  82 W14G21    29.73R                  
PAGOSA SPRINGS MIX PCPN  38  38  98 W16G29    29.68R                  
TELLURIDE      CLOUDY    36  25  64 W13G21    29.67S                  
WOLF CREEK PAS SNOW      25  25 100 MISG      29.70R VSB 1/4          
$$

COZ009-010-012-014-032>034-037-058>063-231800-
...CENTRAL COLORADO...
  
CITY           SKY/WX    TMP DP  RH WIND       PRES   REMARKS
ASPEN          SNOW      32  32 100 CALM      29.58R VSB 1/2          
BUENA VISTA    LGT RAIN  40  35  83 NW5       29.54F                  
COPPER MTN     SNOW      28  23  80 W18       29.62F VSB 1/4 WCI  16  
BERTHOUD PASS  LGT SNOW  25  19  80 W16G28    29.62S WCI  12          
DAKOTA HILL    CLOUDY    32  30  93 NW16G23   29.54S WCI  21          
COTTONWOOD PAS SNOW      32  32 100 W16G24    29.58S VSB 1/2 WCI  21  
GUNNISON       LGT RAIN  36  33  89 SW8G16    29.60R                  
GRANBY         CLOUDY    38  32  80 SW7       29.56R                  
KREMMLING      PTSUNNY   36  34  93 CALM      29.56R                  
LEADVILLE      CLOUDY    33  28  81 N5        29.56R WCI  29          
MONARCH PASS   CLOUDY    25  23  93 MISG      29.72R                  
SALIDA         CLOUDY    44  36  74 W13       29.61R                  
SUNLIGHT       LGT SNOW  25  21  86 MISG      29.64S VSB 3/4          
WILKERSON PASS HVY SNOW  30  28  93 S17G26    29.62F VSB<1/4 WCI  18  
$$

COZ069>075-231800-
...SAN LUIS VALLEY/SANGRE DE CRISTO MOUNTAINS...
  
CITY           SKY/WX    TMP DP  RH WIND       PRES   REMARKS
ALAMOSA        PTSUNNY   50  36  58 S28G41    29.58F                  
DEL NORTE      DRIZZLE   42  37  81 SW7       29.60S                  
LA VETA PASS   CLOUDY    19   5  53 SW21G40   29.58F WCI   3          
SAGUACHE       CLOUDY    46  37  71 S7        29.61S                  
$$

COZ035-036-038>040-231800-
...NORTHERN COLORADO FRONT RANGE...
  
CITY           SKY/WX    TMP DP  RH WIND       PRES   REMARKS
DENVER INTL AP PTSUNNY   68  28  22 SW24G44   29.31S                  
AURORA         MOSUNNY   64  29  26 SW20G29   29.33R                  
WATKINS        NOT AVBL                                               
ERIE           FAIR      64  20  18 E6        29.32R                  
BOULDER        FAIR      61  28  29 N6        29.33R                  
CENTENNIAL     PTSUNNY   60  29  30 W22G44    29.36R                  
BROOMFIELD     PTSUNNY  N/A N/A N/A S12       29.33S                  
FORT COLLINS   FAIR      67  28  23 NE13      29.31R                  
LONGMONT       FAIR      64  26  24 E7        29.34R                  
$$

COZ041-046-047-076>085-087-088-231800-
...PIKES PEAK/PALMER DIVIDE AND SOUTHERN FOOTHILLS...
  
CITY           SKY/WX    TMP DP  RH WIND       PRES   REMARKS
COLO. SPRINGS  FAIR      64  27  24 SW37G46   29.45R                  
A. F. ACADEMY  FAIR      61  24  24 S28G39    29.40R                  
SCHRIEVER AFB  NOT AVBL                                               
CHEYENNE MTN   LGT RAIN  55  28  35 S5G29     29.29F                  
ELLICOTT       FAIR      65  26  23 SW31G39   29.43S                  
FALCON         FAIR      61  26  26 SW33G44   29.46R                  
FORT CARSON    FAIR      64  26  24 SW23G30   29.40S                  
LIMON          PTSUNNY   70  25  18 SW35G49   29.34F                  
MONUMENT HILL  FAIR      61  25  25 SW26G36   29.43F                  
CANON CITY     PTSUNNY   66  32  28 SW16G22   29.41F                  
WALSENBURG     NOT AVBL                                               
TRINIDAD       FAIR      68  29  23 SW26G36   29.50F                  
$$

COZ042>045-048>051-090-091-231800-
...NORTHEAST COLORADO...
  
CITY           SKY/WX    TMP DP  RH WIND       PRES   REMARKS
GREELEY        FAIR      65  29  25 NE10      29.31S                  
AKRON            N/A     73  26  17 SW25G35   29.27R                  
BURLINGTON     CLOUDY    75  25  15 SW40G60   29.36R HAZE             
WRAY           FAIR      77  25  14 SW25G40   29.24S                  
YUMA           NOT AVBL                                               
STERLING       FAIR      70  32  24 W10G20    29.24R                  
HOLYOKE        FAIR      79  27  14 SW22G30   29.22F                  
FORT MORGAN    FAIR      66  28  24 W20       29.27R                  
$$

COZ086-089-092>099-231800-
...SOUTHEAST COLORADO...
  
CITY           SKY/WX    TMP DP  RH WIND       PRES   REMARKS
PUEBLO         FAIR      72  30  21 SW28G43   29.40R                  
LA JUNTA       FAIR      75  25  15 SW36G52   29.39F                  
LAMAR          FAIR      78  37  22 SW32G47   29.37S                  
SPRINGFIELD      N/A     76  36  23 SW31G48   29.48F                  
$$
  
