ASUS45 KBOU 231810
RWRCO 

WEATHER ROUNDUP FOR COLORADO
NATIONAL WEATHER SERVICE DENVER/BOULDER CO
1200 PM MDT SUN OCT 23 2022

NOTE: "FAIR" INDICATES FEW OR NO CLOUDS BELOW 12000 FEET WITH NO
SIGNIFICANT WEATHER AND/OR OBSTRUCTIONS TO VISIBILITY.

COZ001>005-013-030-031-231900-
...NORTHWEST COLORADO...
  
CITY           SKY/WX    TMP DP  RH WIND       PRES   REMARKS
CRAIG          LGT SNOW  33  29  85 W9        29.60R VSB 3/4 WCI  25  
HAYDEN         LGT SNOW  32  30  93 W9        29.59R FOG     WCI  24  
MEEKER         SNOW      31  30  96 NW14G21   29.58R VSB 1/4 WCI  21  
RANGELY        SNOW      32  32 100 CALM      29.65R VSB 1/2          
RABBIT EARS PA CLOUDY    28  28 100 W7        29.59R FOG     WCI  21  
STEAMBOAT SPGS CLOUDY    33  33 100 SW6       29.54S WCI  28          
WALDEN         PTSUNNY   39  27  60 SW16G23   29.52S                  
$$

COZ006>008-011-231900-
...WEST CENTRAL VALLEYS...
  
CITY           SKY/WX    TMP DP  RH WIND       PRES   REMARKS
GRAND JUNCTION LGT RAIN  43  37  79 VRB5      29.58F                  
MONTROSE       CLOUDY    40  37  89 SE14      29.62F                  
EAGLE          LGT RAIN  40  34  79 W5        29.59S                  
RIFLE          LGT RAIN  36  34  92 NW6       29.59S                  
DELTA          PTSUNNY   45  38  77 E5        29.63F                  
NUCLA          NOT AVBL                                               
$$

COZ017>023-064>068-231900-
...SOUTHWEST COLORADO...
  
CITY           SKY/WX    TMP DP  RH WIND       PRES   REMARKS
DURANGO        CLOUDY    42  32  67 W29G41    29.73R                  
CORTEZ         CLOUDY    42  36  79 S18G28    29.72F                  
PAGOSA SPRINGS CLOUDY    40  33  76 SW20G33   29.70R                  
TELLURIDE      SNOW      32  28  86 NW7       29.71R VSB 1/2 WCI  26  
WOLF CREEK PAS SNOW      21  21 100 MISG      29.68F VSB 1/2          
$$

COZ009-010-012-014-032>034-037-058>063-231900-
...CENTRAL COLORADO...
  
CITY           SKY/WX    TMP DP  RH WIND       PRES   REMARKS
ASPEN          LGT SNOW  33  31  92 N7        29.57F VSB 1   WCI  27  
BUENA VISTA    LGT RAIN  38  34  85 W14       29.57R                  
COPPER MTN     LGT SNOW  28  25  86 W5        29.65R VSB 1   WCI  23  
BERTHOUD PASS  SNOW      23  21  93 SW6G17    29.62R VSB 1/2 WCI  16  
COTTONWOOD PAS SNOW      32  30  93 W12G24    29.59S VSB 1/2 WCI  23  
GUNNISON       MIX PCPN  36  32  85 SW10G17   29.61R                  
GRANBY         CLOUDY    38  32  79 W5        29.57R                  
KREMMLING      CLOUDY    39  34  81 SW15      29.57R                  
LEADVILLE      FLURRIES  31  25  78 VRB3      29.58R                  
MONARCH PASS   SNOW      23  23 100 MISG      29.73S VSB 1/4          
SALIDA         CLOUDY    46  32  59 W14       29.62R                  
SUNLIGHT       SNOW      23  21  93 SW12      29.64R VSB<1/4 WCI  12  
WILKERSON PASS SNOW      30  28  93 S17G29    29.63R VSB 1/4 WCI  18  
$$

COZ069>075-231900-
...SAN LUIS VALLEY/SANGRE DE CRISTO MOUNTAINS...
  
CITY           SKY/WX    TMP DP  RH WIND       PRES   REMARKS
ALAMOSA        CLOUDY    49  36  61 SW35G48   29.60R                  
DEL NORTE      DRIZZLE   40  34  78 SW13      29.62R                  
LA VETA PASS   LGT SNOW  12   7  79 W23G33    29.58S WCI  -7          
SAGUACHE       FAIR      45  36  70 S17G23    29.60S                  
$$

COZ035-036-038>040-231900-
...NORTHERN COLORADO FRONT RANGE...
  
CITY           SKY/WX    TMP DP  RH WIND       PRES   REMARKS
DENVER INTL AP PTSUNNY   67  30  25 SW29G44   29.31S                  
AURORA         MOSUNNY   63  30  29 SW35G43   29.32F                  
WATKINS        NOT AVBL                                               
ERIE           FAIR      64  23  21 N7        29.32R                  
BOULDER        FAIR      63  30  29 CALM      29.32S                  
CENTENNIAL     PTSUNNY   62  31  31 SW20G37   29.36S                  
BROOMFIELD     PTSUNNY   63  28  27 W21       29.34R                  
FORT COLLINS   PTSUNNY   69  28  21 SE15      29.30F                  
LONGMONT       FAIR      69  27  20 NE5       29.32F                  
$$

COZ041-046-047-076>085-087-088-231900-
...PIKES PEAK/PALMER DIVIDE AND SOUTHERN FOOTHILLS...
  
CITY           SKY/WX    TMP DP  RH WIND       PRES   REMARKS
COLO. SPRINGS  PTSUNNY   63  32  31 SW20G32   29.45S                  
A. F. ACADEMY  FAIR      60  26  27 SW18G36   29.41R                  
SCHRIEVER AFB  NOT AVBL                                               
CHEYENNE MTN   FAIR      56  32  40 SE7G20    29.26R                  
ELLICOTT       FAIR      66  26  22 SW28G39   29.43S                  
FALCON         FAIR      61  29  30 SW24G33   29.46S                  
FORT CARSON    FAIR      61  31  32 W18       29.40S                  
LIMON          FAIR      71  25  17 SW32G53   29.34S                  
MONUMENT HILL  FAIR      59  27  29 SW33G43   29.45R                  
CANON CITY     FAIR      66  34  30 SW20      29.42S                  
WALSENBURG     NOT AVBL                                               
TRINIDAD       FAIR      70  27  20 S35G48    29.47F                  
$$

COZ042>045-048>051-090-091-231900-
...NORTHEAST COLORADO...
  
CITY           SKY/WX    TMP DP  RH WIND       PRES   REMARKS
GREELEY        FAIR      68  28  22 NE10G23   29.30F HAZE             
AKRON          FAIR      75  26  16 SW25G39   29.27S                  
BURLINGTON     CLOUDY    77  25  14 SW43G60   29.34F HAZE             
WRAY           FAIR      81  23  12 SW24G37   29.24S                  
YUMA           NOT AVBL                                               
STERLING       FAIR      70  32  24 NW15G23   29.26R                  
HOLYOKE        FAIR      81  27  13 SW13G26   29.23S                  
FORT MORGAN    FAIR      70  28  21 NW14G22   29.28R                  
$$

COZ086-089-092>099-231900-
...SOUTHEAST COLORADO...
  
CITY           SKY/WX    TMP DP  RH WIND       PRES   REMARKS
PUEBLO         FAIR      71  33  24 SW28G38   29.39F                  
LA JUNTA       FAIR      77  26  15 SW33G53   29.39S                  
LAMAR          FAIR      81  31  16 SW37G53   29.36F                  
SPRINGFIELD      N/A     78  29  16 SW38G56   29.47F                  
$$
  
