ASUS45 KBOU 232110
RWRCO 

WEATHER ROUNDUP FOR COLORADO
NATIONAL WEATHER SERVICE DENVER/BOULDER CO
300 PM MDT SUN OCT 23 2022

NOTE: "FAIR" INDICATES FEW OR NO CLOUDS BELOW 12000 FEET WITH NO
SIGNIFICANT WEATHER AND/OR OBSTRUCTIONS TO VISIBILITY.

COZ001>005-013-030-031-232200-
...NORTHWEST COLORADO...
  
CITY           SKY/WX    TMP DP  RH WIND       PRES   REMARKS
CRAIG          LGT SNOW  32  29  88 W10       29.68R VSB 3/4 WCI  24  
HAYDEN         LGT SNOW  30  30 100 W14       29.67R FOG     WCI  20  
MEEKER         SNOW      30  27  88 NW14      29.68R VSB 1/2 WCI  19  
RANGELY        CLOUDY    36  33  88 CALM      29.70R                  
RABBIT EARS PA HVY SNOW  19  19 100 W12       29.60R VSB<1/4 WCI   7  
STEAMBOAT SPGS CLOUDY    29  29 100 SW10      29.62R VSB 3/4 WCI  19  
WALDEN         CLOUDY    27  27 100 N20G25    29.55R VSB 1/4 WCI  13  
$$

COZ006>008-011-232200-
...WEST CENTRAL VALLEYS...
  
CITY           SKY/WX    TMP DP  RH WIND       PRES   REMARKS
GRAND JUNCTION RAIN      34  33  96 N8        29.69R FOG     WCI  27  
MONTROSE       PTSUNNY   42  32  67 W17G24    29.68R                  
EAGLE          LGT RAIN  37  32  82 NW10G20   29.60R                  
RIFLE          HVY SNOW  33  31  92 W13       29.69R VSB 1/4 WCI  24  
DELTA          FAIR      46  37  72 W20G25    29.66R                  
NUCLA          NOT AVBL                                               
$$

COZ017>023-064>068-232200-
...SOUTHWEST COLORADO...
  
CITY           SKY/WX    TMP DP  RH WIND       PRES   REMARKS
DURANGO        CLOUDY    41  27  57 W17G26    29.74R                  
CORTEZ         FAIR      49  19  30 SW25G35   29.71S                  
PAGOSA SPRINGS CLOUDY    39  21  47 SW12G25   29.74R                  
TELLURIDE      LGT SNOW  30  21  69 W17G23    29.72R VSB 3/4 WCI  18  
WOLF CREEK PAS SNOW      18  18 100 SW36G62   29.68R VSB 1/2 WCI  -3  
$$

COZ009-010-012-014-032>034-037-058>063-232200-
...CENTRAL COLORADO...
  
CITY           SKY/WX    TMP DP  RH WIND       PRES   REMARKS
ASPEN          CLOUDY    36  24  62 W5        29.58S                  
BUENA VISTA      N/A     37  27  68 W20G31    29.59R HAZE             
COPPER MTN     SNOW      25  19  80 SW8G23    29.64R VSB 1/4 WCI  16  
BERTHOUD PASS  LGT SNOW  19  16  86 W21G30    29.59S VSB 3/4 WCI   3  
COTTONWOOD PAS LGT SNOW  28  23  80 W15G25    29.61R WCI  17          
GUNNISON       FAIR      39  23  52 W22G30    29.62R                  
GRANBY         CLOUDY    39  25  55 W10G16    29.56S                  
KREMMLING      LGT SNOW  36  28  75 NW13G30   29.59R                  
LEADVILLE      CLOUDY    31  19  61 SW13G21   29.59R WCI  21          
SALIDA         FAIR      46  22  39 W20G26    29.66S                  
SUNLIGHT       HVY SNOW  21  18  86 MISG      29.65R VSB<1/4          
WILKERSON PASS CLOUDY    28  23  80 S17G28    29.61S WCI  16          
$$

COZ069>075-232200-
...SAN LUIS VALLEY/SANGRE DE CRISTO MOUNTAINS...
  
CITY           SKY/WX    TMP DP  RH WIND       PRES   REMARKS
ALAMOSA        FAIR      50  24  36 W24G39    29.64R                  
DEL NORTE      CLOUDY    43  22  43 SW23G38   29.63R                  
LA VETA PASS   CLOUDY    12   3  67 W21G33    29.62S WCI  -6          
SAGUACHE       PTSUNNY   45  27  49 NW22G28   29.59S                  
$$

COZ035-036-038>040-232200-
...NORTHERN COLORADO FRONT RANGE...
  
CITY           SKY/WX    TMP DP  RH WIND       PRES   REMARKS
DENVER INTL AP PTSUNNY   64  27  24 VRB3      29.34R                  
AURORA         PTSUNNY   64  22  20 SW23G30   29.35S                  
WATKINS        NOT AVBL                                               
ERIE           FAIR      65  19  17 NW9       29.33S                  
BOULDER        FAIR      63  23  22 SW15G24   29.34R                  
CENTENNIAL     FAIR      62  21  20 SW24G43   29.37S                  
BROOMFIELD     PTSUNNY   64  27  24 NW12      29.35R                  
FORT COLLINS   PTSUNNY   64  35  34 NE8       29.32S                  
LONGMONT       FAIR      67  19  16 W15G29    29.35R                  
$$

COZ041-046-047-076>085-087-088-232200-
...PIKES PEAK/PALMER DIVIDE AND SOUTHERN FOOTHILLS...
  
CITY           SKY/WX    TMP DP  RH WIND       PRES   REMARKS
COLO. SPRINGS  PTSUNNY   61  27  27 S25G49    29.43S                  
A. F. ACADEMY  LGT RAIN  52  33  49 W21       29.42R                  
SCHRIEVER AFB  NOT AVBL                                               
CHEYENNE MTN   CLOUDY    56  22  27 SE16G24   29.22S                  
ELLICOTT       FAIR      66  24  20 SW29G38   29.44S                  
FALCON         PTSUNNY   58  25  28 SW25G40   29.46S                  
FORT CARSON    FAIR      62  16  16 SW29G47   29.38F                  
LIMON          FAIR      71  28  20 SW26G38   29.37R                  
MONUMENT HILL  CLOUDY    50  30  46 W16G25    29.48S                  
CANON CITY     FAIR      68  18  14 W28G36    29.41S                  
WALSENBURG     NOT AVBL                                               
TRINIDAD       FAIR      64  33  31 W30G44    29.53R                  
$$

COZ042>045-048>051-090-091-232200-
...NORTHEAST COLORADO...
  
CITY           SKY/WX    TMP DP  RH WIND       PRES   REMARKS
GREELEY        TSTM      55  40  56 S9G25     29.35R                  
AKRON          PTSUNNY   63  34  33 N18       29.32R                  
BURLINGTON     FAIR      79  25  13 SW39G52   29.33R                  
WRAY           FAIR      72  25  17 N20G28    29.26R                  
YUMA           NOT AVBL                                               
STERLING       FAIR      64  34  32 NW20G28   29.31R                  
HOLYOKE        FAIR      72  34  25 N24G32    29.29R                  
FORT MORGAN    PTSUNNY   63  34  34 N24       29.30S                  
$$

COZ086-089-092>099-232200-
...SOUTHEAST COLORADO...
  
CITY           SKY/WX    TMP DP  RH WIND       PRES   REMARKS
PUEBLO         FAIR      71  31  22 SW14G26   29.40F                  
LA JUNTA       FAIR      76  31  19 W29G44    29.39R                  
LAMAR          FAIR      81  28  14 SW29G40   29.32S                  
SPRINGFIELD      N/A     79  25  13 SW36G60   29.44R                  
$$
  
