ASUS45 KBOU 232010
RWRCO 

WEATHER ROUNDUP FOR COLORADO
NATIONAL WEATHER SERVICE DENVER/BOULDER CO
200 PM MDT SUN OCT 23 2022

NOTE: "FAIR" INDICATES FEW OR NO CLOUDS BELOW 12000 FEET WITH NO
SIGNIFICANT WEATHER AND/OR OBSTRUCTIONS TO VISIBILITY.

COZ001>005-013-030-031-232100-
...NORTHWEST COLORADO...
  
CITY           SKY/WX    TMP DP  RH WIND       PRES   REMARKS
CRAIG          LGT SNOW  33  29  85 W15       29.64S VSB 1   WCI  23  
HAYDEN         LGT SNOW  30  28  93 NW14G21   29.63R FOG     WCI  20  
MEEKER         SNOW      31  30  96 SW5       29.65R VSB 1/2 WCI  26  
RANGELY        FLURRIES  35  33  93 SW5       29.68R WCI  31          
RABBIT EARS PA HVY SNOW  21  21 100 W13G22    29.57F VSB<1/4 WCI   9  
STEAMBOAT SPGS CLOUDY    31  31 100 SW12      29.56R WCI  22          
WALDEN         CLOUDY    32  27  80 N17       29.52F WCI  21          
$$

COZ006>008-011-232100-
...WEST CENTRAL VALLEYS...
  
CITY           SKY/WX    TMP DP  RH WIND       PRES   REMARKS
GRAND JUNCTION LGT RAIN  34  34 100 CALM      29.66R FOG              
MONTROSE       PTSUNNY   40  34  79 NW17      29.65R                  
EAGLE          CLOUDY    40  33  76 W21G30    29.57F                  
RIFLE          LGT SNOW  34  31  88 NW18G35   29.63R VSB 3/4 WCI  23  
DELTA          CLOUDY    47  35  63 SW10      29.62F                  
NUCLA          NOT AVBL                                               
$$

COZ017>023-064>068-232100-
...SOUTHWEST COLORADO...
  
CITY           SKY/WX    TMP DP  RH WIND       PRES   REMARKS
DURANGO        CLOUDY    42  28  57 W17G24    29.73S                  
CORTEZ         CLOUDY    46  30  53 S17G26    29.70F                  
PAGOSA SPRINGS CLOUDY    40  22  48 SW18G26   29.73R                  
TELLURIDE      CLOUDY    32  16  51 W18G32    29.70S WCI  20          
WOLF CREEK PAS HVY SNOW  19  19 100 SW35G52   29.67S VSB<1/4 WCI  -1  
$$

COZ009-010-012-014-032>034-037-058>063-232100-
...CENTRAL COLORADO...
  
CITY           SKY/WX    TMP DP  RH WIND       PRES   REMARKS
ASPEN          CLOUDY    36  31  82 NE3       29.58S                  
BUENA VISTA    LGT SNOW  41  30  65 W25G33    29.55R                  
COPPER MTN     FOG       28  23  80 SW3       29.60F VSB 1/4          
BERTHOUD PASS  SNOW      21  19  93 NW6G17    29.60S VSB<1/4 WCI  14  
COTTONWOOD PAS SNOW      30  28  93 NW9G23    29.58R VSB 1/4 WCI  22  
GUNNISON       PTSUNNY   40  19  43 W24G33    29.60F                  
GRANBY         CLOUDY    41  27  59 W10G21    29.56S                  
KREMMLING      PTSUNNY   39  30  70 SW18G28   29.55S                  
LEADVILLE      LGT SNOW  28  25  88 W3        29.58R VSB 3/4          
SALIDA         CLOUDY    41  32  70 SW14G20   29.63R                  
SUNLIGHT       HVY SNOW  23  21  93 MISG      29.62F VSB<1/4          
WILKERSON PASS FAIR      32  28  86 SE8G20    29.62S WCI  25          
$$

COZ069>075-232100-
...SAN LUIS VALLEY/SANGRE DE CRISTO MOUNTAINS...
  
CITY           SKY/WX    TMP DP  RH WIND       PRES   REMARKS
ALAMOSA        PTSUNNY   51  26  37 SW36G47   29.62R                  
DEL NORTE      PTSUNNY   45  26  46 SW23G30   29.61F                  
LA VETA PASS   LGT SNOW  10   7  85 SW14G29   29.62S WCI  -5          
SAGUACHE       FAIR      52  14  22 W29G52    29.57S                  
$$

COZ035-036-038>040-232100-
...NORTHERN COLORADO FRONT RANGE...
  
CITY           SKY/WX    TMP DP  RH WIND       PRES   REMARKS
DENVER INTL AP PTSUNNY   66  30  26 SW24G40   29.33R                  
AURORA         PTSUNNY   64  31  29 W18       29.35R                  
WATKINS        NOT AVBL                                               
ERIE           CLOUDY    61  26  26 SW7       29.33S                  
BOULDER        FAIR      61  23  23 W15G24    29.33R                  
CENTENNIAL     PTSUNNY   61  28  28 SW20G31   29.37R                  
BROOMFIELD     PTSUNNY   57  32  38 N5        30.34R                  
FORT COLLINS   PTSUNNY   65  32  29 SE9       29.31S                  
LONGMONT       PTSUNNY   66  23  19 SW6       29.34R HAZE             
$$

COZ041-046-047-076>085-087-088-232100-
...PIKES PEAK/PALMER DIVIDE AND SOUTHERN FOOTHILLS...
  
CITY           SKY/WX    TMP DP  RH WIND       PRES   REMARKS
COLO. SPRINGS  PTSUNNY   62  30  29 S23G40    29.43F                  
A. F. ACADEMY  MOSUNNY   54  33  44 W13G18    29.41F                  
SCHRIEVER AFB  NOT AVBL                                               
CHEYENNE MTN   PTSUNNY   57  29  34 S20G36    29.32F                  
ELLICOTT       FAIR      64  31  29 SW22G35   29.44S                  
FALCON         FAIR      62  29  29 SW25G37   29.46F                  
FORT CARSON    FAIR      61  28  29 SW25G33   29.40F                  
LIMON          FAIR      72  27  18 SW30G43   29.36R                  
MONUMENT HILL  PTSUNNY   50  32  50 SW17G29   29.49S                  
CANON CITY     FAIR      68  28  22 SW24G35   29.41F                  
WALSENBURG     NOT AVBL                                               
TRINIDAD       PTSUNNY   70  30  22 W29G44    29.48R                  
$$

COZ042>045-048>051-090-091-232100-
...NORTHEAST COLORADO...
  
CITY           SKY/WX    TMP DP  RH WIND       PRES   REMARKS
GREELEY        PTSUNNY   64  33  31 NE8       29.30F                  
AKRON          PTSUNNY   67  32  27 N22G31    29.29R                  
BURLINGTON     FAIR      80  23  12 SW43G62   29.32S                  
WRAY           FAIR      82  23  11 W23G38    29.24R                  
YUMA           NOT AVBL                                               
STERLING       FAIR      68  34  28 N17G26    29.30R                  
HOLYOKE        FAIR      73  30  20 NW24G33   29.26R                  
FORT MORGAN    FAIR      70  32  24 N18G26    29.30R                  
$$

COZ086-089-092>099-232100-
...SOUTHEAST COLORADO...
  
CITY           SKY/WX    TMP DP  RH WIND       PRES   REMARKS
PUEBLO         FAIR      70  36  28 SW20G31   29.41S                  
LA JUNTA       FAIR      76  26  15 SW26G44   29.38R                  
LAMAR          FAIR      81  30  15 SW29G49   29.32F                  
SPRINGFIELD      N/A     79  31  17 SW35G59   29.43F                  
$$
  
