ASUS43 KJKL 220110
RWRJKL

EAST KENTUCKY HOURLY WEATHER ROUNDUP
NATIONAL WEATHER SERVICE JACKSON KY
900 PM EDT FRI OCT 21 2022

NOTE: "FAIR" INDICATES FEW OR NO CLOUDS BELOW 12,000 FEET WITH
NO SIGNIFICANT WEATHER AND/OR OBSTRUCTIONS TO VISIBILITY.

* THESE REPORTS ARE NOT UNDER NWS QUALITY CONTROL AND MAY NOT
  REPORT WEATHER SUCH AS PRECIPITATION AND FOG.

KYZ079-080-083-085-087-088-110-112-115-119-120-220200
...EASTERN KENTUCKY...
  
CITY           SKY/WX    TMP DP  RH WIND       PRES   REMARKS
JACKSON        CLEAR     58  33  39 S5        30.05R                  
LONDON         CLEAR     54  34  46 CALM      30.06R                  
SOMERSET*      CLEAR     57  34  41 S6        30.03R                  
MONTICELLO*    CLEAR     57  34  41 S8        30.07R                  
WILLIAMSBURG*  FAIR      54  32  43 SE6       30.07R                  
MIDDLESBORO*   CLEAR     45  38  76 CALM      30.10R                  
HARLAN APT*    CLEAR     47  36  63 CALM      30.09R                  
PIKE CO APT*   FAIR      57  33  39 CALM      30.07R                  
BIG SANDY APT* CLEAR     58  34  40 S5        30.06R                  
MOREHEAD APT*  CLEAR     59  30  33 S3        30.04R                  
ASHLAND*       CLEAR     48  42  80 CALM      30.04R                  
$$

KYZ035-036-041-042-044-050-067-078-099-220200
...CENTRAL KENTUCKY...
  
CITY           SKY/WX    TMP DP  RH WIND       PRES   REMARKS
MT STERLING*   CLEAR     52  36  54 S7        30.04R                  
FLEMING/MASON* CLEAR     56  33  41 S6        30.02S                  
DANVILLE*      CLEAR     50  34  53 CALM      30.03S                  
RICHMOND*      FAIR      59  36  41 S6        30.04R                  
LEXINGTON      CLEAR     59  33  37 SE6       30.01R                  
FRANKFORT      CLEAR     61  33  35 S7        29.99R                  
LOUISVILLE     PTCLDY    61  34  36 SE8       29.96S                  
LEBANON*       FAIR      57  32  38 S7        30.00S                  
GLASGOW*       CLEAR     60  37  41 CALM      30.00R                  
BOWLING GREEN  CLEAR     60  35  39 SE3       29.98R                  
$$

KYZ091>093-OHZ055-061-077-WVZ005-015-034-035-042-220200
...SOUTHERN OHIO/WEST VIRGINIA...
  
CITY           SKY/WX    TMP DP  RH WIND       PRES   REMARKS
COVINGTON      CLEAR     56  33  42 S7        29.96R                  
COLUMBUS       PTCLDY    57  33  40 SE7       29.99R                  
DAYTON         PTCLDY    61  32  33 S9        29.96R                  
WILMINGTON     CLEAR     55  32  41 S7        29.98R                  
HUNTINGTON     CLEAR     59  32  36 SE3       30.03R                  
CHARLESTON     CLEAR     51  37  58 CALM      30.04S                  
BECKLEY        CLEAR     50  30  46 SE5       30.11R                  
BLUEFIELD      CLEAR     51  29  42 S6        30.12R                  
LOGAN CO APT*  FAIR      55  32  41 S3        30.06S                  
$$

VAZ002-007-008-TNZ017-027-036-066-071-220200
...SOUTHWEST VIRGINIA/EAST TENNESSEE...
  
CITY           SKY/WX    TMP DP  RH WIND       PRES   REMARKS
WISE*          CLEAR     46  32  57 S5        30.11S                  
JONESVILLE*    FAIR      45  34  65 CALM      30.10S                  
ABINGDON*      CLEAR     45  32  60 CALM      30.11R                  
BRISTOL        CLEAR     46  35  65 CALM      30.10R                  
MORRISTOWN*    PTCLDY    50  34  53 CALM      30.07S                  
SEVIERVILLE*   CLEAR     48  37  66 CALM      30.09R                  
KNOXVILLE      PTCLDY    54  35  48 CALM      30.08R                  
LAFOLLETTE*    CLEAR     46  37  71 CALM      30.12S                  
OAK RIDGE      CLEAR     49  38  65 CALM      30.10R                  
CROSSVILLE     CLEAR     53  34  48 S3        30.09R                  
NASHVILLE      PTCLDY    65  37  35 S12       30.00R                  
$$

...KEY TO REMARKS...
VSB - VISIBILITY IN MILES
WCI - WIND CHILL INDEX
HX  - HEAT INDEX

$$
  
