ASUS43 KLMK 220210
RWRKY 
KENTUCKY REGIONAL WEATHER ROUNDUP
NATIONAL WEATHER SERVICE LOUISVILLE KY
1000 PM EDT FRI OCT 21 2022

NOTE "FAIR" INDICATES FEW OR NO CLOUDS BELOW 12,000 FEET
WITH NO SIGNIFICANT WEATHER AND/OR OBSTRUCTIONS TO VISIBILITY.

KYZ001>023-026-027-061>063-070>075-220300-
WESTERN AND SOUTH CENTRAL KENTUCKY
  
CITY           SKY/WX    TMP DP  RH WIND       PRES   REMARKS
PADUCAH        CLEAR     66  47  50 S5        29.90R                  
HENDERSON      CLEAR     60  37  42 S3        29.92R                  
OWENSBORO      CLEAR     61  38  42 S8        29.93S                  
HOPKINSVILLE   CLEAR     65  44  47 S8        29.94R                  
BOWLING GREEN  CLEAR     63  35  35 S8        29.98S                  
GLASGOW        CLEAR     60  37  42 S5        30.00S                  
$$

KYZ024-025-028>034-038-045-046-053-220300-
NORTH CENTRAL KENTUCKY
  
CITY           SKY/WX    TMP DP  RH WIND       PRES   REMARKS
LOUISVILLE/SDF PTCLDY    59  34  39 SE7       29.96S                  
LOUISVILLE/LOU CLEAR     59  33  37 SE5       29.96S                  
FORT KNOX      CLEAR     59  33  38 SE8       29.95S                  
$$

KYZ035>037-039>044-047>052-055>060-089>105-220300-
NORTHEAST KENTUCKY
  
CITY           SKY/WX    TMP DP  RH WIND       PRES   REMARKS
LEXINGTON      CLEAR     55  33  43 S9        30.01S                  
COVINGTON      CLEAR     57  33  40 S9        29.97R                  
FRANKFORT      CLEAR     57  33  40 S7        29.99S                  
$$

KYZ054-064>069-076>088-106>120-220300-
SOUTHEAST KENTUCKY
  
CITY           SKY/WX    TMP DP  RH WIND       PRES   REMARKS
JACKSON        CLEAR     57  33  40 S3        30.06R                  
LONDON         CLEAR     51  35  54 S3        30.06S                  
SOMERSET       CLEAR     57  34  41 S3        30.04R                  
MIDDLESBORO    CLEAR     42  37  82 CALM      30.11R                  
MONTICELLO     CLEAR     46  34  62 CALM      30.07S                  
$$

  
