ASUS43 KDMX 220001
RWRIA 

WEATHER ROUNDUP FOR IOWA
NATIONAL WEATHER SERVICE DES MOINES IA
700 PM CDT FRI OCT 21 2022

NOTE: "FAIR" INDICATES FEW OR NO CLOUDS BELOW 12,000 FEET WITH NO
SIGNIFICANT WEATHER AND/OR OBSTRUCTIONS TO VISIBILITY.

* - THESE STATIONS ARE NOT NWS STATIONS...THUS NOT UNDER NWS
QUALITY CONTROL.  THEY ALSO DO NOT REPORT WEATHER SUCH 
AS PRECIPITATION OR FOG.  

IAZ001>003-012>014-020>022-031>034-043>046-220100-
   NORTHWEST IOWA
  
CITY           SKY/WX    TMP DP  RH WIND       PRES   REMARKS
CARROLL *      CLEAR     66  32  28 CALM      29.61R                  
CHEROKEE *     CLEAR     59  32  36 E5        29.60S                  
DENISON *        N/A    N/A N/A N/A MISG        N/A                   
LE MARS *      CLEAR     61  34  36 NE5       29.58S                  
MAURICE *      FAIR      63  34  34 E7        29.58S                  
SHELDON *      PTCLDY    57  34  41 SE6       29.58F                  
SIOUX CITY     CLEAR     66  33  29 NE3       29.58F                  
6HR MIN TEMP:  66; 6HR MAX TEMP:  77;                                

SPENCER        PTCLDY    62  34  35 E7        29.62R                  
6HR MIN TEMP:  62; 6HR MAX TEMP:  74;                                

$$
 
IAZ055>058-069>071-079>083-090>094-220100-
   SOUTHWEST IOWA
  
CITY           SKY/WX    TMP DP  RH WIND       PRES   REMARKS
ATLANTIC *     CLEAR     57  34  41 N6        29.59S                  
AUDUBON *      PTCLDY    52  32  46 CALM      29.63R                  
CLARINDA *     PTCLDY    64  37  36 CALM      29.60R                  
COUNCIL BLFS * PTCLDY    68  23  18 CALM      29.57S HAZE             
CRESTON *      PTCLDY    70  34  26 CALM      29.60S                  
HARLAN  *      CLEAR     55  32  41 CALM      29.60S                  
LAMONI         PTCLDY    74  37  26 S7        29.61R                  
6HR MIN TEMP:  74; 6HR MAX TEMP:  84; 6HR PCP: TRACE;                

RED OAK *      PTCLDY    61  32  33 N3        29.59R                  
SHENANDOAH *   PTCLDY    66  34  30 N5        29.56S                  
$$
 
IAZ047>049-059>061-072>074-084-220100-
   CENTRAL IOWA
  
CITY           SKY/WX    TMP DP  RH WIND       PRES   REMARKS
AMES           CLEAR     57  34  41 SW5       29.61R HAZE             
6HR MIN TEMP:  57; 6HR MAX TEMP:  80;                                

ANKENY *       CLEAR     61  37  41 N3        29.61S                  
BOONE *        CLEAR     64  32  29 CALM      29.63R                  
CHARITON *     PTCLDY    70  37  30 S6        29.61R                  
DES MOINES     PTCLDY    69  36  29 NW3       29.61R                  
6HR MIN TEMP:  69; 6HR MAX TEMP:  79;                                

GRINNELL*      CLEAR     70  35  27 CALM      29.63R                  
KNOXVILLE *    CLEAR     73  34  23 SE7       29.61R                  
MARSHALLTOWN   CLEAR     67  33  28 CALM      29.62R                  
6HR MIN TEMP:  67; 6HR MAX TEMP:  78;                                

NEWTON *       CLEAR     72  34  25 CALM      29.61R                  
PELLA *        CLEAR     67  37  33 CALM      29.62R                  
PERRY *        FAIR      63  31  30 S7        29.61R                  
$$
 
IAZ004>006-015-016-023>025-035-036-220100-
   NORTH CENTRAL IOWA
  
CITY           SKY/WX    TMP DP  RH WIND       PRES   REMARKS
ALGONA *       CLEAR     59  37  44 E3        29.61S                  
CLARION *        N/A     57  34  41 NE5       29.62S HAZE             
ESTHERVILLE    PTCLDY    59  37  44 E6        29.62R                  
6HR MIN TEMP:  59; 6HR MAX TEMP:  71;                                

FORT DODGE *   CLEAR     62  34  35 NE6       29.62S                  
MASON CITY     CLEAR     53  34  48 CALM      29.64R HAZE             
6HR MIN TEMP:  51; 6HR MAX TEMP:  72;                                

IOWA FALLS *   FAIR      62  34  35 CALM      29.64R                  
$$

IAZ007>011-017>019-026>030-037>042-050>054-066-220100-
   NORTHEAST IOWA
  
CITY           SKY/WX    TMP DP  RH WIND       PRES   REMARKS
CEDAR RAPIDS   CLEAR     69  35  28 SW3       29.61R                  
6HR MIN TEMP:  68; 6HR MAX TEMP:  83;                                

CHARLES CITY * CLEAR     59  32  36 N6        29.63                   
CLINTON *      CLEAR     62  39  42 S10       29.65R                  
DECORAH *      MOCLDY    63  34  34 CALM      29.62                   
DUBUQUE        CLEAR     60  38  43 CALM      29.64R                  
6HR MIN TEMP:  58; 6HR MAX TEMP:  79;                                

OELWEIN *      CLEAR     64  34  32 SW3       29.63R                  
WATERLOO       CLOUDY    60  33  36 N5        29.62R                  
6HR MIN TEMP:  56; 6HR MAX TEMP:  79;                                

$$
 
IAZ064-065-067-068-078-220100-
   EAST CENTRAL IOWA
  
CITY           SKY/WX    TMP DP  RH WIND       PRES   REMARKS
DAVENPORT      CLEAR     69  39  33 S7        29.66R                  
6HR MIN TEMP:  69; 6HR MAX TEMP:  80;                                

IOWA CITY      CLEAR     71  36  27 S7        29.63R                  
6HR MIN TEMP:  69; 6HR MAX TEMP:  85;                                

MUSCATINE *    CLEAR     70  37  30 S7        29.64                   
QUAD CITIES    CLEAR     74  38  27 SW9       29.64R                  
6HR MIN TEMP:  73; 6HR MAX TEMP:  81;                                

$$
 
IAZ062-063-075>077-085>089-095>099-220100-
   SOUTHEAST IOWA
  
CITY           SKY/WX    TMP DP  RH WIND       PRES   REMARKS
BURLINGTON     CLEAR     71  38  29 S13       29.65R                  
6HR MIN TEMP:  70; 6HR MAX TEMP:  81;                                

FAIRFIELD *    CLEAR     70  32  24 S7        29.63R                  
FORT MADISON * CLOUDY    72  39  30 S10       29.64S                  
KEOKUK *       CLEAR     73  39  29 S10G16    29.65S                  
OSKALOOSA *    FAIR      68  44  42 S9        29.62R                  
OTTUMWA        CLEAR     67  36  31 S8        29.62R                  
6HR MIN TEMP:  67; 6HR MAX TEMP:  84;                                

WASHINGTON *   CLEAR     72  37  28 S7        29.62R                  
$$

ABBREVIATIONS USED IN REMARKS
   TC - TEMPERATURES IN CELSIUS
  WCI - WIND CHILL INDEX
   HX - HEAT INDEX
  VSB - VISIBILITY  
$$

  
