ASUS43 KDMX 220201
RWRIA 

WEATHER ROUNDUP FOR IOWA
NATIONAL WEATHER SERVICE DES MOINES IA
900 PM CDT FRI OCT 21 2022

NOTE: "FAIR" INDICATES FEW OR NO CLOUDS BELOW 12,000 FEET WITH NO
SIGNIFICANT WEATHER AND/OR OBSTRUCTIONS TO VISIBILITY.

* - THESE STATIONS ARE NOT NWS STATIONS...THUS NOT UNDER NWS
QUALITY CONTROL.  THEY ALSO DO NOT REPORT WEATHER SUCH 
AS PRECIPITATION OR FOG.  

IAZ001>003-012>014-020>022-031>034-043>046-220300-
   NORTHWEST IOWA
  
CITY           SKY/WX    TMP DP  RH WIND       PRES   REMARKS
CARROLL *      CLEAR     50  32  50 SW5       29.59S HAZE             
CHEROKEE *     CLEAR     53  32  45 CALM      29.60                   
DENISON *        N/A    N/A N/A N/A MISG        N/A                   
LE MARS *      CLEAR     48  32  53 CALM      29.58                   
MAURICE *      FAIR      55  34  44 E10       29.58S                  
SIOUX CITY     CLEAR     52  32  46 CALM      29.58F HAZE             
SPENCER        CLEAR     47  29  49 NE8       29.62S                  
$$
 
IAZ055>058-069>071-079>083-090>094-220300-
   SOUTHWEST IOWA
  
CITY           SKY/WX    TMP DP  RH WIND       PRES   REMARKS
ATLANTIC *     CLEAR     46  34  61 CALM      29.59S HAZE             
AUDUBON *      PTCLDY    43  32  65 CALM      29.61S                  
CLARINDA *     PTCLDY    50  41  71 CALM      29.61                   
COUNCIL BLFS * CLEAR     61  25  25 SE7       29.57S HAZE             
CRESTON *      CLEAR     61  36  39 SE6       29.61S                  
HARLAN  *      CLEAR     46  32  57 NE5       29.59                   
LAMONI         LGT RAIN  69  37  30 S7        29.63R                  
RED OAK *      CLEAR     48  34  57 N3        29.60                   
$$
 
IAZ047>049-059>061-072>074-084-220300-
   CENTRAL IOWA
  
CITY           SKY/WX    TMP DP  RH WIND       PRES   REMARKS
AMES           CLEAR     48  34  58 CALM      29.61F HAZE             
ANKENY *       CLEAR     54  36  50 CALM      29.62F                  
BOONE *        CLEAR     57  32  38 NE3       29.63S                  
CHARITON *     PTCLDY    64  37  36 S8        29.62S                  
DES MOINES     CLEAR     58  39  49 E7        29.62S                  
GRINNELL*      CLEAR     57  36  45 E3        29.65S                  
KNOXVILLE *    PTCLDY    66  36  32 S7        29.62S                  
MARSHALLTOWN   CLEAR     55  33  43 N5        29.61F                  
NEWTON *       CLEAR     55  36  47 E5        29.63R                  
PELLA *        CLEAR     65  37  35 S6        29.63S                  
PERRY *        FAIR      58  32  36 SE3       29.60F HAZE             
$$
 
IAZ004>006-015-016-023>025-035-036-220300-
   NORTH CENTRAL IOWA
  
CITY           SKY/WX    TMP DP  RH WIND       PRES   REMARKS
ALGONA *       CLEAR     55  37  50 E7        29.62S                  
CLARION *      MOCLDY    46  34  61 E9        29.63R                  
ESTHERVILLE    CLEAR     47  34  60 E7        29.63F                  
FORT DODGE *   CLEAR     52  34  50 NE6       29.62S                  
MASON CITY     CLEAR     43  33  68 N3        29.65S                  
IOWA FALLS *   FAIR      48  32  55 CALM      29.64S                  
$$

IAZ007>011-017>019-026>030-037>042-050>054-066-220300-
   NORTHEAST IOWA
  
CITY           SKY/WX    TMP DP  RH WIND       PRES   REMARKS
CEDAR RAPIDS   CLEAR     58  36  43 S7        29.64R                  
CHARLES CITY * CLEAR     52  34  50 NE6       29.64                   
CLINTON *      CLEAR     62  40  44 S9        29.68R                  
DECORAH *      MOCLDY    57  34  41 CALM      29.64                   
DUBUQUE        CLEAR     55  38  52 CALM      29.67R                  
OELWEIN *      CLEAR     54  34  47 NE5       29.64                   
WATERLOO       CLEAR     48  33  56 CALM      29.63S                  
$$
 
IAZ064-065-067-068-078-220300-
   EAST CENTRAL IOWA
  
CITY           SKY/WX    TMP DP  RH WIND       PRES   REMARKS
DAVENPORT      CLEAR     65  39  38 S9        29.70R                  
IOWA CITY      CLEAR     59  38  45 CALM      29.66R                  
MUSCATINE *    CLEAR     55  37  50 CALM      29.68                   
QUAD CITIES    CLEAR     67  38  34 S8        29.68R                  
$$
 
IAZ062-063-075>077-085>089-095>099-220300-
   SOUTHEAST IOWA
  
CITY           SKY/WX    TMP DP  RH WIND       PRES   REMARKS
BURLINGTON     CLEAR     65  38  36 S9        29.68R                  
FAIRFIELD *    CLEAR     64  34  32 S7        29.66                   
FORT MADISON * CLOUDY    64  37  36 S6        29.67                   
KEOKUK *       CLEAR     72  39  30 S13G22    29.66                   
OSKALOOSA *    FAIR      65  45  48 S10       29.65R                  
OTTUMWA        PTCLDY    65  37  35 S9        29.65R                  
WASHINGTON *   CLEAR     64  39  39 S9        29.65                   
$$

ABBREVIATIONS USED IN REMARKS
   TC - TEMPERATURES IN CELSIUS
  WCI - WIND CHILL INDEX
   HX - HEAT INDEX
  VSB - VISIBILITY  
$$

  
