ASUS43 KBIS 231702
RWRBIS

NWR BROADCAST TEXT
NATIONAL WEATHER SERVICE BISMARCK ND
1200 PM CDT SUN OCT 23 2022

NOTE: "FAIR" INDICATES FEW OR NO CLOUDS BELOW 12,000 FEET WITH NO
SIGNIFICANT WEATHER AND/OR OBSTRUCTIONS TO VISIBILITY.

  
CITY           SKY/WX    TMP DP  RH WIND       PRES   REMARKS
WILLISTON      CLOUDY    40  37  89 NE20G29   29.49F                  
MINOT          CLOUDY    46  40  79 NE21G29   29.50F                  
MINOT AFB      NOT AVBL                                               
BISMARCK       SUNNY     53  39  59 E18G28    29.36F                  
DICKINSON      CLOUDY    44  39  82 NE16G24   29.36F                  
GARRISON         N/A     48  41  76 E16G32    29.41F                  
HETTINGER ARPT PTSUNNY   48  38  68 NE14G22   29.32F                  
JAMESTOWN      MOSUNNY   58  43  57 E15G24    29.39F                  
CARRINGTON     FAIR      55  41  58 E17G28    29.44F                  
HAZEN          FAIR      50  41  71 NE22G31   29.40F                  
MANDAN         SUNNY     50  41  71 E16       29.35F                  
OAKES          FAIR      57  45  62 E21       29.37F                  
RUGBY          CLOUDY    45  43  93 E25G32    29.50R                  
STANLEY        CLOUDY    41  41 100 NE16G23   29.50S                  
TIOGA          CLOUDY    39  39 100 NE23      29.52F                  
WATFORD CITY   CLOUDY    43  43 100 E12G18    29.48S                  
$$
  
CITY           SKY/WX    TMP DP  RH WIND       PRES   REMARKS
GRAND FORKS    MOSUNNY   56  43  61 NE9       29.50F                  
GRAND FORKS AF SUNNY     55  42  62 NE9       29.49F                  
DEVILS LAKE    MOSUNNY   51  42  71 E22G28    29.49S                  
FARGO          SUNNY     67  50  54 E16       29.44F                  
CANDO          CLOUDY    48  43  81 NE18G24   29.54F                  
CAVALIER       FAIR      52  48  87 NE13      29.55F                  
GRAFTON        FAIR      54  45  71 NE15      29.54F                  
GWINNER        SUNNY     61  52  72 E18       29.39F                  
LANGDON        PTSUNNY   48  48 100 NE22      29.54F                  
ROLLA          CLOUDY    43  43 100 E21G28    29.56F                  
WALHALLA       CLOUDY    48  48 100 NE13      29.58F                  
$$
  
CITY           SKY/WX    TMP DP  RH WIND       PRES   REMARKS
ABERDEEN       SUNNY     69  54  58 SE16      29.31F                  
MOBRIDGE       MOSUNNY   62  47  57 E16       29.23F                  
BUFFALO          N/A     46  37  71 N13       29.30F                  
RAPID CITY     MOSUNNY   51  37  58 N31G41    29.25F                  
GLASGOW        LGT RAIN  40  37  89 NE16      29.52F                  
SIDNEY         CLOUDY    44  41  89 NE13      29.48R                  
WOLF POINT     LGT RAIN  41  39  93 NE16      29.52S                  
GLENDIVE       CLOUDY    44  42  93 NE13      29.44F                  
MILES CITY     RAIN      43  41  93 W9        29.47R FOG              
BAKER          CLOUDY    44  39  82 NE7       29.40S                  
$$
  
CITY           SKY/WX    TMP DP  RH WIND       PRES   REMARKS
BILLINGS       CLOUDY    39  29  67 NW15G28   29.61R                  
GREAT FALLS    LGT SNOW  32  31  96 N22G31    29.76R FOG     WCI  19  
$$

  
