ASUS43 KBIS 231710
RWRND 

NORTH DAKOTA REGIONAL WEATHER ROUNDUP
NATIONAL WEATHER SERVICE BISMARCK ND
1200 PM CDT SUN OCT 23 2022

NOTE: "FAIR" INDICATES FEW OR NO CLOUDS BELOW 12,000 FEET WITH NO
SIGNIFICANT WEATHER AND/OR OBSTRUCTIONS TO VISIBILITY.


NDZ001>003-009>011-017-231800-
NORTHWEST NORTH DAKOTA
  
CITY           SKY/WX    TMP DP  RH WIND       PRES   REMARKS
WILLISTON      CLOUDY    40  37  89 NE20G29   29.49F                  
MINOT          CLOUDY    46  40  79 NE21G29   29.50F                  
MINOT AFB      CLOUDY    45  40  82 E18       29.49F                  
$$
 
NDZ018>021-031>035-040>046-231800-
SOUTHWEST NORTH DAKOTA
  
CITY           SKY/WX    TMP DP  RH WIND       PRES   REMARKS
BISMARCK       CLOUDY    53  39  59 E18G28    29.36F                  
DICKINSON      CLOUDY    44  39  82 NE16G24   29.36F                  
GARRISON         N/A     48  41  76 E16G32    29.41F                  
HETTINGER ARPT MOSUNNY   48  38  68 NE14G22   29.32F                  
$$
 
NDZ004>008-012>016-024-026-027-054-231800-
NORTHEAST NORTH DAKOTA
  
CITY           SKY/WX    TMP DP  RH WIND       PRES   REMARKS
GRAND FORKS    MOSUNNY   56  43  61 NE9       29.50F                  
GRND FRKS AFB  SUNNY     55  42  62 NE9       29.49F                  
DEVILS LAKE    MOSUNNY   51  42  71 E22G28    29.49S                  
$$
 
NDZ022-023-025-028>030-036>039-047>053-231800-
SOUTHEAST NORTH DAKOTA
  
CITY           SKY/WX    TMP DP  RH WIND       PRES   REMARKS
FARGO          SUNNY     67  50  54 E16       29.44F                  
JAMESTOWN      SUNNY     58  43  57 E15G24    29.39F                  
$$ 

  
