ASUS43 KFGF 232031
RWRFGF
PRAIRIE TO PINES  WEATHER ROUNDUP
NATIONAL WEATHER SERVICE EASTERN NORTH DAKOTA/GRAND FORKS ND
300 PM CDT SUN OCT 23 2022

 **SATELLITE DATA USED TO AUGMENT SKY COVER AT AUTOMATED STATIONS**
 *****  WEATHER ACROSS EASTERN NORTH DAKOTA  *****
  
CITY           SKY/WX    TMP DP  RH WIND       PRES   REMARKS
GRAND FORKS    FAIR      75  52  44 SE16      29.38F                  
GRAND FRKS AFB FAIR      72  49  44 NE15      29.36F                  
GRAND FRKS NWS   N/A     75  56  50 E6        29.32F                  
DEVILS LAKE    FAIR      60  45  57 E24G31    29.38F                  
FARGO          SUNNY     75  54  46 SE23G32   29.33F                  
WAHPETON ARPT  FAIR      75  54  46 SE23G36   29.30S                  
$$

 ***** WEATHER ACROSS CENTRAL AND WESTERN NORTH DAKOTA  *****
  
CITY           SKY/WX    TMP DP  RH WIND       PRES   REMARKS
BISMARCK       FAIR      62  45  53 E14       29.27F                  
MINOT          FAIR      53  41  63 N18G28    29.40F                  
JAMESTOWN      FAIR      70  50  49 E22G29    29.29F                  
MINOT AFB      FAIR      51  41  67 NE20G26   29.39F                  
GARRISON         N/A     50  42  74 NE16G29   29.34F                  
WILLISTON      NOT AVBL                                               
DICKINSON      CLOUDY    48  40  73 N13       29.33R                  
HETTINGER      CLOUDY    51  39  63 N16G23    29.30F                  
$$

 *****  OTHER AIRPORT OBSERVATIONS IN OUR AREA  *****
  
CITY           SKY/WX    TMP DP  RH WIND       PRES   REMARKS
WALHALLA       FAIR      59  52  77 NE15G22   29.49F                  
GRAFTON AIRPOR FAIR      68  48  49 NE14      29.42F                  
VALLEY CITY AR FAIR      73  55  53 E22G33    29.31F                  
CANDO          FAIR      55  46  71 NE22G30   29.43F                  
CAVALIER APRT  FAIR      64  48  55 NE12G20   29.46F                  
GWINNER        CLEAR     73  55  53 SE30G39   29.28S                  
SHEYENNE NWR     N/A     76  54  45 SE22      29.95S                  
ROLLA          CLOUDY    48  45  87 NE23      29.47F                  
 ***** THE ABOVE OBSERVATIONS ARE NON NWS ARE NOT QUALITY
       CONTROLLED AND MAY MIS-REPORT RAIN FOR SNOW...
$$

  *****  WEATHER ACROSS NORTHERN MINNESOTA  *****     
  
CITY           SKY/WX    TMP DP  RH WIND       PRES   REMARKS
FLAG ISLAND    FAIR      57  45  62 NE8       29.57F                  
WARROAD        FAIR      57  52  82 NE14G20   29.55F                  
ROSEAU         FAIR      64  48  55 E24       29.51F                  
HALLOCK        FAIR      68  50  52 E17G23    29.45F                  
THF RVR FALLS    N/A     74  54  49 MISG        N/A                   
BAUDETTE       FAIR      74  51  44 E12G22    29.54F                  
WASKISH        FAIR      79  54  41 SE13G23   29.51F                  
CROOKSTON      FAIR      79  52  38 SE17G26   29.38F                  
$$
  *****  WEATHER ACROSS CENTRAL AND WEST MINNESOTA  *****     
  
CITY           SKY/WX    TMP DP  RH WIND       PRES   REMARKS
FOSSTON        FAIR      73  50  43 E12G21    29.43F                  
BEMIDJI        FAIR      71  53  52 SE16G23   29.48F                  
PARK RAPIDS    FAIR      72  52  49 SE17G28   29.46F                  
ELBOW LAKE     FAIR      73  54  51 SE22G33   29.35F                  
WADENA         FAIR      75  52  43 SE26G37   29.41F                  
DETROIT LAKES  FAIR      73  54  49 SE23G32   29.38F                  
MOORHEAD       FAIR      77  54  44 SE17G31   29.33F                  
FERGUS FALLS   FAIR      73  54  49 SE24G33   29.34F                  
MORRIS MN      FAIR      73  48  40 SE29G39   29.35F                  
STAPLES        FAIR      75  54  46 SE14G24   29.44F                  
$$
  *****  WEATHER ELSEWHERE ACROSS MINNESOTA  *****     
  
CITY           SKY/WX    TMP DP  RH WIND       PRES   REMARKS
DULUTH         FAIR      68  51  54 E18G30    29.63F                  
INTRNTL FALLS  PTSUNNY   74  51  44 E17G26    29.58F                  
ELY            FAIR      70  50  49 SE16      29.67S                  
CLOQUET        FAIR      64  48  55 E12G20    29.60S                  
WHEATON          N/A     73  54  49 SE35G43   29.31F                  
BRAINERD       FAIR      73  54  51 E10G39    29.50F                  
HIBBING        FAIR      69  53  56 SE18G26   29.61F                  
ALEXANDRIA     FAIR      73  53  49 E26G43    29.41F                  
SAINT CLOUD    FAIR      75  54  47 SE18G37   29.46F                  
MINNEAPOLIS    FAIR      76  54  46 SE23G39   29.50F                  
$$

  *****  WEATHER ACROSS SOUTH DAKOTA  *****
  
CITY           SKY/WX    TMP DP  RH WIND       PRES   REMARKS
SIOUX FALLS    FAIR      82  53  36 SE20G38   29.26F                  
BROOKINGS      FAIR     N/A N/A N/A SE30G39   29.27F                  
WATERTOWN      LGT RAIN  72  53  51 SE22G44   29.27F                  
HURON          FAIR      78  52  40 SE21G38   29.16F                  
SISSETON         N/A     75  53  46 SE28G39   29.28F                  
ABERDEEN       FAIR      75  54  47 SE21G35   29.22F                  
MITCHELL       FAIR      82  48  30 S25G38    29.17F                  
PIERRE         FAIR      70  48  45 VRB7      29.14F                  
MOBRIDGE       PTSUNNY   70  51  51 SE16G25   29.17S                  
RAPID CITY     FAIR      49  38  65 N35G47    29.28R                  
$$

  *****  SOME WEATHER IN NEARBY STATES *****
  
CITY           SKY/WX    TMP DP  RH WIND       PRES   REMARKS
GLASGOW MT     LGT SNOW  34  32  92 N8        29.59S VSB 3/4          
GREAT FALLS MT LGT SNOW  32  31  96 N20       29.85R FOG     WCI  20  
CHEYENNE WY    PTSUNNY   48  27  44 NW25G41   29.37S                  
SCOTTSBLUFF NE FAIR      57  37  47 W21G33    29.35R                  
OMAHA NE       FAIR      86  56  35 S29G44    29.34F                  
DES MOINES IA  PTSUNNY   81  57  43 S28G37    29.50F                  
DAVENPORT IA   FAIR      77  57  50 SE23G35   29.72F                  
CHICAGO IL     FAIR      78  55  44 S23G36    29.83F                  
EAU CLAIRE WI  FAIR      76  55  48 SE16G31   29.61F                  
LA CROSSE WI   SUNNY     79  55  44 SE21      29.61F                  
$$

  *****  SOME NATIONAL WEATHER *****
  
CITY           SKY/WX    TMP DP  RH WIND       PRES   REMARKS
LA GUARDIA NY  LGT RAIN  61  46  57 NE14      30.25S                  
RALEIGH NC     PTSUNNY   69  44  40 NW10      30.15F                  
ATLANTA GA     FAIR      74  37  26 CALM      30.16F                  
NEW ORLEANS LA FAIR      81  58  45 SE8G21    30.05F                  
OKLAHOMA CITY  PTSUNNY   80  59  48 S22G35    29.65F                  
ALBUQUERQUE NM PTSUNNY   68  32  26 SW22G38   29.67F                  
SALT LAKE CITY PTSUNNY   43  29  57 NW18      29.82R                  
LOS ANGELES CA FAIR      70  54  56 SW14      29.86S                  
BOISE ID       FAIR      49  30  48 NW18      29.97F                  
SEATTLE WA     PTSUNNY   51  42  71 SW7       30.16S                  
$$

*** WEATHER ACROSS MANITOBA...SASKATCHEWAN AND ONTARIO ***
                ***ONTARIO***
  
CITY           SKY/WX    TMP DP  RH WIND       PRES   REMARKS
GERALDTON      NOT AVBL                                               
THUNDER BAY    MOSUNNY   63  50  63 E15       29.79F                  
SIOUX LOOKOUT  MOSUNNY   61  48  63 E6        29.73F                  
TORONTO        MOSUNNY   64  39  39 SE8       30.20F                  
BIG TROUT LK   CLOUDY    41  32  70 E10G18    30.09S                  
PICKLE LAKE    PTSUNNY   54  43  66 E17G31    29.85S                  
DRYDEN         SUNNY     59  48  67 NE12      29.68S                  
KENORA         SUNNY     59  46  63 NE15      29.63F                  
$$      
                *** MANITOBA***
  
CITY           SKY/WX    TMP DP  RH WIND       PRES   REMARKS
BRANDON        CLOUDY    46  37  71 NE36G43   29.55F                  
DAUPHIN        CLOUDY    43  36  75 NE23G32   29.74S                  
ISLAND LAKE    CLOUDY    39  28  65 NE14G25   30.04S                  
PILOT MOUND      N/A     52  43  71 NE24G31     N/A                   
THE PAS        CLOUDY    39  27  60 NE10G18   30.07R                  
THOMPSON       CLOUDY    36  23  60 NE12      30.18R                  
WINNIPEG       MOSUNNY   54  45  71 NE22G28   29.56F                  
LYNN LAKE      SUNNY     32  21  64 E6        30.19F                  
CHURCHILL      CLOUDY    28  21  74 NW8       30.31R WCI  20          
GILLAM         MOSUNNY   36  21  55 NE8       30.23S                  
$$
                ***SASKATCHEWAN***
  
CITY           SKY/WX    TMP DP  RH WIND       PRES   REMARKS
ESTEVAN        CLOUDY    41  37  87 NE17G36   29.52F                  
KINDERSLEY     CLOUDY    32  30  93 NE12G20   29.96R WCI  23          
LLOYDMINSTER   CLOUDY    39  25  56 SE9       30.03R                  
PRINCE ALBERT  CLOUDY    41  23  48 E17       30.05F                  
REGINA         CLOUDY    34  30  86 NE28G43   29.68F WCI  20          
YORKTON        CLOUDY    34  32  93 N21G33    29.79S WCI  22          
N. BATTLEFORD  SUNNY     41  23  48 E10       30.03R                  
LA RONGE       CLOUDY    39  30  70 E9        30.12F                  
SASKATOON      FLURRIES  34  32  93 NE17G24   29.98S WCI  23          
SWIFT CURRENT  SNOW      30  28  93 NE28G33   29.77R VSB 1/2 WCI  16  
$$
NOTE: THESE ARE AUTOMATED STATIONS WITH LIMITED QUALITY CONTROL
      "FAIR" INDICATES FEW OR NO CLOUDS BELOW 12,000 FEET WITH NO
      SIGNIFICANT WEATHER AND/OR OBSTRUCTIONS TO VISIBILITY.
      SKY/WX - SKY CONDITION AND SIGNIFICANT WEATHER.
      TMP - AIR TEMPERATURE.    DP   - DEWPOINT TEMPERATURE.
      RH  - RELATIVE HUMIDITY.  PRES - PRESSURE.
      HX  - HEAT INDEX.         WCI  - WIND CHILL INDEX.
$
  
