ASUS44 KLIX 220110
RWRLIX
NEW ORLEANS REGIONAL WEATHER ROUNDUP
NATIONAL WEATHER SERVICE NEW ORLEANS LA
800 PM CDT FRI OCT 21 2022

NOTE: "FAIR" INDICATES FEW OR NO CLOUDS BELOW 12,000 FEET WITH NO
      SIGNIFICANT WEATHER AND/OR OBSTRUCTIONS TO VISIBILITY.
      SKY/WX - SKY CONDITION AND SIGNIFICANT WEATHER.
      TMP - AIR TEMPERATURE.     DP    - DEWPOINT TEMPERATURE.
      RH  - RELATIVE HUMIDITY.   PRES  - PRESSURE.
      HI  - HEAT INDEX.          WCI   - WIND CHILL INDEX.

*  THESE STATIONS ARE NOT NWS OR FAA STATIONS AND ARE NOT UNDER
   NWS QUALITY CONTROL. 

LAZ038-048-061-063-065>067-069-076-077-220200-
SOUTHEAST LOUISIANA
  
CITY           SKY/WX    TMP DP  RH WIND       PRES   REMARKS
N.O. INTL ARPT CLEAR     67  55  65 S7        30.08R                  
N.O. DWNTWN HE FAIR      69  52  54 S9        30.09R                  
N.O. LAKEFRONT CLEAR     68  52  56 S10       30.08R                  
RESERVE*       FAIR      64  55  72 S8        30.07R                  
SLIDELL        CLEAR     66  50  56 S6        30.07R                  
BATON ROUGE    CLEAR     70  56  61 S9        30.03R                  
BOOTHVILLE*    CLEAR     64  54  69 SE3       30.10S                  
BELLE CHASSE*  PTCLDY    66  52  60 S7        30.08R                  
BOGALUSA*      FAIR      67  54  63 S6        30.07R                  
GALLIANO*      CLEAR     58  54  85 SE3       30.10R                  
NEW ROADS*     FAIR      70  55  60 S8        30.03R                  
GONZALES*      FAIR      68  57  66 S5        30.05R                  
HAMMOND*       CLEAR     66  57  72 S9        30.06R                  
HOUMA*         CLEAR     61  56  85 SE5       30.09R                  

$$

MSZ070-077-080>082-220200-
SOUTHERN MISSISSIPPI
  
CITY           SKY/WX    TMP DP  RH WIND       PRES   REMARKS
MCCOMB         CLEAR     67  54  63 S13       30.04R                  
GULFPORT       CLEAR     66  54  65 S5        30.08R                  
BILOXI         CLEAR     65  57  74 S8        30.07R                  
PASCAGOULA     CLEAR     54  51  90 CALM      30.10R                  
STENNIS ARPT*  MOCLDY    55  50  82 CALM      30.08R                  

$$

COASTAL OBSERVATIONS
LAKE AND NEARSHORE STATIONS
  
STATION/POSITION TIME  SKY/WX   TEMP    WIND        PRES    WAVE
                                AIR SEA DIR/SP/G            HT/PER
                 (UTC)          (F)     (DEG/KT/KT) (MB)    (FT/S)
WAVELAND YACHT   0024               65  190/  5/  7 1018.7
GRAND ISLE       0024               73              1018.8
SOUTHWEST PASS   0030                               1017.3
NEW CANAL        0024               77  180/  6/  8 1017.5
SHELL BEACH      0024               64  150/  6/  8 1018.8

OFFSHORE STATIONS
  
STATION/POSITION TIME  SKY/WX   TEMP    WIND        PRES    WAVE
                                AIR SEA DIR/SP/G            HT/PER
                 (UTC)          (F)     (DEG/KT/KT) (MB)    (FT/S)
64 S DAUPHIN ISL 0050            71 79  110/  6/  8 1019.7    1/ 3
SW PASS ENTRANCE 0030            69 70                N/A     1
LA OFFSHORE OIL  0023                                 N/A     1

$$

  
