ASUS44 KLIX 212310
RWRLA 
LOUISIANA WEATHER ROUNDUP
NATIONAL WEATHER SERVICE NEW ORLEANS LA
600 PM CDT FRI OCT 21 2022

NOTE: "FAIR" INDICATES FEW OR NO CLOUDS BELOW 12,000 FEET WITH NO
      SIGNIFICANT WEATHER AND/OR OBSTRUCTIONS TO VISIBILITY.
      SKY/WX - SKY CONDITION AND SIGNIFICANT WEATHER.
      TMP - AIR TEMPERATURE.    DP   - DEWPOINT TEMPERATURE.
      RH  - RELATIVE HUMIDITY.  PRES - PRESSURE.
      HX  - HEAT INDEX.         WCI  - WIND CHILL INDEX.

*  THESE STATIONS ARE NOT NWS OR FAA STATIONS AND ARE NOT UNDER
   NWS QUALITY CONTROL.

LAZ048-061-063-065-066-069-076-077-220000-
SOUTHEAST LOUISIANA
  
CITY           SKY/WX    TMP DP  RH WIND       PRES   REMARKS
N.O. INTL ARPT PTCLDY    71  56  58 S13G23    30.05S                  
N.O. DWNTWN HE FAIR      73  55  53 S9        30.07S                  
N.O. LAKEFRONT CLEAR     73  53  49 S13       30.06S                  
RESERVE*       FAIR      72  57  60 S12       30.04S                  
SLIDELL        CLEAR     72  53  51 S10       30.05S                  
BATON ROUGE    MOCLDY    78  55  44 S15       30.01S                  
BOOTHVILLE*    CLEAR     73  50  43 CALM      30.09S                  
BELLE CHASSE*  PTCLDY    71  54  54 S12       30.06S                  
BOGALUSA*      FAIR      76  52  43 SW10      30.04S                  
GALLIANO*      CLEAR     71  54  54 SE5       30.07F                  
NEW ROADS*     FAIR      76  57  51 S12       30.00S                  
GONZALES*      FAIR      77  56  48 SW8       30.02S                  
HAMMOND*       CLEAR     72  55  56 SE10G21   30.03S                  
HOUMA*         CLEAR     72  59  64 S13       30.06S                  

$$

LAZ041-044-053-054-220000-
SOUTHWEST LOUISIANA
  
CITY           SKY/WX    TMP DP  RH WIND       PRES   REMARKS
LAKE CHARLES   CLEAR     73  58  59 S9        30.00S                  
LAFAYETTE      CLEAR     77  56  48 S12       30.01S                  
PATTERSON      CLEAR     72  60  66 S6        30.05F                  
SALT POINT     NOT AVBL                                               
NEW IBERIA     CLEAR     74  55  51 S12       30.02S                  
CHENAULT AIRPK PTCLDY    75  57  53 S15G21    30.00F                  

$$

LAZ027-028-220000-
CENTRAL LOUISIANA
  
CITY           SKY/WX    TMP DP  RH WIND       PRES   REMARKS
FORT POLK      PTCLDY    78  57  47 S15       29.94F                  
ALEXANDRIA INT CLEAR     82  54  37 S13       29.93F                  
ALEXANDRIA     CLEAR     79  56  45 S7        29.94F                  

$$

LAZ001-002-220000-
NORTHWEST LOUISIANA
  
CITY           SKY/WX    TMP DP  RH WIND       PRES   REMARKS
SHREVEPORT     CLEAR     84  52  32 SW10      29.87F                  
BARKSDALE AFB  CLEAR     83  49  30 S10       29.87F                  
DTN SHREVEPORT CLEAR     83  51  33 S9        29.88F                  

$$

LAZ014-016-220000-
NORTHEAST LOUISIANA
  
CITY           SKY/WX    TMP DP  RH WIND       PRES   REMARKS
MONROE         CLEAR     81  54  39 S12G20    29.92F                  
TALLULAH       CLEAR     79  53  40 S13       29.95S                  

$$

  
