ASUS44 KLCH 220210
RWRLCH
REGIONAL WEATHER ROUNDUP
NATIONAL WEATHER SERVICE LAKE CHARLES LA
900 PM CDT FRI OCT 21 2022

Note: "fair" indicates few or no clouds below 12,000 feet with no
significant weather and/or obstructions to visibility.


ACROSS SOUTHEAST TEXAS
  
CITY           SKY/WX    TMP DP  RH WIND       PRES   REMARKS
BEAUMONT       CLEAR     67  59  75 S8        30.02R                  
BEAUMONT CITY  FAIR      65  57  76 S3        30.02R                  
ORANGE         CLEAR     73  61  66 S6        30.05R                  
JASPER         PTCLDY    70  63  78 S12       29.99R                  
$$

ACROSS CENTRAL LOUISIANA
  
CITY           SKY/WX    TMP DP  RH WIND       PRES   REMARKS
LEESVILLE      CLEAR     69  59  70 S10       30.00R                  
FULLERTON      FAIR      69  59  70 VRB3      29.99R                  
ALEXANDRIA INT CLEAR     73  58  59 S10       29.99R                  
ESLER FIELD    CLEAR     70  58  65 SW8       30.00R                  
DERIDDER       FAIR      69  60  72 S9        30.03R                  
OAKDALE        CLEAR     68  57  68 CALM      30.03R                  
OPELOUSAS      FAIR      65  56  70 S7        30.05R                  
$$

ACROSS SOUTHWEST AND SOUTH CENTRAL LOUISIANA
  
CITY           SKY/WX    TMP DP  RH WIND       PRES   REMARKS
DEQUINCY       FAIR      65  58  76 SE5       30.03R                  
SULPHUR        CLEAR     64  59  82 S6        30.04R                  
LAKE CHARLES   CLEAR     65  58  78 S7        30.03R                  
CHENNAULT INT  CLEAR     57  55  94 S6        30.04R                  
JENNINGS       NOT AVBL                                               
LAFAYETTE      CLEAR     67  57  70 S6        30.05R                  
NEW IBERIA     CLEAR     62  56  80 S5        30.06R                  
ABBEVILLE      FAIR      63  56  80 S5        30.06R                  
PATTERSON      CLEAR     64  60  87 SE7       30.08R                  
SALT POINT     NOT AVBL                                               
$$

SELECTED SITES ACROSS THE REGION
  
CITY           SKY/WX    TMP DP  RH WIND       PRES   REMARKS
HOUSTON BUSH   CLEAR     73  58  59 S9        30.00R                  
HOUSTON HOBBY  PTCLDY    71  59  65 S9        30.00R                  
GALVESTON      PTCLDY    74  59  59 S13       30.03R                  
COLLEGE STAT   CLEAR     74  55  51 S13       29.94R                  
CONROE         CLEAR     73  58  59 S14       29.98R                  
HUNTSVILLE     CLEAR     76  57  51 S12       29.95R                  
LUFKIN         CLEAR     72  59  63 S12       29.96R                  
SHREVEPORT     CLEAR     72  54  53 S8        29.92R                  
MONROE         CLEAR     72  55  55 S7        29.96R                  
NATCHEZ MS     CLEAR     70  56  61 S10       30.02R                  
BATON ROUGE    CLEAR     68  57  68 S10       30.05R                  
N.O. INTL ARPT CLEAR     66  55  67 SE10      30.08S                  
SLIDELL        CLEAR     63  52  67 SE5       30.08R                  
$$

MARINE REPORTS
  
STATION/POSITION TIME  SKY/WX   TEMP    WIND        PRES    VSBY
                                AIR SEA DIR/SP/G
                 (UTC)          (F)     (DEG/KT/KT) (MB)    (MI)
BUOY 30 S HIGH I NOT AVBL
SEA RIM ST PARK  0100            73     190/ 11/ 14 1016.4R
PORT ARTHUR      0118               72                N/A
TEXAS POINT      0118               71                N/A
CALCASIEU PASS   0118               69                N/A
LK CHARLES BEACH 0118               74                N/A
MARSH ISLAND     NOT AVBL
FRESH WATER LOCK NOT AVBL
AMERADA PASS     0118               72                N/A
$$
  
