ASUS43 KLMK 220110
RWRKY 
KENTUCKY REGIONAL WEATHER ROUNDUP
NATIONAL WEATHER SERVICE LOUISVILLE KY
900 PM EDT FRI OCT 21 2022

NOTE "FAIR" INDICATES FEW OR NO CLOUDS BELOW 12,000 FEET
WITH NO SIGNIFICANT WEATHER AND/OR OBSTRUCTIONS TO VISIBILITY.

KYZ001>023-026-027-061>063-070>075-220200-
WESTERN AND SOUTH CENTRAL KENTUCKY
  
CITY           SKY/WX    TMP DP  RH WIND       PRES   REMARKS
PADUCAH        CLEAR     67  46  47 S5        29.89R                  
HENDERSON      CLEAR     62  37  39 SE7       29.91R                  
OWENSBORO      CLEAR     61  38  42 SE8       29.93R                  
HOPKINSVILLE   CLEAR     67  43  41 SE6       29.93R                  
BOWLING GREEN  CLEAR     60  35  39 SE3       29.98R                  
GLASGOW        CLEAR     60  37  41 CALM      30.00R                  
$$

KYZ024-025-028>034-038-045-046-053-220200-
NORTH CENTRAL KENTUCKY
  
CITY           SKY/WX    TMP DP  RH WIND       PRES   REMARKS
LOUISVILLE/SDF PTCLDY    61  34  36 SE8       29.96S                  
LOUISVILLE/LOU CLEAR     59  33  37 S7        29.96S                  
FORT KNOX      CLEAR     58  33  39 S7        29.95S                  
$$

KYZ035>037-039>044-047>052-055>060-089>105-220200-
NORTHEAST KENTUCKY
  
CITY           SKY/WX    TMP DP  RH WIND       PRES   REMARKS
LEXINGTON      CLEAR     59  33  37 SE6       30.01R                  
COVINGTON      CLEAR     56  33  42 S7        29.96R                  
FRANKFORT      CLEAR     61  33  35 S7        29.99R                  
$$

KYZ054-064>069-076>088-106>120-220200-
SOUTHEAST KENTUCKY
  
CITY           SKY/WX    TMP DP  RH WIND       PRES   REMARKS
JACKSON        CLEAR     58  33  39 S5        30.05R                  
LONDON         CLEAR     54  34  46 CALM      30.06R                  
SOMERSET       CLEAR     57  34  41 S6        30.03R                  
MIDDLESBORO    CLEAR     45  38  76 CALM      30.10R                  
MONTICELLO     CLEAR     57  34  41 S8        30.07R                  
$$

  
