ASUS43 KMPX 231810
RWRMN 
WEATHER ROUNDUP FOR MINNESOTA
NATIONAL WEATHER SERVICE TWIN CITIES/CHANHASSEN MN
100 PM CDT SUN OCT 23 2022


NOTE: "FAIR" INDICATES FEW OR NO CLOUDS BELOW 12,000 FEET WITH NO
SIGNIFICANT WEATHER AND/OR OBSTRUCTIONS TO VISIBILITY. N/A MEANS
CURRENT SKY AND/OR WEATHER CONDITIONS ARE NOT AVAILABLE.

MNZ060>063-068>070-231900-
   Twin Cities Metro   
  
CITY           SKY/WX    TMP DP  RH WIND       PRES   REMARKS
TWIN CITIES    SUNNY     74  54  49 SE16G39   29.56F                  
6HR MIN TEMP:  59; 6HR MAX TEMP:  74;                                

ST PAUL        SUNNY     73  55  53 SE18G25   29.58F                  
CRYSTAL        SUNNY     72  54  53 SE24G43   29.55F                  
BLAINE         SUNNY     73  54  49 SE16G28   29.57F                  
LAKEVILLE      SUNNY     73  52  46 SE17G25   29.56F                  
EDEN PRAIRIE   SUNNY     74  54  49 SE21G35   29.54F                  
6HR MIN TEMP:  59; 6HR MAX TEMP:  75;                                

SOUTH ST PAUL  SUNNY     73  53  49 SE14G20   29.58F                  
LAKE ELMO      FAIR      72  54  53 SE14G25   29.61F                  
$$
MNZ001>005-007-008-013>017-022>024-027-028-231900-
   Northwest Minnesota   
  
CITY           SKY/WX    TMP DP  RH WIND       PRES   REMARKS
BEMIDJI        SUNNY     67  50  55 SE13      29.55F                  
HALLOCK        SUNNY     61  48  63 E17       29.51F                  
ROSEAU         SUNNY     57  46  67 NE20      29.57F                  
WARROAD        SUNNY     52  48  87 NE15G21   29.61F                  
THIEF RVR FALL SUNNY     69  51  52 SE15      29.51F                  
CROOKSTON      SUNNY     72  48  43 SE13      29.47F                  
FOSSTON        SUNNY     72  48  43 SE9G17    29.50F                  
DETROIT LAKES  SUNNY     70  52  52 SE15G28   29.46F                  
MOORHEAD       SUNNY     72  52  49 E13       29.42F                  
PARK RAPIDS    SUNNY     69  51  52 E16G23    29.52F                  
MAHNOMEN       FAIR      69  51  53 SE10G20   29.47F                  
$$
MNZ006-009>011-018-025>026-231900-
   North Central Minnesota   
  
CITY           SKY/WX    TMP DP  RH WIND       PRES   REMARKS
BAUDETTE       SUNNY     66  48  52 E10       29.60F                  
FLAG ISLAND    SUNNY     55  43  62 E7        29.63F                  
INTL FALLS     SUNNY     71  50  47 E8        29.63F                  
6HR MIN TEMP:  42; 6HR MAX TEMP:  71;                                

WASKISH        SUNNY     73  52  46 SE15      29.56F                  
BIG FORK       SUNNY     72  52  49 SE10G16   29.66F                  
LONGVILLE      PTSUNNY   70  52  52 SE6       29.57F                  
GRAND RAPIDS   MOSUNNY   68  52  56 SE12      29.63F                  
CRANE LAKE     SUNNY     70  48  46 CALM      29.69S                  
ORR            SUNNY     72  52  49 SE10      29.64S                  
COOK           SUNNY     72  48  43 SE9       29.65F                  
WALKER         CLEAR     66  50  56 E8        29.56F                  
$$
MNZ012-019>021-037-231900-
   Northeast Minnesota   
  
CITY           SKY/WX    TMP DP  RH WIND       PRES   REMARKS
DULUTH         PTSUNNY   64  50  60 E14       29.68F                  
6HR MIN TEMP:  45; 6HR MAX TEMP:  64;                                

ELY            SUNNY     68  48  49 SE12      29.70F                  
HIBBING        MOSUNNY   66  52  60 SE16      29.65F                  
EVELETH        PTSUNNY   68  52  56 SE9       29.67F                  
DULUTH HARBOR  PTSUNNY   55  50  82 NE13      29.68F                  
TWO HARBORS    MOSUNNY   66  52  59 E10       29.69F                  
GRAND MARAIS     N/A     55  48  77 E13G21    29.78S                  
G MARAIS ARPRT MOSUNNY   63  52  67 E8        29.79S                  
$$
MNZ029>031-032-039>041-046>048-054>057-064-231900-
   West Central Minnesota   
  
CITY           SKY/WX    TMP DP  RH WIND       PRES   REMARKS
FERGUS FALLS   SUNNY     70  54  56 SE20      29.41F                  
WHEATON          N/A     72  54  53 E28       29.38F                  
MORRIS         SUNNY     72  48  43 SE28G35   29.40F                  
ALEXANDRIA     SUNNY     71  53  52 E18G35    29.47F                  
ELBOW LAKE     FAIR      69  53  56 E22G28    29.42F                  
WADENA         SUNNY     72  52  49 E17G23    29.49F                  
GLENWOOD       SUNNY     72  54  53 E23G31    29.46F                  
APPLETON       SUNNY     73  52  46 S24G35    29.37F                  
BENSON         SUNNY     72  54  53 SE18G28   29.40F                  
ORTONVILLE       N/A     70  55  60 SE21G31   29.36F                  
MADISON        SUNNY     73  54  49 SE24G31   29.38F                  
WILLMAR        FAIR      73  54  49 SE28      29.47F                  
$$
MNZ033>034-036-042>043-049>051-058-059-231900-
   Central Minnesota     
  
CITY           SKY/WX    TMP DP  RH WIND       PRES   REMARKS
ST CLOUD       SUNNY     72  53  51 SE14G25   29.52F                  
6HR MIN TEMP:  57; 6HR MAX TEMP:  72;                                

SAUK CENTRE    FAIR      70  53  55 E18G24    29.48F                  
PAYNESVILLE    SUNNY     70  54  56 SE16G25   29.49F                  
AITKIN         MOSUNNY   72  52  49 SE10G16   29.58F                  
PINE RIVER     SUNNY     68  54  60 E13       29.59F                  
BRAINERD       SUNNY     69  52  54 E9G21     29.56F                  
STAPLES        SUNNY     72  52  49 E12       29.51F                  
LONG PRAIRIE   FAIR      70  52  52 SE15G21   29.51F                  
LITTLE FALLS   SUNNY     72  54  53 SE15G25   29.53F                  
CAMP RIPLEY    FAIR      72  54  53 E18G25    29.51F                  
LITCHFIELD     SUNNY     72  52  49 SE23G29   29.49F                  
BUFFALO        SUNNY     73  54  49 SE22G29   29.53F                  
MAPLE LAKE     SUNNY     72  52  49 SE9G23    29.54F                  
HUTCHINSON     SUNNY     73  54  50 E24       29.50F                  
$$
MNZ037-044-045-052-053-231900-
   East Central Minnesota   
  
CITY           SKY/WX    TMP DP  RH WIND       PRES   REMARKS
PRINCETON      SUNNY     73  55  53 E15G21    29.56F                  
MORA           SUNNY     72  54  53 SE12      29.63F                  
CAMBRIDGE      SUNNY     75  54  46 SE9G17    29.57F                  
RUSH CITY      SUNNY     77  55  47 E12G20    29.60F                  
MOOSE LAKE     PTSUNNY   72  52  49 SE7       29.63F                  
HINCKLEY       CLEAR     72  54  53 E14       29.61F                  
CLOQUET        SUNNY     63  48  59 E9        29.65F                  
MCGREGOR       SUNNY     70  52  52 E8G18     29.61F                  
$$
MNZ071>073-080-081-089-090-097-098-231900-
   Southwest Minnesota   
  
CITY           SKY/WX    TMP DP  RH WIND       PRES   REMARKS
MONTEVIDEO     SUNNY     72  55  56 SE25G33   29.40F                  
GRANITE FALLS  SUNNY     73  55  53 SE23G33   29.42F                  
CANBY          SUNNY     73  53  50 E25G35    29.38F                  
MARSHALL       SUNNY     72  55  55 SE22G31   29.39F                  
REDWOOD FALLS  SUNNY     74  55  51 SE29G36   29.43F                  
OLIVIA         SUNNY     72  54  53 SE23G30   29.43F                  
WINDOM         SUNNY     72  54  53 SE25G37   29.43F                  
WORTHINGTON    SUNNY     72  55  55 SE24G36   29.40F                  
JACKSON        SUNNY     73  52  46 SE20G30   29.46F                  
TRACY            N/A     73  51  46 SE25      29.41F                  
SLAYTON        SUNNY     71  54  54 SE26G35   29.41F                  
$$
MNZ065>067-074>077-082>085-091>093-231900-
   South Central Minnesota  
  
CITY           SKY/WX    TMP DP  RH WIND       PRES   REMARKS
MANKATO        SUNNY     73  55  53 SE26G35   29.50F                  
NEW ULM        SUNNY     73  52  46 SE24G32   29.47F                  
ST JAMES       SUNNY     73  54  49 SE23G32   29.46F                  
FAIRMONT       SUNNY     74  55  51 S28G37    29.47F                  
GLENCOE        SUNNY     73  54  51 SE21      29.51F                  
FARIBAULT      SUNNY     73  55  53 SE23G29   29.56F                  
OWATONNA       SUNNY     73  55  53 SE22      29.56F                  
WASECA         SUNNY     72  54  53 SE23G30   29.55F                  
ALBERT LEA     SUNNY     73  55  53 S22G30      N/A                   
$$
MNZ078>079-086>088-094>096-231900-
   Southeast Minnesota   
  
CITY           SKY/WX    TMP DP  RH WIND       PRES   REMARKS
ROCHESTER      SUNNY     73  54  51 SE22G35   29.61F                  
6HR MIN TEMP:  56; 6HR MAX TEMP:  73;                                

RED WING       SUNNY     73  54  49 SE15      29.59F                  
STANTON        SUNNY     74  54  48 S18G24    29.57F                  
DODGE CENTER   SUNNY     73  54  49 SE25G31   29.59F                  
WINONA         SUNNY     73  54  49 SE16G25   29.64F                  
AUSTIN         SUNNY     73  55  53 S15G26    29.58F                  
PRESTON          N/A     72  55  54 SE18G28   29.64F                  
$$
ABBREVIATIONS USED IN REMARKS
   TC - TEMPERATURES IN CELSIUS
  WCI - WIND CHILL INDEX
   HX - HEAT INDEX
  VSB - VISIBILITY 
$$
  
