ASUS43 KMPX 231710
RWRMN 
WEATHER ROUNDUP FOR MINNESOTA
NATIONAL WEATHER SERVICE TWIN CITIES/CHANHASSEN MN
1200 PM CDT SUN OCT 23 2022


NOTE: "FAIR" INDICATES FEW OR NO CLOUDS BELOW 12,000 FEET WITH NO
SIGNIFICANT WEATHER AND/OR OBSTRUCTIONS TO VISIBILITY. N/A MEANS
CURRENT SKY AND/OR WEATHER CONDITIONS ARE NOT AVAILABLE.

MNZ060>063-068>070-231800-
   Twin Cities Metro   
  
CITY           SKY/WX    TMP DP  RH WIND       PRES   REMARKS
TWIN CITIES    SUNNY     71  53  52 SE18G33   29.59F                  
ST PAUL        SUNNY     70  54  56 SE18G28   29.61F                  
CRYSTAL        SUNNY     71  53  52 SE15G23   29.58F                  
BLAINE         SUNNY     72  54  53 SE16G28   29.59F                  
LAKEVILLE      SUNNY     72  52  49 SE15G22   29.60F                  
EDEN PRAIRIE   SUNNY     72  53  51 SE20      29.57F                  
SOUTH ST PAUL  SUNNY     70  52  53 SE9G18    29.60F                  
LAKE ELMO      FAIR      70  54  56 SE14      29.63F                  
$$
MNZ001>005-007-008-013>017-022>024-027-028-231800-
   Northwest Minnesota   
  
CITY           SKY/WX    TMP DP  RH WIND       PRES   REMARKS
BEMIDJI        SUNNY     64  49  58 SE14      29.56F                  
HALLOCK        SUNNY     55  46  71 E15       29.54F                  
ROSEAU         SUNNY     55  46  71 E18       29.60S                  
WARROAD        SUNNY     50  46  87 NE12G17   29.63S                  
THIEF RVR FALL SUNNY     62  49  62 E9        29.53F                  
CROOKSTON      SUNNY     66  46  48 E6        29.50F                  
FOSSTON        SUNNY     66  48  52 SE7       29.52F                  
DETROIT LAKES  SUNNY     64  50  59 SE16G23   29.50F                  
MOORHEAD       SUNNY     68  52  56 SE12      29.45F                  
PARK RAPIDS    SUNNY     65  49  56 SE16G23   29.55F                  
MAHNOMEN       FAIR      65  50  56 SE12      29.51F                  
$$
MNZ006-009>011-018-025>026-231800-
   North Central Minnesota   
  
CITY           SKY/WX    TMP DP  RH WIND       PRES   REMARKS
BAUDETTE       SUNNY     61  46  57 E10       29.62F                  
FLAG ISLAND    SUNNY     54  43  66 E6        29.66R                  
INTL FALLS     SUNNY     66  49  54 SE7       29.65R                  
WASKISH        SUNNY     70  52  52 SE10      29.59F                  
BIG FORK       SUNNY     66  50  55 SE7       29.69F                  
LONGVILLE      SUNNY     66  50  55 E8G17     29.60S                  
GRAND RAPIDS   SUNNY     65  51  60 SE13      29.65F                  
CRANE LAKE     SUNNY     66  48  52 SE3       29.69F                  
ORR            SUNNY     70  50  49 SE12      29.65S                  
COOK           SUNNY     66  48  52 SE10      29.67F                  
WALKER         SUNNY     63  48  59 E6        29.58F                  
$$
MNZ012-019>021-037-231800-
   Northeast Minnesota   
  
CITY           SKY/WX    TMP DP  RH WIND       PRES   REMARKS
DULUTH         PTSUNNY   59  49  69 E13       29.70S                  
ELY            MOSUNNY   66  48  52 SE12      29.72R                  
HIBBING        SUNNY     65  51  60 SE13      29.67F                  
EVELETH        SUNNY     66  52  59 SE8       29.69F                  
DULUTH HARBOR  PTSUNNY   52  50  93 E13       29.70F                  
TWO HARBORS    MOSUNNY   63  50  63 E9        29.71F                  
GRAND MARAIS     N/A     55  48  77 E13       29.78R                  
G MARAIS ARPRT SUNNY     63  50  63 SE8G17    29.79R                  
$$
MNZ029>031-032-039>041-046>048-054>057-064-231800-
   West Central Minnesota   
  
CITY           SKY/WX    TMP DP  RH WIND       PRES   REMARKS
FERGUS FALLS   SUNNY     66  52  59 SE18      29.45F                  
WHEATON          N/A     68  52  56 E22       29.42F                  
MORRIS         SUNNY     70  48  46 SE22G30   29.44F                  
ALEXANDRIA     SUNNY     68  52  56 SE21G30   29.50F                  
ELBOW LAKE     FAIR      67  52  59 SE18      29.46F                  
WADENA         SUNNY     70  50  49 SE16G22   29.52F                  
GLENWOOD       SUNNY     70  54  56 SE21      29.49F                  
APPLETON       MOSUNNY   72  52  49 S23G29    29.42F                  
BENSON         SUNNY     70  54  56 SE17G26   29.45F                  
ORTONVILLE       N/A     66  54  63 SE18G29   29.40F                  
MADISON        SUNNY     72  54  53 SE25      29.42F                  
WILLMAR        FAIR      72  54  53 SE23G30   29.51F                  
$$
MNZ033>034-036-042>043-049>051-058-059-231800-
   Central Minnesota     
  
CITY           SKY/WX    TMP DP  RH WIND       PRES   REMARKS
ST CLOUD       SUNNY     70  53  54 SE12      29.56F                  
SAUK CENTRE    FAIR      68  53  58 E16G23    29.52F                  
PAYNESVILLE    SUNNY     68  54  60 SE16G23   29.52F                  
AITKIN         MOSUNNY   68  52  56 E10       29.61F                  
PINE RIVER     SUNNY     66  52  59 SE13      29.62F                  
BRAINERD       MOSUNNY   68  51  54 SE10G21   29.59F                  
STAPLES        SUNNY     68  52  56 SE9G17    29.54F                  
LONG PRAIRIE   FAIR      66  52  59 SE16      29.54F                  
LITTLE FALLS   SUNNY     68  52  56 E13G21    29.56F                  
CAMP RIPLEY    FAIR      69  53  55 SE16G22   29.54F                  
LITCHFIELD     SUNNY     70  52  52 SE20G25   29.52F                  
BUFFALO        SUNNY     70  54  56 SE22G29   29.56F                  
MAPLE LAKE     SUNNY     70  52  52 SE9       29.57F                  
HUTCHINSON     SUNNY     71  54  53 SE22G29   29.54F                  
$$
MNZ037-044-045-052-053-231800-
   East Central Minnesota   
  
CITY           SKY/WX    TMP DP  RH WIND       PRES   REMARKS
PRINCETON      SUNNY     72  54  53 E12G17    29.59F                  
MORA           SUNNY     68  50  52 SE9G17    29.66F                  
CAMBRIDGE      SUNNY     72  52  49 SE9       29.61F                  
RUSH CITY      SUNNY     73  55  53 SE10G17   29.63F                  
MOOSE LAKE     CLOUDY    63  52  67 NE5       29.66S                  
HINCKLEY       SUNNY     70  54  56 SE12      29.64F                  
CLOQUET        PTSUNNY   59  48  67 E6        29.67S                  
MCGREGOR       PTSUNNY   68  52  56 SE10G16   29.64S                  
$$
MNZ071>073-080-081-089-090-097-098-231800-
   Southwest Minnesota   
  
CITY           SKY/WX    TMP DP  RH WIND       PRES   REMARKS
MONTEVIDEO     SUNNY     70  54  56 SE22G29   29.44F                  
GRANITE FALLS  SUNNY     71  55  57 E23G31    29.45F                  
CANBY          SUNNY     70  53  55 E21G30    29.40F                  
MARSHALL       SUNNY     69  54  58 SE21G31   29.41F                  
REDWOOD FALLS  SUNNY     71  54  54 SE26G36   29.47F                  
OLIVIA         SUNNY     70  52  52 SE20G30   29.48F                  
WINDOM         SUNNY     70  54  56 SE22G33   29.46F                  
WORTHINGTON    SUNNY     69  54  58 SE25G31   29.43F                  
JACKSON        SUNNY     70  52  52 SE24      29.48F                  
TRACY            N/A     69  51  51 SE20G31   29.43F                  
SLAYTON        SUNNY     67  54  61 SE28G35   29.43F                  
$$
MNZ065>067-074>077-082>085-091>093-231800-
   South Central Minnesota  
  
CITY           SKY/WX    TMP DP  RH WIND       PRES   REMARKS
MANKATO        SUNNY     71  54  54 SE24G30   29.54F                  
NEW ULM        SUNNY     72  52  49 SE23G30   29.50F                  
ST JAMES       SUNNY     72  54  53 SE24G31   29.49F                  
FAIRMONT       SUNNY     71  55  56 SE25G36   29.50F                  
GLENCOE        SUNNY     70  54  55 SE16G24   29.55F                  
FARIBAULT      SUNNY     72  54  53 SE20G29   29.59F                  
OWATONNA       SUNNY     72  55  56 SE16G29   29.59F                  
WASECA         SUNNY     70  54  56 SE21G29   29.59F                  
ALBERT LEA     SUNNY     70  55  60 SE24G31   29.57F                  
$$
MNZ078>079-086>088-094>096-231800-
   Southeast Minnesota   
  
CITY           SKY/WX    TMP DP  RH WIND       PRES   REMARKS
ROCHESTER      SUNNY     70  54  56 SE21G33   29.64F                  
RED WING       SUNNY     70  54  56 SE12      29.62F                  
STANTON        SUNNY     72  53  52 SE14G24   29.60F                  
DODGE CENTER   SUNNY     70  54  56 SE25G31   29.62F                  
WINONA         SUNNY     72  54  53 S9G21     29.68F                  
AUSTIN         SUNNY     70  55  60 S13G24    29.61F                  
PRESTON        SUNNY     69  55  60 SE16G25   29.67F                  
$$
ABBREVIATIONS USED IN REMARKS
   TC - TEMPERATURES IN CELSIUS
  WCI - WIND CHILL INDEX
   HX - HEAT INDEX
  VSB - VISIBILITY 
$$
  
