ASUS41 KALY 212310
RWRALY

NEW YORK STATE HOURLY WEATHER ROUNDUP
NATIONAL WEATHER SERVICE ALBANY NY
700 PM EDT FRI OCT 21 2022

NOTE: "FAIR" INDICATES FEW OR NO CLOUDS BELOW 12,000 FEET WITH NO
SIGNIFICANT WEATHER AND/OR NO OBSTRUCTIONS TO VISIBILITY.

NYZ032-033-038>043-046>054-057>066-NYZ062>081-082-084-220000-
EAST

  
CITY           SKY/WX    TMP DP  RH WIND       PRES   REMARKS
ALBANY         CLEAR     54  30  40 SE7       30.08R                  
GLENS FALLS    CLEAR     42  33  70 CALM      30.07R                  
POUGHKEEPSIE   CLEAR     49  36  61 CALM      30.10R                  
NEWBURGH       CLEAR     55  32  41 CALM      30.10R                  
MONTGOMERY     CLEAR     46  35  65 CALM      30.10R                  
WHITE PLAINS   CLEAR     49  40  71 CALM      30.13R                  
ISLIP          CLEAR     55  45  68 S5        30.14R                  
NEW YORK CITY  PTCLDY    58  33  39 S9        30.13R                  
CENTRAL PARK   CLEAR     57  32  38 VRB5      30.16R                  
$$

NYZ005>009-017-018-044>046-055-056-220000-
CENTRAL

  
CITY           SKY/WX    TMP DP  RH WIND       PRES   REMARKS
FULTON         CLEAR     54  31  41 CALM      29.99R                  
SYRACUSE       PTCLDY    56  27  32 S6        30.01R                  
ROME           CLEAR     52  29  41 E6        30.04R                  
ELMIRA         CLEAR     54  27  35 SW8       30.03R                  
BINGHAMTON     CLEAR     50  25  37 S8        30.05R                  
MONTICELLO     CLEAR     50  29  44 S7        30.10R                  
$$

NYZ026>034-041>043-087-220000-
NORTH

  
CITY           SKY/WX    TMP DP  RH WIND       PRES   REMARKS
WATERTOWN      CLEAR     56  29  35 S9        29.95S                  
FORT DRUM      NOT AVBL                                               
OGDENSBURG     FAIR      54  30  40 S7        29.92S                  
MASSENA        CLEAR     51  28  41 S6        29.96R                  
SARANAC LAKE   PTCLDY    40  30  67 CALM      30.00R                  
PLATTSBURGH    CLEAR     53  31  42 S14       30.01R                  
$$

NYZ001>004-010>016-019>021-085-220000-
WEST

  
CITY           SKY/WX    TMP DP  RH WIND       PRES   REMARKS
NIAGARA FALLS  CLEAR     59  37  44 S8        29.90R                  
BUFFALO        PTCLDY    58  33  39 S9        29.92R                  
DUNKIRK        CLEAR     60  32  34 S8        29.92R                  
JAMESTOWN      CLEAR     54  31  41 S10       29.98R                  
WELLSVILLE     CLEAR     55  27  34 S7        30.02R                  
ROCHESTER      CLEAR     59  31  34 S7        29.95R                  
PENN YAN       CLEAR     54  29  38 S6        30.01R                  
$$

             KEY
       WCI = WIND CHILL INDEX
       VSB = VISIBILITY
       HX  = HEAT INDEX
$$
  
