ASUS41 KOKX 220105
RWROKX

Regional Weather Roundup
National Weather Service New York NY
900 PM EDT FRI OCT 21 2022

Note: "FAIR" indicates few or no clouds below 12,000 feet with no
significant weather and/or obstructions to visibility.

NYZ071-072-176-178-NJZ106-104-220200-
New York City Metro Area
  
CITY           SKY/WX    TMP DP  RH WIND       PRES   REMARKS
Central Park   CLEAR     56  40  55 CALM      30.17S                  
World Trd Ctr  NOT AVBL                                               
Bronx Lehman C   N/A     57  41  54 S6          N/A                   
LaGuardia Arpt CLEAR     58  40  51 S7        30.15R                  
Queens College   N/A     57  45  62 S6          N/A                   
Kennedy Intl   CLEAR     57  44  62 S12       30.16S                  
Breezy Point     N/A     57 N/A N/A S10         N/A                   
Brooklyn Coll    N/A     57  41  54 S3          N/A                   
Staten Island    N/A     54  39  58 S6          N/A                   
Newark/Liberty CLEAR     56  40  55 S3        30.15R                  
Teterboro      CLEAR     52  37  56 CALM      30.14R                  
$$
 
NYZ177-179-078>081-220200-
Long Island New York
  
CITY           SKY/WX    TMP DP  RH WIND       PRES   REMARKS
Jones Beach      N/A     59 N/A N/A SW6         N/A                   
Wantagh          N/A     57  46  67 S6          N/A                   
Hempstead      NOT AVBL                                               
Matinecock Pt    N/A     54 N/A N/A SE5         N/A                   
Farmingdale    CLEAR     51  43  74 CALM      30.16S                  
MacArthur/ISP  CLEAR     48  43  82 CALM      30.16R                  
Stony Brook      N/A     52  46  82 S1          N/A                   
Shirley        CLEAR     47  43  86 CALM      30.17R                  
Mt Sinai Harb    N/A     54 N/A N/A S5          N/A                   
Westhampton    CLEAR     42  40  92 CALM      30.18R                  
East Hampton   FAIR      49  46  89 CALM      30.17R                  
Southold         N/A     48  46  93 CALM        N/A                   
Montauk          N/A     57  48  72 VRB3      30.18R                  
$$
 
NYZ052-065-067-220200-
Hudson Valley
  
CITY           SKY/WX    TMP DP  RH WIND       PRES   REMARKS
White Plains   CLEAR     48  39  71 CALM      30.15R                  
Larchmont Harb   N/A     55 N/A N/A S5          N/A                   
Croton On Huds   N/A     48 N/A N/A E3          N/A                   
Somers           N/A     48  36  61 S3          N/A                   
Brewster         N/A     43  34  70 NW1         N/A                   
Newburgh       CLEAR     46  34  61 CALM      30.13R                  
Montgomery     CLEAR     38  33  82 CALM      30.13R                  
Otisville        N/A     41  36  81 NW1         N/A                   
Warwick          N/A     50  36  57 S7          N/A                   
Suffern          N/A     48  36  61 CALM        N/A                   
Poughkeepsie   CLEAR     41  35  79 CALM      30.13R                  
Albany         CLEAR     51  31  46 S3        30.10R                  
$$
 
NJZ001-105-106-008-010-013-015-019>022-104-220200-
New Jersey
  
CITY           SKY/WX    TMP DP  RH WIND       PRES   REMARKS
Newark/Liberty CLEAR     56  40  55 S3        30.15R                  
Teterboro      CLEAR     52  37  56 CALM      30.14R                  
Caldwell       CLEAR     49  36  61 NW3       30.15R                  
Somerville     CLEAR     43  37  79 CALM      30.14R                  
Linden         FAIR      55  37  52 CALM      30.15S                  
Perth Amboy      N/A     55 N/A N/A S12         N/A                   
Sussex         CLEAR     42  36  79 CALM      30.15R                  
Andover          N/A     45  36  70 CALM      30.14R                  
Trenton        CLEAR     51  35  54 CALM      30.15R                  
Millville      CLEAR     43  39  86 CALM      30.17R                  
Atlantic City  CLEAR     46  41  82 CALM      30.17R                  
Wrightstown    CLEAR     49  39  67 S6        30.15R                  
Toms River     NOT AVBL                                               
Belmar         CLEAR     52  45  77 S5        30.17R                  
$$
 
PAZ047>061-062-071-220200-
Eastern Pennsylvania
  
CITY           SKY/WX    TMP DP  RH WIND       PRES   REMARKS
Philadelphia   CLEAR     55  36  48 SW5       30.16R                  
Allentown      CLEAR     49  33  54 CALM      30.14R                  
Scranton       CLEAR     46  31  55 CALM      30.12R                  
$$

CTZ002-004>006-009-010-012-RIZ004-006-007-MAZ004-011-015-220200-
Southern New England

 In CT
  
CITY           SKY/WX    TMP DP  RH WIND       PRES   REMARKS
Bradley Intl   CLEAR     50  32  50 S6        30.15R                  
Hartford       CLEAR     48  40  73 S3        30.15R                  
Danbury        CLEAR     46  37  71 CALM      30.16R                  
Wtrbury/Oxford CLEAR     48  37  65 S7        30.16R                  
Norwalk Harbor   N/A     57 N/A N/A S13G18      N/A                   
Bridgeport     CLEAR     57  45  64 SW9       30.16R                  
Meriden        CLEAR     42  36  79 CALM      30.16R                  
New Haven      CLEAR     59  46  62 SW6       30.16R                  
Chester        FAIR     N/A N/A N/A SW3       30.16R                  
Groton         CLEAR     60  49  66 SW12      30.16R                  
Willimantic    CLEAR     43  41  93 CALM      30.16S                  

 In RI
  
CITY           SKY/WX    TMP DP  RH WIND       PRES   REMARKS
Providence     CLEAR     49  44  83 CALM      30.17R                  
Block Island   CLEAR     56  44  64 SW9       30.18R                  
Westerly       CLEAR     58  47  66 SW8       30.17R                  
 
In MA
  
CITY           SKY/WX    TMP DP  RH WIND       PRES   REMARKS
Boston         NOT AVBL                                               
Worcester      CLEAR     46  36  68 SW8       30.15R                  
Westfield      CLEAR     40  35  83 CALM      30.14R                  
Provincetown   CLEAR     56  48  74 S10       30.19R                  
Nantucket      CLEAR     55  46  71 SW7       30.19R                  
$$

ANZ330-335-338-340-345-350-353-355-220200-
Coastal Marine Observations

  
STATION/POSITION TIME  SKY/WX   TEMP    WIND        PRES    VSBY  WAVE
                                AIR SEA DIR/SP/G                  HT/PER
                 (UTC)          (F)     (DEG/KT/KT) (MB)    (MI)  (FT/S)
NY Harb Entrance 0050               62  200/ 14/ 17 1020.4          3/ 3
20 S Fire Island 0050               62              1020.8          2/ 8
Great South Bay  2345            58     230/ 10/ 10   N/A
23 SSW Montauk P 0050            60     210/ 12/ 14 1022.2          3/ 8
15 E Barnegat Li 0026               62                N/A           2/ 9
Hudson Canyon    0050            61 66  170/  6/ 10 1021.4          2/ 7
Kings Point      0024               61  150/  5/  7 1021.1
Execution Rocks  NOT AVBL
Western LI Sound NOT AVBL
Central LI Sound NOT AVBL
Robbins Reef     0030                   190/ 11/ 13 1020.6
$$


>>>>>>>>>>>>>>>>>>>>>>>>>>>> KEY <<<<<<<<<<<<<<<<<<<<<<<<<<<
>                                                          <
>     SKY/WX - Sky Condition/Present Weather               <
>     TMP    - Temperature in Fahrenheit                   <
>     DP     - Dew Point in Fahrenheit                     <
>     RH     - Relative Humidity in Percent                <
>     WIND   - Direction (from) and Speed in MPH           <
>     PRES   - Mean Sea Level Pressure (inches of Hg)      <
>     WCI    - Wind Chill Index                            <
>     VSB    - Visibility in Miles                         <
>     HX     - Heat Index                                  <
>     TC     - Temperature in Celsius                      <
>     VRB    - Variable Wind Direction                     <
>                                                          <
>>>>>>>>>>>>>>>>>>>>>>>>>>>> KEY <<<<<<<<<<<<<<<<<<<<<<<<<<<
  
