ASUS41 KRLX 220210
RWRRLX
Regional Weather Roundup
National Weather Service Charleston WV
1000 PM EDT FRI OCT 21 2022

Note: "fair" indicates few or no clouds below 12,000 feet with no
significant weather and/or obstructions to visibility.

WVZ003-220300-
Northern Panhandle of West Virginia
  
CITY           SKY/WX    TMP DP  RH WIND       PRES   REMARKS
WHEELING       CLEAR     53  30  41 SE7       30.05R                  
$$

WVZ009-220300-
Northwest West Virginia
  
CITY           SKY/WX    TMP DP  RH WIND       PRES   REMARKS
PARKERSBURG    CLEAR     43  35  73 SE3       30.05R                  
$$

WVZ006-220300-
Western West Virginia
  
CITY           SKY/WX    TMP DP  RH WIND       PRES   REMARKS
HUNTINGTON     CLEAR     53  33  46 CALM      30.03S                  
POINT PLEASANT CLEAR     46  35  66 CALM      30.06S                  
$$

WVZ015-220300-
West Central West Virginia
  
CITY           SKY/WX    TMP DP  RH WIND       PRES   REMARKS
CHARLESTON     CLEAR     46  38  73 SE3       30.06R                  
$$

WVZ509-031-039-220300-
North Central West Virginia
  
CITY           SKY/WX    TMP DP  RH WIND       PRES   REMARKS
MORGANTOWN     CLEAR     48  34  58 CALM      30.07R                  
CLARKSBURG     CLEAR     47  34  60 CALM      30.07R                  
BUCKHANNON     PTCLDY    45  32  61 CALM      30.08R                  
$$

WVZ515-516-025-034-042-507-220300-
Southern West Virginia
  
CITY           SKY/WX    TMP DP  RH WIND       PRES   REMARKS
BECKLEY        CLEAR     50  30  46 S8        30.11S                  
LOGAN          FAIR      54  34  47 CALM      30.07R                  
PINEVILLE      NOT AVBL                                               
BLUEFIELD      CLEAR     50  28  42 S7        30.13R                  
LEWISBURG      CLEAR     41  33  74 CALM      30.14S                  
$$

WVZ525-526-220300-
Northern Mountains of West Virginia
  
CITY           SKY/WX    TMP DP  RH WIND       PRES   REMARKS
ELKINS         CLEAR     37  31  78 CALM      30.11R                  
$$

WVZ502-504-052-220300-
Eastern Panhandle of West Virginia
  
CITY           SKY/WX    TMP DP  RH WIND       PRES   REMARKS
PETERSBURG     CLEAR     39  36  87 CALM      30.14R                  
CUMBERLAND     CLEAR     46  35  66 CALM      30.15R                  
MARTINSBURG    CLEAR     42  33  70 CALM      30.13R                  
$$

OHZ075-083-KYZ101-220300-
Southeast Ohio/Northeast Kentucky
  
CITY           SKY/WX    TMP DP  RH WIND       PRES   REMARKS
ATHENS         FLURRIES  41  35  76 CALM      30.03R                  
JACKSON        NOT AVBL                                               
ASHLAND        CLEAR     47  42  83 CALM      30.04S                  
$$
  
