ASUS41 KRLX 212310
RWRRLX
Regional Weather Roundup
National Weather Service Charleston WV
700 PM EDT FRI OCT 21 2022

Note: "fair" indicates few or no clouds below 12,000 feet with no
significant weather and/or obstructions to visibility.

WVZ003-220000-
Northern Panhandle of West Virginia
  
CITY           SKY/WX    TMP DP  RH WIND       PRES   REMARKS
WHEELING       CLEAR     58  30  34 S7        30.01R                  
$$

WVZ009-220000-
Northwest West Virginia
  
CITY           SKY/WX    TMP DP  RH WIND       PRES   REMARKS
PARKERSBURG    CLEAR     59  31  34 S3        30.02R                  
$$

WVZ006-220000-
Western West Virginia
  
CITY           SKY/WX    TMP DP  RH WIND       PRES   REMARKS
HUNTINGTON     CLEAR     63  30  28 SE5       30.01F                  
POINT PLEASANT CLEAR     59  33  38 CALM      30.03S                  
$$

WVZ015-220000-
West Central West Virginia
  
CITY           SKY/WX    TMP DP  RH WIND       PRES   REMARKS
CHARLESTON     PTCLDY    57  35  43 S3        30.04R                  
$$

WVZ509-031-039-220000-
North Central West Virginia
  
CITY           SKY/WX    TMP DP  RH WIND       PRES   REMARKS
MORGANTOWN     CLEAR     58  31  35 CALM      30.04S                  
CLARKSBURG     CLEAR     61  29  29 SE3       30.04S                  
BUCKHANNON       N/A     57  28  33 CALM      30.05R                  
$$

WVZ515-516-025-034-042-507-220000-
Southern West Virginia
  
CITY           SKY/WX    TMP DP  RH WIND       PRES   REMARKS
BECKLEY        CLEAR     54  30  40 SE6       30.08R                  
LOGAN          FAIR      61  32  33 CALM      30.05S                  
PINEVILLE      NOT AVBL                                               
BLUEFIELD      CLEAR     55  29  36 SW3       30.10R                  
LEWISBURG      CLEAR     55  32  41 SW5       30.10S                  
$$

WVZ525-526-220000-
Northern Mountains of West Virginia
  
CITY           SKY/WX    TMP DP  RH WIND       PRES   REMARKS
ELKINS         CLEAR     51  33  50 CALM      30.06R                  
$$

WVZ502-504-052-220000-
Eastern Panhandle of West Virginia
  
CITY           SKY/WX    TMP DP  RH WIND       PRES   REMARKS
PETERSBURG     HAZE      59  34  38 CALM      30.06S VSB 1/4          
CUMBERLAND     CLEAR     59  31  35 CALM      30.10R                  
MARTINSBURG    CLEAR     54  32  43 SE5       30.08R                  
$$

OHZ075-083-KYZ101-220000-
Southeast Ohio/Northeast Kentucky
  
CITY           SKY/WX    TMP DP  RH WIND       PRES   REMARKS
ATHENS         CLEAR     59  31  34 S5        30.00S HAZE             
JACKSON        NOT AVBL                                               
ASHLAND        CLEAR     62  34  35 E3        30.01S                  
$$
  
