ASUS46 KPDT 220225
RWRPDT
PENDLETON REGIONAL WEATHER ROUNDUP
NATIONAL WEATHER SERVICE PENDLETON OREGON
700 PM PDT FRI OCT 21 2022

NOTE: FAIR INDICATES FEW OR NO CLOUDS BELOW 12,000 FEET WITH NO
SIGNIFICANT WEATHER AND/OR OBSTRUCTIONS TO VISIBILITY.

# INDICATES UNOFFICIAL STATION AND DATA

WAZ520-220310-
EAST SLOPES OF WASHINGTON CASCADES

CITY            SKY/WX      TMP DP  RH  WIND    PRES   REMARKS
#BULLFROG       N/A         43  36  76  SW1     N/A                          
#ELK HTS DOT    N/A         44  43  96  W5      N/A                          
#GLENWOOD       N/A         42  40  93  CALM    29.62F                       
#NILE           N/A         44  36  73  N2      28.92F                       
#TROUT LAKE 1E  N/A         41  39  93  CALM    29.65F                       
$$

WAZ521-220310-
SIMCOE HIGHLANDS

CITY            SKY/WX      TMP DP  RH  WIND    PRES   REMARKS
#SATUS PASS DOT N/A         41  40  96  W1      N/A                          
#CENTERVILLE 1SWN/A         43  41  93  CALM    29.57F                       
#LYLE 6NE       N/A         44  43  96  CALM    29.62F                       
#PITT 4SE       N/A         41  40  96  CALM    29.64F                       
$$

WAZ026-220310-
KITTITAS VALLEY

CITY            SKY/WX      TMP DP  RH  WIND    PRES   REMARKS
ELLENSBURG AP   MOCLDY      48  34  58  NW14    29.62F WCI 42                
#ELLENSBURG CWU N/A         46  35  65  NW8     29.55F                       
#ELLENSBURG 1E  N/A         47  37  68  W2      29.62F                       
#MANASTASH RDG  N/A         43  33  67  W3      N/A                          
#ROCKY CYN DOT  N/A         46  37  71  W12     N/A    WCI 40                
#RYEGRASS DOT   N/A         43  33  67  W15     N/A    WCI 36                
#THORP 6N       N/A         45  37  73  CALM    29.53F                       
$$

WAZ027-220310-
YAKIMA VALLEY

CITY            SKY/WX      TMP DP  RH  WIND    PRES   REMARKS
SUNNYSIDE AP    CLOUDY      47  46  96  NE5     29.64F                       
YAKIMA AIRPORT  LGT RAIN    49  43  80  CALM    29.63F                       
YAKIMA-VAGABOND LGT RAIN    50  34  54  CALM    29.58F                       
#MABTON         N/A         48  46  93  E3      29.63F                       
#NACHES 2SW     N/A         45  38  76  W2      29.62F                       
#OUTLOOK DOT    N/A         47  46  96  CALM    N/A                          
#PARKER DOT     N/A         48  44  86  CALM    N/A                          
#TERRACE HTS    N/A         49  42  77  CALM    29.57F                       
#I82 S UMTANUM RN/A         47  36  65  SW2     N/A                          
#UNION GAP DOT  N/A         48  44  86  CALM    N/A                          
#ZILLAH DOT     N/A         48  N/A N/A E3      N/A                          
$$

WAZ028-220310-
LOWER COLUMBIA BASIN...WASHINGTON

CITY            SKY/WX      TMP DP  RH  WIND    PRES   REMARKS
PASCO           LGT RAIN    50  46  86  S9      29.65F                       
RICHLAND AWOS   LGT RAIN    50  48  93  SW5     29.65F                       
#BASIN CITY 5SW N/A         48  45  89  S6      29.62F                       
#BENTON CITY    N/A         47  44  89  CALM    29.54F                       
#CONNELL 5N     N/A         45  42  89  CALM    29.63F                       
#ELTOPIA 6NW    N/A         47  45  93  CALM    28.62F                       
#KAHLOTUS       N/A         44  41  89  W13     29.61F WCI 38                
#KENNEWICK 3S   N/A         47  44  89  S6      29.62F                       
#SAGEMOOR 2W    N/A         47  45  93  S3      29.63F                       
#TOUCHET 2S     N/A         48  44  86  S15     29.62F WCI 42                
$$

WAZ029-220310-
FOOTHILLS OF THE BLUES...WASHINGTON

CITY            SKY/WX      TMP DP  RH  WIND    PRES   REMARKS
WALLA WALLA AP  LGT RAIN    47  44  89  S9      29.65F HAZE                  
#CLYDE 6NW      N/A         44  42  93  S6      29.65F                       
#DELANEY DOT    N/A         48  44  86  S5      N/A                          
#LOWDEN 2SE     N/A         46  44  93  CALM    29.54F                       
#PRESCOTT       N/A         48  44  86  CALM    29.64F                       
#WALLA WALLA 5E N/A         48  45  89  S7      N/A                          
#WHITMAN MISSIONN/A         48  45  89  SE2     29.77F                       
$$

WAZ030-220310-
BLUE MOUNTAINS...WASHINGTON
 
CITY            SKY/WX      TMP DP  RH  WIND    PRES   REMARKS
$$

ORZ009-041-WAZ024-220310-
COLUMBIA RIVER GORGE

CITY            SKY/WX      TMP DP  RH  WIND    PRES   REMARKS
HOOD RIVER AP   LGT RAIN    46  45  96  CALM    29.65F                       
THE DALLES AP   LGT RAIN    51  46  83  SW7     29.66F                       
#CELILO DOT     N/A         49  46  89  S2      N/A                          
#LYLE           N/A         48  45  89  NE1     29.67F                       
#RUFUS DOT      N/A         51  43  74  W10     N/A                          

$$

ORZ510-220310-
NORTH CENTRAL OREGON

CITY            SKY/WX      TMP DP  RH  WIND    PRES   REMARKS
#COW CYN RST AREN/A         44  43  96  NE3     N/A                          
#DUFUR          N/A         44  42  93  CALM    29.58F                       
#GRASS VALLEY 1SN/A         43  41  93  CALM    29.59F                       
#KENT DOT       N/A         42  38  86  E3      N/A                          
#WAPANITIA AIRPON/A         45  43  93  CALM    29.61F                       
#WASCO DOT      N/A         46  46  100 CALM    N/A                          
#WASCO 5NE      N/A         44  42  93  N5      29.60F                       
$$

ORZ511-220310-
CENTRAL OREGON

CITY            SKY/WX      TMP DP  RH  WIND    PRES   REMARKS
BEND AIRPORT    MOCLDY      59  45  60  SW12    29.64F                       
MADRAS AIRPORT  LGT DRIZZLE 48  46  93  E6      29.64F                       
PRINEVILLE AP   LGT RAIN    54  48  80  W7      29.64F                       
REDMOND AIRPORT LGT RAIN    58  46  64  NW20G25 29.62F                       
#ASHWOOD SCHOOL N/A         48  46  93  CALM    29.64F                       
#CULVER         N/A         50  46  86  N3      28.92F                       
#PRINEVILLE     N/A         54  50  86  CALM    29.68F                       

$$


ORZ509-220310-
EAST SLOPES OF OREGON CASCADES

CITY            SKY/WX      TMP DP  RH  WIND    PRES   REMARKS
SISTERS AWOS    N/A         54  46  74  CALM    29.65F                       
SUNRIVER AWOS   CLOUDY      52  45  77  S12     29.70F                       
#CAMP SHERMAN   N/A         51  47  86  CALM    29.60F                       
#LAVA BUTTE DOT N/A         51  44  77  SW10G28 N/A                          
#SISTERS ODOT   N/A         53  46  77  W3      N/A                          
#WANOGA BUTTE D N/A         42  41  96  W23G39  N/A    WCI 32                

$$

ORZ044-220310-
LOWER COLUMBIA BASIN...OREGON

CITY            SKY/WX      TMP DP  RH  WIND    PRES   REMARKS
HERMISTON       RAIN        49  47  93  S6      29.67F                       
#BOARDMAN SCHOOLN/A         50  47  89  S7      29.60F                       
#ECHO 8SW       N/A         48  45  89  SW8     29.67F                       
#I-84 EX 198 DOTN/A         47  47  100 NE7     N/A                          
#UMATILLA       N/A         49  45  86  CALM    29.57F                       
$$

ORZ507-220310-
NORTHERN FOOTHILLS OF THE BLUES

CITY            SKY/WX      TMP DP  RH  WIND    PRES   REMARKS
PENDLETON AIRPT RAIN        46  44  93  S9      29.67F FOG                   
#ATHENA         N/A         46  43  89  S8      29.65F                       
#CAYUSE         N/A         45  43  93  E1      29.64F                       
#HELIX SCHOOL   N/A         43  41  93  S8      29.65F                       
#HOLDMAN 6E     N/A         43  42  96  SE9     29.44F                       
#M-FREEWATER 5SEN/A         46  44  93  CALM    29.66F                       
#PDT SUNRIDGE   N/A         45  42  89  SW1     29.64F                       
#TUTUILLA       N/A         44  41  89  S2      29.70F                       
#UMAPINE 2E     N/A         47  42  83  CALM    29.64F                       

$$

ORZ508-220310-
SOUTHERN FOOTHILLS OF THE BLUES

CITY            SKY/WX      TMP DP  RH  WIND    PRES   REMARKS
#AJAX           N/A         42  41  96  S3      29.64F                       
#HEPPNER EOC    N/A         44  42  93  CALM    29.58F                       
#HEPPNER 4NE    N/A         41  40  96  SE2     29.61F                       
#OLEX 4N        N/A         47  44  89  S3      29.63F                       
#RUGGS 2SW      N/A         42  40  93  SE3     29.65F                       

$$

ORZ502-503-220310-
BLUE MOUNTAINS

CITY            SKY/WX      TMP DP  RH  WIND    PRES   REMARKS
MEACHAM         RAIN        38  37  96  CALM    29.66F FOG                   
#BATTLE MTN DOT N/A         36  36  100 CALM    N/A                          
#LADD CREEK ODOTN/A         N/A N/A N/A S3      N/A                          
#N POWDER DOT   N/A         47  46  96  N7      N/A                          
#TOLLGATE       N/A         35  34  96  CALM    29.71F                       
#TROY SCHOOL    N/A         45  41  86  CALM    29.49F                       
#WESTON 4E      N/A         40  39  96  CALM    29.59F                       
$$

ORZ505-220310-
JOHN DAY BASIN

CITY            SKY/WX      TMP DP  RH  WIND    PRES   REMARKS
JOHN DAY        RAIN        50  46  86  W10     29.63S                       
#DAYVILLE SCHOOLN/A         54  47  77  CALM    29.59R                       
#MITCHELL 8NW   N/A         44  42  93  CALM    29.60S                       
#MONUMENT HS    N/A         49  44  83  NW3     29.54R                       
#MT. VERNON 5SE N/A         55  42  61  N2      29.64F                       
$$

ORZ506-220310-
OCHOCO AND JOHN DAY HIGHLANDS

CITY            SKY/WX      TMP DP  RH  WIND    PRES   REMARKS
#BUCK CREEK DOT N/A         55  42  61  W20G33  N/A                          
#HORSE RIDGE DO N/A         54  42  64  CALM    N/A                          
#KEYES SMT DOT  N/A         43  43  100 W3      N/A                          
#PAULINA ODOT   N/A         54  48  80  W9      N/A                          
#PRAIRIE CITY   N/A         56  44  64  N1      29.55F                       
#SENECA 9NW     N/A         48  40  74  CALM    29.57F                       
$$

ORZ049-220310-
GRANDE RONDE VALLEY

CITY            SKY/WX      TMP DP  RH  WIND    PRES   REMARKS
LA GRANDE       LGT RAIN    47  46  96  NW7     29.65F                       
#COVE SCHOOL    N/A         45  44  96  CALM    29.68S                       
#ELGIN 1E       N/A         45  39  79  CALM    N/A                          
#IMBLER SCHOOL  N/A         44  42  93  CALM    29.64F                       
#ISLAND CITY 4N N/A         48  46  93  CALM    29.64F                       
#LADD CYN DOT   N/A         47  47  100 S3      N/A                          
#UNION 1S       N/A         47  44  89  CALM    29.61R                       
$$

ORZ050-220310-
WALLOWA COUNTY

CITY            SKY/WX      TMP DP  RH  WIND    PRES   REMARKS
JOSEPH AIRPORT  LGT RAIN    42  40  93  MISG    29.64F                       
#ENTERPRISE HS  N/A         44  41  89  NW1     29.47F                       
#IMNAHA SCHOOL  N/A         48  45  89  CALM    29.62F                       
#JOSEPH 3N      N/A         42  37  82  CALM    29.70F                       
#LOSTINE 3SE    N/A         42  40  93  CALM    29.71F                       
#MT HOWARD 8000 N/A         33  30  89  SW6     29.62F                       
#WALLOWA LAKE   N/A         42  40  93  CALM    29.67F                       
#WALLOWA SCHOOL N/A         43  41  93  CALM    29.60F                       



$$
