ASUS45 KCYS 220010
RWRWY 

WYOMING REGIONAL WEATHER ROUNDUP
NATIONAL WEATHER SERVICE CHEYENNE WY
600 PM MDT FRI OCT 21 2022

NOTE:  "FAIR" INDICATES FEW OR NO CLOUDS BELOW 12,000 FEET
WITH NO SIGNIFICANT WEATHER AND/OR OBSTRUCTIONS TO VISIBILITY.

WYZ001-220100-
YELLOWSTONE NATIONAL PARK
  
CITY           SKY/WX    TMP DP  RH WIND       PRES   REMARKS
LK YELLOWSTONE   N/A     48  24  39 W9G20     29.73F                  
6HR MIN TEMP:  48; 6HR MAX TEMP:  53;                                

W YELLOWSTONE  NOT AVBL                                               

$$
WYZ002>013-054>058-071-098>099-220100-
NORTHERN WYOMING
  
CITY           SKY/WX    TMP DP  RH WIND       PRES   REMARKS
JACKSON        CLOUDY    58  18  21 SW15G32   29.74F                  
CODY           CLOUDY    66  27  23 VRB5      29.56F                  
GREYBULL       FAIR      68  24  19 SE5       29.48F                  
6HR MIN TEMP:  60; 6HR MAX TEMP:  74;                                

WORLAND        FAIR      60  30  32 E6        29.50S                  
6HR MIN TEMP:  60; 6HR MAX TEMP:  72;                                

SHERIDAN       FAIR      60  35  39 NW3       29.52R                  
6HR MIN TEMP:  59; 6HR MAX TEMP:  74;                                

BUFFALO        FAIR      60  27  28 NW6       29.55S                  
6HR MIN TEMP:  60; 6HR MAX TEMP:  72;                                

GILLETTE       FAIR      60  25  26 NW5       29.52S                  
6HR MIN TEMP:  60; 6HR MAX TEMP:  74;                                

NEWCASTLE      FAIR      66  14  13 NW12      29.52R                  

$$
WYZ014>020-022>026-101>103-220100-
CENTRAL WYOMING
  
CITY           SKY/WX    TMP DP  RH WIND       PRES   REMARKS
BIG PINEY      FAIR      57  18  21 W23G37    29.82F                  
6HR MIN TEMP:  54; 6HR MAX TEMP:  64;                                

PINEDALE       FAIR      55  19  24 W12G20    29.82S                  
DUBOIS         FAIR      54  18  24 W24G36    29.70S                  
LANDER         FAIR      67  23  19 NE3       29.62S                  
6HR MIN TEMP:  63; 6HR MAX TEMP:  75;                                

RIVERTON       FAIR      66  24  20 W18       29.62R                  
6HR MIN TEMP:  63; 6HR MAX TEMP:  73;                                

CASPER         FAIR      65  18  16 SW22G31   29.60F                  
6HR MIN TEMP:  65; 6HR MAX TEMP:  73;                                

DOUGLAS        FAIR      68  16  13 W23G36    29.59S                  
6HR MIN TEMP:  68; 6HR MAX TEMP:  76;                                


$$
WYZ021-027>030-104>119-220100-
SOUTHERN WYOMING
  
CITY           SKY/WX    TMP DP  RH WIND       PRES   REMARKS
EVANSTON       FAIR      59  13  16 W22G32    29.89F                  
6HR MIN TEMP:  59; 6HR MAX TEMP:  65;                                

KEMMERER       FAIR      57  10  15 MISG      29.87S                  
ROCK SPRINGS   FAIR      60  15  17 W23G37    29.83S                  
6HR MIN TEMP:  60; 6HR MAX TEMP:  66;                                

DIXON          FAIR      53   0  11 SW13G20   29.87F                  
RAWLINS        FAIR      62  13  14 W24G40    29.79S                  
6HR MIN TEMP:  60; 6HR MAX TEMP:  66; 6HR PCP: TRACE;                

SARATOGA       FAIR      59  12  15 SW17G25   29.85R                  
LARAMIE        FAIR      58  11  15 W24G36    29.80F                  
6HR MIN TEMP:  58; 6HR MAX TEMP:  66;                                

CHEYENNE       FAIR      65  12  12 W22G30    29.74F                  
6HR MIN TEMP:  65; 6HR MAX TEMP:  73;                                

TORRINGTON     NOT AVBL                                               
PINE BLUFFS    FAIR      63  12  14 W6        29.69F                  

$$
  
