ASUS42 KKEY 212310
RWRKEY

FLORIDA KEYS REGIONAL WEATHER ROUNDUP
NATIONAL WEATHER SERVICE KEY WEST FLORIDA
700 PM EDT FRI OCT 21 2022

...FLORIDA KEYS...
  
CITY           SKY/WX    TMP DP  RH WIND       PRES   REMARKS
KEY WEST       PTCLDY    74  64  71 N10       29.96S                  
BOCA CHICA NAS PTCLDY    78  63  59 N14       29.96S                  
MARATHON       PTCLDY    76  64  66 NW12      29.94R                  

...SOUTH FLORIDA...
  
CITY           SKY/WX    TMP DP  RH WIND       PRES   REMARKS
HOMESTEAD      CLOUDY    74  70  89 E6        29.92R                  
WEST KENDALL   CLOUDY    77  65  66 N14       29.93R                  
MIAMI          MOCLDY    77  65  66 N8        29.93R                  
OPA LOCKA      MOCLDY    75  63  66 N9        29.94R                  
PEMBROKE PINES CLEAR     75  63  66 N14G23    29.95R                  
FT LAUDERDALE  MOCLDY    75  64  68 N7        29.93R                  
FT LAUD EXEC   MOCLDY    76  65  68 N9        29.94R                  
POMPANO BEACH  MOCLDY    75  64  68 N13       29.93S                  
BOCA RATON     PTCLDY    75  64  69 N17G23    29.94S                  
WEST PALM BCH  LGT RAIN  72  66  81 N10       29.95S                  

...SOUTHWEST FLORIDA...
  
CITY           SKY/WX    TMP DP  RH WIND       PRES   REMARKS
MARCO ISLAND   NOT AVBL                                               
NAPLES         CLEAR     75  59  57 N7        29.96S                  
FT MYERS-SW AP CLEAR     74  57  55 N6        29.97S                  
FORT MYERS     CLEAR     75  56  51 N8        29.97R                  

...ADJACENT COASTAL WATERS...
  
STATION/POSITION TIME  SKY/WX   TEMP    WIND        PRES    WAVE
                                AIR SEA DIR/SP/G            HT/PER
                 (UTC)          (F)     (DEG/KT/KT) (MB)    (FT/S)
PULASKI SHOAL LT NOT AVBL
SAND KEY         NOT AVBL
SOMBRERO KEY     2250            76     320/ 17/ 19 1012.9R
LONG KEY         2250            76     360/ 11/ 13 1013.3R
FOWEY ROCKS      2200            83 80   60/ 21/ 22 1013.1F
SATAN SHL BUOY   2230            75 82                N/A     2/ 3
PULLEY RDG BUOY  2226               81                N/A     4/ 5

...INTERNATIONAL WEATHER...
  
CITY           SKY/WX    TMP DP  RH WIND       PRES   REMARKS
HAVANA         PTCLDY    75  61  60 N9        29.97R                  
VARADERO       PTCLDY    73  63  68 N8        29.94S                  
CANCUN         PTCLDY    79  63  57 NE6       29.98S                  
KINGSTON       PTCLDY    84  75  74 SE12      29.86S HX  92           
BELIZE CITY    MOCLDY    81  72  74 N6        29.92S                  

$$
  
