ASUS42 KKEY 220210
RWRKEY

FLORIDA KEYS REGIONAL WEATHER ROUNDUP
NATIONAL WEATHER SERVICE KEY WEST FLORIDA
1000 PM EDT FRI OCT 21 2022

...FLORIDA KEYS...
  
CITY           SKY/WX    TMP DP  RH WIND       PRES   REMARKS
KEY WEST       MOCLDY    75  65  70 N9        30.01R                  
BOCA CHICA NAS PTCLDY    79  65  62 N13       30.00R                  
MARATHON       CLOUDY    76  64  66 N12G20    29.99R                  

...SOUTH FLORIDA...
  
CITY           SKY/WX    TMP DP  RH WIND       PRES   REMARKS
HOMESTEAD      MOCLDY    74  62  68 N14       29.97R                  
WEST KENDALL   MOCLDY    73  64  73 N9        29.99R                  
MIAMI          MOCLDY    74  63  68 N9        29.99R                  
OPA LOCKA      MOCLDY    72  61  68 N12       30.00R                  
PEMBROKE PINES MOCLDY    72  61  68 N8        30.01R                  
FT LAUDERDALE  CLOUDY    73  62  68 N10       29.99R                  
FT LAUD EXEC   MOCLDY    73  62  68 NW10      29.99R                  
POMPANO BEACH  CLOUDY    73  61  65 N10G21    29.99R                  
BOCA RATON     PTCLDY    72  61  68 N12G20    30.00R                  
WEST PALM BCH  MOCLDY    70  65  84 N10       30.01R                  

...SOUTHWEST FLORIDA...
  
CITY           SKY/WX    TMP DP  RH WIND       PRES   REMARKS
MARCO ISLAND   NOT AVBL                                               
NAPLES         CLOUDY    72  60  66 N8        30.03R                  
FT MYERS-SW AP PTCLDY    70  52  52 N7        30.04R                  
FORT MYERS     MOCLDY    71  54  54 NE8       30.04R                  

...ADJACENT COASTAL WATERS...
  
STATION/POSITION TIME  SKY/WX   TEMP    WIND        PRES    WAVE
                                AIR SEA DIR/SP/G            HT/PER
                 (UTC)          (F)     (DEG/KT/KT) (MB)    (FT/S)
PULASKI SHOAL LT NOT AVBL
SAND KEY         NOT AVBL
SOMBRERO KEY     0150            77     350/ 14/ 18 1014.4R
LONG KEY         0150            75      10/ 16/ 19 1014.7R
FOWEY ROCKS      NOT AVBL
SATAN SHL BUOY   0130            76 82                N/A     2/ 3
PULLEY RDG BUOY  0156               81                N/A     4/ 6

...INTERNATIONAL WEATHER...
  
CITY           SKY/WX    TMP DP  RH WIND       PRES   REMARKS
HAVANA         PTCLDY    64  61  88 VRB3      30.00S                  
VARADERO       PTCLDY    73  64  73 N6        30.00R                  
CANCUN         PTCLDY    70  70 100 CALM      30.02R                  
COZUMEL        PTCLDY    75  61  60 NE5       30.00R                  
KINGSTON       PTCLDY    82  73  74 N5        29.92R                  

$$
  
