NZUS99 KTBW 220211
RWRTBW
Regional Weather Roundup National Weather Service Ruskin Florida
1000 PM EDT FRI OCT 21 2022

  
CITY           SKY/WX    TMP DP  RH WIND       PRES   REMARKS
Cross City     CLEAR     47  41  79 CALM      30.11R                  
Williston      FAIR      50  42  74 CALM      30.11R                  
Gainesville    CLEAR     51  43  74 CALM      30.13R                  
Ocala          CLEAR     58  43  57 CALM      30.11R                  
Crystal River  FAIR      50  43  76 CALM      30.10R                  
Inverness      FAIR      57  45  62 NE5       30.10R                  
Leesburg       CLEAR     63  51  65 N9        30.09S                  
Orlando        CLEAR     63  49  60 N9        30.07S                  
Brooksville    CLEAR     55  50  83 N5        30.10R                  
Zephyrhills    CLEAR     56  43  61 N5        30.09S                  
Lakeland Intl  CLEAR     62  44  52 N8        30.08R                  
Winter Haven   CLEAR    N/A N/A N/A N7        30.08R                  
Bartow         FAIR      64  46  52 N6        30.08R                  

CITY           SKY/WX    TMP DP  RH WIND       PRES   REMARKS
Tampa Intl     CLEAR     62  48  60 N8        30.08R                  
Tampa Exec     CLEAR     59  52  77 CALM      30.09R                  
MacDill AFB    CLEAR     62  46  56 N5        30.03R                  
Plant City     CLEAR     64  45  48 NW3       30.09R                  
Clearwater     CLEAR     64  53  67 N10       30.07S                  
St Petersburg  CLEAR     65  54  67 N9        30.05R                  
Sarasota       CLEAR     65  49  56 N8        30.05R                  
Sebring        FAIR      64  55  74 N5        30.06S                  
Punta Gorda    CLEAR     64  53  67 N6        30.06R                  
Ft Myers       MOCLDY    71  54  54 NE8       30.04R                  
Ft Myers-RSW   PTCLDY    70  52  52 N7        30.04R                  
Naples         CLOUDY    72  60  66 N8        30.03R                  

STATION/POSITION SKY/WX   TEMP WIND        PRES    VSBY
                          AIR  DIR/SP/G
                          (F)  (DEG/KT/KT) (MB)    (MI)
Keaton Beach               59   20/  4/  5 1019.9R
039 Panama City            69   80/  4/  8 1020.2R
036 Bayport                70   40/ 12/ 17 1018.0R
Venice                     69   10/  8/ 12 1017.0R
Cedar Key                  62  360/  5/  6 1019.3R

CITY           SKY/WX    TMP DP  RH WIND       PRES   REMARKS
Tallahassee    CLEAR     50  38  63 CALM      30.12R                  
Daytona Beach  PTCLDY    62  51  67 NW7       30.08R                  
Melbourne      CLEAR     65  55  70 NW6       30.04R                  
W Palm Beach   MOCLDY    70  65  84 N10       30.01R                  
Miami          MOCLDY    74  63  68 N9        29.99R                  
Key West       MOCLDY    75  65  70 N9        30.01R                  
San Juan, PR   PTCLDY    82  73  74 SE3       29.96R                  
Cancun, MX     PTCLDY    70  70 100 CALM      30.02R                  

  
