NZUS99 KTBW 212311
RWRTBW
Regional Weather Roundup National Weather Service Ruskin Florida
700 PM EDT FRI OCT 21 2022

  
CITY           SKY/WX    TMP DP  RH WIND       PRES   REMARKS
Cross City     CLEAR     64  39  40 N3        30.06R                  
Williston      FAIR      62  41  47 CALM      30.06R                  
Gainesville    CLEAR     66  36  32 N3        30.08R                  
Ocala          CLEAR     67  37  33 N3        30.06R                  
Crystal River  FAIR      68  36  30 CALM      30.05R                  
Inverness      FAIR      63  45  51 CALM      30.05R                  
Leesburg       CLEAR     69  47  45 N6        30.04R                  
Orlando        PTCLDY    69  50  50 NE10      30.02R                  
Brooksville    CLEAR     67  45  45 MISG      30.05R                  
Zephyrhills    CLEAR     66  40  37 N6        30.05R                  
Lakeland Intl  CLEAR     68  42  39 N5        30.03R                  
Winter Haven   CLEAR    N/A N/A N/A N7        30.03R                  

CITY           SKY/WX    TMP DP  RH WIND       PRES   REMARKS
Tampa Intl     CLEAR     67  43  41 N9        30.03R                  
Tampa Exec     CLEAR     68  45  42 CALM      30.04R                  
MacDill AFB    CLEAR     67  47  48 N6        29.98S                  
Plant City     CLEAR     72  43  35 N5        30.05R                  
Clearwater     CLEAR     66  47  50 N8        30.03R                  
St Petersburg  CLEAR     70  48  45 N8        30.01R                  
Sarasota       CLEAR     70  43  37 N7        30.00R                  
Sebring        FAIR      70  51  52 N8        30.00S                  
Punta Gorda    CLEAR     71  54  54 N7        30.00S                  
Ft Myers       CLEAR     75  56  51 N8        29.97R                  
Ft Myers-RSW   CLEAR     74  57  55 N6        29.97S                  
Naples         CLEAR     75  59  57 N7        29.96S                  

STATION/POSITION SKY/WX   TEMP WIND        PRES    VSBY
                          AIR  DIR/SP/G
                          (F)  (DEG/KT/KT) (MB)    (MI)
Keaton Beach               67   10/  2/  3 1018.2R
039 Panama City            69   40/  6/ 10 1018.9S
036 Bayport                68   20/ 10/ 14 1016.8S
Venice                     72  330/ 15/ 16 1015.4F
Cedar Key                  66  330/  4/  7 1017.9S

CITY           SKY/WX    TMP DP  RH WIND       PRES   REMARKS
Tallahassee    CLEAR     69  37  30 N5        30.07S                  
Daytona Beach  CLEAR     68  49  50 N10       30.04R                  
Melbourne      CLEAR     69  55  60 N10       30.00S                  
W Palm Beach   LGT RAIN  72  66  81 N10       29.95S                  
Miami          MOCLDY    77  65  66 N8        29.93R                  
Key West       PTCLDY    74  64  71 N10       29.96S                  
San Juan, PR   PTCLDY    82  73  74 E9        29.90S                  
Cancun, MX     PTCLDY    79  63  57 NE6       29.98S                  

  
