NZUS99 KTBW 220011
RWRTPA
FLORIDA REGIONAL WEATHER ROUNDUP
NATIONAL WEATHER SERVICE TAMPA BAY RUSKIN FL
800 PM EDT FRI OCT 21 2022

NOTE: "FAIR" INDICATES FEW OR NO CLOUDS BELOW 12,000 FEET WITH NO
SIGNIFICANT WEATHER AND/OR OBSTRUCTIONS TO VISIBILITY.


  
STATION/POSITION



FLZ042-048>051-055-056-060-061-220100-
EXTRA STATIONS
  
CITY           SKY/WX    TMP DP  RH WIND       PRES   REMARKS
Everglades Cty NOT AVBL                                               
CRYSTAL RIVER  FAIR      59  37  44 CALM      30.06R                  
SEBRING        FAIR      67  52  58 N6        30.03R                  
EGLIN AFB      FAIR      59  43  56 SW5       30.08R                  
CANAVERAL      CLEAR     69  56  62 N7        30.00R                  

$$
FLZ001>010-012>015-220100-
PANHANDLE FLORIDA
  
CITY           SKY/WX    TMP DP  RH WIND       PRES   REMARKS
PENSACOLA      CLEAR     65  45  48 S3        30.08R                  
PENSACOLA NAS  CLEAR     58  46  64 CALM      30.08R                  
MILTON NAS     CLEAR     59  45  59 S3        30.09R                  
CRESTVIEW      CLEAR     60  46  59 MISG      30.10R                  
VALPARAISO     CLEAR     63  45  52 CALM      30.06R                  
MARY ESTHER    CLEAR     66  45  47 W3        30.08R                  
PANAMA CITY    FAIR      62  46  55 CALM      30.08R                  
TYNDALL AFB    CLEAR     60  48  63 CALM      30.07R                  
APALACHICOLA   CLEAR     56  47  71 CALM      30.09R                  

STATION/POSITION


29.2N   88.2W
28.8N   86.0W
28.5N   84.5W

$$
FLZ011-016>039-220100-
NORTH FLORIDA
  
CITY           SKY/WX    TMP DP  RH WIND       PRES   REMARKS
MARIANNA       CLEAR     59  42  53 CALM      30.08R                  
TALLAHASSEE    CLEAR     60  38  43 CALM      30.09R                  
CROSS CITY     CLEAR     55  39  56 CALM      30.08R                  
GAINESVILLE    CLEAR     56  42  59 CALM      30.10R                  
MAYPORT NAS    CLEAR    N/A N/A N/A NE10      30.08R                  
JACKSONVILLE   CLEAR     56  44  64 CALM      30.08R                  
JAX NAS        CLEAR     64  44  48 NE3       30.09R                  
JAX CRAIG      CLEAR     57  49  74 CALM      30.09R                  
ST AUGUSTINE   CLEAR     61  50  67 NW6       30.09R                  

STATION/POSITION


KEATON BEACH
31.4N   80.9W
ST AUGUSTINE

$$
FLZ040-043>046-052-053-057-058-063-220100-
CENTRAL FLORIDA
  
CITY           SKY/WX    TMP DP  RH WIND       PRES   REMARKS
OCALA          CLEAR     62  38  40 N3        30.08R                  
LEESBURG       CLEAR     64  48  56 NE8       30.06R                  
SANFORD        CLEAR     65  48  54 N8        30.05R                  
ORLANDO EXEC   CLEAR     68  48  48 NE9       30.04R                  
ORLANDO INTL   PTCLDY    67  49  52 N12       30.04R                  
KISSIMMEE      CLEAR     69  50  50 NE5       30.05R                  
WINTER HAVEN   CLEAR    N/A N/A N/A N7        30.05R                  
LAKELAND INTL  CLEAR     65  43  45 N6        30.04R                  
BARTOW         FAIR      68  45  42 NW5       30.04                   

$$
FLZ041-047-054-059-064-220100-
EAST CENTRAL FLORIDA
  
CITY           SKY/WX    TMP DP  RH WIND       PRES   REMARKS
DAYTONA BEACH  CLEAR     65  50  58 NW6       30.06R                  
JFK SPACE CTR  PTCLDY    65  55  70 N6        30.01R                  
TITUSVILLE     PTCLDY    70  54  56 N8        30.04R                  
PATRICK AFB    CLEAR     69  69  99 N10       30.00R                  
MELBOURNE      CLEAR     68  55  63 N12       30.02R                  
VERO BEACH     CLOUDY    71  61  70 N8        30.01R                  
FT PIERCE      CLOUDY    71  58  63 N7        29.99R                  
STUART         PTCLDY    72  61  68 N7        29.99R                  

STATION/POSITION


28.9N   78.5W

$$
FLZ042-048>051-055-056-060-061-220100-
WEST CENTRAL FLORIDA
  
CITY           SKY/WX    TMP DP  RH WIND       PRES   REMARKS
BROOKSVILLE    CLEAR     63  48  58 W10       30.06R                  
TAMPA          CLEAR     65  43  44 N10       30.05R                  
MACDILL AFB    CLEAR     65  44  44 N7        30.01R                  
ST PETERSBURG  CLEAR     66  49  54 N10       30.05R                  
ST PET-WHITTED CLEAR     67  51  56 N9        30.03R                  
SARASOTA       CLEAR     68  46  45 N5        30.01R                  

STATION/POSITION


CEDAR KEY
28.5N   84.5W
VENICE

$$
FLZ062-065-066-069-070-075>078-220100-
SOUTHWEST FLORIDA AND KEYS
  
CITY           SKY/WX    TMP DP  RH WIND       PRES   REMARKS
PUNTA GORDA    CLEAR     67  56  67 N7        30.02R                  
FT MYERS       CLEAR     73  55  53 N9        29.99R                  
SOUTHWEST INTL CLEAR     73  57  57 N6        29.99R                  
NAPLES         MOCLDY    73  60  63 N3        29.98R                  
MARATHON       PTCLDY    76  64  66 N9G18     29.95R                  
KEY WEST NAS   PTCLDY    78  63  59 N13       29.97R                  
KEY WEST INTL  MOCLDY    74  64  71 N12       29.98R                  

STATION/POSITION


VENICE
SOMBRERO KEY
LONG KEY

$$
FLZ067-068-071>074-220100-
SOUTHEAST FLORIDA 
  
CITY           SKY/WX    TMP DP  RH WIND       PRES   REMARKS
W PALM BEACH   MOCLDY    72  64  76 N12       29.97R                  
POMPANO BEACH  CLOUDY    75  64  68 N12       29.95R                  
FT LAUDER-EXEC CLOUDY    75  65  70 NW8       29.95R                  
FT LAUDERDALE  MOCLDY    75  64  68 N9        29.95R                  
PEMBROKE PINES CLOUDY    74  63  68 N13       29.97R                  
OPA LOCKA      PTCLDY    74  63  68 N10       29.96R                  
MIAMI          MOCLDY    76  64  66 N8        29.95R                  
WEST KENDALL   CLEAR     75  65  70 N10       29.95R                  
HOMESTEAD      CLOUDY    76  64  67 N13       29.93R                  

STATION/POSITION


LAKE WORTH
FOWEY ROCKS
SETTLEMENT POINT

$$
  
