ASUS41 KBTV 212330
RWRBTV
VERMONT REGIONAL WEATHER ROUNDUP
NATIONAL WEATHER SERVICE BURLINGTON VT
700 PM EDT FRI OCT 21 2022

NOTE: "FAIR" INDICATES FEW OR NO CLOUDS BELOW 12,000 FEET WITH NO 
SIGNIFICANT WEATHER AND/OR OBSTRUCTIONS TO VISIBILITY.

* THESE REPORTS ARE NOT UNDER NWS QUALITY CONTROL AND/OR DO NOT
  REPORT WEATHER SUCH AS PRECIPITATION AND FOG.

VTZ001>019-220000-
_____VERMONT_____

  
CITY           SKY/WX    TMP DP  RH WIND       PRES   REMARKS
BURLINGTON     CLEAR     54  27  35 S12       30.03R                  
MONTPELIER     CLEAR     50  25  37 S7        30.10R                  
MORRISVILLE    CLEAR     43  34  70 CALM      30.05R                  
ST. JOHNSBURY*   N/A     46  31  55 MISG      30.06R                  
LYNDONVILLE*     N/A     48  27  43 SE3       30.08S                  
MIDDLEBURY*    FAIR      49  30  47 S5        30.06S                  
RUTLAND*       CLEAR     48  29  47 E10       30.08R                  
SPRINGFIELD    PTCLDY    46  36  68 CALM      30.10R                  
HIGHGATE*      FAIR      56  26  31 S10G16    30.02R                  
NEWPORT*       FAIR      47  30  51 SE9       30.05S                  
BENNINGTON     CLEAR     48  24  39 CALM      30.09R                  
ISLAND POND*     N/A     37 N/A N/A CALM        N/A                   
GALLUP MILLS*    N/A     36 N/A N/A MISG        N/A                   
MT. MANSFIELD*   N/A     39 N/A N/A CALM        N/A                   

_____LAKE CHAMPLAIN_____

  
CITY           SKY/WX    TMP DP  RH WIND       PRES   REMARKS
BURTON ISLAND*   N/A     57  34  41 N21         N/A                   
COLCHESTER RF*   N/A     57  36  44 S26         N/A                   
DIAMOND ISL*     N/A     55  32  41 S14         N/A                   

$$

NYZ007-026>031-035-052-083-087-220000-
_____NORTHERN NEW YORK_____

  
CITY           SKY/WX    TMP DP  RH WIND       PRES   REMARKS
PLATTSBURGH    CLEAR     53  31  42 S14       30.01R                  
SARANAC LAKE   PTCLDY    40  30  67 CALM      30.00R                  
MASSENA        CLEAR     51  28  41 S6        29.96R                  
OGDENSBURG*    FAIR      54  30  40 S6        29.93R                  
POTSDAM*       CLOUDY    54  28  37 S9        29.96F                  
WATERTOWN      CLEAR     56  29  35 S9        29.95S                  
FT DRUM        CLEAR     53  28  38 S10       29.95R                  
ALBANY         CLEAR     54  30  40 SE7       30.08R                  
GLENS FALLS    CLEAR     42  33  70 CALM      30.07R                  

$$
NHZ002-005-011-220000-
_____NEW HAMPSHIRE_____

  
CITY           SKY/WX    TMP DP  RH WIND       PRES   REMARKS
LEBANON        CLEAR     41  34  76 CALM      30.08R                  
KEENE          CLEAR     46  36  68 CALM      30.12R                  
MT WASHINGTON  PTCLDY    34  -2  21 SW31G38     N/A  WCI  20          
PLYMOUTH       FAIR      40  34  80 CALM      30.12R                  
WHITEFIELD     CLEAR     39  32  76 CALM      30.08R                  

$$

_____REGIONAL QUEBEC LOCATIONS_____

  
CITY           SKY/WX    TMP DP  RH WIND       PRES   REMARKS
MONTREAL       CLOUDY    54  34  47 SE17G23   29.96S                  
QUEBEC CITY    PTCLDY    41  36  81 CALM      30.00S                  
SHERBROOKE     PTCLDY    48  30  49 S8        30.02S                  

_____REGIONAL ONTARIO LOCATIONS_____

  
CITY           SKY/WX    TMP DP  RH WIND       PRES   REMARKS
OTTAWA         PTCLDY    52  30  43 S9        29.91S                  

______KEY______
VSB  - VISIBILITY IN MILES
WCI  - WIND CHILL INDEX
HX   - HEAT INDEX
$$
NNNN
  
