ASUS42 KKEY 232110
RWRKEY

FLORIDA KEYS REGIONAL WEATHER ROUNDUP
NATIONAL WEATHER SERVICE KEY WEST FLORIDA
500 PM EDT SUN OCT 23 2022

...FLORIDA KEYS...
  
CITY           SKY/WX    TMP DP  RH WIND       PRES   REMARKS
KEY WEST       SUNNY     82  67  60 NE9       30.00S                  
BOCA CHICA NAS MOSUNNY   87  64  46 E10       30.00S                  
MARATHON       SUNNY     83  68  60 NE12      29.99S                  

...SOUTH FLORIDA...
  
CITY           SKY/WX    TMP DP  RH WIND       PRES   REMARKS
HOMESTEAD      SUNNY     82  65  55 E14       29.99S                  
WEST KENDALL   MOSUNNY   83  64  52 E15       30.00S                  
MIAMI          MOSUNNY   84  64  50 NE12G22   30.02R                  
OPA LOCKA      MOSUNNY   81  63  54 E14G20    30.02R                  
PEMBROKE PINES MOSUNNY   82  65  56 NE15G22   30.03R                  
FT LAUDERDALE  MOSUNNY   83  65  54 NE12      30.01R                  
FT LAUD EXEC   MOSUNNY   83  65  54 NE12G20   30.02R                  
POMPANO BEACH  MOSUNNY   83  63  50 NE15      30.02S                  
BOCA RATON     MOSUNNY   82  64  54 NE17G26   30.03R                  
WEST PALM BCH  MOSUNNY   82  66  58 NE13      30.04R                  

...SOUTHWEST FLORIDA...
  
CITY           SKY/WX    TMP DP  RH WIND       PRES   REMARKS
MARCO ISLAND   CLEAR     85  62  46 NE9       30.02S                  
NAPLES         SUNNY     85  66  53 NE10      30.01S                  
FT MYERS-SW AP MOSUNNY   85  61  44 E13G20    30.02S                  
FORT MYERS     SUNNY     86  60  41 E8        30.01F                  

...ADJACENT COASTAL WATERS...
  
STATION/POSITION TIME  SKY/WX   TEMP    WIND        PRES    WAVE
                                AIR SEA DIR/SP/G            HT/PER
                 (UTC)          (F)     (DEG/KT/KT) (MB)    (FT/S)
PULASKI SHOAL LT NOT AVBL
SAND KEY         NOT AVBL
SOMBRERO KEY     2050            80      50/ 12/ 14 1014.7F
LONG KEY         2050            79      70/ 12/ 14 1015.1F
FOWEY ROCKS      2000            81 80   50/ 13/ 15 1016.5F
SATAN SHL BUOY   2030            80 82                N/A     2/ 5
PULLEY RDG BUOY  2056               81                N/A     3/ 5

...INTERNATIONAL WEATHER...
  
CITY           SKY/WX    TMP DP  RH WIND       PRES   REMARKS
NASSAU         MOSUNNY   82  64  54 NE12      30.00S                  
HAVANA         MOSUNNY   84  70  61 NE18      29.94S                  
VARADERO       MOSUNNY   82  70  65 NE16      29.97S                  
CANCUN         MOSUNNY   82  70  65 E8        29.92F                  
COZUMEL        MOSUNNY   84  72  65 NE6       29.91S                  
BELIZE CITY    MOSUNNY   84  73  70 E7        29.88F HX  91           

$$
  
