ASUS42 KTBW 231711
RWRFL 
FLORIDA REGIONAL WEATHER ROUNDUP
NATIONAL WEATHER SERVICE TAMPA BAY RUSKIN FL
100 PM EDT SUN OCT 23 2022

NOTE: "FAIR" INDICATES FEW OR NO CLOUDS BELOW 12,000 FEET WITH NO
SIGNIFICANT WEATHER AND/OR OBSTRUCTIONS TO VISIBILITY.

FLZ001>010-012>015-112-114-115-231800-
PANHANDLE FLORIDA
  
CITY           SKY/WX    TMP DP  RH WIND       PRES   REMARKS
PENSACOLA      SUNNY     76  46  34 MISG      30.17F                  
PENSACOLA NAS  SUNNY     77  55  46 E9        30.16F                  
MILTON NAS     SUNNY     75  32  20 SE3       30.18F                  
CRESTVIEW      SUNNY     78  42  27 MISG      30.19F                  
VALPARAISO     SUNNY     74  41  29 E9        30.15F                  
MARY ESTHER    SUNNY     74  46  37 E5        30.16F                  
PANAMA CITY    FAIR      78  44  29 VRB5      30.16F                  
TYNDALL AFB    SUNNY     76  43  30 CALM      30.15F                  
APALACHICOLA   SUNNY     76  55  48 E7        30.15F                  

STATION/POSITION SKY/WX   TEMP    WIND        PRES    WAVE   SWELL
                          AIR SEA DIR/SP/G            HT/PER HT/PER
                          (F)     (DEG/KT/KT) (MB)    (FT/S) (FT/S)
30.1N   87.6W              73 76  110/  8/ 10 1021.1F   2/ 4   2/ 5
29.2N   88.2W              75 78   80/ 10/ 14 1020.8F   2/ 3
28.8N   86.0W              75      90/ 10/ 14 1021.0S   2/ 5
PANAMA CITY BEAC              72  130/  3/  5 1022.2
TOWER C                    69                 1021.3F
28.5N   84.5W              73 79   80/ 10/ 12 1019.2F   2/ 4

$$
FLZ011-016>038-118-127-128-134-139-239-231800-
NORTH FLORIDA
  
CITY           SKY/WX    TMP DP  RH WIND       PRES   REMARKS
MARIANNA       SUNNY     75  41  29 E6        30.17F                  
TALLAHASSEE    MOSUNNY   75  43  31 VRB6      30.17F                  
LIVE OAK         N/A     75  50  41 NW5       30.15F                  
CROSS CITY     SUNNY     78  54  43 NW5       30.15F                  
LAKE CITY      FAIR      73  54  49 NE7       30.15F                  
GAINESVILLE    SUNNY     78  53  41 VRB5      30.16F                  
WILLISTON      FAIR      78  57  48 NW5       30.14F                  
PALATKA        FAIR      75  55  50 VRB6      30.14                   
MAYPORT NAS    SUNNY    N/A N/A N/A N12       30.15F                  
JACKSONVILLE   MOSUNNY   79  62  56 N7        30.14F                  
JAX NAS        MOSUNNY   77  62  59 N6        30.15F                  
JAX CECIL      SUNNY     84  59  42 VRB3      30.15F                  
FERNANDINA BEA FAIR      75  66  73 NE13      30.16S                  
ST AUGUSTINE   SUNNY     75  68  78 N13       30.15F                  
PALM COAST     SUNNY     79  63  57 NE8       30.13F                  

STATION/POSITION SKY/WX   TEMP    WIND        PRES    WAVE   SWELL
                          AIR SEA DIR/SP/G            HT/PER HT/PER
                          (F)     (DEG/KT/KT) (MB)    (FT/S) (FT/S)
SHELL POINT      NOT AVBL
KEATON BEACH               70     260/  5/  6 1021.2F
CEDAR KEY                  68     120/  4/  4 1021.5F
FERNANDINA                    69  340/  6/  9 1021.7
30.7N   81.3W              71 72                N/A     4/11   2/11
MAYPORT                       71   30/ 10/ 12 1021.7
31.4N   80.9W              70 72   40/ 16/ 17 1021.0S   4/10   3/10
ST AUGUSTINE               70 73  360/ 12/ 13 1021.0F

$$
FLZ040-043>046-052-053-057-058-063-144-231800-
INTERIOR CENTRAL FLORIDA
  
CITY           SKY/WX    TMP DP  RH WIND       PRES   REMARKS
OCALA          SUNNY     79  57  46 VRB5      30.15F                  
LEESBURG       SUNNY     81  58  45 VRB6      30.14F                  
SANFORD        SUNNY     80  60  50 N8        30.12F                  
ORLANDO EXEC   SUNNY     81  59  47 N12       30.12F                  
ORLANDO INTL   MOSUNNY   82  58  43 NW10      30.12F                  
KISSIMMEE      MOSUNNY   81  58  45 NW8       30.13F                  
WINTER HAVEN   SUNNY    N/A N/A N/A N8        30.13F                  
LAKELAND INTL  MOSUNNY   79  61  53 N8        30.13F                  
BARTOW         MOSUNNY   81  61  50 N8        30.13F                  
SEBRING        PTSUNNY   80  65  59 N6        30.11F                  
OKEECHOBEE     MOSUNNY   82  66  57 NE10      30.09F                  

$$
FLZ041-047-054-059-064-141-147-231800-
EAST CENTRAL FLORIDA
  
CITY           SKY/WX    TMP DP  RH WIND       PRES   REMARKS
ORMOND BEACH   SUNNY     77  64  65 N5        30.15S                  
DAYTONA BEACH  MOSUNNY   80  61  52 N13       30.13F                  
DELAND         SUNNY     79  58  49 N8        30.14F                  
NEW SMYRNA BEA SUNNY     77  64  65 N12G17    30.13F                  
JFK SPACE CTR  SUNNY     78  60  53 N13G21    30.10F                  
TITUSVILLE     MOSUNNY   82  66  57 NE15      30.13S                  
CAPE CANAVERAL SUNNY     80  65  60 N13G21    30.09F                  
PATRICK AFB    SUNNY     80  80  99 N9        30.09F                  
MELBOURNE      SUNNY     80  62  54 N12       30.12S                  
VERO BEACH     MOSUNNY   83  67  58 N13       30.11F                  
FT PIERCE      SUNNY     82  66  58 VRB6G17   30.09F                  
STUART         MOSUNNY   81  66  61 N12G20    30.10F                  

STATION/POSITION SKY/WX   TEMP    WIND        PRES    WAVE   SWELL
                          AIR SEA DIR/SP/G            HT/PER HT/PER
                          (F)     (DEG/KT/KT) (MB)    (FT/S) (FT/S)
28.5N   80.2W              77 82  330/ 17/ 21 1018.0F   5/ 8   3/ 8
28.9N   78.5W              77 82   20/  8/ 12 1019.1F
TRIDENT PIER                       10/  9/ 17   N/A
28.4N   80.5W                 75                N/A     2/ 8
27.6N   80.2W                 78                N/A     4/ 8   2/15

$$
FLZ050-056-061-142-242-148-248-149-249-151-251-155-255-
160-260-231800-
WEST CENTRAL FLORIDA
  
CITY           SKY/WX    TMP DP  RH WIND       PRES   REMARKS
CRYSTAL RIVER  FAIR      81  57  44 CALM      30.14S                  
INVERNESS      FAIR      79  61  53 N6        30.14F HAZE             
BROOKSVILLE    SUNNY     81  61  50 VRB6      30.14F                  
CLEARWATER AIR FAIR      79  57  47 NE6       30.12F                  
ST PETE CLEARW SUNNY     79  65  62 E6        30.11F                  
TAMPA INTL     MOSUNNY   82  60  47 NE5       30.12F                  
TAMPA EXEC     SUNNY     82  64  54 N5        30.12F                  
PLANT CITY     SUNNY     84  64  51 E3        30.14F                  
MACDILL AFB    SUNNY     81  62  52 NE10      30.07F                  
ST PETERSBURG  SUNNY     77  70  79 NE7       30.10F                  
SARASOTA       SUNNY     83  63  50 NE6G18    30.08F                  
VENICE         NOT AVBL                                               

STATION/POSITION SKY/WX   TEMP    WIND        PRES    WAVE   SWELL
                          AIR SEA DIR/SP/G            HT/PER HT/PER
                          (F)     (DEG/KT/KT) (MB)    (FT/S) (FT/S)
27.3N   84.3W                 78                N/A     3/ 5
CLEARWATER BEACH              71  360/  8/ 10 1020.3
MIDDLE TAMPA BAY                   40/ 10/ 12   N/A
VENICE                     78 74   50/  7/ 10 1019.1F

$$
FLZ066-069-070-075>078-162-262-165-265-231800-
SOUTHWEST FLORIDA AND KEYS
  
CITY           SKY/WX    TMP DP  RH WIND       PRES   REMARKS
PUNTA GORDA    MOSUNNY   81  63  54 NE8       30.11F                  
FT MYERS       SUNNY     84  64  50 E9        30.07F                  
SOUTHWEST INTL SUNNY     83  63  50 NE13G24   30.08F                  
NAPLES         SUNNY     82  66  58 E9        30.07F                  
MARCO ISLAND   MOSUNNY   85  63  47 VRB7      30.08F                  
MARATHON       SUNNY     82  69  64 NE12      30.05F                  
KEY WEST NAS   MOSUNNY   86  68  54 NE13      30.06F                  
KEY WEST INTL  SUNNY     81  68  64 NE13      30.06F                  

STATION/POSITION SKY/WX   TEMP    WIND        PRES    WAVE   SWELL
                          AIR SEA DIR/SP/G            HT/PER HT/PER
                          (F)     (DEG/KT/KT) (MB)    (FT/S) (FT/S)
NAPLES           NOT AVBL
DRY TORTUGAS     NOT AVBL
SOMBRERO KEY               77      50/ 12/ 15 1017.7R
LONG KEY                   77      40/  8/ 10 1017.1F

$$
FLZ067-068-071>074-168-172>174-231800-
SOUTHEAST FLORIDA 
  
CITY           SKY/WX    TMP DP  RH WIND       PRES   REMARKS
W PALM BEACH   PTSUNNY   83  65  54 N16       30.09S                  
BOCA RATON     MOSUNNY   84  64  51 NE12G20   30.07F                  
FT LAUDER-EXEC MOSUNNY   85  67  54 NE9       30.06F                  
FT LAUDERDALE  MOSUNNY   83  66  56 E10G20    30.06F                  
POMPANO BEACH  MOSUNNY   84  66  54 N12       30.06F                  
PEMBROKE PINES PTSUNNY   82  64  54 E12       30.07F                  
OPA LOCKA      PTSUNNY   84  64  50 E13       30.07F                  
MIAMI          MOSUNNY   86  65  49 E9G16     30.06F                  
WEST KENDALL   MOSUNNY   84  64  50 E7G18     30.06F                  
HOMESTEAD      SUNNY     83  64  51 NE15      30.04F                  

STATION/POSITION SKY/WX   TEMP    WIND        PRES    WAVE   SWELL
                          AIR SEA DIR/SP/G            HT/PER HT/PER
                          (F)     (DEG/KT/KT) (MB)    (FT/S) (FT/S)
VIRGINIA KEY                  79   20/  8/ 13 1018.9
LAKE WORTH                    78   20/ 16/ 18 1018.1
FOWEY ROCKS                77 80   30/ 11/ 12 1018.5F
SETTLEMENT POINT           78      40/  7/  8 1018.5F

$$

  
