ASUS42 KMLB 232010
RWRMLB
HOURLY WEATHER ROUNDUP AROUND FLORIDA
NATIONAL WEATHER SERVICE OFFICE MELBOURNE FL
400 PM EDT SUN OCT 23 2022
  
CITY           SKY/WX    TMP DP  RH WIND       PRES   REMARKS
MELBOURNE      SUNNY     81  56  42 N16       30.06F                  
FORT PIERCE    SUNNY     81  64  56 NE12G18   30.04F                  
ORLANDO INTL   MOSUNNY   84  56  38 VRB6      30.06S                  
DAYTONA BEACH  MOSUNNY   81  55  40 N15       30.09S                  
VERO BEACH     SUNNY     81  65  58 N14       30.05F                  
$$
...ELSEWHERE ACROSS CENTRAL FLORIDA...
  
CITY           SKY/WX    TMP DP  RH WIND       PRES   REMARKS
PATRICK AFB    SUNNY     81  81  99 N12       30.04S                  
KSC            SUNNY     79  61  54 N13G20    30.05F                  
CAPE CANAVERAL SUNNY     80  63  56 N14       30.04F                  
TITUSVILLE     MOSUNNY   84  55  37 N12       30.07F                  
SEBASTIAN      FAIR      79  63  57 N14       30.06S                  
ORLANDO EXEC   SUNNY     84  57  39 NE7       30.06F                  
LEESBURG       SUNNY     83  58  42 W6        30.07F                  
SANFORD        SUNNY     83  58  42 N9        30.06F                  
DELAND         MOSUNNY   81  62  51 NE14      30.08S                  
NEW SMYRNA BCH SUNNY     77  61  57 N14       30.08F                  
ORMOND BEACH   SUNNY     77  63  61 N10       30.09S                  
WINTER HAVEN     N/A    N/A N/A N/A NE5       30.07F                  
KISSIMMEE      SUNNY     83  56  39 NE5       30.07F                  
OKEECHOBEE     SUNNY     84  64  51 N14       30.03S                  
TAMPA          PTSUNNY   86  58  38 N6        30.05F                  
$$
...NORTHERN FLORIDA...
  
CITY           SKY/WX    TMP DP  RH WIND       PRES   REMARKS
PALM COAST     SUNNY     79  57  47 N10       30.09F                  
ST AUGUSTINE   SUNNY     76  67  73 N15       30.11F                  
OCALA          SUNNY     83  56  39 VRB7      30.08F                  
GAINESVILLE    SUNNY     81  49  32 N3        30.11F                  
JACKSONVILLE   MOSUNNY   78  62  57 NE14G21   30.10F                  
TALLAHASSEE    MOSUNNY   80  44  27 VRB7      30.10F                  
$$
...ALONG THE SOUTHEAST COAST TO THE KEYS...
  
CITY           SKY/WX    TMP DP  RH WIND       PRES   REMARKS
STUART         SUNNY     81  64  57 N14G20    30.06F                  
WEST PALM BCH  MOSUNNY   84  65  52 N16       30.03F                  
MIAMI          MOSUNNY   83  64  52 NE12G18   30.01F                  
KEY WEST       SUNNY     83  69  62 NE7G16    30.00F                  
$$
...MARINE REPORTS...
  
STATION/POSITION TIME  TEMP    WIND        PRES    WAVE   SWELL
                       AIR SEA DIR/SP/G            HT/PER HT/PER
                 (UTC) (F)     (DEG/KT/KT) (MB)    (FT/S) (FT/S)
ST AUGUSTINE FP  2000   73 73   10/ 15/ 16 1019.6S
20NM E CAPE CANA 1950   77 82  340/ 17/ 21 1016.3F   6/ 8   3/ 8
120 E NEW SMYRNA 1950   78 82   20/  8/ 12 1017.8S
TRIDENT PIER     1930           20/ 10/ 15   N/A
4NM E PORT CANAV 1956      76                N/A     3/10   2/11
6NM NE FPR INLET 1956      78                N/A     5/15   2/15
SETTLEMENT PT GB 2000   79      20/ 11/ 13 1017.0F
$$
  
