ASUS42 KMLB 232110
RWRMLB
HOURLY WEATHER ROUNDUP AROUND FLORIDA
NATIONAL WEATHER SERVICE OFFICE MELBOURNE FL
500 PM EDT SUN OCT 23 2022
  
CITY           SKY/WX    TMP DP  RH WIND       PRES   REMARKS
MELBOURNE      SUNNY     80  52  37 N16       30.07R                  
FORT PIERCE    SUNNY     81  63  54 N9        30.05R                  
ORLANDO INTL   MOSUNNY   84  55  36 NE10      30.06S                  
DAYTONA BEACH  MOSUNNY   79  64  60 NE16      30.09S                  
VERO BEACH     SUNNY     81  60  48 N15       30.06R                  
$$
...ELSEWHERE ACROSS CENTRAL FLORIDA...
  
CITY           SKY/WX    TMP DP  RH WIND       PRES   REMARKS
PATRICK AFB    SUNNY     79  78  99 N10       30.04S                  
KSC            SUNNY     77  62  59 N14       30.06R                  
CAPE CANAVERAL SUNNY     78  67  69 N15       30.04S                  
SEBASTIAN      FAIR      79  60  51 N16G22    30.06S                  
ORLANDO EXEC   SUNNY     83  57  41 NE7       30.06S                  
LEESBURG       SUNNY     82  59  45 SE5       30.07S                  
SANFORD        SUNNY     80  60  50 E12       30.07R                  
DELAND         MOSUNNY   79  61  53 NE10G16   30.09R                  
NEW SMYRNA BCH SUNNY     77  66  69 N16       30.08S                  
ORMOND BEACH   SUNNY     77  68  73 NE12G18   30.09S                  
WINTER HAVEN   SUNNY    N/A N/A N/A NE9       30.07S                  
KISSIMMEE      SUNNY     83  57  41 NE7       30.07S                  
OKEECHOBEE     SUNNY     82  63  51 N10       30.03S                  
TAMPA          PTSUNNY   85  58  39 CALM      30.05S                  
$$
...NORTHERN FLORIDA...
  
CITY           SKY/WX    TMP DP  RH WIND       PRES   REMARKS
PALM COAST     SUNNY     75  63  64 NE10      30.10R                  
ST AUGUSTINE   SUNNY     75  65  70 N14       30.12R                  
OCALA          SUNNY     82  55  39 NE5       30.08S                  
GAINESVILLE    SUNNY     82  50  32 N3        30.11S                  
JACKSONVILLE   MOSUNNY   76  60  57 NE14      30.11R                  
TALLAHASSEE    SUNNY     80  44  27 VRB3      30.09F                  
$$
...ALONG THE SOUTHEAST COAST TO THE KEYS...
  
CITY           SKY/WX    TMP DP  RH WIND       PRES   REMARKS
WEST PALM BCH  MOSUNNY   82  66  58 NE13      30.04R                  
MIAMI          MOSUNNY   84  64  50 NE12G22   30.02R                  
KEY WEST       SUNNY     82  67  60 NE9       30.00S                  
$$
...MARINE REPORTS...
  
STATION/POSITION TIME  TEMP    WIND        PRES    WAVE   SWELL
                       AIR SEA DIR/SP/G            HT/PER HT/PER
                 (UTC) (F)     (DEG/KT/KT) (MB)    (FT/S) (FT/S)
ST AUGUSTINE FP  2100   73 73   10/ 14/ 15 1019.7R
20NM E CAPE CANA 2050   77 82  360/ 16/ 19 1016.6R   6/10   5/10
120 E NEW SMYRNA 2050   78 82   20/  8/ 12 1017.8S
TRIDENT PIER     2030           20/ 11/ 17   N/A
4NM E PORT CANAV 2056      76                N/A     3/ 9   2/14
6NM NE FPR INLET 2056      78                N/A     5/ 8   2/14
SETTLEMENT PT GB 2100   78      40/ 10/ 11 1017.1R
$$
  
