ASUS42 KMLB 231910
RWRMLB
HOURLY WEATHER ROUNDUP AROUND FLORIDA
NATIONAL WEATHER SERVICE OFFICE MELBOURNE FL
300 PM EDT SUN OCT 23 2022
  
CITY           SKY/WX    TMP DP  RH WIND       PRES   REMARKS
MELBOURNE      MOSUNNY   81  63  54 N15       30.07F                  
FORT PIERCE    SUNNY     81  62  52 N10G20    30.05F                  
ORLANDO INTL   MOSUNNY   84  57  39 NW10      30.06F                  
DAYTONA BEACH  MOSUNNY   81  60  48 NE13      30.09F                  
VERO BEACH     MOSUNNY   82  64  54 N14       30.07F                  
$$
...ELSEWHERE ACROSS CENTRAL FLORIDA...
  
CITY           SKY/WX    TMP DP  RH WIND       PRES   REMARKS
PATRICK AFB    SUNNY     81  80  99 N10       30.04F                  
KSC            SUNNY     79  56  44 N13G21    30.06F                  
CAPE CANAVERAL SUNNY     81  59  47 N15       30.05F                  
TITUSVILLE     MOSUNNY   84  57  39 N17G23    30.08F                  
SEBASTIAN      FAIR      79  66  63 N15       30.07F                  
ORLANDO EXEC   SUNNY     83  57  41 N9G16     30.07F                  
LEESBURG       SUNNY     81  58  45 SE7       30.09F                  
SANFORD        SUNNY     83  58  42 N6        30.07F                  
DELAND         SUNNY     81  58  45 N6        30.09F                  
NEW SMYRNA BCH SUNNY     79  61  53 N14       30.09F                  
ORMOND BEACH   SUNNY     77  63  61 N9        30.09F                  
WINTER HAVEN     N/A    N/A N/A N/A MISG      30.08F                  
KISSIMMEE      SUNNY     82  58  43 N8        30.08F                  
OKEECHOBEE     MOSUNNY   82  63  51 NE8       30.04F                  
TAMPA          MOSUNNY   83  58  42 NE5       30.06F                  
$$
...NORTHERN FLORIDA...
  
CITY           SKY/WX    TMP DP  RH WIND       PRES   REMARKS
PALM COAST     SUNNY     79  59  50 NE9       30.10F                  
ST AUGUSTINE   MOSUNNY   76  68  76 N15       30.12F                  
OCALA          SUNNY     82  55  39 N7        30.10F                  
GAINESVILLE    SUNNY     82  48  30 N5        30.12F                  
JACKSONVILLE   MOSUNNY   76  61  59 NE10      30.11F                  
TALLAHASSEE    MOSUNNY   78  44  29 CALM      30.12F                  
$$
...ALONG THE SOUTHEAST COAST TO THE KEYS...
  
CITY           SKY/WX    TMP DP  RH WIND       PRES   REMARKS
STUART         SUNNY     81  64  57 N13G22    30.07F                  
WEST PALM BCH  MOSUNNY   84  64  50 N14       30.04F                  
MIAMI          MOSUNNY   85  65  51 E13       30.02F                  
KEY WEST       SUNNY     82  68  62 NE12      30.01F                  
$$
...MARINE REPORTS...
  
STATION/POSITION TIME  TEMP    WIND        PRES    WAVE   SWELL
                       AIR SEA DIR/SP/G            HT/PER HT/PER
                 (UTC) (F)     (DEG/KT/KT) (MB)    (FT/S) (FT/S)
ST AUGUSTINE FP  1900   72 73  360/ 14/ 15 1019.6F
20NM E CAPE CANA 1850   77 82  330/ 17/ 21 1016.7F   5/ 8   3/ 8
120 E NEW SMYRNA 1850   77 82   20/  8/ 12 1017.8F
TRIDENT PIER     1824           10/ 13/ 16   N/A
4NM E PORT CANAV 1826      75                N/A     3/ 8
6NM NE FPR INLET 1826      78                N/A     4/ 7   2/15
SETTLEMENT PT GB 1900   79      20/ 10/ 11 1017.2F
$$
  
