ASUS42 KTBW 231911
RWRFL 
FLORIDA REGIONAL WEATHER ROUNDUP
NATIONAL WEATHER SERVICE TAMPA BAY RUSKIN FL
300 PM EDT SUN OCT 23 2022

NOTE: "FAIR" INDICATES FEW OR NO CLOUDS BELOW 12,000 FEET WITH NO
SIGNIFICANT WEATHER AND/OR OBSTRUCTIONS TO VISIBILITY.

FLZ001>010-012>015-112-114-115-232000-
PANHANDLE FLORIDA
  
CITY           SKY/WX    TMP DP  RH WIND       PRES   REMARKS
PENSACOLA      SUNNY     77  46  33 SE9       30.12F                  
PENSACOLA NAS  MOSUNNY   77  57  50 SE8       30.12F                  
MILTON NAS     SUNNY     79  35  20 SE7       30.12F                  
CRESTVIEW      SUNNY     81  41  24 CALM      30.13F                  
VALPARAISO     SUNNY     76  43  30 S7        30.10F                  
MARY ESTHER    SUNNY     75  49  39 S9        30.11F                  
PANAMA CITY    FAIR      82  39  21 NW6       30.11F                  
TYNDALL AFB    SUNNY     78  47  33 W9        30.10F                  
APALACHICOLA   SUNNY     75  55  49 S10       30.12F                  

STATION/POSITION SKY/WX   TEMP    WIND        PRES    WAVE   SWELL
                          AIR SEA DIR/SP/G            HT/PER HT/PER
                          (F)     (DEG/KT/KT) (MB)    (FT/S) (FT/S)
30.1N   87.6W              73 76   90/ 10/ 12 1019.6F   2/ 5   2/ 5
29.2N   88.2W              75 78   70/ 10/ 12 1019.3F   2/ 5   2/ 5
28.8N   86.0W              75      80/ 10/ 14 1019.6F   2/ 5
PANAMA CITY BEAC              72  200/  5/  6 1020.9
TOWER C                    69                 1020.3F
28.5N   84.5W              73 79   70/ 10/ 12 1018.1F   2/ 4

$$
FLZ011-016>038-118-127-128-134-139-239-232000-
NORTH FLORIDA
  
CITY           SKY/WX    TMP DP  RH WIND       PRES   REMARKS
MARIANNA       SUNNY     77  41  27 NE6       30.12F                  
TALLAHASSEE    MOSUNNY   78  44  29 CALM      30.12F                  
LIVE OAK         N/A     81  46  30 CALM      30.10F                  
CROSS CITY     SUNNY     81  52  36 NW5       30.10F                  
LAKE CITY      FAIR      77  50  38 CALM      30.11F                  
GAINESVILLE    SUNNY     82  48  30 N5        30.12F                  
WILLISTON      FAIR      81  53  38 E5        30.10F                  
PALATKA        FAIR      77  55  47 E7G14     30.09F                  
MAYPORT NAS    SUNNY    N/A N/A N/A NE15      30.12F                  
JACKSONVILLE   MOSUNNY   76  61  59 NE10      30.11F                  
JAX NAS        MOSUNNY   80  61  52 N9        30.11F                  
JAX CECIL      SUNNY     86  59  39 NE7       30.11F                  
FERNANDINA BEA FAIR      75  64  69 NE14      30.13F                  
ST AUGUSTINE   MOSUNNY   76  68  76 N15       30.12F                  
PALM COAST     SUNNY     79  59  50 NE9       30.10F                  

STATION/POSITION SKY/WX   TEMP    WIND        PRES    WAVE   SWELL
                          AIR SEA DIR/SP/G            HT/PER HT/PER
                          (F)     (DEG/KT/KT) (MB)    (FT/S) (FT/S)
SHELL POINT      NOT AVBL
KEATON BEACH               70     270/  7/  8 1019.8F
CEDAR KEY                  73     230/  3/  4 1020.3F
FERNANDINA                    69   30/  7/ 12 1020.6
30.7N   81.3W              71 72                N/A     4/10   2/10
MAYPORT                       72   30/ 13/ 15 1020.6
31.4N   80.9W              70 72   50/ 14/ 16 1020.0F   4/ 8   3/ 8
ST AUGUSTINE               72 73  360/ 14/ 15 1019.6F

$$
FLZ040-043>046-052-053-057-058-063-144-232000-
INTERIOR CENTRAL FLORIDA
  
CITY           SKY/WX    TMP DP  RH WIND       PRES   REMARKS
OCALA          SUNNY     82  55  39 N7        30.10F                  
LEESBURG       SUNNY     81  58  45 SE7       30.09F                  
SANFORD        SUNNY     83  58  42 N6        30.07F                  
ORLANDO EXEC   SUNNY     83  57  41 N9G16     30.07F                  
ORLANDO INTL   MOSUNNY   84  57  39 NW10      30.06F                  
KISSIMMEE      SUNNY     82  58  43 N8        30.08F                  
WINTER HAVEN     N/A    N/A N/A N/A MISG      30.08F                  
LAKELAND INTL  MOSUNNY   81  57  44 E3        30.07F                  
BARTOW         MOSUNNY   82  57  42 N9        30.07F                  
SEBRING        FAIR     N/A N/A N/A NE10      30.06F                  
OKEECHOBEE     MOSUNNY   82  63  51 NE8       30.04F                  

$$
FLZ041-047-054-059-064-141-147-232000-
EAST CENTRAL FLORIDA
  
CITY           SKY/WX    TMP DP  RH WIND       PRES   REMARKS
ORMOND BEACH   SUNNY     77  63  61 N9        30.09F                  
DAYTONA BEACH  MOSUNNY   81  60  48 NE13      30.09F                  
DELAND         SUNNY     81  58  45 N6        30.09F                  
NEW SMYRNA BEA SUNNY     79  61  53 N14       30.09F                  
JFK SPACE CTR  SUNNY     79  56  44 N13G21    30.06F                  
TITUSVILLE     MOSUNNY   84  57  39 N17G23    30.08F                  
CAPE CANAVERAL SUNNY     81  59  47 N15       30.05F                  
PATRICK AFB    SUNNY     81  80  99 N10       30.04F                  
MELBOURNE      MOSUNNY   81  63  54 N15       30.07F                  
VERO BEACH     MOSUNNY   82  64  54 N14       30.07F                  
FT PIERCE      SUNNY     81  62  52 N10G20    30.05F                  
STUART         SUNNY     81  64  57 N13G22    30.07F                  

STATION/POSITION SKY/WX   TEMP    WIND        PRES    WAVE   SWELL
                          AIR SEA DIR/SP/G            HT/PER HT/PER
                          (F)     (DEG/KT/KT) (MB)    (FT/S) (FT/S)
28.5N   80.2W              77 82  330/ 17/ 21 1016.7F   5/ 8   3/ 8
28.9N   78.5W              77 82   20/  8/ 12 1017.8F
TRIDENT PIER                       10/ 13/ 16   N/A
28.4N   80.5W                 75                N/A     3/ 8
27.6N   80.2W                 78                N/A     4/ 7   2/15

$$
FLZ050-056-061-142-242-148-248-149-249-151-251-155-255-
160-260-232000-
WEST CENTRAL FLORIDA
  
CITY           SKY/WX    TMP DP  RH WIND       PRES   REMARKS
CRYSTAL RIVER  FAIR      81  59  47 NW7       30.09F                  
INVERNESS      FAIR      81  59  47 NW3       30.09F                  
BROOKSVILLE    SUNNY     84  60  44 N8        30.08F                  
CLEARWATER AIR FAIR      81  57  44 E3        30.06F                  
ST PETE CLEARW SUNNY     83  61  47 VRB5      30.07F                  
TAMPA INTL     MOSUNNY   83  58  42 NE5       30.06F                  
TAMPA EXEC     SUNNY     86  63  45 MISG      30.07F                  
PLANT CITY     MOSUNNY   86  63  45 NE6       30.09F                  
MACDILL AFB    SUNNY     83  60  46 E8        30.02F                  
ST PETERSBURG  SUNNY     81  68  64 NE5       30.05F                  
SARASOTA       MOSUNNY   84  62  47 E7        30.03F                  
VENICE         NOT AVBL                                               

STATION/POSITION SKY/WX   TEMP    WIND        PRES    WAVE   SWELL
                          AIR SEA DIR/SP/G            HT/PER HT/PER
                          (F)     (DEG/KT/KT) (MB)    (FT/S) (FT/S)
27.3N   84.3W                 78                N/A     3/ 5
CLEARWATER BEACH              71  360/ 10/ 11 1018.6
MIDDLE TAMPA BAY                   20/  8/  9   N/A
VENICE                     81 74   60/  9/ 11 1017.6F

$$
FLZ066-069-070-075>078-162-262-165-265-232000-
SOUTHWEST FLORIDA AND KEYS
  
CITY           SKY/WX    TMP DP  RH WIND       PRES   REMARKS
PUNTA GORDA    MOSUNNY   86  60  41 E6G20     30.05F                  
FT MYERS       MOSUNNY   86  63  45 NE12G18   30.03F                  
SOUTHWEST INTL MOSUNNY   83  62  49 NE8       30.03F                  
NAPLES         PTSUNNY   86  68  54 NE9       30.01F                  
MARCO ISLAND   MOSUNNY   85  63  47 E9        30.03F                  
MARATHON       SUNNY     83  68  60 NE9       30.01F                  
KEY WEST NAS   MOSUNNY   86  68  54 NE13      30.01F                  
KEY WEST INTL  SUNNY     82  68  62 NE12      30.01F                  

STATION/POSITION SKY/WX   TEMP    WIND        PRES    WAVE   SWELL
                          AIR SEA DIR/SP/G            HT/PER HT/PER
                          (F)     (DEG/KT/KT) (MB)    (FT/S) (FT/S)
NAPLES           NOT AVBL
DRY TORTUGAS     NOT AVBL
SOMBRERO KEY               79      40/ 13/ 15 1015.1F
LONG KEY                   78      60/  9/ 11 1015.6F

$$
FLZ067-068-071>074-168-172>174-232000-
SOUTHEAST FLORIDA 
  
CITY           SKY/WX    TMP DP  RH WIND       PRES   REMARKS
W PALM BEACH   MOSUNNY   84  64  50 N14       30.04F                  
BOCA RATON     MOSUNNY   82  66  57 N13G25    30.04F                  
FT LAUDER-EXEC MOSUNNY   84  67  56 NE10G16   30.02F                  
FT LAUDERDALE  MOSUNNY   83  67  58 NE13      30.01F                  
POMPANO BEACH  MOSUNNY   84  66  54 N13       30.02F                  
PEMBROKE PINES PTSUNNY   83  65  54 NE13      30.03F                  
OPA LOCKA      MOSUNNY   84  64  50 NE12      30.02F                  
MIAMI          MOSUNNY   85  65  51 E13       30.02F                  
WEST KENDALL   MOSUNNY   85  65  51 E10       30.01F                  
HOMESTEAD      SUNNY     83  65  54 NE14      30.00F                  

STATION/POSITION SKY/WX   TEMP    WIND        PRES    WAVE   SWELL
                          AIR SEA DIR/SP/G            HT/PER HT/PER
                          (F)     (DEG/KT/KT) (MB)    (FT/S) (FT/S)
VIRGINIA KEY                  79   50/ 12/ 15 1017.5
LAKE WORTH                    78   50/  8/ 11 1016.9
FOWEY ROCKS                75 80   50/ 12/ 14 1017.4F
SETTLEMENT POINT           79      20/ 10/ 11 1017.2F

$$

  
