ASUS42 KMLB 231710
RWRMLB
HOURLY WEATHER ROUNDUP AROUND FLORIDA
NATIONAL WEATHER SERVICE OFFICE MELBOURNE FL
100 PM EDT SUN OCT 23 2022
  
CITY           SKY/WX    TMP DP  RH WIND       PRES   REMARKS
MELBOURNE      SUNNY     80  62  54 N12       30.12S                  
FORT PIERCE    SUNNY     82  66  58 VRB6G17   30.09F                  
ORLANDO INTL   MOSUNNY   82  58  43 NW10      30.12F                  
DAYTONA BEACH  MOSUNNY   80  61  52 N13       30.13F                  
VERO BEACH     MOSUNNY   83  67  58 N13       30.11F                  
$$
...ELSEWHERE ACROSS CENTRAL FLORIDA...
  
CITY           SKY/WX    TMP DP  RH WIND       PRES   REMARKS
PATRICK AFB    SUNNY     80  80  99 N9        30.09F                  
KSC            SUNNY     78  60  53 N13G21    30.10F                  
CAPE CANAVERAL SUNNY     80  65  60 N13G21    30.09F                  
TITUSVILLE     MOSUNNY   82  66  57 NE15      30.13S                  
SEBASTIAN      FAIR      79  66  63 N16       30.11F                  
ORLANDO EXEC   SUNNY     81  59  47 N12       30.12F                  
LEESBURG       SUNNY     81  58  45 VRB6      30.14F                  
SANFORD        SUNNY     80  60  50 N8        30.12F                  
DELAND         SUNNY     79  58  49 N8        30.14F                  
NEW SMYRNA BCH SUNNY     77  64  65 N12G17    30.13F                  
ORMOND BEACH   SUNNY     77  64  65 N5        30.15S                  
WINTER HAVEN   SUNNY    N/A N/A N/A N8        30.13F                  
KISSIMMEE      MOSUNNY   81  58  45 NW8       30.13F                  
OKEECHOBEE     MOSUNNY   82  66  57 NE10      30.09F                  
TAMPA          MOSUNNY   82  60  47 NE5       30.12F                  
$$
...NORTHERN FLORIDA...
  
CITY           SKY/WX    TMP DP  RH WIND       PRES   REMARKS
PALM COAST     SUNNY     79  63  57 NE8       30.13F                  
ST AUGUSTINE   SUNNY     75  68  78 N13       30.15F                  
OCALA          SUNNY     79  57  46 VRB5      30.15F                  
GAINESVILLE    SUNNY     78  53  41 VRB5      30.16F                  
JACKSONVILLE   MOSUNNY   79  62  56 N7        30.14F                  
TALLAHASSEE    MOSUNNY   75  43  31 VRB6      30.17F                  
$$
...ALONG THE SOUTHEAST COAST TO THE KEYS...
  
CITY           SKY/WX    TMP DP  RH WIND       PRES   REMARKS
STUART         MOSUNNY   81  66  61 N12G20    30.10F                  
WEST PALM BCH  PTSUNNY   83  65  54 N16       30.09S                  
MIAMI          MOSUNNY   86  65  49 E9G16     30.06F                  
KEY WEST       SUNNY     81  68  64 NE13      30.06F                  
$$
...MARINE REPORTS...
  
STATION/POSITION TIME  TEMP    WIND        PRES    WAVE   SWELL
                       AIR SEA DIR/SP/G            HT/PER HT/PER
                 (UTC) (F)     (DEG/KT/KT) (MB)    (FT/S) (FT/S)
ST AUGUSTINE FP  1700   70 73  360/ 12/ 13 1021.0F
20NM E CAPE CANA 1650   77 82  330/ 17/ 21 1018.0F   5/ 8   3/ 8
120 E NEW SMYRNA 1650   77 82   20/  8/ 12 1019.1F
TRIDENT PIER     1630           10/  9/ 17   N/A
4NM E PORT CANAV 1626      75                N/A     2/ 8
6NM NE FPR INLET 1626      78                N/A     4/ 8   2/15
SETTLEMENT PT GB 1700   78      40/  7/  8 1018.5F
$$
  
