NZUS99 KTBW 231711
RWRTBW
Regional Weather Roundup National Weather Service Ruskin Florida
100 PM EDT SUN OCT 23 2022

  
CITY           SKY/WX    TMP DP  RH WIND       PRES   REMARKS
Cross City     SUNNY     78  54  43 NW5       30.15F                  
Williston      FAIR      78  57  48 NW5       30.14F                  
Gainesville    SUNNY     78  53  41 VRB5      30.16F                  
Ocala          SUNNY     79  57  46 VRB5      30.15F                  
Crystal River  FAIR      81  57  44 CALM      30.14S                  
Inverness      FAIR      79  61  53 N6        30.14F HAZE             
Leesburg       SUNNY     81  58  45 VRB6      30.14F                  
Orlando        MOSUNNY   82  58  43 NW10      30.12F                  
Brooksville    SUNNY     81  61  50 VRB6      30.14F                  
Zephyrhills    SUNNY     81  58  45 NE5       30.14F                  
Lakeland Intl  MOSUNNY   79  61  53 N8        30.13F                  
Winter Haven   SUNNY    N/A N/A N/A N8        30.13F                  
Bartow         MOSUNNY   81  61  50 N8        30.13F                  

CITY           SKY/WX    TMP DP  RH WIND       PRES   REMARKS
Tampa Intl     MOSUNNY   82  60  47 NE5       30.12F                  
Tampa Exec     SUNNY     82  64  54 N5        30.12F                  
MacDill AFB    SUNNY     81  62  52 NE10      30.07F                  
Plant City     SUNNY     84  64  51 E3        30.14F                  
Clearwater     SUNNY     79  65  62 E6        30.11F                  
St Petersburg  SUNNY     77  70  79 NE7       30.10F                  
Sarasota       SUNNY     83  63  50 NE6G18    30.08F                  
Sebring        PTSUNNY   80  65  59 N6        30.11F                  
Punta Gorda    MOSUNNY   81  63  54 NE8       30.11F                  
Ft Myers       SUNNY     84  64  50 E9        30.07F                  
Ft Myers-RSW   SUNNY     83  63  50 NE13G24   30.08F                  
Naples         SUNNY     82  66  58 E9        30.07F                  

STATION/POSITION SKY/WX   TEMP WIND        PRES    VSBY
                          AIR  DIR/SP/G
                          (F)  (DEG/KT/KT) (MB)    (MI)
Keaton Beach               70  260/  5/  6 1021.2F
039 Panama City            75   90/ 10/ 14 1021.0S
036 Bayport                73   80/ 10/ 12 1019.2F
Venice                     78   50/  7/ 10 1019.1F
Cedar Key                  68  120/  4/  4 1021.5F

CITY           SKY/WX    TMP DP  RH WIND       PRES   REMARKS
Tallahassee    MOSUNNY   75  43  31 VRB6      30.17F                  
Daytona Beach  MOSUNNY   80  61  52 N13       30.13F                  
Melbourne      SUNNY     80  62  54 N12       30.12S                  
W Palm Beach   PTSUNNY   83  65  54 N16       30.09S                  
Miami          MOSUNNY   86  65  49 E9G16     30.06F                  
Key West       SUNNY     81  68  64 NE13      30.06F                  
San Juan, PR   MOSUNNY   88  75  66 NE12      29.91F HX  97           
Cancun, MX     PTSUNNY   82  70  65 E9        30.02F                  

  
