NZUS99 KTBW 232011
RWRTBW
Regional Weather Roundup National Weather Service Ruskin Florida
400 PM EDT SUN OCT 23 2022

  
CITY           SKY/WX    TMP DP  RH WIND       PRES   REMARKS
Cross City     SUNNY     82  51  34 NW9       30.09F                  
Williston      FAIR      82  52  35 NW5       30.08F                  
Gainesville    SUNNY     81  49  32 N3        30.11F                  
Ocala          SUNNY     83  56  39 VRB7      30.08F                  
Crystal River  FAIR      81  59  47 W6        30.07F                  
Inverness      FAIR      81  59  47 CALM      30.08F                  
Leesburg       SUNNY     83  58  42 W6        30.07F                  
Orlando        MOSUNNY   84  56  38 VRB6      30.06S                  
Brooksville    SUNNY     84  60  44 NE7       30.07F                  
Zephyrhills    SUNNY     83  58  43 N6        30.07F                  
Lakeland Intl  MOSUNNY   82  57  42 E6        30.06F                  
Winter Haven     N/A    N/A N/A N/A NE5       30.07F                  
Bartow         MOSUNNY   82  55  39 N10       30.06F                  

CITY           SKY/WX    TMP DP  RH WIND       PRES   REMARKS
Tampa Intl     PTSUNNY   86  58  38 N6        30.05F                  
Tampa Exec     SUNNY     86  63  45 NE6       30.06F                  
MacDill AFB    MOSUNNY   83  60  45 NE5       30.01F                  
Plant City     MOSUNNY   86  61  42 E5        30.07F                  
Clearwater     SUNNY     83  60  45 N3        30.05F                  
St Petersburg  SUNNY     81  68  64 NE5       30.03F                  
Sarasota       MOSUNNY   83  60  45 CALM      30.02F                  
Sebring        PTSUNNY   81  63  53 N7        30.05S                  
Punta Gorda    MOSUNNY   86  58  38 E10       30.04F                  
Ft Myers       MOSUNNY   85  62  46 E6        30.02F                  
Ft Myers-RSW   MOSUNNY   83  62  49 NE7       30.02F                  
Naples         SUNNY     84  67  56 NE13      30.01S                  

STATION/POSITION SKY/WX   TEMP WIND        PRES    VSBY
                          AIR  DIR/SP/G
                          (F)  (DEG/KT/KT) (MB)    (MI)
Keaton Beach               70  270/  6/  7 1019.4F
039 Panama City            75   80/ 12/ 16 1019.2F
036 Bayport                73   70/ 10/ 12 1017.7F
Venice                     81   40/  4/  6 1017.2F
Cedar Key                  74  280/  4/  6 1019.8F

CITY           SKY/WX    TMP DP  RH WIND       PRES   REMARKS
Tallahassee    MOSUNNY   80  44  27 VRB7      30.10F                  
Daytona Beach  MOSUNNY   81  55  40 N15       30.09S                  
Melbourne      SUNNY     81  56  42 N16       30.06F                  
W Palm Beach   MOSUNNY   84  65  52 N16       30.03F                  
Miami          MOSUNNY   83  64  52 NE12G18   30.01F                  
Key West       SUNNY     83  69  62 NE7G16    30.00F                  
San Juan, PR   MOSUNNY   86  75  70 NE13      29.88F HX  95           
Cancun, MX     PTSUNNY   84  68  58 E12       29.93F                  

  
