NZUS99 KTBW 231911
RWRTPA
FLORIDA REGIONAL WEATHER ROUNDUP
NATIONAL WEATHER SERVICE TAMPA BAY RUSKIN FL
300 PM EDT SUN OCT 23 2022

NOTE: "FAIR" INDICATES FEW OR NO CLOUDS BELOW 12,000 FEET WITH NO
SIGNIFICANT WEATHER AND/OR OBSTRUCTIONS TO VISIBILITY.


  
STATION/POSITION



FLZ042-048>051-055-056-060-061-232000-
EXTRA STATIONS
  
CITY           SKY/WX    TMP DP  RH WIND       PRES   REMARKS
Everglades Cty NOT AVBL                                               
CRYSTAL RIVER  FAIR      81  59  47 NW7       30.09F                  
SEBRING        FAIR     N/A N/A N/A NE10      30.06F                  
CANAVERAL      SUNNY     81  59  47 N15       30.05F                  

$$
FLZ001>010-012>015-232000-
PANHANDLE FLORIDA
  
CITY           SKY/WX    TMP DP  RH WIND       PRES   REMARKS
PENSACOLA      SUNNY     77  46  33 SE9       30.12F                  
PENSACOLA NAS  MOSUNNY   77  57  50 SE8       30.12F                  
MILTON NAS     SUNNY     79  35  20 SE7       30.12F                  
CRESTVIEW      SUNNY     81  41  24 CALM      30.13F                  
VALPARAISO     SUNNY     76  43  30 S7        30.10F                  
MARY ESTHER    SUNNY     75  49  39 S9        30.11F                  
PANAMA CITY    FAIR      82  39  21 NW6       30.11F                  
TYNDALL AFB    SUNNY     78  47  33 W9        30.10F                  
APALACHICOLA   SUNNY     75  55  49 S10       30.12F                  

STATION/POSITION


29.2N   88.2W
28.8N   86.0W
28.5N   84.5W

$$
FLZ011-016>039-232000-
NORTH FLORIDA
  
CITY           SKY/WX    TMP DP  RH WIND       PRES   REMARKS
MARIANNA       SUNNY     77  41  27 NE6       30.12F                  
TALLAHASSEE    MOSUNNY   78  44  29 CALM      30.12F                  
CROSS CITY     SUNNY     81  52  36 NW5       30.10F                  
GAINESVILLE    SUNNY     82  48  30 N5        30.12F                  
MAYPORT NAS    SUNNY    N/A N/A N/A NE15      30.12F                  
JACKSONVILLE   MOSUNNY   76  61  59 NE10      30.11F                  
JAX NAS        MOSUNNY   80  61  52 N9        30.11F                  
JAX CRAIG      PTSUNNY   77  64  64 NE9       30.12F                  
ST AUGUSTINE   MOSUNNY   76  68  76 N15       30.12F                  

STATION/POSITION


KEATON BEACH
31.4N   80.9W
ST AUGUSTINE

$$
FLZ040-043>046-052-053-057-058-063-232000-
CENTRAL FLORIDA
  
CITY           SKY/WX    TMP DP  RH WIND       PRES   REMARKS
OCALA          SUNNY     82  55  39 N7        30.10F                  
LEESBURG       SUNNY     81  58  45 SE7       30.09F                  
SANFORD        SUNNY     83  58  42 N6        30.07F                  
ORLANDO EXEC   SUNNY     83  57  41 N9G16     30.07F                  
ORLANDO INTL   MOSUNNY   84  57  39 NW10      30.06F                  
KISSIMMEE      SUNNY     82  58  43 N8        30.08F                  
WINTER HAVEN     N/A    N/A N/A N/A MISG      30.08F                  
LAKELAND INTL  MOSUNNY   81  57  44 E3        30.07F                  
BARTOW         MOSUNNY   82  57  42 N9        30.07F                  

$$
FLZ041-047-054-059-064-232000-
EAST CENTRAL FLORIDA
  
CITY           SKY/WX    TMP DP  RH WIND       PRES   REMARKS
DAYTONA BEACH  MOSUNNY   81  60  48 NE13      30.09F                  
JFK SPACE CTR  SUNNY     79  56  44 N13G21    30.06F                  
TITUSVILLE     MOSUNNY   84  57  39 N17G23    30.08F                  
PATRICK AFB    SUNNY     81  80  99 N10       30.04F HX  91           
MELBOURNE      MOSUNNY   81  63  54 N15       30.07F                  
VERO BEACH     MOSUNNY   82  64  54 N14       30.07F                  
FT PIERCE      SUNNY     81  62  52 N10G20    30.05F                  
STUART         SUNNY     81  64  57 N13G22    30.07F                  

STATION/POSITION


28.9N   78.5W

$$
FLZ042-048>051-055-056-060-061-232000-
WEST CENTRAL FLORIDA
  
CITY           SKY/WX    TMP DP  RH WIND       PRES   REMARKS
BROOKSVILLE    SUNNY     84  60  44 N8        30.08F                  
TAMPA          MOSUNNY   83  58  42 NE5       30.06F                  
MACDILL AFB    SUNNY     83  60  46 E8        30.02F                  
ST PETERSBURG  SUNNY     83  61  47 VRB5      30.07F                  
ST PET-WHITTED SUNNY     81  68  64 NE5       30.05F                  
SARASOTA       MOSUNNY   84  62  47 E7        30.03F                  

STATION/POSITION


CEDAR KEY
28.5N   84.5W
VENICE

$$
FLZ062-065-066-069-070-075>078-232000-
SOUTHWEST FLORIDA AND KEYS
  
CITY           SKY/WX    TMP DP  RH WIND       PRES   REMARKS
PUNTA GORDA    MOSUNNY   86  60  41 E6G20     30.05F                  
FT MYERS       MOSUNNY   86  63  45 NE12G18   30.03F                  
SOUTHWEST INTL MOSUNNY   83  62  49 NE8       30.03F                  
NAPLES         PTSUNNY   86  68  54 NE9       30.01F                  
MARATHON       SUNNY     83  68  60 NE9       30.01F                  
KEY WEST NAS   MOSUNNY   86  68  54 NE13      30.01F                  
KEY WEST INTL  SUNNY     82  68  62 NE12      30.01F                  

STATION/POSITION


VENICE
SOMBRERO KEY
LONG KEY

$$
FLZ067-068-071>074-232000-
SOUTHEAST FLORIDA 
  
CITY           SKY/WX    TMP DP  RH WIND       PRES   REMARKS
W PALM BEACH   MOSUNNY   84  64  50 N14       30.04F                  
POMPANO BEACH  MOSUNNY   84  66  54 N13       30.02F                  
FT LAUDER-EXEC MOSUNNY   84  67  56 NE10G16   30.02F                  
FT LAUDERDALE  MOSUNNY   83  67  58 NE13      30.01F                  
PEMBROKE PINES PTSUNNY   83  65  54 NE13      30.03F                  
OPA LOCKA      MOSUNNY   84  64  50 NE12      30.02F                  
MIAMI          MOSUNNY   85  65  51 E13       30.02F                  
WEST KENDALL   MOSUNNY   85  65  51 E10       30.01F                  
HOMESTEAD      SUNNY     83  65  54 NE14      30.00F                  

STATION/POSITION


LAKE WORTH
FOWEY ROCKS
SETTLEMENT POINT

$$
  
