ASUS45 KTFX 220210
RWRMT 
Montana Regional Weather Roundup
National Weather Service Great Falls MT
800 PM MDT FRI OCT 21 2022

NOTE: "FAIR" indicates few or no clouds below 12,000 feet with no
significant weather and/or obstructions to visibility.

MTZ001>007-043-220300-
West of the divide
  
CITY           SKY/WX    TMP DP  RH WIND       PRES   REMARKS
Kalispell      LGT RAIN  40  37  89 SE8       29.59S WCI  34          
Missoula       LGT RAIN  43  37  79 N9        29.63F                  
Anaconda         N/A     45  36  70 NE5       29.61                   
Deer Lodge       N/A     41  39  93 N3        29.64                   
Hamilton       CLOUDY    48  39  71 S9G15     29.60F                  
Libby            N/A     43  34  70 CALM      29.58                   
Mullan Pass    FOG       27  25  92 SW7       29.57F VSB 3/4 WCI  19  
Plains           N/A     43   1  17 CALM      29.66F                  
Thompson Falls   N/A     41  37  87 CALM      29.70F                  
$$

MTZ008-052>055-220300-
Southwest Montana
  
CITY           SKY/WX    TMP DP  RH WIND       PRES   REMARKS
Bozeman        LGT RAIN  49  41  74 NW8       29.59R                  
Dillon         CLOUDY    51  32  48 W21G29    29.59R                  
Ennis          CLOUDY    57  30  35 W25G35    29.61R                  
Twin Bridges   CLOUDY    54  32  43 NW14G21   29.60R                  
$$

MTZ009-010-012-014-046-048-049-054-220300-
East Slopes and Central Montana
  
CITY           SKY/WX    TMP DP  RH WIND       PRES   REMARKS
Cut Bank       CLOUDY    38  38 100 SE6       29.53S WCI  33          
Great Falls    CLOUDY    47  35  63 W8        29.53S                  
Helena         LGT RAIN  46  38  73 W6        29.57F                  
Malmstrom AFB  LGT RAIN  46  40  79 CALM      29.52F                  
Augusta        CLOUDY    43  33  66 W5        29.50S                  
Choteau          N/A     41  41 100 MISG      29.53  FOG              
Fairfield      LGT RAIN  41  39  92 W10       29.49S                  
Power          LGT RAIN  41  40  96 E8        29.51R                  
Raynesford     LGT RAIN  45  39  79 W8        29.54F                  
Ulm            CLOUDY    48  35  61 SW14      29.51R                  
$$

MTZ011-013-016-021-045-047-050-051-220300-
North Central Montana
  
CITY           SKY/WX    TMP DP  RH WIND       PRES   REMARKS
Havre          LGT RAIN  44  44 100 SW6       29.54S                  
Lewistown      RAIN      43  40  89 W13G20    29.57R FOG              
Denton         LGT RAIN  46  43  91 S5        29.53S                  
Fort Benton      N/A     46  46 100 NW3       29.55F                  
Geyser         LGT RAIN  44  39  82 W9        29.54S                  
Grass Range    RAIN      45  45  99 W6        29.51S                  
Judith Gap     RAIN      42  41  95 MISG      29.53R                  
N Bar Ranch      N/A     43  41  93 CALM      29.58S FOG              
Roy            LGT RAIN  45  44  96 S5        29.52S                  
Stanford       RAIN      43  39  87 W9        29.54S                  
$$

MTZ017>020-022>027-061-062-220300-
Northeast Montana
  
CITY           SKY/WX    TMP DP  RH WIND       PRES   REMARKS
Glasgow        CLOUDY    45  41  86 E8        29.55S                  
Culbertson     CLOUDY    43  43 100 NE3       29.55F                  
Glendive       MOCLDY    46  44  93 N6        29.55F                  
Jordan           N/A     46  44  93 W5        29.55S                  
Malta          CLOUDY    45  41  87 E6        29.54S                  
Plentywood     MOCLDY    39  37  93 CALM      29.56F                  
Sidney         CLOUDY    44  41  89 N7        29.57S                  
Wolf Point     CLOUDY    44  41  89 E6        29.57F                  
$$

MTZ028>42-056>058-220300-
Southcentral and southeast Montana
  
CITY           SKY/WX    TMP DP  RH WIND       PRES   REMARKS
Baker          CLOUDY    51  39  63 NW7       29.56R                  
Big Timber     CLOUDY    50  39  66 VRB7      29.55R                  
Billings       CLOUDY    51  39  63 NE9       29.57R                  
Forsyth          N/A     50  43  76 E3        29.56                   
Hardin           N/A    N/A N/A N/A MISG        N/A                   
Harlowton      RAIN      45  43  94 S8        29.55R                  
Laurel           N/A     52  39  62 NE13      29.56                   
Livingston     LGT RAIN  56  38  50 W20       29.53R                  
Miles City     CLOUDY    49  43  80 E5        29.54S                  
Roundup          N/A     45  39  81 N5        29.52F                  
$$

Regional Reports...Dakotas/MN
  
CITY           SKY/WX    TMP DP  RH WIND       PRES   REMARKS
Williston      CLOUDY    41  39  93 NE8       29.55F                  
Minot          LGT RAIN  44  41  89 N7        29.56R                  
Dickinson      CLOUDY    50  38  63 N6        29.51S                  
Beach          CLOUDY    46  46 100 NW6       29.56F                  
Bowman         CLOUDY    52  37  58 N10       29.54R                  
Crosby         MOCLDY    39  37  93 CALM      29.57F                  
Glen Ullin     CLOUDY    50  28  43 CALM      29.52R                  
Hettinger      CLOUDY    58  35  42 N12       29.52R                  
Tioga          CLOUDY    41  41 100 CALM      29.58S                  
Watford City   LGT RAIN  43  43 100 N8        29.57R                  
Bismarck       MOCLDY    52  33  48 E7        29.51S                  
Grand Forks    CLOUDY    54  32  43 SW5       29.54R                  
Fargo          MOCLDY    51  27  39 S3        29.56R                  
Buffalo SD       N/A     56  38  50 N16       29.50R                  
Rapid City     PTCLDY    55  26  32 N12       29.47R                  
Intl Falls     PTCLDY    47  33  58 S3        29.53S                  
Duluth         MOCLDY    44  33  65 SW3       29.60R                  
Minneapolis    MOCLDY    56  35  45 CALM      29.62F                  
$$

Regional Reports...WY/CO/ID/WA/OR
  
CITY           SKY/WX    TMP DP  RH WIND       PRES   REMARKS
Buffalo WY     MOCLDY    57  28  33 NW9       29.56R                  
Cody           CLOUDY    63  24  22 S6        29.53F                  
Gillette       MOCLDY    45  23  42 CALM      29.52S                  
Powell         FAIR      59  23  25 W8        29.51S                  
Sheridan       MOCLDY    54  35  48 N16       29.56R                  
Yellowstone La   N/A     47  23  38 W10G26    29.67F                  
Boise          CLOUDY    64  35  34 NE6       29.62F                  
Couer d'Alene  CLOUDY    40  38  93 SE8       29.64F WCI  34          
Idaho Falls    CLOUDY    62  26  25 S17G29    29.64F                  
Salmon         LGT RAIN  54  35  48 W6        29.66R                  
Spokane        CLOUDY    42  39  89 S10       29.62F                  
Seattle        LGT RAIN  47  45  93 CALM      29.70F FOG              
Portland       CLOUDY    51  47  86 SE9       29.65F                  
$$

Other Reports
  
CITY           SKY/WX    TMP DP  RH WIND       PRES   REMARKS
Atlanta        PTCLDY    56  38  50 S3        30.13R                  
Anchorage      PTCLDY    37  34  89 CALM      29.86R                  
Boston         CLEAR     54  45  71 S9        30.18R                  
Chicago        CLEAR     69  38  32 S13G22    29.73R                  
Fairbanks      FLURRIES  34  31  88 SW3       29.85R                  
Houston        CLEAR     73  58  59 S9        30.00R                  
Las Vegas NV   PTCLDY    80  35  19 SW5       29.79S                  
Phoenix AZ     PTCLDY    85  47  26 NW7       29.79R                  
Salt Lake City PTCLDY    65  20  17 SE9       29.73F                  
San Diego      MOCLDY    70  61  73 S5        29.88R                  
San Francisco  MOCLDY    59  53  80 W9        29.85R                  
Washington Dul CLEAR     52  36  54 S6        30.15R                  
$$

Regional Reports...Alberta
  
CITY           SKY/WX    TMP DP  RH WIND       PRES   REMARKS
Calgary        CLOUDY    37  34  87 S8        29.53S WCI  31          
Cardston         N/A     37  36  93 E5          N/A  WCI  34          
Crowsnest Pass   N/A     32  32 100 CALM        N/A                   
Del Bonita       N/A     34  34 100 E7          N/A  WCI  28          
Fort McMurray  MOCLDY    30  28  93 SW2       29.54S                  
High Level     CLOUDY    43  30  61 N3        29.53R                  
Lethbridge     LGT RAIN  37  36  93 E3        29.54F                  
Medicine Hat   CLOUDY    43  36  75 NE5       29.55F                  
Milk River       N/A     37  36  93 N5          N/A  WCI  34          
Onefour          N/A     41  39  93 E6          N/A                   
Pincher Creek  LGT SNOW  32  32 100 SE5       29.52S WCI  27          
Raymond          N/A     37  36  93 E5          N/A  WCI  34          
Waterton Gate    N/A     36  34  93 E6          N/A  WCI  31          
Fort Smith NWT CLOUDY    34  32  93 N3        29.58R                  
$$

Regional Reports...Saskatchewan
  
CITY           SKY/WX    TMP DP  RH WIND       PRES   REMARKS
Assiniboia       N/A     41  34  75 W2          N/A                   
Coronach         N/A     39  37  93 S3          N/A                   
Cypress Hills    N/A     36  32  87 NE1         N/A                   
Estevan        FOG       36  36 100 SW5       29.56  VSB 3/8 WCI  32  
Moose Jaw        N/A     45  36  70 W10         N/A                   
Prince Albert  CLOUDY    41  34  75 W2        29.51S                  
Regina         CLOUDY    41  36  81 SW9       29.53R                  
Rockglen         N/A     39  36  87 S2          N/A                   
Saskatoon      MOCLDY    43  28  56 N7        29.50R                  
Swift Current  CLOUDY    41  36  81 NW8       29.55R                  
Uranium City     N/A     34  30  86 N6          N/A  WCI  29          
Val Marie        N/A     43  37  81 SE3         N/A                   
$$
  
