ASUS41 KBOX 231810
RWRBOX

REGIONAL WEATHER ROUNDUP
NATIONAL WEATHER SERVICE BOSTON/NORTON MA
200 PM EDT SUN OCT 23 2022

NOTE:  "FAIR" INDICATES FEW OR NO CLOUDS BELOW 12,000 FEET WITH NO 
SIGNIFICANT WEATHER AND/OR OBSTRUCTIONS TO VISIBILITY.

MAZALL-231900-
EASTERN MASSACHUSETTS
  
CITY           SKY/WX    TMP DP  RH WIND       PRES   REMARKS
BOSTON         NOT AVBL                                               
BEVERLY        SUNNY     57  50  77 NE6       30.34S                  
LAWRENCE       SUNNY     60  48  64 E5        30.36F                  
BEDFORD        SUNNY     59  48  67 NE3       30.33F                  
NORWOOD        SUNNY     59  53  80 N7        30.34F                  
MARSHFIELD     SUNNY     59  54  82 NE7       30.33F                  
PLYMOUTH       CLOUDY    59  54  83 NE6       30.32S                  
TAUNTON          N/A    N/A N/A N/A MISG      30.31F                  
NEW BEDFORD    LGT RAIN  59  56  89 NE6       30.29F                  
$$

MAZALL-231900-
CAPE COD AND THE ISLANDS
  
CITY           SKY/WX    TMP DP  RH WIND       PRES   REMARKS
FALMOUTH       LGT RAIN  57  57 100 NE12      30.31F                  
HYANNIS        LGT RAIN  57  55  93 NE6       30.29F                  
CHATHAM        CLOUDY    59  56  89 NE8       30.31F                  
PROVINCETOWN   LGT RAIN  58  55  90 NE8       30.33F                  
NANTUCKET      LGT RAIN  60  57  89 NE13      30.26F                  
MARTHAS VNYRD  LGT RAIN  58  54  86 NE13      30.28F                  
$$
 
MAZALL-231900-
CENTRAL AND WESTERN MASSACHUSETTS
  
CITY           SKY/WX    TMP DP  RH WIND       PRES   REMARKS
WORCESTER      SUNNY     57  43  59 NE7       30.33F                  
6HR MIN TEMP:  53; 6HR MAX TEMP:  58;                                

FITCHBURG      SUNNY     60  41  49 E5        30.34F                  
ORANGE         SUNNY     60  44  55 N3        30.34F                  
SPRINGFIELD    CLOUDY    56  43  62 N5        30.29F                  
WESTFIELD      MOSUNNY   56  43  61 N8        30.31F                  
NORTH ADAMS    MOSUNNY   62  45  53 CALM      30.31F                  
PITTSFIELD     MOSUNNY   63  39  41 NE5       30.30F                  
$$
 
RIZALL-231900-
RHODE ISLAND
  
CITY           SKY/WX    TMP DP  RH WIND       PRES   REMARKS
PROVIDENCE     LGT RAIN  59  51  75 N10       30.31F                  
6HR MIN TEMP:  50; 6HR MAX TEMP:  60; 6HR PCP: TRACE;                

NEWPORT        LGT RAIN  58  54  86 NE7       30.28F                  
BLOCK ISLAND   LGT RAIN  57  53  86 NE15G21   30.26F                  
SMITHFIELD     SUNNY     57  50  77 NE8       30.32F                  
WESTERLY       LGT RAIN  57  51  80 NE6       30.28F                  
$$
 
CTZALL-231900-
CONNECTICUT
  
CITY           SKY/WX    TMP DP  RH WIND       PRES   REMARKS
BRADLEY INTL   CLOUDY    57  44  62 N7        30.31F                  
6HR MIN TEMP:  45; 6HR MAX TEMP:  57;                                

HARTFORD       MOSUNNY   56  45  66 N7        30.30F                  
BRIDGEPORT     LGT RAIN  57  46  66 NE10      30.27F                  
DANBURY        MOSUNNY   61  42  49 NE7       30.29F                  
GROTON         LGT RAIN  60  50  69 NE7       30.27F                  
NEW HAVEN      LGT RAIN  57  49  74 N8        30.27F                  
CHESTER        LGT RAIN  57  48  72 N5        30.27F                  
MERIDEN        PTSUNNY   55  43  63 N9        30.28F                  
WILLIMANTIC    MOSUNNY   60  44  55 NE7       30.30F                  
OXFORD         MOSUNNY   58  42  55 NE13G18   30.28F                  
$$

MEZ002-015-021-024-NHZ003-005-008-011-012-014-VTZ005-008-231900-
NORTHERN NEW ENGLAND
  
CITY           SKY/WX    TMP DP  RH WIND       PRES   REMARKS
PORTLAND ME    CLOUDY    59  49  69 E6        30.36F                  
6HR MIN TEMP:  42; 6HR MAX TEMP:  61;                                

BANGOR ME      CLOUDY    64  50  60 CALM      30.36F                  
CONCORD NH     SUNNY     58  44  60 W3        30.34F                  
MANCHESTER NH  CLOUDY    61  44  53 NW3       30.33F                  
NASHUA NH      SUNNY     58  47  66 CALM      30.35F                  
PORTSMOUTH NH  CLOUDY    61  48  61 E3        30.34F                  
JAFFREY NH     SUNNY     59  43  55 CALM      30.34F                  
KEENE NH       SUNNY     55  45  68 CALM      30.34F                  
BURLINGTON VT  PTSUNNY   67  42  40 CALM      30.30F                  
MT. WASHINGTON PTSUNNY   52  14  22 SE14        N/A                   
$$

NYZ052-076-231900-
EASTERN NEW YORK
  
CITY           SKY/WX    TMP DP  RH WIND       PRES   REMARKS
ALBANY         PTSUNNY   61  43  51 CALM      30.31F                  
6HR MIN TEMP:  39; 6HR MAX TEMP:  61;                                

NEW YORK CITY  LGT RAIN  62  44  51 NE12      30.27R                  
$$
 
ANZALL-231900-
MARINE OBSERVATIONS
  
STATION/POSITION TIME  TEMP    WIND        PRES    VSBY  WAVE
                       AIR SEA DIR/SP/G                  HT/PER
                 (UTC) (F)     (DEG/KT/KT) (MB)    (MI)  (FT/S)
BOSTON BUOY      1750      57   40/  8/  8 1027.7F         3/ 8
BUZZARDS BAY     1700   59      60/ 12/ 15 1026.7F
NANTUCKET SOUND  1750   59 61   60/ 14/ 16 1025.7F         2/ 2
MASS BAY-STELLWA 1604   56 57   30/  6/  8 1027.6F  1 7/8  3/11
ISLE OF SHOALS   1700   54      30/  9/ 10 1027.4F
S OF BLOCK IS    1756      61                N/A           5/ 5
$$

......................KEY.........................
  SKY/WX - SKY CONDITION/PRESENT WEATHER
  TMP    - TEMPERATURE IN FAHRENHEIT
  DWPT   - DEWPOINT IN FAHRENHEIT
  RH     - RELATIVE HUMIDITY IN PERCENT
  WIND   - DIRECTION AND SPEED IN MPH
  PRES   - MEAN SEA LEVEL PRESSURE IN INCHES OF HG
  WCI    - WIND CHILL INDEX
  VSB    - VISIBILITY IN MILES
  HX     - HEAT INDEX
  TC     - TEMPERATURE IN CELSIUS
  VRB    - VARIABLE WIND DIRECTION
  N/A    - NOT AVAILABLE
  
