ASUS45 KBOI 212310
RWRID 

IDAHO REGIONAL WEATHER ROUNDUP
NATIONAL WEATHER SERVICE BOISE ID
500 PM MDT FRI OCT 21 2022

NOTE: "FAIR" INDICATES FEW OR NO CLOUDS BELOW 12000 FEET
WITH NO SIGNIFICANT WEATHER AND/OR OBSTRUCTIONS TO VISIBILITY

IDZ012-014-220000-
SOUTHWEST IDAHO

  
CITY           SKY/WX    TMP DP  RH WIND       PRES   REMARKS
BOISE          CLOUDY    66  36  32 N5        29.69F                  
CALDWELL       NOT AVBL                                               
MOUNTAIN HOME  CLOUDY    71  37  29 NW13      29.66F                  
$$

IDZ016-017-220000-
SOUTHCENTRAL IDAHO

  
CITY           SKY/WX    TMP DP  RH WIND       PRES   REMARKS
BURLEY         SUNNY     67  32  27 W12G22    29.72F                  
JEROME         MOSUNNY   67  33  28 W17G23    29.73F                  
TWIN FALLS     MOSUNNY   68  32  26 NW9       29.75S                  
$$

IDZ019>023-220000-
SOUTHEAST IDAHO

  
CITY           SKY/WX    TMP DP  RH WIND       PRES   REMARKS
IDAHO FALLS    PTSUNNY   68  26  20 SW26G43   29.70F                  
POCATELLO      CLOUDY    68  23  18 W25       29.73F                  
REXBURG        PTSUNNY   66  27  23 SW24G37   29.67F                  
$$

IDZ006-010-011-018-031-032-220000-
CENTRAL IDAHO MOUNTAINS

  
CITY           SKY/WX    TMP DP  RH WIND       PRES   REMARKS
MCCALL         CLOUDY    51  31  46 SW6       29.73F                  
HAILEY         MOSUNNY   61  34  36 SW12G25   29.73F                  
STANLEY          N/A     56  25  30 SW6       29.75F                  
SALMON         CLOUDY    66  26  22 W9        29.54F                  
CHALLIS        CLOUDY    63  23  21 W14G26    29.63F                  
$$

IDZ002-004-006-007-026-220000-
NORTHERN IDAHO

  
CITY           SKY/WX    TMP DP  RH WIND       PRES   REMARKS
LEWISTON       RAIN      49  42  77 NE6       29.72F                  
LOWELL           N/A     48  44  86 CALM      29.77S                  
COEUR D'ALENE  RAIN      37  35  92 SW13      29.70S WCI  29          
MULLAN PASS    SNOW      28  27  96 VRB5      29.62F VSB 1/4 WCI  23  
$$
  
