ASUS42 KCHS 220025
RWRCHS

Regional Weather Roundup
National Weather Service Charleston SC
800 PM EDT FRI OCT 21 2022

NOTE: "fair" indicates few or no clouds below 12,000 feet with no
significant weather and/or obstructions to visibility.

Not all stations are quality controlled. Use data with caution,
especially dewpoint observations.

SCZ027-030-031-034>040-042>050-220100-
...Southeast South Carolina...
  
CITY           SKY/WX    TMP DP  RH WIND       PRES   REMARKS
N Charleston   CLEAR     58  43  57 CALM      30.11R                  
6HR MIN TEMP:  56; 6HR MAX TEMP:  71;                                

Waterfront Prk   N/A     65  50  58 VRB3      29.96R                  
Mount Pleasant FAIR      54  50  87 CALM      30.11R                  
Johns Island   FAIR      54  48  82 CALM      30.12R                  
Pinopolis        N/A     59  45  58 CALM        N/A                   
Moncks Corner  FAIR      50  43  76 CALM      30.12R                  
Summerville    FAIR      52  46  82 CALM      30.11R                  
Beaufort MCAS  CLEAR     57  48  72 CALM      30.11R                  
6HR MIN TEMP:  56; 6HR MAX TEMP:  73;                                

Beaufort Arpt  FAIR      54  45  71 CALM      30.11R                  
Hilton Head Is CLEAR     54  45  71 CALM      30.11R                  
Walterboro     CLEAR     50  45  81 CALM      30.13R                  
Allendale      FAIR      54  37  54 CALM      30.11R                  

...Southern Midlands and Pee Dee...
  
CITY           SKY/WX    TMP DP  RH WIND       PRES   REMARKS
Georgetown     FAIR      50  46  87 CALM      30.12S                  
Kingstree      FAIR      46  41  81 CALM      30.12R                  
Orangeburg     CLEAR     53  42  66 CALM      30.11R                  
6HR MIN TEMP:  53; 6HR MAX TEMP:  70;                                

Barnwell       FAIR      52  37  58 CALM      30.12R                  
Aiken          FAIR      51  37  57 CALM      30.12R                  
Manning        FAIR      48  41  76 CALM      30.12R                  
Columbia       CLEAR     54  39  57 CALM      30.11R                  
6HR MIN TEMP:  53; 6HR MAX TEMP:  71;                                

Sumter         CLEAR     52  40  64 CALM      30.10R                  
6HR MIN TEMP:  52; 6HR MAX TEMP:  72;                                

Florence       CLEAR     51  41  68 CALM      30.12R                  
6HR MIN TEMP:  51; 6HR MAX TEMP:  71;                                

Myrtle Beach   CLEAR     56  49  77 CALM      30.12R                  
N Myrtle Beach PTCLDY    53  48  83 CALM      30.10R                  
6HR MIN TEMP:  53; 6HR MAX TEMP:  69;                                


$$
 
GAZ063-065-086>088-099>101-113>116-118-119-134>141-150-220100-
...Southeast Georgia...
  
CITY           SKY/WX    TMP DP  RH WIND       PRES   REMARKS
Savannah Arpt  CLEAR     57  39  51 CALM      30.11R                  
6HR MIN TEMP:  56; 6HR MAX TEMP:  72;                                

Hunter AAF     CLEAR     56  42  60 CALM      30.08R                  
6HR MIN TEMP:  56; 6HR MAX TEMP:  72;                                

Fort Stewart   CLEAR     52  44  73 CALM      30.07R                  
6HR MIN TEMP:  52; 6HR MAX TEMP:  71;                                

Statesboro     CLEAR     50  41  71 CALM      30.11R                  
Sylvania       CLEAR     50  43  77 CALM      30.12R                  
Claxton        FAIR      51  43  76 CALM      30.11R                  
Millen         FAIR      50  39  65 CALM      30.13R                  
Metter         FAIR      53  40  62 CALM      30.11R                  
Reidsville     FAIR      50  38  62 CALM      30.11R                  

...CSRA, Central and far Southeast Georgia...
  
CITY           SKY/WX    TMP DP  RH WIND       PRES   REMARKS
Thomson        CLEAR     50  40  67 CALM      30.12R                  
Augusta-Bush   CLEAR     50  39  66 CALM      30.10R                  
6HR MIN TEMP:  48; 6HR MAX TEMP:  70;                                

Augusta-Daniel CLEAR     60  31  33 CALM      30.11R                  
Swainsboro     FAIR      52  43  71 CALM      30.12R                  
Vidalia        CLEAR     54  41  62 CALM      30.11R                  
Eastman        FAIR      50  39  66 CALM      30.12R                  
Hazlehurst     FAIR      53  43  67 CALM      30.10R                  
Alma           CLEAR     52  39  61 CALM      30.09R                  
6HR MIN TEMP:  52; 6HR MAX TEMP:  73;                                

Waycross       CLEAR     53  46  78 CALM      30.10R                  
Jesup          FAIR      52  37  58 CALM      30.14R                  
Baxley         FAIR     N/A N/A N/A CALM      30.10S                  
Brunswick      CLEAR     50  44  78 CALM      30.11R                  
Saint Simons   CLEAR     61  40  45 NE6       30.09R                  
6HR MIN TEMP:  61; 6HR MAX TEMP:  70;                                


$$

SCZ027-028-034-036>038-045-046-048>050-GAZ119-141-220100-
...Lake and Supplemental Coastal Observations...
  
STATION/POSITION TIME  TEMP    WIND        PRES    WAVE   SWELL
                       AIR SEA DIR/SP/G            HT/PER HT/PER/DIR
                 (UTC) (F)     (DEG/KT/KT) (MB)    (FT/S) (FT/S/D)
Winyah Bay       2345   55     310/  2     1020.0R
Lake Murray      2320   61      CALM  /  1   N/A
Chrlstn Harbor   2336      71   50/  6/  7 1017.9
ACE Basin NERRS  2330   55        CALM     1021.0R
Fort Pulaski     2336      70   90/  7/  8 1019.3
Sapelo Island    0000   54      60/  5     1019.0

$$

ANZ835-935-AMZ111-154-330-350-352-354-370-450-454-472-220100-
...C-MAN and Buoy Observations...
  
STATION/POSITION TIME  TEMP    WIND        PRES    WAVE   SWELL
                       AIR SEA DIR/SP/G            HT/PER HT/PER/DIR
                 (UTC) (F)     (DEG/KT/KT) (MB)    (FT/S) (FT/S/D)
Buoy 41004       0010   67 78   20/ 12/ 14 1019.3
Buoy 41008       2350   67 73   50/ 12/ 14 1018.4R   2/10   2/110/10
Folly Beach CMAN 0000   66      50/  9/ 11 1019.8R
Chas Pilot Buoy  2308   67 74   50/ 10/ 16 1018.7R
Chas Pilot Wave  NOT AVBL
Capers Nearshore NOT AVBL
Capers NS Wave   NOT AVBL
Fripp Nearshore  NOT AVBL

  
STATION/POSITION TIME  TEMP    WIND        PRES    WAVE   SWELL
                       AIR SEA DIR/SP/G            HT/PER HT/PER/DIR
                 (UTC) (F)     (DEG/KT/KT) (MB)    (FT/S) (FT/S/D)
5E St. Marys GA  2330   67 73                N/A     2/ 4
Frying Pan Buoy  0010   68 77   40/ 14/ 16 1019.0
Buoy 41025       0010      77   30/ 16/ 19 1018.9
Cape Lookout NC  0000   64      20/ 12/ 14 1019.9R
Buoy 41002       0010   75 78   40/ 14/ 17 1014.9
Buoy 41010       0010   76 82   40/ 14/ 17 1015.9
St Augustine FL  0000   68 72   10/ 16/ 18 1018.7R


$$
  
