ASUS42 KCHS 220125
RWRCHS

Regional Weather Roundup
National Weather Service Charleston SC
900 PM EDT FRI OCT 21 2022

NOTE: "fair" indicates few or no clouds below 12,000 feet with no
significant weather and/or obstructions to visibility.

Not all stations are quality controlled. Use data with caution,
especially dewpoint observations.

SCZ027-030-031-034>040-042>050-220200-
...Southeast South Carolina...
  
CITY           SKY/WX    TMP DP  RH WIND       PRES   REMARKS
N Charleston   CLEAR     53  45  74 CALM      30.13R                  
Waterfront Prk   N/A     64  51  62 E6        29.98R                  
Mount Pleasant FAIR      52  50  93 CALM      30.13R                  
Johns Island   FAIR      52  46  82 NW3       30.13S                  
Pinopolis        N/A     59  45  58 CALM        N/A                   
Moncks Corner  FAIR      46  43  87 CALM      30.13S                  
Summerville    FAIR      48  46  93 CALM      30.12S                  
Beaufort MCAS  CLEAR     53  47  79 CALM      30.13R                  
Beaufort Arpt  FAIR      54  46  76 CALM      30.13R                  
Hilton Head Is CLEAR     52  45  76 CALM      30.13R                  
Walterboro     CLEAR     46  45  93 CALM      30.14S                  
Allendale      FAIR      50  37  62 CALM      30.13R                  

...Southern Midlands and Pee Dee...
  
CITY           SKY/WX    TMP DP  RH WIND       PRES   REMARKS
Georgetown     FAIR      46  45  93 CALM      30.13S                  
Kingstree      FAIR      45  41  87 CALM      30.14R                  
Orangeburg     CLEAR     50  42  74 CALM      30.13R                  
Barnwell       FAIR      48  37  66 CALM      30.13S                  
Aiken          FAIR      48  36  63 E3        30.13S                  
Manning        FAIR      45  41  87 CALM      30.14R THUNDER          
Columbia       CLEAR     50  39  66 W3        30.13R                  
Sumter         CLEAR     50  37  60 CALM      30.12R                  
Florence       CLEAR     50  40  68 CALM      30.14R                  
Myrtle Beach   CLEAR     55  47  74 CALM      30.13R                  
N Myrtle Beach CLEAR     51  48  89 CALM      30.12R                  

$$
 
GAZ063-065-086>088-099>101-113>116-118-119-134>141-150-220200-
...Southeast Georgia...
  
CITY           SKY/WX    TMP DP  RH WIND       PRES   REMARKS
Savannah Arpt  CLEAR     53  41  63 CALM      30.13R                  
Hunter AAF     CLEAR     51  42  72 CALM      30.10R                  
Fort Stewart   CLEAR     49  42  76 CALM      30.10R                  
Statesboro     CLEAR     47  41  80 CALM      30.13R                  
Sylvania       CLEAR     46  42  84 CALM      30.14R                  
Claxton        FAIR      47  43  84 CALM      30.13R                  
Millen         FAIR      47  38  71 CALM      30.14R                  
Metter         FAIR      50  41  71 CALM      30.13R                  
Reidsville     FAIR      51  37  59 CALM      30.12R                  

...CSRA, Central and far Southeast Georgia...
  
CITY           SKY/WX    TMP DP  RH WIND       PRES   REMARKS
Thomson        CLEAR     46  40  77 CALM      30.13S                  
Augusta-Bush   CLEAR     47  39  74 CALM      30.12R                  
Augusta-Daniel CLEAR     59  31  34 CALM      30.13R                  
Swainsboro     FAIR      50  41  71 CALM      30.14R                  
Vidalia        CLEAR     52  41  66 CALM      30.13R                  
Eastman        FAIR      45  39  81 CALM      30.13S                  
Hazlehurst     FAIR      51  40  64 CALM      30.12R                  
Alma           CLEAR     50  39  66 CALM      30.11R                  
Waycross       CLEAR     51  49  94 CALM      30.12R                  
Jesup          FAIR      50  37  62 CALM      30.15R                  
Baxley         FAIR     N/A N/A N/A CALM      30.12R                  
Brunswick      CLEAR     46  43  89 CALM      30.12R                  
Saint Simons   CLEAR     61  42  49 NE6       30.11R                  

$$

SCZ027-028-034-036>038-045-046-048>050-GAZ119-141-220200-
...Lake and Supplemental Coastal Observations...
  
STATION/POSITION TIME  TEMP    WIND        PRES    WAVE   SWELL
                       AIR SEA DIR/SP/G            HT/PER HT/PER/DIR
                 (UTC) (F)     (DEG/KT/KT) (MB)    (FT/S) (FT/S/D)
Winyah Bay       0045   52     310/  4     1020.0S
Lake Murray      0120   55        CALM       N/A
Chrlstn Harbor   0042      71   30/  6/  7   N/A
ACE Basin NERRS  0045   52        CALM     1022.0R
Fort Pulaski     0042      70   80/  6/  7   N/A
Sapelo Island    0100   51      50/  3     1020.0

$$

ANZ835-935-AMZ111-154-330-350-352-354-370-450-454-472-220200-
...C-MAN and Buoy Observations...
  
STATION/POSITION TIME  TEMP    WIND        PRES    WAVE   SWELL
                       AIR SEA DIR/SP/G            HT/PER HT/PER/DIR
                 (UTC) (F)     (DEG/KT/KT) (MB)    (FT/S) (FT/S/D)
Buoy 41004       0110      78   20/ 10/ 14 1019.6
Buoy 41008       0050   67 73   40/ 12/ 16 1018.9R   2/10   2/100/10
Folly Beach CMAN 0100   66      40/  8/ 10 1020.4R
Chas Pilot Buoy  NOT AVBL
Chas Pilot Wave  NOT AVBL
Capers Nearshore 0008   66 70   40/ 10/ 16 1019.3R
Capers NS Wave   0035      70                N/A
Fripp Nearshore  0008   66 71   60/  6/ 10 1019.0R

  
STATION/POSITION TIME  TEMP    WIND        PRES    WAVE   SWELL
                       AIR SEA DIR/SP/G            HT/PER HT/PER/DIR
                 (UTC) (F)     (DEG/KT/KT) (MB)    (FT/S) (FT/S/D)
5E St. Marys GA  0030   67 73                N/A     2/10
Frying Pan Buoy  0110   68 76   30/ 16/ 17 1019.1
Buoy 41025       0110      77   30/ 16/ 17 1019.2
Cape Lookout NC  0100   64      20/ 13/ 16 1020.4R
Buoy 41002       0110   75 78   40/ 16/ 19 1015.2
Buoy 41010       0110   76      50/ 14/ 17 1016.5
St Augustine FL  0100   68 72   10/ 14/ 16 1019.3R


$$
  
