ASUS42 KCAE 220110
RWRCAE
REGIONAL WEATHER ROUNDUP
NATIONAL WEATHER SERVICE COLUMBIA SC
900 PM EDT FRI OCT 21 2022

NOTE: "FAIR" INDICATES FEW OR NO CLOUDS BELOW 12,000 FEET WITH NO
SIGNIFICANT WEATHER AND/OR OBSTRUCTIONS TO VISIBILITY.

NOT ALL STATIONS ARE QUALITY CONTROLLED BY THE NATIONAL 
WEATHER SERVICE. USE DATA WITH CAUTION...ESPECIALLY 
DEWPOINT OBSERVATIONS.

SCZ001>059-115-116-135>137-GAZ040-063>065-077-220200-
...UPSTATE SOUTH CAROLINA...
  
CITY           SKY/WX    TMP DP  RH WIND       PRES   REMARKS
ANDERSON       CLEAR     50  36  58 CALM      30.13R                  
LIBERTY        CLEAR     46  37  69 MISG      30.13R                  
SPARTANBURG    CLEAR     46  36  66 CALM      30.13R                  
CLEMSON        CLEAR     53  41  63 CALM      30.13R                  
GREENVILLE     CLEAR     57  32  38 CALM      30.14R                  
GREENWOOD      CLEAR     47  34  60 CALM      30.15R                  
GREER          CLEAR     47  34  60 CALM      30.14R                  
ROCK HILL      CLEAR     46  34  62 CALM      30.14R                  
CHESTER        CLEAR     46  32  57 CALM      30.14S                  
LAURENS        CLEAR     46  34  61 SE3       30.14R                  


...CENTRAL SOUTH CAROLINA...
  
CITY           SKY/WX    TMP DP  RH WIND       PRES   REMARKS
COLUMBIA APT   CLEAR     50  39  66 W3        30.13R                  
COLUMBIA OWENS CLEAR     51  42  71 CALM      30.14R                  
MCENTIRE ANGB  CLEAR     46  41  84 CALM      30.11R                  
ORANGEBURG     CLEAR     50  42  74 CALM      30.13R                  
SUMTER SHAW    CLEAR     50  37  60 CALM      30.12R                  
NEWBERRY       CLEAR     48  36  61 CALM      30.16R                  
AIKEN          FAIR      50  36  59 CALM      30.13R                  
BARNWELL       FAIR      52  37  58 CALM      30.13R                  
MANNING        FAIR      46  41  81 CALM      30.14R                  
CAMDEN         FAIR      48  36  61 CALM      30.14R                  
LANCASTER      MOCLDY    48  37  66 CALM      30.14R                  
WINNSBORO      CLEAR     52  36  54 CALM      30.13S                  


...EASTERN AND COASTAL SOUTH CAROLINA...
  
CITY           SKY/WX    TMP DP  RH WIND       PRES   REMARKS
MYRTLE BEACH   CLEAR     55  47  74 CALM      30.13R                  
N MYRTLE BCH   CLEAR     51  48  89 CALM      30.12R                  
CONWAY         FAIR      46  45  93 CALM      30.13R                  
MARION         FAIR      48  41  76 CALM      30.14R                  
HARTSVILLE     MOCLDY    48  32  53 CALM      30.13R                  
FLORENCE       CLEAR     50  40  68 CALM      30.14R                  
DARLINGTON     CLEAR     48  37  65 CALM      30.14R                  
CHARLESTON APT CLEAR     53  45  74 CALM      30.13R                  
MOUNT PLEASANT FAIR      52  50  93 CALM      30.12R                  
WALTERBORO     CLEAR     46  43  87 CALM      30.14R                  
BEAUFORT       CLEAR     53  47  79 CALM      30.13R                  
HILTON HEAD    CLEAR     52  45  76 CALM      30.13R                  


...EASTERN GEORGIA...
  
CITY           SKY/WX    TMP DP  RH WIND       PRES   REMARKS
AUGUSTA BUSH F CLEAR     47  39  74 CALM      30.12R                  
AUGUSTA DANIEL CLEAR     59  31  34 CALM      30.13R                  
THOMSON        CLEAR     47  40  75 CALM      30.13R                  
WASHINGTON     FAIR      50  36  58 CALM      30.13S                  
CLAXTON        FAIR      48  43  82 CALM      30.13R                  
SYLVANIA       CLEAR     48  42  79 CALM      30.14R                  
STATESBORO     CLEAR     48  41  76 CALM      30.13R                  
SAVANNAH       CLEAR     53  41  63 CALM      30.13R                  


...SOUTHERN NORTH CAROLINA...
  
CITY           SKY/WX    TMP DP  RH WIND       PRES   REMARKS
CHARLOTTE      CLEAR     49  32  52 CALM      30.14R                  
MONROE         CLEAR     48  37  65 CALM      30.13R                  
WADESBORO      CLEAR     46  36  69 CALM      30.14R                  
ROCKINGHAM     CLEAR     52  36  55 CALM      30.14R                  
RUTHERFORDTON  CLEAR     46  34  61 CALM      30.15R                  
ASHEVILLE      CLEAR     48  31  51 CALM      30.15R                  

$$
  
