ASUS43 KLMK 232102
RWRKY 
KENTUCKY REGIONAL WEATHER ROUNDUP
NATIONAL WEATHER SERVICE LOUISVILLE KY
500 PM EDT SUN OCT 23 2022

NOTE "FAIR" INDICATES FEW OR NO CLOUDS BELOW 12,000 FEET
WITH NO SIGNIFICANT WEATHER AND/OR OBSTRUCTIONS TO VISIBILITY.

KYZ001>023-026-027-061>063-070>075-232200-
WESTERN AND SOUTH CENTRAL KENTUCKY
  
CITY           SKY/WX    TMP DP  RH WIND       PRES   REMARKS
PADUCAH        SUNNY     80  51  36 S10G25    29.95F                  
HENDERSON      MOSUNNY   78  46  32 S14G23    29.99F                  
OWENSBORO      MOSUNNY   79  48  33 S15G21    30.01S                  
HOPKINSVILLE   MOSUNNY   79  42  27 S10       30.01S                  
BOWLING GREEN  MOSUNNY   77  44  30 S10       30.06S                  
GLASGOW        NOT AVBL                                               
$$

KYZ024-025-028>034-038-045-046-053-232200-
NORTH CENTRAL KENTUCKY
  
CITY           SKY/WX    TMP DP  RH WIND       PRES   REMARKS
LOUISVILLE/SDF MOSUNNY   79  45  29 S14       30.05S                  
LOUISVILLE/LOU SUNNY     77  45  32 S10       30.05F                  
FORT KNOX      SUNNY     77  44  30 S14       30.04S                  
$$

KYZ035>037-039>044-047>052-055>060-089>105-232200-
NORTHEAST KENTUCKY
  
CITY           SKY/WX    TMP DP  RH WIND       PRES   REMARKS
LEXINGTON      SUNNY     77  41  27 S12       30.09F                  
COVINGTON      MOSUNNY   76  45  33 S9        30.07F                  
FRANKFORT      SUNNY     77  42  28 SE13G23   30.07F                  
$$

KYZ054-064>069-076>088-106>120-232200-
SOUTHEAST KENTUCKY
  
CITY           SKY/WX    TMP DP  RH WIND       PRES   REMARKS
JACKSON        SUNNY     75  40  28 VRB5      30.13F                  
LONDON         SUNNY     75  35  23 SE6       30.12F                  
SOMERSET       SUNNY     75  39  27 VRB6      30.08F                  
MIDDLESBORO    NOT AVBL                                               
MONTICELLO     CLEAR     76  41  28 S10       30.11F                  
$$

  
