ASUS43 KLMK 231702
RWRKY 
KENTUCKY REGIONAL WEATHER ROUNDUP
NATIONAL WEATHER SERVICE LOUISVILLE KY
100 PM EDT SUN OCT 23 2022

NOTE "FAIR" INDICATES FEW OR NO CLOUDS BELOW 12,000 FEET
WITH NO SIGNIFICANT WEATHER AND/OR OBSTRUCTIONS TO VISIBILITY.

KYZ001>023-026-027-061>063-070>075-231800-
WESTERN AND SOUTH CENTRAL KENTUCKY
  
CITY           SKY/WX    TMP DP  RH WIND       PRES   REMARKS
PADUCAH        PTSUNNY   76  56  49 S14G30    30.03F                  
HENDERSON      SUNNY     77  52  41 S20G31    30.05F                  
OWENSBORO      SUNNY     77  52  41 S18G24    30.07F                  
HOPKINSVILLE   SUNNY     77  46  32 S13       30.09F                  
BOWLING GREEN  SUNNY     76  45  33 S17       30.14F                  
GLASGOW        NOT AVBL                                               
$$

KYZ024-025-028>034-038-045-046-053-231800-
NORTH CENTRAL KENTUCKY
  
CITY           SKY/WX    TMP DP  RH WIND       PRES   REMARKS
LOUISVILLE/SDF SUNNY     76  48  37 S14       30.12F                  
LOUISVILLE/LOU SUNNY     75  48  38 S15       30.13F                  
FORT KNOX      SUNNY     76  47  35 S14G21    30.11F                  
$$

KYZ035>037-039>044-047>052-055>060-089>105-231800-
NORTHEAST KENTUCKY
  
CITY           SKY/WX    TMP DP  RH WIND       PRES   REMARKS
LEXINGTON      SUNNY     75  44  33 S8        30.17F                  
COVINGTON      MOSUNNY   74  50  42 S14G23    30.14F                  
FRANKFORT      SUNNY     75  47  36 SW10      30.15F                  
$$

KYZ054-064>069-076>088-106>120-231800-
SOUTHEAST KENTUCKY
  
CITY           SKY/WX    TMP DP  RH WIND       PRES   REMARKS
JACKSON        SUNNY     71  42  35 VRB5      30.22F                  
LONDON         SUNNY     70  42  36 S7        30.21F                  
SOMERSET       SUNNY     73  43  33 VRB5      30.18F                  
MIDDLESBORO    NOT AVBL                                               
MONTICELLO     SUNNY     74  43  32 SW9       30.21F                  
$$

  
