ASUS43 KJKL 232110
RWRJKL

EAST KENTUCKY HOURLY WEATHER ROUNDUP
NATIONAL WEATHER SERVICE JACKSON KY
500 PM EDT SUN OCT 23 2022

NOTE: "FAIR" INDICATES FEW OR NO CLOUDS BELOW 12,000 FEET WITH
NO SIGNIFICANT WEATHER AND/OR OBSTRUCTIONS TO VISIBILITY.

* THESE REPORTS ARE NOT UNDER NWS QUALITY CONTROL AND MAY NOT
  REPORT WEATHER SUCH AS PRECIPITATION AND FOG.

KYZ079-080-083-085-087-088-110-112-115-119-120-232200
...EASTERN KENTUCKY...
  
CITY           SKY/WX    TMP DP  RH WIND       PRES   REMARKS
JACKSON        SUNNY     75  40  28 VRB5      30.13F                  
LONDON         SUNNY     75  35  23 SE6       30.12F                  
SOMERSET*      SUNNY     75  39  27 VRB6      30.08F                  
MONTICELLO*    MOSUNNY   76  41  28 S10       30.11F                  
WILLIAMSBURG*  FAIR      73  36  25 SE8       30.12S                  
MIDDLESBORO*   SUNNY     74  40  29 S3        30.14F                  
HARLAN APT*    CLEAR     73  38  28 CALM      30.15S                  
PIKE CO APT*   FAIR      73  41  32 SE3       30.15F                  
BIG SANDY APT* CLEAR     75  42  30 S3        30.14F                  
MOREHEAD APT*  CLEAR     75  36  23 VRB6G13   30.13S                  
ASHLAND*       SUNNY     77  46  33 E7        30.11F                  
$$

KYZ035-036-041-042-044-050-067-078-099-232200
...CENTRAL KENTUCKY...
  
CITY           SKY/WX    TMP DP  RH WIND       PRES   REMARKS
MT STERLING*   SUNNY     77  37  24 S9        30.12F                  
FLEMING/MASON* SUNNY     76  41  28 S10       30.11F                  
DANVILLE*      SUNNY     73  39  29 CALM      30.10F                  
RICHMOND*      FAIR      77  41  27 SE8       30.11F                  
LEXINGTON      SUNNY     77  41  27 S12       30.09F                  
FRANKFORT      SUNNY     77  42  28 SE13G23   30.07F                  
LOUISVILLE     MOSUNNY   79  45  29 S14       30.05S                  
LEBANON*       FAIR      75  41  29 S12       30.09S                  
GLASGOW*       MOSUNNY   77  47  34 S9        30.07F                  
BOWLING GREEN  MOSUNNY   77  44  30 S10       30.06S                  
$$

KYZ091>093-OHZ055-061-077-WVZ005-015-034-035-042-232200
...SOUTHERN OHIO/WEST VIRGINIA...
  
CITY           SKY/WX    TMP DP  RH WIND       PRES   REMARKS
COVINGTON      MOSUNNY   76  45  33 S9        30.07F                  
COLUMBUS       MOSUNNY   76  43  30 SE9       30.10F                  
DAYTON         SUNNY     76  47  35 S10G18    30.08F                  
WILMINGTON     SUNNY     76  46  34 SE9       30.09F                  
HUNTINGTON     SUNNY     76  41  28 VRB3      30.11F                  
CHARLESTON     MOSUNNY   74  41  30 S3        30.13F                  
BECKLEY        SUNNY     71  33  24 MISG      30.18F                  
BLUEFIELD      SUNNY     67  27  22 NE8       30.20F                  
LOGAN CO APT*  FAIR      73  39  29 CALM      30.15F                  
$$

VAZ002-007-008-TNZ017-027-036-066-071-232200
...SOUTHWEST VIRGINIA/EAST TENNESSEE...
  
CITY           SKY/WX    TMP DP  RH WIND       PRES   REMARKS
WISE*          SUNNY     68  37  32 N6        30.20S                  
JONESVILLE*    FAIR      73  37  27 CALM      30.15F                  
ABINGDON*      SUNNY     76  27  16 CALM      30.17S                  
BRISTOL        SUNNY     74  37  26 CALM      30.15F                  
MORRISTOWN*    CLEAR     72  39  30 CALM      30.13S                  
SEVIERVILLE*   CLEAR     75  43  31 VRB5      30.13S                  
KNOXVILLE      MOSUNNY   74  41  30 CALM      30.12F                  
LAFOLLETTE*    CLEAR     73  36  25 VRB7      30.17F                  
OAK RIDGE      MOSUNNY   74  37  26 CALM      30.13F                  
CROSSVILLE     MOSUNNY   70  39  32 VRB6      30.14F                  
NASHVILLE      MOSUNNY   78  43  28 SE13      30.07F                  
$$

...KEY TO REMARKS...
VSB - VISIBILITY IN MILES
WCI - WIND CHILL INDEX
HX  - HEAT INDEX

$$
  
