ASUS43 KJKL 231710
RWRJKL

EAST KENTUCKY HOURLY WEATHER ROUNDUP
NATIONAL WEATHER SERVICE JACKSON KY
100 PM EDT SUN OCT 23 2022

NOTE: "FAIR" INDICATES FEW OR NO CLOUDS BELOW 12,000 FEET WITH
NO SIGNIFICANT WEATHER AND/OR OBSTRUCTIONS TO VISIBILITY.

* THESE REPORTS ARE NOT UNDER NWS QUALITY CONTROL AND MAY NOT
  REPORT WEATHER SUCH AS PRECIPITATION AND FOG.

KYZ079-080-083-085-087-088-110-112-115-119-120-231800
...EASTERN KENTUCKY...
  
CITY           SKY/WX    TMP DP  RH WIND       PRES   REMARKS
JACKSON        SUNNY     71  42  35 VRB5      30.22F                  
LONDON         SUNNY     70  42  36 S7        30.21F                  
SOMERSET*      SUNNY     73  43  33 VRB5      30.18F                  
MONTICELLO*    SUNNY     74  43  32 SW9       30.21F                  
WILLIAMSBURG*  FAIR      70  41  35 S7        30.21F                  
MIDDLESBORO*   SUNNY     70  41  34 S6        30.23F                  
HARLAN APT*    SUNNY     67  38  34 CALM      30.23F                  
PIKE CO APT*   FAIR      67  43  41 CALM      30.23F                  
BIG SANDY APT* SUNNY     71  46  39 CALM      30.22F                  
MOREHEAD APT*  SUNNY     73  45  35 VRB6      30.21F                  
ASHLAND*       SUNNY     74  49  41 CALM      30.20F                  
$$

KYZ035-036-041-042-044-050-067-078-099-231800
...CENTRAL KENTUCKY...
  
CITY           SKY/WX    TMP DP  RH WIND       PRES   REMARKS
MT STERLING*   SUNNY     72  46  40 SW8       30.21F                  
FLEMING/MASON* SUNNY     73  48  41 S8        30.20F                  
DANVILLE*      SUNNY     72  43  35 SW7       30.19F                  
RICHMOND*      FAIR      73  45  35 SW7       30.20F                  
LEXINGTON      SUNNY     75  44  33 S8        30.17F                  
FRANKFORT      SUNNY     75  47  36 SW10      30.15F                  
LOUISVILLE     SUNNY     76  48  37 S14       30.12F                  
LEBANON*       FAIR      73  43  33 S12       30.17F                  
GLASGOW*       SUNNY     74  46  37 S10G16    30.16F                  
BOWLING GREEN  SUNNY     76  45  33 S17       30.14F                  
$$

KYZ091>093-OHZ055-061-077-WVZ005-015-034-035-042-231800
...SOUTHERN OHIO/WEST VIRGINIA...
  
CITY           SKY/WX    TMP DP  RH WIND       PRES   REMARKS
COVINGTON      MOSUNNY   74  50  42 S14G23    30.14F                  
COLUMBUS       MOSUNNY   72  51  47 S5        30.18F                  
DAYTON         MOSUNNY   74  50  42 S13       30.15F                  
WILMINGTON     SUNNY     73  50  44 SW10      30.16F                  
HUNTINGTON     SUNNY     73  43  33 CALM      30.20F                  
CHARLESTON     MOSUNNY   71  45  39 VRB3      30.21F                  
BECKLEY        SUNNY     67  35  30 VRB3      30.25F                  
BLUEFIELD      SUNNY     64  34  32 VRB5      30.26F                  
LOGAN CO APT*  FAIR      70  41  35 CALM      30.23F                  
$$

VAZ002-007-008-TNZ017-027-036-066-071-231800
...SOUTHWEST VIRGINIA/EAST TENNESSEE...
  
CITY           SKY/WX    TMP DP  RH WIND       PRES   REMARKS
WISE*          SUNNY     64  37  36 N6        30.27F                  
JONESVILLE*    FAIR      70  37  30 VRB3      30.24F                  
ABINGDON*      SUNNY     70  38  31 CALM      30.25F                  
BRISTOL        MOSUNNY   67  37  33 VRB3      30.24F                  
MORRISTOWN*    SUNNY     68  39  34 CALM      30.22F                  
SEVIERVILLE*   SUNNY     70  41  35 CALM      30.22F                  
KNOXVILLE      SUNNY     70  44  39 CALM      30.22F                  
LAFOLLETTE*    SUNNY     66  46  48 SW5       30.27F                  
OAK RIDGE      SUNNY     66  44  45 W3        30.24F                  
CROSSVILLE     SUNNY     68  40  35 VRB3      30.23F                  
NASHVILLE      MOSUNNY   75  43  31 SW14G24   30.17F                  
$$

...KEY TO REMARKS...
VSB - VISIBILITY IN MILES
WCI - WIND CHILL INDEX
HX  - HEAT INDEX

$$
  
