ASUS43 KJKL 231910
RWRJKL

EAST KENTUCKY HOURLY WEATHER ROUNDUP
NATIONAL WEATHER SERVICE JACKSON KY
300 PM EDT SUN OCT 23 2022

NOTE: "FAIR" INDICATES FEW OR NO CLOUDS BELOW 12,000 FEET WITH
NO SIGNIFICANT WEATHER AND/OR OBSTRUCTIONS TO VISIBILITY.

* THESE REPORTS ARE NOT UNDER NWS QUALITY CONTROL AND MAY NOT
  REPORT WEATHER SUCH AS PRECIPITATION AND FOG.

KYZ079-080-083-085-087-088-110-112-115-119-120-232000
...EASTERN KENTUCKY...
  
CITY           SKY/WX    TMP DP  RH WIND       PRES   REMARKS
JACKSON        SUNNY     75  38  26 MISG      30.17F                  
LONDON         SUNNY     73  37  27 S3        30.15F                  
SOMERSET*      SUNNY     75  43  31 S8        30.12F                  
MONTICELLO*    SUNNY     77  43  29 SW8       30.15F                  
WILLIAMSBURG*  FAIR      73  36  25 SE8       30.15F                  
MIDDLESBORO*   SUNNY     74  41  30 S3        30.17F                  
HARLAN APT*    CLEAR     73  40  30 S5        30.17F                  
PIKE CO APT*   FAIR      73  44  36 CALM      30.18F                  
BIG SANDY APT* CLEAR     75  45  34 CALM      30.17F                  
MOREHEAD APT*  CLEAR     75  39  27 SE7G15    30.15F                  
ASHLAND*       SUNNY     76  50  40 CALM      30.15F                  
$$

KYZ035-036-041-042-044-050-067-078-099-232000
...CENTRAL KENTUCKY...
  
CITY           SKY/WX    TMP DP  RH WIND       PRES   REMARKS
MT STERLING*   SUNNY     77  43  29 SW6       30.15F                  
FLEMING/MASON* SUNNY     75  46  35 S6        30.15F                  
DANVILLE*      SUNNY     73  41  31 S6        30.14F                  
RICHMOND*      FAIR      77  43  29 S5        30.14F                  
LEXINGTON      SUNNY     76  42  29 S14G21    30.12F                  
FRANKFORT      SUNNY     77  46  33 S8G21     30.10F                  
LOUISVILLE     MOSUNNY   79  47  32 S22       30.07F                  
LEBANON*       FAIR      75  45  33 S13       30.12F                  
GLASGOW*       SUNNY     76  48  37 SW9G17    30.11F                  
BOWLING GREEN  SUNNY     78  45  30 S16G22    30.08F                  
$$

KYZ091>093-OHZ055-061-077-WVZ005-015-034-035-042-232000
...SOUTHERN OHIO/WEST VIRGINIA...
  
CITY           SKY/WX    TMP DP  RH WIND       PRES   REMARKS
COVINGTON      MOSUNNY   76  48  37 S12       30.10F                  
COLUMBUS       MOSUNNY   77  46  33 S9        30.13F                  
DAYTON         MOSUNNY   75  48  38 S17       30.12F                  
WILMINGTON     MOSUNNY   75  48  38 S9G18     30.12F                  
HUNTINGTON     SUNNY     77  42  28 VRB5      30.15F                  
CHARLESTON     SUNNY     75  43  31 VRB5      30.16F                  
BECKLEY        SUNNY     70  33  25 CALM      30.20F                  
BLUEFIELD      SUNNY     66  31  27 NE9       30.22F                  
LOGAN CO APT*  FAIR      73  41  31 VRB7      30.17F                  
$$

VAZ002-007-008-TNZ017-027-036-066-071-232000
...SOUTHWEST VIRGINIA/EAST TENNESSEE...
  
CITY           SKY/WX    TMP DP  RH WIND       PRES   REMARKS
WISE*          SUNNY     68  37  32 CALM      30.22F                  
JONESVILLE*    FAIR      73  39  29 CALM      30.18F                  
ABINGDON*      SUNNY     75  32  20 E3        30.19F                  
BRISTOL        SUNNY     72  38  29 E3        30.18F                  
MORRISTOWN*    CLEAR     72  39  30 VRB6      30.16F                  
SEVIERVILLE*   CLEAR     73  41  31 E3        30.16F                  
KNOXVILLE      SUNNY     72  42  34 CALM      30.16F                  
LAFOLLETTE*    CLEAR     73  36  25 S7        30.21F                  
OAK RIDGE      SUNNY     72  40  31 CALM      30.18F                  
CROSSVILLE     SUNNY     69  39  33 S8        30.18F                  
NASHVILLE      MOSUNNY   78  44  29 S15G23    30.11F                  
$$

...KEY TO REMARKS...
VSB - VISIBILITY IN MILES
WCI - WIND CHILL INDEX
HX  - HEAT INDEX

$$
  
