ASUS46 KSTO 231804
RWRCA 

NORTHERN AND CENTRAL CA REGIONAL WEATHER ROUNDUP
NATIONAL WEATHER SERVICE SACRAMENTO CA 
1100 AM PDT SUN OCT 23 2022

NOTE: FAIR INDICATES FEW OR NO CLOUDS BELOW 12,000 FEET WITH NO
SIGNIFICANT WEATHER AND/OR OBSTRUCTIONS TO VISIBILITY.

CAZ001-003-231900-
NORTHWEST AREA
  
CITY           SKY/WX    TMP DP  RH WIND       PRES   REMARKS
CRESCENT CITY  SUNNY     54  44  69 N7        30.18R HAZE             
UKIAH          SUNNY     60  35  39 N8        30.05F                  
$$

CAZ006-505>513-231900-
BAY AREA
  
CITY           SKY/WX    TMP DP  RH WIND       PRES   REMARKS
SANTA ROSA     SUNNY     63  34  33 N13       30.04S                  
SAN RAFAEL     N/A       63  MM  MM MISG
NAPA           SUNNY     68  33  27 N20       30.00F                  
CONCORD        SUNNY     63  34  33 NW8       30.01S                  
OAKLAND CITY   N/A       57  MM  MM MISG
OAKLAND        SUNNY     62  39  42 NW13      30.02S                  
SAN FRAN CITY  N/A       61  MM  36 MISG
SAN FRAN ARPT  SUNNY     61  41  47 CALM      30.02S                  
LIVERMORE      SUNNY     59  37  44 W7        30.01R                  
HAYWARD        SUNNY     61  38  42 VRB5      30.01S                  
REDWOOD CITY   N/A       58  MM  52 MISG
MOFFETT ARPT   SUNNY     59  43  55 NW8       30.02S                  
SAN JOSE ARPT  SUNNY     61  39  44 NW13      30.02R                  
$$
CAZ034-037-514>518-231900-
CENTRAL COAST
  
CITY           SKY/WX    TMP DP  RH WIND       PRES   REMARKS
WATSONVILLE    SUNNY     58  45  62 S5        30.01R                  
SALINAS        SUNNY     62  41  46 NW6       30.00R                  
MONTEREY       SUNNY     58  43  57 NW6       30.02R                  
SAN LUIS OBISP SUNNY     64  40  41 N15       29.94S                  
SANTA MARIA    SUNNY     62  43  49 NW10      29.93S                  
HALF MOON BAY    N/A     59  48  67 MISG      30.02S                  
$$
CAZ015-016-231900-
NORTHERN SACRAMENTO VALLEY
  
CITY           SKY/WX    TMP DP  RH WIND       PRES   REMARKS
RED BLUFF      SUNNY     62  30  29 N16       30.07F                  
OROVILLE       SUNNY     65  30  27 NW12G21   30.02S                  
$$
CAZ016>018-231900-
SOUTHERN SACRAMENTO VALLEY
  
CITY           SKY/WX    TMP DP  RH WIND       PRES   REMARKS
AUBURN         SUNNY     59  25  27 VRB7      29.97S                  
BEALE AFB      SUNNY     62  33  33 NW16      29.98S                  
LINCOLN        FAIR      64  28  25 NW20      29.97S                  
MARYSVILLE     SUNNY     64  32  30 NW17      30.00S                  
SAC INTL ARPT  SUNNY     66  32  28 NW22G29   29.98S                  
MATHER AIRPORT SUNNY     63  30  29 N18       29.96S                  
DOWNTOWN SAC   N/A       64  MM  MM MISG
SAC EXEC ARPT  SUNNY     65  33  30 NW20G28   29.98S                  
VACAVILLE      SUNNY     66  29  24 N21G36    30.01R                  
TRAVIS AFB     SUNNY     66  29  25 N24G35    29.97S                  
$$
CAZ019>021-231900-
SAN JOAQUIN VALLEY
  
CITY           SKY/WX    TMP DP  RH WIND       PRES   REMARKS
STOCKTON       SUNNY     63  35  35 NW8       29.98S                  
MODESTO        SUNNY     60  32  34 NW16      29.97S                  
MERCED         SUNNY     64  33  31 NW14      29.95R                  
LEMOORE        SUNNY     66  33  29 NW25      29.95S                  
FRESNO         SUNNY     61  36  39 NW14      29.95R                  
HANFORD        SUNNY     62  35  36 NW21G26   29.95S HAZE             
PORTERVILLE    SUNNY     58  38  47 VRB5      29.97R                  
BAKERSFIELD    SUNNY     60  35  39 N10       29.96S                  
$$
CAZ011-012-071-231900-
NORTHERN MOUNTAINS
  
CITY           SKY/WX    TMP DP  RH WIND       PRES   REMARKS
YREKA          PTSUNNY   47  35  63 NE7       30.15R                  
MOUNT SHASTA   MOSUNNY   46  31  55 MISG      30.09R                  
ALTURAS        CLOUDY    38  30  73 SW7       30.08R WCI  33          
$$
CAZ011-012-071-231900-
SIERRA NEVADA MTNS
  
CITY           SKY/WX    TMP DP  RH WIND       PRES   REMARKS
BLUE CANYON    SUNNY     42  21  43 VRB7G18   29.99R                  
TRUCKEE        SUNNY     34  27  75 N3        30.03R                  
TAHOE VLY ARPT PTSUNNY   38  18  44 E12G17    29.98R WCI  30          
$$
  
