ASUS46 KLOX 232010
RWRCA 

SOUTHERN CALIFORNIA WEATHER ROUNDUP
NATIONAL WEATHER SERVICE OXNARD CALIFORNIA
100 PM PDT SUN OCT 23 2022

NOTE: "FAIR" INDICATES FEW OR NO CLOUDS BELOW 12,000 FEET WITH NO 
SIGNIFICANT WEATHER AND/OR OBSTRUCTIONS TO VISIBILITY.

  -  STATIONS PRECEEDED BY AN ASTERISK (*) ARE NOT NWS OR FAA 
     STATIONS AND ARE NOT SUBJECT TO NWS AND FAA QUALITY CONTROL.

CAZ041-042-087-232100-
LA AND ORANGE COUNTY COASTAL AREAS

  
CITY           SKY/WX    TMP DP  RH WIND       PRES   REMARKS
L.A. DOWNTOWN  SUNNY     71  38  29 CALM      29.85F                  
L.A. AIRPORT   MOSUNNY   70  54  56 SW14      29.86S                  
LONG BEACH     MOSUNNY   71  51  49 S9        29.86S                  

CITY           SKY/WX    TMP DP  RH WIND       PRES   REMARKS
AVALON           N/A     64 N/A N/A MISG        N/A                   
FULLERTON      PTSUNNY   71  48  43 VRB5      29.84F                  
HAWTHORNE      MOSUNNY   72  51  47 W13G18    29.85F                  
*LOS ALAMITOS  MOSUNNY   71  53  51 SW9       29.83F                  
SANTA ANA      MOSUNNY   71  50  47 SW12      29.85F                  
STA MONICA APT SUNNY     68  52  56 SW14      29.86S                  
*STA MON PIER    N/A     64  55  73 SW20      29.81S                  
TORRANCE       MOSUNNY   73  52  46 SE12      29.85F                  
*UCLA            N/A     68  52  56 SW5       29.81                   

$$

CAZ547-548-048-232100-
LA COUNTY VALLEYS AND INLAND EMPIRE

  
CITY           SKY/WX    TMP DP  RH WIND       PRES   REMARKS
BURBANK        SUNNY     74  30  19 W9        29.84F                  
VAN NUYS       SUNNY     74  26  16 NW16G25   29.84F                  

CITY           SKY/WX    TMP DP  RH WIND       PRES   REMARKS
CORONA AIRPORT PTCLDY    69  49  48 NW5       29.85F                  
*CHATSWORTH      N/A     72  27  19 NE7       29.88F                  
CHINO          MOSUNNY   71  47  42 SW7       29.86F                  
*CLAREMONT       N/A     64  49  57 SW6         N/A                   
MARCH AFB      SUNNY     68  40  36 NW7       29.84F                  
*NORTHRIDGE      N/A     72  19  14 NW7G16      N/A                   
ONTARIO        PTSUNNY   67  49  52 CALM      29.85F                  
*PASADENA        N/A     72  52  49 NE2         N/A                   
POMONA         MOSUNNY  N/A N/A N/A SW6       29.87S                  
RIVERSIDE      MOSUNNY   69  45  41 VRB3      29.85F                  
SAN BERNARDINO SUNNY     70  37  30 W9        29.84                   
*WHITEMAN AP   SUNNY     72  28  20 W26G35    29.87F                  
*WOODLAND HILL   N/A     73  23  15 MISG        N/A                   

$$

CAZ054-055-232100-
LA AND SAN BERNARDINO COUNTY MOUNTAINS

  
CITY           SKY/WX    TMP DP  RH WIND       PRES   REMARKS
*ACTON           N/A     65  27  24 W3          N/A                   
*BIG BEAR AIRP CLEAR     46  14  27 W9G17     29.94S                  
*BIG PINES       N/A     47  22  37 NW2         N/A                   
*CHILAO          N/A     51  19  28 N10G28      N/A                   
SANDBERG         N/A     50  28  42 N14G24    29.94F                  
*WARM SPRINGS    N/A     54  21  27 NW16G32     N/A                   

$$

CAZ028-029-059-060-099-232100-
ANTELOPE VALLEY AND SURROUNDING AREAS

  
CITY           SKY/WX    TMP DP  RH WIND       PRES   REMARKS
LANCASTER      SUNNY     65  27  23 W20       29.89F                  
PALMDALE       SUNNY     61  26  26 W14G21    29.90F                  

CITY           SKY/WX    TMP DP  RH WIND       PRES   REMARKS
29 PALMS       SUNNY     67  27  22 N16G23    29.91S                  
BARSTOW/DAGGET SUNNY     64  20  18 CALM      29.87F                  
BISHOP         MOSUNNY   56  15  20 N23G30    29.92F                  
CHINA LAKE     SUNNY     65  19  17 MISG      29.87F                  
EDWARDS AFB    SUNNY     64  21  19 N6        29.86F                  
MOJAVE         SUNNY     63  23  22 W15       29.88S                  
NEEDLES        SUNNY     74  29  19 N14G25    29.79F                  
VICTORVILLE    SUNNY     61  25  25 NW12G18   29.92F                  

$$

CAZ039-040-232100-
VENTURA AND SANTA BARBARA COUNTY COAST

  
CITY           SKY/WX    TMP DP  RH WIND       PRES   REMARKS
CAMARILLO      MOSUNNY   71  51  49 SW8G17    29.86F                  
OXNARD AIRPORT MOSUNNY   68  54  60 W12       29.87F                  
*POINT MUGU    MOSUNNY   70  54  56 W10       29.87F                  
SBA APT/GOLETA SUNNY     72  39  30 MISG      29.86F                  
*VENTURA         N/A     64  54  68 SW7G14      N/A                   

$$

CAZ044-045-232100-
VENTURA COUNTY VALLEYS

  
CITY           SKY/WX    TMP DP  RH WIND       PRES   REMARKS
*SIMI VALLEY     N/A     70  36  28 N1        29.81F                  
*N 1000 OAKS     N/A     69  39  33 CALM      29.88S                  
*TO CIVIC ARTS   N/A     72  39  30 SE3         N/A                   
*WESTLAKE VILL   N/A     71  40  32 CALM      29.83F                  
*OJAI            N/A     71  52  51 W2          N/A                   
*FILLMORE        N/A     73  42  32 E2        29.90F                  

$$

CAZ053-232100-
VENTURA COUNTY MOUNTAINS

  
CITY           SKY/WX    TMP DP  RH WIND       PRES   REMARKS
*LOCKWOOD VLY    N/A     61  25  25 SW3         N/A                   
*ROSE VALLEY     N/A     61  39  44 NE6G12      N/A                   

$$

CAZ034-035-036-232100-
CENTRAL COAST AND SANTA YNEZ VALLEY

  
CITY           SKY/WX    TMP DP  RH WIND       PRES   REMARKS
SAN LUIS OBISP SUNNY     71  34  25 N14G22    29.91F                  
SANTA MARIA    SUNNY     68  42  38 W15       29.91F                  

CITY           SKY/WX    TMP DP  RH WIND       PRES   REMARKS
*CAL POLY SLO    N/A     68  43  40 N12         N/A                   
*LOMPOC        SUNNY     71  43  36 NW13G22   29.90F                  
*SANTA YNEZ    FAIR      72  27  18 CALM      29.87F                  

$$

CAZ037-038-051-232100-
SAN LUIS OBISPO COUNTY INTERIOR AND CUYAMA VALLEY

  
CITY           SKY/WX    TMP DP  RH WIND       PRES   REMARKS
PASO ROBLES    SUNNY     66  35  31 W8        29.96F                  

$$

CAZ032-033-061-232100-
SOUTHERN DESERTS

  
CITY           SKY/WX    TMP DP  RH WIND       PRES   REMARKS
BLYTHE         SUNNY     76  34  21 NW10      29.77F                  
IMPERIAL       NOT AVBL                                               
PALM SPRINGS   SUNNY     76  38  25 E3        29.80F                  
THERMAL        SUNNY     77  40  26 NW6       29.76F                  

$$

ELSEWHERE ACROSS THE WESTERN UNITED STATES AND MEXICO

  
CITY           SKY/WX    TMP DP  RH WIND       PRES   REMARKS
DEATH VALLEY,    N/A     77  20  12 N6          N/A                   
DENVER, CO     PTSUNNY   66  30  26 SW24G40   29.33R                  
GRAND CANYON,  MOSUNNY   43  22  43 W12G25    29.82F                  
HONOLULU, HI   PTSUNNY   84  70  61 NE13G20   30.04R                  
KAHULUI, MAUI  SUNNY     90  64  43 VRB5      30.02R HX  91           
LAKE TAHOE, CA MOSUNNY   40  14  34 E9G17     29.99S WCI  34          
LAS VEGAS, NV  MOSUNNY   64  13  13 N25G36    29.86S                  
MAMMOTH LAKES, FAIR      43  14  31 N12G20    29.96F                  
MEXICO CITY, M MOSUNNY   77  48  36 SE7       30.21F                  
PHOENIX, AZ    MOSUNNY   76  45  33 SW12      29.72F                  
PORTLAND, OR   PTSUNNY   56  44  64 SE5       30.18S                  
RENO, NV       PTSUNNY   47  20  34 NE6G17    30.05S                  
SALT LAKE CITY PTSUNNY   43  29  57 NW18      29.82R WCI  35          
SAN DIEGO, CA  PTSUNNY   69  48  47 S8        29.88F                  
SAN FRANCISCO, SUNNY     67  41  38 NW12      30.00F                  
SAN JOSE, CA   SUNNY     66  35  31 NW12      30.00F                  
SEATTLE, WA    PTSUNNY   51  42  71 SW7       30.16S                  
TIJUANA, MEX   PTSUNNY   66  50  55 S7        29.89F                  

$$
  
STATION/POSITION TIME  TEMP    WIND        PRES    VSBY  WAVE
                       AIR SEA DIR/SP/G                  HT/PER
                 (UTC) (F)     (DEG/KT/KT) (MB)    (MI)  (FT/S)
WEST SANTA BARBA 1950   58 60  310/ 19/ 23 1012.1R        10/11
EAST SANTA BARBA 1950   63 65  250/ 12/ 16 1011.0F         4/10
SANTA MONICA BAY 1950   63 67  290/  6/  8 1012.0F         4/17
SAN CLEMENTE BAS 1950   64 69  280/  8/ 14 1010.3F         8/ 8
