ASUS46 KSGX 232010
RWRSGX

SAN DIEGO HOURLY WEATHER ROUNDUP
NATIONAL WEATHER SERVICE SAN DIEGO CA
100 PM PDT SUN OCT 23 2022

NOTE: "FAIR" INDICATES FEW OR NO CLOUDS BELOW 12,000 FEET WITH NO 
SIGNIFICANT WEATHER AND/OR OBSTRUCTIONS TO VISIBILITY.

CAZ042-043-060-061-PZZ750-775-232100-

GREATER SAN DIEGO AREA
  
CITY           SKY/WX    TMP DP  RH WIND       PRES   REMARKS
SAN DIEGO AP   PTSUNNY   69  48  47 S8        29.88F                  
BROWN FIELD    PTSUNNY   67  50  54 SW8       29.86F                  
MIRAMAR MCAS   MOSUNNY   69  47  45 S7        29.85F                  
MONTGOMERY FLD SUNNY     66  48  52 SW8       29.86F                  
GILLESPIE FLD  PTSUNNY   68  46  45 VRB7      29.87F                  
LEMON GROVE      N/A     66  52  61 S3        29.83F                  

$$

NORTH SAN DIEGO COUNTY
  
CITY           SKY/WX    TMP DP  RH WIND       PRES   REMARKS
CAMP PENDLETON MOSUNNY   68  51  54 W8        29.85F                  
OCEANSIDE AP   PTSUNNY   70  52  52 SW8       29.85F                  
OCEANSIDE HBR    N/A     67  54  63 S3        29.92F                  
VISTA            N/A     68  52  58 W1        29.83F                  
CARLSBAD       MOSUNNY   66  48  52 SW10      29.85F                  
ENCINITAS        N/A     67  55  65 W2          N/A                   
LA JOLLA SCRIP   N/A     66  55  67 CALM      29.85F                  
FALLBROOK      FAIR      66  46  48 CALM      29.86F                  
ESCONDIDO        N/A     70  50  49 SW5       29.85F                  
SAN MARCOS       N/A     67  53  59 S5        29.88F                  
RANCHO BERNARD   N/A     69  52  54 CALM      29.84F                  
POWAY            N/A     67  52  58 N3        29.87F                  

$$

EAST SAN DIEGO COUNTY
  
CITY           SKY/WX    TMP DP  RH WIND       PRES   REMARKS
RAMONA         PTSUNNY   65  49  56 SE8       29.86F                  
SANTEE           N/A     71  53  52 CALM      29.82F                  
LA MESA          N/A     68  51  55 CALM      29.80F                  
EL CAJON         N/A     67  51  56 N6        29.73F                  
ALPINE           N/A     63  50  61 CALM      30.03F                  
DESCANSO N       N/A     58  47  66 S3        29.87F                  

$$

ORANGE COUNTY AND THE LOS ANGELES BASIN
  
CITY           SKY/WX    TMP DP  RH WIND       PRES   REMARKS
JOHN WAYNE AP  MOSUNNY   71  50  47 SW12      29.85F                  
LAGUNA BEACH     N/A     71  57  60 SW2       29.85F                  
LAKE FOREST FR   N/A     67  47  49 SW1       29.72F                  
SANTA ANA        N/A     73  54  51 E8        29.84S                  
HUNTINGTON BCH   N/A     72  58  61 CALM      29.85F                  
LOS ALAMITOS   MOSUNNY   71  53  51 SW9       29.83F                  
FULLERTON      PTSUNNY   71  48  43 VRB5      29.84F                  
LONG BEACH     MOSUNNY   71  51  49 S9        29.86S                  
L.A. AP        MOSUNNY   70  54  56 SW14      29.86S                  
L.A. DOWNTOWN  SUNNY     71  38  29 CALM      29.85F                  

$$

THE INLAND EMPIRE
  
CITY           SKY/WX    TMP DP  RH WIND       PRES   REMARKS
CORONA         MOSUNNY   69  49  48 NW5       29.85F                  
UPLAND AP      FAIR      64  48  55 CALM      29.86F                  
CHINO          MOSUNNY   71  47  42 SW7       29.86F                  
ONTARIO        PTSUNNY   67  49  52 CALM      29.85F                  
SAN BERNARDINO SUNNY     70  37  30 W9        29.84                   
RIVERSIDE AP   MOSUNNY   69  45  41 VRB3      29.85F                  
MORENO VALLEY    N/A     69  49  49 NW1       29.78F                  
MARCH ARB      SUNNY     68  40  36 NW7       29.84F                  
HORSETHIEF CYN   N/A     68  40  36 NW6       29.83F                  
PERRIS           N/A     68  41  37 N2        29.88F                  
LAKE ELSINORE    N/A     67  46  47 CALM      29.77F                  
HEMET AP       FAIR      64  44  47 S10       29.85F                  
FRENCH VALLEY  FAIR      64  43  45 S3        29.86F                  
TEMECULA         N/A     67  53  59 CALM      29.87F                  

$$

SAN BERNARDINO AND RIVERSIDE COUNTY MOUNTAINS
  
CITY           SKY/WX    TMP DP  RH WIND       PRES   REMARKS
BIG BEAR AP    SUNNY     46  14  27 W9G17     29.94S                  
BIG BEAR LAKE    N/A     48  23  37 NW3       29.85S                  
WRIGHTWOOD       N/A     49  16  26 W2        29.58S                  
ANGELUS OAKS     N/A     47  39  74 CALM      29.78S                  
IDYLLWILD        N/A     50  45  83 CALM      29.74F                  
TORO PEAK        N/A     38  22  53 W3          N/A                   

$$

SOUTHERN DESERT INCLUDING THE COACHELLA VALLEY
  
CITY           SKY/WX    TMP DP  RH WIND       PRES   REMARKS
PALM SPRINGS   SUNNY     76  38  25 E3        29.80F                  
THOUSAND PALMS   N/A     77  43  29 S3        29.74F                  
INDIO            N/A     77  44  30 NW1       29.76F                  
THERMAL        SUNNY     77  40  26 NW6       29.76F                  
BORREGO AP     FAIR      75  32  20 E7        29.77F                  
OCOTILLO WELLS   N/A     80  36  20 W8        29.72F                  
CANEBRAKE        N/A     73  33  23 N5        29.71F                  
BLYTHE         SUNNY     76  34  21 NW10      29.77F                  
EL CENTRO NAS  SUNNY     80  39  23 NW9G20    29.77F                  
YUMA AZ        SUNNY     78  45  30 W9G17     29.74F                  

$$

UPPER DESERT
  
CITY           SKY/WX    TMP DP  RH WIND       PRES   REMARKS
VICTORVILLE AP SUNNY     61  25  25 NW12G18   29.92F                  
HESPERIA         N/A     60  24  25 N8        29.69S                  
APPLE VALLEY     N/A     62  30  30 CALM      29.89F                  
PALMDALE       SUNNY     61  26  26 W14G21    29.90F                  
LANCASTER      SUNNY     65  27  23 W20       29.89F                  
EDWARDS AFB    SUNNY     64  21  19 N6        29.86F                  
DAGGETT        SUNNY     64  20  18 CALM      29.87F                  
29 PALMS N     SUNNY     67  27  22 N16G23    29.91S                  
29 PALMS JTNP    N/A     68  31  25 CALM      29.74S                  
NEEDLES        SUNNY     74  29  19 N14G25    29.79F                  

$$

REGIONAL REPORTS
  
CITY           SKY/WX    TMP DP  RH WIND       PRES   REMARKS
SANTA BARBARA  SUNNY     72  39  30 MISG      29.86F                  
SANDBERG         N/A     50  28  42 N14G24    29.94F                  
LAS VEGAS NV   MOSUNNY   64  13  13 N25G36    29.86S                  
PHOENIX AZ     MOSUNNY   76  45  33 SW12      29.72F                  
TIJUANA        PTSUNNY   66  50  55 S7        29.89F                  
ENSENADA NW      N/A     69  32  25 SW1       29.83F                  

$$

OFFSHORE ISLANDS
  
CITY           SKY/WX    TMP DP  RH WIND       PRES   REMARKS
CATALINA ARPT  SUNNY     63  49  60 NE7       29.89S                  
SAN CLEMENTE I SUNNY     66  32  28 N7        29.89S                  
SAN NICOLAS IS SUNNY     66  52  60 NW15      29.89S                  

$$

MARINE AND OFFSHORE BUOY REPORTS
  
STATION/POSITION SKY/WX   TEMP    WIND        PRES    VSBY  SWELL
                          AIR SEA DIR/SP/G                  HT/PER/DIR
                          (F)     (DEG/KT/KT) (MB)    (MI)  (FT/S/D)
TANNER BANKS               62     330/ 17/ 21 1011.1F        10/310/11
S CLEMENTE BASIN           64 69  280/  8/ 14 1010.3F         8/300/ 8
SAN NICOLAS IS.               62                N/A           7/310/11
SO. S. ROSA ISLA           61 63  310/ 19/ 27 1011.8F         8/310/10
W. S. BARBARA CH           58 60  310/ 19/ 23 1012.1R         8/300/11
M. S. BARBARA CH           63 65  250/ 12/ 16 1011.0F         3/260/10
S. MONICA BASIN            63 67  290/  6/  8 1012.0F         3/170/17
S PEDRO CHANNEL               67                N/A           2/220/17
OCEANSIDE OFFSHR              70                N/A           3/200/17
TORREY PINES OTR              70                N/A           3/210/17
SAN DIEGO BAY                 68              1011.3
POINT LOMA SOUTH              69                N/A           7/190/17

$$

  
