ASUS46 KSTO 231615
RWRCA 

NORTHERN AND CENTRAL CA REGIONAL WEATHER ROUNDUP
NATIONAL WEATHER SERVICE SACRAMENTO CA 
900 AM PDT SUN OCT 23 2022

NOTE: FAIR INDICATES FEW OR NO CLOUDS BELOW 12,000 FEET WITH NO
SIGNIFICANT WEATHER AND/OR OBSTRUCTIONS TO VISIBILITY.

CAZ001-003-231700-
NORTHWEST AREA
  
CITY           SKY/WX    TMP DP  RH WIND       PRES   REMARKS
CRESCENT CITY  SUNNY     48  43  82 NE5       30.16R                  
UKIAH          SUNNY     48  37  65 VRB3      30.06R                  
$$

CAZ006-505>513-231700-
BAY AREA
  
CITY           SKY/WX    TMP DP  RH WIND       PRES   REMARKS
SANTA ROSA     SUNNY     55  36  48 N6        30.02R                  
SAN RAFAEL     N/A       53  MM  MM MISG
NAPA           SUNNY     51  40  65 SE3       30.00R                  
CONCORD        SUNNY     51  39  63 S3        30.00R                  
OAKLAND CITY   N/A       53  MM  MM MISG
OAKLAND        SUNNY     56  39  53 N9        30.00R                  
SAN FRAN CITY  N/A       55  MM  51 MISG
SAN FRAN ARPT  SUNNY     57  44  62 NW6       30.00R                  
LIVERMORE      SUNNY     49  40  71 CALM      29.99R                  
HAYWARD        SUNNY     52  41  66 CALM      30.00R                  
REDWOOD CITY   N/A       53  MM  69 MISG
MOFFETT ARPT   SUNNY     55  41  58 CALM      30.00R                  
SAN JOSE ARPT  SUNNY     53  42  66 CALM      30.00R                  
$$
CAZ034-037-514>518-231700-
CENTRAL COAST
  
CITY           SKY/WX    TMP DP  RH WIND       PRES   REMARKS
WATSONVILLE    SUNNY     50  44  80 CALM      29.99R                  
SALINAS        SUNNY     52  44  74 W3        29.98R                  
MONTEREY       SUNNY     54  43  66 CALM      29.98R                  
SAN LUIS OBISP SUNNY     59  42  53 N10       29.92R                  
SANTA MARIA    SUNNY     51  46  83 NW3       29.92R                  
HALF MOON BAY  FAIR      55  46  71 N8        30.00R                  
$$
CAZ015-016-231700-
NORTHERN SACRAMENTO VALLEY
  
CITY           SKY/WX    TMP DP  RH WIND       PRES   REMARKS
RED BLUFF      SUNNY     54  33  45 N12       30.05R                  
OROVILLE       SUNNY     52  30  43 VRB5      30.00R                  
$$
CAZ016>018-231700-
SOUTHERN SACRAMENTO VALLEY
  
CITY           SKY/WX    TMP DP  RH WIND       PRES   REMARKS
AUBURN         SUNNY     52  25  35 CALM      29.95R                  
BEALE AFB      SUNNY     51  36  55 NW14      29.97R                  
LINCOLN        FAIR      50  34  53 NW13      29.96R                  
MARYSVILLE     SUNNY     54  34  46 N17       29.98R                  
SAC INTL ARPT  SUNNY     57  34  41 N16       29.97R                  
MATHER AIRPORT SUNNY     54  34  47 N16G22    29.95R                  
DOWNTOWN SAC   N/A       54  MM  MM MISG
SAC EXEC ARPT  SUNNY     56  35  45 NW7       29.97R                  
VACAVILLE      SUNNY     61  31  32 N15G26    29.98R                  
TRAVIS AFB     SUNNY     59  31  34 N18       29.95R                  
$$
CAZ019>021-231700-
SAN JOAQUIN VALLEY
  
CITY           SKY/WX    TMP DP  RH WIND       PRES   REMARKS
STOCKTON       SUNNY     57  34  41 NW15      29.96R                  
MODESTO        SUNNY     55  34  45 NW14      29.95R                  
MERCED         SUNNY     56  36  47 N16       29.92R                  
LEMOORE        SUNNY     59  34  39 NW23G29   29.93R                  
FRESNO         SUNNY     53  36  52 NW15      29.92R                  
HANFORD        SUNNY     56  36  47 NW15G22   29.93R                  
PORTERVILLE    SUNNY     52  40  63 SW5       29.94R                  
BAKERSFIELD    SUNNY     55  39  54 CALM      29.94R                  
$$
CAZ011-012-071-231700-
NORTHERN MOUNTAINS
  
CITY           SKY/WX    TMP DP  RH WIND       PRES   REMARKS
YREKA          PTSUNNY   33  32  96 E3        30.12R                  
MOUNT SHASTA   MOSUNNY   38  30  73 VRB5      30.05R WCI  34          
ALTURAS        MOSUNNY   29  27  92 SE3       30.04R                  
$$
CAZ011-012-071-231700-
SIERRA NEVADA MTNS
  
CITY           SKY/WX    TMP DP  RH WIND       PRES   REMARKS
BLUE CANYON    SUNNY     37  20  50 VRB7      29.95R WCI  32          
TRUCKEE        SUNNY     21  19  93 CALM      30.00R                  
TAHOE VLY ARPT MOSUNNY   24  20  84 S3        29.95R                  
MAMMOTH LAKES  FAIR      34  18  51 NW12      29.92R WCI  25          
$$
  
