ASUS46 KSGX 231810
RWRSGX

SAN DIEGO HOURLY WEATHER ROUNDUP
NATIONAL WEATHER SERVICE SAN DIEGO CA
1100 AM PDT SUN OCT 23 2022

NOTE: "FAIR" INDICATES FEW OR NO CLOUDS BELOW 12,000 FEET WITH NO 
SIGNIFICANT WEATHER AND/OR OBSTRUCTIONS TO VISIBILITY.

CAZ042-043-060-061-PZZ750-775-231900-

GREATER SAN DIEGO AREA
  
CITY           SKY/WX    TMP DP  RH WIND       PRES   REMARKS
SAN DIEGO AP   PTSUNNY   68  47  46 S9        29.89S                  
BROWN FIELD    PTSUNNY   65  47  52 CALM      29.88F                  
MIRAMAR MCAS   PTSUNNY   63  49  60 VRB3      29.88S                  
MONTGOMERY FLD PTSUNNY   62  51  67 SE7       29.88S                  
GILLESPIE FLD  PTSUNNY   64  52  63 CALM      29.89                   
LEMON GROVE      N/A     64  53  66 S5        29.85S                  

$$

NORTH SAN DIEGO COUNTY
  
CITY           SKY/WX    TMP DP  RH WIND       PRES   REMARKS
CAMP PENDLETON PTSUNNY   67  49  52 S7        29.87S                  
OCEANSIDE AP   MOSUNNY   68  51  54 S7        29.86S                  
OCEANSIDE HBR    N/A     67  54  63 S12       29.93S                  
VISTA            N/A     65  53  64 SE1       29.86S                  
CARLSBAD       PTSUNNY   65  50  58 S6        29.86F                  
ENCINITAS        N/A     64  57  76 S2          N/A                   
LA JOLLA SCRIP   N/A     65  51  60 CALM      29.87S                  
FALLBROOK      FAIR      63  48  59 CALM      29.88F                  
ESCONDIDO        N/A     66  53  62 S2        29.87F                  
SAN MARCOS       N/A     63  53  71 SE5       29.90S                  
RANCHO BERNARD   N/A     63  52  66 E3        29.86F                  
POWAY            N/A     65  52  60 S2        29.89S                  

$$

EAST SAN DIEGO COUNTY
  
CITY           SKY/WX    TMP DP  RH WIND       PRES   REMARKS
RAMONA         PTSUNNY   61  48  62 SW5       29.88F                  
SANTEE           N/A     64  54  69 CALM      29.84S                  
LA MESA          N/A     63  53  70 CALM      29.82F                  
EL CAJON         N/A     64  53  68 W3        29.75F                  
ALPINE           N/A     59  52  76 W3        30.05S                  
DESCANSO N       N/A     52  45  76 CALM      29.88S                  

$$

ORANGE COUNTY AND THE LOS ANGELES BASIN
  
CITY           SKY/WX    TMP DP  RH WIND       PRES   REMARKS
JOHN WAYNE AP  PTSUNNY   69  48  47 CALM      29.86S                  
LAGUNA BEACH     N/A     68  56  64 W3        29.86S                  
LAKE FOREST FR   N/A     63  47  55 SW1       29.74S                  
SANTA ANA        N/A     68  53  58 CALM      29.86R                  
HUNTINGTON BCH   N/A     71  57  60 SE3       29.86S                  
LOS ALAMITOS   PTSUNNY   69  53  57 CALM      29.84S                  
FULLERTON      PTSUNNY   67  51  56 VRB5      29.86S                  
LONG BEACH     PTSUNNY   69  52  54 MISG      29.86F                  
L.A. AP        MOSUNNY   69  50  50 VRB5      29.86F                  
L.A. DOWNTOWN  SUNNY     67  52  58 SE7       29.86F                  

$$

THE INLAND EMPIRE
  
CITY           SKY/WX    TMP DP  RH WIND       PRES   REMARKS
CORONA         MOSUNNY   66  53  63 CALM      29.88S                  
UPLAND AP      FAIR      59  52  77 VRB5      29.87F                  
CHINO          PTSUNNY   68  51  54 CALM      29.88S                  
ONTARIO        PTSUNNY   63  52  67 VRB3      29.87S                  
SAN BERNARDINO MOSUNNY   64  46  52 W5        29.87F                  
RIVERSIDE AP   PTSUNNY   65  48  54 CALM      29.86F                  
MORENO VALLEY    N/A     61  56  83 SW3       29.80F                  
MARCH ARB      MOSUNNY   62  46  55 S5        29.87S                  
HORSETHIEF CYN   N/A     63  46  54 E3        29.85R                  
PERRIS           N/A     62  49  62 SW5       29.92S                  
LAKE ELSINORE    N/A     63  49  60 CALM      29.80R                  
HEMET AP       FAIR      60  47  61 SW8       29.88S                  
FRENCH VALLEY  FAIR      61  45  55 S5        29.89S                  
TEMECULA         N/A     63  53  71 CALM      29.90S                  

$$

SAN BERNARDINO AND RIVERSIDE COUNTY MOUNTAINS
  
CITY           SKY/WX    TMP DP  RH WIND       PRES   REMARKS
BIG BEAR AP    SUNNY     43  18  36 SW3       29.93S                  
BIG BEAR LAKE    N/A     44  19  37 CALM      29.84R                  
WRIGHTWOOD       N/A     46  14  27 SW7       29.58S                  
ANGELUS OAKS     N/A     41  37  87 CALM      29.76S                  
IDYLLWILD        N/A     46  43  90 CALM      29.74S                  
TORO PEAK        N/A     38   2  22 W16         N/A  WCI  29          

$$

SOUTHERN DESERT INCLUDING THE COACHELLA VALLEY
  
CITY           SKY/WX    TMP DP  RH WIND       PRES   REMARKS
PALM SPRINGS   SUNNY     73  41  31 NW5       29.81R                  
THOUSAND PALMS   N/A     73  46  39 W9        29.76R                  
INDIO            N/A     73  45  37 NW6       29.79S                  
THERMAL        SUNNY     74  43  32 W9        29.79R                  
BORREGO AP     FAIR      72  32  23 VRB5      29.80S                  
OCOTILLO WELLS   N/A     76  41  28 NW13      29.75F                  
CANEBRAKE        N/A     70  31  23 SE2       29.74S                  
BLYTHE         SUNNY     74  40  29 N9G18     29.79S                  
EL CENTRO NAS  SUNNY     76  38  25 NW7       29.80F                  
YUMA AZ        SUNNY     76  48  37 NW12G17   29.78F                  

$$

UPPER DESERT
  
CITY           SKY/WX    TMP DP  RH WIND       PRES   REMARKS
VICTORVILLE AP SUNNY     57  27  30 W15       29.93S                  
HESPERIA         N/A     58  26  29 N2        29.69S                  
APPLE VALLEY     N/A     59  30  33 NE12      29.90R                  
PALMDALE       SUNNY     58  30  34 W14       29.91F                  
LANCASTER      SUNNY     61  30  31 NW15      29.91F                  
EDWARDS AFB    SUNNY     60  26  27 NW5       29.88R                  
DAGGETT        SUNNY     62  28  27 SE7       29.88S                  
29 PALMS N     SUNNY     65  28  24 NW17G25   29.92R                  
29 PALMS JTNP    N/A     65  31  27 CALM      29.75R                  
NEEDLES        SUNNY     72  28  19 N14G23    29.80S                  

$$

REGIONAL REPORTS
  
CITY           SKY/WX    TMP DP  RH WIND       PRES   REMARKS
SANTA BARBARA  SUNNY     66  46  48 S8        29.87R                  
SANDBERG         N/A     45  30  55 N8        29.94S                  
LAS VEGAS NV   MOSUNNY   61  14  16 NW18G26   29.86R                  
PHOENIX AZ     PTSUNNY   72  47  40 W14       29.77R                  
TIJUANA        PTSUNNY   63  52  67 SW5       29.91S                  
ENSENADA NW      N/A     67  32  27 W1        29.84F                  

$$

OFFSHORE ISLANDS
  
CITY           SKY/WX    TMP DP  RH WIND       PRES   REMARKS
CATALINA ARPT  MOSUNNY   62  52  69 N3        29.89S                  
SAN CLEMENTE I SUNNY     64  32  30 N8        29.89R                  
SAN NICOLAS IS SUNNY     64  53  67 NW16      29.89R                  

$$

MARINE AND OFFSHORE BUOY REPORTS
  
STATION/POSITION SKY/WX   TEMP    WIND        PRES    VSBY  SWELL
                          AIR SEA DIR/SP/G                  HT/PER/DIR
                          (F)     (DEG/KT/KT) (MB)    (MI)  (FT/S/D)
TANNER BANKS               62     320/ 19/ 23 1011.3R        10/310/10
S CLEMENTE BASIN           64 69  260/ 10/ 14 1010.6F         8/290/ 8
SAN NICOLAS IS.               63                N/A           7/310/11
SO. S. ROSA ISLA           60 63  320/ 19/ 23 1011.9R         8/320/10
W. S. BARBARA CH           58 60  320/ 17/ 21 1012.1S         8/310/10
M. S. BARBARA CH           63 64  240/  6/  8 1011.2R         5/260/ 9
S. MONICA BASIN            63 67  350/  2/  4 1012.0R         5/220/17
S PEDRO CHANNEL               66                N/A           2/250/11
OCEANSIDE OFFSHR              70                N/A           3/190/18
TORREY PINES OTR              70                N/A           3/190/17
SAN DIEGO BAY                 68              1011.7
POINT LOMA SOUTH              69                N/A           3/200/17

$$

  
