ASUS46 KLOX 231810
RWRCA 

SOUTHERN CALIFORNIA WEATHER ROUNDUP
NATIONAL WEATHER SERVICE OXNARD CALIFORNIA
1100 AM PDT SUN OCT 23 2022

NOTE: "FAIR" INDICATES FEW OR NO CLOUDS BELOW 12,000 FEET WITH NO 
SIGNIFICANT WEATHER AND/OR OBSTRUCTIONS TO VISIBILITY.

  -  STATIONS PRECEEDED BY AN ASTERISK (*) ARE NOT NWS OR FAA 
     STATIONS AND ARE NOT SUBJECT TO NWS AND FAA QUALITY CONTROL.

CAZ041-042-087-231900-
LA AND ORANGE COUNTY COASTAL AREAS

  
CITY           SKY/WX    TMP DP  RH WIND       PRES   REMARKS
L.A. DOWNTOWN  SUNNY     67  52  58 SE7       29.86F                  
L.A. AIRPORT   MOSUNNY   69  50  50 VRB5      29.86F                  
LONG BEACH     PTSUNNY   69  52  54 MISG      29.86F                  

CITY           SKY/WX    TMP DP  RH WIND       PRES   REMARKS
AVALON           N/A     66 N/A N/A MISG        N/A                   
FULLERTON      PTSUNNY   67  51  56 VRB5      29.86S                  
HAWTHORNE      SUNNY     68  51  54 SE5       29.87S                  
*LEO CARRILLO    N/A     67  56  67 W7          N/A                   
*LOS ALAMITOS  PTSUNNY   69  53  57 CALM      29.84S                  
SANTA ANA      PTSUNNY   69  48  47 CALM      29.86S                  
STA MONICA APT SUNNY     71  32  23 N10G16    29.86S                  
*STA MON PIER    N/A     69  55  60 SW2       29.81S                  
TORRANCE       MOSUNNY   70  52  52 CALM      29.87S                  
*UCLA            N/A     68  32  26 NW8       29.82                   

$$

CAZ547-548-048-231900-
LA COUNTY VALLEYS AND INLAND EMPIRE

  
CITY           SKY/WX    TMP DP  RH WIND       PRES   REMARKS
BURBANK        SUNNY     71  31  22 W10G20    29.85F                  
VAN NUYS       SUNNY     71  30  21 N20G26    29.86S                  

CITY           SKY/WX    TMP DP  RH WIND       PRES   REMARKS
CORONA AIRPORT PTCLDY    66  53  63 CALM      29.88S                  
*CHATSWORTH      N/A     68  33  28 N8        29.90S                  
CHINO          PTSUNNY   68  51  54 CALM      29.88S                  
*CLAREMONT       N/A     61  52  72 S3          N/A                   
MARCH AFB      MOSUNNY   62  46  55 S5        29.87S                  
*NORTHRIDGE      N/A     68  25  19 N6G12       N/A                   
ONTARIO        PTSUNNY   63  52  67 VRB3      29.87S                  
*PASADENA        N/A     66  55  68 N1          N/A                   
POMONA         PTSUNNY  N/A N/A N/A CALM      29.88S                  
RIVERSIDE      PTSUNNY   65  48  54 CALM      29.86F                  
SAN BERNARDINO MOSUNNY   64  46  52 W5        29.87F                  
*SAN RAFAEL HI   N/A     63  52  67 SW3         N/A                   
*SAUGUS          N/A     62  30  30 N15         N/A                   
*WHITEMAN AP   SUNNY     66  28  24 NW23G39   29.90S                  
*WHITTIER HILL   N/A     68  54  60 S7          N/A                   
*WOODLAND HILL   N/A     68  27  21 MISG        N/A                   

$$

CAZ054-055-231900-
LA AND SAN BERNARDINO COUNTY MOUNTAINS

  
CITY           SKY/WX    TMP DP  RH WIND       PRES   REMARKS
*ACTON           N/A     60  29  31 N6          N/A                   
*BIG BEAR AIRP CLEAR     43  18  36 SW3       29.93S                  
*BIG PINES       N/A     44  21  39 CALM        N/A                   
*CHILAO          N/A     48  18  30 N17         N/A                   
SANDBERG         N/A     45  30  55 N8        29.94S                  
*WARM SPRINGS    N/A     51  28  40 N12G30      N/A                   

$$

CAZ028-029-059-060-099-231900-
ANTELOPE VALLEY AND SURROUNDING AREAS

  
CITY           SKY/WX    TMP DP  RH WIND       PRES   REMARKS
LANCASTER      SUNNY     61  30  31 NW15      29.91F                  
PALMDALE       SUNNY     58  30  34 W14       29.91F                  
*POPPY PARK      N/A     56  31  39 W21         N/A                   

CITY           SKY/WX    TMP DP  RH WIND       PRES   REMARKS
29 PALMS       SUNNY     65  28  24 NW17G25   29.92R                  
BARSTOW/DAGGET SUNNY     62  28  27 SE7       29.88S                  
BISHOP         SUNNY     53  17  24 NW22G30   29.92R                  
CHINA LAKE     SUNNY     62  19  19 N3        29.88S                  
EDWARDS AFB    SUNNY     60  26  27 NW5       29.88R                  
MOJAVE         SUNNY     57  30  35 W18G24    29.89F                  
NEEDLES        SUNNY     72  28  19 N14G23    29.80S                  
VICTORVILLE    SUNNY     57  27  30 W15       29.93S                  

$$

CAZ039-040-231900-
VENTURA AND SANTA BARBARA COUNTY COAST

  
CITY           SKY/WX    TMP DP  RH WIND       PRES   REMARKS
CAMARILLO      SUNNY     68  47  46 CALM      29.87S                  
OXNARD AIRPORT MOSUNNY   65  53  65 CALM      29.87S                  
*POINT MUGU    MOSUNNY   67  54  63 W3        29.88S                  
SBA APT/GOLETA SUNNY     66  46  48 S8        29.87R                  
*VENTURA         N/A     64  54  68 MISG        N/A                   

$$

CAZ044-045-231900-
VENTURA COUNTY VALLEYS

  
CITY           SKY/WX    TMP DP  RH WIND       PRES   REMARKS
*SIMI VALLEY     N/A     65  38  36 CALM      29.83S                  
*N 1000 OAKS     N/A     65  38  37 CALM      29.89S                  
*TO CIVIC ARTS   N/A     68  37  32 N5G10       N/A                   
*WESTLAKE VILL   N/A     66  41  40 CALM      29.84F                  
*OJAI            N/A     65  48  52 CALM        N/A                   
*FILLMORE        N/A     70  42  35 E2        29.92S                  

$$

CAZ053-231900-
VENTURA COUNTY MOUNTAINS

  
CITY           SKY/WX    TMP DP  RH WIND       PRES   REMARKS
*LOCKWOOD VLY    N/A     52  27  37 NW5G12      N/A                   
*ROSE VALLEY     N/A     55  36  47 MISG        N/A                   

$$

CAZ034-035-036-231900-
CENTRAL COAST AND SANTA YNEZ VALLEY

  
CITY           SKY/WX    TMP DP  RH WIND       PRES   REMARKS
SAN LUIS OBISP SUNNY     64  40  41 N15       29.94S                  
SANTA MARIA    SUNNY     62  43  49 NW10      29.93S                  

CITY           SKY/WX    TMP DP  RH WIND       PRES   REMARKS
*CAL POLY SLO    N/A     61  46  59 N9          N/A                   
*LOMPOC        SUNNY     66  40  38 NW12G18   29.92S                  
*SANTA YNEZ    FAIR      61  45  55 SW6       29.90S                  

$$

CAZ037-038-051-231900-
SAN LUIS OBISPO COUNTY INTERIOR AND CUYAMA VALLEY

  
CITY           SKY/WX    TMP DP  RH WIND       PRES   REMARKS
PASO ROBLES    SUNNY     59  41  51 NW14      29.98F                  

$$

CAZ032-033-061-231900-
SOUTHERN DESERTS

  
CITY           SKY/WX    TMP DP  RH WIND       PRES   REMARKS
BLYTHE         SUNNY     74  40  29 N9G18     29.79S                  
IMPERIAL       NOT AVBL                                               
PALM SPRINGS   SUNNY     73  41  31 NW5       29.81R                  
THERMAL        SUNNY     74  43  32 W9        29.79R                  

$$

ELSEWHERE ACROSS THE WESTERN UNITED STATES AND MEXICO

  
CITY           SKY/WX    TMP DP  RH WIND       PRES   REMARKS
DENVER, CO     PTSUNNY   67  30  25 SW29G44   29.31S                  
GRAND CANYON,  MOSUNNY   41  27  57 NW15G22   29.82S WCI  33          
HONOLULU, HI   PTSUNNY   79  72  78 NE10      30.02R                  
KAHULUI, MAUI  SUNNY     82  64  54 SE12      30.00R                  
LAKE TAHOE, CA PTSUNNY   38  18  44 E12G17    29.98R WCI  30          
LAS VEGAS, NV  MOSUNNY   61  14  16 NW18G26   29.86R                  
MAMMOTH LAKES, FAIR      41  14  33 N9G17     29.96S                  
MEXICO CITY, M MOSUNNY   73  50  43 SE5       30.30F                  
PHOENIX, AZ    PTSUNNY   72  47  40 W14       29.77R                  
PORTLAND, OR   PTSUNNY   53  44  71 CALM      30.16R                  
RENO, NV       PTSUNNY   43  23  45 S5        30.05R                  
SALT LAKE CITY PTSUNNY   43  31  62 NW15      29.78R                  
SAN DIEGO, CA  PTSUNNY   68  47  46 S9        29.89S                  
SAN FRANCISCO, SUNNY     61  41  47 CALM      30.02S                  
SAN JOSE, CA   SUNNY     61  39  44 NW13      30.02R                  
SEATTLE, WA    CLOUDY    47  44  90 SW5       30.14R                  
TIJUANA, MEX   PTSUNNY   63  52  67 SW5       29.91S                  

$$
  
STATION/POSITION TIME  TEMP    WIND        PRES    VSBY  WAVE
                       AIR SEA DIR/SP/G                  HT/PER
                 (UTC) (F)     (DEG/KT/KT) (MB)    (MI)  (FT/S)
WEST SANTA BARBA 1750   58 60  320/ 17/ 21 1012.1S         9/10
EAST SANTA BARBA 1750   63 64  240/  6/  8 1011.2R         5/ 9
SANTA MONICA BAY 1750   63 67  350/  2/  4 1012.0R         5/17
SAN CLEMENTE BAS 1750   64 69  260/ 10/ 14 1010.6F         8/ 8
