ASUS46 KSTO 232104
RWRCA 

NORTHERN AND CENTRAL CA REGIONAL WEATHER ROUNDUP
NATIONAL WEATHER SERVICE SACRAMENTO CA 
200 PM PDT SUN OCT 23 2022

NOTE: FAIR INDICATES FEW OR NO CLOUDS BELOW 12,000 FEET WITH NO
SIGNIFICANT WEATHER AND/OR OBSTRUCTIONS TO VISIBILITY.

CAZ001-003-232200-
NORTHWEST AREA
  
CITY           SKY/WX    TMP DP  RH WIND       PRES   REMARKS
CRESCENT CITY  SUNNY     57  47  69 NW14      30.18F                  
UKIAH          SUNNY     67  31  26 NW8       30.02F                  
$$

CAZ006-505>513-232200-
BAY AREA
  
CITY           SKY/WX    TMP DP  RH WIND       PRES   REMARKS
SANTA ROSA     SUNNY     70  28  21 MISG      30.00F                  
SAN RAFAEL     N/A       71  MM  MM MISG
NAPA           SUNNY     74  25  16 N25       29.95F                  
CONCORD        SUNNY     71  27  19 NW14G21   29.97F                  
OAKLAND CITY   N/A       66  MM  MM MISG
OAKLAND        SUNNY     69  36  29 NW17      29.97F                  
SAN FRAN CITY  N/A       64  MM  38 MISG
SAN FRAN ARPT  SUNNY     65  42  43 W18       29.99F                  
LIVERMORE      SUNNY     68  24  19 N9G17     29.96F                  
HAYWARD        SUNNY     69  36  29 W15       29.96F                  
REDWOOD CITY   N/A       66  MM  32 MISG
MOFFETT ARPT   SUNNY     68  34  28 NW8       29.98F                  
SAN JOSE ARPT  SUNNY     68  33  27 NW12      29.97F                  
$$
CAZ034-037-514>518-232200-
CENTRAL COAST
  
CITY           SKY/WX    TMP DP  RH WIND       PRES   REMARKS
WATSONVILLE    SUNNY     66  42  41 SW7       29.96F                  
SALINAS        SUNNY     66  38  35 W15       29.96F                  
MONTEREY       SUNNY     59  46  62 NW13      29.99F                  
SAN LUIS OBISP SUNNY     71  41  33 NW16      29.89F                  
SANTA MARIA    SUNNY     67  45  45 W20       29.88F                  
HALF MOON BAY  FAIR      61  48  63 N16       30.01S                  
$$
CAZ015-016-232200-
NORTHERN SACRAMENTO VALLEY
  
CITY           SKY/WX    TMP DP  RH WIND       PRES   REMARKS
RED BLUFF      SUNNY     68  27  21 NW15G26   30.04F                  
OROVILLE       SUNNY     69  30  23 NW12G24   30.00F                  
$$
CAZ016>018-232200-
SOUTHERN SACRAMENTO VALLEY
  
CITY           SKY/WX    TMP DP  RH WIND       PRES   REMARKS
AUBURN         SUNNY     66  23  19 SW16      29.93F                  
BEALE AFB      SUNNY     70  29  22 NW22G29   29.94F                  
LINCOLN        FAIR      70  27  19 NW24G30   29.93F                  
MARYSVILLE     SUNNY     71  27  19 NW22G32   29.97F                  
SAC INTL ARPT  SUNNY     72  27  18 N21G26    29.95F                  
MATHER AIRPORT SUNNY     70  25  18 N18G28    29.92F                  
DOWNTOWN SAC   N/A       69  MM  MM MISG
SAC EXEC ARPT  SUNNY     71  27  19 NW23G31   29.94F                  
VACAVILLE      SUNNY     71  26  18 N18G35    29.99F                  
TRAVIS AFB     SUNNY     70  26  19 N23       29.95F                  
$$
CAZ019>021-232200-
SAN JOAQUIN VALLEY
  
CITY           SKY/WX    TMP DP  RH WIND       PRES   REMARKS
STOCKTON       SUNNY     72  26  18 N18G25    29.93F                  
MODESTO        SUNNY     68  27  21 NW18      29.93F                  
MERCED         SUNNY     70  29  21 NW20      29.91F                  
LEMOORE        SUNNY     72  30  21 NW25      29.91F                  
FRESNO         MOSUNNY   69  32  25 W15       29.91F                  
HANFORD        SUNNY     70  32  24 NW13      29.92F                  
PORTERVILLE    SUNNY     65  37  35 CALM      29.93F                  
BAKERSFIELD    SUNNY     63  35  35 CALM      29.93F                  
$$
CAZ011-012-071-232200-
NORTHERN MOUNTAINS
  
CITY           SKY/WX    TMP DP  RH WIND       PRES   REMARKS
YREKA          MOSUNNY   53  31  42 N10G16    30.15S                  
MOUNT SHASTA   PTSUNNY   49  30  48 VRB5      30.11F                  
ALTURAS        MOSUNNY   47  23  38 NW8       30.08R                  
$$
CAZ011-012-071-232200-
SIERRA NEVADA MTNS
  
CITY           SKY/WX    TMP DP  RH WIND       PRES   REMARKS
BLUE CANYON    SUNNY     48  18  30 NE10G18   30.00F                  
TRUCKEE        SUNNY     43  18  36 N15G21    30.02S                  
TAHOE VLY ARPT PTSUNNY   41  14  33 E9G18     30.00R                  
$$
  
