ASUS46 KSTO 231909
RWRCA 

NORTHERN AND CENTRAL CA REGIONAL WEATHER ROUNDUP
NATIONAL WEATHER SERVICE SACRAMENTO CA 
1200 PM PDT SUN OCT 23 2022

NOTE: FAIR INDICATES FEW OR NO CLOUDS BELOW 12,000 FEET WITH NO
SIGNIFICANT WEATHER AND/OR OBSTRUCTIONS TO VISIBILITY.

CAZ001-003-232000-
NORTHWEST AREA
  
CITY           SKY/WX    TMP DP  RH WIND       PRES   REMARKS
CRESCENT CITY  SUNNY     56  46  69 NW9       30.19R                  
ARCATA         NOT AVBL                                               
SHELTER COVE   NOT AVBL                                               
UKIAH          SUNNY     63  33  32 N7        30.05S                  
$$

CAZ006-505>513-232000-
BAY AREA
  
CITY           SKY/WX    TMP DP  RH WIND       PRES   REMARKS
SANTA ROSA     SUNNY     65  33  30 NW7       30.03F                  
SAN RAFAEL     N/A       66  MM  MM MISG
NAPA           SUNNY     71  30  21 N22G28    29.98F                  
CONCORD        SUNNY     67  33  28 VRB7      30.00F                  
OAKLAND CITY   N/A       60  MM  MM MISG
OAKLAND        SUNNY     66  37  34 N8G18     30.01F                  
SAN FRAN CITY  N/A       64  MM  31 MISG
SAN FRAN ARPT  SUNNY     64  42  44 N14       30.01F                  
LIVERMORE      SUNNY     66  30  26 N10       29.99F                  
HAYWARD        SUNNY     65  35  33 NE5       30.00F                  
REDWOOD CITY   N/A       61  MM  41 MISG
MOFFETT ARPT   SUNNY     63  39  42 NW9       30.01F                  
SAN JOSE ARPT  SUNNY     64  37  36 NW13      30.01F                  
$$
CAZ034-037-514>518-232000-
CENTRAL COAST
  
CITY           SKY/WX    TMP DP  RH WIND       PRES   REMARKS
WATSONVILLE    SUNNY     62  46  55 S10       29.99F                  
SALINAS        SUNNY     64  40  41 NW9       29.99F                  
MONTEREY       SUNNY     60  40  47 W6        30.01F                  
PT PIEDRAS BLS NOT AVBL                                               
SAN LUIS OBISP SUNNY     68  39  34 N14       29.93F                  
SANTA MARIA    SUNNY     66  42  41 NW8       29.92F                  
HALF MOON BAY  FAIR      59  46  63 NW16      30.03R                  
$$
CAZ015-016-232000-
NORTHERN SACRAMENTO VALLEY
  
CITY           SKY/WX    TMP DP  RH WIND       PRES   REMARKS
REDDING        NOT AVBL                                               
RED BLUFF      SUNNY     65  28  24 N17G29    30.06F                  
OROVILLE       SUNNY     69  26  20 N9G20     30.02S                  
$$
CAZ016>018-232000-
SOUTHERN SACRAMENTO VALLEY
  
CITY           SKY/WX    TMP DP  RH WIND       PRES   REMARKS
AUBURN         SUNNY     63  23  22 W9G16     29.96S                  
BEALE AFB      SUNNY     67  29  24 NW18      29.97F                  
LINCOLN        FAIR      68  28  22 NW18G25   29.96S                  
MARYSVILLE     SUNNY     69  28  21 NW15G26   29.99F                  
SAC INTL ARPT  SUNNY     68  30  24 NW21G29   29.98S                  
MATHER AIRPORT SUNNY     66  27  22 N21       29.95S                  
DOWNTOWN SAC   N/A       66  MM  MM MISG
SAC EXEC ARPT  SUNNY     67  29  24 NW18G30   29.98S                  
VACAVILLE      SUNNY     68  28  22 N22G28    30.01S                  
TRAVIS AFB     SUNNY     67  27  22 N30G39    29.97S                  
$$
CAZ019>021-232000-
SAN JOAQUIN VALLEY
  
CITY           SKY/WX    TMP DP  RH WIND       PRES   REMARKS
STOCKTON       SUNNY     67  33  28 NW12      29.97F                  
MODESTO        SUNNY     63  31  30 NW16      29.97S                  
MERCED         SUNNY     67  30  25 NW18G24   29.94F                  
LEMOORE        SUNNY     69  32  25 NW24G33   29.95S                  
FRESNO         MOSUNNY   64  35  34 W9        29.94F                  
HANFORD        SUNNY     66  34  30 N14       29.95S HAZE             
PORTERVILLE    SUNNY     62  37  39 VRB6      29.96F                  
BAKERSFIELD    SUNNY     61  35  37 W6        29.96S                  
$$
CAZ011-012-071-232000-
NORTHERN MOUNTAINS
  
CITY           SKY/WX    TMP DP  RH WIND       PRES   REMARKS
YREKA          MOSUNNY   49  33  54 N6        30.15S                  
MOUNT SHASTA   MOSUNNY   47  30  51 NW6       30.11R                  
ALTURAS        CLOUDY    41  28  60 NW6       30.08S                  
$$
CAZ011-012-071-232000-
SIERRA NEVADA MTNS
  
CITY           SKY/WX    TMP DP  RH WIND       PRES   REMARKS
BLUE CANYON    MOSUNNY   44  18  35 VRB5      30.01R                  
TRUCKEE        SUNNY     39  18  41 SE10G17   30.03S WCI  32          
TAHOE VLY ARPT MOSUNNY   40  16  37 MISG      29.99R                  
MAMMOTH LAKES  FAIR      43  12  28 N10G18    29.97S                  
$$
  
