ASUS46 KEKA 231910
RWREKA
Eureka Area Weather Roundup
National Weather Service Eureka CA
1200 PM PDT SUN OCT 23 2022

Note: "fair" indicates few or no clouds below 12,000 feet with no
significant weather and/or obstructions to visibility.

Southwest Oregon...
  
CITY           SKY/WX    TMP DP  RH WIND       PRES   REMARKS
MEDFORD        PTSUNNY   52  39  61 VRB3      30.19R                  
KLAMATH FALLS  MOSUNNY   44  26  49 VRB5      30.10R                  
NORTH BEND     MOSUNNY   55  49  80 SE5       30.23R                  
ROSEBURG       MOSUNNY   49  45  86 SW5       30.21S                  
SEXTON SUMMIT  PTSUNNY   38  35  89 VRB3      30.15R                  
BROOKINGS      SUNNY     58  38  47 CALM      30.19R                  

Northwest California...
  
CITY           SKY/WX    TMP DP  RH WIND       PRES   REMARKS
CRESCENT CITY  SUNNY     56  46  69 NW9       30.19R                  
MCKINLEYVILLE  SUNNY     56  45  66 NW16      30.15S                  
EUREKA           N/A     57  32  38 N7        30.16S                  
FORTUNA          N/A     57  45  62 NW15      30.14S                  
WEAVERVILLE    NOT AVBL                                               
TRINITY CENTER NOT AVBL                                               
UKIAH          SUNNY     63  33  32 N7        30.05S                  

North & Central California...
  
CITY           SKY/WX    TMP DP  RH WIND       PRES   REMARKS
YREKA          MOSUNNY   49  33  54 N6        30.15S                  
MOUNT SHASTA   MOSUNNY   47  30  51 NW6       30.11R                  
REDDING        NOT AVBL                                               
RED BLUFF      SUNNY     65  28  24 N17G29    30.06F                  
CHICO          SUNNY     66  27  22 NW23G31   30.03S                  
YUBA CITY      SUNNY     69  28  21 NW15G26   29.99F                  
SACRAMENTO     SUNNY     67  29  24 NW18G30   29.98S                  
SANTA ROSA     SUNNY     65  33  30 NW7       30.03F                  
NAPA           SUNNY     71  30  21 N22G28    29.98F                  
TRAVIS AFB     NOT AVBL                                               
SAN FRANCISCO  SUNNY     64  42  44 N14       30.01F                  
OAKLAND        SUNNY     66  37  34 N8G18     30.01F                  
STOCKTON       NOT AVBL                                               
SALINAS        SUNNY     64  40  41 NW9       29.99F                  
MONTEREY       SUNNY     60  40  47 W6        30.01F                  

$$
  
