SPCA35 KWBC 231737
SPECI
MPDA 231720Z 20008KT 160V230 9000 -RA SCT015 28/24 Q1011=
