SPCA35 KWBC 231837
SPECI
MPTO 231825Z 18008KT 1800 +RA SCT005 SCT014CB BKN070 26/24 Q1011
TEMPO 4000 TSRA=
