SPCA42 KWBC 232008
SPECI
TISX 232004Z 04009KT 10SM SCT029 30/23 A2988=
