SPCA35 KWBC 232028
SPECI
MRPV 232025Z 09009KT 9999 RA FEW010 BKN030 26/16 A2994 NOSIG=
