SPCA32 KWBC 231713
SPECI
TISX 231710Z 11011KT 10SM SCT027 SCT032 BKN041 31/23 A2991 RMK AO2
T03110233 $=
