SPCA35 KWBC 232121
SPECI
MROC 232112Z 24006KT 190V290 9999-TSRA SCT005CB OVC035 22/21 A2999
NOSIG=
