SPCA35 KWBC 231938
SPECI
MPDA 231930Z 24010KT 3000 +RA BKN012CB 26/25 Q1009=
