SPCA32 KWBC 231702
SPECI
TISX 231700Z 12010KT 10SM BKN027 BKN032 BKN045 31/24 A2992 RMK AO2
T03110244 $=
