ASUS46 KPQR 212310
RWROR 

OREGON REGIONAL WEATHER ROUNDUP
NATIONAL WEATHER SERVICE PORTLAND OR
400 PM PDT FRI OCT 21 2022

NOTE: "FAIR" INDICATES FEW OR NO CLOUDS BELOW 12,000 FEET WITH
NO SIGNIFICANT WEATHER AND/OR OBSTRUCTIONS TO VISIBILITY.

ORZ001>013-220000-
NORTHWEST OREGON

  
CITY           SKY/WX    TMP DP  RH WIND       PRES   REMARKS
ASTORIA        LGT RAIN  52  50  93 E6        29.70F FOG              
TILLAMOOK      CLOUDY    52  50  93 E3        29.76F FOG              
FLORENCE       MIX PCPN  54  54 100 S10G18    29.82F FOG              
PORTLAND       RAIN      50  47  89 CALM      29.78F FOG              
VANCOUVER WA   LGT RAIN  49  46  90 CALM      29.80F FOG              
SCAPPOOSE      RAIN      49  48  97 S3        29.76F FOG              
HILLSBORO      LGT RAIN  48  47  96 SE6       29.77F VSB 1            
AURORA         LGT RAIN  49  47  93 SE5       29.78F FOG              
MCMINNVILLE    LGT RAIN  49  47  93 E5        29.77F                  
SALEM          LGT RAIN  51  49  92 CALM      29.76F FOG              
CORVALLIS      CLOUDY    57  49  74 S3        29.77F                  
EUGENE         CLOUDY    59  53  80 SW10      29.80F                  
CRESWELL       CLOUDY    59  59 100 SW10G16   29.79F FOG              
$$

ORZ021-028-220000-
SOUTHWEST OREGON

  
CITY           SKY/WX    TMP DP  RH WIND       PRES   REMARKS
NORTH BEND     LGT RAIN  58  50  75 S10       29.86F                  
BROOKINGS      CLOUDY    61  52  72 NW13G20   29.94R                  
ROSEBURG       CLOUDY    66  53  63 VRB3      29.83F                  
SEXTON SUMMIT  CLOUDY    56  46  69 VRB5      29.91F                  
GRANTS PASS    CLOUDY    70  50  49 VRB5      29.87F                  
MEDFORD        CLOUDY    71  47  42 NW5       29.83S                  
$$

ORZ014>016-041-220000-
COLUMBIA GORGE

  
CITY           SKY/WX    TMP DP  RH WIND       PRES   REMARKS
TROUTDALE      LGT RAIN  50  46  86 E3        29.79F FOG              
HOOD RIVER     LGT RAIN  46  45  93 NW6       29.76F                  
THE DALLES     LGT RAIN  53  43  68 W14       29.75F                  
$$

ORZ029>031-041-044-049-050-061>064-502-503-505>511-220000-
EASTERN OREGON

  
CITY           SKY/WX    TMP DP  RH WIND       PRES   REMARKS
MADRAS         CLOUDY    61  45  55 SW16G23   29.70F                  
REDMOND        CLOUDY    63  43  48 SW13      29.71F                  
BEND           PTSUNNY   63  43  48 SW18G26   29.73F                  
PRINEVILLE     CLOUDY    63  43  48 SW15G25   29.71F                  
KLAMATH FALLS  PTSUNNY   61  40  45 W15       29.87F                  
LAKEVIEW       PTSUNNY   64  38  38 SW15G21   29.85S                  
HERMISTON      RAIN      49  46  90 SW8       29.75F FOG              
PENDLETON      RAIN      47  42  83 S6        29.76S                  
JOHN DAY       LGT RAIN  57  40  53 W3        29.72F                  
MEACHAM        LGT RAIN  43  41  93 CALM      29.72F FOG              
LA GRANDE      LGT RAIN  49  45  86 E6        29.74F                  
BAKER CITY     LGT RAIN  51  38  60 NE7       29.73F                  
BURNS          CLOUDY    62  34  35 W18       29.76F                  
ROME             N/A     71  33  24 W17G29    29.73R                  
ONTARIO        PTSUNNY   68  41  37 NE3       29.69F                  
$$


OTHER REGIONAL REPORTS
  
CITY           SKY/WX    TMP DP  RH WIND       PRES   REMARKS
SEATTLE        CLOUDY    47  44  90 S9        29.75F                  
SPOKANE        LGT RAIN  42  38  85 SW9       29.67F                  
VANCOUVER BC   CLOUDY    50  45  81 SW6       29.73F                  
PRINCE GEORGE  PTSUNNY   46  30  53 SW10      29.61F                  
DAWSON CREEK   PTSUNNY   46  25  42 W2        29.54S                  
WHITEHORSE     LGT RAIN  36  34  93 NE3       29.52S                  
BOISE          CLOUDY    66  36  32 N5        29.69F                  
REDDING        PTSUNNY   83  41  22 S10       29.74F                  
SAN FRANCISCO  MOSUNNY   64  53  67 W20       29.86R                  

$$

  
