ASUS46 KPQR 220010
RWROR 

OREGON REGIONAL WEATHER ROUNDUP
NATIONAL WEATHER SERVICE PORTLAND OR
500 PM PDT FRI OCT 21 2022

NOTE: "FAIR" INDICATES FEW OR NO CLOUDS BELOW 12,000 FEET WITH
NO SIGNIFICANT WEATHER AND/OR OBSTRUCTIONS TO VISIBILITY.

ORZ001>013-220100-
NORTHWEST OREGON

  
CITY           SKY/WX    TMP DP  RH WIND       PRES   REMARKS
ASTORIA        LGT RAIN  51  49  92 E7        29.67F FOG              
6HR MIN TEMP:  51; 6HR MAX TEMP:  52; 6HR PCP:  0.25;                

TILLAMOOK      CLOUDY    52  50  93 CALM      29.71F FOG              
FLORENCE       MIX PCPN  54  54 100 S14G23    29.80F FOG              
PORTLAND       LGT RAIN  50  48  93 SE7       29.75F FOG              
6HR MIN TEMP:  50; 6HR MAX TEMP:  54; 6HR PCP:  0.31;                

VANCOUVER WA   LGT RAIN  50  47  89 SE3       29.76F FOG              
6HR MIN TEMP:  49; 6HR MAX TEMP:  54; 6HR PCP:  0.26;                

SCAPPOOSE      LGT RAIN  49  48  97 S3        29.73F                  
6HR MIN TEMP:  48; 6HR MAX TEMP:  52; 6HR PCP:  0.18;                

HILLSBORO      LGT RAIN  48  47  96 SE8       29.74F FOG              
6HR MIN TEMP:  48; 6HR MAX TEMP:  52; 6HR PCP:  0.29;                

AURORA         CLOUDY    48  47  96 CALM      29.76F FOG              
6HR MIN TEMP:  48; 6HR MAX TEMP:  52; 6HR PCP:  0.44;                

MCMINNVILLE    LGT RAIN  49  47  93 SE7       29.73F FOG              
6HR MIN TEMP:  48; 6HR MAX TEMP:  52; 6HR PCP:  0.25;                

SALEM          CLOUDY    51  50  96 CALM      29.74F FOG              
6HR MIN TEMP:  51; 6HR MAX TEMP:  57; 6HR PCP:  0.13;                

CORVALLIS      CLOUDY    57  50  77 SW7       29.76F                  
EUGENE         CLOUDY    59  52  77 SW14      29.77F                  
6HR MIN TEMP:  57; 6HR MAX TEMP:  65; 6HR PCP: TRACE;                

CRESWELL       CLOUDY    61  59  94 SW12      29.77F                  
$$

ORZ021-028-220100-
SOUTHWEST OREGON

  
CITY           SKY/WX    TMP DP  RH WIND       PRES   REMARKS
NORTH BEND     LGT RAIN  55  54  94 VRB3      29.86S                  
6HR MIN TEMP:  56; 6HR MAX TEMP:  61; 6HR PCP: TRACE;                

BROOKINGS      CLOUDY    59  49  69 SW5       29.93F                  
ROSEBURG       CLOUDY    65  54  67 SW9       29.81F                  
6HR MIN TEMP:  61; 6HR MAX TEMP:  70; 6HR PCP: TRACE;                

SEXTON SUMMIT  CLOUDY    54  49  83 VRB3      29.89F                  
6HR MIN TEMP:  54; 6HR MAX TEMP:  62; 6HR PCP: TRACE;                

GRANTS PASS    CLOUDY    68  52  56 VRB6G16   29.86S                  
MEDFORD        CLOUDY    71  47  42 VRB3      29.80F                  
6HR MIN TEMP:  60; 6HR MAX TEMP:  72;                                

$$

ORZ014>016-041-220100-
COLUMBIA GORGE

  
CITY           SKY/WX    TMP DP  RH WIND       PRES   REMARKS
TROUTDALE      LGT RAIN  50  47  89 E6        29.75F FOG              
6HR MIN TEMP:  50; 6HR MAX TEMP:  55; 6HR PCP:  0.35;                

HOOD RIVER     LGT RAIN  46  45  93 NW3       29.73F                  
THE DALLES     LGT RAIN  52  44  74 W8        29.72F                  
6HR MIN TEMP:  52; 6HR MAX TEMP:  61; 6HR PCP: TRACE;                

$$

ORZ029>031-041-044-049-050-061>064-502-503-505>511-220100-
EASTERN OREGON

  
CITY           SKY/WX    TMP DP  RH WIND       PRES   REMARKS
MADRAS         LGT RAIN  59  46  63 SW13G23   29.68F                  
REDMOND        CLOUDY    63  45  51 SW10      29.67F                  
6HR MIN TEMP:  58; 6HR MAX TEMP:  64; 6HR PCP: TRACE;                

BEND           PTSUNNY   61  45  55 SW24G31   29.69F                  
PRINEVILLE     CLOUDY    61  45  55 SW9       29.67F                  
KLAMATH FALLS  MOSUNNY   62  40  44 W16       29.85F                  
6HR MIN TEMP:  58; 6HR MAX TEMP:  67;                                

LAKEVIEW       PTSUNNY   63  37  38 W16G22    29.83F                  
HERMISTON      LGT RAIN  49  47  93 S9        29.72F FOG              
6HR MIN TEMP:  49; 6HR MAX TEMP:  59; 6HR PCP:  0.14;                

PENDLETON      LGT RAIN  46  43  89 SE10      29.72F FOG              
6HR MIN TEMP:  46; 6HR MAX TEMP:  60; 6HR PCP:  0.13;                

JOHN DAY       CLOUDY    57  38  47 SW14G20   29.68F                  
MEACHAM        LGT RAIN  40  39  97 W5        29.70F                  
6HR MIN TEMP:  40; 6HR MAX TEMP:  52; 6HR PCP:  0.15;                

LA GRANDE      LGT RAIN  48  46  93 SE6       29.69F                  
6HR MIN TEMP:  48; 6HR MAX TEMP:  60; 6HR PCP:  0.08;                

BAKER CITY     LGT RAIN  49  43  80 NE7       29.69F                  
6HR MIN TEMP:  49; 6HR MAX TEMP:  59; 6HR PCP: TRACE;                

BURNS          CLOUDY    61  35  37 W10G23    29.74F                  
6HR MIN TEMP:  60; 6HR MAX TEMP:  64;                                

ROME             N/A     71  31  22 W20G29    29.70F                  
6HR MIN TEMP:  67; 6HR MAX TEMP:  75;                                

ONTARIO        CLOUDY    66  40  38 N5        29.68F                  
6HR MIN TEMP:  62; 6HR MAX TEMP:  72;                                

$$


OTHER REGIONAL REPORTS
  
CITY           SKY/WX    TMP DP  RH WIND       PRES   REMARKS
SEATTLE        LGT RAIN  48  45  89 S6        29.73F                  
6HR MIN TEMP:  47; 6HR MAX TEMP:  51; 6HR PCP:  0.12;                

SPOKANE        CLOUDY    42  39  89 SW8       29.66F                  
6HR MIN TEMP:  39; 6HR MAX TEMP:  46; 6HR PCP:  0.35;                

VANCOUVER BC   NOT AVBL                                               
PRINCE GEORGE  PTCLDY    45  30  57 SW5       29.61S                  
DAWSON CREEK   PTCLDY    45  27  49 SW5       29.53F                  
WHITEHORSE     MOCLDY    36  34  93 CALM      29.53R                  
BOISE          MOCLDY    66  37  34 N6        29.67F                  
6HR MIN TEMP:  65; 6HR MAX TEMP:  70;                                

REDDING        PTSUNNY   82  42  24 S12       29.72F                  
6HR MIN TEMP:  72; 6HR MAX TEMP:  84;                                

SAN FRANCISCO  MOSUNNY   63  53  70 W15       29.84F                  
6HR MIN TEMP:  58; 6HR MAX TEMP:  67;                                


$$

  
