ASUS46 KPQR 220210
RWROR 

OREGON REGIONAL WEATHER ROUNDUP
NATIONAL WEATHER SERVICE PORTLAND OR
700 PM PDT FRI OCT 21 2022

NOTE: "FAIR" INDICATES FEW OR NO CLOUDS BELOW 12,000 FEET WITH
NO SIGNIFICANT WEATHER AND/OR OBSTRUCTIONS TO VISIBILITY.

ORZ001>013-220300-
NORTHWEST OREGON

  
CITY           SKY/WX    TMP DP  RH WIND       PRES   REMARKS
ASTORIA        RAIN      50  48  93 NE16      29.60S FOG              
TILLAMOOK      CLOUDY    57  54  88 S15G21    29.63F                  
FLORENCE       CLOUDY    55  55 100 S10G18    29.76S FOG              
PORTLAND       CLOUDY    51  47  86 SE9       29.65F                  
VANCOUVER WA   LGT RAIN  50  47  89 SE8       29.66F                  
SCAPPOOSE      RAIN      49  49 100 CALM      29.64F FOG              
HILLSBORO      CLOUDY    48  48 100 CALM      29.64F FOG              
AURORA         CLOUDY    49  48  97 S6        29.65F FOG              
MCMINNVILLE    LGT RAIN  48  47  96 SE7       29.64F FOG              
SALEM          CLOUDY    53  51  93 S7        29.65F                  
CORVALLIS      CLOUDY    56  52  86 SW15      29.69F                  
EUGENE         LGT RAIN  57  54  89 SW9       29.73S FOG              
CRESWELL       CLOUDY    59  59 100 SW7G14    29.71F                  
$$

ORZ021-028-220300-
SOUTHWEST OREGON

  
CITY           SKY/WX    TMP DP  RH WIND       PRES   REMARKS
NORTH BEND     RAIN      58  57  97 SW15G23   29.80S FOG              
BROOKINGS      LGT RAIN  54  54 100 SE5       29.88F FOG              
ROSEBURG       CLOUDY    62  54  74 CALM      29.76F                  
SEXTON SUMMIT  LGT RAIN  51  49  92 SW8       29.84F                  
GRANTS PASS    LGT RAIN  64  54  68 CALM      29.82F                  
MEDFORD        LGT RAIN  63  56  78 NW10      29.79S                  
$$

ORZ014>016-041-220300-
COLUMBIA GORGE

  
CITY           SKY/WX    TMP DP  RH WIND       PRES   REMARKS
TROUTDALE      CLOUDY    51  47  86 E3        29.65F                  
HOOD RIVER     LGT RAIN  46  45  93 CALM      29.65F                  
THE DALLES     LGT RAIN  51  46  83 SW7       29.66F                  
$$

ORZ029>031-041-044-049-050-061>064-502-503-505>511-220300-
EASTERN OREGON

  
CITY           SKY/WX    TMP DP  RH WIND       PRES   REMARKS
MADRAS         DRIZZLE   48  46  93 E7        29.66F                  
REDMOND        LGT RAIN  58  46  64 NW20G25   29.62F                  
BEND           CLOUDY    59  45  58 SW15      29.65F                  
PRINEVILLE     LGT RAIN  54  48  82 W8        29.65F                  
KLAMATH FALLS  MOCLDY    59  43  55 W13       29.81F                  
LAKEVIEW       CLOUDY    58  36  43 SW13      29.80F                  
HERMISTON      RAIN      49  47  93 S6        29.67F                  
PENDLETON      RAIN      46  44  93 S10       29.67F FOG              
JOHN DAY       RAIN      53  43  70 NW10      29.63R                  
MEACHAM        RAIN      38  37  97 CALM      29.67F FOG              
LA GRANDE      LGT RAIN  47  46  97 NW7       29.65F                  
BAKER CITY     CLOUDY    47  43  86 CALM      29.62F                  
BURNS          LGT RAIN  58  37  45 SW12G21   29.67F                  
ROME             N/A     68  33  27 W12       29.65F                  
ONTARIO        CLOUDY    63  37  38 CALM      29.58F                  
$$


OTHER REGIONAL REPORTS
  
CITY           SKY/WX    TMP DP  RH WIND       PRES   REMARKS
SEATTLE        LGT RAIN  47  45  93 CALM      29.70F FOG              
SPOKANE        CLOUDY    42  39  89 S10       29.62F                  
VANCOUVER BC   PTCLDY    48  46  93 S5        29.69F                  
PRINCE GEORGE  MOCLDY    41  32  70 S6        29.59F                  
DAWSON CREEK   CLEAR     39  27  60 CALM      29.53S                  
WHITEHORSE     LGT RAIN  36  34  93 N6        29.56R VSB 5/8          
BOISE          CLOUDY    64  35  34 NE6       29.62F                  
REDDING        CLOUDY    77  44  30 S8        29.70F                  
SAN FRANCISCO  MOCLDY    59  53  80 W9        29.85R                  

$$

  
