ASUS41 KRLX 231810
RWRRLX
Regional Weather Roundup
National Weather Service Charleston WV
200 PM EDT SUN OCT 23 2022

Note: "fair" indicates few or no clouds below 12,000 feet with no
significant weather and/or obstructions to visibility.

WVZ003-231900-
Northern Panhandle of West Virginia
  
CITY           SKY/WX    TMP DP  RH WIND       PRES   REMARKS
WHEELING       SUNNY     71  39  31 CALM      30.21F                  
$$

WVZ009-231900-
Northwest West Virginia
  
CITY           SKY/WX    TMP DP  RH WIND       PRES   REMARKS
PARKERSBURG    SUNNY     74  47  38 CALM      30.20F                  
$$

WVZ006-231900-
Western West Virginia
  
CITY           SKY/WX    TMP DP  RH WIND       PRES   REMARKS
HUNTINGTON     SUNNY     74  43  32 SE5       30.17F                  
POINT PLEASANT NOT AVBL                                               
$$

WVZ015-231900-
West Central West Virginia
  
CITY           SKY/WX    TMP DP  RH WIND       PRES   REMARKS
CHARLESTON     MOSUNNY   75  45  34 W3        30.18F                  
$$

WVZ509-031-039-231900-
North Central West Virginia
  
CITY           SKY/WX    TMP DP  RH WIND       PRES   REMARKS
MORGANTOWN     SUNNY     73  38  27 N6        30.22F                  
CLARKSBURG     SUNNY     74  40  29 NW5       30.21F                  
BUCKHANNON     SUNNY     75  36  23 VRB5      30.21F HAZE             
$$

WVZ515-516-025-034-042-507-231900-
Southern West Virginia
  
CITY           SKY/WX    TMP DP  RH WIND       PRES   REMARKS
BECKLEY        SUNNY     69  34  27 VRB5      30.23F                  
LOGAN          FAIR      72  41  33 VRB5      30.19F                  
PINEVILLE      NOT AVBL                                               
BLUEFIELD      SUNNY     65  32  29 NE8       30.24F                  
LEWISBURG      SUNNY     64  37  36 CALM      30.23F                  
$$

WVZ525-526-231900-
Northern Mountains of West Virginia
  
CITY           SKY/WX    TMP DP  RH WIND       PRES   REMARKS
ELKINS         SUNNY     71  32  23 N7        30.22F                  
$$

WVZ502-504-052-231900-
Eastern Panhandle of West Virginia
  
CITY           SKY/WX    TMP DP  RH WIND       PRES   REMARKS
PETERSBURG     MOSUNNY   64  43  45 CALM      30.26F                  
CUMBERLAND     MOSUNNY   62  44  52 CALM      30.31F                  
MARTINSBURG    CLOUDY    64  45  49 N6        30.24F                  
$$

OHZ075-083-KYZ101-231900-
Southeast Ohio/Northeast Kentucky
  
CITY           SKY/WX    TMP DP  RH WIND       PRES   REMARKS
ATHENS         SUNNY     78  43  29 SW3       30.17F                  
JACKSON        NOT AVBL                                               
ASHLAND        SUNNY     76  50  40 CALM      30.18F                  
$$
  
