ASUS41 KRLX 232010
RWRRLX
Regional Weather Roundup
National Weather Service Charleston WV
400 PM EDT SUN OCT 23 2022

Note: "fair" indicates few or no clouds below 12,000 feet with no
significant weather and/or obstructions to visibility.

WVZ003-232100-
Northern Panhandle of West Virginia
  
CITY           SKY/WX    TMP DP  RH WIND       PRES   REMARKS
WHEELING       SUNNY     73  38  27 E7        30.17F                  
$$

WVZ009-232100-
Northwest West Virginia
  
CITY           SKY/WX    TMP DP  RH WIND       PRES   REMARKS
PARKERSBURG    SUNNY     76  45  33 CALM      30.16F                  
$$

WVZ006-232100-
Western West Virginia
  
CITY           SKY/WX    TMP DP  RH WIND       PRES   REMARKS
HUNTINGTON     SUNNY     77  41  27 S7        30.13F                  
POINT PLEASANT NOT AVBL                                               
$$

WVZ015-232100-
West Central West Virginia
  
CITY           SKY/WX    TMP DP  RH WIND       PRES   REMARKS
CHARLESTON     MOSUNNY   76  42  29 CALM      30.14F                  
$$

WVZ509-031-039-232100-
North Central West Virginia
  
CITY           SKY/WX    TMP DP  RH WIND       PRES   REMARKS
MORGANTOWN     SUNNY     74  39  28 VRB5      30.19F                  
CLARKSBURG     SUNNY     76  39  26 CALM      30.17F                  
BUCKHANNON     SUNNY     73  36  25 CALM      30.18F                  
$$

WVZ515-516-025-034-042-507-232100-
Southern West Virginia
  
CITY           SKY/WX    TMP DP  RH WIND       PRES   REMARKS
BECKLEY        SUNNY     71  34  25 VRB3      30.19F                  
LOGAN          FAIR      72  39  30 CALM      30.16F                  
PINEVILLE      NOT AVBL                                               
BLUEFIELD      SUNNY     68  32  26 VRB3      30.21F                  
LEWISBURG      SUNNY     70  34  26 CALM      30.19F                  
$$

WVZ525-526-232100-
Northern Mountains of West Virginia
  
CITY           SKY/WX    TMP DP  RH WIND       PRES   REMARKS
ELKINS         SUNNY     74  31  20 NW7       30.18F                  
$$

WVZ502-504-052-232100-
Eastern Panhandle of West Virginia
  
CITY           SKY/WX    TMP DP  RH WIND       PRES   REMARKS
PETERSBURG     MOSUNNY   66  43  42 CALM      30.23F                  
CUMBERLAND     MOSUNNY   65  40  40 CALM      30.27F                  
MARTINSBURG    CLOUDY    64  47  53 N7        30.22F                  
$$

OHZ075-083-KYZ101-232100-
Southeast Ohio/Northeast Kentucky
  
CITY           SKY/WX    TMP DP  RH WIND       PRES   REMARKS
ATHENS         SUNNY     78  42  28 SE7       30.13F HAZE             
JACKSON        NOT AVBL                                               
ASHLAND        SUNNY     78  46  32 E7        30.13F                  
$$
  
