ASUS41 KRLX 231710
RWRRLX
Regional Weather Roundup
National Weather Service Charleston WV
100 PM EDT SUN OCT 23 2022

Note: "fair" indicates few or no clouds below 12,000 feet with no
significant weather and/or obstructions to visibility.

WVZ003-231800-
Northern Panhandle of West Virginia
  
CITY           SKY/WX    TMP DP  RH WIND       PRES   REMARKS
WHEELING       SUNNY     68  40  35 CALM      30.23F                  
$$

WVZ009-231800-
Northwest West Virginia
  
CITY           SKY/WX    TMP DP  RH WIND       PRES   REMARKS
PARKERSBURG    SUNNY     71  44  37 CALM      30.22F                  
$$

WVZ006-231800-
Western West Virginia
  
CITY           SKY/WX    TMP DP  RH WIND       PRES   REMARKS
HUNTINGTON     SUNNY     73  43  33 CALM      30.20F                  
POINT PLEASANT NOT AVBL                                               
$$

WVZ015-231800-
West Central West Virginia
  
CITY           SKY/WX    TMP DP  RH WIND       PRES   REMARKS
CHARLESTON     MOSUNNY   71  45  39 VRB3      30.21F                  
$$

WVZ509-031-039-231800-
North Central West Virginia
  
CITY           SKY/WX    TMP DP  RH WIND       PRES   REMARKS
MORGANTOWN     SUNNY     69  37  30 SE3       30.24F                  
CLARKSBURG     SUNNY     70  39  32 CALM      30.24F                  
BUCKHANNON     SUNNY     75  37  25 VRB5      30.23F HAZE             
$$

WVZ515-516-025-034-042-507-231800-
Southern West Virginia
  
CITY           SKY/WX    TMP DP  RH WIND       PRES   REMARKS
BECKLEY        SUNNY     67  35  30 VRB3      30.25F                  
LOGAN          FAIR      70  41  35 CALM      30.23F                  
PINEVILLE      NOT AVBL                                               
BLUEFIELD      SUNNY     64  34  32 VRB5      30.26F                  
LEWISBURG      SUNNY     63  39  42 CALM      30.25F                  
$$

WVZ525-526-231800-
Northern Mountains of West Virginia
  
CITY           SKY/WX    TMP DP  RH WIND       PRES   REMARKS
ELKINS         SUNNY     67  37  33 N5        30.25F                  
$$

WVZ502-504-052-231800-
Eastern Panhandle of West Virginia
  
CITY           SKY/WX    TMP DP  RH WIND       PRES   REMARKS
PETERSBURG     MOSUNNY   63  43  48 CALM      30.29F                  
CUMBERLAND     MOSUNNY   58  43  56 CALM      30.34F                  
MARTINSBURG    CLOUDY    62  44  51 N5        30.27S                  
$$

OHZ075-083-KYZ101-231800-
Southeast Ohio/Northeast Kentucky
  
CITY           SKY/WX    TMP DP  RH WIND       PRES   REMARKS
ATHENS         RAIN      76  48  36 CALM      30.20F                  
JACKSON        NOT AVBL                                               
ASHLAND        SUNNY     74  49  41 CALM      30.20F                  
$$
  
