ASUS41 KRLX 232110
RWRRLX
Regional Weather Roundup
National Weather Service Charleston WV
500 PM EDT SUN OCT 23 2022

Note: "fair" indicates few or no clouds below 12,000 feet with no
significant weather and/or obstructions to visibility.

WVZ003-232200-
Northern Panhandle of West Virginia
  
CITY           SKY/WX    TMP DP  RH WIND       PRES   REMARKS
WHEELING       SUNNY     72  39  30 E6        30.16F                  
$$

WVZ009-232200-
Northwest West Virginia
  
CITY           SKY/WX    TMP DP  RH WIND       PRES   REMARKS
PARKERSBURG    SUNNY     77  45  32 CALM      30.14F                  
$$

WVZ006-232200-
Western West Virginia
  
CITY           SKY/WX    TMP DP  RH WIND       PRES   REMARKS
HUNTINGTON     SUNNY     76  41  28 VRB3      30.11F                  
POINT PLEASANT NOT AVBL                                               
$$

WVZ015-232200-
West Central West Virginia
  
CITY           SKY/WX    TMP DP  RH WIND       PRES   REMARKS
CHARLESTON     MOSUNNY   74  41  30 S3        30.13F                  
$$

WVZ509-031-039-232200-
North Central West Virginia
  
CITY           SKY/WX    TMP DP  RH WIND       PRES   REMARKS
MORGANTOWN     SUNNY     74  36  25 N3        30.18F                  
CLARKSBURG     SUNNY     77  39  25 N3        30.16F                  
BUCKHANNON       N/A     75  34  22 NE7       30.16F                  
$$

WVZ515-516-025-034-042-507-232200-
Southern West Virginia
  
CITY           SKY/WX    TMP DP  RH WIND       PRES   REMARKS
BECKLEY        SUNNY     71  33  24 MISG      30.18F                  
LOGAN          FAIR      73  39  29 CALM      30.15F                  
PINEVILLE      NOT AVBL                                               
BLUEFIELD      SUNNY     67  27  22 NE8       30.20F                  
LEWISBURG      SUNNY     70  34  26 CALM      30.18F                  
$$

WVZ525-526-232200-
Northern Mountains of West Virginia
  
CITY           SKY/WX    TMP DP  RH WIND       PRES   REMARKS
ELKINS         SUNNY     73  32  22 VRB6      30.17F HAZE             
$$

WVZ502-504-052-232200-
Eastern Panhandle of West Virginia
  
CITY           SKY/WX    TMP DP  RH WIND       PRES   REMARKS
PETERSBURG     SUNNY     64  45  48 E3        30.22F HAZE             
CUMBERLAND     CLOUDY    65  41  41 CALM      30.26F                  
MARTINSBURG    CLOUDY    65  47  52 N9        30.21F                  
$$

OHZ075-083-KYZ101-232200-
Southeast Ohio/Northeast Kentucky
  
CITY           SKY/WX    TMP DP  RH WIND       PRES   REMARKS
ATHENS         SUNNY     76  42  29 SE6       30.12F                  
JACKSON        NOT AVBL                                               
ASHLAND        SUNNY     77  46  33 E7        30.11F                  
$$
  
