ASUS45 KCYS 232110
RWRWY 

WYOMING REGIONAL WEATHER ROUNDUP
NATIONAL WEATHER SERVICE CHEYENNE WY
300 PM MDT SUN OCT 23 2022

NOTE:  "FAIR" INDICATES FEW OR NO CLOUDS BELOW 12,000 FEET
WITH NO SIGNIFICANT WEATHER AND/OR OBSTRUCTIONS TO VISIBILITY.

WYZ001-232200-
YELLOWSTONE NATIONAL PARK
  
CITY           SKY/WX    TMP DP  RH WIND       PRES   REMARKS
LK YELLOWSTONE   N/A     27  18  69 VRB7G18   29.71R WCI  19          
W YELLOWSTONE  NOT AVBL                                               

$$
WYZ002>013-054>058-071-098>099-232200-
NORTHERN WYOMING
  
CITY           SKY/WX    TMP DP  RH WIND       PRES   REMARKS
JACKSON        CLOUDY    35  19  52 NW12G21   29.71R WCI  27          
CODY           FAIR      39  25  57 N15       29.63R WCI  31          
GREYBULL       CLOUDY    40  34  79 N20G36    29.62R WCI  30          
WORLAND        PTSUNNY   40  31  70 N15G29    29.62R WCI  32          
SHERIDAN       CLOUDY    39  32  76 NW29G38   29.59R WCI  27          
BUFFALO        CLOUDY    37  28  70 NW31G54   29.50R WCI  24          
GILLETTE       CLOUDY    35  32  88 MISG      29.51R                  
NEWCASTLE      LGT RAIN  34  32  93 NW22G32   29.44R WCI  22          

$$
WYZ014>020-022>026-101>103-232200-
CENTRAL WYOMING
  
CITY           SKY/WX    TMP DP  RH WIND       PRES   REMARKS
BIG PINEY      FAIR      38  14  37 N25G38    29.67R WCI  27          
PINEDALE       FLURRIES  32  23  69 NW26      29.66R WCI  18          
DUBOIS         FLURRIES  32  19  59 N14G30    29.63R WCI  22          
LANDER         CLOUDY    36  32  85 E6        29.62R WCI  31          
RIVERTON       CLOUDY    36  31  82 N10G20    29.61R WCI  28          
CASPER         LGT RAIN  37  36  96 W13       29.54R WCI  29          
DOUGLAS        CLOUDY    41  32  70 NW21G29   29.51R                  

$$
WYZ021-027>030-104>119-232200-
SOUTHERN WYOMING
  
CITY           SKY/WX    TMP DP  RH WIND       PRES   REMARKS
EVANSTON       CLOUDY    31  23  72 W21G28    29.76R WCI  18          
KEMMERER       FAIR      32  23  69 W28G36    29.73R WCI  18          
ROCK SPRINGS   CLOUDY    36  24  62 W15G24    29.64S WCI  27          
RAWLINS        LGT SNOW  33  29  85 W15       29.59R FOG     WCI  23  
SARATOGA       LGT SNOW  32  32 100 W21       29.60R WCI  20          
LARAMIE        PTSUNNY   38  22  52 NW26G41   29.46R WCI  26          
CHEYENNE       CLOUDY    47  25  42 N22G33    29.39R                  
TORRINGTON     CLOUDY    46  34  62 NW26G41   29.41R                  
PINE BLUFFS    CLOUDY    50  32  50 N24G32    29.40R                  

$$
  
