ASUS45 KCYS 231910
RWRWY 

WYOMING REGIONAL WEATHER ROUNDUP
NATIONAL WEATHER SERVICE CHEYENNE WY
100 PM MDT SUN OCT 23 2022

NOTE:  "FAIR" INDICATES FEW OR NO CLOUDS BELOW 12,000 FEET
WITH NO SIGNIFICANT WEATHER AND/OR OBSTRUCTIONS TO VISIBILITY.

WYZ001-232000-
...YELLOWSTONE NATIONAL PARK...
  
CITY           SKY/WX    TMP DP  RH WIND       PRES   REMARKS
LK YELLOWSTONE   N/A     25  20  81 MISG      29.68R                  
W YELLOWSTONE  NOT AVBL                                               

$$
WYZ002>013-054>058-071-098>099-232000-
...NORTHERN WYOMING...
  
CITY           SKY/WX    TMP DP  RH WIND       PRES   REMARKS
JACKSON        CLOUDY    33  22  63 W14G21    29.68R WCI  23          
CODY           CLOUDY    37  30  75 N10       29.62S WCI  30          
GREYBULL       CLOUDY    38  35  89 NW17      29.60S WCI  28          
WORLAND        NOT AVBL                                               
SHERIDAN       CLOUDY    38  34  85 NW23G36   29.57S WCI  27          
BUFFALO        CLOUDY    37  32  82 N36G48    29.48F WCI  23          
GILLETTE       CLOUDY    35  32  88 MISG      29.47S                  
HULETT         NOT AVBL                                               
NEWCASTLE      CLOUDY    37  32  81 NW28G36   29.40R WCI  25          

$$
WYZ014>020-022>026-101>103-232000-
...CENTRAL WYOMING...
  
CITY           SKY/WX    TMP DP  RH WIND       PRES   REMARKS
BIG PINEY      PTSUNNY   37  14  38 NW25G35   29.63R WCI  25          
PINEDALE       PTSUNNY   34  19  55 W26G32    29.61S WCI  21          
DUBOIS         PTSUNNY   36  18  48 W23G30    29.57S WCI  24          
LANDER         CLOUDY    35  33  92 E5        29.59S WCI  31          
RIVERTON       LGT SNOW  34  32  92 N17       29.59R FOG     WCI  23  
CASPER         CLOUDY    37  35  92 W3        29.51S                  
DOUGLAS        CLOUDY    39  35  86 NW18G29   29.49R WCI  30          

$$
WYZ021-027>030-104>119-232000-
...SOUTHERN WYOMING...
  
CITY           SKY/WX    TMP DP  RH WIND       PRES   REMARKS
EVANSTON       CLOUDY    31  22  69 W18       29.71R WCI  19          
KEMMERER       CLOUDY    30  23  74 W21G28    29.69R WCI  17          
FORT BRIDGER   NOT AVBL                                               
ROCK SPRINGS   CLOUDY    33  25  72 W16G25    29.62R WCI  23          
DIXON          NOT AVBL                                               
RAWLINS        CLOUDY    33  28  81 W14       29.56R WCI  23          
SARATOGA       CLOUDY    32  28  86 W14       29.58R WCI  22          
LARAMIE        CLOUDY    43  25  49 NW20G26   29.45S                  
CHEYENNE       LGT RAIN  53  31  42 NW20G37   29.37F                  
TORRINGTON     PTSUNNY   51  37  58 NW22G45   29.32S                  
PINE BLUFFS    MOSUNNY   59  30  33 NW25      29.35S                  

$$
  
