ASUS41 KPHI 220010
RWRPHI

REGIONAL WEATHER ROUNDUP
NATIONAL WEATHER SERVICE MOUNT HOLLY NJ
800 PM EDT FRI OCT 21 2022

NOTE:  "FAIR" INDICATES FEW OR NO CLOUDS BELOW 12,000 FEET WITH NO
SIGNIFICANT WEATHER AND/OR OBSTRUCTIONS TO VISIBILITY.

 * = STATION DOES NOT REPORT PRECIPITATION (E.G. RAIN, SNOW, ETC.) 
        OR FOG.

NJZ015>026-220100-
SOUTHERN NEW JERSEY
  
CITY           SKY/WX    TMP DP  RH WIND       PRES   REMARKS
POMONA         CLEAR     49  42  77 CALM      30.16R                  
6HR MIN TEMP:  48; 6HR MAX TEMP:  66;                                

WILDWOOD*        N/A     51  47  86 CALM      30.17R                  
MILLVILLE      CLEAR     45  39  79 CALM      30.16R                  
WRIGHTSTOWN    CLEAR     49  36  61 S6        30.14R                  
MOUNT HOLLY    CLEAR     51  37  58 VRB3      30.15                   
TRENTON        CLEAR     52  34  50 CALM      30.13R                  
6HR MIN TEMP:  51; 6HR MAX TEMP:  63;                                


$$
NJZ001>014-220100-
NORTHERN NEW JERSEY
  
CITY           SKY/WX    TMP DP  RH WIND       PRES   REMARKS
SUSSEX         CLEAR     46  36  68 CALM      30.13R                  
ANDOVER*         N/A     46  38  73 CALM      30.13R                  
MORRISTOWN     CLEAR     45  41  87 CALM      30.14R                  
NEWARK         CLEAR     58  42  55 S5        30.14R                  
TETERBORO      CLEAR     54  36  50 CALM      30.13R                  
CALDWELL       CLEAR     55  34  45 S3        30.14R                  
SOMERVILLE     CLEAR     45  38  76 CALM      30.12R                  
ALLAIRE*       CLEAR     52  44  74 CALM      30.16S                  

$$
PAZ043-044-047-054-055-060>062-066>071-220100-
EASTERN PENNSYLVANIA
  
CITY           SKY/WX    TMP DP  RH WIND       PRES   REMARKS
PHILADELPHIA   CLEAR     57  37  47 S8        30.15R                  
6HR MIN TEMP:  57; 6HR MAX TEMP:  65;                                

NORTH PHILA    CLEAR     52  33  48 CALM      30.15R                  
BLUE BELL*     CLEAR     44  40  87 CALM      30.14S                  
DOYLESTOWN     CLEAR     52  34  50 CALM      30.13R                  
QUAKERTOWN*    CLEAR     45  37  76 CALM      30.13S                  
PERKASIE*      FAIR      45  36  70 CALM      30.14S                  
POTTSTOWN      CLEAR     46  36  68 CALM      30.15R                  
LANCASTER      CLEAR     53  33  46 S6        30.12R                  
COATESVILLE    CLEAR     50  32  50 CALM      30.15R                  
WEST CHESTER   FAIR      52  34  50 CALM      30.14S                  
READING        CLEAR     54  33  45 S5        30.12R                  
6HR MIN TEMP:  54; 6HR MAX TEMP:  64;                                

ALLENTOWN      CLEAR     49  33  54 S3        30.13R                  
6HR MIN TEMP:  47; 6HR MAX TEMP:  63;                                

QN CITY/ALNTWN FAIR      50  36  57 CALM      30.14R                  
MOUNT POCONO   CLEAR     45  29  53 S3        30.11R                  
6HR MIN TEMP:  45; 6HR MAX TEMP:  56;                                

HAZLETON       CLEAR     46  30  53 CALM      30.14R                  
LEHIGHTON      FAIR      37  32  81 CALM      30.14R                  
WILKES BARRE   CLEAR     53  29  39 CALM      30.10R                  

$$
DEZALL-MDZ008-012-015-019-020-220100-
DELAWARE AND EASTERN MARYLAND
  
CITY           SKY/WX    TMP DP  RH WIND       PRES   REMARKS
WILMINGTON     CLEAR     54  38  54 S7        30.15R                  
6HR MIN TEMP:  54; 6HR MAX TEMP:  65;                                

DOVER          CLEAR     52  43  70 SE6       30.13R                  
CHESWOLD       PTCLDY    50  43  76 CALM      30.14S                  
GEORGETOWN     CLEAR     51  42  71 CALM      30.16R                  
6HR MIN TEMP:  50; 6HR MAX TEMP:  69;                                

EASTON         CLEAR     52  43  71 CALM      30.18R                  
PATUXENT       CLEAR     56  43  61 S5        30.14R                  
OCEAN CITY     NOT AVBL                                               
WALLOPS ISLAND CLEAR     53  45  74 CALM      30.17R                  
CAMBRIDGE      CLEAR     48  45  87 CALM      30.15R                  
SALISBURY      CLEAR     50  43  77 CALM      30.16R                  

$$
PAZ001-021-NYZ056-072-MDZ011-DCZ001-220100-
OTHER NEARBY LOCATIONS
  
CITY           SKY/WX    TMP DP  RH WIND       PRES   REMARKS
HARRISBURG     CLEAR     51  40  65 E3        30.11R                  
STATE COLLEGE  CLEAR     52  30  43 S6        30.07R                  
WILLIAMSPORT   CLEAR     57  29  34 S8        30.07R                  
BINGHAMTON     CLEAR     49  25  39 SW7       30.07R                  
NEW YORK CITY  CLEAR     57  41  55 VRB3      30.17R                  
BALTIMORE      PTCLDY    56  34  43 S3        30.13R                  
WASHINGTON DC  PTCLDY    57  40  52 S3        30.14R                  

$$
  
