ASUS41 KCTP 220103
RWRCTP

REGIONAL WEATHER ROUNDUP
NATIONAL WEATHER SERVICE STATE COLLEGE PA
900 PM EDT FRI OCT 21 2022

Note: "fair" indicates few or no clouds below 12,000 feet with no 
significant weather and/or obstructions to visibility.

* = STATION THAT DOES NOT REPORT PRECIPITATION /E.G. RAIN...SNOW...ETC/
    THUNDER OR FOG.

PAZ002>004-007>009-013>016-020>023-029>032-220200-
WESTERN PENNSYLVANIA
  
CITY           SKY/WX    TMP DP  RH WIND       PRES   REMARKS
ERIE           CLEAR     58  32  37 S17       29.94S                  
MEADVILLE      CLEAR     54  31  41 S7        30.00R                  
FRANKLIN       CLEAR     51  31  46 S12       30.03R                  
NEW CASTLE     FAIR      51  32  48 CALM      30.03R                  
BEAVER COUNTY  CLEAR     55  30  38 S6        30.03S                  
BUTLER         CLEAR     52  31  44 SE6       30.05R                  
PITTSBURGH INT PTCLDY    52  31  44 S3        30.03R                  
PITTSBURGH     CLEAR     55  29  36 S5        30.04R                  
INDIANA*       MOCLDY    45  36  70 CALM      30.09R                  
LATROBE        CLEAR     45  36  70 CALM      30.06R                  
WASHINGTON CO* CLEAR     45  35  68 CALM      30.07R                  
$$

PAZ004>006-010>012-017>019-024>028-033>037-041-042-045-046-049>053-220200-
CENTRAL PENNSYLVANIA
  
CITY           SKY/WX    TMP DP  RH WIND       PRES   REMARKS
BRADFORD       CLEAR     48  29  47 SE5       30.04R                  
ST MARYS       NOT AVBL                                               
DUBOIS         CLEAR     53  29  39 SE5       30.05R                  
CLEARFIELD     CLEAR     47  32  56 CALM      30.08R                  
JOHNSTOWN      CLEAR     50  29  44 S10       30.07R                  
SOMERSET       FAIR      48  28  46 S9        30.08R                  
ALTOONA        CLEAR     50  30  46 S6        30.09R                  
STATE COLLEGE  CLEAR     50  30  46 W3        30.11R                  
REEDSVILLE     FAIR      46  34  61 CALM      30.10R                  
WELLSBORO      FAIR      46  28  49 S8        30.07R                  
WILLIAMSPORT   CLEAR     46  32  58 CALM      30.10R                  
SELINSGROVE    CLEAR     37  34  89 CALM      30.12R                  
FT INDIANTOWN  CLEAR     42  32  67 CALM      30.11R                  
CAPITAL CITY   CLEAR     57  32  38 S6        30.13R                  
HARRISBURG     CLEAR     49  37  63 CALM      30.13R                  
YORK           CLEAR     40  34  79 CALM      30.13R                  
$$

PAZ038>040-043-044-047-048-054-055-060>062-067>071-220200-
EASTERN PENNSYLVANIA
  
CITY           SKY/WX    TMP DP  RH WIND       PRES   REMARKS
TOWANDA        CLEAR     43  32  65 CALM      30.13R                  
SCRANTON       CLEAR     46  31  55 CALM      30.12R                  
MOUNT POCONO   CLEAR     40  30  67 CALM      30.13R                  
HAZLETON       FAIR      46  30  53 CALM      30.15R                  
LEHIGHTON      FAIR      36  32  87 CALM      30.15R                  
ALLENTOWN      CLEAR     49  33  54 CALM      30.14R                  
QN CITY/ALNTWN FAIR      50  36  57 S5        30.15R                  
QUAKERTOWN*    CLEAR     43  37  81 CALM      30.15R                  
PERKASIE*      CLEAR     41  37  87 CALM      30.16R                  
DOYLESTOWN     CLEAR     48  35  60 CALM      30.14R                  
READING        CLEAR     52  34  50 SW6       30.13R                  
LANCASTER      CLEAR     51  33  50 S3        30.14R                  
COATESVILLE    CLEAR     48  32  53 CALM      30.17R                  
WEST CHESTER   CLEAR     52  34  50 CALM      30.16R                  
POTTSTOWN      CLEAR     44  35  70 CALM      30.17R                  
BLUE BELL      CLEAR     42  39  91 CALM      30.16R                  
NORTH PHILA    CLEAR     49  33  54 CALM      30.17R                  
PHILADELPHIA   CLEAR     55  36  48 SW5       30.16R                  
$$
  
