ASUS41 KPHI 212310
RWRPHI

REGIONAL WEATHER ROUNDUP
NATIONAL WEATHER SERVICE MOUNT HOLLY NJ
700 PM EDT FRI OCT 21 2022

NOTE:  "FAIR" INDICATES FEW OR NO CLOUDS BELOW 12,000 FEET WITH NO
SIGNIFICANT WEATHER AND/OR OBSTRUCTIONS TO VISIBILITY.

 * = STATION DOES NOT REPORT PRECIPITATION (E.G. RAIN, SNOW, ETC.) 
        OR FOG.

NJZ015>026-220000-
SOUTHERN NEW JERSEY
  
CITY           SKY/WX    TMP DP  RH WIND       PRES   REMARKS
POMONA         CLEAR     56  44  64 S3        30.15R                  
WILDWOOD*        N/A     53  47  79 CALM      30.16R                  
MILLVILLE      CLEAR     50  40  68 CALM      30.14R                  
WRIGHTSTOWN    CLEAR     53  36  51 SE6       30.13R                  
TRENTON        CLEAR     56  31  38 SW3       30.12R                  

$$
NJZ001>014-220000-
NORTHERN NEW JERSEY
  
CITY           SKY/WX    TMP DP  RH WIND       PRES   REMARKS
SUSSEX         CLEAR     50  36  58 CALM      30.12R                  
ANDOVER*         N/A     50  40  68 CALM      30.12R                  
MORRISTOWN     CLEAR     57  39  51 S6        30.13R                  
NEWARK         CLEAR     59  38  45 SE6       30.13R                  
TETERBORO      CLEAR     55  34  45 S5        30.12R                  
CALDWELL       CLEAR     57  33  40 S3        30.13R                  
SOMERVILLE     CLEAR     49  38  65 CALM      30.11R                  
ALLAIRE*       CLEAR     54  42  64 SE5       30.16R                  

$$
PAZ043-044-047-054-055-060>062-066>071-220000-
EASTERN PENNSYLVANIA
  
CITY           SKY/WX    TMP DP  RH WIND       PRES   REMARKS
PHILADELPHIA   CLEAR     57  36  45 S5        30.14R                  
NORTH PHILA    CLEAR     56  32  40 CALM      30.14R                  
BLUE BELL*     CLEAR     47  39  74 CALM      30.13R                  
DOYLESTOWN     CLEAR     53  35  50 S5        30.12R                  
QUAKERTOWN*    CLEAR     50  36  57 CALM      30.12R                  
PERKASIE*      FAIR      48  36  61 CALM      30.13R                  
POTTSTOWN      CLEAR     51  36  56 CALM      30.13R                  
LANCASTER      CLEAR     56  34  43 S6        30.11R                  
COATESVILLE    CLEAR     54  32  43 CALM      30.14R                  
WEST CHESTER   FAIR      54  34  47 CALM      30.13R                  
READING        CLEAR     56  32  40 S5        30.10R                  
ALLENTOWN      CLEAR     54  31  41 S5        30.11R                  
QN CITY/ALNTWN FAIR      55  34  44 S3        30.13R                  
MOUNT POCONO   CLEAR     48  29  47 S5        30.10R                  
HAZLETON       CLEAR     50  28  43 CALM      30.13R                  
LEHIGHTON      FAIR      43  32  65 CALM      30.11S                  
WILKES BARRE   CLEAR     55  28  35 CALM      30.08R                  

$$
DEZALL-MDZ008-012-015-019-020-220000-
DELAWARE AND EASTERN MARYLAND
  
CITY           SKY/WX    TMP DP  RH WIND       PRES   REMARKS
WILMINGTON     CLEAR     56  35  45 S6        30.14R                  
DOVER          CLEAR     55  45  70 SE7       30.12R                  
CHESWOLD       CLEAR     54  39  58 CALM      30.13R                  
GEORGETOWN     CLEAR     55  42  61 SE5       30.15R                  
EASTON         CLEAR     55  41  58 CALM      30.17R                  
PATUXENT       CLEAR     56  46  69 S3        30.13S                  
OCEAN CITY     NOT AVBL                                               
WALLOPS ISLAND CLEAR     54  44  69 S3        30.15S                  
CAMBRIDGE      CLEAR     52  43  71 CALM      30.13S                  
SALISBURY      CLEAR     54  43  66 SE5       30.15R                  

$$
PAZ001-021-NYZ056-072-MDZ011-DCZ001-220000-
OTHER NEARBY LOCATIONS
  
CITY           SKY/WX    TMP DP  RH WIND       PRES   REMARKS
HARRISBURG     CLEAR     53  39  59 E3        30.09R                  
STATE COLLEGE  CLEAR     54  28  37 S5        30.06R                  
WILLIAMSPORT   CLEAR     58  29  33 S15       30.05S                  
BINGHAMTON     CLEAR     50  25  37 S8        30.05R                  
NEW YORK CITY  CLEAR     57  32  38 VRB5      30.16R                  
BALTIMORE      PTCLDY    57  32  38 S5        30.12R                  
WASHINGTON DC  PTCLDY    61  36  39 SE6       30.13R                  

$$
  
