FTUS80 KWBC 212333
TAF
KABQ 212332Z 2200/2224 27012KT P6SM FEW090
     FM220300 VRB06KT P6SM FEW200
     FM221900 24015G26KT P6SM SCT200=
KAGS 212331Z 2200/2224 00000KT P6SM SKC
     FM221500 07006KT P6SM SKC=
KAHN 212330Z 2200/2224 00000KT P6SM SKC
     FM221500 10005KT P6SM SKC=
KALO 212330Z 2200/2224 VRB04KT P6SM SKC
     FM220700 14006KT P6SM SCT250
     FM221400 17010KT P6SM SKC
     FM221800 17015G25KT P6SM SKC=
KAND 212330Z 2200/2224 VRB02KT P6SM SKC
     FM221500 08005KT P6SM FEW250=
KAPN 212331Z 2200/2224 20008KT P6SM SCT120 WS020/23045KT
     FM220500 22006KT P6SM SCT150
     FM221600 19005KT P6SM SKC=
KAST 212329Z 2200/2224 12006KT 2SM -RA BR SCT008 OVC015
     FM220300 33010G17KT 5SM SHRA BKN015 OVC035
     FM220800 30015G22KT P6SM SHRA SCT015 BKN025 OVC035
     FM221500 29011KT P6SM -SHRA SCT015 BKN035 BKN060=
KATL 212330Z 2200/2306 15003KT P6SM SKC
     FM221500 13006KT P6SM SKC=
KAVL 212330Z 2200/2224 VRB02KT P6SM SKC
     FM221800 16006KT P6SM FEW250=
KAZO 212331Z 2200/2224 18007KT P6SM FEW250 WS020/22045KT
     FM221100 18008KT P6SM SKC
     FM221300 18012G21KT P6SM SKC=
KBBG 212330Z 2200/2224 18006KT P6SM SKC
     FM220600 17006KT P6SM BKN250 WS020/22040KT
     FM221400 18012G24KT P6SM BKN230 WS020/21040KT
     FM221600 18016G27KT P6SM BKN240=
KBMI 212330Z 2200/2224 18014KT P6SM FEW250
     FM221600 17015G23KT P6SM FEW250
     FM222300 16014KT P6SM FEW250=
