FTUS80 KWBC 212300 AAA
TAF AMD
KABI 212258Z 2123/2218 20016G23KT P6SM SKC
     FM220000 19014KT P6SM SKC
     FM220300 19018G26KT P6SM SKC
     FM221500 22020G29KT P6SM SKC=
