FTUS80 KWBC 212342 RRD
TAF
KSBA 212339Z 2200/2224 25006KT P6SM SKC
     FM220200 23005KT 5SM BR BKN007
     FM220700 VRB03KT 3SM BR OVC004
     FM221400 VRB03KT 6SM BR OVC012
     FM222000 27010KT P6SM OVC015=
KSBP 212339Z 2200/2224 30010KT P6SM SKC
     FM220400 30005KT P6SM BKN007
     FM220800 VRB03KT 4SM BR OVC004
     FM221400 15004KT 6SM BR OVC007
     FM221600 21006KT P6SM OVC012
     FM222000 31018KT P6SM BKN050=
KSFO 212338Z 2200/2306 30018KT P6SM FEW010 FEW200
     FM220400 26012KT P6SM FEW009 BKN200
     FM220800 29017KT P6SM BKN010 BKN200
     FM221600 29022G31KT P6SM FEW010 BKN150
     FM222100 29025G34KT P6SM SCT250
     FM230400 30010KT P6SM SKC=
KSHV 212338Z 2200/2224 20011KT P6SM SKC
     FM221500 19018G29KT P6SM SKC=
KSJC 212338Z 2200/2224 32012G18KT P6SM FEW250
     FM220800 13007KT P6SM BKN025
     FM221200 15010KT P6SM OVC015
     FM221600 31014G22KT P6SM FEW015=
KSLN 212340Z 2200/2224 19009KT P6SM FEW250
     FM220600 18007KT P6SM FEW250 WS020/20035KT
     FM221200 18007KT P6SM SKC
     FM221800 17015G22KT P6SM SKC=
KSMO 212339Z 2200/2224 24007KT P6SM SCT010
     FM220500 VRB03KT 5SM BR OVC007
     FM220800 VRB03KT 6SM HZ BR OVC012
     FM221700 16004KT P6SM OVC015
     FM222100 21008KT P6SM OVC025=
