FTUS80 KWBC 212330 RRC
TAF
KPOU 212327Z 2200/2224 VRB02KT P6SM FEW200
     FM221600 18005KT P6SM SKC=
KPSF 212327Z 2200/2224 VRB03KT P6SM FEW200
     FM221400 19006KT P6SM FEW250=
KRDG 212328Z 2200/2224 18003KT P6SM SKC
     FM221900 19005KT P6SM SKC=
KSDY 212327Z 2200/2224 VRB05KT P6SM -RA OVC050
     FM220700 VRB02KT 6SM -RA BR OVC015
     FM221200 VRB05KT P6SM OVC020
     FM221900 07010KT P6SM OVC020 PROB30 2219/2224 6SM -RA BR=
KSHR 212329Z 2200/2224 29011KT P6SM SCT100 BKN150
     FM220600 VRB06KT P6SM BKN100
     FM222100 30009KT P6SM VCSH SCT080 BKN100=
KSSI 212326Z 2200/2224 03004KT P6SM SKC
     FM220600 35004KT P6SM SKC
     FM221300 01010KT P6SM FEW250
     FM221600 02012G18KT P6SM FEW050=
KTCS 212328Z 2200/2224 19010KT P6SM FEW250
     FM220300 28007KT P6SM SCT250
     FM221800 23017G27KT P6SM BKN100=
KTTN 212328Z 2200/2224 VRB03KT P6SM SKC
     FM221900 20006KT P6SM SKC=
PABE 212329Z 2200/2224 23012KT P6SM VCSH SCT025 BKN050
     FM220800 VRB06KT P6SM BKN025
     FM221000 VRB06KT P6SM BKN003=
PACD 212329Z 2200/2224 VRB06KT P6SM SCT025 BKN050
     FM220600 VRB06KT P6SM VCSH OVC025
     FM220900 VRB06KT 4SM -RA BR OVC007
     FM221300 VRB06KT 2SM -RA BR OVC003
     FM221700 30010KT 4SM -RA BR OVC007=
PADL 212329Z 2200/2224 VRB06KT P6SM VCSH SCT025 BKN040
      TEMPO 2200/2204 BKN025=
