FTCA33 KWBC 212309
TAF
TAF TLPC 212300Z 2200/2224 09008KT 9999 SCT026
      TEMPO 2203/2209 SHRA BKN022=
TAF TLPL 212300Z 2200/2224 08014KT 9999 SCT026
      TEMPO 2203/2209 SHRA BKN022=
