FTUS80 KWBC 220000 RRA
TAF
KTWF 212340Z 2200/2224 29018KT P6SM SCT150
     FM220300 20012KT P6SM OVC100
     FM220800 24022G32KT P6SM -RA OVC040
     FM221500 24020G30KT P6SM -SHRA OVC050=
KUNV 212320Z 2200/2224 20004KT P6SM FEW250=
TAF PAFA 212343Z 2200/2306 25004KT 3SM -SN BR BKN020 OVC035
     FM220500 25003KT 5SM -SHSN BR BKN025
     FM220800 00000KT 2SM BR VCSH BKN005 BKN025
     FM221500 VRB03KT 3SM -SHSN BR BKN025
     FM222100 VRB03KT P6SM VCSH BKN025=
