FTUS80 KWBC 212336 RRA
TAF
KJAC 212332Z 2200/2224 22020G30KT P6SM SCT060 BKN090
     FM220100 20012G22KT P6SM SCT050 BKN070
     FM220600 20012G22KT P6SM VCSH SCT030 BKN040
     FM220900 21014G22KT 4SM -SHRA SCT015 OVC025
     FM221200 21013G22KT 2SM -SHRASN SCT008 OVC015
     FM221600 21012G20KT 4SM -RA SCT010 BKN020
     FM222100 21012G20KT P6SM VCSH SCT020 BKN030=
KLCH 212332Z 2200/2224 20007KT P6SM SKC
     FM221600 18012G17KT P6SM FEW250=
KLFT 212332Z 2200/2224 22009G15KT P6SM SKC
     FM221600 18012G17KT P6SM FEW250=
KLND 212332Z 2200/2224 27020G30KT P6SM FEW150
     FM220100 12008KT P6SM SCT150
     FM220500 22010G20KT P6SM SCT100 BKN150
     FM221000 10012KT P6SM SCT080 BKN120
     FM221700 26020G35KT P6SM SCT080 BKN120
     FM222200 32012G18KT P6SM SCT050 BKN080=
KMGM 212334Z 2200/2224 12002KT P6SM SKC
     FM221500 12006KT P6SM FEW250=
KRIW 212332Z 2200/2224 28020G30KT P6SM FEW150
     FM220100 30014G22KT P6SM SCT150
     FM220500 24012G20KT P6SM SCT100 BKN150
     FM221000 19008KT P6SM SCT080 BKN120
     FM221600 24015G25KT P6SM SCT080 BKN120
     FM222200 28020G30KT P6SM SCT080 BKN120=
KRKS 212332Z 2200/2224 26022G35KT P6SM FEW150
     FM220100 24015G25KT P6SM FEW150
     FM220600 22012G20KT P6SM SCT150
     FM221700 25018G30KT P6SM SCT080 BKN150
     FM222300 29015G25KT 3SM -SHRA SCT020 BKN030=
