FTUS80 KWBC 220015 AAA
TAF AMD
KSLC 220012Z 2200/2306 25008KT P6SM FEW150 FEW250
     FM220100 17010KT P6SM FEW150 SCT250
     FM220900 19015G25KT P6SM VCSH SCT080 OVC100
     FM221800 22016G30KT P6SM RA FEW040 OVC080
     FM221900 33014KT P6SM RA FEW040 OVC080=
