FTUS80 KWBC 212333 RRE
TAF
KOGB 212331Z 2200/2224 00000KT P6SM SKC
     FM221500 04006KT P6SM SKC
     FM221900 06005KT P6SM FEW045=
KONP 212329Z 2200/2224 20011G19KT 2SM -RA BR BKN005 OVC012
     FM220300 24020G28KT 2SM RA BR OVC007
     FM220600 31013G21KT P6SM -SHRA SCT005 OVC015
     FM221300 30010KT P6SM -SHRA SCT015 BKN025 OVC040
     FM221800 28009KT P6SM -SHRA SCT020 BKN035 BKN060 AMD NOT
      SKED=
KPDK 212330Z 2200/2224 00000KT P6SM SKC
     FM221700 14004KT P6SM SKC=
KPDX 212329Z 2200/2224 10004KT 3SM RA BR SCT007 OVC025
      TEMPO 2200/2202 2SM RA BR BKN007 OVC025
     FM220400 29005KT 5SM RA BR SCT008 BKN025 OVC040
     FM220700 27008KT P6SM -SHRA SCT015 BKN025 OVC045
     FM221100 28007KT P6SM -SHRA SCT020 BKN035 OVC050
     FM221800 25007KT P6SM -SHRA SCT020 BKN035 BKN070=
KPGA 212331Z 2200/2224 23007KT P6SM SKC
     FM221700 22010G20KT P6SM SKC
     FM222100 23018G28KT P6SM SCT090=
KPIA 212330Z 2200/2224 17011KT P6SM FEW250
     FM221600 17014G22KT P6SM FEW250
     FM222300 16013KT P6SM FEW250=
KPLN 212331Z 2200/2224 23009KT P6SM FEW150
     FM220300 23006KT P6SM FEW150
     FM221400 16004KT P6SM FEW190
     FM222000 14006KT P6SM FEW210=
KPRC 212331Z 2200/2224 23010KT P6SM FEW150
     FM220300 21007KT P6SM SKC
     FM221500 19010G20KT P6SM FEW040
     FM221900 20020G30KT P6SM BKN050=
