FTUS80 KWBC 212321 RRJ
TAF
KLAF 212320Z 2200/2224 19010KT P6SM SCT250
     FM220300 19009KT P6SM SCT250 WS015/21040KT
     FM220900 19009KT P6SM SCT250
     FM221500 19012G22KT P6SM SCT250 AMD LTD TO CLD VIS AND WIND
      2201/2213=
KLAR 212320Z 2200/2224 26024G35KT P6SM SCT150
     FM220200 24015G25KT P6SM SCT150
     FM221300 22028G40KT P6SM BKN150=
KLAS 212320Z 2200/2306 13006KT P6SM FEW200
     FM220200 21010KT P6SM SKC
     FM221000 20013G23KT P6SM FEW200 WS020/23040KT
     FM221900 21022G32KT 6SM BLDU SCT200 BKN250
     FM222200 21032G42KT 6SM BLDU SCT200 BKN250
     FM230400 25020G30KT P6SM BKN100=
KLBE 212320Z 2200/2224 17006KT P6SM SKC=
KLBF 212320Z 2200/2224 VRB04KT P6SM FEW250
     FM220900 26006KT P6SM FEW250
     FM221600 23011KT P6SM FEW250
     FM222100 20011KT P6SM FEW250=
KLBT 212320Z 2200/2224 02003KT P6SM SKC
     FM221300 03007KT P6SM FEW045=
KLBX 212320Z 2200/2224 18012G20KT P6SM SKC
     FM220200 18006KT P6SM SKC
     FM221500 18013G21KT P6SM SCT025
     FM221800 18018G25KT P6SM FEW020 SCT040=
KLEB 212320Z 2200/2224 18003KT P6SM SKC=
KLEX 212320Z 2200/2224 17008KT P6SM BKN250
     FM221500 19015G20KT P6SM SCT250=
KLGA 212320Z 2200/2306 19008KT P6SM SKC
     FM220200 21005KT P6SM SKC
     FM220700 VRB03KT P6SM SKC
     FM221400 20005KT P6SM SKC
     FM222000 16007KT P6SM FEW250
     FM230200 06005KT P6SM SCT250=
