FTUS80 KWBC 212336
TAF
KAEX 212332Z 2200/2224 23009KT P6SM SKC
     FM221500 18012G18KT P6SM FEW250=
KANB 212334Z 2200/2224 VRB02KT P6SM SKC
     FM221500 17006KT P6SM FEW250=
KARA 212332Z 2200/2224 22008KT P6SM SKC
     FM221600 18012G18KT P6SM FEW250=
KASN 212334Z 2200/2224 VRB02KT P6SM SKC
     FM221500 17006KT P6SM FEW250=
KBHM 212334Z 2200/2224 14006KT P6SM SKC
     FM220200 16003KT P6SM SKC
     FM221500 18006KT P6SM FEW250=
KBPT 212332Z 2200/2224 22010KT P6SM SKC
     FM221600 17015G21KT P6SM FEW250=
KCOD 212332Z 2200/2224 26012G20KT P6SM FEW100 SCT150
     FM220200 VRB06KT P6SM SCT080 BKN120
     FM220700 15010KT P6SM SCT060 BKN090
     FM221600 24015G25KT P6SM FEW080 BKN120=
KCPR 212332Z 2200/2224 25025G35KT P6SM FEW150
     FM220200 23013G22KT P6SM FEW100 SCT150
     FM220900 23016G25KT P6SM SCT100 BKN150
     FM221400 23025G35KT P6SM SCT080 BKN150
     FM221700 25035G45KT P6SM SCT060 BKN100=
KEET 212334Z 2200/2224 16002KT P6SM SKC
     FM221500 17005KT P6SM FEW050=
KGRI 212335Z 2200/2224 16005KT P6SM FEW250
     FM221200 19007KT P6SM SKC
     FM221600 22007KT P6SM SKC
     FM222000 18011KT P6SM SKC=
