FTUS80 KWBC 212321 RRI
TAF
KIND 212320Z 2200/2306 18010KT P6SM SCT250
     FM220400 19009KT P6SM SCT250 WS020/22035KT
     FM220900 19009KT P6SM SCT250
     FM221500 19013G23KT P6SM SCT250
     FM222300 17010KT P6SM FEW250=
KINT 212320Z 2200/2224 VRB03KT P6SM FEW250=
KIPL 212320Z 2200/2224 VRB05KT P6SM FEW250
     FM220200 24008KT P6SM FEW250
     FM221900 25018G28KT 5SM BLDU FEW250=
KISP 212320Z 2200/2224 VRB03KT P6SM SKC
     FM221500 21005KT P6SM SKC
     FM221900 18007KT P6SM FEW250=
KITH 212320Z 2200/2224 17010KT P6SM SKC
     FM220400 16006KT P6SM FEW250 WS020/22030KT
     FM221200 18010KT P6SM SKC=
KIWA 212320Z 2200/2224 VRB05KT P6SM FEW250
      TEMPO 2200/2203 25006KT
     FM220400 13007KT P6SM FEW070 BKN250
     FM221700 16009KT P6SM SCT050 SCT180
     FM222000 22015G25KT P6SM SCT050 SCT180=
KJCT 212320Z 2200/2224 19005KT P6SM SKC
     FM221600 20013G21KT P6SM SKC=
KJFK 212320Z 2200/2306 18007KT P6SM SKC
     FM220300 21006KT P6SM SKC
     FM220700 VRB03KT P6SM SKC
     FM221400 20006KT P6SM SKC
     FM221900 17008KT P6SM FEW250
     FM230200 07005KT P6SM SCT250=
KJKA 212320Z 2200/2224 19004KT P6SM SKC
     FM220200 VRB03KT P6SM SKC
     FM221500 14010KT P6SM FEW050=
KJZI 212320Z 2200/2224 VRB03KT P6SM SKC
     FM221400 03008KT P6SM SCT050=
