FTUS80 KWBC 212321 RRL
TAF
KMFR 212320Z 2200/2224 30010KT P6SM BKN060
     FM220500 22008KT P6SM -RA OVC050
     FM221600 32010KT P6SM -SHRA OVC040=
KMGW 212320Z 2200/2224 VRB05KT P6SM SKC=
KMHK 212320Z 2200/2224 20008KT P6SM FEW250
     FM220400 19007KT P6SM SKC WS011/20040KT
     FM221000 19006KT P6SM SKC
     FM221500 19012G20KT P6SM SKC=
KMHT 212320Z 2200/2224 20004KT P6SM SKC=
KMKT 212320Z 2200/2224 13005KT P6SM FEW250
     FM221700 18015G24KT P6SM SKC=
KMOB 212320Z 2200/2224 20008KT P6SM SKC
     FM220200 VRB03KT P6SM SKC
     FM221500 14008KT P6SM FEW050=
KMPV 212320Z 2200/2224 VRB04KT P6SM FEW180
     FM221500 17007KT P6SM SKC=
KMSL 212320Z 2200/2224 15006KT P6SM SKC
     FM221500 18007KT P6SM SCT250
     FM222200 17008G13KT P6SM SCT240=
KMSP 212320Z 2200/2306 VRB03KT P6SM SCT200
     FM221400 13007KT P6SM FEW250
     FM221800 16013G21KT P6SM SKC=
KMSS 212320Z 2200/2224 20006KT P6SM FEW150 WS020/24035KT
     FM221400 20012G22KT P6SM FEW180
     FM222200 20008KT P6SM FEW190=
KMSY 212320Z 2200/2306 17011KT P6SM FEW035
     FM220200 VRB04KT P6SM SKC
     FM221500 15011KT P6SM SCT025=
KMVN 212320Z 2200/2224 18006KT P6SM SCT250
     FM220600 17004KT P6SM SCT250 WS015/20035KT
     FM221300 18010G15KT P6SM SCT250
     FM221600 19015G25KT P6SM SCT250
     FM222300 17009KT P6SM SCT250=
KMWH 212320Z 2200/2224 VRB06KT P6SM OVC100
     FM221700 31010KT P6SM BKN250=
