FTUS80 KWBC 220012 AAA
TAF AMD
KBKW 220011Z 2200/2224 14007KT P6SM FEW250
     FM221400 16008KT P6SM SKC=
KEKN 220010Z 2200/2224 00000KT P6SM SKC
     FM221600 21004KT P6SM FEW250=
KHTS 220009Z 2200/2224 14005KT P6SM SKC
     FM221700 19007KT P6SM SCT045
     FM222100 15008KT P6SM SKC=
