FTUS80 KWBC 220206 AAA
TAF AMD
KACV 220204Z 2202/2224 20005KT 6SM -DZ BR OVC017
     FM220300 VRB04KT 2SM -RA BR BKN007 OVC014 WS020/32030KT
      TEMPO 2203/2204 6SM -RA BR
     FM220900 28009G15KT 6SM BR VCSH BKN007 OVC015
     FM221100 31010G20KT 6SM BR VCSH BKN050 WS020/35034KT
     FM221500 36008KT 6SM BR VCSH OVC050
     FM221800 34012KT 6SM BR SCT080 BKN200=
KAPA 220204Z 2202/2224 27004KT P6SM FEW130 SCT200
     FM220300 22007KT P6SM SCT200
     FM221800 27011KT P6SM FEW130
     FM222200 31011KT P6SM FEW130=
KDEN 220204Z 2202/2306 26010KT P6SM FEW130 SCT200
     FM220300 23010KT P6SM FEW130 BKN200
     FM220500 20012KT P6SM SCT200
     FM221700 26008KT P6SM FEW130
     FM221900 29012G20KT P6SM FEW130
     FM230000 26010KT P6SM FEW130
     FM230200 22012KT P6SM SCT200=
KPDT 220204Z 2202/2224 27005KT 5SM -RA BR OVC030
     FM220800 28012KT 6SM -RA BR OVC030
     FM221300 27015G22KT P6SM -RA BKN050 OVC090
     FM222100 27012KT P6SM -RA OVC050=
KSLE 220204Z 2202/2224 20009KT 6SM -RA BR BKN008 OVC015
     FM220500 22011G19KT P6SM -SHRA SCT012 BKN022 OVC035
     FM220900 28008KT P6SM -SHRA SCT020 OVC040
     FM221900 28008KT P6SM -SHRA SCT020 BKN035 BKN060=
