FTUS80 KWBC 212321 RRK
TAF
KLMT 212320Z 2200/2224 27018G30KT P6SM BKN060
     FM220700 26018G30KT P6SM -RA OVC050
     FM221200 28010KT P6SM -SHRA BKN040
     FM221700 29014G25KT P6SM -SHRA OVC040=
KLNK 212320Z 2200/2224 VRB04KT P6SM SCT250
     FM221400 18010KT P6SM SCT250
     FM221800 17014G20KT P6SM SCT250=
KLWS 212320Z 2200/2224 23008KT 6SM -RA OVC060
     FM220700 25006KT 4SM -RA BR OVC020
     FM221800 27006KT 6SM -RA BR OVC040=
KMBS 212320Z 2200/2224 20010KT P6SM FEW250 WS020/22040KT
     FM221200 18010KT P6SM FEW250
     FM221600 18012G18KT P6SM SCT250=
KMCB 212320Z 2200/2224 21007KT P6SM SKC
     FM220300 VRB03KT P6SM SKC
     FM221000 VRB03KT 5SM BR SKC
     FM221400 18010KT P6SM SKC=
KMCE 212320Z 2200/2224 VRB04KT P6SM FEW200
     FM221500 33006KT P6SM OVC100
     FM221800 32012KT P6SM BKN100=
KMCK 212320Z 2200/2224 VRB06KT P6SM FEW250
     FM221800 18009KT P6SM SKC=
KMEV 212320Z 2200/2224 25015G25KT P6SM FEW120 SCT200
     FM220300 18010G18KT P6SM SCT120 BKN200 WS020/25040KT
     FM220700 19022G32KT P6SM BKN120 BKN200 WS020/25045KT
     FM221700 28020G30KT P6SM VCSH SCT045 BKN070 WS020/27040KT
      PROB30 2218/2224 34018G30KT -SHRA SCT030 OVC045=
KMFD 212320Z 2200/2224 18010KT P6SM SKC=
KMFE 212320Z 2200/2224 15012KT P6SM FEW060
     FM220600 16007KT P6SM SKC
     FM221500 16013KT P6SM FEW050
     FM221700 15017G24KT P6SM SCT050 SCT250=
