FTSA31 KWBC 212333
TAF
TAF SPJC 212300Z 2200/2224 16010KT 9999 OVC012 TX20/2219Z
      TN15/2211Z
      BECMG 2203/2207 OVC008
      BECMG 2214/2217 18014KT BKN018
      BECMG 2222/2224 FEW012 OVC014=
TAF SPQT 212300Z 2200/2224 00000KT 9999 SCT020 SCT100 TX30/2219Z
      TN22/2211Z
      TEMPO 2208/2212 2000 RA BCFG BKN003 BKN080
      BECMG 2213/2216 36005KT BKN020
      TEMPO 2219/2223 02015KT 2000 SHRA BKN010 FEW025CB BKN080=
TAF SPQU 212300Z 2200/2224 05007KT CAVOK TX20/2218Z TN06/2210Z
     FM221500 25008KT CAVOK
     FM222400 01006KT CAVOK=
TAF SPSO 212300Z 2200/2224 21012KT CAVOK TX20/2219Z TN13/2211Z
     FM220400 21006KT 7000 NSC
      BECMG 2209/2211 4000 BR BKN006
      BECMG 2214/2216 29010KT 8000 NSW SCT010
      BECMG 2218/2221 21012KT CAVOK=
TAF SPTN 212300Z 2200/2224 VRB02KT 9999 BKN025 TX21/2219Z
      TN11/2210Z
     FM221530 20008KT CAVOK
     FM222400 22003KT 9999 BKN020=
TAF SPZO 212300Z 2200/2224 27010KT 9999 SCT050 TX24/2219Z
      TN07/2211Z
      BECMG 2200/2201 VRB04KT
      TEMPO 2218/2222 29012KT=
