FTUS80 KWBC 212333 RRF
TAF
KROW 212332Z 2200/2224 31008KT P6SM SKC
     FM220100 24008KT P6SM FEW250
     FM221200 VRB06KT P6SM SCT200
     FM221900 23017G28KT P6SM SCT190=
KSAF 212332Z 2200/2224 27013G21KT P6SM SCT180
     FM220200 30007KT P6SM SCT200
     FM221400 24007KT P6SM FEW200
     FM221900 25019G34KT P6SM FEW190=
KSGF 212330Z 2200/2224 18011KT P6SM SKC
     FM220300 17013KT P6SM BKN250 WS020/21040KT
     FM221400 17018G29KT P6SM SCT240 WS020/21045KT
     FM221500 18021G32KT P6SM SCT240=
KSLE 212329Z 2200/2224 VRB03KT 2SM -RA BKN006 OVC015
     FM220200 20009KT 4SM RA BR SCT006 OVC015
     FM220500 22011G19KT P6SM -SHRA SCT012 BKN022 OVC035
     FM220900 28008KT P6SM -SHRA SCT020 OVC040
     FM221900 28008KT P6SM -SHRA SCT020 BKN035 BKN060=
KSME 212330Z 2200/2224 VRB03KT P6SM FEW250
     FM221500 18007KT P6SM SCT250=
KSMN 212331Z 2200/2224 26008KT P6SM BKN100
     FM220200 26010KT 6SM -RA OVC070
     FM220800 26005KT 4SM -RA BR OVC050=
KSPI 212330Z 2200/2224 17011KT P6SM FEW250
     FM221600 17014G22KT P6SM FEW250
     FM222300 17013KT P6SM FEW250=
KSTJ 212332Z 2200/2224 18009KT P6SM SCT200
     FM221600 18014G22KT P6SM SKC=
KTCC 212332Z 2200/2224 26018G29KT P6SM FEW200
     FM220200 26015KT P6SM FEW200
     FM220600 26017G24KT P6SM FEW200 WS020/28040KT
     FM221800 25030G40KT P6SM FEW200=
