FTUS80 KWBC 220006
TAF
TAF AMD PABI 220002Z 2200/2304 27009KT 2400 -SN OVC015 620159
      QNH2978INS
      BECMG 2202/2204 27009KT 2400 -SN BKN009 OVC015 620099
      QNH2985INS
      BECMG 2212/2214 VRB06KT 9000 BR SCT020 BKN030 620309
      QNH2989INS TX00/2200Z TNM09/2216Z=
