FTUS80 KWBC 212327 AAA
TAF AMD
KBAM 212324Z 2123/2224 24013G23KT P6SM SCT100 BKN150
     FM221100 28018G28KT P6SM VCSH SCT060 BKN100
     FM221800 31017G27KT 4SM -SHRA BR SCT010 OVC020=
KEKO 212324Z 2123/2224 24015G25KT P6SM SCT150 BKN250
     FM221000 24019G29KT P6SM SCT070 BKN110
     FM221800 29014G24KT 4SM -SHRA BR SCT005 OVC010=
KELY 212324Z 2123/2224 21015G25KT P6SM SCT250
     FM220300 18016G26KT P6SM SCT150 BKN200
     FM221800 24015G25KT 6SM -SHRA SCT010 OVC030=
KTPH 212324Z 2123/2224 23012G22KT P6SM SCT250
     FM220300 26014G24KT P6SM FEW150 BKN200
     FM220600 35013G23KT P6SM SCT150 BKN200
     FM221800 33019G29KT P6SM FEW080 BKN150=
KWMC 212324Z 2123/2224 24014G24KT P6SM SCT100 BKN150
     FM221100 28018G28KT P6SM VCSH SCT060 BKN100
     FM221800 31017G27KT 4SM -SHRA BR SCT008 OVC015=
