FTUS80 KWBC 220239 AAA
TAF AMD
KEVW 220236Z 2203/2224 23012KT P6SM FEW120 BKN150
     FM221400 24020G30KT P6SM VCSH SCT120 BKN150
     FM221700 22020G35KT 4SM RA BKN090 OVC120=
KSBP 220237Z 2203/2224 VRB03KT P6SM BKN014
     FM220500 30005KT P6SM OVC012
     FM220800 VRB03KT 5SM BR OVC009
     FM221700 21006KT P6SM OVC015
     FM222000 31018KT P6SM BKN050=
KSMO 220237Z 2203/2224 VRB03KT P6SM OVC009
     FM220800 VRB03KT 6SM HZ BR OVC012
     FM221700 16004KT P6SM OVC015
     FM222100 21008KT P6SM OVC025=
KSMX 220235Z 2203/2224 30005KT P6SM OVC009
     FM220600 VRB03KT 6SM HZ OVC012
     FM221500 01006KT P6SM OVC015
     FM222100 29015KT P6SM BKN050=
