FTUS80 KWBC 220115 AAA
TAF AMD
KGCN 220112Z 2201/2224 23008KT P6SM FEW070
     FM221400 20011G22KT P6SM FEW025 SCT150
     FM221800 22023G38KT P6SM SCT040=
KINW 220113Z 2201/2224 21008KT P6SM FEW150
     FM221500 22015G25KT P6SM FEW050 SCT200
     FM221800 21022G35KT P6SM FEW060
     FM222100 21026G41KT P6SM SCT070=
