FTUS80 KWBC 212321
TAF
KABI 212320Z 2200/2224 20017G27KT P6SM SKC
     FM220100 19014KT P6SM SKC
     FM220300 19018G26KT P6SM SKC
     FM221500 22020G29KT P6SM SKC=
KABY 212320Z 2200/2224 VRB04KT P6SM SKC
     FM221600 05007KT P6SM SKC=
KACK 212320Z 2200/2224 19005KT P6SM SKC
     FM221400 15007KT P6SM SKC=
KAGC 212320Z 2200/2224 18006KT P6SM SKC=
KASD 212320Z 2200/2224 21008KT P6SM SKC
     FM220100 VRB03KT P6SM SKC
     FM221500 16010KT P6SM SKC=
KAUG 212320Z 2200/2224 20004KT P6SM SKC=
KAUS 212320Z 2200/2306 19012KT P6SM SKC
     FM221600 19015G25KT P6SM SKC=
KAVP 212320Z 2200/2224 16004KT P6SM SKC
     FM221600 21008KT P6SM FEW250
     FM222300 VRB03KT P6SM FEW250=
KAXN 212320Z 2200/2224 15007KT P6SM SCT150
     FM221500 15012G18KT P6SM SKC=
KBAF 212320Z 2200/2224 00000KT P6SM SKC
     FM221600 19007KT P6SM SKC=
KBAM 212320Z 2200/2224 24013G23KT P6SM SCT100 BKN150
     FM221100 28018G28KT P6SM VCSH SCT060 BKN100=
KBBD 212320Z 2200/2224 19015KT P6SM SKC
     FM220015 18008KT P6SM SKC
     FM221500 19015G24KT P6SM SKC=
KBDL 212320Z 2200/2306 19004KT P6SM SKC
     FM220500 00000KT P6SM SKC
     FM221600 19007KT P6SM SKC=
KBDR 212320Z 2200/2224 VRB04KT P6SM SKC
     FM221400 23005KT P6SM SKC
     FM221900 18007KT P6SM FEW250=
KBED 212320Z 2200/2224 00000KT P6SM SKC
     FM221500 22007KT P6SM SKC=
