FTCA35 KWBC 212312
TAF
TAF MHLC 212300Z 2200/2224 25010KT 2000 +RA FEW005 SCT020CB OVC060
      TX25/2219Z TN22/2212Z
     FM221000 VRB04KT 4000 RA SCT024TCU BKN070
      BECMG 2216/2218 060010KT 8000 VCSH=
TAF MHLM 212300Z 2200/2224 34005KT 7000 RA SCT024TCU OVC060
      TX26/2219Z TN22/2212Z
     FM220900 00000KT 8000 VCSH SCT024 BKN070
      BECMG 2217/2219 03012KT 6000 RA SCT026TCU FEW032CB=
TAF MHTG 212300Z 2200/2224 02010KT 8000 VCSH SCT030TCU FEW035CB
      TX26/2220Z TN18/2212Z
     FM220600 36006KT 9999 FEW008 SCT024 BKN070
     FM221500 03014KT 9999 SCT030TCU FEW035CB
      TEMPO 2221/2224 7000 RA=
