FTUS80 KWBC 220203 AAA
TAF AMD
PABR 220201Z 2202/2224 09021G31KT 6SM -SN BR BLSN SCT010 BKN050
      TEMPO 2202/2204 1 1/2SM -SHSN BKN015=
