FTUS80 KWBC 212336 RRB
TAF
KTCL 212334Z 2200/2224 18007KT P6SM SKC
     FM220200 14003KT P6SM SKC
     FM221500 17007KT P6SM FEW050=
KWRL 212332Z 2200/2224 VRB05KT P6SM FEW100 SCT150
     FM220600 17007KT P6SM SCT080 BKN120
     FM221600 22012G18KT P6SM FEW080 SCT120
     FM222100 25014G22KT P6SM SCT080 BKN120=
TAF PAKN 212329Z 2200/2224 26015G20KT P6SM VCSH SCT025 BKN050
      TEMPO 2200/2204 VRB06KT BKN025
     FM220400 VRB06KT P6SM BKN050=
TAF PGSN 212331Z 2200/2224 09010KT P6SM VCSH SCT018 SCT040 BKN090
      TEMPO 2200/2202 4SM SHRA BKN018=
TAF PGUM 212331Z 2200/2306 09012KT P6SM VCSH SCT016 BKN100
     FM221200 12012KT P6SM -RA SCT016 BKN040 OVC120=
TAF PKMJ 212331Z 2200/2224 08011KT P6SM -RA BKN015 BKN100 OVC120
      TEMPO 2200/2204 3SM SHRA
     FM220400 09011KT P6SM VCSH SCT015 BKN120 OVC300=
TAF PKWA 212331Z 2200/2224 07011KT P6SM VCSH SCT020=
TAF PTKK 212331Z 2200/2224 VRB06KT P6SM VCSH SCT015 BKN120=
TAF PTPN 212331Z 2200/2224 06011KT P6SM VCSH BKN018 BKN130
     FM220200 06011KT P6SM VCSH SCT018 BKN130 OVC300=
TAF PTRO 212331Z 2200/2224 VRB06KT P6SM VCSH SCT014 BKN100
      TEMPO 2202/2206 4SM SHRA BKN016=
TAF PTSA 212331Z 2200/2224 09011KT P6SM VCSH BKN018 BKN130
      TEMPO 2200/2201 4SM SHRA BKN020
     FM220300 09011KT P6SM VCSH SCT018 BKN130=
TAF PTYA 212331Z 2200/2224 VRB06KT P6SM VCSH SCT016 BKN120=
