FTUS80 KWBC 212303
TAF
TAF PTPN 212258Z 2123/2218 06011KT P6SM VCSH SCT018 BKN130=
TAF PTSA 212258Z 2123/2218 06011KT P6SM VCSH SCT020 BKN130
      TEMPO 2123/2201 4SM SHRA BKN020=
