FTUS80 KWBC 212251 AAA
TAF AMD
KASE 212248Z 2123/2218 33016G26KT P6SM SKC
     FM220100 22008KT P6SM SKC
     FM220500 16008G15KT P6SM SKC
     FM221700 21015G30KT P6SM SKC WS015/24030KT=
KCNY 212248Z 2123/2218 VRB04KT P6SM SKC
     FM220300 22006KT P6SM SKC
     FM221700 19015G28KT P6SM SKC=
KEGE 212247Z 2123/2218 28019G25KT P6SM SKC
     FM220400 23006KT P6SM SKC
     FM221600 23008G15KT P6SM SKC=
KVEL 212248Z 2123/2218 25015G25KT P6SM SKC
     FM220600 29007G15KT P6SM SCT200
     FM221700 22010G20KT P6SM BKN200=
