FTUS80 KWBC 212348
TAF
TAF PASC 212343Z 2200/2224 09020KT 5SM -SN BR BKN010 OVC025=
TAF TIST 212340Z 2200/2224 06005KT P6SM VCSH FEW025 SCT050
     FM221300 08015KT P6SM SCT030
     FM222200 06006KT P6SM FEW030 SCT045=
TAF TJBQ 212340Z 2200/2224 11005KT P6SM FEW025
     FM221300 07015KT P6SM SKC
     FM221700 07015G25KT P6SM VCSH FEW025 SCT035 SCT045
     FM222200 10008KT P6SM SCT025 SCT040=
TAF TJPS 212340Z 2200/2224 VRB03KT P6SM FEW030
     FM221300 15012KT P6SM SCT025
     FM222200 08006KT P6SM FEW040 AMD NOT SKED=
TAF TJSJ 212340Z 2200/2224 09007KT P6SM FEW035
     FM221300 07012KT P6SM FEW035 SCT050
     FM222300 09008KT P6SM FEW030 SCT045=
