FTUS80 KWBC 212324
TAF
KALS 212321Z 2200/2224 26012G22KT P6SM FEW100 SCT200
     FM220200 19008KT P6SM FEW200
     FM221800 23020G30KT P6SM SCT250=
KALW 212320Z 2200/2224 17010KT 6SM -RA BKN040 OVC060
     FM220200 17007KT 6SM -RA OVC030
     FM221500 22010KT 6SM -RA OVC050=
KAPF 212323Z 2200/2224 01007KT P6SM FEW050
     FM221600 02008KT P6SM FEW050=
KBIS 212321Z 2200/2224 08007KT P6SM OVC080
     FM220400 11005KT P6SM OVC100
     FM221500 03006KT P6SM OVC110=
KBJI 212321Z 2200/2224 VRB04KT P6SM OVC250
     FM221500 15007KT P6SM BKN140=
KCDS 212322Z 2200/2224 20015KT P6SM SKC
     FM221600 26020G30KT P6SM SCT250=
KCMX 212321Z 2200/2224 26007KT P6SM FEW180
     FM220400 25005KT P6SM SCT170
     FM221500 15006KT P6SM BKN150
     FM221600 14007KT P6SM BKN140
     FM221800 12009KT P6SM SCT140
     FM222100 11012G23KT P6SM SCT140=
KCOS 212321Z 2200/2224 24010KT P6SM SKC
     FM220100 35010KT P6SM SKC
     FM221800 20010G20KT P6SM FEW250
     FM222000 23020G30KT P6SM FEW250=
KDAB 212322Z 2200/2224 36006KT P6SM SKC
     FM221400 01012KT P6SM SCT050=
KDIK 212321Z 2200/2224 VRB06KT P6SM OVC080
     FM220200 34005KT P6SM OVC100
     FM221500 05006KT P6SM OVC080=
KDLS 212320Z 2200/2224 30008G18KT P6SM BKN040 OVC070
      TEMPO 2200/2202 6SM -RA BR OVC035
     FM220200 30010KT 5SM RA BR OVC030
     FM220700 29015G25KT P6SM -RA OVC035
     FM221800 30020G30KT P6SM BKN100=
