FTCA31 KWBC 212303
TAF
TAF MUCM 212300Z 2200/2224 VRB03KT 9000 SCT030
      TEMPO 2200/2209 BKN020
      TEMPO 2217/2224 5000 RA FEW018CB BKN020=
TAF MUCU 212300Z 2200/2224 VRB03KT 9000 SCT020
      TEMPO 2212/2218 BKN090
      TEMPO 2219/2224 5000 TSRA SCT018CB BKN020=
TAF MUVR 212300Z 2200/2224 VRB03KT 9000 SCT030
      TEMPO 2200/2209 BKN060
      BECMG 2213/2215 02011KT=
