FTUS80 KWBC 212330
TAF
KABE 212328Z 2200/2224 19003KT P6SM SKC
     FM221800 19006KT P6SM SKC=
KACT 212327Z 2200/2224 18013KT P6SM SKC
     FM221200 18014G24KT P6SM SCT020
      TEMPO 2213/2216 BKN020
     FM221600 19020G30KT P6SM SCT070=
KACY 212328Z 2200/2224 19003KT P6SM SKC
     FM221700 12007KT P6SM SCT250=
KALB 212327Z 2200/2224 16007KT P6SM FEW200=
KBIL 212329Z 2200/2224 06011KT P6SM VCSH SCT060 OVC090
     FM220600 06008KT P6SM -SHRA SCT025 OVC050
     FM221500 05009KT P6SM VCSH OVC060
     FM221800 04007KT P6SM SCT060 BKN100=
KCMH 212327Z 2200/2224 16005KT P6SM SCT250
     FM221600 18010G18KT P6SM FEW050 SCT250
     FM222200 14006KT P6SM SCT250=
KCNM 212328Z 2200/2224 25008KT P6SM FEW250=
KCVG 212327Z 2200/2306 18007KT P6SM SCT250
     FM221600 19010G18KT P6SM SCT040 BKN250
     FM222200 16006KT P6SM BKN250=
KDAL 212327Z 2200/2224 18013KT P6SM SKC
     FM221200 19015G25KT P6SM SCT020
     FM221700 19020G30KT P6SM SCT080=
KDAY 212327Z 2200/2224 18009KT P6SM SCT250
     FM221600 18011G19KT P6SM SCT050 BKN250
     FM222200 17010KT P6SM SCT250=
KDFW 212327Z 2200/2306 18013KT P6SM SKC
     FM221200 19015G25KT P6SM SCT020
     FM221700 19020G30KT P6SM SCT080
     FM230200 18016KT P6SM SCT250=
KDMN 212328Z 2200/2224 26010G20KT P6SM FEW250
     FM220200 26006KT P6SM SCT250
     FM221800 25015G25KT P6SM BKN100=
