FTUS80 KWBC 212327 RRA
TAF
KCRP 212325Z 2200/2224 15013G19KT P6SM SKC
     FM220600 18008KT P6SM FEW030
     FM221500 16018G26KT P6SM FEW250=
KDCA 212326Z 2200/2306 17006KT P6SM SCT250
     FM220400 00000KT P6SM SKC
     FM221500 18006KT P6SM SKC
     FM230000 00000KT P6SM FEW250
     FM230300 07004KT P6SM SCT250=
KDRO 212323Z 2200/2224 26012KT P6SM FEW150
     FM220200 32005KT P6SM FEW250
     FM221600 22007KT P6SM FEW250
     FM221900 24014G23KT P6SM SCT250=
KEGE 212323Z 2200/2224 27017G23KT P6SM SCT250
     FM220300 11010KT P6SM SKC
     FM220600 11003KT P6SM SCT250
     FM221700 23011G19KT P6SM FEW250
     FM221900 24022G31KT P6SM SKC=
KGJT 212323Z 2200/2224 VRB04KT P6SM FEW130
     FM220500 09006KT P6SM SKC
     FM221300 14010KT P6SM FEW250
     FM221700 19016G24KT P6SM FEW250
     FM222000 22024G37KT P6SM SCT200=
KGUC 212323Z 2200/2224 27016G22KT P6SM SKC
     FM220300 30006KT P6SM SKC
     FM221700 25012KT P6SM FEW250
     FM221900 26020G32KT P6SM FEW250=
KHDN 212323Z 2200/2224 27020G27KT P6SM SCT250
     FM220300 24011KT P6SM FEW250
     FM220800 18010KT P6SM SKC WS020/24035KT
     FM221800 22022G34KT P6SM SCT250=
KIAD 212326Z 2200/2306 17005KT P6SM FEW200
     FM220400 00000KT P6SM SKC
     FM221500 18006KT P6SM SKC
     FM230000 00000KT P6SM FEW250
     FM230400 09004KT P6SM SCT250=
