FTUS80 KWBC 220242 AAA
TAF AMD
KEYW 220239Z 2203/2224 01012G18KT P6SM SCT040=
KMTH 220239Z 2203/2224 01010G16KT P6SM SCT035=
KOXR 220240Z 2203/2224 28006KT 6SM BR OVC006
     FM220800 VRB03KT P6SM OVC009
     FM221500 VRB03KT P6SM OVC012
     FM222100 25012KT P6SM OVC025=
