FTUS80 KWBC 212342 RRF
TAF
KWJF 212339Z 2200/2224 23014KT P6SM SKC
     FM220300 25011KT P6SM SKC
     FM221500 22014KT P6SM SKC
     FM221800 25025G35KT P6SM SKC
     FM222100 24030G40KT P6SM SKC=
TAF NSTU 212339Z 2200/2224 10012KT P6SM SCT020 BKN100 BKN220
     FM220600 09010KT P6SM VCSH SCT020 BKN040 BKN100=
NSTU 212339Z 2200/2224 10012KT P6SM SCT020 BKN100 BKN220
     FM220600 09010KT P6SM VCSH SCT020 BKN040 BKN100=
PHJH 212339Z 2200/2224 33008KT P6SM FEW025
     FM220400 05005KT P6SM FEW025 SCT060
     FM222000 05013G20KT P6SM FEW025 SCT060=
TAF PHJR 212339Z 2200/2224 14008KT P6SM FEW025 SCT035
     FM220300 10005KT P6SM FEW025 SCT040
     FM220600 VRB03KT P6SM FEW025
     FM222000 13008KT P6SM FEW025=
PHJR 212339Z 2200/2224 14008KT P6SM FEW025 SCT035
     FM220300 10005KT P6SM FEW025 SCT040
     FM220600 VRB03KT P6SM FEW025
     FM222000 13008KT P6SM FEW025=
PHKO 212339Z 2200/2224 31011KT P6SM FEW030 FEW060
     FM220500 12009KT P6SM FEW030 SCT050
     FM221500 04009KT P6SM FEW030
     FM222100 21008KT P6SM FEW030 SCT060=
PHLI 212339Z 2200/2224 16013KT P6SM VCSH SCT070 BKN080
     FM220500 11008KT P6SM VCSH SCT020 BKN040
     FM221500 05006KT P6SM SCT020 BKN040=
PHMK 212339Z 2200/2224 14008KT P6SM SCT025 SCT035
     FM220500 05005KT P6SM SCT025 SCT035
     FM221800 05009KT P6SM FEW025
     FM222100 05012G16KT P6SM FEW025=
