FTUS80 KWBC 212345 RRA
TAF
KEVW 212341Z 2200/2224 25022G35KT P6SM FEW200
     FM220100 23014G24KT P6SM FEW120 BKN150
     FM221400 24020G30KT P6SM VCSH SCT120 BKN150
     FM221700 22020G35KT 4SM RA BKN090 OVC120=
KLGU 212341Z 2200/2224 19010G18KT P6SM FEW250
     FM220100 19010KT P6SM BKN120 OVC150
     FM221200 24012G24KT P6SM -SHRA FEW080 OVC100
     FM221400 18012G22KT 4SM RA BR FEW020 BKN060 OVC100
     FM221700 29011KT 4SM RA BR FEW020 BKN060 OVC080=
KOGD 212341Z 2200/2224 21012G20KT P6SM FEW150 FEW250
     FM220100 17014KT P6SM SCT120 BKN180
     FM221000 18016G28KT P6SM SCT080 BKN120
     FM221700 21014KT 5SM RA BR FEW030 BKN080 OVC100=
KPVU 212341Z 2200/2224 20009KT P6SM FEW180
     FM220900 17011KT P6SM SCT150
     FM221200 18014G28KT P6SM BKN130
     FM221800 23015G30KT P6SM OVC100
     FM222100 28010G20KT P6SM RA FEW030 OVC080=
KSGU 212341Z 2200/2224 24010KT P6SM SKC
     FM220200 13008KT P6SM SKC
     FM221600 22015G30KT P6SM FEW200=
KSLC 212341Z 2200/2306 28010KT P6SM FEW150 FEW250
     FM220200 17011KT P6SM FEW150 SCT250
     FM220900 19015G25KT P6SM VCSH SCT080 OVC100
     FM221800 22016G30KT P6SM RA FEW040 OVC080
     FM221900 33014KT P6SM RA FEW040 OVC080=
PAAQ 212341Z 2200/2224 VRB04KT P6SM OVC009
     FM220100 VRB04KT P6SM SCT010 SCT100
      TEMPO 2201/2203 BKN010
     FM221000 35005KT P6SM VCFG SCT005 SCT200
     FM221800 35005KT P6SM FEW020=
