FTUS80 KWBC 212330 RRB
TAF
KLUK 212327Z 2200/2224 18003KT P6SM SCT250
     FM221600 19010G18KT P6SM SCT040 BKN250
     FM222200 17005KT P6SM BKN250=
KLVM 212329Z 2200/2224 27014G23KT P6SM VCSH SCT080 BKN100
      TEMPO 2202/2204 -SHRA SCT025 BKN050
     FM220400 23015KT 5SM -RA SCT008 OVC020
     FM220700 22007KT 4SM -RA BR SCT008 OVC012
     FM221200 09008KT 2SM -RA BR SCT008 OVC012
     FM222100 30011KT 2SM -RASN BR SCT008 OVC012=
KMAF 212328Z 2200/2224 21010KT P6SM FEW250=
TAF KMCC 212325Z 2200/2224 20008KT P6SM FEW120 BKN250
     FM221900 27010KT P6SM BKN250=
KMIV 212328Z 2200/2224 VRB02KT P6SM SKC
     FM221800 17005KT P6SM FEW250=
KMLS 212329Z 2200/2224 36015G25KT P6SM BKN100
     FM220100 01010KT P6SM VCSH SCT060 BKN100
     FM220600 VRB06KT P6SM VCSH SCT025 OVC040
     FM221200 05008KT P6SM VCSH SCT025 OVC040
     FM221700 08015G23KT P6SM VCSH SCT025 BKN080=
TAF KMOD 212325Z 2200/2224 24004KT P6SM SKC
     FM220700 12006KT P6SM BKN250
     FM221600 31011KT P6SM BKN100=
KOLF 212327Z 2200/2224 VRB06KT P6SM OVC035
     FM220400 VRB06KT 6SM -RA BR OVC015
     FM221100 07008KT P6SM OVC015
     FM221700 07010KT 6SM -RA BR OVC012 PROB30 2220/2224 3SM RA=
KPEQ 212328Z 2200/2224 23008KT P6SM FEW250=
KPHL 212328Z 2200/2306 18004KT P6SM SKC
     FM221800 18006KT P6SM SKC=
KPNE 212328Z 2200/2224 VRB02KT P6SM SKC
     FM221900 20006KT P6SM SKC=
