FTUS80 KWBC 212333 RRA
TAF
KBRD 212331Z 2200/2224 VRB03KT P6SM SCT250
     FM221100 13006KT P6SM BKN200
     FM221400 14009KT P6SM BKN250=
KBTL 212331Z 2200/2224 19010KT P6SM FEW250 WS020/22045KT
     FM221100 18008KT P6SM SKC
     FM221300 18012G21KT P6SM SKC=
KBTM 212331Z 2200/2224 31012G22KT P6SM OVC060
     FM220200 30005KT 5SM -RA BR OVC025
     FM221000 30005KT 4SM -SNRA BR OVC025=
KCAE 212331Z 2200/2224 00000KT P6SM SKC
     FM221500 05005KT P6SM SKC
     FM222000 08004KT P6SM FEW045=
KCIU 212331Z 2200/2224 25010KT P6SM FEW150
     FM220200 25007KT P6SM FEW200
     FM220400 00000KT P6SM FEW200
     FM221400 12004KT P6SM SCT180=
KCLT 212330Z 2200/2306 VRB03KT P6SM FEW250
     FM221500 06005KT P6SM FEW250=
KCMI 212330Z 2200/2224 17011KT P6SM FEW250
     FM221600 17014G22KT P6SM FEW250
     FM222300 17013KT P6SM FEW250=
KCSG 212330Z 2200/2224 VRB03KT P6SM SKC
     FM221500 12005KT P6SM SKC=
KCUB 212331Z 2200/2224 00000KT P6SM SKC
     FM221500 05004KT P6SM SKC
     FM222000 VRB03KT P6SM FEW045=
KDEC 212330Z 2200/2224 17011KT P6SM FEW250
     FM221600 17014G22KT P6SM FEW250
     FM222300 17013KT P6SM FEW250=
KDLH 212331Z 2200/2224 29005KT P6SM FEW250
     FM220400 VRB03KT P6SM SCT100 BKN200
     FM221400 12006KT P6SM BKN150
     FM221800 10009KT P6SM SCT250=
KDNL 212331Z 2200/2224 VRB03KT P6SM SKC
     FM221500 06006KT P6SM SKC=
