FTUS80 KWBC 212333 RRB
TAF
KDSM 212330Z 2200/2224 VRB03KT P6SM FEW250
     FM220400 15005KT P6SM SKC
     FM220700 18006KT P6SM FEW250 WS020/23035KT
     FM221200 19010KT P6SM FEW250
     FM221700 18015G24KT P6SM SKC=
KEUG 212329Z 2200/2224 23011KT P6SM -RA SCT025 OVC040
     FM220100 22015G23KT 4SM RA BR SCT015 BKN025 OVC035
     FM220400 26012G20KT P6SM -SHRA SCT015 OVC025
     FM220900 28010KT P6SM -SHRA SCT015 BKN025 OVC040
     FM221600 26008KT P6SM -SHRA SCT020 BKN035 BKN060=
KEYW 212331Z 2200/2224 01012G18KT P6SM SCT045=
KFLG 212331Z 2200/2224 24010KT P6SM FEW070
     FM221500 22010G20KT P6SM SCT030
     FM221800 22022G35KT P6SM FEW020 BKN040=
KFMN 212332Z 2200/2224 28011KT P6SM SCT180
     FM220200 31006KT P6SM FEW200
     FM220800 08007KT P6SM FEW200
     FM221800 25015G25KT P6SM FEW200=
KFTY 212330Z 2200/2224 VRB03KT P6SM SKC
     FM221500 12005KT P6SM SKC=
KGCN 212331Z 2200/2224 23012G20KT P6SM FEW080 SCT200
     FM220200 23008KT P6SM FEW070
     FM221400 20011G22KT P6SM FEW025 SCT150
     FM221800 22023G38KT P6SM SCT040=
KGMU 212330Z 2200/2224 VRB02KT P6SM SKC
     FM221600 08006KT P6SM FEW250=
KGPI 212331Z 2200/2224 15006KT 5SM -RA BR OVC025
     FM220800 VRB04KT 3SM -RASN BR OVC025=
KGRR 212331Z 2200/2224 18008KT P6SM FEW250 WS020/22045KT
     FM221200 18010KT P6SM SKC
     FM221400 18012G21KT P6SM SKC=
KGSP 212330Z 2200/2224 VRB03KT P6SM SKC
     FM221600 06005KT P6SM FEW250=
