FTUS80 KWBC 220151 AAA
TAF AMD
KAPC 220149Z 2202/2224 26015KT P6SM FEW200
     FM220800 25013KT P6SM SCT025 SCT200
     FM221600 28015KT P6SM FEW200=
