FTUS80 KWBC 220003 AAA
TAF AMD
KALI 220000Z 2200/2224 14012G18KT P6SM SKC
     FM220200 18008KT P6SM FEW030
     FM221500 16015G23KT P6SM SKC=
