FTCA32 KWBC 212357
TAF
TAF TAPA 212348Z 2200/2224 09008KT SCT018 PROB30
      TEMPO 2200/2218 SHRA=
