FTUS80 KWBC 212339 RRC
TAF
KRHI 212337Z 2200/2224 VRB04KT P6SM SCT180
      TEMPO 2209/2213 3SM BR
     FM221500 15009G17KT P6SM SCT250
     FM222300 16009KT P6SM SKC WS010/20020KT=
KTYR 212338Z 2200/2224 19012KT P6SM SKC
     FM221500 18020G32KT P6SM SKC=
