FTCA35 KWBC 212327
TAF
TAF MRLB 212300Z 2200/2224 11008KT 9999 FEW030 TX32/2220Z
      TN21/2211Z
      TEMPO 2200/2204 29005KT
      TEMPO 2210/2213 VRB02KT SCT010
      TEMPO 2221/2224 27006KT FEW020TCU=
TAF MRLM 212300Z 2200/2224 05005KT 9999 FEW030 TX31/2220Z
      TN22/2211Z
      BECMG 2201/2204 26005KT
      BECMG 2214/2217 04006KT=
TAF MROC 212300Z 2200/2224 09007KT 9999 FEW020 TX28/2218Z
      TN18/2210Z
      BECMG 2217/2220 25007KT
      TEMPO 2219/2222 TSRA FEW020CB BKN025=
TAF MRPV 212300Z 2200/2224 07009KT 9999 SCT020 TX27/2218Z
      TN18/2210Z
      TEMPO 2219/2223 27007KT TSRA FEW020CB=
