FTUS80 KWBC 220130
TAF
TAF AMD PWAK 220120Z 2201/2304 07012KT 9999 SCT030 BKN050
      QNH2983INS
      TEMPO 2201/2207 05015G25KT
      TEMPO 2212/2216 06012G18KT VCTS BKN030CB TX31/2206Z
      TN25/2217Z FOR MIL USE ONLY=
