FTSA31 KWBC 212245 AAA
TAF AMD
TAF AMD SPJC 212220Z 2122/2218 21012KT 9999 BKN013 TX20/2119Z
      TN15/2211Z
      BECMG 2200/2203 18006KT SCT013
      BECMG 2204/2207 OVC008=
