FTCA33 KWBC 212327
TAF
TAF TNCB 212322Z 2200/2306 08010KT 9999 SCT018 PROB40
      TEMPO 2204/2218 3000 SHRA BKN014 SCT017CB=
TAF TNCC 212315Z 2200/2224 07011KT 9999 SCT018
      TEMPO 2202/2218 VRB25KT 5000 SHRA BKN014=
