FTCA31 KWBC 212327
TAF
TAF MUCC 212300Z 2200/2224 VRB03KT 9000 SCT020
      TEMPO 2200/2209 BKN020
      BECMG 2215/2217 35011KT
      TEMPO 2218/2224 BKN020=
