FTUS80 KWBC 212321 RRO
TAF
KPVD 212320Z 2200/2224 18004KT P6SM SKC
     FM220400 00000KT P6SM SKC
     FM221600 18007KT P6SM FEW250=
KPWM 212320Z 2200/2224 20006KT P6SM SKC
     FM220500 25004KT P6SM SKC=
KRAP 212320Z 2200/2224 18012KT P6SM SCT150
     FM220300 26005KT P6SM SCT250
     FM221700 19012KT P6SM SCT190=
KRDU 212320Z 2200/2224 VRB03KT P6SM FEW250=
KRIC 212320Z 2200/2224 00000KT P6SM SKC
     FM221400 11004KT P6SM SKC=
KRKD 212320Z 2200/2224 22004KT P6SM SKC=
KRME 212320Z 2200/2224 12005KT P6SM FEW250
     FM220400 10003KT P6SM FEW200 WS020/22030KT
     FM221200 13007KT P6SM SKC=
KRNH 212320Z 2200/2224 VRB03KT P6SM SCT200
     FM221400 13007KT P6SM FEW250
     FM221800 16012G18KT P6SM SKC=
KRNO 212320Z 2200/2224 25016G26KT P6SM FEW120 SCT200
     FM220300 23014G22KT P6SM SCT120 BKN200 WS020/25040KT
     FM220700 21025G35KT P6SM SCT080 BKN120 OVC200 WS020/25045KT
     FM221500 32018G28KT P6SM VCSH SCT050 BKN080 WS020/27040KT
      PROB30 2218/2224 -SHRA SCT035 OVC050=
KRSW 212320Z 2200/2224 01006KT P6SM FEW050
     FM221400 02009KT P6SM SKC=
KRUT 212320Z 2200/2224 14005KT P6SM SKC
     FM221800 19007KT P6SM SKC=
KRWF 212320Z 2200/2224 15005KT P6SM SCT250
     FM221500 16011KT P6SM SKC
     FM221800 19015G25KT P6SM SKC=
KRWI 212320Z 2200/2224 VRB03KT P6SM FEW060=
KRWL 212320Z 2200/2224 25028G45KT P6SM SKC
     FM220500 25024G36KT P6SM SCT150
     FM221500 23032G43KT P6SM SCT150=
