FTUS80 KWBC 212342 RRC
TAF
KPGV 212339Z 2200/2224 00000KT P6SM SKC
      TEMPO 2209/2212 2SM BR
     FM221300 03007KT P6SM FEW050 AMD LTD TO CLD VIS AND WIND=
KPIB 212339Z 2200/2224 VRB03KT P6SM SKC
     FM221000 00000KT 3SM BR FEW003
      TEMPO 2210/2213 1SM BR SCT002
     FM221400 17006KT P6SM FEW060 SCT250=
KPMD 212339Z 2200/2224 24013KT P6SM SKC
     FM220300 23010KT P6SM SKC
     FM221500 22016KT P6SM SKC
     FM221800 25025G35KT P6SM SKC
     FM222100 24030G40KT P6SM SKC=
KPNC 212339Z 2200/2224 18012G19KT P6SM SCT250 WS020/21045KT
     FM221400 20015G25KT P6SM SCT250=
KPRB 212339Z 2200/2224 23009KT P6SM SKC
     FM220500 30006KT P6SM SKC
     FM220900 29004KT P6SM OVC012
     FM221300 23004KT P6SM OVC007
     FM221700 26006KT P6SM BKN015
     FM222200 26015KT P6SM BKN250=
KPSP 212339Z 2200/2224 33005KT P6SM FEW250
     FM220800 VRB04KT P6SM SCT250
     FM221900 34012G20KT P6SM SCT250=
TAF KRFD 212338Z 2200/2224 20010KT P6SM SKC WS010/22045KT
     FM220900 19010KT P6SM FEW300
     FM221500 19015G25KT P6SM FEW300=
KROA 212340Z 2200/2224 VRB03KT P6SM FEW250
     FM221500 08006KT P6SM SCT250=
KRSL 212340Z 2200/2224 18006KT P6SM FEW250
     FM221800 16012G20KT P6SM SKC=
KSAN 212339Z 2200/2306 22008KT P6SM BKN015
      TEMPO 2200/2203 SCT015
     FM220300 VRB04KT P6SM BKN012
     FM220800 VRB03KT P6SM -DZ OVC018
     FM221800 22011KT P6SM BKN024
     FM230100 23011KT P6SM -RA OVC018=
