FTUS80 KWBC 212342
TAF
KAPC 212338Z 2200/2224 20015KT P6SM FEW200
     FM220800 25013KT P6SM SCT025 SCT200
     FM221600 28015KT P6SM FEW200=
KBCB 212340Z 2200/2224 00000KT P6SM FEW250=
KBLF 212340Z 2200/2224 VRB04KT P6SM SCT250
     FM221500 14007KT P6SM SCT250=
KBUR 212339Z 2200/2224 19009KT P6SM SKC
     FM220500 16006KT P6SM SKC
     FM221000 12005KT P6SM OVC015
     FM221700 15006KT P6SM OVC025
     FM222100 17008KT P6SM OVC030=
KCMA 212339Z 2200/2224 22009KT P6SM SKC
     FM220300 VRB03KT P6SM SKC
     FM220500 VRB03KT 6SM BR OVC007
     FM220800 VRB03KT P6SM OVC012
     FM221500 VRB03KT P6SM OVC015
     FM222100 23010KT P6SM OVC025=
KCNU 212340Z 2200/2224 17010KT P6SM FEW240
     FM220600 17015G24KT P6SM FEW240 WS020/21045KT
     FM221400 18021G30KT P6SM SKC=
KCRQ 212339Z 2200/2224 22009KT P6SM FEW015 SCT200
      TEMPO 2200/2202 BKN012
     FM220200 VRB04KT P6SM BKN012
     FM220900 VRB04KT P6SM -DZ OVC015
     FM221900 23010KT P6SM BKN020=
KCSM 212339Z 2200/2224 19017G24KT P6SM SKC
     FM221400 22020G30KT P6SM SCT250=
KDAN 212340Z 2200/2224 VRB03KT P6SM SKC
     FM221500 36006KT P6SM FEW250=
KELD 212338Z 2200/2224 16006KT P6SM SKC
     FM221500 19014G24KT P6SM SKC=
KEWN 212339Z 2200/2224 00000KT P6SM FEW035 SCT050
     FM221300 03007KT P6SM SCT050=
