FTUS80 KWBC 212342 RRA
TAF
KGLH 212339Z 2200/2224 18011KT P6SM SKC
     FM220600 20009KT P6SM FEW250 WS020/23030KT
     FM221200 19010KT P6SM SCT250
     FM221600 19015G25KT P6SM SCT250=
KGWO 212339Z 2200/2224 19009KT P6SM SKC
     FM221500 19009KT P6SM FEW250
     FM221900 19014G21KT P6SM BKN250=
KHBG 212339Z 2200/2224 VRB04KT P6SM FEW250
     FM221100 00000KT 4SM BR FEW003
     FM221400 16006KT P6SM FEW060 SCT250=
KHKS 212339Z 2200/2224 18005KT P6SM SKC
     FM221600 18012G20KT P6SM SCT250=
KHUT 212340Z 2200/2224 18009KT P6SM SCT250
     FM221700 18012G20KT P6SM SKC=
KICT 212340Z 2200/2224 18010KT P6SM BKN240
     FM220200 17011KT P6SM SCT250 WS020/20040KT
     FM221100 17009KT P6SM FEW250
     FM221800 18015G22KT P6SM SKC=
KJAN 212339Z 2200/2224 18005KT P6SM SKC
     FM221600 18012G20KT P6SM SCT250=
KLAW 212339Z 2200/2224 18013KT P6SM FEW250 WS020/21045KT
     FM221400 20018G28KT P6SM SCT250=
KLAX 212339Z 2200/2306 25012KT P6SM SCT010
     FM220300 26006KT 6SM BR BKN009
     FM220800 VRB03KT 6SM HZ OVC012
     FM221600 19008KT P6SM OVC015
     FM222000 24012KT P6SM OVC025
     FM230100 25015KT P6SM VCSH OVC030=
KLFK 212338Z 2200/2224 19008KT P6SM SKC
     FM221500 19016G25KT P6SM SKC=
KLGB 212339Z 2200/2224 25008KT P6SM SKC
     FM220100 30008KT P6SM SKC
     FM220500 VRB03KT P6SM OVC012
     FM221700 16005KT P6SM OVC020
     FM222100 19008KT P6SM OVC025=
