FTCA32 KWBC 220106
TAF
TAF COR TAPA 220100Z 2200/2224 09008KT 9999 SCT018 PROB30
      TEMPO 2200/2218 SHRA=
TAF TAPA 220100Z 2200/2224 09008KT 9999 SCT018 PROB30
      TEMPO 2200/2218 SHRA=
