FTSA41 KWBC 212251
TAF
TAF SMJP 212200Z 2200/2224 VRB02KT 9999 SCT020 TX34/2217Z
      TN23/2209Z
      BECMG 2207/2208 1500 BR SCT003
      BECMG 2210/2211 11006KT 9999 SCT010 PROB30
      TEMPO 2218/2221 5000 TS VCSH FEW015CB SCT020=
