FTUS80 KWBC 212321 RRM
TAF
KMYR 212320Z 2200/2224 36004KT P6SM FEW040
     FM221300 03010KT P6SM FEW030=
KNEW 212320Z 2200/2224 19011KT P6SM SKC
     FM220300 17007KT P6SM SKC
     FM221500 15012KT P6SM SKC=
KOFK 212320Z 2200/2224 VRB04KT P6SM SCT250
     FM221300 17008KT P6SM FEW250
     FM221800 19014G21KT P6SM SCT250=
KOLM 212320Z 2200/2224 20006KT P6SM -RA OVC015
     FM220600 26005KT 3SM -SHRA BR OVC010
     FM221200 22008KT 2SM BR VCSH OVC015
     FM221800 35005KT P6SM VCSH OVC020=
KOLS 212320Z 2200/2224 23009KT P6SM SCT120
     FM220300 VRB05KT P6SM FEW250
     FM221500 16007KT P6SM SCT250
     FM221700 19012G23KT P6SM BKN250
     FM222000 21020G30KT P6SM BKN250=
KOMA 212320Z 2200/2224 VRB04KT P6SM SCT250
     FM221300 17011KT P6SM SCT250
     FM221800 17014G20KT P6SM SCT250=
KORF 212320Z 2200/2224 11003KT P6SM SKC
     FM221400 04007KT P6SM SKC=
KORH 212320Z 2200/2224 24007KT P6SM SKC=
KOTH 212320Z 2200/2224 24010KT P6SM -RA OVC020
     FM220200 25014G25KT P6SM -RA OVC025
     FM220700 29012G20KT P6SM -SHRA OVC025
     FM221200 30012G20KT P6SM -SHRA OVC025
     FM221600 VRB03KT P6SM -SHRA OVC030
     FM221800 30010KT P6SM -SHRA OVC035=
KPAE 212320Z 2200/2224 21006KT 4SM -RA BR OVC015
      TEMPO 2200/2204 2SM -RA BR OVC008
     FM220400 VRB03KT 6SM -SHRA OVC020
     FM221300 32003KT P6SM VCSH OVC015=
