FTUS80 KWBC 212324 RRD
TAF
KROG 212323Z 2200/2224 17010KT P6SM SCT250
     FM220400 17013KT P6SM SCT200 WS020/21045KT
     FM221400 18018G28KT P6SM SCT200=
KRVS 212323Z 2200/2224 17012KT P6SM SCT200
     FM220300 18008KT P6SM SCT200 WS020/20050KT
     FM221400 18018G26KT P6SM SCT200=
KSAW 212321Z 2200/2224 00000KT P6SM SKC
     FM221600 17007KT P6SM FEW160=
KSBN 212321Z 2200/2224 20013G21KT P6SM SKC
     FM220200 20010KT P6SM FEW250
     FM221500 19014G22KT P6SM SKC=
KSFB 212322Z 2200/2224 36007KT P6SM SKC
     FM221400 01010KT P6SM FEW050=
TAF KSNY 212320Z 2200/2224 24020G32KT P6SM SCT150
     FM220200 25011KT P6SM SCT150
     FM221300 24015G26KT P6SM SKC=
KTMB 212323Z 2200/2224 34013KT P6SM FEW030 SCT050 BKN250
     FM220200 35005KT P6SM FEW050 SCT250
     FM221300 35010KT P6SM FEW050 SCT200
     FM221600 02012KT P6SM FEW035=
KTUL 212323Z 2200/2224 18014KT P6SM SCT200
     FM220300 17015G23KT P6SM SCT200 WS020/20050KT
     FM221500 17020G30KT P6SM BKN250=
KVRB 212322Z 2200/2224 35008KT P6SM SCT040
     FM221400 01012KT P6SM SCT035=
KXNA 212323Z 2200/2224 18014KT P6SM SCT250
     FM220400 19012KT P6SM SCT200 WS020/21045KT
     FM221400 18020G30KT P6SM SCT200=
KXWA 212321Z 2200/2224 06007KT P6SM VCSH SCT030 OVC040
     FM220800 07007KT P6SM VCSH OVC015=
KYKM 212320Z 2200/2224 21005KT P6SM OVC060
     FM220200 27008KT P6SM -RA OVC060
     FM221800 31009KT P6SM BKN100=
