FTCA33 KWBC 212357
TAF
TAF TNCA 212317Z 2200/2224 07012KT 9999 SCT018
      TEMPO 2204/2218 VRB25KT 5000 SHRA BKN014=
