FTUS80 KWBC 212342 RRG
TAF
PHNL 212339Z 2200/2306 16007KT P6SM FEW025 SCT040
     FM220500 06005KT P6SM FEW025 SCT050
     FM222100 09010KT P6SM FEW025 SCT050=
PHNY 212339Z 2200/2224 28006KT P6SM FEW035
     FM220400 05007KT P6SM FEW025
     FM221900 02008KT P6SM FEW025=
PHTO 212339Z 2200/2224 12009KT P6SM -SHRA FEW030 BKN050 OVC090
     FM220500 21005KT P6SM VCSH BKN025 OVC050
      TEMPO 2205/2209 4SM -SHRA BR
     FM221500 25006KT P6SM VCSH SCT025 BKN050
     FM222100 08013G19KT P6SM SCT025 BKN050=
TIST 212340Z 2200/2224 06005KT P6SM VCSH FEW025 SCT050
     FM221300 08015KT P6SM SCT030
     FM222200 06006KT P6SM FEW030 SCT045=
TISX 212340Z 2200/2224 VRB04KT P6SM VCSH FEW025
     FM221300 08015KT P6SM SCT030
     FM222200 05005KT P6SM FEW025 SCT040=
TJBQ 212340Z 2200/2224 11005KT P6SM FEW025
     FM221300 07015KT P6SM SKC
     FM221700 07015G25KT P6SM VCSH FEW025 SCT035 SCT045
     FM222200 10008KT P6SM SCT025 SCT040=
TJMZ 212340Z 2200/2224 NIL=
TJPS 212340Z 2200/2224 VRB03KT P6SM FEW030
     FM221300 15012KT P6SM SCT025
     FM222200 08006KT P6SM FEW040 AMD NOT SKED=
TJSJ 212340Z 2200/2224 09007KT P6SM FEW035
     FM221300 07012KT P6SM FEW035 SCT050
     FM222300 09008KT P6SM FEW030 SCT045=
