FTUS80 KWBC 212327 RRF
TAF
PAWG 212325Z 2200/2224 09003KT P6SM VCSH FEW010 BKN035 BKN060
      TEMPO 2200/2204 FEW012 BKN028 BKN060
     FM220900 VRB03KT P6SM VCFG SCT004 BKN050
     FM221800 VRB03KT P6SM SKC AMD NOT SKED=
PAYA 212325Z 2200/2224 11005KT P6SM SCT015 BKN027 BKN070
     FM220600 00000KT P6SM VCFG SCT001
     FM221800 32003KT P6SM SKC AMD LTD TO CLD VIS AND WIND=
