FTUS80 KWBC 212321 AAA
TAF AMD
KBPT 212319Z 2123/2218 22010KT P6SM SKC
     FM221600 17015G21KT P6SM FEW250=
