FTUS80 KWBC 212327 RRB
TAF
KIAG 212324Z 2200/2224 19010G21KT P6SM SKC
     FM220200 20013G23KT P6SM SKC WS015/21040KT
     FM221200 20012G20KT P6SM FEW250
     FM221800 20013G23KT P6SM FEW250
     FM222200 18007KT P6SM SKC=
KJBR 212325Z 2200/2224 19007KT P6SM SKC
     FM220300 19004KT P6SM SKC WS015/21045KT
     FM221500 20018G24KT P6SM SCT250
     FM222300 18007KT P6SM SKC=
KJEF 212323Z 2200/2224 17008KT P6SM SCT250
     FM220300 14006KT P6SM SCT250 WS016/21040KT
     FM221600 17012G23KT P6SM SCT250=
KJHW 212324Z 2200/2224 19009KT P6SM SKC
     FM220200 19008KT P6SM SKC WS015/20040KT
     FM220900 18007KT P6SM SKC WS015/22035KT
     FM221100 19008KT P6SM SKC
     FM221800 19012G21KT P6SM SKC
     FM222100 18009KT P6SM SKC=
KJVL 212324Z 2200/2224 21007KT P6SM SKC WS020/23035KT
     FM220300 VRB04KT P6SM SKC WS020/23040KT
     FM221300 18009KT P6SM FEW250
     FM221600 17012G25KT P6SM FEW250=
KLRD 212325Z 2200/2224 17008KT P6SM SKC
      TEMPO 2211/2215 BKN025
     FM221500 16014G21KT P6SM SKC=
KLSE 212325Z 2200/2224 VRB03KT P6SM SCT250
     FM220600 13004KT P6SM FEW250
     FM221700 17010KT P6SM FEW250
     FM222100 17012G18KT P6SM SKC=
KMCC 212325Z 2200/2224 20008KT P6SM FEW120 BKN250
     FM221900 27010KT P6SM BKN250=
KMEM 212325Z 2200/2306 18009KT P6SM FEW250
     FM220300 18008KT P6SM FEW250 WS015/21045KT
     FM221200 19010KT P6SM BKN250
     FM221500 19016G23KT P6SM SCT250=
