FTUS80 KWBC 220124 AAA
TAF AMD
KBKW 220120Z 2201/2224 14007KT P6SM FEW250
     FM221400 16008KT P6SM SKC=
KCKB 220120Z 2201/2224 00000KT P6SM SKC
     FM220600 15003KT P6SM FEW250
     FM221500 18009KT P6SM SKC=
KCRW 220120Z 2201/2224 15005KT P6SM SKC
     FM221500 15002KT P6SM SCT200
     FM221800 18007KT P6SM FEW240=
KEKN 220120Z 2201/2224 00000KT P6SM SKC
     FM221600 21004KT P6SM FEW250=
KHTS 220120Z 2201/2224 14004KT P6SM SKC
     FM221700 19007KT P6SM SCT045
     FM222100 15008KT P6SM SKC=
KPKB 220120Z 2201/2224 16005KT P6SM SKC
     FM221800 17007KT P6SM SCT060
     FM222100 15005KT P6SM FEW250=
