FTUS80 KWBC 212321 RRF
TAF
KFKL 212320Z 2200/2224 16006KT P6SM SKC=
KFLO 212320Z 2200/2224 01003KT P6SM SKC
     FM221400 03006KT P6SM SKC=
KFMH 212320Z 2200/2224 21004KT P6SM SKC
     FM220600 00000KT P6SM SKC
     FM221500 20007KT P6SM SKC=
KFMY 212320Z 2200/2224 01007KT P6SM FEW050
     FM221400 02009KT P6SM SKC=
KFNT 212320Z 2200/2224 20010KT P6SM FEW250 WS020/22040KT
     FM221200 18010KT P6SM FEW250
     FM221600 18012G18KT P6SM SCT250=
KFOE 212320Z 2200/2224 18010KT P6SM FEW250
     FM220200 17010KT P6SM SKC WS010/21045KT
     FM221200 17011KT P6SM SKC
     FM221500 18016G25KT P6SM SKC=
KFSD 212320Z 2200/2224 VRB03KT P6SM FEW250
     FM220500 13005KT P6SM FEW250
     FM221700 20013G18KT P6SM SCT250
     FM222200 18014G22KT P6SM SKC=
KFVE 212320Z 2200/2224 20007KT P6SM BKN250
     FM221600 18009G17KT P6SM FEW040 SCT250=
KGCC 212320Z 2200/2224 32010KT P6SM SCT250
     FM221600 20014KT P6SM BKN210=
KGCK 212320Z 2200/2224 18007KT P6SM SKC
     FM222100 22014KT P6SM SKC=
KGEG 212320Z 2200/2224 22010KT 6SM -RA BR OVC045
     FM220900 25007KT 4SM -RA BR OVC020=
KGLD 212320Z 2200/2224 VRB05KT P6SM SKC
     FM220500 23007KT P6SM SKC
     FM221200 27008KT P6SM SKC
     FM221800 20010G18KT P6SM SKC=
KGLS 212320Z 2200/2224 18012KT P6SM SKC
     FM221500 17014KT P6SM SCT025
     FM221800 17016G23KT P6SM FEW020 SCT040=
