FTUS80 KWBC 212339 RRB
TAF
KHVR 212337Z 2200/2224 VRB06KT P6SM -SHRA SCT015 BKN040
      TEMPO 2202/2206 2SM -RA BR BKN015
     FM220800 06007KT 5SM -RA BR SCT015 BKN030
     FM221800 04008KT 4SM -SHRA BR SCT010 BKN025 AMD NOT SKED=
KLWT 212337Z 2200/2224 29008KT P6SM -SHRA SCT035 BKN050
      TEMPO 2203/2207 5SM -RA BR BKN030
     FM221100 23007KT 5SM -RA BR SCT015 BKN030
     FM221800 32008KT 4SM -SHRA BR SCT010 BKN025=
KMBG 212336Z 2200/2224 19010KT P6SM BKN250
     FM220400 13007KT P6SM BKN250
     FM220800 09006KT P6SM OVC200
     FM221300 02005KT P6SM BKN250
     FM222200 07006KT P6SM SCT250
     FM222300 08007KT P6SM SCT250=
KMDW 212338Z 2200/2306 20010G20KT P6SM SKC WS010/22045KT
     FM220900 19010KT P6SM FEW300
     FM221500 19015G25KT P6SM FEW300=
KMLI 212336Z 2200/2224 17007KT P6SM SKC
     FM220700 18008KT P6SM FEW250 WS020/23040KT
     FM221600 19015G21KT P6SM SKC=
KMTW 212337Z 2200/2224 VRB03KT P6SM SCT180
     FM221100 17006KT P6SM SKC
     FM221700 17013G20KT P6SM SKC
     FM222300 15011KT P6SM SCT200 WS010/20020KT=
KORD 212338Z 2200/2306 20010G20KT P6SM SKC WS010/22045KT
     FM220900 19010KT P6SM FEW300
     FM221500 19015G25KT P6SM FEW300=
KPIR 212336Z 2200/2224 17009KT P6SM BKN250
     FM221000 23008KT P6SM SCT250
     FM222200 14007KT P6SM FEW250=
KRFD 212338Z 2200/2224 20010KT P6SM SKC WS010/22045KT
     FM220900 19010KT P6SM FEW300
     FM221500 19015G25KT P6SM FEW300=
