FTUS80 KWBC 220248 AAA
TAF AMD
KACT 220246Z 2203/2224 18014KT P6SM SKC
     FM221200 18014G24KT P6SM SCT020
      TEMPO 2213/2216 BKN020
     FM221600 19020G30KT P6SM SCT070=
KAGS 220244Z 2203/2224 00000KT P6SM SKC
     FM221500 07006KT P6SM SKC=
KCAE 220244Z 2203/2224 00000KT P6SM SKC
     FM221500 05005KT P6SM SKC
     FM222000 08004KT P6SM FEW045=
KCUB 220244Z 2203/2224 00000KT P6SM SKC
     FM221500 05004KT P6SM SKC
     FM222000 VRB03KT P6SM FEW045=
KDAL 220246Z 2203/2224 18014G24KT P6SM SKC
     FM221200 19015G25KT P6SM SCT020
     FM221700 19020G30KT P6SM SCT080=
KDFW 220246Z 2203/2306 18015G25KT P6SM SKC
     FM221200 19015G25KT P6SM SCT020
     FM221700 19020G30KT P6SM SCT080
     FM230200 18016KT P6SM SCT250=
KDNL 220244Z 2203/2224 00000KT P6SM SKC
     FM221500 06006KT P6SM SKC=
KFTW 220246Z 2203/2224 18015G25KT P6SM SKC
     FM221200 19015G25KT P6SM SCT020
     FM221700 19020G30KT P6SM SCT080=
KLAS 220246Z 2203/2306 19010KT P6SM SKC
     FM221000 20013G23KT P6SM FEW200
     FM221900 21022G32KT 6SM BLDU SCT200 BKN250
     FM222200 21032G42KT 6SM BLDU SCT200 BKN250
     FM230400 25020G30KT P6SM BKN100=
KMEM 220246Z 2203/2306 17008KT P6SM SKC WS015/21045KT
     FM221200 19010KT P6SM BKN250
     FM221500 19016G23KT P6SM SCT250
     FM230100 17010KT P6SM SCT250=
KOGB 220244Z 2203/2224 00000KT P6SM SKC
     FM221500 04006KT P6SM SKC
     FM221900 06005KT P6SM FEW045=
