FTUS80 KWBC 212330 RRA
TAF
KELP 212328Z 2200/2224 26012G20KT P6SM FEW250
     FM220300 24008KT P6SM SCT250
     FM221900 23015G25KT P6SM BKN250=
KFST 212328Z 2200/2224 21010KT P6SM FEW250=
KFTW 212327Z 2200/2224 18013KT P6SM SKC
     FM221200 19015G25KT P6SM SCT020
     FM221700 19020G30KT P6SM SCT080=
KGDV 212327Z 2200/2224 VRB06KT P6SM -RA OVC060
     FM220700 VRB04KT 6SM -RA BR OVC020
     FM221000 VRB03KT P6SM OVC025
     FM221800 06010KT P6SM OVC025 PROB30 2218/2224 6SM -RA BR=
KGFL 212327Z 2200/2224 VRB02KT P6SM FEW200
     FM221500 19007KT P6SM SKC=
KGGW 212327Z 2200/2224 VRB06KT P6SM OVC030
     FM220300 VRB04KT 6SM -RA BR OVC020
     FM221000 09007KT P6SM OVC015
     FM221600 07010KT 5SM -RA BR OVC012 PROB30 2219/2224 2SM RA
      OVC008=
KGNV 212326Z 2200/2224 36002KT P6SM SKC
     FM221500 02008KT P6SM FEW050=
KHOB 212328Z 2200/2224 23010KT P6SM FEW250=
KILG 212328Z 2200/2224 19004KT P6SM SKC
     FM221800 16006KT P6SM SKC=
KILN 212327Z 2200/2224 18007KT P6SM BKN250
     FM221600 19011G19KT P6SM SCT040 BKN250
     FM222200 16006KT P6SM BKN250=
KINK 212328Z 2200/2224 23008KT P6SM FEW250=
KJAX 212326Z 2200/2224 04004KT P6SM FEW250
     FM220200 36002KT P6SM SKC
     FM221400 01011KT P6SM FEW060=
KLCK 212327Z 2200/2224 16005KT P6SM SCT250
     FM221600 18010G18KT P6SM FEW050 SCT250
     FM222200 14006KT P6SM SCT250=
