FTUS80 KWBC 220209 AAA
TAF AMD
KBFI 220206Z 2202/2224 17003KT 6SM -RA SCT010 OVC017
      TEMPO 2202/2204 4SM -RA BR OVC010
     FM220500 VRB03KT P6SM -SHRA OVC015
     FM221700 35004KT P6SM VCSH SCT015 OVC025=
KCRP 220205Z 2202/2224 17010KT P6SM FEW030
     FM221500 16018G26KT P6SM FEW250=
