FTUS80 KWBC 212321 RRD
TAF
KDAG 212320Z 2200/2224 VRB05KT P6SM FEW200
     FM220400 25013KT P6SM SKC
     FM221600 24022G32KT 6SM BLDU SCT200
     FM221900 25035G50KT 4SM BLDU FEW060 SCT200=
KDDC 212320Z 2200/2224 18007KT P6SM FEW250
     FM222100 21013KT P6SM SKC=
KDET 212320Z 2200/2224 20010KT P6SM FEW250 WS020/22040KT
     FM221200 18010KT P6SM FEW250
     FM221600 18012G18KT P6SM SCT250=
KDHN 212320Z 2200/2224 VRB04KT P6SM SKC
     FM221600 07007KT P6SM SKC=
KDRT 212320Z 2200/2224 12010KT P6SM SKC
     FM221700 14012G22KT P6SM SKC=
KDTW 212320Z 2200/2306 20010KT P6SM FEW250 WS020/22040KT
     FM221200 18010KT P6SM FEW250
     FM221600 18012G18KT P6SM SCT250
     FM230000 16008KT P6SM SKC=
KDUJ 212320Z 2200/2224 18007KT P6SM SKC=
KDVT 212320Z 2200/2224 22006KT P6SM FEW250
     FM220200 VRB04KT P6SM FEW250
     FM220500 05005KT P6SM SCT250
     FM220800 12004KT P6SM BKN250
     FM221700 18009KT P6SM SCT050 SCT180
     FM222000 21016G26KT P6SM SCT050 SCT180=
KEAT 212320Z 2200/2224 31007KT 5SM HZ OVC100
     FM220600 29013KT P6SM SCT250=
KEAU 212320Z 2200/2224 VRB03KT P6SM SCT200
     FM221400 13006KT P6SM FEW250
     FM221800 16012G18KT P6SM SKC=
KECG 212320Z 2200/2224 06003KT P6SM SKC
     FM220800 00000KT 3SM BR SKC
     FM221300 03008KT P6SM SKC
     FM222100 03012KT P6SM SCT250=
KECP 212320Z 2200/2224 VRB04KT P6SM SKC
     FM221600 06007KT P6SM SKC=
