FTUS80 KWBC 220236 AAA
TAF AMD
KCMA 220234Z 2203/2224 27005KT P6SM OVC009
     FM220500 VRB03KT 6SM BR OVC007
     FM220800 VRB03KT P6SM OVC012
     FM221500 VRB03KT P6SM OVC015
     FM222100 23010KT P6SM OVC025=
KLGB 220234Z 2203/2224 VRB03KT P6SM BKN012
     FM220700 VRB03KT P6SM OVC015
     FM221700 16005KT P6SM OVC020
     FM222100 19008KT P6SM OVC025=
KSLC 220235Z 2203/2306 16010KT P6SM FEW150 SCT250
     FM220900 17015G25KT P6SM VCSH SCT080 OVC100
     FM221800 22016G30KT P6SM RA FEW040 OVC080
     FM221900 33014KT P6SM RA FEW040 OVC080=
