FTUS80 KWBC 212324 RRA
TAF
TAF KECG 212320Z 2200/2224 06003KT P6SM SKC
     FM220800 00000KT 3SM BR SKC
     FM221300 03008KT P6SM SKC
     FM222100 03012KT P6SM SCT250=
KFAR 212321Z 2200/2224 VRB06KT P6SM BKN240
     FM220900 13007KT P6SM BKN180=
KFLL 212323Z 2200/2306 35011G20KT P6SM VCSH FEW030 SCT050 BKN250
     FM220200 35007KT P6SM FEW050 SCT250
     FM221300 35010KT P6SM FEW050 SCT200
     FM221600 02012KT P6SM FEW035
     FM230100 VRB05KT P6SM FEW050=
KFSM 212323Z 2200/2224 21007KT P6SM SCT250
     FM220500 08005KT P6SM SCT250 WS020/22045KT
     FM221600 16012KT P6SM SCT250=
KFWA 212321Z 2200/2224 21013G24KT P6SM FEW250
     FM220300 20011KT P6SM FEW250 WS020/22040KT
     FM221500 20013G22KT P6SM FEW250
     FM222300 19010KT P6SM FEW250=
KFXE 212323Z 2200/2224 35011G20KT P6SM VCSH FEW030 SCT050 BKN250
     FM220200 35007KT P6SM FEW050 SCT250
     FM221300 35010KT P6SM FEW050 SCT200
     FM221600 02012KT P6SM FEW035=
KFYV 212323Z 2200/2224 19012KT P6SM SCT250
     FM220400 19012KT P6SM SCT250 WS020/21045KT
     FM221400 18016G26KT P6SM SCT200=
KGFK 212321Z 2200/2224 VRB05KT P6SM BKN110
     FM220500 08005KT P6SM OVC080
     FM221400 07006KT P6SM BKN100
     FM222100 05012G17KT P6SM BKN230=
KHOT 212321Z 2200/2224 18006KT P6SM SKC
     FM220300 17006KT P6SM SKC WS020/22040KT
     FM221500 20013G20KT P6SM SCT200 WS020/22042KT
     FM221600 19015G22KT P6SM SCT180=
