FTCA31 KWBC 212306
TAF
TAF MUHA 212300Z 2200/2224 01005KT 9000 SCT030
      BECMG 2214/2216 02011KT
      TEMPO 2217/2221 8000 RA BKN025=
