FTUS80 KWBC 212321 RRA
TAF
KBFF 212320Z 2200/2224 26020G30KT P6SM SKC
     FM220300 25010KT P6SM SCT150
     FM221500 24018G28KT P6SM SKC=
KBFI 212320Z 2200/2224 18006KT 5SM -RA OVC010
     FM220500 VRB03KT P6SM -SHRA OVC015
     FM221700 35004KT P6SM VCSH SCT015 OVC025=
KBFL 212320Z 2200/2224 VRB05KT P6SM FEW200
     FM222100 31010G17KT P6SM SCT100=
KBGM 212320Z 2200/2224 18006KT P6SM SKC
     FM221600 19010KT P6SM SKC
     FM222200 17004KT P6SM SKC=
KBGR 212320Z 2200/2224 19007KT P6SM SCT250
     FM220400 VRB02KT P6SM SKC
      TEMPO 2208/2212 2SM BR FEW002
     FM221800 20008G15KT P6SM BKN220=
KBHB 212320Z 2200/2224 21008KT P6SM SCT250
     FM221700 21008G16KT P6SM BKN220=
KBIH 212320Z 2200/2224 16011KT P6SM SKC
     FM220400 33009KT P6SM SCT150 BKN200
     FM221400 26015G25KT P6SM SCT100 BKN150
     FM222100 35022G32KT 6SM BLDU SCT100 BKN150=
KBKW 212320Z 2200/2224 VRB04KT P6SM FEW250
     FM221400 16008KT P6SM SKC=
KBLH 212320Z 2200/2224 18005KT P6SM FEW250
     FM220200 20006KT P6SM FEW250
     FM221700 20017G27KT P6SM FEW250=
KBLI 212320Z 2200/2224 19006KT P6SM -RA SCT010 OVC035
     FM220400 VRB04KT 6SM -SHRA BR OVC020
     FM221400 01003KT P6SM VCSH OVC015
     FM221800 33005KT P6SM VCSH SCT015 OVC025=
KBNA 212320Z 2200/2224 17007KT P6SM SKC
     FM221700 18009G15KT P6SM SCT050=
KBOS 212320Z 2200/2306 21006KT P6SM SKC
     FM221800 18009KT P6SM FEW250=
