FTUS80 KWBC 212321 RRQ
TAF
KSSF 212320Z 2200/2224 18007KT P6SM SKC
     FM221600 18012G22KT P6SM SKC=
KSTC 212320Z 2200/2224 VRB03KT P6SM SCT150
     FM221400 12007KT P6SM SCT250
     FM221800 16013G21KT P6SM SKC=
KSUN 212320Z 2200/2306 23015G25KT P6SM OVC150
     FM220200 VRB05KT P6SM -RA SCT015 OVC030
     FM221000 VRB05KT 6SM -RA SCT015 OVC020
     FM221700 22010G20KT P6SM VCSH OVC040
     FM230300 32010KT P6SM VCSH OVC080 AMD LTD TO CLD VIS AND WIND
      2205/2213=
KSUX 212320Z 2200/2224 09006KT P6SM SCT250
     FM221400 15007KT P6SM FEW250
     FM221600 18013KT P6SM SKC
     FM221800 17015G24KT P6SM SKC=
KSWF 212320Z 2200/2306 VRB03KT P6SM SKC
     FM221500 24006KT P6SM SKC
     FM221900 21008KT P6SM FEW250
     FM222300 VRB04KT P6SM SCT250 AMD NOT SKED=
KSYR 212320Z 2200/2224 18008KT P6SM FEW250
     FM220300 14006KT P6SM FEW250 WS020/22030KT
     FM221100 15004KT P6SM FEW250
     FM221500 20010KT P6SM SKC
     FM222300 17004KT P6SM SKC=
KTEB 212320Z 2200/2306 VRB04KT P6SM SKC
     FM221500 20005KT P6SM SKC
     FM221900 17006KT P6SM FEW250
     FM230100 VRB03KT P6SM SCT250=
KTLH 212320Z 2200/2224 VRB04KT P6SM SKC
     FM221600 05007KT P6SM SKC=
KTOL 212320Z 2200/2224 20008KT P6SM SKC
     FM220300 21010KT P6SM SKC WS020/24045KT
     FM220900 20008KT P6SM FEW250=
