FTUS80 KWBC 212321 RRE
TAF
KEED 212320Z 2200/2224 24008KT P6SM SCT200
     FM221800 21020G30KT P6SM SCT200=
KEFK 212320Z 2200/2224 17006KT P6SM FEW170
     FM221500 22007G17KT P6SM SKC=
KEKN 212320Z 2200/2224 VRB03KT P6SM SKC
     FM221600 21004KT P6SM FEW250=
KEKO 212320Z 2200/2224 24015G25KT P6SM SCT150 BKN250
     FM221000 24019G29KT P6SM SCT070 BKN110=
KELM 212320Z 2200/2224 19004KT P6SM SKC
     FM220400 VRB03KT P6SM SKC WS020/22030KT
     FM221100 VRB03KT P6SM FEW250
     FM221600 20010KT P6SM SKC
     FM222200 19005KT P6SM SKC=
KELY 212320Z 2200/2224 21015G25KT P6SM SCT250
     FM220300 18016G26KT P6SM SCT150 BKN200=
KERI 212320Z 2200/2224 18015G25KT P6SM SKC
     FM221200 18013KT P6SM SKC=
KEVV 212320Z 2200/2224 18007KT P6SM FEW250
     FM220200 17005KT P6SM FEW250
     FM220700 17004KT P6SM FEW250 WS015/21035KT
     FM221300 18010G15KT P6SM SCT250
     FM221600 19015G25KT P6SM BKN250
     FM222300 18009KT P6SM SCT250=
KEWR 212320Z 2200/2306 16007KT P6SM SKC
     FM220200 21005KT P6SM SKC
     FM220500 VRB03KT P6SM SKC
     FM221500 22005KT P6SM SKC
     FM221900 16007KT P6SM FEW250
     FM230100 VRB03KT P6SM SCT250=
KFAT 212320Z 2200/2224 VRB04KT P6SM FEW200
     FM221800 30012KT P6SM SCT050 OVC100=
KFAY 212320Z 2200/2224 VRB04KT P6SM FEW050=
KFDY 212320Z 2200/2224 19012KT P6SM SKC
     FM220600 20012KT P6SM SKC WS020/23040KT
     FM221000 18008KT P6SM FEW250=
