FTUS80 KWBC 212321 RRG
TAF
KGON 212320Z 2200/2224 20010KT P6SM SKC
     FM220200 19006KT P6SM SKC
     FM220900 VRB03KT P6SM SKC
     FM221500 21005KT P6SM SKC
     FM221900 18007KT P6SM FEW250=
KGPT 212320Z 2200/2224 16008KT P6SM SKC
     FM220300 VRB03KT P6SM SKC
     FM221500 14011KT P6SM SKC=
KGSO 212320Z 2200/2224 VRB03KT P6SM FEW250=
KHIE 212320Z 2200/2224 23002KT P6SM SKC=
KHLG 212320Z 2200/2224 18006KT P6SM SKC=
KHND 212320Z 2200/2224 20009KT P6SM SKC
     FM220600 22012G20KT P6SM SKC
     FM221100 21015G25KT P6SM SKC
     FM221500 21015G25KT P6SM SKC WS020/23040KT
     FM221900 21032G42KT 6SM BLDU SCT200 BKN250=
KHON 212320Z 2200/2224 14005KT P6SM SCT250
     FM222000 22012G21KT P6SM FEW250
     FM222300 14010KT P6SM FEW250=
KHOU 212320Z 2200/2224 18014G20KT P6SM FEW060
     FM220200 18006KT P6SM SKC
     FM221500 18013G20KT P6SM SCT025
     FM221900 18015G24KT P6SM SCT035 SCT045=
KHPN 212320Z 2200/2224 VRB03KT P6SM SKC
     FM221600 20005KT P6SM SKC
     FM222000 16005KT P6SM FEW250 AMD NOT SKED=
KHQM 212320Z 2200/2224 05006KT 4SM -RA BR OVC025
     FM220400 33006KT 6SM -SHRA BR OVC020
     FM220900 26012KT P6SM VCSH OVC030
     FM221600 26013KT P6SM SCT030 BKN050=
KHRL 212320Z 2200/2224 15010G17KT P6SM FEW060
     FM220200 16007KT P6SM SKC
     FM221500 17014G21KT P6SM SCT045 SCT250
     FM221800 17021G28KT P6SM SCT050 SCT250=
