FTUS80 KWBC 220145 AAA
TAF AMD
KEGE 220144Z 2202/2224 27006KT P6SM SKC
     FM220300 11010KT P6SM SKC
     FM220600 11003KT P6SM SCT250
     FM221700 23011G19KT P6SM FEW250
     FM221900 24022G31KT P6SM SKC=
KGUC 220144Z 2202/2224 29006KT P6SM SKC
     FM221700 25012KT P6SM FEW250
     FM221900 26020G32KT P6SM FEW250=
KHDN 220143Z 2202/2224 27005KT P6SM SKC
     FM220800 13010KT P6SM SKC WS020/24035KT
     FM221800 22022G34KT P6SM SCT250=
KVEL 220144Z 2202/2224 26011KT P6SM SKC
     FM221800 21015G23KT P6SM BKN200
     FM222000 22021G31KT P6SM BKN110
     FM222300 24021G32KT P6SM OVC090=
KXWA 220141Z 2202/2224 06007KT P6SM VCSH BKN029
     FM220800 07007KT P6SM VCSH OVC015=
