FTUS80 KWBC 212351
TAF
KACV 212349Z 2200/2224 32005KT 6SM HZ VCSH BKN025 OVC150
     FM220100 31005KT 4SM -DZ BR BKN015 OVC050
     FM220300 VRB04KT 2SM -RA BR BKN003 BKN010 OVC025
      WS020/32030KT
     FM220900 28009G15KT 6SM BR VCSH BKN007 OVC015
     FM221100 31010G20KT 6SM BR VCSH BKN050 WS020/35034KT
     FM221500 36008KT 6SM BR VCSH OVC050
     FM221800 34012KT 6SM BR SCT080 BKN200=
KCEC 212349Z 2200/2224 31007KT 6SM -RA HZ FEW015 OVC022
      TEMPO 2200/2201 BKN017
     FM220100 22010KT 3SM -RA BR BKN007 OVC012 WS020/30026KT
     FM220400 30013G23KT 2SM -RA BKN003 OVC015 WS020/34030KT
     FM220900 28010G20KT 4SM BR SCT005 BKN080 WS020/35032KT
     FM221200 34009G18KT 6SM BR VCSH SCT025 OVC040
     FM222000 33010KT 6SM BR BKN025 OVC050=
KUKI 212349Z 2200/2224 29011KT P6SM OVC200
     FM220300 33006KT P6SM OVC200 WS020/33030KT
     FM220600 34003KT P6SM SCT030 BKN250 WS020/33034KT
     FM220900 30009KT P6SM BKN015 OVC025
     FM221500 34010G17KT P6SM SCT025 BKN200
     FM222000 31016G26KT P6SM SCT030 BKN200=
PHOG 212349Z 2200/2224 04015KT P6SM FEW045
     FM220600 08007KT P6SM VCSH SCT030
     FM221800 05010KT P6SM FEW030
     FM222100 05016G23KT P6SM SCT030=
