FTUS80 KWBC 212342 RRE
TAF
KSMX 212339Z 2200/2224 31010KT P6SM SKC
     FM220300 30005KT 5SM BR BKN004
     FM220600 VRB03KT 3SM BR OVC006
     FM221500 01006KT 6SM BR OVC012
     FM222100 29015KT P6SM BKN050=
KSNA 212339Z 2200/2224 22009KT P6SM FEW012 SCT200
      TEMPO 2200/2202 BKN012
     FM220200 21005KT P6SM BKN014
     FM221000 VRB03KT P6SM -DZ OVC017
     FM221800 19010KT P6SM BKN025=
KSNS 212338Z 2200/2224 30014KT P6SM BKN012
     FM220300 29007KT 6SM BR OVC005
     FM221100 24010KT 6SM BR OVC015
     FM221730 27012G25KT P6SM SCT015=
KSPS 212339Z 2200/2224 19015G23KT P6SM FEW250
     FM221400 21020G30KT P6SM SCT250=
KSTS 212338Z 2200/2224 17012KT P6SM SCT250
      TEMPO 2203/2207 BKN008
     FM220700 VRB06KT 6SM BR BKN006 WS010/32035KT
     FM221600 32020KT P6SM FEW200=
KSWO 212339Z 2200/2224 19013G19KT P6SM SCT250 WS020/21045KT
     FM221400 20018G28KT P6SM FEW250=
KTRM 212339Z 2200/2224 13007KT P6SM FEW250
     FM220300 33009KT P6SM FEW250
     FM221000 33005KT P6SM SCT200
     FM222000 28012G22KT P6SM SCT250=
KTXK 212338Z 2200/2224 18005KT P6SM SKC
     FM221500 19018G27KT P6SM SKC=
KVNY 212339Z 2200/2224 13009KT P6SM SKC
     FM220400 VRB03KT P6SM SKC
     FM220700 VRB03KT P6SM OVC015
     FM221700 15004KT P6SM OVC020
     FM222100 16012KT P6SM OVC030=
