FTUS80 KWBC 212333 RRC
TAF
KGUP 212332Z 2200/2224 25012G22KT P6SM SCT180
     FM220200 22008KT P6SM FEW200
     FM221600 23018G32KT P6SM FEW200=
KHIB 212331Z 2200/2224 VRB04KT P6SM SCT080 BKN200
     FM221600 14007G14KT P6SM BKN200=
KHIO 212329Z 2200/2224 11005KT 1SM -RA BR BKN008 OVC015
     FM220300 05004KT 4SM -RA BR SCT008 BKN015 OVC025
     FM220700 29007KT P6SM -SHRA BKN015 OVC030
     FM221200 27007KT P6SM -SHRA SCT015 BKN025 OVC040
     FM221900 22008KT P6SM -SHRA SCT020 BKN035 BKN060=
KHKY 212330Z 2200/2224 00000KT P6SM SKC
     FM221800 14005KT P6SM FEW250=
KHYR 212331Z 2200/2224 VRB03KT P6SM FEW250
     FM221300 12006KT P6SM SCT200
     FM221600 14009G16KT P6SM FEW250=
KINL 212331Z 2200/2224 24004KT P6SM SCT050 BKN150
     FM220600 16003KT P6SM VCSH BKN050 OVC150
     FM221000 14006KT P6SM OVC080
     FM221700 12007KT P6SM OVC100=
KINW 212331Z 2200/2224 27010G20KT P6SM FEW150
     FM220200 21008KT P6SM FEW150
     FM221500 22015G25KT P6SM FEW050 SCT200
     FM221800 21022G35KT P6SM FEW060
     FM222100 21026G41KT P6SM SCT070=
KJKL 212330Z 2200/2224 VRB03KT P6SM FEW250
     FM221500 20005KT P6SM FEW250=
KJLN 212330Z 2200/2224 20018G30KT P6SM SKC
     FM220300 18015G23KT P6SM BKN250 WS020/21040KT
     FM221100 18016G26KT P6SM SCT240 WS020/21050KT
     FM221500 19022G34KT P6SM FEW250
     FM222200 18021G30KT P6SM FEW210=
