FTUS80 KWBC 220227 AAA
TAF AMD
KIND 220224Z 2202/2306 17008KT P6SM SCT250
     FM220400 19008KT P6SM SCT250 WS020/22035KT
     FM220900 19008KT P6SM SCT250
     FM221500 19013G23KT P6SM SCT250
     FM222300 17010KT P6SM FEW250=
