FTUS80 KWBC 220100 AAA
TAF AMD
KATY 220056Z 2201/2224 14003KT 6SM HZ SCT250
     FM220300 16006KT P6SM FEW250
     FM221500 19011G21KT P6SM FEW250
     FM222300 18006KT P6SM FEW250=
