SAPS31 NZKL 212300
METAR NIUE 212300Z AUTO 06008KT 030V090 26/24 Q1012=
METAR NCAI 212300Z AUTO 08003KT //// ////// 29/24 Q1014=
