SAPS31 NZKL 220100
METAR NIUE 220100Z AUTO 06010KT 27/23 Q1011=
METAR NCAI 220100Z AUTO 07003KT //// ////// 29/24 Q1013=
