SAPS31 NZKL 220000
METAR NIUE 220000Z AUTO 07011KT 26/23 Q1011=
METAR NCAI 220000Z AUTO 07004KT //// ////// 29/24 Q1014=
