SMPA01 KWBC 220000
AAXX 22004
91165 NIL=
91182 NIL=
91190 NIL=
91212 NIL=
91217 NIL=
91285 NIL=
91317 NIL=
91334 12474 59905 10300 20255 30102 40105 50003 60014 82101 333
20244 569/9 59030 70013 555 92200=
91348 12474 80404 10318 20260 30059 40112 50002 60254 83271 333
20240 56199 59015 70254 555 92200=
91356 11466 71110 10278 20248 30099 40106 5//// 60024 72582 85145
333 20233 56299 59010 70023 85819 555 92200=
91366 NIL=
91369 11474 60805 10283 20261 30060 40063 61834 70282 84337 333
20244 56229 84815 83360 88780 555 92200=
91371 NIL=
91376 11472 81107 10254 20226 30095 40098 50002 60114 76082 8587/
333 20235 56339 58007 70112 555 92200=
91408 NIL=
91413 12469 69903 10296 20261 30075 40100 50010 60074 82101 333
20250 569/9 59027 70071 555 92200=
91425 NIL=
91434 NIL=
91765 12569 71111 10311 20258 30107 40110 57017 69904 83178 333
20258 56299 59007 555 92200=
