SMPA01 KWBC 220000 RRC
AAXX 22004
91165 12966 01711 10289 20228 30115 40148 58015 69901 92353=
91212 32966 01014 10294 20244 30034 40117 51014 92354=
91285 12566 81211 10283 20228 30134 40146 58023 69901 92353=
91317 12474 81604 10283 20268 30098 40102 5//// 60044 81850=
91334 12474 59905 10300 20255 30102 40105 50003 60014 82101=
91348 12474 80404 10318 20260 30059 40112 50002 60254 83271=
91356 11466 71110 10278 20248 30099 40106 5//// 60024 72582 85145=
91369 11474 60805 10283 20261 30060 40063 61834 70282 84337=
91376 11472 81107 10254 20226 30095 40098 50002 60114 76082 8587/=
91408 12473 80806 10277 20247 30040 40098 60214 82378 333 20233
56299 59023 70213 555 92200=
91413 12469 69903 10296 20261 30075 40100 50010 60074 82101=
91425 11474 21105 10300 20283 30115 40116 5//// 60154 70282 82200=
91434 32474 30603 10306 20256 30094 40095 5//// 83200=
