SPUS70 KWBC 220208
SPECI
KPUW 220204Z AUTO 10007KT 5SM -RA BR SCT011 OVC020 05/04 A2966 RMK
     AO2 P0001 T00500044=
PAMK 220205Z AUTO 23014KT 10SM -RA FEW014 BKN021 OVC025 03/02
     A2979 RMK AO2 P0000=
PAOO 220205Z AUTO 22009KT FEW022 BKN029 04/02 A2988 RMK AO2 PWINO
     TSNO $=
KPDT 220205Z 18009KT 5SM RA BR FEW004 BKN013 OVC019 08/07 A2967
     RMK AO2 P0002 T00780067=
