SPUS80 KWBC 220036
SPECI
PAYA 220033Z AUTO 07004KT 10SM FEW018 BKN028 OVC038 07/05 A2968
     RMK AO2 RAB13E22 P0000 T00670050 TSNO $=
KPDX 220033Z 13007KT 3SM -RA BR SCT006 BKN024 OVC041 11/09 A2972
     RMK AO2 SFC VIS 6 P0002 T01060089=
