SPUS80 KWBC 220020
SPECI
PANN 220016Z AUTO 00000KT 9SM SCT004 BKN033 OVC042 01/00 A2984 RMK
     AO2 RAE12 P0000 T00110000 TSNO=
PAOM 220017Z 22011KT 10SM BKN020 BKN035 OVC060 04/01 A2967 RMK AO2
     RAB2357E07 P0000 T00390011=
