SPUS80 KWBC 220114
SPECI
KSCK 220111Z 34004KT 3SM HZ CLR 22/10 A2976 RMK AO2 T02220100=
