SPUS80 KWBC 220018
SPECI
K2WX 220013Z AUTO 34024G31KT 17/02 A2945 RMK AO1 PK WND 34031/0012
     WSHFT 2353 T01670017=
KMYL 220015Z AUTO 00000KT 5SM -RA OVC029 07/02 A2974 RMK AO2 P0002
     T00720017=
