SPUS80 KWBC 212308
SPECI
KSEA 212304Z 18008KT 10SM SCT012 OVC018 08/07 A2975 RMK AO2
     RAE2254 P0000 T00830067=
PADK 212306Z AUTO 00000KT SCT023 OVC030 06/06 A2998 RMK AO2 PWINO
     $=
KAST 212305Z AUTO 10005KT 2SM -RA BR FEW006 BKN011 OVC029 11/10
     A2970 RMK AO2 P0002 T01110100=
PADK 212306Z AUTO 00000KT SCT023 OVC030 06/06 A2998 RMK AO2 PWINO
     $=
