SPUS70 KWBC 220240
SPECI
KNFE 220231Z AUTO 00000KT 3SM BR FEW060 08/07 A3019 RMK AO2
     T00830067=
PARS 220237Z AUTO 20005KT 10SM SCT023 SCT070 BKN090 A2987 RMK AO2
     FZRANO $=
KGDV 220237Z AUTO 05008KT 10SM SCT008 OVC075 07/07 A2954 RMK
     AO2=
KHFF 220231Z AUTO 00000KT 10SM CLR 06/05 A3015 RMK AO2 SLP213=
KAVX 220237Z AUTO 00000KT 2 1/2SM HZ FEW002 17/11 A2990 RMK AO2
     T01720106=
