SPUS70 KWBC 220042
SPECI
PAMK 220039Z AUTO 22014KT 10SM BKN012 OVC020 03/01 A2977 RMK
     AO2=
KCTB 220039Z AUTO 09004KT 10SM FEW006 SCT012 OVC070 04/03 A2954
     RMK AO2 T00390028=
PARY 220040Z AUTO 07004KT 4SM -RA BR BKN010 OVC020 01/00 A2980 RMK
     AO2 P0000 FZRANO=
KTTD 220039Z 11004KT 2 1/2SM -RA BR FEW008 BKN038 OVC047 11/08
     A2971 RMK AO2 P0005 T01060083=
