SPUS80 KWBC 212252
SPECI
KBZN 212248Z 02004KT 10SM FEW055 OVC085 15/00 A2953 RMK AO2
     T01500000=
KSAN 212248Z 22008KT 10SM BKN015 23/17 A2987 RMK AO2=
