SPUS80 KWBC 220132
SPECI
PANN 220129Z AUTO 00000KT 1SM -SN BR FEW004 OVC016 00/M01 A2985
     RMK AO2 RAE21SNB21 P0002 T00001006 TSNO=
KLAX 220129Z 25007KT 10SM OVC008 18/17 A2985 RMK AO2 T01830167=
KSCK 220129Z 32007KT 2 1/2SM HZ CLR 21/09 A2976 RMK AO2
     T02060094=
