SPUS70 KWBC 212306
SPECI
PAHL 212303Z AUTO 16003KT 10SM BKN006 BKN023 OVC027 02/01 A2978
     RMK AO2 FZRANO=
KHQM 212302Z AUTO 04004KT 4SM -RA BR FEW008 BKN011 OVC060 11/09
     A2973 RMK AO2 P0001 T01110094=
KSPB 212302Z AUTO 19003KT 2 1/2SM RA BR FEW005 BKN040 OVC055 09/09
     A2976 RMK AO2 P0001 T00940089=
PADL 212304Z VRB05KT 10SM BKN022 07/03 A2997 RMK AO2=
PAMK 212304Z AUTO 22014G19KT 10SM OVC008 03/02 A2976 RMK AO2=
PARC 212304Z AUTO 00000KT 2SM BR SCT002 M08/M10 A2972 RMK AO2
     FZRANO=
KCTB 212303Z AUTO 03006KT 10SM -RA FEW008 OVC047 04/03 A2955 RMK
     AO2 P0000 T00440033=
