SPUS70 KWBC 220238
SPECI
KPDT 220234Z 17009KT 7SM RA FEW015 OVC030 08/07 A2965 RMK AO2
     P0008 T00780067=
