SPUS70 KWBC 220052
SPECI
KSPB 220048Z AUTO 15004KT 2SM -RA BR OVC004 09/09 A2969 RMK AO2
     CIG 003V008 PRESFR P0004=
KTTD 220048Z 09003KT 2 1/2SM BR BKN026 BKN038 OVC047 11/08 A2971
     RMK AO2 RAE48 P0005=
PANI 220049Z AUTO 25009KT 10SM BKN016 BKN022 OVC038 04/02 A2992
     RMK AO2 RAE10 P0000 $=
PANI 220049Z AUTO 25009KT 10SM BKN016 BKN022 OVC038 04/02 A2992
     RMK AO2 RAE10 P0000 $=
