SPUS70 KWBC 212336
SPECI
KOLF 212332Z AUTO 09004KT 10SM BKN024 BKN029 OVC110 09/05 A2955
     RMK AO2 T00890050=
KKLS 212334Z AUTO 14004KT 10SM -RA BKN017 OVC070 10/08 A2975 RMK
     AO2 P0001=
KEAT 212333Z AUTO 33008KT 4SM HZ CLR 13/01 A2962 RMK AO2
     T01280006=
