SPUS80 KWBC 220242
SPECI
KHVR 220238Z AUTO 24006KT -RA SCT007 BKN012 OVC030 07/06 A2953 RMK
     AO2 P0003 T00670061 $=
PAQT 220237Z AUTO 09015KT 7SM -SN SCT010 BKN021 OVC050 M04/M06
     A2989 RMK AO2 SNB05E16B26 P0000 T10391056 TSNO=
