SPUS70 KWBC 220046
SPECI
PFKW 220043Z AUTO 23012KT 10SM BKN023 06/01 A2990 RMK AO2=
PAIK 220043Z AUTO 10005KT 10SM SCT013 OVC021 01/01 A2976 RMK AO2
     FZRANO=
PFKW 220043Z AUTO 23012KT 10SM BKN023 06/01 A2990 RMK AO2=
KVUO 220042Z AUTO 14005KT 10SM SCT007 BKN022 OVC040 10/09 A2972
     RMK AO2 RAE37 P0003 T01000089=
KCMA 220043Z 23006KT 7SM BKN014 20/17 A2984 RMK AO2 T02000167=
KPDT 220043Z 17010KT 6SM -RA BR SCT003 OVC039 08/06 A2970 RMK AO2
     P0002 T00780061=
PAGA 220041Z AUTO 10SM SCT017 BKN060 03/01 A2980 RMK AO2 $=
