SPUS70 KWBC 220032
SPECI
KPWT 220030Z AUTO 19004KT 9SM -RA BKN004 OVC011 08/08 A2972 RMK
     AO2 CIG 003V008 P0002=
KSHN 220029Z AUTO 00000KT 7SM -RA BKN011 BKN021 OVC040 09/08 A2969
     RMK AO2 P0003 T00890083=
