SPUS70 KWBC 212328
SPECI
PALH 212324Z 00000KT 10SM SCT002 03/03 A2985 RMK AO2 T00330028=
PARS 212325Z AUTO 24005KT 10SM FEW018 SCT032 OVC041 A2984 RMK AO2
     UPB07E10RAB10E24 P0001 FZRANO $=
KHQM 212324Z AUTO 05004KT 5SM -RA BR SCT013 BKN018 OVC029 11/09
     A2972 RMK AO2 P0002 T01110094=
PAHN 212325Z AUTO 10006KT 10SM BKN017 OVC034 08/05 A2963 RMK AO2
     T00830050 TSNO=
KCOE 212326Z AUTO 20004KT 7SM -RA FEW009 OVC016 03/02 A2970 RMK
     AO2 PNO $=
KMMV 212325Z AUTO 13006KT 2SM -RA BR BKN005 OVC022 09/08 A2975 RMK
     AO2 P0001 T00940083=
