SPUS80 KWBC 212328
SPECI
PAFA 212325Z 24006KT 4SM -SN BR BKN032 OVC045 02/M01 A2982 RMK AO2
     P0000 T00171006=
