SPUS70 KWBC 220024
SPECI
KWVI 220020Z AUTO 27006KT 10SM BKN011 13/11 A2990 RMK AO2
     T01330111=
PAOO 220022Z AUTO 20013KT BKN026 OVC095 05/02 A2988 RMK AO2 PWINO
     TSNO $=
