SPUS70 KWBC 220142
SPECI
KOTH 220139Z 22015KT 2 1/2SM RA BR OVC011 14/14 A2979 RMK AO2
     P0002=
PAGK 220139Z AUTO VRB06KT 4SM -SN BR FEW011 OVC035 01/M01 A2974
     RMK AO2 P0000 T00061006 TSNO=
PAKV 220139Z AUTO 00000KT 10SM BKN009 OVC015 02/01 A2982 RMK AO2
     T00170006 TSNO=
KMYF 220139Z 20005KT 10SM BKN015 19/16 A2987 RMK AO2 T01940156=
