SPUS70 KWBC 220114
SPECI
PARY 220111Z AUTO 09003KT 1SM BR FEW004 OVC010 01/00 A2980 RMK AO2
     RAE00 CIG 007V014 P0000 FZRANO=
PATQ 220111Z AUTO 10016KT 10SM SCT007 OVC012 M04/M05 A2980 RMK AO2
     FZRANO TSNO=
PATQ 220111Z AUTO 10016KT 10SM SCT007 OVC012 M04/M05 A2980 RMK AO2
     FZRANO TSNO=
KCTB 220111Z AUTO 13005KT 10SM SCT006 OVC060 04/03 A2954 RMK AO2
     T00390033=
KOTH 220112Z 21013G16KT 5SM -RA BR OVC009 14/14 A2980 RMK AO2 CIG
     005V012 P0001=
KSHN 220111Z AUTO 10003KT 8SM -RA BKN004 OVC010 09/08 A2967 RMK
     AO2 P0003 T00890083=
