SPUS70 KWBC 220210
SPECI
KALW 220206Z AUTO 20008KT 10SM -RA HZ BKN024 OVC048 08/07 A2965
     RMK AO2 P0002 T00830067=
PANI 220207Z AUTO 26006KT 10SM FEW019 BKN027 OVC042 04/01 A2994
     RMK AO2 $=
PANI 220207Z AUTO 26006KT 10SM FEW019 BKN027 OVC042 04/01 A2994
     RMK AO2 $=
KXWA 220207Z AUTO 04007KT 10SM BKN029 BKN035 OVC043 05/04 A2956
     RMK AO2 T00500039=
