SPUS80 KWBC 220134
SPECI
KHVR 220130Z AUTO 21005KT -RA BKN011 OVC018 07/07 A2954 RMK AO2
     P0001 T00670067 $=
PASN 220131Z AUTO 21011KT 10SM BKN027 07/04 A2993 RMK AO2
     T00720039 TSNO=
