SPUS70 KWBC 220034
SPECI
PAIK 220031Z AUTO 10006KT 10SM FEW005 BKN013 OVC021 01/01 A2976
     RMK AO2 FZRANO=
PAPH 220031Z AUTO 23010KT 10SM FEW011 BKN023 OVC044 07/05 A3010
     RMK AO2 RAB06E22 P0000=
PARY 220031Z AUTO 06003KT 3/4SM -RA BR BKN010 OVC020 01/00 A2980
     RMK AO2 VIS 1/2V2 1/2 CIG 003V012 P0000 FZRANO=
PAOO 220032Z AUTO 21012KT FEW024 BKN049 OVC090 06/02 A2988 RMK AO2
     PWINO TSNO $=
