SPUS80 KWBC 220056
SPECI
PADK 220054Z AUTO 09003KT SCT012 BKN019 OVC025 06/04 A2994 RMK AO2
     P0002 PWINO $=
PADK 220054Z AUTO 09003KT SCT012 BKN019 OVC025 06/04 A2994 RMK AO2
     P0002 PWINO $=
