SPUS70 KWBC 212244
SPECI
KSBP 212240Z 32006KT 10SM CLR 22/13 A2987 RMK AO2 T02170133=
KBLI 212241Z 18006KT 10SM -RA SCT010 BKN015 OVC050 10/09 A2974 RMK
     AO2 RAB20 P0000 T01000094=
KMMV 212241Z AUTO 09005KT 3SM -RA BR SCT004 BKN023 OVC041 09/08
     A2977 RMK AO2 P0005 T00940083=
PAFM 212242Z AUTO 11004KT 1SM -SN BR OVC004 00/00 A2979 RMK AO2
     P0004 FZRANO=
PAFM 212242Z AUTO 11004KT 1SM -SN BR OVC004 00/00 A2979 RMK AO2
     P0004 FZRANO=
