SPUS80 KWBC 212346
SPECI
KGEG 212342Z 19006KT 10SM FEW006 SCT029 OVC045 06/04 A2966 RMK AO2
     RAE34 P0002 T00610039=
