SPUS80 KWBC 220054
SPECI
KHVR 220051Z AUTO 24003KT -RA FEW007 OVC040 07/07 A2954 RMK AO2
     P0002 $=
