SPUS80 KWBC 212350 CCA
SPECI
KMEH 212343Z AUTO VRB03KT 4SM -RA BR BKN005 OVC010 06/06 A2970 RMK
     AO2 P0006 T00610056=
