SPUS70 KWBC 220224
SPECI
PARY 220222Z AUTO 14004KT 10SM SCT008 BKN017 OVC021 01/00 A2981
     RMK AO2 RAE07 P0000 FZRANO=
KKLS 220222Z AUTO 33005KT 4SM -RA BR FEW005 OVC019 09/08 A2965 RMK
     AO2 P0002=
