SPUS80 KWBC 220234
SPECI
KSMX 220230Z 34004KT 8SM OVC009 14/13 A2990 RMK AO2 T01390128=
