SPUS70 KWBC 212342
SPECI
PARY 212339Z AUTO 00000KT 3/4SM UP BR BKN010 OVC013 01/00 A2980
     RMK AO2 VIS 1/2V5 UPB39 CIG 007V011 P0000 FZRANO=
KCEC 212338Z AUTO 07003KT 6SM HZ OVC022 15/09 A2993 RMK AO2
     RAB22E33 P0000 T01500089=
KMMV 212338Z AUTO 13005KT 2SM BR SCT005 OVC020 09/08 A2974 RMK AO2
     RAE26 P0001 T00890083=
PAUN 212340Z AUTO 19014KT 10SM BKN014 OVC018 03/01 A2977 RMK AO2
     RAE27 P0000=
