SPUS80 KWBC 212332
SPECI
PANC 212329Z 30004KT 10SM FEW001 FEW005 FEW065 03/02 A2984 RMK AO2
     T00280017=
