SPUS70 KWBC 220120
SPECI
KLGD 220117Z AUTO 31006KT 4SM RA BR BKN022 OVC033 08/08 A2966 RMK
     AO2 P0007=
PFYU 220118Z 00000KT 6SM FZDZ BR FEW004 OVC017 M03/M04 A2987 RMK
     AO2 FZRAE01FZDZB01 P0000=
