SPUS80 KWBC 220246
SPECI
KUIL 220242Z AUTO 00000KT 10SM BKN003 08/08 A2971 RMK AO2
     T00830078=
PAOT 220243Z 13010KT 10SM OVC005 00/00 A2970 RMK AO2 T00000000=
