SPUS80 KWBC 220120
SPECI
KHVR 220116Z AUTO 22005KT -RA FEW007 BKN017 OVC041 07/07 A2954 RMK
     AO2 P0000 T00720067 $=
KMYL 220117Z AUTO 12005KT 10SM -RA BKN024 OVC031 06/02 A2969 RMK
     AO2 P0002 T00610022=
