SPUS80 KWBC 220210
SPECI
KCRQ 220207Z 23005KT 10SM OVC015 20/16 A2987 RMK AO2 T02000161=
