SPUS80 KWBC 220204
SPECI
PAOT 220200Z 13010KT 7SM OVC004 M01/M01 A2970 RMK AO2
     T10061006=
