SPUS70 KWBC 212258
SPECI
KUAO 212255Z 12004KT 2SM -RA BR BKN003 BKN020 OVC043 09/08 A2978
     RMK AO2 P0000 T00940083=
