SPUS70 KWBC 212252
SPECI
PAGL 212249Z AUTO 00000KT 10SM BKN015 BKN030 03/02 A2971 RMK AO2
     PWINO $=
PAGL 212249Z AUTO 00000KT 10SM BKN015 BKN030 03/02 A2971 RMK AO2
     PWINO $=
PABR 212249Z 10022G31KT 3SM -SN BR FEW016 BKN046 OVC060 M03/M04
     A2984 RMK AO2 PK WND 10032/2211 VIS 2 NE CIG 033 NE P0000=
