SPUS70 KWBC 212256
SPECI
PFCL 212253Z AUTO 30007G15KT 8SM -RA FEW021 BKN029 BKN039 06/03
     A2999 RMK AO2 RAB47 P0000 TSNO=
KPWT 212253Z AUTO 19005KT 10SM -RA SCT008 BKN026 09/08 A2975 RMK
     AO2 P0001=
PFCL 212253Z AUTO 30007G15KT 8SM -RA FEW021 BKN029 BKN039 06/03
     A2999 RMK AO2 RAB47 P0000 TSNO=
PAFM 212254Z AUTO 12007KT 2SM -SN BR OVC004 00/00 A2979 RMK AO2
     P0004 FZRANO=
PADM 212254Z AUTO 18010KT 10SM BKN013 OVC035 04/02 A2988 RMK
     AO2=
PAFM 212254Z AUTO 12007KT 2SM -SN BR OVC004 00/00 A2979 RMK AO2
     P0004 FZRANO=
PAIG 212254Z AUTO 21011G17KT 10SM SCT024 SCT030 07/02 A2996 RMK
     AO2 $=
