SPUS70 KWBC 220100
SPECI
KUAO 220057Z 11003KT 2SM BR BKN003 OVC012 09/09 A2971 RMK AO2
     RAE56 P0000 T00940089=
