SPUS70 KWBC 220110
SPECI
KSPB 220106Z AUTO 17004KT 5SM -RA BR OVC005 09/09 A2968 RMK AO2
     CIG 003V008 P0000 T00940089=
PABV 220107Z AUTO 00000KT 10SM OVC003 03/02 A2987 RMK AO2=
PABV 220107Z AUTO 00000KT 10SM OVC003 03/02 A2987 RMK AO2=
PFYU 220107Z 00000KT 8SM FZDZ BR BKN006 OVC017 M03/M04 A2987 RMK
     AO2 FZRAE01FZDZB01 P0000=
KTIW 220107Z 15003KT 7SM -RA BKN009 BKN020 OVC025 08/07 A2971 RMK
     AO2 P0001 T00830067=
