SPUS70 KWBC 220218
SPECI
KAVX 220214Z AUTO 00000KT 3SM BR SCT002 14/13 A2990 RMK AO2
     T01390128=
KBOK 220215Z AUTO 12004KT 1 1/2SM -RA BR BKN006 BKN009 OVC012
     12/12 A2988 RMK AO2 P0000 $=
KSHN 220215Z AUTO 05003KT 7SM -RA OVC007 08/08 A2966 RMK AO2 CIG
     005V011 P0000 T00830078=
PAPB 220215Z AUTO 21005KT 6SM HZ BKN019 06/ A2995 RMK AO2 T0061
     TSNO $=
PAPB 220215Z AUTO 21005KT 6SM HZ BKN019 06/ A2995 RMK AO2 T0061
     TSNO $=
