SPUS70 KWBC 212354
SPECI
PADM 212351Z AUTO 16007KT 10SM SCT015 SCT041 04/02 A2988 RMK
     AO2=
KAWO 212351Z AUTO 05004KT 9SM -RA BKN025 OVC032 09/08 A2974 RMK
     AO2 P0002=
KCVO 212351Z AUTO 20006KT 10SM FEW022 BKN032 OVC040 14/10 A2975
     RMK AO2=
KPWT 212351Z AUTO 18006KT 10SM -RA FEW008 SCT028 BKN037 08/08
     A2973 RMK AO2 P0002=
KSPB 212350Z AUTO 17005KT 3SM RA BR SCT007 BKN012 OVC040 09/08
     A2973 RMK AO2 P0009=
PABV 212352Z AUTO 30003KT 10SM SCT005 04/03 A2986 RMK AO2=
KMCW 212351Z AUTO 00000KT 2 1/2SM HZ CLR 12/01 A2964 RMK AO2=
PABV 212352Z AUTO 30003KT 10SM SCT005 04/03 A2986 RMK AO2=
