SPUS80 KWBC 220012
SPECI
PANN 220008Z AUTO 00000KT 9SM -RA SCT004 BKN019 OVC032 01/00 A2983
     RMK AO2 P0000 T00060000 TSNO=
KAST 220008Z AUTO 11006KT 1 1/4SM RA BR FEW014 BKN020 OVC026 11/09
     A2965 RMK AO2 PRESFR P0000 T01060094=
