SPUS70 KWBC 220006
SPECI
KOTH 220003Z VRB03KT 6SM -RA BR BKN008 OVC012 13/12 A2986 RMK AO2
     P0000=
KSPB 220002Z AUTO 18003KT 6SM -RA BR SCT005 BKN014 OVC038 09/09
     A2973 RMK AO2 P0001 T00940089=
KSLE 220003Z 00000KT 1 1/4SM BR OVC002 11/09 A2973 RMK AO2 CIG
     002V006 P0001 T01060094=
PARY 220004Z AUTO 06004KT 1SM -RA BR BKN009 OVC012 01/00 A2980 RMK
     AO2 CIG 007V010 P0000 FZRANO=
