SPUS70 KWBC 212348
SPECI
PARS 212345Z AUTO 23005KT 10SM BKN018 BKN036 OVC043 A2984 RMK AO2
     UPB07E10RAB10E24 P0001 FZRANO $=
PARY 212345Z AUTO 00000KT 5SM -RA BR OVC010 01/00 A2980 RMK AO2
     UPB39E41RAB41 CIG 007V013 P0000 FZRANO=
