SPUS70 KWBC 212338
SPECI
KOTH 212335Z 18007KT 6SM -RA BR OVC014 13/12 A2985 RMK AO2
     P0000=
PFSH 212335Z AUTO 20016KT 10SM OVC014 03/02 A2975 RMK AO2=
PAPB 212335Z AUTO 20008KT 10SM FEW022 BKN034 OVC050 06/ A2998 RMK
     AO2 RAB2254E35 P0000 T0061 TSNO $=
PAIK 212336Z AUTO 09004KT 10SM BKN005 OVC011 01/01 A2975 RMK AO2
     FZRANO=
PAOU 212336Z AUTO 23011KT 10SM FEW015 SCT022 BKN028 06/04 A3012
     RMK AO2 PNO $=
PAPB 212335Z AUTO 20008KT 10SM FEW022 BKN034 OVC050 06/ A2998 RMK
     AO2 RAB2254E35 P0000 T0061 TSNO $=
KBOK 212336Z AUTO 00000KT 10SM BKN018 BKN060 16/11 A2992 RMK AO2
     $=
