SPUS80 KWBC 220122
SPECI
KAST 220118Z AUTO 07014KT 2 1/2SM -RA BR BKN019 OVC023 10/09 A2960
     RMK AO2 P0004 T01000089=
