SPUS80 KWBC 212320 CCA
SPECI
KMEH 212314Z AUTO 00000KT 2 1/2SM RA BR FEW004 OVC009 06/05 A2971
     RMK AO2 P0002 T00610050=
