SPUS80 KWBC 212250
SPECI
PANC 212246Z 00000KT 1/2SM R07R/0800V1400FT FG BKN000 03/03 A2983
     RMK AO2 FG BKN000 T00280028=
PATK 212246Z 00000KT 1/2SM FG VV002 01/00 A2982 RMK AO2
     T00060000=
KSMP 212247Z AUTO VRB03KT 1 1/4SM BR BKN003 OVC013 02/01 A2969 RMK
     AO2 UPB11E16SNE11B21E36 P0000 T00170006=
KSXT 212247Z AUTO VRB05KT 10SM BKN027 BKN032 OVC048 14/08 A2991
     RMK AO2 T01390078=
KMEH 212248Z AUTO 00000KT 3SM -RA BR BKN013 OVC023 06/05 A2973 RMK
     AO2 P0003 T00610050=
