SPUS80 KWBC 212336
SPECI
PATK 212333Z 28003KT 1/4SM FG VV002 01/00 A2984 RMK AO2
     T00060000=
