SPUS70 KWBC 220228
SPECI
PAIK 220225Z AUTO 07004KT 10SM BKN006 OVC014 01/01 A2977 RMK AO2
     CIG 004V010 FZRANO=
KVUO 220224Z AUTO 13003KT 2 1/2SM -RA BR SCT008 OVC014 10/08 A2964
     RMK AO2 RAE0155B15 P0001 T01000083=
