SPUS70 KWBC 220236
SPECI
PAPB 220232Z AUTO 20005KT 6SM HZ BKN019 06/ A2995 RMK AO2 T0061
     TSNO $=
PASA 220233Z AUTO 22012KT 10SM UP SCT015 BKN024 BKN035 03/01 A2966
     RMK AO2 UPB24 P0000=
PAWS 220233Z AUTO 00000KT 10SM OVC005 01/01 A2989 RMK AO2
     FZRANO=
PAPB 220232Z AUTO 20005KT 6SM HZ BKN019 06/ A2995 RMK AO2 T0061
     TSNO $=
PAHX 220234Z AUTO 21004KT 10SM BKN016 OVC042 03/03 A2986 RMK
     AO2=
PATQ 220234Z AUTO 10016KT 10SM OVC008 M04/M06 A2981 RMK AO2 CIG
     007V011 FZRANO TSNO=
PATQ 220234Z AUTO 10016KT 10SM OVC008 M04/M06 A2981 RMK AO2 CIG
     007V011 FZRANO TSNO=
KDEW 220233Z AUTO 15003KT 7SM FEW003 BKN015 OVC041 04/04 A2962 RMK
     AO2 T00440039=
KSPB 220233Z AUTO 17004KT 2 1/2SM -RA BR BKN005 OVC011 09/09 A2961
     RMK AO2 CIG 003V007 P0001 T00940089=
