SPUS80 KWBC 220106
SPECI
KSCK 220102Z 34004KT 2 1/2SM HZ CLR 23/10 A2977 RMK AO2
     T02280100=
