SPUS70 KWBC 212250
SPECI
KCGI 212246Z AUTO 18010KT 8SM FU FEW007 24/08 A2984 RMK AO2
     T02390083=
KVUO 212246Z AUTO 00000KT 2SM -RA BR FEW007 FEW012 OVC035 09/08
     A2980 RMK AO2 P0008 T00940078=
PALH 212246Z 32003KT 1/4SM FG VV002 02/02 A2984 RMK AO2 TWR VIS
     1/2 T00220022=
