SPUS80 KWBC 212338
SPECI
KPDX 212335Z 11003KT 1 1/2SM +RA BR BKN005 OVC020 10/08 A2976 RMK
     AO2 TWR VIS 2 P0006 T01000083=
