SPUS70 KWBC 220014
SPECI
PAIG 220011Z AUTO 22012KT 10SM FEW027 OVC033 07/02 A2996 RMK AO2
     $=
KYKN 220012Z AUTO 16004KT 1 3/4SM HZ CLR 17/02 A2959 RMK AO2=
