SPUS70 KWBC 220000
SPECI
KEYW 212356Z 36010KT 10SM SCT046 BKN055 23/18 A2998 RMK AO2
     T02330178=
