SPUS80 KWBC 212324
SPECI
KAST 212321Z AUTO 13007KT 1 3/4SM RA BR FEW012 OVC027 11/09 A2969
     RMK AO2 P0004 T01060094=
