SPUS70 KWBC 220154
SPECI
PASD 220151Z 21003KT 10SM FEW030 SCT038 OVC090 08/02 A3011 RMK AO2
     PNO $=
KMMV 220151Z AUTO 16006KT 4SM -RA BR OVC004 09/08 A2964 RMK AO2
     P0002=
PALG 220152Z AUTO VRB06KT 10SM SCT022 SCT045 OVC120 04/01 A2989
     RMK AO2=
