SPUS70 KWBC 220126
SPECI
PAIK 220123Z AUTO 10006KT 10SM BKN012 BKN021 OVC038 01/01 A2977
     RMK AO2 FZRANO=
KCOE 220123Z AUTO 16007KT 10SM -RA BKN010 OVC019 04/03 A2965 RMK
     AO2 PNO $=
PARY 220124Z AUTO 09003KT 2SM -RA BR FEW002 OVC008 01/00 A2981 RMK
     AO2 VIS 3/4V5 RAE00B17 CIG 007V013 P0000 FZRANO=
PASC 220123Z 09019KT 3SM -SN BLSN SCT011 SCT022 OVC060 M03/M05
     A2986 RMK AO2 SNB02 P0000 T10331050=
PAUN 220124Z AUTO 19009KT 10SM FEW010 OVC016 03/01 A2979 RMK AO2
     RAE16 P0001=
KPUW 220123Z AUTO 12004KT 3SM RA BR BKN008 OVC023 05/05 A2967 RMK
     AO2 P0005 T00500050=
