SPUS70 KWBC 220148
SPECI
KRNT 220144Z 11003KT 6SM -RA BR BKN014 OVC023 09/08 A2970 RMK AO2
     P0004 T00940083=
PAIK 220146Z AUTO 08006KT 10SM BKN004 OVC012 01/01 A2977 RMK AO2
     FZRANO=
PAKK 220146Z AUTO 24003KT 1SM -SN BR OVC012 00/M01 A2971 RMK AO2
     UPB33E37SNE33B37 P0008 FZRANO=
PFYU 220146Z 00000KT 8SM UP BKN006 OVC017 M03/M04 A2988 RMK AO2
     UPB43FZRAE01FZDZB01E40 P0000=
PAKK 220146Z AUTO 24003KT 1SM -SN BR OVC012 00/M01 A2971 RMK AO2
     UPB33E37SNE33B37 P0008 FZRANO=
