SPUS70 KWBC 212318
SPECI
KDEW 212315Z AUTO 16006KT 5SM -RA BR BKN005 BKN009 OVC015 04/03
     A2967 RMK AO2 CIG 003V007 P0002 T00390033=
KPUW 212315Z AUTO 23012G20KT 9SM -RA BKN029 OVC046 06/03 A2972 RMK
     AO2 P0000 T00560033=
