SPUS80 KWBC 220050
SPECI
PAYA 220046Z AUTO 07004KT 10SM FEW020 SCT028 BKN036 07/04 A2968
     RMK AO2 RAB13E22 P0000 T00670044 TSNO $=
KGPI 220047Z 15009KT 10SM FEW021 BKN030 OVC038 05/04 A2960 RMK AO2
     RAE41 P0002 T00500039=
