SPUS80 KWBC 220034
SPECI
PADK 220032Z AUTO 00000KT BKN014 OVC023 06/05 A2995 RMK AO2 P0001
     PWINO $=
PADK 220032Z AUTO 00000KT BKN014 OVC023 06/05 A2995 RMK AO2 P0001
     PWINO $=
