SPUS70 KWBC 212300
SPECI
PASC 212251Z 09019G22KT 5SM BLSN BKN011 OVC033 M03/M05 A2984 RMK
     AO2=
