SPUS70 KWBC 220038
SPECI
PAAK 220035Z AUTO 00000KT 10SM -RA FEW022 SCT027 OVC035 A2997 RMK
     AO2 P0000 FZRANO $=
KPDT 220034Z 16011KT 6SM -RA BR BKN003 BKN027 OVC035 08/07 A2971
     RMK AO2 P0001 T00780067=
PAAK 220035Z AUTO 00000KT 10SM -RA FEW022 SCT027 OVC035 A2997 RMK
     AO2 P0000 FZRANO $=
PARY 220036Z AUTO 07003KT 1 1/4SM -RA BR BKN010 OVC020 01/00 A2980
     RMK AO2 VIS 1/2V5 CIG 007V012 P0000 FZRANO=
