SPUS70 KWBC 220040
SPECI
KMMV 220037Z AUTO 11005KT 4SM -RA BR BKN005 OVC014 09/08 A2971 RMK
     AO2 CIG 003V008 P0001 T00890083=
