SPUS80 KWBC 212312
SPECI
KMSO 212309Z 00000KT 6SM -RA OVC028 08/05 A2966 RMK AO2 P0001
     T00780050=
KUIL 212309Z AUTO 33004KT 5SM -RA BR BKN019 BKN037 OVC045 09/09
     A2975 RMK AO2 P0002 T00940089=
