SPUS70 KWBC 220132
SPECI
PANI 220129Z AUTO 25008KT 10SM SCT021 BKN027 BKN040 04/01 A2993
     RMK AO2 RAB02E17 P0000 $=
PARC 220129Z AUTO 29005KT 10SM SCT007 M11/M13 A2975 RMK AO2
     FZRANO=
KCEC 220128Z AUTO 16007KT 5SM -RA OVC017 14/12 A2990 RMK AO2 RAB03
     P0001 T01440117=
PANI 220129Z AUTO 25008KT 10SM SCT021 BKN027 BKN040 04/01 A2993
     RMK AO2 RAB02E17 P0000 $=
