SPUS80 KWBC 220212
SPECI
KHVR 220208Z AUTO 22005KT -RA BKN007 OVC011 07/07 A2953 RMK AO2
     P0001 T00670067 $=
KSXT 220208Z AUTO 23006KT 9SM -RA BKN005 BKN011 OVC060 11/09 A2983
     RMK AO2 P0000 T01060094=
PASN 220208Z AUTO 21012KT 10SM SCT024 BKN036 OVC055 07/04 A2993
     RMK AO2 T00720039 TSNO=
PANN 220209Z AUTO 00000KT 2 1/2SM -SN BR BKN003 BKN014 OVC020
     00/M01 A2986 RMK AO2 UPE00SNB00 P0000 T00001006 TSNO=
