SPUS70 KWBC 220206
SPECI
KBOK 220203Z AUTO 12004KT 2SM -RA BR BKN006 OVC012 12/12 A2988 RMK
     AO2 CIG 004V008 P0000 $=
