SPUS80 KWBC 220032
SPECI
KSXT 220029Z AUTO 00000KT 10SM BKN007 BKN014 OVC040 12/09 A2988
     RMK AO2 T01220094=
