SPUS70 KWBC 220248
SPECI
KAVX 220244Z AUTO 00000KT 7SM FEW002 14/12 A2990 RMK AO2
     T01440117=
KHLG 220245Z AUTO 15005KT 10SM FEW002 11/M01 A3006 RMK AO2
     T01111011=
KGFA 220244Z AUTO 01006KT 10SM -RA FEW042 BKN050 OVC120 06/06
     A2952 RMK AO2 RAE30RAB44 SLP006 $=
