SPUS80 KWBC 220048
SPECI
KBZN 220045Z 27013KT 10SM -RA BKN060 OVC075 11/04 A2954 RMK AO2
     RAE01B35 P0000 T01110039=
