SPUS70 KWBC 220008
SPECI
KPDT 220004Z 15009KT 4SM -RA BR FEW028 OVC037 08/06 A2972 RMK AO2
     P0001 T00780061=
PARY 220006Z AUTO 06003KT 3/4SM -RA BR SCT009 BKN012 OVC020 01/00
     A2980 RMK AO2 P0000 FZRANO=
KEAT 220005Z AUTO 31009KT 2SM HZ CLR 12/01 A2961 RMK AO2
     T01220011=
KGGW 220005Z AUTO 07007KT 10SM SCT021 OVC028 09/04 A2955 RMK AO2
     T00890044=
