SPUS80 KWBC 212248
SPECI
PAOM 212244Z 21013KT 10SM FEW010 SCT015 OVC040 04/02 A2966 RMK AO2
     WSHFT 2230 RAB2158E27 CIG 024 NE P0000 T00390017=
KMSO 212245Z VRB03KT 9SM -RA OVC033 08/04 A2966 RMK AO2 RAB04
     P0001 T00830044=
