SPUS70 KWBC 220002
SPECI
KMCW 220000Z AUTO 00000KT 4SM HZ CLR 12/01 A2964 RMK AO2
     T01170011=
