SPUS80 KWBC 212310
SPECI
PADG 212307Z 11011KT 10SM SCT018 BKN0023 OVC050 /M01 A2965=
PANC 212307Z 29003KT 1/2SM R07R/1800VP6000FT FG BKN000 02/02 A2984
     RMK AO2 T00220022=
