SPUS80 KWBC 220206
SPECI
KAST 220202Z AUTO 05014KT 2SM RA BR FEW007 OVC017 10/09 A2960 RMK
     AO2 P0003 T01000089=
KMYL 220202Z AUTO 07003KT 10SM -RA SCT028 OVC037 06/02 A2965 RMK
     AO2 P0000 T00560017=
